{"type":"FeatureCollection","features":[{"type":"Feature","properties":{"source_fid":1084766,"county":"Galway","bog_geom_ha":142.21497401760547,"low15_pct":91.031390134529147,"low15_ha":129.4602678276857,"overlay_ha":128.76681677570065,"area_delta":-0.69345105198505053},"geometry":{"type":"MultiPolygon","coordinates":[[[[-9.489472,53.344119],[-9.489509,53.344124],[-9.489637,53.34383],[-9.48952,53.343751],[-9.489468,53.343683],[-9.489409,53.343626],[-9.489366,53.343581],[-9.48936,53.343571],[-9.488736,53.343579],[-9.488705,53.342681],[-9.485703,53.342718],[-9.485672,53.34182],[-9.487122,53.341802],[-9.487108,53.341373],[-9.487158,53.341373],[-9.487111,53.340005],[-9.488611,53.339986],[-9.488522,53.337433],[-9.488504,53.337439],[-9.488402,53.337391],[-9.488323,53.337335],[-9.488312,53.337314],[-9.488299,53.337314],[-9.482676,53.33813],[-9.482655,53.338212],[-9.482402,53.338465],[-9.482263,53.338679],[-9.482129,53.338971],[-9.48211,53.339169],[-9.482577,53.339163],[-9.48259,53.33954],[-9.48279,53.339609],[-9.482846,53.339693],[-9.482954,53.339728],[-9.483008,53.339721],[-9.483036,53.33978],[-9.482957,53.339806],[-9.48297,53.339854],[-9.482918,53.339919],[-9.482849,53.34005],[-9.482699,53.340178],[-9.482408,53.340309],[-9.482106,53.340465],[-9.482007,53.340473],[-9.481885,53.340507],[-9.481843,53.340496],[-9.481786,53.340528],[-9.481404,53.340562],[-9.481213,53.340557],[-9.480987,53.340564],[-9.480746,53.340584],[-9.480644,53.340608],[-9.480629,53.340641],[-9.480521,53.3406],[-9.480384,53.340616],[-9.480242,53.340606],[-9.480061,53.340589],[-9.479885,53.340598],[-9.479714,53.340613],[-9.479664,53.340609],[-9.479658,53.340556],[-9.479591,53.340463],[-9.479478,53.340354],[-9.479444,53.340341],[-9.479381,53.340286],[-9.479326,53.340214],[-9.479331,53.340163],[-9.479361,53.340101],[-9.478106,53.340117],[-9.478102,53.339994],[-9.474911,53.340201],[-9.473695,53.340217],[-9.472073,53.340508],[-9.470284,53.34091],[-9.470376,53.341097],[-9.470379,53.341097],[-9.470479,53.341132],[-9.470624,53.341262],[-9.470665,53.341353],[-9.470658,53.341427],[-9.470627,53.341467],[-9.470595,53.341479],[-9.470416,53.341602],[-9.470394,53.341624],[-9.47023,53.341677],[-9.470183,53.341691],[-9.469926,53.341757],[-9.469648,53.341719],[-9.469103,53.341862],[-9.469122,53.342405],[-9.469572,53.342399],[-9.469581,53.342669],[-9.469591,53.342938],[-9.46869,53.342949],[-9.468699,53.343219],[-9.468718,53.343758],[-9.469168,53.343753],[-9.469177,53.344022],[-9.469628,53.344016],[-9.469637,53.344286],[-9.470087,53.34428],[-9.470097,53.34455],[-9.470997,53.344539],[-9.471007,53.344808],[-9.471016,53.345078],[-9.469665,53.345095],[-9.469656,53.344825],[-9.469205,53.344831],[-9.469214,53.3451],[-9.468764,53.345106],[-9.468773,53.345375],[-9.468323,53.345381],[-9.468342,53.34592],[-9.468792,53.345914],[-9.468801,53.346184],[-9.46881,53.346453],[-9.46836,53.346459],[-9.468369,53.346728],[-9.468379,53.346998],[-9.467027,53.347014],[-9.467018,53.346745],[-9.465667,53.346762],[-9.465658,53.346492],[-9.465207,53.346498],[-9.465226,53.347037],[-9.464775,53.347042],[-9.464757,53.346503],[-9.464756,53.346491],[-9.464287,53.346505],[-9.463412,53.346506],[-9.463402,53.346506],[-9.463296,53.346518],[-9.463243,53.346612],[-9.463182,53.346706],[-9.462996,53.346749],[-9.462832,53.346752],[-9.462756,53.346719],[-9.462609,53.346299],[-9.462546,53.346119],[-9.462503,53.346081],[-9.462241,53.346076],[-9.461057,53.346018],[-9.460492,53.345898],[-9.460451,53.345992],[-9.460435,53.346121],[-9.460357,53.346241],[-9.460326,53.346288],[-9.460694,53.346283],[-9.460703,53.346553],[-9.461154,53.346547],[-9.461163,53.346817],[-9.461613,53.346811],[-9.461623,53.347081],[-9.462073,53.347075],[-9.462082,53.347345],[-9.462533,53.347339],[-9.462542,53.347609],[-9.461191,53.347625],[-9.461181,53.347356],[-9.460281,53.347367],[-9.46029,53.347636],[-9.459389,53.347647],[-9.459385,53.347535],[-9.459352,53.347579],[-9.459295,53.347647],[-9.459223,53.347711],[-9.459112,53.347822],[-9.458888,53.348071],[-9.458768,53.348194],[-9.458957,53.348192],[-9.458966,53.348461],[-9.458516,53.348467],[-9.458525,53.348736],[-9.458975,53.348731],[-9.458985,53.349],[-9.458084,53.349011],[-9.458102,53.349551],[-9.458553,53.349545],[-9.458562,53.349815],[-9.458571,53.350084],[-9.458121,53.35009],[-9.458111,53.34982],[-9.457661,53.349826],[-9.457658,53.349754],[-9.457607,53.349852],[-9.457573,53.349916],[-9.457529,53.349946],[-9.457529,53.349946],[-9.457529,53.349946],[-9.457287,53.350061],[-9.457041,53.35018],[-9.456891,53.350249],[-9.456823,53.350279],[-9.456628,53.350353],[-9.45642,53.350404],[-9.456373,53.35043],[-9.456251,53.350556],[-9.456079,53.350725],[-9.455958,53.350858],[-9.455908,53.350934],[-9.455941,53.350937],[-9.456003,53.350945],[-9.456062,53.350955],[-9.456121,53.350968],[-9.456177,53.350985],[-9.45623,53.351003],[-9.456256,53.351014],[-9.456301,53.351033],[-9.456304,53.351034],[-9.456307,53.351035],[-9.456308,53.351036],[-9.456422,53.351085],[-9.456472,53.351108],[-9.456518,53.351134],[-9.456559,53.351161],[-9.456597,53.351191],[-9.456659,53.351224],[-9.456706,53.351248],[-9.45675,53.351275],[-9.456809,53.351281],[-9.456868,53.351271],[-9.456929,53.351264],[-9.456991,53.351261],[-9.457053,53.35126],[-9.457116,53.351262],[-9.457177,53.351268],[-9.457238,53.351276],[-9.457255,53.351279],[-9.457323,53.351291],[-9.457382,53.351304],[-9.457439,53.351319],[-9.457494,53.351336],[-9.457546,53.351357],[-9.457559,53.351363],[-9.457616,53.351388],[-9.457646,53.351403],[-9.457675,53.351418],[-9.457701,53.351433],[-9.457747,53.351461],[-9.457846,53.351481],[-9.457908,53.351478],[-9.45797,53.351479],[-9.458032,53.351482],[-9.458093,53.351488],[-9.458109,53.35149],[-9.458165,53.351498],[-9.458225,53.351508],[-9.458284,53.351521],[-9.45834,53.351537],[-9.458394,53.351555],[-9.458417,53.351565],[-9.458459,53.351582],[-9.458492,53.351596],[-9.458522,53.351611],[-9.458551,53.351626],[-9.458612,53.351661],[-9.458634,53.351674],[-9.458655,53.351687],[-9.458674,53.3517],[-9.458744,53.35175],[-9.458782,53.35178],[-9.458815,53.351811],[-9.458845,53.351844],[-9.458851,53.351852],[-9.458871,53.351879],[-9.458932,53.351927],[-9.458979,53.351952],[-9.459,53.351965],[-9.459003,53.351966],[-9.459086,53.351965],[-9.459088,53.352023],[-9.45911,53.352041],[-9.45922,53.352136],[-9.45926,53.352158],[-9.459292,53.352177],[-9.459322,53.352196],[-9.459349,53.352216],[-9.459369,53.352231],[-9.459996,53.352224],[-9.460004,53.352449],[-9.460013,53.352453],[-9.460066,53.352473],[-9.460109,53.352492],[-9.460456,53.352488],[-9.460465,53.352757],[-9.460474,53.353027],[-9.460478,53.353134],[-9.460492,53.353163],[-9.460504,53.353199],[-9.460521,53.353233],[-9.460561,53.353262],[-9.460596,53.353292],[-9.460627,53.353324],[-9.460654,53.353358],[-9.460676,53.353393],[-9.460693,53.353429],[-9.460697,53.35344],[-9.460705,53.353464],[-9.460716,53.353501],[-9.460721,53.353538],[-9.460721,53.353575],[-9.460716,53.353612],[-9.46071,53.353638],[-9.4607,53.353669],[-9.460686,53.353705],[-9.460668,53.353741],[-9.460659,53.353784],[-9.460684,53.353818],[-9.460705,53.353852],[-9.460721,53.353888],[-9.460732,53.353925],[-9.460738,53.353962],[-9.460739,53.353999],[-9.460735,53.354036],[-9.460725,53.354073],[-9.460711,53.354109],[-9.460709,53.354111],[-9.460709,53.354111],[-9.460714,53.354112],[-9.461086,53.354236],[-9.461573,53.354409],[-9.461624,53.354419],[-9.462086,53.354291],[-9.463284,53.353912],[-9.463336,53.353899],[-9.463336,53.353899],[-9.46362,53.353828],[-9.464407,53.35357],[-9.464536,53.353532],[-9.465014,53.353394],[-9.465014,53.353394],[-9.465014,53.353394],[-9.465584,53.353206],[-9.465938,53.353124],[-9.466722,53.352885],[-9.467542,53.35263],[-9.467854,53.352532],[-9.468319,53.352385],[-9.468413,53.352355],[-9.46878,53.352243],[-9.469156,53.352117],[-9.469243,53.352088],[-9.469261,53.35203],[-9.469272,53.351985],[-9.469415,53.351414],[-9.469489,53.35095],[-9.469502,53.35091],[-9.469522,53.35088],[-9.469607,53.350831],[-9.470183,53.350489],[-9.470566,53.350264],[-9.47063,53.350226],[-9.470848,53.350098],[-9.470975,53.350037],[-9.47117,53.349956],[-9.471564,53.349786],[-9.471761,53.349683],[-9.471963,53.349595],[-9.472102,53.349558],[-9.472342,53.349523],[-9.47239,53.349516],[-9.472703,53.349476],[-9.472896,53.349436],[-9.472962,53.349444],[-9.472962,53.349444],[-9.472992,53.349413],[-9.472884,53.349199],[-9.472794,53.349023],[-9.47274,53.348916],[-9.472553,53.348528],[-9.472544,53.348492],[-9.472585,53.348434],[-9.472735,53.348291],[-9.472797,53.348203],[-9.47281,53.348162],[-9.4728,53.348114],[-9.472737,53.348037],[-9.472723,53.347988],[-9.47275,53.347925],[-9.472759,53.347874],[-9.472741,53.347827],[-9.472683,53.34777],[-9.472647,53.347729],[-9.472626,53.347687],[-9.472616,53.347627],[-9.472625,53.347573],[-9.472655,53.347513],[-9.472714,53.347358],[-9.472783,53.347239],[-9.472819,53.347144],[-9.47284,53.347035],[-9.472836,53.346964],[-9.472818,53.346895],[-9.472831,53.346859],[-9.472898,53.346789],[-9.47298,53.346716],[-9.473011,53.346667],[-9.473068,53.346621],[-9.473068,53.346621],[-9.473068,53.346621],[-9.473167,53.346575],[-9.473273,53.346542],[-9.473323,53.346512],[-9.473341,53.346489],[-9.473353,53.346436],[-9.473358,53.346378],[-9.473368,53.346286],[-9.473404,53.346194],[-9.473457,53.34612],[-9.473531,53.346038],[-9.473617,53.345974],[-9.473617,53.345974],[-9.473617,53.345974],[-9.473714,53.345915],[-9.473739,53.345879],[-9.473748,53.345841],[-9.473765,53.345814],[-9.473765,53.345814],[-9.473765,53.345814],[-9.473798,53.345806],[-9.473908,53.345778],[-9.473966,53.345743],[-9.474008,53.345693],[-9.474042,53.345624],[-9.47407,53.345592],[-9.474138,53.345537],[-9.474138,53.345537],[-9.474138,53.345537],[-9.474276,53.345453],[-9.474349,53.345434],[-9.474467,53.345411],[-9.474616,53.345411],[-9.474728,53.345416],[-9.474828,53.345409],[-9.474882,53.345382],[-9.474903,53.345352],[-9.474923,53.345305],[-9.474923,53.345305],[-9.474923,53.345305],[-9.47497,53.345282],[-9.475083,53.345233],[-9.475167,53.345187],[-9.47537,53.345079],[-9.475725,53.344883],[-9.475955,53.344734],[-9.475955,53.344734],[-9.475955,53.344734],[-9.476133,53.344633],[-9.476153,53.344622],[-9.47623,53.34458],[-9.476273,53.344557],[-9.476285,53.34455],[-9.476313,53.344519],[-9.476319,53.34449],[-9.476309,53.344443],[-9.476255,53.344393],[-9.47623,53.344349],[-9.476236,53.344324],[-9.476258,53.344301],[-9.476258,53.344301],[-9.476258,53.344301],[-9.476364,53.344264],[-9.476369,53.344243],[-9.476458,53.344202],[-9.476619,53.344126],[-9.477272,53.343861],[-9.478237,53.343469],[-9.478497,53.343383],[-9.478499,53.343383],[-9.478548,53.343388],[-9.478694,53.343416],[-9.479105,53.34346],[-9.480132,53.343522],[-9.480534,53.343544],[-9.481293,53.343586],[-9.481878,53.343621],[-9.482086,53.343632],[-9.482446,53.343651],[-9.482748,53.343679],[-9.483675,53.343801],[-9.484129,53.343862],[-9.484252,53.343898],[-9.484295,53.34393],[-9.484361,53.343999],[-9.484427,53.344092],[-9.484454,53.344149],[-9.484452,53.344236],[-9.484511,53.344275],[-9.484493,53.344335],[-9.484559,53.344366],[-9.48471,53.344397],[-9.484821,53.344417],[-9.484932,53.344376],[-9.485011,53.344339],[-9.48517,53.344341],[-9.485559,53.34435],[-9.485655,53.344329],[-9.485951,53.344333],[-9.486035,53.344301],[-9.486185,53.344258],[-9.486245,53.34419],[-9.486358,53.344141],[-9.486732,53.344081],[-9.487091,53.343996],[-9.487244,53.344015],[-9.487388,53.344086],[-9.487509,53.344088],[-9.487627,53.344121],[-9.487679,53.344147],[-9.487762,53.344143],[-9.487935,53.3441],[-9.488009,53.344037],[-9.488136,53.344007],[-9.488278,53.344039],[-9.488325,53.344034],[-9.488405,53.343977],[-9.488542,53.343944],[-9.488708,53.343939],[-9.488838,53.343987],[-9.488881,53.343989],[-9.488899,53.34399],[-9.48896,53.343992],[-9.489099,53.344021],[-9.489177,53.344059],[-9.489407,53.344093],[-9.489445,53.344116],[-9.489472,53.344119]],[[-9.458994,53.34927],[-9.458985,53.349],[-9.459435,53.348995],[-9.459444,53.349264],[-9.458994,53.34927]],[[-9.485213,53.3387],[-9.484762,53.338706],[-9.484753,53.338437],[-9.485203,53.338431],[-9.485213,53.3387]],[[-9.470491,53.342927],[-9.470041,53.342933],[-9.470032,53.342663],[-9.470482,53.342658],[-9.470491,53.342927]],[[-9.4737,53.344506],[-9.473709,53.344775],[-9.471457,53.344803],[-9.471448,53.344533],[-9.4737,53.344506]],[[-9.469298,53.347526],[-9.469748,53.34752],[-9.469758,53.34779],[-9.470208,53.347784],[-9.470217,53.348054],[-9.469316,53.348065],[-9.469307,53.347795],[-9.468857,53.347801],[-9.468847,53.347531],[-9.468397,53.347537],[-9.468388,53.347267],[-9.469289,53.347256],[-9.469298,53.347526]],[[-9.46438,53.348665],[-9.46393,53.34867],[-9.463921,53.348401],[-9.464371,53.348395],[-9.46438,53.348665]],[[-9.46348,53.348676],[-9.46393,53.34867],[-9.463939,53.34894],[-9.463489,53.348945],[-9.46348,53.348676]]],[[[-9.458515,53.348437],[-9.458479,53.348467],[-9.458516,53.348467],[-9.458515,53.348437]]],[[[-9.464755,53.346456],[-9.464755,53.346456],[-9.464748,53.346234],[-9.464683,53.346234],[-9.464715,53.346401],[-9.464755,53.346456]]],[[[-9.465232,53.345419],[-9.46517,53.345413],[-9.46517,53.345419],[-9.465232,53.345419]]],[[[-9.466582,53.345402],[-9.466525,53.345507],[-9.46654,53.345942],[-9.46699,53.345936],[-9.466972,53.345397],[-9.466582,53.345402]]]]}}]}
