{"type":"FeatureCollection","features":[{"type":"Feature","properties":{"source_fid":1084446,"county":"Galway","bog_geom_ha":112.09915535897647,"low15_pct":100.0,"low15_ha":112.09915535897647,"overlay_ha":112.09915535897647,"area_delta":0.0},"geometry":{"type":"MultiPolygon","coordinates":[[[[-10.042648,53.420489],[-10.042574,53.420472],[-10.042623,53.420297],[-10.042445,53.42026],[-10.042074,53.420167],[-10.041977,53.420145],[-10.042007,53.420766],[-10.041276,53.420779],[-10.041173,53.421267],[-10.041135,53.421445],[-10.040293,53.421531],[-10.03957,53.421593],[-10.039469,53.421444],[-10.039468,53.421442],[-10.039333,53.421203],[-10.039055,53.420724],[-10.038617,53.420571],[-10.037859,53.420257],[-10.037191,53.419858],[-10.036684,53.419522],[-10.036128,53.419198],[-10.035621,53.418874],[-10.036206,53.418386],[-10.036209,53.418384],[-10.036134,53.418323],[-10.035796,53.41811],[-10.035109,53.417629],[-10.035096,53.417636],[-10.034942,53.417713],[-10.034459,53.417916],[-10.034195,53.418051],[-10.034016,53.418156],[-10.03328,53.418495],[-10.033176,53.418322],[-10.033119,53.41834],[-10.033036,53.418083],[-10.033003,53.418012],[-10.03276,53.418047],[-10.032518,53.418127],[-10.032366,53.418196],[-10.032403,53.418259],[-10.032449,53.418317],[-10.032437,53.418389],[-10.032465,53.418457],[-10.032477,53.418479],[-10.032455,53.418511],[-10.032461,53.418542],[-10.032512,53.418589],[-10.032565,53.418619],[-10.032623,53.418632],[-10.032526,53.418748],[-10.032506,53.418775],[-10.032409,53.418754],[-10.032379,53.418754],[-10.032242,53.418794],[-10.032118,53.41882],[-10.032002,53.418828],[-10.031926,53.41882],[-10.031879,53.41882],[-10.031801,53.418835],[-10.031761,53.418834],[-10.031708,53.418815],[-10.031655,53.418781],[-10.03163,53.418753],[-10.031596,53.418719],[-10.031529,53.418666],[-10.031494,53.418642],[-10.031465,53.41861],[-10.031425,53.418531],[-10.031258,53.418525],[-10.031209,53.418516],[-10.031171,53.418497],[-10.03116,53.418478],[-10.031168,53.418414],[-10.031176,53.418365],[-10.031219,53.418327],[-10.031174,53.418254],[-10.031091,53.418267],[-10.031064,53.418262],[-10.030969,53.4182],[-10.030934,53.418177],[-10.030805,53.418091],[-10.030723,53.41804],[-10.030651,53.417995],[-10.030584,53.417963],[-10.030531,53.417923],[-10.030393,53.417817],[-10.030293,53.417777],[-10.030258,53.417747],[-10.030206,53.417723],[-10.030003,53.417679],[-10.030137,53.41758],[-10.030625,53.41731],[-10.030563,53.417184],[-10.03048,53.417132],[-10.030415,53.417099],[-10.030398,53.417082],[-10.030374,53.417056],[-10.030549,53.416982],[-10.030749,53.416893],[-10.030686,53.416815],[-10.030675,53.416766],[-10.030637,53.416723],[-10.030613,53.416692],[-10.03059,53.416665],[-10.030578,53.416634],[-10.030568,53.416592],[-10.03057,53.416582],[-10.03058,53.416504],[-10.030654,53.41651],[-10.030725,53.416503],[-10.030888,53.416488],[-10.030908,53.416486],[-10.030928,53.416483],[-10.030936,53.416397],[-10.031107,53.416394],[-10.031316,53.416392],[-10.03155,53.416395],[-10.031731,53.416392],[-10.031931,53.416399],[-10.032143,53.416408],[-10.032485,53.416429],[-10.032588,53.416426],[-10.032667,53.416415],[-10.032674,53.416414],[-10.032639,53.416376],[-10.032551,53.416291],[-10.032461,53.416215],[-10.032426,53.416183],[-10.032435,53.416149],[-10.0325,53.416097],[-10.032469,53.416086],[-10.032523,53.415999],[-10.032498,53.415946],[-10.03246,53.415873],[-10.032432,53.415808],[-10.03237,53.415702],[-10.03226,53.415533],[-10.032154,53.415417],[-10.032066,53.41536],[-10.032033,53.415325],[-10.032026,53.41531],[-10.031987,53.41528],[-10.031901,53.415272],[-10.031841,53.415297],[-10.031787,53.415324],[-10.031698,53.415333],[-10.031549,53.415312],[-10.031373,53.415239],[-10.031282,53.41522],[-10.031188,53.415213],[-10.031039,53.415169],[-10.030954,53.415111],[-10.03092,53.415027],[-10.030815,53.41497],[-10.030763,53.414941],[-10.03046,53.41489],[-10.030237,53.414891],[-10.030093,53.414891],[-10.030042,53.414878],[-10.030023,53.414861],[-10.030024,53.414815],[-10.029996,53.414788],[-10.029957,53.414777],[-10.029848,53.41477],[-10.029738,53.414761],[-10.029663,53.414741],[-10.029624,53.414703],[-10.029534,53.414606],[-10.029446,53.414565],[-10.029381,53.414555],[-10.029273,53.414516],[-10.029115,53.414476],[-10.028931,53.414441],[-10.028858,53.414433],[-10.028773,53.414401],[-10.028709,53.414339],[-10.028705,53.414281],[-10.028698,53.414213],[-10.028687,53.414172],[-10.028637,53.41414],[-10.02848,53.414107],[-10.028405,53.414069],[-10.02836,53.414041],[-10.028255,53.413931],[-10.028215,53.413876],[-10.028206,53.413812],[-10.028137,53.413813],[-10.02811,53.41326],[-10.027872,53.413268],[-10.02783,53.413252],[-10.027814,53.413216],[-10.027852,53.413151],[-10.027893,53.413109],[-10.027896,53.413069],[-10.027808,53.41292],[-10.026591,53.412941],[-10.026572,53.412544],[-10.026425,53.412524],[-10.026373,53.412529],[-10.026286,53.412562],[-10.026217,53.412581],[-10.026133,53.412618],[-10.026087,53.412653],[-10.026034,53.412709],[-10.025909,53.412734],[-10.025892,53.412759],[-10.025854,53.412877],[-10.025812,53.412929],[-10.025756,53.412977],[-10.025603,53.413044],[-10.025539,53.413092],[-10.025526,53.413121],[-10.025521,53.413241],[-10.02551,53.413312],[-10.025428,53.413367],[-10.025411,53.41337],[-10.025351,53.41338],[-10.02529,53.413425],[-10.025241,53.41348],[-10.025195,53.413518],[-10.025152,53.413539],[-10.025085,53.413543],[-10.025067,53.413559],[-10.025053,53.413637],[-10.025033,53.413679],[-10.025005,53.413717],[-10.024983,53.413791],[-10.024985,53.413884],[-10.024951,53.413949],[-10.024899,53.414004],[-10.024857,53.414058],[-10.024829,53.414173],[-10.024744,53.414239],[-10.024732,53.414466],[-10.024686,53.414565],[-10.024646,53.414653],[-10.024594,53.414737],[-10.024699,53.414997],[-10.024743,53.415166],[-10.024733,53.415202],[-10.024712,53.415273],[-10.024742,53.415356],[-10.024759,53.415491],[-10.024725,53.415556],[-10.024667,53.415656],[-10.024666,53.41567],[-10.024671,53.415731],[-10.024689,53.415754],[-10.024661,53.415767],[-10.02473,53.415851],[-10.024718,53.416027],[-10.02463,53.416193],[-10.024597,53.416336],[-10.02458,53.41646],[-10.024557,53.416501],[-10.024513,53.416633],[-10.02404,53.416953],[-10.02338,53.417113],[-10.0232,53.417159],[-10.022655,53.417301],[-10.021748,53.41749],[-10.021227,53.417614],[-10.021205,53.417619],[-10.021432,53.417824],[-10.021676,53.417955],[-10.021774,53.418123],[-10.02193,53.418186],[-10.022164,53.418187],[-10.022351,53.418217],[-10.022628,53.418243],[-10.022913,53.418323],[-10.023307,53.418407],[-10.023425,53.418421],[-10.02355,53.418428],[-10.023707,53.418427],[-10.023872,53.418423],[-10.023978,53.418408],[-10.024019,53.418417],[-10.024047,53.418437],[-10.024054,53.418463],[-10.023991,53.418483],[-10.023948,53.418512],[-10.023886,53.418548],[-10.023863,53.418577],[-10.023874,53.418596],[-10.023862,53.418625],[-10.023853,53.418669],[-10.023889,53.418674],[-10.023924,53.418691],[-10.023979,53.418711],[-10.02401,53.418734],[-10.024021,53.418751],[-10.023985,53.418768],[-10.02396,53.41879],[-10.023922,53.418801],[-10.023914,53.418841],[-10.023891,53.418869],[-10.023851,53.418876],[-10.023811,53.418902],[-10.023771,53.418936],[-10.023713,53.418947],[-10.02361,53.418959],[-10.023569,53.418964],[-10.0235,53.41906],[-10.02342,53.419135],[-10.023305,53.419184],[-10.023257,53.419202],[-10.023214,53.419236],[-10.023077,53.419307],[-10.02303,53.419361],[-10.023024,53.419392],[-10.023047,53.419415],[-10.023097,53.419457],[-10.023141,53.419476],[-10.023177,53.419509],[-10.023242,53.419601],[-10.023296,53.419642],[-10.02332,53.419669],[-10.023364,53.419726],[-10.023349,53.41973],[-10.023296,53.419745],[-10.023267,53.4198],[-10.02329,53.419811],[-10.02334,53.419813],[-10.023366,53.419825],[-10.023394,53.419804],[-10.023429,53.419802],[-10.023462,53.41979],[-10.023503,53.419803],[-10.023548,53.419824],[-10.023622,53.419844],[-10.02372,53.419854],[-10.023766,53.419847],[-10.023914,53.419801],[-10.023956,53.419736],[-10.023898,53.419702],[-10.023879,53.419651],[-10.023949,53.419646],[-10.024092,53.419677],[-10.024254,53.419711],[-10.024307,53.419671],[-10.024352,53.419644],[-10.024291,53.419635],[-10.024228,53.419615],[-10.024323,53.419602],[-10.02439,53.419608],[-10.024441,53.419632],[-10.024447,53.419661],[-10.02441,53.41971],[-10.024359,53.41978],[-10.024356,53.419816],[-10.024403,53.419816],[-10.024438,53.419806],[-10.024472,53.419781],[-10.024497,53.41979],[-10.024575,53.41974],[-10.024557,53.419717],[-10.024605,53.419709],[-10.024663,53.419672],[-10.024674,53.419657],[-10.024688,53.419635],[-10.02478,53.41963],[-10.024789,53.419651],[-10.024817,53.419672],[-10.024876,53.419715],[-10.024876,53.419745],[-10.024887,53.419784],[-10.024927,53.419789],[-10.024971,53.419817],[-10.024983,53.419845],[-10.024997,53.419883],[-10.02504,53.419934],[-10.025064,53.420015],[-10.025047,53.420074],[-10.02502,53.420122],[-10.025038,53.420142],[-10.02508,53.420161],[-10.025103,53.420184],[-10.025134,53.420203],[-10.025161,53.420234],[-10.025263,53.420256],[-10.025303,53.420265],[-10.025367,53.420271],[-10.025414,53.420302],[-10.025406,53.420334],[-10.02541,53.420424],[-10.025388,53.420449],[-10.025373,53.420471],[-10.025388,53.420475],[-10.025451,53.420456],[-10.02548,53.420439],[-10.025555,53.420433],[-10.025581,53.420446],[-10.025592,53.420464],[-10.025636,53.420491],[-10.025667,53.420504],[-10.025775,53.420469],[-10.025799,53.420448],[-10.025796,53.420424],[-10.02577,53.420409],[-10.025684,53.420409],[-10.025653,53.420389],[-10.025672,53.420369],[-10.025704,53.420347],[-10.025733,53.420321],[-10.025791,53.420316],[-10.025868,53.420319],[-10.025967,53.42031],[-10.026041,53.420288],[-10.026071,53.420254],[-10.026053,53.420216],[-10.02608,53.420187],[-10.026108,53.420153],[-10.026084,53.42014],[-10.026085,53.420108],[-10.026121,53.420082],[-10.026155,53.420087],[-10.026197,53.420099],[-10.02624,53.420083],[-10.026256,53.420118],[-10.02629,53.420098],[-10.026286,53.420071],[-10.026324,53.420058],[-10.026359,53.420031],[-10.026393,53.420014],[-10.026415,53.420043],[-10.026387,53.420072],[-10.0264,53.420092],[-10.026456,53.420133],[-10.026503,53.420149],[-10.026557,53.42014],[-10.026614,53.420128],[-10.02668,53.420136],[-10.026735,53.420128],[-10.026803,53.42009],[-10.026935,53.420028],[-10.026994,53.420006],[-10.027053,53.420003],[-10.027121,53.41999],[-10.027144,53.419968],[-10.027242,53.419963],[-10.027272,53.41997],[-10.027302,53.419995],[-10.027358,53.420026],[-10.027402,53.420033],[-10.02755,53.420043],[-10.027595,53.420059],[-10.027659,53.42012],[-10.027685,53.420148],[-10.027771,53.420142],[-10.027802,53.420144],[-10.027863,53.420152],[-10.027951,53.420162],[-10.027998,53.420165],[-10.027992,53.420129],[-10.028022,53.42014],[-10.028063,53.420167],[-10.028107,53.42019],[-10.02813,53.420212],[-10.028138,53.420247],[-10.02813,53.420275],[-10.02809,53.420328],[-10.028036,53.420368],[-10.028033,53.420426],[-10.028066,53.420444],[-10.028172,53.420482],[-10.028326,53.420578],[-10.028392,53.420594],[-10.028444,53.420608],[-10.02845,53.420632],[-10.028427,53.420657],[-10.0284,53.420687],[-10.028367,53.420721],[-10.028325,53.420744],[-10.028258,53.420758],[-10.028228,53.420781],[-10.028184,53.420808],[-10.028142,53.420827],[-10.028066,53.420847],[-10.027998,53.420869],[-10.027979,53.420893],[-10.027945,53.420899],[-10.027915,53.420916],[-10.027924,53.420953],[-10.027971,53.420972],[-10.028035,53.420975],[-10.028084,53.420987],[-10.028101,53.421009],[-10.028131,53.421065],[-10.028383,53.421113],[-10.028463,53.421131],[-10.028498,53.421134],[-10.02859,53.421153],[-10.028651,53.421189],[-10.028727,53.421198],[-10.028753,53.421211],[-10.028767,53.421239],[-10.028737,53.42128],[-10.028736,53.421307],[-10.028773,53.421335],[-10.028813,53.421357],[-10.02887,53.421357],[-10.028921,53.421351],[-10.028944,53.421369],[-10.028907,53.42139],[-10.028899,53.421419],[-10.02889,53.421462],[-10.028844,53.421483],[-10.028819,53.421507],[-10.028764,53.421523],[-10.0287,53.421536],[-10.028658,53.421561],[-10.028641,53.4216],[-10.02861,53.421626],[-10.028565,53.421635],[-10.028512,53.421652],[-10.028487,53.421686],[-10.028461,53.421714],[-10.028434,53.421727],[-10.028392,53.421752],[-10.028354,53.421761],[-10.028404,53.421701],[-10.02842,53.421683],[-10.028398,53.421683],[-10.028368,53.421703],[-10.02832,53.421723],[-10.028289,53.421761],[-10.028239,53.421771],[-10.028174,53.42181],[-10.028132,53.421862],[-10.028091,53.42188],[-10.02796,53.42188],[-10.027919,53.421885],[-10.027897,53.421913],[-10.027858,53.421955],[-10.027834,53.421975],[-10.027837,53.422003],[-10.027855,53.422024],[-10.027866,53.422055],[-10.027962,53.422069],[-10.028038,53.422096],[-10.028146,53.422129],[-10.028185,53.422161],[-10.02818,53.422203],[-10.028171,53.422237],[-10.028192,53.422262],[-10.028174,53.422283],[-10.028127,53.422295],[-10.028132,53.422321],[-10.028156,53.422348],[-10.028109,53.422354],[-10.028059,53.422352],[-10.027998,53.422373],[-10.028161,53.422403],[-10.029588,53.422666],[-10.030269,53.422792],[-10.032176,53.423033],[-10.032181,53.423079],[-10.03223,53.42317],[-10.032412,53.423266],[-10.032525,53.423351],[-10.032612,53.423382],[-10.032686,53.423432],[-10.032717,53.423469],[-10.032752,53.423482],[-10.032772,53.423523],[-10.032797,53.423567],[-10.032822,53.423611],[-10.032865,53.423657],[-10.03292,53.423711],[-10.032946,53.423775],[-10.032908,53.423793],[-10.032896,53.423799],[-10.032892,53.423812],[-10.032869,53.42391],[-10.032915,53.423973],[-10.033021,53.424133],[-10.033043,53.424171],[-10.033059,53.424199],[-10.033155,53.424364],[-10.033271,53.42449],[-10.03344,53.424698],[-10.033483,53.424735],[-10.033467,53.424812],[-10.03351,53.424836],[-10.033512,53.424869],[-10.033513,53.424895],[-10.033483,53.424921],[-10.033454,53.424959],[-10.033426,53.424974],[-10.033385,53.424998],[-10.033407,53.425006],[-10.033416,53.42501],[-10.033452,53.425009],[-10.033499,53.425014],[-10.033566,53.425034],[-10.033594,53.425075],[-10.033596,53.425122],[-10.033581,53.425157],[-10.033549,53.425202],[-10.03355,53.425227],[-10.03355,53.425349],[-10.03355,53.425422],[-10.033528,53.425457],[-10.03346,53.425462],[-10.033393,53.425481],[-10.033177,53.425546],[-10.033062,53.425576],[-10.032958,53.425628],[-10.032887,53.42563],[-10.032878,53.425644],[-10.032908,53.425659],[-10.032934,53.425745],[-10.032929,53.425791],[-10.032895,53.425843],[-10.03281,53.425872],[-10.032807,53.425889],[-10.03281,53.4259],[-10.032846,53.425917],[-10.032879,53.425954],[-10.032891,53.425995],[-10.032889,53.426053],[-10.032856,53.426079],[-10.032801,53.426104],[-10.032738,53.42615],[-10.032624,53.426161],[-10.032534,53.426163],[-10.032434,53.426146],[-10.032418,53.426148],[-10.0324,53.426154],[-10.032338,53.426177],[-10.032308,53.426216],[-10.032255,53.42624],[-10.032198,53.426238],[-10.032108,53.426236],[-10.032068,53.42624],[-10.032032,53.426249],[-10.031956,53.426245],[-10.031853,53.426233],[-10.031745,53.426222],[-10.031743,53.426217],[-10.031723,53.426224],[-10.031676,53.426242],[-10.03163,53.426288],[-10.0316,53.426351],[-10.031547,53.426405],[-10.03143,53.426498],[-10.031344,53.426631],[-10.031291,53.426805],[-10.031139,53.426946],[-10.03106,53.427059],[-10.030976,53.427286],[-10.030967,53.427302],[-10.031506,53.427405],[-10.031883,53.427463],[-10.031964,53.427475],[-10.032107,53.427489],[-10.032126,53.427421],[-10.032161,53.427407],[-10.032236,53.427406],[-10.032295,53.427375],[-10.032327,53.427359],[-10.032369,53.427378],[-10.0324,53.427366],[-10.032394,53.427319],[-10.032468,53.427299],[-10.032471,53.427271],[-10.032523,53.42726],[-10.032634,53.427276],[-10.032663,53.427278],[-10.032695,53.427299],[-10.032735,53.427274],[-10.032763,53.427245],[-10.032855,53.42723],[-10.032897,53.42724],[-10.03292,53.427274],[-10.032921,53.427297],[-10.032935,53.427306],[-10.032914,53.42735],[-10.032969,53.427359],[-10.032996,53.427391],[-10.032996,53.427424],[-10.032975,53.427456],[-10.032965,53.427509],[-10.03297,53.427563],[-10.033012,53.427658],[-10.03303,53.427698],[-10.033009,53.427739],[-10.033004,53.427758],[-10.033054,53.427789],[-10.03303,53.427877],[-10.033078,53.427892],[-10.033159,53.427956],[-10.033233,53.427993],[-10.033269,53.428003],[-10.033329,53.427998],[-10.033379,53.428035],[-10.03336,53.428058],[-10.033426,53.428064],[-10.03348,53.42812],[-10.033476,53.428125],[-10.033583,53.428114],[-10.03385,53.428099],[-10.03386,53.428099],[-10.034049,53.428082],[-10.034051,53.428081],[-10.034072,53.428072],[-10.034095,53.428062],[-10.034096,53.428061],[-10.034194,53.428013],[-10.034249,53.428003],[-10.034425,53.427957],[-10.034567,53.427896],[-10.034649,53.42788],[-10.034945,53.42782],[-10.035171,53.4278],[-10.035493,53.427809],[-10.035482,53.427773],[-10.035594,53.427747],[-10.035794,53.42772],[-10.035884,53.427738],[-10.036052,53.427787],[-10.036162,53.427779],[-10.03628,53.427811],[-10.036339,53.427792],[-10.036359,53.427806],[-10.036339,53.427823],[-10.036332,53.427843],[-10.036363,53.427852],[-10.036404,53.427836],[-10.036444,53.427833],[-10.036496,53.427806],[-10.03651,53.427761],[-10.036605,53.427776],[-10.036673,53.427793],[-10.03668,53.427816],[-10.036731,53.427851],[-10.036768,53.427875],[-10.036816,53.427851],[-10.036843,53.42788],[-10.036895,53.427873],[-10.03689,53.427847],[-10.036914,53.427827],[-10.036899,53.427806],[-10.036909,53.427787],[-10.03691,53.427785],[-10.036937,53.427762],[-10.037003,53.427746],[-10.037041,53.427744],[-10.037119,53.427757],[-10.037196,53.42772],[-10.03726,53.427715],[-10.037339,53.427717],[-10.037401,53.427723],[-10.037427,53.427735],[-10.037482,53.427727],[-10.037537,53.427742],[-10.037588,53.427766],[-10.03767,53.427778],[-10.03772,53.427805],[-10.037773,53.427824],[-10.037812,53.427815],[-10.037831,53.427815],[-10.037798,53.427129],[-10.039202,53.427105],[-10.039178,53.427084],[-10.039205,53.427068],[-10.03934,53.427097],[-10.039382,53.427091],[-10.039436,53.427045],[-10.039518,53.427024],[-10.039475,53.426998],[-10.03944,53.426985],[-10.039362,53.426994],[-10.039309,53.426978],[-10.03927,53.426951],[-10.039235,53.426949],[-10.03925,53.42692],[-10.039241,53.426888],[-10.039259,53.426849],[-10.039336,53.426797],[-10.039366,53.426794],[-10.039401,53.426789],[-10.039403,53.426771],[-10.039447,53.426762],[-10.039473,53.426733],[-10.039456,53.426719],[-10.039446,53.426675],[-10.039463,53.426648],[-10.039523,53.426644],[-10.039578,53.426632],[-10.039604,53.426621],[-10.039653,53.426633],[-10.039719,53.426654],[-10.039745,53.426699],[-10.039762,53.426738],[-10.039744,53.426764],[-10.039732,53.426789],[-10.039766,53.426795],[-10.039808,53.426798],[-10.039878,53.426755],[-10.039899,53.426741],[-10.039967,53.426754],[-10.040021,53.426744],[-10.040054,53.426748],[-10.040077,53.426754],[-10.040144,53.426779],[-10.040191,53.426774],[-10.040239,53.426791],[-10.040256,53.42677],[-10.040223,53.426752],[-10.040175,53.426725],[-10.040161,53.426696],[-10.040145,53.42668],[-10.040097,53.426666],[-10.040069,53.426643],[-10.040116,53.426599],[-10.04016,53.426574],[-10.040171,53.426553],[-10.04022,53.426516],[-10.040298,53.426529],[-10.040315,53.426549],[-10.040262,53.426572],[-10.040272,53.426584],[-10.040367,53.426599],[-10.040437,53.426622],[-10.040496,53.426594],[-10.040545,53.426581],[-10.040556,53.426593],[-10.040594,53.426614],[-10.040598,53.426648],[-10.040631,53.426659],[-10.04068,53.426646],[-10.040703,53.426631],[-10.040745,53.426603],[-10.040792,53.426605],[-10.040811,53.42659],[-10.040919,53.42679],[-10.040964,53.426787],[-10.04097,53.426765],[-10.040987,53.426745],[-10.041022,53.426737],[-10.041073,53.426753],[-10.041123,53.426792],[-10.041159,53.42683],[-10.041213,53.426841],[-10.041259,53.426929],[-10.041324,53.426947],[-10.041391,53.426979],[-10.041419,53.426999],[-10.041489,53.427017],[-10.041577,53.427],[-10.041614,53.427006],[-10.041686,53.427042],[-10.041733,53.427061],[-10.042073,53.427055],[-10.042077,53.427055],[-10.042198,53.427053],[-10.042221,53.427038],[-10.042268,53.427041],[-10.042278,53.427052],[-10.043083,53.427038],[-10.043108,53.427022],[-10.043191,53.426945],[-10.043248,53.426943],[-10.043302,53.42695],[-10.043336,53.426978],[-10.043423,53.427011],[-10.04346,53.426983],[-10.043589,53.426976],[-10.043605,53.427019],[-10.043614,53.427029],[-10.043811,53.427026],[-10.043812,53.427043],[-10.043821,53.427037],[-10.043807,53.426997],[-10.043748,53.426995],[-10.043741,53.426967],[-10.043757,53.426951],[-10.043824,53.426924],[-10.043899,53.426909],[-10.043996,53.426894],[-10.044166,53.426927],[-10.044256,53.426968],[-10.044364,53.426828],[-10.044496,53.426672],[-10.044672,53.426458],[-10.044792,53.42631],[-10.044855,53.426254],[-10.045166,53.425957],[-10.04526,53.425858],[-10.045233,53.425299],[-10.045195,53.425275],[-10.045163,53.425234],[-10.045069,53.42516],[-10.045021,53.42509],[-10.044998,53.425011],[-10.044988,53.424911],[-10.04495,53.424832],[-10.044894,53.42476],[-10.044884,53.4247],[-10.0449,53.424653],[-10.044893,53.424611],[-10.044825,53.424526],[-10.044765,53.424445],[-10.044753,53.424363],[-10.04476,53.424281],[-10.044746,53.424241],[-10.044721,53.424179],[-10.044704,53.424146],[-10.044703,53.424131],[-10.044727,53.42409],[-10.044763,53.424072],[-10.044811,53.424069],[-10.044893,53.424072],[-10.044937,53.424066],[-10.044972,53.424019],[-10.044989,53.423939],[-10.04499,53.423876],[-10.044969,53.423779],[-10.044914,53.423714],[-10.044859,53.423666],[-10.044739,53.423566],[-10.044558,53.423515],[-10.044503,53.423494],[-10.044501,53.423481],[-10.04452,53.423437],[-10.04458,53.423381],[-10.044689,53.423343],[-10.044705,53.423163],[-10.044742,53.423136],[-10.044818,53.423159],[-10.044917,53.423227],[-10.045038,53.423324],[-10.045045,53.423409],[-10.045108,53.42347],[-10.04519,53.423535],[-10.045286,53.423571],[-10.045388,53.423662],[-10.045459,53.423738],[-10.045505,53.423738],[-10.045613,53.42367],[-10.045614,53.423669],[-10.045673,53.423667],[-10.045729,53.423673],[-10.045815,53.423678],[-10.045989,53.423712],[-10.046154,53.423701],[-10.046225,53.423862],[-10.046241,53.423957],[-10.046201,53.424003],[-10.046179,53.424017],[-10.046139,53.424022],[-10.046083,53.424083],[-10.046023,53.424149],[-10.046028,53.424173],[-10.046041,53.424193],[-10.046071,53.424194],[-10.046104,53.424194],[-10.04616,53.424199],[-10.046194,53.424205],[-10.046207,53.424236],[-10.04619,53.424265],[-10.046185,53.424289],[-10.04777,53.424262],[-10.047765,53.424252],[-10.047756,53.424223],[-10.047775,53.424163],[-10.04775,53.424114],[-10.047708,53.424042],[-10.047655,53.424014],[-10.047664,53.423981],[-10.047685,53.423949],[-10.047727,53.423906],[-10.047715,53.423893],[-10.047734,53.423839],[-10.047756,53.423768],[-10.047773,53.423757],[-10.04771,53.423684],[-10.046932,53.423027],[-10.046683,53.422846],[-10.046609,53.422823],[-10.045909,53.422481],[-10.045123,53.422105],[-10.04392,53.421983],[-10.043929,53.421746],[-10.043931,53.421702],[-10.043942,53.421476],[-10.04397,53.421291],[-10.043999,53.421108],[-10.044012,53.421083],[-10.043751,53.420937],[-10.043564,53.420837],[-10.043449,53.420775],[-10.04311,53.420593],[-10.042989,53.420533],[-10.042947,53.420523],[-10.042903,53.420593],[-10.042836,53.420565],[-10.042648,53.420489]],[[-10.024973,53.419441],[-10.024964,53.419414],[-10.024926,53.419372],[-10.02494,53.419328],[-10.024991,53.419308],[-10.025008,53.419261],[-10.024972,53.419247],[-10.024955,53.419214],[-10.024943,53.419156],[-10.024937,53.419114],[-10.024944,53.419089],[-10.024921,53.419072],[-10.024914,53.419033],[-10.0249,53.419008],[-10.024857,53.418982],[-10.024817,53.418957],[-10.024772,53.418946],[-10.02473,53.418939],[-10.024671,53.418969],[-10.024628,53.418968],[-10.024603,53.418947],[-10.024567,53.418889],[-10.024574,53.418863],[-10.024611,53.418834],[-10.024639,53.418851],[-10.024685,53.418834],[-10.024679,53.418818],[-10.024687,53.418796],[-10.024721,53.418801],[-10.024769,53.418778],[-10.024763,53.418752],[-10.02482,53.418737],[-10.02491,53.418701],[-10.024958,53.418668],[-10.024968,53.418641],[-10.025038,53.41858],[-10.025075,53.418575],[-10.025132,53.418548],[-10.025165,53.418544],[-10.025207,53.418546],[-10.025264,53.418541],[-10.025289,53.418568],[-10.025317,53.418612],[-10.025359,53.418604],[-10.025382,53.418655],[-10.025405,53.41867],[-10.025435,53.418667],[-10.025428,53.4187],[-10.025443,53.418719],[-10.025462,53.418746],[-10.025489,53.418755],[-10.025508,53.418791],[-10.025541,53.41881],[-10.025549,53.418835],[-10.025577,53.418841],[-10.025577,53.418872],[-10.025567,53.418895],[-10.025575,53.418919],[-10.025585,53.41897],[-10.025583,53.418996],[-10.025555,53.419055],[-10.025558,53.419083],[-10.025566,53.41911],[-10.025532,53.419154],[-10.025505,53.419177],[-10.025461,53.419242],[-10.025391,53.419304],[-10.025367,53.419324],[-10.02531,53.419363],[-10.025269,53.419399],[-10.02522,53.419428],[-10.025163,53.419454],[-10.025105,53.419466],[-10.025048,53.41947],[-10.025002,53.419457],[-10.024944,53.419463],[-10.024973,53.419441]],[[-10.028265,53.416507],[-10.028222,53.415609],[-10.029725,53.415584],[-10.029768,53.416481],[-10.028265,53.416507]]],[[[-10.01863,53.420766],[-10.01868,53.42074],[-10.018655,53.420753],[-10.01863,53.420766]]],[[[-10.018468,53.420996],[-10.018466,53.420941],[-10.018466,53.420945],[-10.018468,53.420996]]],[[[-10.018367,53.421049],[-10.018397,53.421056],[-10.018425,53.421045],[-10.018427,53.421019],[-10.0184,53.421029],[-10.018353,53.421026],[-10.018367,53.421049]]],[[[-10.019064,53.421213],[-10.019065,53.421258],[-10.019059,53.421281],[-10.019236,53.421265],[-10.019329,53.421262],[-10.01935,53.421236],[-10.019325,53.421229],[-10.019256,53.42123],[-10.019185,53.421252],[-10.019153,53.421241],[-10.019106,53.421212],[-10.019064,53.421213]]],[[[-10.022633,53.421748],[-10.022667,53.421732],[-10.022599,53.421763],[-10.022633,53.421748]]],[[[-10.026952,53.422458],[-10.026981,53.422493],[-10.026966,53.422474],[-10.026952,53.422458]]],[[[-10.027207,53.422484],[-10.027133,53.422525],[-10.027175,53.422502],[-10.027207,53.422484]]]]}}]}
