{"type":"FeatureCollection","features":[{"type":"Feature","properties":{"source_fid":1106094,"county":"Cork","bog_geom_ha":199.38374498861074,"low15_pct":61.106074342701724,"low15_ha":121.8355794400033,"overlay_ha":121.23305253904788,"area_delta":-0.60252690095542505},"geometry":{"type":"MultiPolygon","coordinates":[[[[-9.087772,52.012522],[-9.087773,52.012527],[-9.0882,52.012523],[-9.088193,52.012253],[-9.08863,52.012249],[-9.088623,52.01198],[-9.088617,52.01171],[-9.089054,52.011706],[-9.089047,52.011436],[-9.089484,52.011432],[-9.089478,52.011163],[-9.089471,52.010893],[-9.090345,52.010885],[-9.090338,52.010615],[-9.090332,52.010346],[-9.09033,52.010255],[-9.089926,52.010515],[-9.089529,52.010787],[-9.089224,52.011003],[-9.088989,52.011155],[-9.088754,52.011303],[-9.088181,52.011676],[-9.08787,52.011876],[-9.08785,52.011987],[-9.087792,52.012309],[-9.087772,52.012522]]],[[[-9.090777,52.00996],[-9.090609,52.010074],[-9.091199,52.010068],[-9.091193,52.009798],[-9.092066,52.00979],[-9.092053,52.009251],[-9.092053,52.009234],[-9.092009,52.009255],[-9.091702,52.009407],[-9.091404,52.009572],[-9.091269,52.00965],[-9.091069,52.009768],[-9.090777,52.00996]]],[[[-9.092793,52.008974],[-9.092792,52.008975],[-9.092921,52.008973],[-9.092927,52.009243],[-9.093801,52.009235],[-9.093794,52.008965],[-9.094231,52.008961],[-9.094225,52.008692],[-9.095535,52.008679],[-9.095529,52.00841],[-9.095966,52.008406],[-9.095972,52.008675],[-9.096409,52.008671],[-9.096403,52.008402],[-9.09815,52.008385],[-9.098157,52.008655],[-9.098594,52.008651],[-9.0986,52.008921],[-9.099474,52.008912],[-9.099468,52.008643],[-9.101215,52.008626],[-9.101222,52.008896],[-9.102096,52.008888],[-9.102102,52.009158],[-9.102539,52.009153],[-9.102552,52.009693],[-9.102559,52.009962],[-9.102996,52.009958],[-9.103003,52.010228],[-9.103439,52.010224],[-9.103446,52.010493],[-9.103883,52.010489],[-9.10389,52.010759],[-9.103896,52.011028],[-9.104333,52.011024],[-9.10434,52.011294],[-9.104346,52.011564],[-9.104783,52.01156],[-9.10479,52.011829],[-9.104797,52.012099],[-9.103486,52.012111],[-9.103499,52.01265],[-9.103936,52.012646],[-9.103943,52.012916],[-9.10438,52.012912],[-9.104386,52.013181],[-9.104823,52.013177],[-9.10483,52.013447],[-9.104843,52.013986],[-9.105717,52.013978],[-9.10573,52.014517],[-9.107041,52.014505],[-9.107035,52.014235],[-9.107472,52.014231],[-9.107465,52.013961],[-9.107452,52.013422],[-9.107889,52.013418],[-9.107882,52.013148],[-9.107875,52.012879],[-9.107869,52.012609],[-9.108742,52.012601],[-9.108736,52.012331],[-9.109173,52.012327],[-9.109166,52.012058],[-9.109603,52.012054],[-9.109596,52.011784],[-9.110033,52.01178],[-9.110027,52.01151],[-9.110464,52.011506],[-9.110457,52.011236],[-9.11045,52.010967],[-9.111324,52.010959],[-9.111317,52.010689],[-9.111754,52.010685],[-9.111748,52.010415],[-9.112184,52.010411],[-9.112178,52.010142],[-9.113052,52.010133],[-9.113045,52.009864],[-9.113919,52.009855],[-9.113912,52.009586],[-9.115223,52.009573],[-9.115216,52.009304],[-9.116527,52.009291],[-9.11652,52.009022],[-9.116957,52.009018],[-9.116964,52.009287],[-9.11697,52.009557],[-9.116534,52.009561],[-9.11654,52.009831],[-9.117414,52.009822],[-9.117421,52.010092],[-9.116984,52.010096],[-9.116991,52.010366],[-9.116117,52.010374],[-9.116123,52.010644],[-9.116453,52.01064],[-9.116544,52.010606],[-9.116706,52.010505],[-9.116825,52.010465],[-9.116883,52.010454],[-9.117005,52.010418],[-9.117165,52.010369],[-9.117222,52.010371],[-9.117267,52.01035],[-9.117328,52.010322],[-9.117382,52.010318],[-9.117481,52.010333],[-9.117525,52.010322],[-9.117569,52.010292],[-9.11764,52.010265],[-9.117735,52.010221],[-9.117806,52.010187],[-9.117898,52.010149],[-9.118026,52.01006],[-9.11804,52.010041],[-9.118135,52.010026],[-9.118216,52.009995],[-9.118331,52.009942],[-9.118396,52.009896],[-9.118474,52.009874],[-9.118549,52.009876],[-9.11862,52.009853],[-9.118698,52.009813],[-9.118809,52.009756],[-9.118925,52.009724],[-9.118996,52.009661],[-9.119036,52.009634],[-9.119064,52.009631],[-9.119081,52.009656],[-9.119125,52.009679],[-9.119186,52.009681],[-9.119248,52.009673],[-9.119366,52.009651],[-9.119496,52.009653],[-9.119591,52.00963],[-9.11962,52.009614],[-9.119682,52.009579],[-9.119706,52.009552],[-9.119791,52.009547],[-9.119903,52.009568],[-9.12005,52.00958],[-9.120172,52.009594],[-9.120281,52.009554],[-9.120393,52.009516],[-9.120464,52.009485],[-9.120491,52.009478],[-9.120539,52.009482],[-9.120654,52.009499],[-9.120709,52.009501],[-9.120743,52.009501],[-9.120804,52.00953],[-9.120907,52.009569],[-9.120964,52.009571],[-9.120992,52.009561],[-9.121066,52.009531],[-9.121124,52.009535],[-9.121257,52.009528],[-9.121328,52.009505],[-9.121385,52.009476],[-9.12143,52.009469],[-9.121504,52.009469],[-9.121623,52.00946],[-9.121661,52.009452],[-9.121735,52.009422],[-9.121783,52.009372],[-9.121838,52.009357],[-9.122312,52.009146],[-9.122862,52.008963],[-9.123089,52.008879],[-9.123587,52.00865],[-9.124649,52.008113],[-9.125369,52.007753],[-9.125257,52.00759],[-9.125224,52.00759],[-9.125223,52.007541],[-9.125072,52.007322],[-9.124781,52.007325],[-9.12477,52.006891],[-9.124696,52.006786],[-9.12433,52.00679],[-9.124324,52.00652],[-9.124317,52.006251],[-9.124316,52.006251],[-9.12388,52.006255],[-9.123887,52.006525],[-9.12345,52.006529],[-9.123443,52.006259],[-9.123436,52.005989],[-9.123873,52.005985],[-9.123866,52.005716],[-9.123862,52.005555],[-9.12379,52.005447],[-9.123423,52.00545],[-9.123416,52.005181],[-9.123411,52.004968],[-9.123213,52.004733],[-9.123106,52.004605],[-9.122909,52.004228],[-9.122806,52.004032],[-9.122687,52.003805],[-9.122537,52.003518],[-9.122284,52.003046],[-9.122163,52.002886],[-9.121953,52.00261],[-9.121718,52.00223],[-9.121594,52.002231],[-9.121589,52.002022],[-9.121463,52.001817],[-9.121454,52.001805],[-9.121439,52.001783],[-9.120451,52.002046],[-9.119396,52.002369],[-9.118464,52.002648],[-9.117449,52.002923],[-9.116459,52.003231],[-9.115663,52.00346],[-9.114864,52.003673],[-9.113872,52.003937],[-9.113872,52.003937],[-9.113872,52.003937],[-9.113871,52.003937],[-9.11387,52.003937],[-9.113849,52.003943],[-9.113656,52.004],[-9.112441,52.004358],[-9.112278,52.004406],[-9.112143,52.004445],[-9.112086,52.004461],[-9.112035,52.004476],[-9.111699,52.004573],[-9.109122,52.005219],[-9.108721,52.00534],[-9.107833,52.005607],[-9.107682,52.005654],[-9.107456,52.005724],[-9.106862,52.005908],[-9.106203,52.006111],[-9.105967,52.006181],[-9.105778,52.006238],[-9.105478,52.006327],[-9.104217,52.006696],[-9.103296,52.006966],[-9.101751,52.007218],[-9.101211,52.0073],[-9.100027,52.00748],[-9.098652,52.007712],[-9.097734,52.007873],[-9.096961,52.008034],[-9.096564,52.008115],[-9.096045,52.008195],[-9.095868,52.008226],[-9.095535,52.008291],[-9.095009,52.008404],[-9.094954,52.008416],[-9.094491,52.008519],[-9.094269,52.008567],[-9.094084,52.008611],[-9.093736,52.0087],[-9.093462,52.008784],[-9.093171,52.008863],[-9.092793,52.008974]],[[-9.119094,52.00711],[-9.119101,52.007379],[-9.118664,52.007383],[-9.118658,52.007114],[-9.118651,52.006844],[-9.119961,52.006832],[-9.119968,52.007101],[-9.119094,52.00711]],[[-9.123026,52.007072],[-9.12259,52.007076],[-9.122583,52.006807],[-9.12302,52.006802],[-9.123026,52.007072]],[[-9.121279,52.007089],[-9.12259,52.007076],[-9.122596,52.007346],[-9.122159,52.00735],[-9.122166,52.00762],[-9.121729,52.007624],[-9.121736,52.007893],[-9.119988,52.00791],[-9.119982,52.00764],[-9.120419,52.007636],[-9.120412,52.007367],[-9.121286,52.007358],[-9.121279,52.007089]],[[-9.108272,52.011257],[-9.107835,52.011261],[-9.107842,52.011531],[-9.107405,52.011535],[-9.107412,52.011805],[-9.107418,52.012074],[-9.106981,52.012078],[-9.106975,52.011809],[-9.106538,52.011813],[-9.106531,52.011543],[-9.106524,52.011273],[-9.106961,52.011269],[-9.106955,52.011],[-9.107392,52.010996],[-9.107385,52.010726],[-9.107822,52.010722],[-9.107815,52.010452],[-9.108252,52.010448],[-9.108259,52.010718],[-9.108266,52.010987],[-9.108272,52.011257]]],[[[-9.116119,52.010691],[-9.116125,52.010692],[-9.116123,52.010644],[-9.11525,52.010652],[-9.115254,52.010821],[-9.115263,52.010819],[-9.115464,52.010817],[-9.11558,52.010802],[-9.11561,52.010783],[-9.115623,52.010762],[-9.115759,52.010709],[-9.115888,52.010692],[-9.115997,52.010689],[-9.116119,52.010691]]],[[[-9.114904,52.010999],[-9.114989,52.010924],[-9.114382,52.01093],[-9.114389,52.011199],[-9.113952,52.011203],[-9.113959,52.011473],[-9.113522,52.011477],[-9.113527,52.011672],[-9.113586,52.011655],[-9.113718,52.011611],[-9.113905,52.011537],[-9.11401,52.011467],[-9.11403,52.011387],[-9.11407,52.011329],[-9.114107,52.011299],[-9.114219,52.011269],[-9.114284,52.011269],[-9.114358,52.011246],[-9.114528,52.011187],[-9.114613,52.011142],[-9.114697,52.011096],[-9.114803,52.011058],[-9.114904,52.010999]]],[[[-9.113366,52.011769],[-9.113394,52.011748],[-9.113092,52.011751],[-9.113098,52.012021],[-9.113106,52.012021],[-9.113129,52.011988],[-9.113156,52.011931],[-9.113238,52.011897],[-9.113271,52.011876],[-9.113312,52.011822],[-9.113366,52.011769]]],[[[-9.113092,52.012038],[-9.113099,52.01203],[-9.113098,52.012021],[-9.112662,52.012025],[-9.112667,52.012228],[-9.112696,52.012199],[-9.112855,52.012165],[-9.112911,52.012147],[-9.112957,52.012133],[-9.113092,52.012038]]],[[[-9.11245,52.012377],[-9.112595,52.012295],[-9.112231,52.012298],[-9.112236,52.0125],[-9.112397,52.012453],[-9.11245,52.012377]]],[[[-9.111758,52.012627],[-9.111802,52.012623],[-9.111801,52.012572],[-9.111364,52.012576],[-9.11137,52.012807],[-9.111426,52.012783],[-9.11165,52.01269],[-9.111758,52.012627]]],[[[-9.111155,52.012897],[-9.111274,52.012847],[-9.110934,52.01285],[-9.110937,52.012979],[-9.111155,52.012897]]],[[[-9.110504,52.01315],[-9.110568,52.013123],[-9.110504,52.013124],[-9.110504,52.01315]]],[[[-9.110262,52.013583],[-9.110306,52.013395],[-9.110073,52.013398],[-9.110086,52.01393],[-9.110262,52.013583]]],[[[-9.094708,52.016952],[-9.095737,52.016943],[-9.095733,52.016768],[-9.095726,52.016498],[-9.095289,52.016502],[-9.095283,52.016233],[-9.094846,52.016237],[-9.094839,52.015967],[-9.095276,52.015963],[-9.09527,52.015694],[-9.095707,52.01569],[-9.0957,52.01542],[-9.095693,52.01515],[-9.095256,52.015154],[-9.09525,52.014885],[-9.095243,52.014615],[-9.096554,52.014603],[-9.096548,52.014333],[-9.096541,52.014064],[-9.096528,52.013524],[-9.096965,52.01352],[-9.096958,52.013251],[-9.096952,52.012981],[-9.097389,52.012977],[-9.097382,52.012707],[-9.097369,52.012168],[-9.097362,52.011899],[-9.096488,52.011907],[-9.096495,52.012176],[-9.096501,52.012446],[-9.096065,52.01245],[-9.096071,52.01272],[-9.09476,52.012732],[-9.094767,52.013001],[-9.09433,52.013005],[-9.094337,52.013275],[-9.093463,52.013283],[-9.093469,52.013553],[-9.093032,52.013557],[-9.093045,52.014096],[-9.092608,52.0141],[-9.092626,52.014834],[-9.092771,52.01495],[-9.09288,52.015157],[-9.09289,52.015172],[-9.093208,52.015169],[-9.093216,52.015506],[-9.09323,52.015509],[-9.093292,52.015561],[-9.093342,52.015631],[-9.093328,52.01569],[-9.093253,52.015729],[-9.093222,52.015748],[-9.093224,52.015858],[-9.093239,52.015865],[-9.093298,52.015875],[-9.093327,52.015906],[-9.093354,52.015924],[-9.093313,52.01602],[-9.09327,52.016067],[-9.094686,52.016054],[-9.094708,52.016952]]],[[[-9.093761,52.017509],[-9.093806,52.017606],[-9.093863,52.017809],[-9.093884,52.017859],[-9.094275,52.017855],[-9.094288,52.017844],[-9.094445,52.017705],[-9.094442,52.017589],[-9.094585,52.017588],[-9.09469,52.017511],[-9.094721,52.017488],[-9.094708,52.016952],[-9.093263,52.016966],[-9.09332,52.017061],[-9.093477,52.017249],[-9.093701,52.017439],[-9.093761,52.017509]]],[[[-9.102692,52.015355],[-9.102685,52.015085],[-9.102678,52.014815],[-9.103115,52.014811],[-9.103109,52.014542],[-9.102672,52.014546],[-9.102658,52.014007],[-9.102221,52.014011],[-9.102228,52.01428],[-9.101791,52.014284],[-9.101798,52.014554],[-9.101361,52.014558],[-9.101367,52.014828],[-9.101804,52.014824],[-9.101811,52.015093],[-9.101818,52.015363],[-9.102692,52.015355]]]]}}]}
