{"type":"FeatureCollection","features":[{"type":"Feature","properties":{"source_fid":1145832,"county":"Sligo","bog_geom_ha":172.22334897391778,"low15_pct":69.870129870129873,"low15_ha":120.33267759476334,"overlay_ha":120.68599530888882,"area_delta":0.35331771412548107},"geometry":{"type":"MultiPolygon","coordinates":[[[[-8.739357,54.202068],[-8.737821,54.202218],[-8.736607,54.202328],[-8.736609,54.202443],[-8.737069,54.20244],[-8.737074,54.20271],[-8.736614,54.202713],[-8.736619,54.202982],[-8.737079,54.20298],[-8.737084,54.203249],[-8.738003,54.203243],[-8.738008,54.203513],[-8.739387,54.203505],[-8.739392,54.203774],[-8.740312,54.203768],[-8.740317,54.204038],[-8.743535,54.204018],[-8.74353,54.203749],[-8.744909,54.20374],[-8.744905,54.203471],[-8.745364,54.203468],[-8.74536,54.203198],[-8.745355,54.202929],[-8.744895,54.202931],[-8.74489,54.202662],[-8.747189,54.202648],[-8.747184,54.202378],[-8.747644,54.202375],[-8.747639,54.202106],[-8.748558,54.2021],[-8.748554,54.20183],[-8.750393,54.201819],[-8.750388,54.201549],[-8.751307,54.201544],[-8.751302,54.201274],[-8.751762,54.201271],[-8.751757,54.201002],[-8.752677,54.200996],[-8.752672,54.200726],[-8.753132,54.200724],[-8.753127,54.200454],[-8.753996,54.200449],[-8.754003,54.20039],[-8.75409,54.200043],[-8.754233,54.199341],[-8.754287,54.198623],[-8.754363,54.198067],[-8.754425,54.197116],[-8.754372,54.19664],[-8.754795,54.195716],[-8.75503,54.19523],[-8.755228,54.194707],[-8.755341,54.194393],[-8.755168,54.193915],[-8.755151,54.193854],[-8.754988,54.193455],[-8.754792,54.192914],[-8.754596,54.192457],[-8.754304,54.191884],[-8.754107,54.191552],[-8.753425,54.191556],[-8.75342,54.191287],[-8.7525,54.191292],[-8.752505,54.191562],[-8.752046,54.191565],[-8.752051,54.191834],[-8.75251,54.191831],[-8.752515,54.192101],[-8.752975,54.192098],[-8.75298,54.192368],[-8.75252,54.192371],[-8.752525,54.19264],[-8.752065,54.192643],[-8.752075,54.193182],[-8.751615,54.193185],[-8.75162,54.193454],[-8.749782,54.193466],[-8.749777,54.193196],[-8.749767,54.192657],[-8.750227,54.192654],[-8.750222,54.192385],[-8.750681,54.192382],[-8.750676,54.192112],[-8.751136,54.19211],[-8.751131,54.19184],[-8.751591,54.191837],[-8.751586,54.191568],[-8.751581,54.191298],[-8.751566,54.190489],[-8.752026,54.190487],[-8.752011,54.189678],[-8.752471,54.189675],[-8.752466,54.189406],[-8.752875,54.189403],[-8.752415,54.188581],[-8.752195,54.188266],[-8.752094,54.18811],[-8.751943,54.18796],[-8.751811,54.187765],[-8.751716,54.187716],[-8.751572,54.187511],[-8.75151,54.187452],[-8.751431,54.187439],[-8.751385,54.187391],[-8.751264,54.187342],[-8.751191,54.187268],[-8.751135,54.187264],[-8.751089,54.18724],[-8.75111,54.187196],[-8.75108,54.187161],[-8.751022,54.187118],[-8.750958,54.187105],[-8.750909,54.187088],[-8.750878,54.187053],[-8.750877,54.187013],[-8.750828,54.186994],[-8.750805,54.186959],[-8.750827,54.18695],[-8.750846,54.186956],[-8.750861,54.186961],[-8.750894,54.186952],[-8.750912,54.186916],[-8.750839,54.186853],[-8.75076,54.18681],[-8.750691,54.186762],[-8.75069,54.186731],[-8.75072,54.186707],[-8.750639,54.186642],[-8.750564,54.186642],[-8.750474,54.186639],[-8.750444,54.186635],[-8.750451,54.186613],[-8.750454,54.186595],[-8.750547,54.186546],[-8.750542,54.186522],[-8.750504,54.186496],[-8.750476,54.186417],[-8.75042,54.186419],[-8.750368,54.186422],[-8.750356,54.186411],[-8.750329,54.186376],[-8.750306,54.186366],[-8.750242,54.186349],[-8.750196,54.186327],[-8.750169,54.186283],[-8.750184,54.186268],[-8.750217,54.186243],[-8.750258,54.186243],[-8.750296,54.186254],[-8.750341,54.186247],[-8.750355,54.186229],[-8.750355,54.186205],[-8.750327,54.186152],[-8.750258,54.186093],[-8.750189,54.186033],[-8.750169,54.185993],[-8.750217,54.185949],[-8.75022,54.185918],[-8.750181,54.185879],[-8.750154,54.185846],[-8.75018,54.185811],[-8.750217,54.185786],[-8.750204,54.185722],[-8.750195,54.185657],[-8.750175,54.185606],[-8.750143,54.185543],[-8.750109,54.185547],[-8.750075,54.185532],[-8.750052,54.185484],[-8.750092,54.185451],[-8.75008,54.185429],[-8.750027,54.185397],[-8.750012,54.185377],[-8.749635,54.18538],[-8.74964,54.185649],[-8.746423,54.185669],[-8.746428,54.185939],[-8.745509,54.185944],[-8.745504,54.185675],[-8.745964,54.185672],[-8.745959,54.185402],[-8.746418,54.1854],[-8.746413,54.18513],[-8.745494,54.185136],[-8.745485,54.184597],[-8.745025,54.184599],[-8.74502,54.18433],[-8.744561,54.184333],[-8.744551,54.183794],[-8.744276,54.183795],[-8.744173,54.183922],[-8.744198,54.184005],[-8.74416,54.184276],[-8.744156,54.184441],[-8.744069,54.184558],[-8.744046,54.184666],[-8.744113,54.184817],[-8.744304,54.184949],[-8.744442,54.185049],[-8.744442,54.185209],[-8.744451,54.185265],[-8.744503,54.185409],[-8.744616,54.185586],[-8.744681,54.185773],[-8.744725,54.185882],[-8.744833,54.186147],[-8.744749,54.186229],[-8.745091,54.186786],[-8.745348,54.187044],[-8.745452,54.187274],[-8.745707,54.187587],[-8.746324,54.188309],[-8.746881,54.189038],[-8.747144,54.18941],[-8.74769,54.18978],[-8.74794,54.189974],[-8.747972,54.190029],[-8.747896,54.19034],[-8.74763,54.190694],[-8.74728,54.191257],[-8.74695,54.191789],[-8.746738,54.192113],[-8.746284,54.192819],[-8.745994,54.193355],[-8.745589,54.194064],[-8.745253,54.194639],[-8.745006,54.194919],[-8.744495,54.195744],[-8.744123,54.196395],[-8.743467,54.197616],[-8.742804,54.198695],[-8.742034,54.200191],[-8.741119,54.201719],[-8.740983,54.201953],[-8.740506,54.201975],[-8.739357,54.202068]],[[-8.748857,54.193202],[-8.748398,54.193205],[-8.748393,54.192935],[-8.748853,54.192933],[-8.748857,54.193202]]],[[[-8.745086,54.182668],[-8.745075,54.182712],[-8.745451,54.18271],[-8.745455,54.182979],[-8.745915,54.182976],[-8.74592,54.183246],[-8.746379,54.183243],[-8.746375,54.182974],[-8.746834,54.182971],[-8.746839,54.18324],[-8.747758,54.183235],[-8.747757,54.183178],[-8.747653,54.183121],[-8.747466,54.183102],[-8.74734,54.183024],[-8.747248,54.182926],[-8.747068,54.182781],[-8.746876,54.182701],[-8.746829,54.182701],[-8.746829,54.182669],[-8.746691,54.182571],[-8.746497,54.182436],[-8.746494,54.182434],[-8.746365,54.182435],[-8.746363,54.182346],[-8.746287,54.182295],[-8.746162,54.182166],[-8.7459,54.182168],[-8.745896,54.181914],[-8.745861,54.181894],[-8.745676,54.181841],[-8.745546,54.181723],[-8.745446,54.181658],[-8.745438,54.181764],[-8.745434,54.181771],[-8.745436,54.181901],[-8.745346,54.181902],[-8.745337,54.181914],[-8.745296,54.182073],[-8.745251,54.182229],[-8.745248,54.182401],[-8.745177,54.182549],[-8.745086,54.182668]],[[-8.745441,54.182171],[-8.7459,54.182168],[-8.745905,54.182437],[-8.745446,54.18244],[-8.745441,54.182171]]],[[[-8.747936,54.183311],[-8.747848,54.183234],[-8.747758,54.183235],[-8.747763,54.183504],[-8.748222,54.183501],[-8.748222,54.183448],[-8.748216,54.183445],[-8.748109,54.183367],[-8.747936,54.183311]]],[[[-8.748345,54.183514],[-8.74832,54.183501],[-8.748222,54.183501],[-8.748227,54.183771],[-8.748687,54.183768],[-8.748684,54.183621],[-8.748557,54.183572],[-8.748453,54.183544],[-8.748345,54.183514]]],[[[-8.748986,54.183784],[-8.748959,54.183766],[-8.748687,54.183768],[-8.748697,54.184307],[-8.749616,54.184301],[-8.749615,54.184239],[-8.7496,54.184229],[-8.749351,54.184152],[-8.749252,54.184098],[-8.749202,54.184037],[-8.749084,54.183967],[-8.749054,54.18384],[-8.748986,54.183784]]],[[[-8.749915,54.184659],[-8.749858,54.184569],[-8.749621,54.184571],[-8.74963,54.18511],[-8.749974,54.185108],[-8.749963,54.1851],[-8.749975,54.184979],[-8.749952,54.184797],[-8.749915,54.184659]]],[[[-8.752859,54.204526],[-8.752877,54.204499],[-8.75274,54.2045],[-8.752744,54.204722],[-8.752859,54.204526]]],[[[-8.752391,54.205327],[-8.752716,54.20477],[-8.751826,54.204775],[-8.751831,54.205045],[-8.75229,54.205042],[-8.752298,54.205487],[-8.752391,54.205327]]],[[[-8.75222,54.205624],[-8.752244,54.205582],[-8.75184,54.205584],[-8.751845,54.205854],[-8.752084,54.205852],[-8.75222,54.205624]]],[[[-8.750474,54.208558],[-8.750513,54.208488],[-8.75051,54.208288],[-8.75005,54.208291],[-8.750045,54.208021],[-8.749892,54.208022],[-8.749889,54.208025],[-8.749825,54.208063],[-8.749819,54.208066],[-8.749808,54.208072],[-8.749804,54.208078],[-8.749795,54.208086],[-8.749799,54.208154],[-8.749799,54.208171],[-8.749799,54.208176],[-8.749769,54.208198],[-8.74973,54.208207],[-8.749685,54.208215],[-8.749662,54.208236],[-8.749666,54.208278],[-8.749697,54.208346],[-8.749792,54.208418],[-8.749892,54.208473],[-8.749917,54.208503],[-8.749925,54.208535],[-8.749931,54.208561],[-8.749936,54.208577],[-8.749989,54.20865],[-8.749989,54.208697],[-8.749991,54.208724],[-8.749991,54.208732],[-8.750002,54.208761],[-8.750046,54.208786],[-8.750047,54.20883],[-8.75006,54.20883],[-8.750055,54.208561],[-8.750474,54.208558]]],[[[-8.741611,54.21661],[-8.741622,54.216734],[-8.74166,54.217173],[-8.741691,54.217508],[-8.742397,54.217504],[-8.742398,54.217563],[-8.742762,54.217561],[-8.742746,54.216663],[-8.744279,54.216653],[-8.745602,54.216645],[-8.745597,54.216406],[-8.745593,54.216136],[-8.745586,54.215747],[-8.744263,54.215755],[-8.744247,54.214857],[-8.745779,54.214847],[-8.745774,54.214518],[-8.745563,54.214519],[-8.745559,54.21425],[-8.745554,54.21398],[-8.745094,54.213983],[-8.745093,54.213953],[-8.74435,54.213958],[-8.744344,54.213967],[-8.744337,54.213974],[-8.744338,54.213995],[-8.744355,54.214033],[-8.744359,54.214062],[-8.744345,54.214082],[-8.744313,54.214101],[-8.744281,54.214123],[-8.744247,54.214131],[-8.744214,54.214153],[-8.744188,54.214176],[-8.744155,54.214205],[-8.744151,54.214209],[-8.744142,54.214205],[-8.744084,54.214179],[-8.744022,54.214136],[-8.743967,54.214084],[-8.743901,54.214033],[-8.743839,54.213998],[-8.743773,54.21396],[-8.74369,54.21389],[-8.743623,54.213823],[-8.743544,54.213767],[-8.743465,54.213718],[-8.743387,54.213661],[-8.7433,54.213608],[-8.743225,54.213561],[-8.743142,54.213504],[-8.743134,54.213499],[-8.743072,54.213455],[-8.742993,54.213408],[-8.742894,54.213338],[-8.742831,54.213276],[-8.742724,54.213223],[-8.742641,54.213181],[-8.742537,54.213113],[-8.742384,54.213],[-8.742326,54.21295],[-8.742298,54.21291],[-8.742208,54.212962],[-8.742203,54.212964],[-8.742063,54.213042],[-8.742047,54.213051],[-8.742009,54.213069],[-8.74197,54.213086],[-8.741796,54.213156],[-8.741616,54.213234],[-8.741593,54.213244],[-8.741551,54.21326],[-8.741539,54.213264],[-8.741418,54.213304],[-8.741419,54.21333],[-8.74142,54.213338],[-8.741419,54.213398],[-8.741418,54.21342],[-8.741413,54.213449],[-8.741406,54.213478],[-8.741395,54.213507],[-8.741381,54.213535],[-8.741364,54.213563],[-8.741343,54.21359],[-8.74132,54.213616],[-8.741294,54.213641],[-8.74128,54.213653],[-8.741215,54.213708],[-8.741214,54.213708],[-8.74121,54.213712],[-8.741195,54.213724],[-8.741163,54.213747],[-8.741129,54.213769],[-8.741093,54.213789],[-8.741055,54.213808],[-8.741014,54.213825],[-8.740972,54.213841],[-8.740928,54.213855],[-8.740882,54.213868],[-8.740836,54.213878],[-8.740804,54.213884],[-8.740774,54.21389],[-8.740774,54.21389],[-8.740747,54.213895],[-8.740747,54.213895],[-8.740741,54.213896],[-8.740968,54.214089],[-8.741941,54.215004],[-8.741593,54.216397],[-8.741611,54.21661]]],[[[-8.746029,54.214846],[-8.745779,54.214847],[-8.745788,54.215326],[-8.746038,54.215325],[-8.746029,54.214846]]],[[[-8.750466,54.205862],[-8.750461,54.205593],[-8.750001,54.205596],[-8.750006,54.205865],[-8.750466,54.205862]]],[[[-8.736155,54.202716],[-8.735695,54.202718],[-8.7357,54.202988],[-8.736159,54.202985],[-8.736155,54.202716]]]]}}]}
