{"type":"FeatureCollection","features":[{"type":"Feature","properties":{"source_fid":1192930,"county":"Kerry","bog_geom_ha":128.35516886690257,"low15_pct":97.392529950669484,"low15_ha":125.00834628193049,"overlay_ha":125.03051381459022,"area_delta":0.022167532659736366},"geometry":{"type":"MultiPolygon","coordinates":[[[[-9.948061,52.186995],[-9.948178,52.186993],[-9.948157,52.186973],[-9.948117,52.186956],[-9.948061,52.186995]]],[[[-9.913434,52.186279],[-9.913601,52.186583],[-9.913774,52.186924],[-9.913881,52.187121],[-9.914046,52.187428],[-9.914232,52.187776],[-9.914399,52.188093],[-9.914596,52.188481],[-9.914794,52.188863],[-9.914839,52.188944],[-9.914847,52.188945],[-9.914871,52.188944],[-9.914872,52.188917],[-9.914858,52.18889],[-9.914851,52.188847],[-9.914891,52.188763],[-9.914926,52.188665],[-9.914936,52.188602],[-9.914923,52.188533],[-9.914922,52.188528],[-9.914886,52.188484],[-9.914816,52.188408],[-9.914745,52.1883],[-9.914664,52.188204],[-9.914593,52.18808],[-9.914496,52.187969],[-9.914444,52.187881],[-9.91443,52.187865],[-9.9144,52.187828],[-9.914317,52.187729],[-9.914278,52.187665],[-9.914277,52.187663],[-9.914301,52.187614],[-9.914264,52.187554],[-9.914188,52.187384],[-9.914158,52.187314],[-9.914124,52.187236],[-9.914108,52.187198],[-9.914048,52.187045],[-9.914027,52.186943],[-9.913976,52.186814],[-9.913933,52.186758],[-9.913859,52.186676],[-9.913774,52.186585],[-9.913658,52.186526],[-9.913616,52.18648],[-9.913602,52.186464],[-9.913543,52.186386],[-9.913492,52.186296],[-9.91348,52.186238],[-9.913407,52.186116],[-9.913325,52.185997],[-9.913264,52.185934],[-9.913222,52.185909],[-9.913434,52.186279]]],[[[-9.947854,52.187788],[-9.948161,52.187559],[-9.948389,52.187448],[-9.948747,52.187347],[-9.948686,52.187326],[-9.948504,52.187254],[-9.948505,52.187257],[-9.948066,52.187265],[-9.948078,52.187534],[-9.947639,52.187541],[-9.947651,52.187811],[-9.947213,52.187818],[-9.947224,52.188088],[-9.946786,52.188095],[-9.946798,52.188364],[-9.945921,52.188379],[-9.945923,52.188427],[-9.945984,52.188426],[-9.94603,52.188411],[-9.946361,52.188402],[-9.946762,52.188399],[-9.946919,52.188382],[-9.947071,52.188342],[-9.947152,52.188286],[-9.947322,52.188134],[-9.947559,52.187993],[-9.947706,52.1879],[-9.947854,52.187788]]],[[[-9.920402,52.18796],[-9.920547,52.187858],[-9.920459,52.187919],[-9.920402,52.18796]]],[[[-9.920264,52.188059],[-9.92015,52.188133],[-9.920282,52.188048],[-9.920264,52.188059]]],[[[-9.919674,52.188459],[-9.919772,52.188392],[-9.91966,52.188468],[-9.919674,52.188459]]],[[[-9.941614,52.191775],[-9.941672,52.191727],[-9.941858,52.191628],[-9.941983,52.191514],[-9.942114,52.191485],[-9.942262,52.191499],[-9.942388,52.191513],[-9.942549,52.191496],[-9.942705,52.191442],[-9.942786,52.191378],[-9.942778,52.191176],[-9.943239,52.191168],[-9.943397,52.191104],[-9.94355,52.190998],[-9.943608,52.190984],[-9.94382,52.190931],[-9.943896,52.19085],[-9.944,52.19063],[-9.944152,52.190478],[-9.944195,52.190419],[-9.944207,52.190413],[-9.9442,52.190253],[-9.944601,52.190247],[-9.944618,52.190232],[-9.944731,52.190085],[-9.94482,52.19],[-9.945038,52.189895],[-9.945135,52.189818],[-9.945242,52.189754],[-9.945359,52.18971],[-9.945568,52.189682],[-9.945636,52.189651],[-9.945604,52.188911],[-9.945598,52.188893],[-9.945558,52.188779],[-9.945581,52.188705],[-9.945594,52.188694],[-9.945592,52.188654],[-9.945494,52.188656],[-9.945506,52.188925],[-9.945067,52.188932],[-9.945056,52.188663],[-9.945044,52.188393],[-9.945482,52.188386],[-9.945471,52.188117],[-9.946347,52.188102],[-9.946336,52.187833],[-9.946774,52.187825],[-9.946762,52.187556],[-9.947201,52.187549],[-9.947189,52.187279],[-9.948066,52.187265],[-9.948055,52.187],[-9.948017,52.187026],[-9.947989,52.187035],[-9.947942,52.187035],[-9.947916,52.187013],[-9.947882,52.186971],[-9.947849,52.186947],[-9.94781,52.186945],[-9.947795,52.186952],[-9.947778,52.186972],[-9.947757,52.187021],[-9.947736,52.187037],[-9.947686,52.187064],[-9.947643,52.187067],[-9.947544,52.187028],[-9.947461,52.187035],[-9.947443,52.18703],[-9.947436,52.187029],[-9.947416,52.186955],[-9.947346,52.186901],[-9.947291,52.186872],[-9.947178,52.186813],[-9.947119,52.186765],[-9.947068,52.186732],[-9.946991,52.186702],[-9.9469,52.186651],[-9.946819,52.186585],[-9.946713,52.186531],[-9.946632,52.186503],[-9.946581,52.186452],[-9.946514,52.186393],[-9.946499,52.186368],[-9.946477,52.186329],[-9.946437,52.186316],[-9.946305,52.186255],[-9.946257,52.186213],[-9.946209,52.186162],[-9.946194,52.186118],[-9.94616,52.186089],[-9.946149,52.18606],[-9.94612,52.186052],[-9.946022,52.18605],[-9.945925,52.186042],[-9.945859,52.186008],[-9.945854,52.185974],[-9.945854,52.185943],[-9.945893,52.185907],[-9.945881,52.185867],[-9.945811,52.185835],[-9.945629,52.185761],[-9.945592,52.185712],[-9.945569,52.185672],[-9.945499,52.185622],[-9.94536,52.185548],[-9.94525,52.185453],[-9.945268,52.185442],[-9.945274,52.185413],[-9.945248,52.185384],[-9.945215,52.185365],[-9.945098,52.185304],[-9.944976,52.185261],[-9.944784,52.185209],[-9.944649,52.185146],[-9.944572,52.185046],[-9.9445,52.184885],[-9.944476,52.184883],[-9.944308,52.18491],[-9.944253,52.184869],[-9.944252,52.18486],[-9.944245,52.184812],[-9.944244,52.184729],[-9.944195,52.184701],[-9.944089,52.184679],[-9.944067,52.184619],[-9.944057,52.184581],[-9.94405,52.18454],[-9.944026,52.18452],[-9.943912,52.18451],[-9.943842,52.184491],[-9.943791,52.184464],[-9.94379,52.184419],[-9.94375,52.18438],[-9.943704,52.184354],[-9.94366,52.184329],[-9.943626,52.184312],[-9.943607,52.184293],[-9.943579,52.184252],[-9.943542,52.184233],[-9.943537,52.184202],[-9.943537,52.18416],[-9.943459,52.184103],[-9.943411,52.184041],[-9.943371,52.184017],[-9.943309,52.184],[-9.943275,52.183963],[-9.943176,52.18389],[-9.943146,52.183869],[-9.943039,52.184031],[-9.942891,52.184226],[-9.94275,52.184356],[-9.94248,52.184554],[-9.942412,52.184603],[-9.942015,52.184931],[-9.941695,52.185216],[-9.941676,52.185234],[-9.941332,52.18553],[-9.941176,52.185662],[-9.941142,52.185684],[-9.940817,52.185892],[-9.940727,52.185952],[-9.940635,52.186014],[-9.9405,52.186105],[-9.940119,52.186329],[-9.939906,52.186442],[-9.93974,52.18653],[-9.939444,52.186663],[-9.939196,52.186748],[-9.939124,52.186768],[-9.939024,52.186796],[-9.938567,52.187044],[-9.938228,52.18722],[-9.938133,52.187281],[-9.938108,52.187264],[-9.937654,52.186945],[-9.938114,52.186694],[-9.938657,52.186412],[-9.938514,52.186287],[-9.938428,52.186188],[-9.938344,52.186122],[-9.938277,52.186069],[-9.938038,52.185852],[-9.937631,52.185458],[-9.937493,52.185297],[-9.937328,52.185121],[-9.937348,52.185114],[-9.937249,52.185025],[-9.937018,52.184798],[-9.93696,52.184742],[-9.936905,52.184688],[-9.936892,52.184676],[-9.936769,52.184569],[-9.936517,52.184279],[-9.936349,52.184073],[-9.93615,52.183852],[-9.935974,52.183636],[-9.935959,52.183619],[-9.935926,52.183582],[-9.935823,52.183465],[-9.9358,52.18345],[-9.935737,52.183422],[-9.935671,52.183402],[-9.935488,52.18338],[-9.935324,52.183373],[-9.934961,52.183349],[-9.934482,52.183307],[-9.933681,52.18324],[-9.933461,52.183231],[-9.93301,52.183202],[-9.932692,52.183173],[-9.932327,52.183148],[-9.931949,52.18312],[-9.931881,52.183115],[-9.931737,52.183104],[-9.931441,52.183084],[-9.93135,52.183078],[-9.931129,52.183063],[-9.930952,52.183049],[-9.930847,52.183063],[-9.930641,52.1831],[-9.930576,52.183114],[-9.930387,52.183167],[-9.930174,52.183228],[-9.930114,52.183246],[-9.929762,52.183347],[-9.929733,52.183355],[-9.929672,52.183372],[-9.929449,52.183432],[-9.929234,52.183488],[-9.928965,52.183565],[-9.928293,52.183747],[-9.928139,52.18379],[-9.927784,52.183891],[-9.927561,52.183953],[-9.927202,52.184047],[-9.927073,52.184083],[-9.927016,52.184099],[-9.926664,52.184198],[-9.926388,52.18428],[-9.926062,52.184372],[-9.925943,52.184411],[-9.92544,52.184539],[-9.925265,52.184596],[-9.924886,52.184702],[-9.924832,52.184717],[-9.924542,52.184798],[-9.924183,52.184892],[-9.923893,52.184977],[-9.923565,52.185069],[-9.923393,52.185108],[-9.923158,52.185181],[-9.922913,52.185252],[-9.922889,52.185258],[-9.92267,52.185332],[-9.922608,52.185362],[-9.922578,52.185391],[-9.922568,52.185405],[-9.922525,52.185544],[-9.922458,52.185764],[-9.922401,52.185962],[-9.922334,52.186196],[-9.922294,52.186328],[-9.92228,52.186377],[-9.922231,52.186552],[-9.92215,52.186815],[-9.922096,52.186964],[-9.922052,52.187098],[-9.922015,52.187235],[-9.922003,52.187264],[-9.921953,52.187376],[-9.921918,52.187423],[-9.921796,52.187478],[-9.922183,52.187403],[-9.922331,52.187514],[-9.921626,52.187643],[-9.921275,52.187707],[-9.92099,52.187759],[-9.920946,52.18779],[-9.920719,52.187947],[-9.920495,52.188102],[-9.920413,52.188159],[-9.920249,52.188274],[-9.919924,52.188503],[-9.919793,52.188595],[-9.919668,52.188685],[-9.919196,52.189021],[-9.918627,52.189024],[-9.918484,52.189025],[-9.918343,52.189025],[-9.918094,52.189026],[-9.917794,52.189027],[-9.917678,52.189027],[-9.917511,52.18903],[-9.917207,52.189034],[-9.916917,52.189039],[-9.916621,52.189043],[-9.916438,52.189046],[-9.916327,52.189046],[-9.916039,52.189046],[-9.915736,52.189047],[-9.915447,52.189047],[-9.915186,52.189048],[-9.915441,52.189508],[-9.915677,52.189956],[-9.916076,52.190716],[-9.916387,52.191302],[-9.916521,52.191304],[-9.916776,52.191321],[-9.916901,52.191329],[-9.917111,52.191341],[-9.917237,52.191348],[-9.91742,52.191379],[-9.917535,52.191398],[-9.917725,52.191433],[-9.917897,52.191465],[-9.918075,52.191489],[-9.918242,52.191512],[-9.918382,52.191521],[-9.9187,52.19154],[-9.918883,52.191552],[-9.919011,52.191556],[-9.919308,52.191567],[-9.919434,52.191572],[-9.919615,52.19157],[-9.919856,52.191566],[-9.920018,52.191564],[-9.920176,52.191556],[-9.920588,52.191536],[-9.921026,52.191506],[-9.921093,52.191521],[-9.921219,52.191592],[-9.921334,52.191657],[-9.921332,52.191658],[-9.921275,52.191702],[-9.921271,52.191707],[-9.921223,52.191763],[-9.921185,52.191823],[-9.920957,52.191649],[-9.920543,52.19168],[-9.920266,52.191696],[-9.919603,52.191708],[-9.919124,52.191713],[-9.918784,52.191697],[-9.918258,52.191657],[-9.917899,52.191615],[-9.917317,52.191505],[-9.917223,52.191483],[-9.916798,52.191468],[-9.916467,52.191453],[-9.916705,52.191905],[-9.917144,52.192744],[-9.917712,52.193856],[-9.917943,52.194266],[-9.918234,52.194838],[-9.918418,52.195205],[-9.91847,52.195182],[-9.918543,52.195148],[-9.918747,52.195019],[-9.918848,52.194965],[-9.918898,52.194938],[-9.918966,52.194902],[-9.919106,52.194826],[-9.919438,52.194629],[-9.919976,52.194332],[-9.920025,52.194305],[-9.920121,52.194254],[-9.920229,52.194196],[-9.920656,52.193375],[-9.920703,52.193346],[-9.92072,52.193308],[-9.920743,52.193278],[-9.920766,52.193202],[-9.921028,52.192892],[-9.921289,52.192583],[-9.921347,52.192496],[-9.921413,52.192406],[-9.921579,52.192232],[-9.921657,52.192171],[-9.921753,52.192088],[-9.921793,52.192048],[-9.921871,52.192031],[-9.92189,52.19202],[-9.922333,52.191757],[-9.922353,52.191725],[-9.922376,52.191688],[-9.922688,52.191526],[-9.922862,52.191465],[-9.922863,52.191465],[-9.923284,52.191318],[-9.923292,52.191315],[-9.923346,52.191297],[-9.923681,52.19121],[-9.923691,52.191207],[-9.923788,52.191182],[-9.923977,52.191142],[-9.923984,52.191141],[-9.924297,52.191075],[-9.924303,52.191074],[-9.924316,52.191071],[-9.924739,52.191025],[-9.924743,52.191025],[-9.925129,52.190983],[-9.925131,52.190983],[-9.925255,52.19097],[-9.925457,52.190949],[-9.925472,52.190947],[-9.925815,52.190912],[-9.925819,52.190911],[-9.926322,52.190859],[-9.926379,52.190853],[-9.926389,52.190836],[-9.926438,52.190793],[-9.926434,52.190762],[-9.92639,52.190723],[-9.926402,52.190645],[-9.926405,52.190616],[-9.926401,52.190591],[-9.926375,52.190567],[-9.926395,52.190548],[-9.926396,52.190545],[-9.926407,52.190522],[-9.926508,52.190524],[-9.926604,52.19054],[-9.926746,52.190551],[-9.926913,52.190576],[-9.926947,52.190583],[-9.927149,52.190616],[-9.927367,52.190649],[-9.927639,52.190672],[-9.927794,52.190676],[-9.927785,52.190659],[-9.927768,52.190626],[-9.927778,52.190604],[-9.92777,52.190571],[-9.927751,52.190546],[-9.927713,52.190522],[-9.927689,52.190509],[-9.927621,52.190363],[-9.927583,52.190295],[-9.927603,52.190237],[-9.927559,52.190206],[-9.927504,52.190147],[-9.927491,52.190049],[-9.927417,52.189972],[-9.927381,52.189839],[-9.927286,52.189795],[-9.927248,52.189696],[-9.927202,52.189572],[-9.927143,52.189519],[-9.927116,52.189473],[-9.927147,52.189404],[-9.927106,52.189342],[-9.927032,52.18926],[-9.926951,52.189172],[-9.926938,52.189101],[-9.926934,52.189068],[-9.926817,52.189013],[-9.926786,52.188931],[-9.926793,52.188902],[-9.926756,52.188863],[-9.926725,52.188801],[-9.926682,52.188781],[-9.926564,52.1887],[-9.926523,52.188647],[-9.926364,52.1885],[-9.926273,52.188438],[-9.926225,52.188383],[-9.926212,52.188366],[-9.926711,52.188278],[-9.927174,52.188197],[-9.927688,52.188106],[-9.928193,52.188017],[-9.92826,52.188005],[-9.928871,52.187895],[-9.929419,52.187796],[-9.929961,52.187699],[-9.930614,52.187581],[-9.930845,52.18754],[-9.931197,52.187477],[-9.932024,52.187329],[-9.932179,52.187612],[-9.932823,52.188157],[-9.933477,52.187928],[-9.93364,52.187873],[-9.934134,52.187706],[-9.934355,52.187631],[-9.935248,52.187328],[-9.935596,52.187205],[-9.936309,52.187917],[-9.936659,52.188274],[-9.93668,52.188294],[-9.936539,52.18839],[-9.936375,52.188491],[-9.936322,52.188519],[-9.9361,52.188638],[-9.935643,52.188859],[-9.935392,52.188957],[-9.935074,52.189084],[-9.934801,52.189186],[-9.934515,52.189287],[-9.934445,52.189319],[-9.934357,52.189359],[-9.93419,52.189445],[-9.934027,52.189537],[-9.934049,52.189559],[-9.934125,52.189633],[-9.93415,52.189682],[-9.934206,52.189773],[-9.934334,52.189856],[-9.934383,52.189921],[-9.934412,52.190002],[-9.93453,52.189997],[-9.934551,52.189999],[-9.934549,52.190055],[-9.934601,52.190087],[-9.934634,52.190155],[-9.934716,52.1902],[-9.93473,52.190288],[-9.934822,52.190319],[-9.934844,52.190372],[-9.934898,52.190384],[-9.934927,52.19036],[-9.934939,52.190359],[-9.934959,52.190404],[-9.934995,52.190403],[-9.934992,52.190448],[-9.935017,52.190468],[-9.935088,52.190483],[-9.93518,52.190558],[-9.935184,52.190583],[-9.935318,52.190536],[-9.935494,52.190464],[-9.93573,52.190409],[-9.935786,52.19039],[-9.935824,52.190357],[-9.935833,52.190353],[-9.93584,52.190351],[-9.935849,52.19035],[-9.935886,52.190349],[-9.936001,52.190305],[-9.936382,52.190178],[-9.9364,52.190171],[-9.936534,52.190125],[-9.936912,52.190015],[-9.937255,52.189917],[-9.937506,52.189805],[-9.938276,52.189544],[-9.938393,52.18965],[-9.93795,52.189809],[-9.937909,52.189814],[-9.937896,52.189818],[-9.93758,52.189916],[-9.937514,52.189933],[-9.937467,52.18995],[-9.937016,52.190115],[-9.936861,52.190172],[-9.936421,52.190318],[-9.935901,52.19049],[-9.935658,52.190571],[-9.935351,52.190658],[-9.935338,52.190685],[-9.935292,52.19073],[-9.935327,52.190761],[-9.935414,52.190787],[-9.935439,52.190815],[-9.935436,52.190838],[-9.935461,52.190882],[-9.935515,52.190914],[-9.935569,52.190934],[-9.935583,52.190954],[-9.935605,52.191003],[-9.935657,52.191022],[-9.935727,52.191108],[-9.935717,52.191155],[-9.935732,52.191196],[-9.935733,52.191199],[-9.935887,52.191307],[-9.936016,52.191423],[-9.936035,52.191474],[-9.936033,52.191543],[-9.936092,52.191569],[-9.936277,52.191612],[-9.936335,52.191634],[-9.936357,52.191651],[-9.936362,52.191687],[-9.936374,52.191722],[-9.9364,52.191764],[-9.936449,52.191857],[-9.936436,52.191921],[-9.936441,52.191975],[-9.936503,52.192023],[-9.936704,52.19213],[-9.936795,52.192152],[-9.936836,52.192198],[-9.936842,52.192205],[-9.936758,52.192238],[-9.936626,52.192324],[-9.936325,52.19242],[-9.936228,52.192451],[-9.935876,52.19255],[-9.935599,52.192611],[-9.935466,52.192654],[-9.935561,52.192776],[-9.93563,52.192863],[-9.935678,52.193076],[-9.93574,52.193188],[-9.935839,52.193149],[-9.935916,52.193154],[-9.935953,52.193174],[-9.93601,52.193204],[-9.936116,52.193246],[-9.936407,52.193248],[-9.936997,52.193262],[-9.937018,52.193261],[-9.93701,52.193068],[-9.937208,52.193065],[-9.937219,52.193032],[-9.937296,52.192998],[-9.937359,52.192997],[-9.937469,52.193023],[-9.937648,52.193012],[-9.937833,52.192997],[-9.938087,52.19305],[-9.938287,52.193047],[-9.93832,52.193038],[-9.938356,52.192988],[-9.938486,52.192925],[-9.938558,52.192915],[-9.938682,52.192907],[-9.93882,52.192886],[-9.939125,52.192809],[-9.939222,52.192761],[-9.939347,52.192652],[-9.939468,52.192615],[-9.939591,52.1926],[-9.93974,52.192643],[-9.939848,52.192655],[-9.939917,52.192642],[-9.939932,52.19264],[-9.939992,52.192592],[-9.940138,52.192482],[-9.940271,52.192416],[-9.940334,52.19236],[-9.94034,52.192306],[-9.940278,52.192162],[-9.940318,52.192093],[-9.940427,52.19198],[-9.94051,52.191946],[-9.940621,52.191956],[-9.94076,52.191978],[-9.940941,52.192035],[-9.941052,52.192059],[-9.941251,52.191974],[-9.94125,52.191962],[-9.941292,52.191961],[-9.94134,52.191949],[-9.941415,52.19193],[-9.941498,52.191889],[-9.941537,52.191838],[-9.941614,52.191775]],[[-9.935245,52.185049],[-9.935683,52.185041],[-9.935707,52.18558],[-9.935268,52.185588],[-9.935245,52.185049]],[[-9.923177,52.1901],[-9.924054,52.190086],[-9.924019,52.189278],[-9.924896,52.189263],[-9.924931,52.190072],[-9.924943,52.190341],[-9.924955,52.190611],[-9.924077,52.190625],[-9.924089,52.190895],[-9.923212,52.190909],[-9.923224,52.191178],[-9.922347,52.191193],[-9.922358,52.191462],[-9.92192,52.191469],[-9.921908,52.1912],[-9.921897,52.19093],[-9.922335,52.190923],[-9.922323,52.190654],[-9.922762,52.190647],[-9.92275,52.190377],[-9.923189,52.19037],[-9.923177,52.1901]]]]}}]}
