{"type":"FeatureCollection","features":[{"type":"Feature","properties":{"source_fid":1209270,"county":"Mayo","bog_geom_ha":113.07212387210743,"low15_pct":100.0,"low15_ha":113.07212387210743,"overlay_ha":113.07212387210743,"area_delta":0.0},"geometry":{"type":"MultiPolygon","coordinates":[[[[-9.578968,54.15495],[-9.578968,54.15495],[-9.578968,54.15495],[-9.579174,54.154958],[-9.583618,54.155096],[-9.590289,54.155331],[-9.59209,54.155409],[-9.597237,54.155577],[-9.601312,54.155703],[-9.606981,54.155831],[-9.606472,54.155615],[-9.604442,54.15468],[-9.603552,54.154161],[-9.602339,54.153432],[-9.600717,54.152217],[-9.600104,54.15175],[-9.599638,54.151278],[-9.598939,54.150224],[-9.598319,54.149224],[-9.596388,54.149261],[-9.593226,54.149411],[-9.591105,54.14952],[-9.588936,54.149625],[-9.586872,54.149721],[-9.584982,54.149778],[-9.582918,54.149853],[-9.580824,54.149972],[-9.580051,54.150026],[-9.578963,54.150209],[-9.578172,54.150341],[-9.576893,54.150496],[-9.575281,54.150787],[-9.573471,54.151097],[-9.572666,54.151247],[-9.572682,54.151667],[-9.572683,54.151668],[-9.573071,54.152675],[-9.573413,54.153569],[-9.569687,54.153814],[-9.56953,54.153824],[-9.569446,54.154084],[-9.569789,54.154079],[-9.572338,54.153929],[-9.573454,54.153866],[-9.573528,54.154056],[-9.573731,54.154736],[-9.573795,54.154874],[-9.574183,54.154612],[-9.575096,54.154804],[-9.578968,54.15495]]]]}}]}
