{"type":"FeatureCollection","features":[{"type":"Feature","properties":{"source_fid":1233564,"county":"Offaly","bog_geom_ha":115.85862712623444,"low15_pct":99.456943366951123,"low15_ha":115.22944916666606,"overlay_ha":115.25173828778173,"area_delta":0.02228912111567638},"geometry":{"type":"MultiPolygon","coordinates":[[[[-7.729018,53.342243],[-7.728388,53.342034],[-7.727075,53.342895],[-7.727049,53.342912],[-7.727049,53.342912],[-7.726533,53.342716],[-7.725186,53.342204],[-7.721845,53.340944],[-7.721837,53.340958],[-7.721816,53.340996],[-7.721333,53.34192],[-7.721192,53.34218],[-7.720837,53.342839],[-7.720695,53.343105],[-7.720346,53.34376],[-7.720011,53.344391],[-7.719896,53.344605],[-7.719896,53.344639],[-7.719912,53.34467],[-7.721535,53.345595],[-7.722901,53.346368],[-7.723156,53.346512],[-7.723695,53.346841],[-7.723658,53.346881],[-7.724685,53.347444],[-7.725322,53.347795],[-7.726301,53.348373],[-7.727525,53.349088],[-7.728723,53.349794],[-7.73036,53.350708],[-7.731969,53.351659],[-7.733972,53.352814],[-7.736276,53.35416],[-7.738081,53.355234],[-7.738437,53.355148],[-7.73925,53.354949],[-7.740347,53.3547],[-7.742973,53.354014],[-7.745789,53.353255],[-7.747878,53.352695],[-7.747767,53.352654],[-7.747702,53.352636],[-7.747663,53.35262],[-7.747655,53.352617],[-7.747617,53.352594],[-7.747335,53.352475],[-7.747256,53.352441],[-7.746966,53.352319],[-7.746661,53.352191],[-7.746243,53.352022],[-7.745836,53.351847],[-7.745836,53.351847],[-7.74527,53.351612],[-7.744953,53.351481],[-7.744953,53.351481],[-7.744687,53.351371],[-7.744363,53.351236],[-7.744036,53.351101],[-7.74376,53.350986],[-7.743575,53.350909],[-7.743411,53.350841],[-7.743327,53.350807],[-7.743054,53.350695],[-7.742367,53.350414],[-7.741551,53.35008],[-7.741806,53.34846],[-7.741836,53.348267],[-7.74181,53.348261],[-7.741822,53.34821],[-7.741834,53.348158],[-7.741708,53.348144],[-7.740853,53.348018],[-7.740248,53.347936],[-7.740063,53.347921],[-7.740009,53.347917],[-7.738814,53.347744],[-7.738678,53.347724],[-7.738677,53.347927],[-7.737325,53.347924],[-7.737327,53.347654],[-7.736876,53.347653],[-7.736878,53.347384],[-7.737009,53.347384],[-7.736903,53.347355],[-7.736889,53.347308],[-7.736881,53.347284],[-7.73682,53.347256],[-7.736625,53.347163],[-7.736452,53.347089],[-7.736432,53.347045],[-7.736203,53.346975],[-7.735486,53.346621],[-7.734937,53.346342],[-7.734781,53.346109],[-7.733811,53.343578],[-7.733576,53.343577],[-7.733576,53.343504],[-7.733066,53.34335],[-7.733057,53.343348],[-7.733055,53.343347],[-7.732775,53.3433],[-7.732767,53.343307],[-7.732717,53.343368],[-7.732365,53.343279],[-7.732039,53.343178],[-7.731584,53.34304],[-7.730991,53.342854],[-7.73045,53.342677],[-7.730039,53.342563],[-7.729903,53.342524],[-7.729599,53.342435],[-7.729018,53.342243]],[[-7.738675,53.348196],[-7.738677,53.347927],[-7.739578,53.347929],[-7.739576,53.348198],[-7.738675,53.348196]],[[-7.729248,53.342783],[-7.728797,53.342782],[-7.728799,53.342512],[-7.729249,53.342514],[-7.729248,53.342783]]],[[[-7.737335,53.347505],[-7.737328,53.347501],[-7.737327,53.347654],[-7.738206,53.347656],[-7.7379,53.347612],[-7.737433,53.347528],[-7.737335,53.347505]]]]}}]}
