{"type":"FeatureCollection","features":[{"type":"Feature","properties":{"source_fid":1234069,"county":"Kilkenny","bog_geom_ha":119.59324620693401,"low15_pct":100.0,"low15_ha":119.59324620693401,"overlay_ha":119.59324620693401,"area_delta":0.0},"geometry":{"type":"MultiPolygon","coordinates":[[[[-7.670207,52.772898],[-7.670202,52.772898],[-7.670193,52.772899],[-7.670193,52.772899],[-7.670193,52.772899],[-7.67016,52.772756],[-7.670157,52.772739],[-7.670152,52.772725],[-7.670082,52.772531],[-7.670038,52.772322],[-7.670025,52.772251],[-7.670016,52.772203],[-7.669984,52.772086],[-7.669959,52.771998],[-7.66994,52.771941],[-7.66994,52.771941],[-7.669901,52.771785],[-7.669878,52.771689],[-7.669761,52.771214],[-7.669681,52.770887],[-7.669632,52.770689],[-7.669572,52.770447],[-7.669564,52.770411],[-7.669564,52.770411],[-7.66923,52.769003],[-7.668982,52.767878],[-7.668982,52.767878],[-7.668027,52.768052],[-7.667846,52.768084],[-7.667593,52.76813],[-7.666032,52.768409],[-7.66472,52.768634],[-7.662718,52.768998],[-7.661772,52.769172],[-7.661567,52.769229],[-7.661445,52.769238],[-7.661335,52.769247],[-7.661187,52.769267],[-7.661145,52.769273],[-7.66059,52.769217],[-7.660252,52.769179],[-7.659889,52.769138],[-7.659856,52.769148],[-7.658774,52.769496],[-7.657812,52.769804],[-7.65709,52.770028],[-7.657089,52.770108],[-7.656756,52.770107],[-7.656656,52.770123],[-7.656363,52.770168],[-7.655549,52.770302],[-7.654425,52.770477],[-7.654328,52.770491],[-7.65427,52.770501],[-7.654142,52.770521],[-7.654124,52.770627],[-7.654114,52.770723],[-7.65409,52.770899],[-7.654072,52.771082],[-7.654061,52.771172],[-7.65405,52.771264],[-7.654015,52.771449],[-7.653987,52.771641],[-7.653965,52.771837],[-7.653944,52.772032],[-7.653909,52.772226],[-7.653881,52.77242],[-7.653868,52.772548],[-7.653861,52.772616],[-7.653834,52.772811],[-7.6538,52.773005],[-7.653783,52.773122],[-7.653771,52.773204],[-7.653748,52.773403],[-7.653734,52.773529],[-7.653725,52.773603],[-7.653712,52.773683],[-7.653693,52.773801],[-7.653666,52.773998],[-7.653641,52.774194],[-7.653631,52.774283],[-7.653619,52.77439],[-7.653584,52.774587],[-7.653565,52.774732],[-7.653557,52.774792],[-7.653532,52.774997],[-7.65351,52.775202],[-7.653478,52.775407],[-7.653459,52.775539],[-7.653449,52.775613],[-7.653421,52.775819],[-7.653419,52.775828],[-7.653401,52.775951],[-7.653188,52.775988],[-7.65315,52.775994],[-7.652767,52.776069],[-7.652388,52.776149],[-7.652001,52.776229],[-7.65182,52.776266],[-7.651614,52.776309],[-7.651227,52.776388],[-7.650841,52.776465],[-7.650453,52.776541],[-7.650067,52.776622],[-7.65006,52.776624],[-7.649664,52.776707],[-7.649628,52.776714],[-7.649627,52.776848],[-7.650117,52.776747],[-7.651194,52.776542],[-7.651579,52.776462],[-7.652298,52.776312],[-7.652665,52.77624],[-7.653065,52.776161],[-7.653319,52.776108],[-7.653467,52.776077],[-7.653507,52.776117],[-7.654348,52.776956],[-7.655174,52.777735],[-7.655342,52.777895],[-7.655548,52.778088],[-7.655699,52.77823],[-7.656046,52.778569],[-7.65607,52.778592],[-7.656413,52.778909],[-7.656451,52.778947],[-7.656497,52.778993],[-7.656781,52.77925],[-7.6569,52.779369],[-7.657086,52.779551],[-7.657137,52.7796],[-7.657164,52.779626],[-7.657409,52.779863],[-7.657536,52.779975],[-7.657714,52.780133],[-7.658468,52.779986],[-7.658811,52.77992],[-7.65929,52.779828],[-7.659621,52.77976],[-7.660378,52.779608],[-7.661324,52.779434],[-7.661562,52.77939],[-7.661823,52.779342],[-7.662339,52.779237],[-7.662456,52.779213],[-7.662674,52.779172],[-7.663035,52.779104],[-7.663161,52.779077],[-7.663454,52.779016],[-7.663789,52.778951],[-7.663792,52.778951],[-7.664365,52.778842],[-7.664601,52.778788],[-7.664926,52.778715],[-7.665295,52.778643],[-7.665665,52.778571],[-7.666251,52.778462],[-7.6666,52.778388],[-7.666953,52.77833],[-7.667738,52.778168],[-7.668961,52.77793],[-7.669181,52.777887],[-7.669867,52.777753],[-7.669867,52.777753],[-7.669978,52.777731],[-7.670049,52.777717],[-7.670236,52.777679],[-7.670503,52.777626],[-7.670736,52.77758],[-7.671264,52.777479],[-7.671236,52.777348],[-7.671227,52.777314],[-7.671192,52.777183],[-7.671134,52.776937],[-7.67112,52.77689],[-7.671103,52.776825],[-7.671051,52.776602],[-7.671038,52.776558],[-7.671003,52.776444],[-7.67095,52.776238],[-7.670945,52.776219],[-7.6709,52.776009],[-7.67089,52.775966],[-7.670866,52.775865],[-7.670819,52.775672],[-7.670791,52.775559],[-7.670764,52.775424],[-7.670726,52.775237],[-7.670706,52.775144],[-7.670656,52.77491],[-7.670645,52.774851],[-7.670609,52.77465],[-7.6706,52.77461],[-7.670548,52.774366],[-7.67054,52.774337],[-7.6705,52.774194],[-7.670468,52.774076],[-7.670456,52.774033],[-7.670437,52.773962],[-7.670432,52.773941],[-7.670401,52.773809],[-7.670362,52.773639],[-7.670294,52.773344],[-7.67029,52.773326],[-7.670227,52.773051],[-7.672246,52.77292],[-7.672629,52.772901],[-7.673647,52.77284],[-7.673686,52.77284],[-7.673669,52.772636],[-7.673022,52.772684],[-7.672678,52.77271],[-7.671458,52.772791],[-7.670207,52.772898]]]]}}]}
