{"type":"FeatureCollection","features":[{"type":"Feature","properties":{"source_fid":1263435,"county":"Kildare","bog_geom_ha":324.47009416889659,"low15_pct":100.0,"low15_ha":324.47009416889659,"overlay_ha":324.44660349685159,"area_delta":-0.023490672044999883},"geometry":{"type":"MultiPolygon","coordinates":[[[[-6.879943,53.308712],[-6.880202,53.308501],[-6.879984,53.308126],[-6.879884,53.307952],[-6.87977,53.307755],[-6.878905,53.306257],[-6.878886,53.306223],[-6.87886,53.306178],[-6.878766,53.306057],[-6.878688,53.305956],[-6.874689,53.306096],[-6.873127,53.306151],[-6.872064,53.30619],[-6.872016,53.306192],[-6.871987,53.306193],[-6.870415,53.306251],[-6.869602,53.30628],[-6.868863,53.306306],[-6.867069,53.306371],[-6.865678,53.306421],[-6.865483,53.306428],[-6.865406,53.30643],[-6.864469,53.306462],[-6.861836,53.306551],[-6.861217,53.306574],[-6.860819,53.306588],[-6.860819,53.306588],[-6.860658,53.306589],[-6.859437,53.306592],[-6.857939,53.306596],[-6.856734,53.30659],[-6.855227,53.306585],[-6.854191,53.306577],[-6.8517,53.306567],[-6.851039,53.30708],[-6.850472,53.307518],[-6.850074,53.30783],[-6.849748,53.30808],[-6.849362,53.308373],[-6.849037,53.30863],[-6.848735,53.308868],[-6.848117,53.309353],[-6.847627,53.30973],[-6.847181,53.310074],[-6.846783,53.310377],[-6.846157,53.310858],[-6.845643,53.311254],[-6.845051,53.311718],[-6.844678,53.312009],[-6.844465,53.312169],[-6.84437,53.312244],[-6.84437,53.312244],[-6.84437,53.312244],[-6.844319,53.312284],[-6.844598,53.312345],[-6.845072,53.31245],[-6.845319,53.312504],[-6.845523,53.312564],[-6.845626,53.312593],[-6.84566,53.312615],[-6.845847,53.312644],[-6.845967,53.312677],[-6.846418,53.312764],[-6.846793,53.312861],[-6.847141,53.312968],[-6.847487,53.313032],[-6.847623,53.313058],[-6.847701,53.313086],[-6.847772,53.313086],[-6.847863,53.313086],[-6.847937,53.313097],[-6.84796,53.3131],[-6.848164,53.313161],[-6.848194,53.313167],[-6.848219,53.313173],[-6.848248,53.313172],[-6.848287,53.313171],[-6.84835,53.313187],[-6.848433,53.313207],[-6.848782,53.313303],[-6.848815,53.313312],[-6.849102,53.313373],[-6.849156,53.313375],[-6.84923,53.313377],[-6.849299,53.313394],[-6.849336,53.313403],[-6.849331,53.313412],[-6.849396,53.313424],[-6.849475,53.31344],[-6.849556,53.313409],[-6.849895,53.313471],[-6.850103,53.313517],[-6.850317,53.313564],[-6.850805,53.313676],[-6.851444,53.313826],[-6.851496,53.313836],[-6.851524,53.313837],[-6.851524,53.313842],[-6.851651,53.313867],[-6.851851,53.313908],[-6.852328,53.314004],[-6.852495,53.314038],[-6.852785,53.314096],[-6.856035,53.314128],[-6.857535,53.314142],[-6.858078,53.314147],[-6.858146,53.31414],[-6.858176,53.314148],[-6.860536,53.314171],[-6.860512,53.315069],[-6.862012,53.315083],[-6.861988,53.315982],[-6.866488,53.316024],[-6.866464,53.316923],[-6.867965,53.316937],[-6.867917,53.318734],[-6.869417,53.318748],[-6.869251,53.325036],[-6.870751,53.32505],[-6.870704,53.326847],[-6.869203,53.326833],[-6.869156,53.32863],[-6.867655,53.328615],[-6.86644,53.328604],[-6.866435,53.328807],[-6.866461,53.328846],[-6.866471,53.328879],[-6.866779,53.33016],[-6.866849,53.330161],[-6.866842,53.330424],[-6.866883,53.330435],[-6.866883,53.330435],[-6.869455,53.331112],[-6.869461,53.331114],[-6.869524,53.33113],[-6.869524,53.33113],[-6.870732,53.331456],[-6.870796,53.331473],[-6.870796,53.331473],[-6.870796,53.330857],[-6.870814,53.330832],[-6.871853,53.329396],[-6.874011,53.328883],[-6.874089,53.328884],[-6.882706,53.328978],[-6.88274,53.32892],[-6.883656,53.327378],[-6.883621,53.32719],[-6.883574,53.326998],[-6.883574,53.326998],[-6.883571,53.326984],[-6.883566,53.326967],[-6.883535,53.326818],[-6.883523,53.326543],[-6.883524,53.326532],[-6.883527,53.326498],[-6.883538,53.326388],[-6.883548,53.32628],[-6.883567,53.326074],[-6.883594,53.325782],[-6.883679,53.324993],[-6.883682,53.324967],[-6.883783,53.324032],[-6.88379,53.323961],[-6.883817,53.32371],[-6.883823,53.323651],[-6.883823,53.323651],[-6.883852,53.323383],[-6.88386,53.323311],[-6.883877,53.323146],[-6.883877,53.323146],[-6.883906,53.322855],[-6.884005,53.321869],[-6.884009,53.321827],[-6.88342,53.321082],[-6.882916,53.320572],[-6.882253,53.319889],[-6.881376,53.319164],[-6.88042,53.318489],[-6.879512,53.317965],[-6.878839,53.317644],[-6.878234,53.31738],[-6.877844,53.317134],[-6.877124,53.316694],[-6.876497,53.31627],[-6.876143,53.315978],[-6.875731,53.315597],[-6.875481,53.315249],[-6.875334,53.314962],[-6.875285,53.314865],[-6.875221,53.314679],[-6.875176,53.314426],[-6.875176,53.31407],[-6.875226,53.313802],[-6.875291,53.313627],[-6.875501,53.313195],[-6.875815,53.312729],[-6.876109,53.312355],[-6.876463,53.311992],[-6.876965,53.31142],[-6.877767,53.31058],[-6.878631,53.309809],[-6.879284,53.309232],[-6.879943,53.308712]]]]}}]}
