{"type":"FeatureCollection","features":[{"type":"Feature","properties":{"source_fid":1264022,"county":"Offaly","bog_geom_ha":188.70918450219327,"low15_pct":100.0,"low15_ha":188.70918450219327,"overlay_ha":188.70918450219327,"area_delta":0.0},"geometry":{"type":"MultiPolygon","coordinates":[[[[-7.748846,53.308113],[-7.748846,53.308113],[-7.748846,53.308113],[-7.748846,53.308113],[-7.748684,53.308055],[-7.748481,53.307982],[-7.748387,53.307939],[-7.748346,53.307929],[-7.748296,53.307918],[-7.748028,53.307837],[-7.747867,53.307874],[-7.747835,53.307864],[-7.747776,53.307845],[-7.747757,53.307793],[-7.747736,53.307737],[-7.747743,53.307695],[-7.747743,53.307692],[-7.747764,53.307662],[-7.747794,53.30762],[-7.747867,53.307569],[-7.747867,53.307569],[-7.747867,53.307569],[-7.747938,53.307556],[-7.747963,53.307551],[-7.748111,53.307597],[-7.748111,53.307597],[-7.748111,53.307598],[-7.748168,53.307667],[-7.748168,53.307667],[-7.748216,53.307677],[-7.748259,53.307686],[-7.748587,53.307756],[-7.748587,53.307756],[-7.748587,53.307756],[-7.748894,53.30786],[-7.749088,53.307926],[-7.74909,53.307924],[-7.749476,53.307631],[-7.750204,53.30708],[-7.750204,53.30708],[-7.750204,53.30708],[-7.750271,53.30703],[-7.750335,53.306984],[-7.750448,53.306898],[-7.750693,53.306712],[-7.750781,53.306436],[-7.750884,53.306093],[-7.750943,53.305898],[-7.750969,53.305807],[-7.751007,53.305677],[-7.751014,53.305651],[-7.751026,53.305607],[-7.752262,53.3057],[-7.754209,53.305848],[-7.754326,53.305863],[-7.754672,53.305908],[-7.754739,53.305731],[-7.754961,53.305341],[-7.75496,53.305199],[-7.755137,53.304771],[-7.755166,53.304701],[-7.755183,53.304664],[-7.755263,53.30449],[-7.755404,53.3042],[-7.755461,53.304081],[-7.75563,53.303679],[-7.755646,53.303643],[-7.755723,53.303471],[-7.755761,53.303385],[-7.755866,53.303142],[-7.756123,53.30253],[-7.756195,53.302339],[-7.756292,53.302077],[-7.756292,53.302077],[-7.756254,53.30205],[-7.756115,53.301983],[-7.756107,53.301959],[-7.756101,53.301804],[-7.756059,53.301759],[-7.755988,53.301732],[-7.755939,53.301699],[-7.75583,53.301668],[-7.75578,53.301651],[-7.755743,53.301623],[-7.755726,53.301583],[-7.755718,53.301462],[-7.755679,53.30138],[-7.755685,53.301329],[-7.755706,53.3013],[-7.755697,53.301273],[-7.755667,53.301253],[-7.75548,53.301227],[-7.755344,53.301087],[-7.755615,53.30088],[-7.755631,53.300719],[-7.755645,53.300634],[-7.755695,53.30055],[-7.755755,53.300499],[-7.756061,53.300325],[-7.756494,53.300148],[-7.756778,53.300017],[-7.757636,53.299647],[-7.757913,53.299522],[-7.759029,53.299051],[-7.759585,53.298805],[-7.760103,53.298592],[-7.760773,53.298304],[-7.76188,53.297812],[-7.762952,53.297346],[-7.764849,53.296551],[-7.766816,53.295725],[-7.76804,53.29522],[-7.770718,53.294084],[-7.772589,53.29331],[-7.773968,53.292428],[-7.775017,53.29176],[-7.776191,53.291012],[-7.775024,53.290468],[-7.774922,53.29042],[-7.774475,53.290212],[-7.774212,53.290089],[-7.772257,53.289164],[-7.771222,53.288677],[-7.770668,53.288908],[-7.769191,53.289496],[-7.767845,53.290042],[-7.766409,53.290621],[-7.765022,53.291183],[-7.763705,53.291726],[-7.762086,53.292382],[-7.761312,53.292693],[-7.760804,53.292898],[-7.760696,53.292949],[-7.759731,53.293341],[-7.758947,53.293664],[-7.757595,53.294193],[-7.757075,53.294407],[-7.756761,53.294535],[-7.756728,53.294649],[-7.756694,53.294723],[-7.756691,53.29473],[-7.756646,53.294812],[-7.756624,53.294945],[-7.756135,53.295293],[-7.755918,53.295426],[-7.755833,53.295468],[-7.755853,53.295537],[-7.755751,53.295588],[-7.755591,53.295654],[-7.755434,53.29571],[-7.755275,53.295728],[-7.755178,53.29574],[-7.754315,53.296078],[-7.753375,53.296449],[-7.752299,53.296896],[-7.751232,53.297348],[-7.750567,53.297609],[-7.750531,53.297623],[-7.750514,53.29763],[-7.751035,53.297984],[-7.751164,53.298066],[-7.751174,53.298073],[-7.751338,53.29818],[-7.751348,53.298252],[-7.751351,53.298276],[-7.75134,53.298391],[-7.75133,53.298485],[-7.75133,53.298485],[-7.75132,53.298503],[-7.7512,53.298709],[-7.751175,53.298738],[-7.751067,53.298864],[-7.750956,53.298884],[-7.750906,53.298888],[-7.750834,53.298895],[-7.750801,53.298886],[-7.750784,53.298881],[-7.750753,53.298856],[-7.75071,53.298821],[-7.7507,53.298811],[-7.7507,53.298811],[-7.750466,53.298774],[-7.750235,53.298738],[-7.74972,53.298615],[-7.749202,53.298523],[-7.748779,53.298464],[-7.748307,53.298401],[-7.74774,53.29837],[-7.747406,53.298343],[-7.74715,53.298335],[-7.746914,53.298484],[-7.746769,53.298564],[-7.746622,53.298653],[-7.746013,53.298905],[-7.745294,53.299187],[-7.744168,53.299647],[-7.743243,53.300013],[-7.742234,53.300433],[-7.741531,53.300715],[-7.741092,53.300882],[-7.740774,53.301027],[-7.740299,53.301208],[-7.738967,53.301745],[-7.738081,53.302101],[-7.737256,53.30245],[-7.73686,53.302607],[-7.736488,53.302763],[-7.736404,53.302805],[-7.735801,53.303028],[-7.735452,53.30317],[-7.735843,53.303374],[-7.73603,53.303468],[-7.73687,53.303921],[-7.737829,53.304429],[-7.739342,53.305228],[-7.739687,53.305406],[-7.739029,53.306169],[-7.738999,53.306201],[-7.738693,53.306525],[-7.738693,53.306525],[-7.738693,53.306525],[-7.739368,53.307067],[-7.739547,53.30721],[-7.740856,53.308109],[-7.741408,53.308489],[-7.741644,53.308622],[-7.742116,53.308859],[-7.74295,53.309277],[-7.743225,53.309415],[-7.7433,53.309455],[-7.743569,53.309599],[-7.744015,53.309838],[-7.744425,53.310059],[-7.744806,53.310243],[-7.745208,53.310457],[-7.745497,53.310611],[-7.745579,53.310655],[-7.745792,53.31077],[-7.745898,53.31071],[-7.745901,53.310708],[-7.745902,53.310708],[-7.745902,53.310708],[-7.746922,53.310049],[-7.7475,53.30961],[-7.747945,53.309235],[-7.748208,53.309006],[-7.748413,53.308839],[-7.747971,53.308752],[-7.74801,53.308728],[-7.748066,53.308693],[-7.748215,53.3086],[-7.748591,53.30831],[-7.748846,53.308113]]]]}}]}
