{"type":"FeatureCollection","features":[{"type":"Feature","properties":{"source_fid":1284446,"county":"Offaly","bog_geom_ha":221.5014271059276,"low15_pct":99.224806201550393,"low15_ha":219.78436177952506,"overlay_ha":219.67382858961503,"area_delta":-0.11053318991002925},"geometry":{"type":"MultiPolygon","coordinates":[[[[-7.152271,53.226968],[-7.150889,53.226763],[-7.150352,53.226677],[-7.15028,53.230328],[-7.146894,53.230303],[-7.147111,53.230437],[-7.147111,53.230437],[-7.147111,53.230437],[-7.147084,53.230463],[-7.147013,53.230532],[-7.147225,53.230584],[-7.147365,53.230611],[-7.147339,53.230792],[-7.147339,53.230792],[-7.147339,53.230792],[-7.146474,53.230627],[-7.146388,53.23061],[-7.146388,53.23061],[-7.145933,53.230536],[-7.145877,53.231153],[-7.145802,53.231599],[-7.145796,53.231636],[-7.145686,53.232422],[-7.145882,53.232406],[-7.145882,53.232406],[-7.145882,53.232406],[-7.14592,53.232396],[-7.146077,53.232354],[-7.146077,53.232354],[-7.146077,53.232354],[-7.146177,53.232697],[-7.146317,53.233173],[-7.146464,53.233641],[-7.146498,53.233751],[-7.146498,53.233751],[-7.146498,53.233751],[-7.145765,53.233675],[-7.145762,53.233803],[-7.145704,53.233803],[-7.145567,53.234733],[-7.145557,53.23488],[-7.145741,53.234881],[-7.145735,53.235151],[-7.145538,53.235149],[-7.145526,53.23533],[-7.145437,53.235467],[-7.145376,53.235957],[-7.145719,53.23596],[-7.145714,53.236229],[-7.145343,53.236227],[-7.14529,53.236649],[-7.145267,53.236816],[-7.145248,53.237037],[-7.145211,53.238922],[-7.145089,53.238921],[-7.144873,53.240223],[-7.146099,53.240257],[-7.146982,53.240274],[-7.146992,53.239743],[-7.146543,53.23974],[-7.146548,53.239471],[-7.146554,53.239201],[-7.146559,53.238931],[-7.147458,53.238938],[-7.147452,53.239207],[-7.147003,53.239204],[-7.146998,53.239474],[-7.147447,53.239477],[-7.147442,53.239747],[-7.147431,53.240283],[-7.14783,53.240291],[-7.150153,53.240359],[-7.152076,53.240409],[-7.153635,53.240453],[-7.153786,53.240457],[-7.154337,53.240473],[-7.156345,53.240525],[-7.156734,53.240539],[-7.156804,53.240562],[-7.156889,53.240573],[-7.15696,53.240582],[-7.15705,53.2406],[-7.157083,53.240645],[-7.157115,53.240687],[-7.157162,53.240715],[-7.157207,53.240707],[-7.157246,53.240722],[-7.157308,53.240791],[-7.157346,53.240807],[-7.15742,53.240838],[-7.157483,53.240866],[-7.157571,53.240892],[-7.157684,53.240914],[-7.157827,53.240937],[-7.157907,53.240944],[-7.157987,53.240974],[-7.158041,53.241013],[-7.158118,53.24105],[-7.158189,53.241065],[-7.158252,53.241089],[-7.158326,53.241124],[-7.158362,53.241143],[-7.158395,53.241145],[-7.158456,53.241145],[-7.158522,53.241129],[-7.158569,53.241123],[-7.158658,53.241123],[-7.158738,53.241132],[-7.158782,53.241151],[-7.158804,53.241168],[-7.158815,53.241176],[-7.159099,53.241178],[-7.159097,53.241283],[-7.159227,53.241277],[-7.159362,53.241259],[-7.159494,53.241282],[-7.159569,53.24127],[-7.159679,53.241269],[-7.159805,53.241312],[-7.159887,53.241319],[-7.159943,53.241299],[-7.160037,53.241276],[-7.160137,53.241235],[-7.160155,53.24118],[-7.160167,53.241132],[-7.160195,53.241096],[-7.160237,53.24107],[-7.16029,53.241049],[-7.160346,53.241047],[-7.160423,53.241055],[-7.160536,53.241083],[-7.160565,53.241085],[-7.16065,53.241079],[-7.160698,53.24103],[-7.160797,53.240981],[-7.160841,53.240952],[-7.160917,53.240885],[-7.16116,53.240808],[-7.161411,53.240728],[-7.16151,53.24066],[-7.161655,53.240625],[-7.161688,53.240643],[-7.161793,53.240678],[-7.161868,53.240722],[-7.161907,53.24073],[-7.161977,53.240727],[-7.162024,53.240724],[-7.162063,53.240697],[-7.162117,53.240697],[-7.16216,53.240733],[-7.162264,53.240746],[-7.162325,53.240761],[-7.162426,53.240781],[-7.162508,53.240804],[-7.162582,53.240861],[-7.162666,53.240909],[-7.162775,53.240948],[-7.162832,53.240952],[-7.162871,53.240953],[-7.162935,53.240973],[-7.162981,53.240975],[-7.163031,53.24096],[-7.163071,53.24091],[-7.163111,53.240892],[-7.163189,53.240879],[-7.163255,53.240863],[-7.163299,53.240842],[-7.16335,53.240819],[-7.163354,53.240803],[-7.163349,53.240766],[-7.163364,53.240756],[-7.163411,53.240745],[-7.163474,53.240735],[-7.16349,53.240706],[-7.163505,53.240659],[-7.163548,53.240566],[-7.163592,53.240516],[-7.163652,53.240495],[-7.163715,53.240499],[-7.163824,53.240513],[-7.163924,53.240522],[-7.164049,53.240543],[-7.164084,53.240538],[-7.164137,53.240496],[-7.164153,53.240491],[-7.164235,53.240497],[-7.164296,53.240492],[-7.164355,53.24047],[-7.164385,53.240449],[-7.16442,53.240436],[-7.164466,53.240448],[-7.164539,53.240469],[-7.164639,53.240495],[-7.164711,53.240503],[-7.164738,53.24053],[-7.164789,53.240549],[-7.164917,53.24055],[-7.165148,53.240557],[-7.165327,53.240563],[-7.165482,53.240611],[-7.165623,53.240655],[-7.165655,53.240662],[-7.165725,53.24063],[-7.165818,53.240613],[-7.165882,53.240615],[-7.165952,53.24063],[-7.166056,53.240688],[-7.166113,53.24072],[-7.166162,53.240727],[-7.166247,53.240714],[-7.166398,53.240708],[-7.166481,53.240704],[-7.16653,53.240718],[-7.166612,53.240738],[-7.166728,53.240748],[-7.166855,53.240748],[-7.167042,53.240761],[-7.167115,53.240769],[-7.167174,53.240807],[-7.16728,53.240877],[-7.167429,53.240961],[-7.16753,53.24101],[-7.167605,53.241032],[-7.167699,53.241047],[-7.167765,53.24104],[-7.167781,53.241041],[-7.167882,53.241046],[-7.167963,53.241044],[-7.168019,53.241042],[-7.168073,53.241012],[-7.168136,53.240968],[-7.168192,53.240906],[-7.168245,53.240879],[-7.168298,53.240858],[-7.168335,53.240821],[-7.168355,53.24075],[-7.168408,53.240726],[-7.168475,53.240696],[-7.168557,53.240671],[-7.168649,53.240666],[-7.168738,53.240672],[-7.168808,53.240695],[-7.168911,53.240735],[-7.168974,53.240764],[-7.16899,53.240805],[-7.169018,53.240814],[-7.169078,53.240798],[-7.169146,53.240796],[-7.169291,53.240841],[-7.169379,53.240878],[-7.169478,53.240903],[-7.169542,53.240902],[-7.169667,53.24089],[-7.169738,53.240883],[-7.169821,53.240901],[-7.16989,53.240931],[-7.169961,53.240972],[-7.17004,53.241035],[-7.170088,53.241058],[-7.170141,53.241067],[-7.170243,53.241086],[-7.170303,53.241107],[-7.170344,53.241137],[-7.170406,53.24119],[-7.170475,53.241243],[-7.170489,53.241252],[-7.170529,53.241277],[-7.170565,53.241284],[-7.170641,53.241285],[-7.170748,53.241269],[-7.170786,53.241262],[-7.170807,53.241255],[-7.170856,53.241237],[-7.17093,53.241235],[-7.171029,53.241247],[-7.171102,53.241266],[-7.171142,53.241276],[-7.171205,53.241331],[-7.171244,53.241388],[-7.171252,53.241394],[-7.171401,53.24144],[-7.171707,53.241559],[-7.17189,53.241645],[-7.171928,53.241638],[-7.171998,53.241613],[-7.172048,53.241603],[-7.172101,53.24161],[-7.172135,53.241635],[-7.172144,53.241662],[-7.172166,53.2417],[-7.172212,53.241732],[-7.172281,53.241762],[-7.17235,53.241827],[-7.172385,53.241849],[-7.172559,53.241878],[-7.172817,53.241916],[-7.172973,53.24194],[-7.173052,53.241944],[-7.173096,53.241914],[-7.172961,53.24159],[-7.172794,53.241222],[-7.172307,53.240057],[-7.171831,53.23891],[-7.171099,53.237245],[-7.170721,53.236352],[-7.170384,53.235581],[-7.170314,53.235413],[-7.16985,53.234303],[-7.169354,53.233133],[-7.169045,53.2324],[-7.168704,53.231632],[-7.168543,53.231086],[-7.16817,53.230036],[-7.1679,53.229401],[-7.16689,53.22926],[-7.165878,53.229119],[-7.16511,53.229008],[-7.164633,53.228938],[-7.164257,53.228886],[-7.163729,53.228801],[-7.163219,53.228712],[-7.16259,53.228603],[-7.162215,53.228518],[-7.161597,53.228409],[-7.160266,53.228204],[-7.159159,53.228046],[-7.158027,53.2279],[-7.156619,53.227676],[-7.155092,53.227399],[-7.154761,53.227339],[-7.15413,53.227228],[-7.152271,53.226968]],[[-7.147998,53.234358],[-7.148447,53.234361],[-7.148442,53.234631],[-7.147993,53.234628],[-7.147998,53.234358]],[[-7.147982,53.235167],[-7.148431,53.23517],[-7.148426,53.23544],[-7.147977,53.235437],[-7.147982,53.235167]],[[-7.147971,53.235706],[-7.14887,53.235713],[-7.148865,53.235982],[-7.147966,53.235976],[-7.147971,53.235706]],[[-7.147073,53.2357],[-7.147522,53.235703],[-7.147517,53.235972],[-7.147067,53.235969],[-7.147073,53.2357]],[[-7.151978,53.237622],[-7.152427,53.237625],[-7.152422,53.237895],[-7.151973,53.237892],[-7.151978,53.237622]],[[-7.14703,53.237856],[-7.147479,53.23786],[-7.147468,53.238399],[-7.147019,53.238395],[-7.14703,53.237856]],[[-7.147094,53.234621],[-7.147543,53.234625],[-7.147527,53.235433],[-7.147078,53.23543],[-7.147094,53.234621]]],[[[-7.146496,53.2303],[-7.146532,53.230316],[-7.146532,53.230316],[-7.146532,53.230316],[-7.146696,53.230398],[-7.14674,53.230363],[-7.146814,53.230303],[-7.146496,53.2303]]]]}}]}
