{"type":"FeatureCollection","features":[{"type":"Feature","properties":{"source_fid":1285151,"county":"Offaly","bog_geom_ha":100.60187221249875,"low15_pct":100.0,"low15_ha":100.60187221249875,"overlay_ha":100.60187221249875,"area_delta":0.0},"geometry":{"type":"MultiPolygon","coordinates":[[[[-7.295192,53.380206],[-7.294951,53.380366],[-7.294083,53.380927],[-7.294071,53.380934],[-7.293919,53.381022],[-7.293868,53.381038],[-7.293836,53.381041],[-7.292353,53.380508],[-7.292174,53.380443],[-7.29211,53.380421],[-7.292078,53.38042],[-7.292055,53.380423],[-7.292027,53.380434],[-7.291859,53.380538],[-7.291285,53.380918],[-7.290388,53.381498],[-7.289632,53.381996],[-7.289506,53.38207],[-7.289142,53.382319],[-7.288726,53.382598],[-7.288443,53.382799],[-7.288418,53.382817],[-7.287638,53.383348],[-7.286835,53.383871],[-7.285789,53.38456],[-7.28566,53.384633],[-7.285654,53.384637],[-7.285617,53.384639],[-7.285585,53.384631],[-7.285571,53.384628],[-7.285209,53.38443],[-7.285205,53.384427],[-7.285021,53.384327],[-7.283773,53.383648],[-7.283032,53.38326],[-7.28283,53.383154],[-7.282626,53.383042],[-7.282596,53.383025],[-7.280972,53.382115],[-7.280711,53.381979],[-7.280642,53.381987],[-7.280577,53.382003],[-7.280498,53.382041],[-7.280112,53.382316],[-7.280091,53.382303],[-7.279507,53.381992],[-7.278242,53.381319],[-7.277997,53.381481],[-7.27695,53.3822],[-7.276922,53.382185],[-7.276505,53.381958],[-7.276206,53.381796],[-7.275982,53.381679],[-7.275833,53.381611],[-7.275706,53.38157],[-7.275356,53.381505],[-7.275156,53.381494],[-7.275096,53.38149],[-7.274911,53.381498],[-7.274722,53.38152],[-7.274464,53.381582],[-7.274278,53.381651],[-7.274164,53.381706],[-7.273931,53.381817],[-7.273821,53.381884],[-7.273575,53.382055],[-7.27319,53.382306],[-7.273175,53.382312],[-7.273128,53.382443],[-7.27232,53.382973],[-7.271597,53.383453],[-7.271157,53.383744],[-7.271133,53.38376],[-7.272794,53.384645],[-7.275854,53.38626],[-7.277457,53.38714],[-7.278154,53.387523],[-7.278371,53.387642],[-7.278724,53.387836],[-7.279322,53.388164],[-7.283275,53.39024],[-7.28442,53.390859],[-7.285665,53.390254],[-7.28869,53.388631],[-7.289041,53.388444],[-7.29352,53.38608],[-7.295052,53.385262],[-7.295725,53.384903],[-7.297541,53.38396],[-7.295551,53.379967],[-7.295192,53.380206]]]]}}]}
