{"type":"FeatureCollection","features":[{"type":"Feature","properties":{"source_fid":1287560,"county":"Tipperary","bog_geom_ha":118.1719488668561,"low15_pct":100.0,"low15_ha":118.1719488668561,"overlay_ha":118.1719488668561,"area_delta":0.0},"geometry":{"type":"MultiPolygon","coordinates":[[[[-7.657413,52.657747],[-7.666007,52.650102],[-7.665911,52.650058],[-7.665876,52.650042],[-7.665802,52.650026],[-7.665651,52.650012],[-7.665486,52.649986],[-7.665232,52.649945],[-7.665136,52.649927],[-7.664978,52.649897],[-7.66467,52.649838],[-7.66458,52.649818],[-7.664562,52.649805],[-7.66453,52.649781],[-7.664485,52.649732],[-7.664442,52.649686],[-7.664395,52.649621],[-7.664363,52.649576],[-7.664312,52.649508],[-7.6643,52.649475],[-7.664284,52.649426],[-7.664282,52.649393],[-7.66428,52.649374],[-7.664265,52.649316],[-7.664232,52.64928],[-7.664178,52.649265],[-7.664127,52.649251],[-7.664039,52.649235],[-7.663965,52.649221],[-7.663889,52.6492],[-7.663859,52.649192],[-7.663818,52.649181],[-7.663771,52.649175],[-7.66376,52.64918],[-7.663742,52.649188],[-7.663682,52.649249],[-7.663573,52.649374],[-7.663466,52.649484],[-7.663356,52.649583],[-7.66331,52.649631],[-7.663278,52.649665],[-7.66325,52.649702],[-7.663247,52.649731],[-7.663245,52.649763],[-7.663231,52.649786],[-7.663224,52.649797],[-7.66315,52.649869],[-7.663102,52.649902],[-7.663094,52.649907],[-7.663036,52.649952],[-7.662998,52.650018],[-7.66296,52.650094],[-7.662943,52.650111],[-7.662936,52.650114],[-7.662878,52.650135],[-7.662831,52.650151],[-7.662796,52.650163],[-7.662721,52.650179],[-7.662706,52.650182],[-7.662684,52.65017],[-7.662648,52.650148],[-7.662516,52.650056],[-7.662469,52.65],[-7.662462,52.649994],[-7.66245,52.649983],[-7.662426,52.649975],[-7.662411,52.64997],[-7.662376,52.649964],[-7.66235,52.649959],[-7.662262,52.649942],[-7.662249,52.64994],[-7.662229,52.649933],[-7.662171,52.649915],[-7.66205,52.649884],[-7.662006,52.649866],[-7.661924,52.649828],[-7.661922,52.649826],[-7.661851,52.64975],[-7.661806,52.64973],[-7.661773,52.649716],[-7.661708,52.649693],[-7.661634,52.649709],[-7.661549,52.649721],[-7.661442,52.649723],[-7.66141,52.649704],[-7.661384,52.649689],[-7.661253,52.649614],[-7.661249,52.649612],[-7.661243,52.649609],[-7.661184,52.64958],[-7.661152,52.649581],[-7.661029,52.649585],[-7.660966,52.64959],[-7.660917,52.649594],[-7.660893,52.649596],[-7.660845,52.6496],[-7.660694,52.64961],[-7.660677,52.649611],[-7.660677,52.649611],[-7.660677,52.649611],[-7.660583,52.649604],[-7.660452,52.649584],[-7.660436,52.64958],[-7.660295,52.649546],[-7.660274,52.649534],[-7.660261,52.649526],[-7.660243,52.649492],[-7.660222,52.649472],[-7.660175,52.649476],[-7.660164,52.649478],[-7.660139,52.649483],[-7.660097,52.649497],[-7.660074,52.649505],[-7.66,52.649534],[-7.659967,52.649583],[-7.659943,52.64962],[-7.659889,52.64971],[-7.659873,52.649737],[-7.659855,52.649773],[-7.659834,52.649816],[-7.659768,52.649889],[-7.65965,52.649972],[-7.659702,52.650022],[-7.659702,52.650022],[-7.659702,52.650022],[-7.659705,52.650045],[-7.659705,52.650045],[-7.659703,52.650049],[-7.65969,52.650088],[-7.659649,52.650176],[-7.659627,52.650256],[-7.659619,52.650284],[-7.659619,52.650284],[-7.659619,52.650284],[-7.659603,52.650302],[-7.6596,52.650305],[-7.65958,52.650318],[-7.659535,52.650346],[-7.659498,52.650366],[-7.659469,52.650382],[-7.659431,52.650395],[-7.659386,52.650411],[-7.659369,52.650423],[-7.659357,52.65043],[-7.659325,52.650479],[-7.659293,52.650502],[-7.659291,52.650503],[-7.659291,52.650503],[-7.659291,52.650503],[-7.659274,52.650512],[-7.659179,52.65056],[-7.659141,52.650583],[-7.659129,52.650593],[-7.659121,52.650599],[-7.659119,52.6506],[-7.658991,52.65068],[-7.658956,52.650712],[-7.658926,52.65074],[-7.65887,52.650781],[-7.65885,52.650795],[-7.65885,52.650795],[-7.658813,52.650782],[-7.658782,52.650773],[-7.658548,52.650912],[-7.658489,52.650959],[-7.658483,52.650964],[-7.658483,52.650964],[-7.658401,52.650957],[-7.658383,52.650971],[-7.658332,52.651011],[-7.6583,52.651048],[-7.658258,52.651061],[-7.65824,52.651078],[-7.658239,52.651096],[-7.658237,52.651122],[-7.658197,52.651148],[-7.658182,52.651145],[-7.658119,52.651135],[-7.658081,52.651158],[-7.658062,52.65117],[-7.658013,52.651198],[-7.657973,52.651193],[-7.657907,52.651185],[-7.657881,52.651218],[-7.657862,52.651226],[-7.657823,52.651241],[-7.657765,52.651252],[-7.65776,52.651253],[-7.65776,52.651253],[-7.657743,52.651251],[-7.657671,52.651244],[-7.65764,52.651259],[-7.657619,52.651268],[-7.657589,52.651274],[-7.657586,52.651275],[-7.657577,52.651329],[-7.657572,52.651356],[-7.657572,52.651356],[-7.657572,52.651356],[-7.657446,52.651358],[-7.657292,52.651361],[-7.657193,52.651394],[-7.657173,52.651439],[-7.657157,52.651475],[-7.657033,52.651533],[-7.656994,52.651538],[-7.656886,52.651554],[-7.656803,52.651579],[-7.656708,52.651622],[-7.656643,52.651652],[-7.656352,52.651888],[-7.656328,52.651949],[-7.656314,52.651983],[-7.656254,52.652135],[-7.65626,52.652175],[-7.656266,52.652211],[-7.656273,52.652318],[-7.656308,52.652382],[-7.656342,52.652447],[-7.656413,52.652595],[-7.656425,52.652641],[-7.656439,52.652702],[-7.656525,52.652788],[-7.656513,52.652842],[-7.656513,52.652842],[-7.656513,52.652842],[-7.656498,52.65285],[-7.656433,52.652881],[-7.656324,52.652928],[-7.656321,52.652929],[-7.656314,52.652937],[-7.656293,52.652963],[-7.656179,52.653106],[-7.656281,52.653159],[-7.656288,52.653208],[-7.656288,52.653208],[-7.656288,52.653208],[-7.656233,52.653228],[-7.656181,52.653247],[-7.656175,52.653255],[-7.65616,52.653275],[-7.656037,52.65333],[-7.655911,52.653369],[-7.655691,52.653438],[-7.655557,52.653456],[-7.655497,52.653464],[-7.655386,52.653477],[-7.655285,52.65353],[-7.655276,52.653535],[-7.65525,52.653548],[-7.654961,52.653622],[-7.654807,52.653646],[-7.654666,52.653668],[-7.654643,52.653675],[-7.65462,52.653682],[-7.654619,52.653686],[-7.654609,52.653726],[-7.654554,52.653757],[-7.654449,52.653863],[-7.654449,52.653863],[-7.654449,52.653863],[-7.654377,52.653864],[-7.654257,52.653929],[-7.654097,52.654028],[-7.653993,52.654089],[-7.653889,52.65415],[-7.653711,52.654254],[-7.653717,52.654284],[-7.653696,52.654357],[-7.653689,52.654383],[-7.653693,52.654411],[-7.653699,52.654454],[-7.653741,52.654487],[-7.653763,52.654495],[-7.653641,52.654669],[-7.653525,52.654843],[-7.65349,52.654908],[-7.653473,52.654939],[-7.65347,52.65496],[-7.653463,52.654997],[-7.653466,52.655013],[-7.653475,52.655072],[-7.653455,52.655151],[-7.653438,52.655213],[-7.653435,52.655269],[-7.653437,52.655306],[-7.653442,52.655309],[-7.653497,52.655335],[-7.653528,52.655341],[-7.653528,52.655341],[-7.653545,52.655347],[-7.653562,52.655448],[-7.653562,52.655448],[-7.653559,52.655453],[-7.653532,52.655492],[-7.653481,52.655552],[-7.653463,52.655574],[-7.653403,52.655668],[-7.653383,52.655704],[-7.653374,52.655718],[-7.653361,52.655735],[-7.653347,52.655752],[-7.653342,52.655758],[-7.653292,52.655789],[-7.653292,52.655789],[-7.653292,52.655789],[-7.653272,52.655799],[-7.65302,52.655932],[-7.652948,52.65598],[-7.652936,52.656006],[-7.652941,52.656019],[-7.652966,52.656079],[-7.65298,52.656125],[-7.652967,52.656138],[-7.652912,52.656163],[-7.652905,52.656164],[-7.652807,52.656182],[-7.652615,52.656194],[-7.65233,52.656213],[-7.652293,52.656218],[-7.652266,52.656221],[-7.652193,52.656247],[-7.65209,52.656283],[-7.651943,52.656338],[-7.651884,52.65636],[-7.651732,52.656434],[-7.651673,52.656462],[-7.651563,52.656477],[-7.651437,52.656493],[-7.651386,52.656519],[-7.651352,52.65654],[-7.651305,52.656569],[-7.651227,52.656625],[-7.651184,52.656645],[-7.65118,52.656646],[-7.65118,52.656646],[-7.65118,52.656646],[-7.65114,52.656652],[-7.650939,52.65668],[-7.650776,52.656694],[-7.650763,52.656688],[-7.650741,52.656679],[-7.650653,52.656627],[-7.650609,52.656601],[-7.650573,52.656598],[-7.650548,52.656598],[-7.65054,52.656598],[-7.650498,52.656606],[-7.650479,52.656613],[-7.650449,52.656624],[-7.650407,52.65666],[-7.650404,52.656663],[-7.650352,52.656779],[-7.650307,52.656882],[-7.650284,52.657024],[-7.650268,52.657084],[-7.650239,52.657117],[-7.650157,52.657162],[-7.650037,52.657237],[-7.649959,52.657296],[-7.649919,52.657375],[-7.649921,52.657451],[-7.649953,52.657676],[-7.650006,52.657869],[-7.650083,52.657964],[-7.650168,52.658042],[-7.650238,52.658148],[-7.650238,52.658229],[-7.650159,52.65834],[-7.649969,52.658501],[-7.650015,52.658623],[-7.650079,52.658845],[-7.650062,52.658933],[-7.649978,52.659153],[-7.649977,52.6592],[-7.650068,52.659305],[-7.650138,52.65937],[-7.650319,52.659859],[-7.650535,52.660264],[-7.651066,52.66141],[-7.651251,52.661807],[-7.651353,52.662025],[-7.652154,52.663734],[-7.65219,52.663811],[-7.652207,52.663844],[-7.652264,52.663956],[-7.652318,52.664059],[-7.652318,52.664059],[-7.652318,52.66406],[-7.65241,52.664254],[-7.652483,52.664407],[-7.653068,52.665636],[-7.65379,52.667098],[-7.653867,52.667255],[-7.654042,52.667612],[-7.654101,52.667732],[-7.654126,52.667783],[-7.654145,52.667821],[-7.654211,52.667957],[-7.654252,52.668041],[-7.654302,52.668143],[-7.654338,52.668217],[-7.654383,52.668307],[-7.654457,52.668458],[-7.654464,52.668473],[-7.654551,52.66865],[-7.654607,52.668764],[-7.654632,52.668815],[-7.654881,52.669322],[-7.655239,52.670062],[-7.655651,52.670936],[-7.656026,52.671732],[-7.656341,52.672381],[-7.656415,52.672534],[-7.656471,52.67265],[-7.656478,52.672736],[-7.656478,52.672739],[-7.656489,52.673244],[-7.656515,52.673906],[-7.656525,52.674884],[-7.656545,52.675361],[-7.656568,52.675902],[-7.656568,52.675923],[-7.656592,52.676612],[-7.656593,52.676635],[-7.656593,52.676664],[-7.656609,52.677551],[-7.656609,52.67756],[-7.65661,52.677575],[-7.656607,52.678113],[-7.656613,52.678288],[-7.656627,52.678684],[-7.656649,52.67931],[-7.656692,52.680334],[-7.656693,52.680374],[-7.656697,52.680465],[-7.656699,52.680522],[-7.656702,52.680607],[-7.656723,52.681214],[-7.657006,52.681369],[-7.657095,52.681417],[-7.658778,52.682335],[-7.65996,52.683011],[-7.660331,52.683226],[-7.660351,52.683237],[-7.660562,52.683359],[-7.660592,52.683377],[-7.660665,52.683328],[-7.660991,52.683091],[-7.661364,52.682804],[-7.661634,52.682624],[-7.662034,52.682354],[-7.661663,52.681328],[-7.66153,52.68096],[-7.660544,52.678431],[-7.660901,52.678367],[-7.661767,52.67821],[-7.661734,52.678119],[-7.661318,52.677088],[-7.659416,52.672375],[-7.656233,52.66448],[-7.654879,52.661122],[-7.654624,52.660489],[-7.654517,52.660225],[-7.656696,52.658385],[-7.657039,52.658063],[-7.657413,52.657747]]]]}}]}
