{"type":"FeatureCollection","features":[{"type":"Feature","properties":{"source_fid":1291983,"county":"Offaly","bog_geom_ha":136.30716726442725,"low15_pct":99.735799207397619,"low15_ha":135.94704264814078,"overlay_ha":136.00365784256459,"area_delta":0.056615194423812909},"geometry":{"type":"MultiPolygon","coordinates":[[[[-7.840476,53.23756],[-7.838547,53.23614],[-7.836733,53.234788],[-7.836733,53.234788],[-7.834714,53.23464],[-7.8317,53.234421],[-7.829118,53.234256],[-7.831165,53.238851],[-7.832512,53.241874],[-7.83286,53.242661],[-7.833501,53.244105],[-7.833601,53.244351],[-7.833691,53.244569],[-7.833824,53.244837],[-7.833912,53.245054],[-7.834017,53.245312],[-7.834064,53.245434],[-7.834214,53.245822],[-7.834371,53.246125],[-7.834423,53.246224],[-7.834468,53.246323],[-7.834635,53.246686],[-7.834757,53.246941],[-7.834879,53.247196],[-7.835007,53.247552],[-7.835149,53.247864],[-7.83522,53.24802],[-7.835279,53.248144],[-7.835342,53.248278],[-7.835427,53.248483],[-7.835443,53.24852],[-7.837533,53.248522],[-7.837526,53.250319],[-7.843421,53.250327],[-7.843407,53.249975],[-7.843404,53.249715],[-7.844458,53.249741],[-7.844611,53.249665],[-7.845302,53.248385],[-7.845853,53.24734],[-7.845873,53.247222],[-7.845909,53.246404],[-7.84614,53.24636],[-7.848183,53.247129],[-7.848716,53.24615],[-7.849,53.246043],[-7.849231,53.245867],[-7.84911,53.245667],[-7.848583,53.244638],[-7.848668,53.24461],[-7.84906,53.244549],[-7.849457,53.244522],[-7.849724,53.244514],[-7.850177,53.244515],[-7.851102,53.244518],[-7.850986,53.244443],[-7.850869,53.24437],[-7.850268,53.243991],[-7.850179,53.243939],[-7.85008,53.243881],[-7.849431,53.243458],[-7.849431,53.243509],[-7.848982,53.243508],[-7.848983,53.243166],[-7.848962,53.243152],[-7.846914,53.241896],[-7.845911,53.241325],[-7.844946,53.240783],[-7.844946,53.240807],[-7.844497,53.240807],[-7.844498,53.240468],[-7.844335,53.240345],[-7.842418,53.238931],[-7.840476,53.23756]],[[-7.848532,53.243508],[-7.848982,53.243508],[-7.848981,53.243778],[-7.848531,53.243777],[-7.848532,53.243508]],[[-7.84898,53.244048],[-7.848981,53.243778],[-7.84943,53.243779],[-7.849429,53.244048],[-7.84898,53.244048]]]]}}]}
