{"type":"FeatureCollection","features":[{"type":"Feature","properties":{"source_fid":1295692,"county":"Offaly","bog_geom_ha":202.29434974727945,"low15_pct":100.0,"low15_ha":202.29434974727945,"overlay_ha":202.29434974727945,"area_delta":0.0},"geometry":{"type":"MultiPolygon","coordinates":[[[[-7.260411,53.359576],[-7.260097,53.359734],[-7.259887,53.35984],[-7.259498,53.359662],[-7.259498,53.359662],[-7.259498,53.359662],[-7.259416,53.359562],[-7.259281,53.359395],[-7.259262,53.358909],[-7.259262,53.358909],[-7.259955,53.358685],[-7.259927,53.358661],[-7.259363,53.358205],[-7.258998,53.35791],[-7.258863,53.357795],[-7.25882,53.357762],[-7.258757,53.357698],[-7.257515,53.357275],[-7.257656,53.356953],[-7.258328,53.355443],[-7.256864,53.352985],[-7.256851,53.352963],[-7.25668,53.35304],[-7.25587,53.353388],[-7.255133,53.353709],[-7.254241,53.354166],[-7.253131,53.354729],[-7.252027,53.355271],[-7.251015,53.355787],[-7.250428,53.356066],[-7.249821,53.356387],[-7.248909,53.356834],[-7.24162,53.360412],[-7.240578,53.361003],[-7.241129,53.361409],[-7.241851,53.361964],[-7.241915,53.362007],[-7.242002,53.362068],[-7.242326,53.362329],[-7.242649,53.36259],[-7.242911,53.362797],[-7.243068,53.362922],[-7.243214,53.363037],[-7.24413,53.363734],[-7.244329,53.363885],[-7.244329,53.363885],[-7.244747,53.364424],[-7.245003,53.364909],[-7.245075,53.365046],[-7.247511,53.366935],[-7.247882,53.367236],[-7.248541,53.367769],[-7.248714,53.367916],[-7.24919,53.368317],[-7.249605,53.368667],[-7.250485,53.369401],[-7.251135,53.371167],[-7.251582,53.372381],[-7.251805,53.372972],[-7.25219,53.37399],[-7.257076,53.375242],[-7.257116,53.375236],[-7.25753,53.375185],[-7.25753,53.375185],[-7.25753,53.375185],[-7.258003,53.374953],[-7.258291,53.374828],[-7.259685,53.374204],[-7.260596,53.373778],[-7.260618,53.373768],[-7.259479,53.3716],[-7.263483,53.36812],[-7.262332,53.365972],[-7.264096,53.365613],[-7.262566,53.36292],[-7.261486,53.361018],[-7.261053,53.360842],[-7.261312,53.360748],[-7.260594,53.359468],[-7.260424,53.359569],[-7.260411,53.359576]]]]}}]}
