{"type":"FeatureCollection","features":[{"type":"Feature","properties":{"source_fid":1297840,"county":"Offaly","bog_geom_ha":133.80757361985448,"low15_pct":100.0,"low15_ha":133.80757361985448,"overlay_ha":133.80757361985448,"area_delta":0.0},"geometry":{"type":"MultiPolygon","coordinates":[[[[-7.163459,53.217202],[-7.163451,53.217209],[-7.16342,53.217236],[-7.163404,53.21728],[-7.163399,53.217295],[-7.163405,53.217301],[-7.163419,53.217314],[-7.163456,53.21733],[-7.163461,53.217355],[-7.163464,53.217372],[-7.163464,53.217372],[-7.163464,53.217372],[-7.16338,53.217422],[-7.163339,53.217424],[-7.163311,53.217425],[-7.163269,53.217417],[-7.163204,53.217405],[-7.163079,53.217377],[-7.163027,53.217367],[-7.162978,53.217357],[-7.162699,53.217479],[-7.162664,53.217477],[-7.162517,53.217469],[-7.162237,53.217542],[-7.162219,53.217532],[-7.161639,53.217643],[-7.159067,53.218113],[-7.157487,53.218413],[-7.156999,53.218521],[-7.157123,53.218644],[-7.157154,53.218675],[-7.157243,53.218763],[-7.157284,53.218809],[-7.155888,53.219287],[-7.155412,53.219464],[-7.154398,53.219669],[-7.153206,53.21991],[-7.152715,53.220009],[-7.152647,53.220025],[-7.1525,53.220055],[-7.152385,53.220078],[-7.15216,53.220131],[-7.152084,53.220149],[-7.151977,53.220238],[-7.151955,53.221354],[-7.150458,53.221343],[-7.150352,53.226677],[-7.150889,53.226763],[-7.152271,53.226968],[-7.15413,53.227228],[-7.154761,53.227339],[-7.155092,53.227399],[-7.156619,53.227676],[-7.158027,53.2279],[-7.159159,53.228046],[-7.160266,53.228204],[-7.161597,53.228409],[-7.162215,53.228518],[-7.16259,53.228603],[-7.163219,53.228712],[-7.163729,53.228801],[-7.164257,53.228886],[-7.164633,53.228938],[-7.16511,53.229008],[-7.165878,53.229119],[-7.16689,53.22926],[-7.1679,53.229401],[-7.167898,53.229397],[-7.168413,53.228577],[-7.168955,53.227763],[-7.169103,53.227497],[-7.169494,53.226799],[-7.170155,53.225744],[-7.170715,53.224733],[-7.170763,53.22465],[-7.171631,53.223158],[-7.172191,53.222207],[-7.171603,53.222074],[-7.171119,53.22202],[-7.170271,53.221951],[-7.169928,53.221923],[-7.169645,53.221807],[-7.169686,53.221451],[-7.169691,53.221407],[-7.169592,53.221401],[-7.168998,53.221346],[-7.168116,53.221247],[-7.16636,53.221044],[-7.166564,53.219536],[-7.166745,53.217973],[-7.166878,53.216811],[-7.166866,53.21681],[-7.166777,53.216805],[-7.166658,53.216797],[-7.166514,53.216787],[-7.166269,53.216799],[-7.165244,53.2169],[-7.164461,53.217058],[-7.164441,53.217062],[-7.164126,53.21711],[-7.163661,53.217171],[-7.163514,53.21722],[-7.163459,53.217202]]]]}}]}
