{"type":"FeatureCollection","features":[{"type":"Feature","properties":{"source_fid":1298840,"county":"Offaly","bog_geom_ha":229.28210567442792,"low15_pct":100.0,"low15_ha":229.28210567442792,"overlay_ha":229.28210567442792,"area_delta":0.0},"geometry":{"type":"MultiPolygon","coordinates":[[[[-7.021615,53.300227],[-7.021575,53.300205],[-7.021546,53.300189],[-7.021292,53.300173],[-7.021166,53.300164],[-7.020103,53.300097],[-7.015297,53.299818],[-7.010837,53.299553],[-7.010375,53.299521],[-7.009987,53.299494],[-7.008784,53.29941],[-7.004488,53.29914],[-7.000489,53.30041],[-7.000399,53.300439],[-6.997059,53.301489],[-6.994357,53.302348],[-6.993915,53.302488],[-6.987383,53.304566],[-6.980667,53.306737],[-6.980622,53.306751],[-6.980862,53.307631],[-6.981434,53.309674],[-6.981458,53.309857],[-6.979872,53.310111],[-6.978429,53.31033],[-6.978482,53.310529],[-6.978798,53.31173],[-6.978826,53.311835],[-6.978862,53.311974],[-6.979091,53.312756],[-6.979767,53.312644],[-6.98245,53.312203],[-6.984912,53.311794],[-6.986446,53.311522],[-6.988582,53.31118],[-6.991878,53.310646],[-6.994721,53.310172],[-6.995996,53.309953],[-6.997194,53.309748],[-6.998486,53.30955],[-6.999733,53.309348],[-7.000958,53.309149],[-7.002162,53.308953],[-7.003357,53.308754],[-7.004408,53.308577],[-7.004871,53.308519],[-7.005957,53.308334],[-7.009367,53.307746],[-7.010513,53.30752],[-7.011363,53.30734],[-7.012902,53.307092],[-7.014327,53.306857],[-7.015751,53.306622],[-7.017173,53.306383],[-7.018741,53.306128],[-7.020543,53.305838],[-7.020626,53.305825],[-7.020673,53.305555],[-7.020791,53.304871],[-7.020873,53.304448],[-7.020938,53.304077],[-7.020938,53.304077],[-7.020977,53.303854],[-7.021121,53.302988],[-7.021182,53.302625],[-7.021278,53.302054],[-7.021401,53.30145],[-7.021428,53.301319],[-7.021499,53.300906],[-7.02157,53.300492],[-7.021615,53.300227]]]]}}]}
