{"type":"FeatureCollection","features":[{"type":"Feature","properties":{"source_fid":1298290,"county":"Offaly","bog_geom_ha":158.29282969282195,"low15_pct":99.886299033541775,"low15_ha":158.11284921562716,"overlay_ha":158.11282969282792,"area_delta":-0.000019522799249216405},"geometry":{"type":"MultiPolygon","coordinates":[[[[-7.761242,53.214379],[-7.760128,53.213652],[-7.760666,53.214475],[-7.761236,53.215346],[-7.76147,53.215705],[-7.761502,53.215758],[-7.761737,53.216154],[-7.761931,53.216329],[-7.761931,53.216329],[-7.761974,53.216391],[-7.762288,53.216582],[-7.762362,53.216612],[-7.762399,53.216627],[-7.763114,53.216939],[-7.763845,53.217262],[-7.763902,53.217287],[-7.764217,53.217424],[-7.764848,53.2177],[-7.76567,53.218065],[-7.766778,53.218557],[-7.767744,53.218975],[-7.768687,53.219387],[-7.769656,53.219814],[-7.770616,53.22023],[-7.772164,53.220929],[-7.773516,53.221535],[-7.774485,53.22197],[-7.774871,53.222141],[-7.775381,53.222366],[-7.77544,53.222392],[-7.77679,53.222998],[-7.776948,53.223101],[-7.777006,53.223147],[-7.77705,53.223181],[-7.777664,53.223613],[-7.777778,53.223693],[-7.778072,53.223917],[-7.779513,53.223969],[-7.780495,53.224005],[-7.781491,53.224042],[-7.781491,53.224042],[-7.7815,53.224064],[-7.781958,53.225254],[-7.782597,53.225162],[-7.782841,53.225127],[-7.783378,53.225163],[-7.784019,53.225144],[-7.785407,53.225105],[-7.785571,53.224949],[-7.786351,53.224192],[-7.787161,53.223448],[-7.787191,53.22258],[-7.787238,53.222123],[-7.787253,53.221973],[-7.787268,53.221839],[-7.787303,53.221721],[-7.787303,53.221716],[-7.787291,53.221551],[-7.787337,53.221096],[-7.787375,53.220625],[-7.787412,53.220188],[-7.787415,53.220148],[-7.78742,53.220092],[-7.787454,53.219792],[-7.787464,53.219707],[-7.787476,53.2196],[-7.787523,53.219178],[-7.787559,53.218823],[-7.787653,53.218402],[-7.787692,53.218224],[-7.787727,53.218064],[-7.787827,53.2176],[-7.787829,53.217595],[-7.787829,53.217595],[-7.785601,53.210496],[-7.785352,53.210558],[-7.785319,53.210566],[-7.781508,53.2115],[-7.779569,53.211974],[-7.7776,53.212472],[-7.776242,53.212801],[-7.775633,53.212949],[-7.77543,53.212999],[-7.773628,53.213445],[-7.771637,53.213941],[-7.769636,53.214427],[-7.767665,53.214896],[-7.765636,53.215369],[-7.764504,53.215649],[-7.763618,53.215606],[-7.76305,53.215567],[-7.762138,53.214999],[-7.761242,53.214379]],[[-7.783066,53.21294],[-7.783064,53.21321],[-7.782615,53.213209],[-7.782616,53.21294],[-7.783066,53.21294]],[[-7.782166,53.213208],[-7.782165,53.213478],[-7.781715,53.213477],[-7.781717,53.213208],[-7.782166,53.213208]]]]}}]}
