{"type":"FeatureCollection","features":[{"type":"Feature","properties":{"source_fid":1309646,"county":"Offaly","bog_geom_ha":446.53735176603664,"low15_pct":100.0,"low15_ha":446.53735176603664,"overlay_ha":446.53735176603664,"area_delta":0.0},"geometry":{"type":"MultiPolygon","coordinates":[[[[-7.735827,53.251928],[-7.735827,53.251928],[-7.735827,53.251928],[-7.735746,53.252187],[-7.735702,53.252328],[-7.735615,53.252688],[-7.735609,53.252711],[-7.732222,53.252549],[-7.731057,53.252506],[-7.73065,53.252492],[-7.730101,53.252468],[-7.729861,53.252457],[-7.729474,53.252442],[-7.728783,53.252414],[-7.728527,53.2524],[-7.728468,53.252398],[-7.72839,53.252394],[-7.727334,53.25235],[-7.726431,53.252306],[-7.726339,53.252301],[-7.725288,53.252246],[-7.723856,53.252189],[-7.723843,53.252189],[-7.722826,53.252136],[-7.721606,53.252087],[-7.721135,53.252069],[-7.72061,53.252041],[-7.720582,53.252041],[-7.718678,53.25193],[-7.718658,53.251597],[-7.718661,53.251357],[-7.718632,53.251356],[-7.716987,53.251183],[-7.715901,53.251079],[-7.715317,53.251022],[-7.714765,53.250977],[-7.713507,53.250852],[-7.712478,53.250764],[-7.711593,53.250676],[-7.711229,53.250654],[-7.710296,53.250569],[-7.710107,53.250548],[-7.709984,53.250456],[-7.709976,53.250468],[-7.709968,53.25048],[-7.709729,53.251055],[-7.709372,53.2517],[-7.709372,53.2517],[-7.708477,53.251607],[-7.70796,53.251551],[-7.70708,53.251456],[-7.706943,53.251444],[-7.706855,53.251436],[-7.706472,53.251396],[-7.705809,53.251328],[-7.705439,53.251291],[-7.705781,53.250658],[-7.70649,53.249281],[-7.706567,53.249139],[-7.706637,53.249011],[-7.706422,53.248855],[-7.705174,53.247952],[-7.704619,53.24753],[-7.704064,53.247108],[-7.702725,53.246151],[-7.702722,53.246465],[-7.701224,53.246461],[-7.701206,53.249157],[-7.697579,53.249148],[-7.697549,53.249238],[-7.697206,53.250203],[-7.697023,53.250734],[-7.696753,53.251513],[-7.696719,53.251667],[-7.696675,53.2518],[-7.696602,53.251895],[-7.696602,53.251895],[-7.696684,53.251955],[-7.697225,53.252353],[-7.698127,53.253027],[-7.698727,53.253485],[-7.69943,53.254006],[-7.699477,53.254041],[-7.699836,53.254308],[-7.70011,53.254527],[-7.700282,53.254654],[-7.700616,53.254901],[-7.700975,53.25517],[-7.701265,53.255387],[-7.701285,53.25544],[-7.701428,53.255822],[-7.701681,53.256402],[-7.701927,53.25701],[-7.702311,53.25795],[-7.702483,53.25835],[-7.702737,53.258942],[-7.702997,53.259618],[-7.703001,53.259629],[-7.70304,53.25972],[-7.70322,53.260135],[-7.703229,53.260165],[-7.703317,53.260434],[-7.703367,53.260535],[-7.70359,53.260891],[-7.703889,53.26132],[-7.703986,53.261458],[-7.70442,53.261304],[-7.704853,53.26115],[-7.705277,53.261005],[-7.705614,53.260898],[-7.705614,53.260898],[-7.705614,53.260898],[-7.705868,53.261164],[-7.705258,53.261459],[-7.705713,53.261264],[-7.705977,53.26115],[-7.706301,53.261546],[-7.70635,53.261625],[-7.706459,53.261804],[-7.70655,53.261959],[-7.706705,53.262282],[-7.706853,53.262588],[-7.706883,53.262583],[-7.706902,53.262579],[-7.707666,53.262452],[-7.707699,53.262446],[-7.707709,53.262445],[-7.708172,53.262378],[-7.708172,53.262378],[-7.708172,53.262378],[-7.708377,53.262855],[-7.708332,53.262858],[-7.708275,53.262862],[-7.708332,53.263109],[-7.708477,53.263095],[-7.708516,53.263198],[-7.708645,53.263541],[-7.70867,53.263602],[-7.708832,53.263989],[-7.708832,53.263989],[-7.708832,53.263989],[-7.70877,53.263962],[-7.708708,53.263934],[-7.70899,53.264638],[-7.709059,53.264758],[-7.709089,53.264824],[-7.709123,53.264919],[-7.709162,53.265063],[-7.709211,53.265186],[-7.70925,53.265302],[-7.709279,53.265419],[-7.709309,53.265525],[-7.708813,53.265581],[-7.707663,53.265736],[-7.707336,53.265774],[-7.707157,53.265789],[-7.706759,53.265824],[-7.706933,53.265935],[-7.707459,53.266187],[-7.707818,53.266351],[-7.708092,53.266471],[-7.708294,53.266558],[-7.708338,53.26658],[-7.708948,53.266859],[-7.709522,53.267167],[-7.709612,53.267185],[-7.710242,53.267508],[-7.710378,53.267578],[-7.710721,53.267765],[-7.710925,53.267871],[-7.711138,53.26798],[-7.711556,53.268206],[-7.71217,53.268484],[-7.712224,53.268512],[-7.712627,53.268716],[-7.712745,53.268773],[-7.712778,53.268789],[-7.712837,53.268817],[-7.713027,53.268885],[-7.713256,53.268962],[-7.713283,53.268969],[-7.713318,53.268979],[-7.713592,53.26906],[-7.713795,53.26913],[-7.714281,53.269261],[-7.71476,53.269375],[-7.715546,53.269532],[-7.71622,53.269698],[-7.716262,53.269709],[-7.716702,53.269817],[-7.717861,53.270123],[-7.718654,53.270303],[-7.7191,53.270414],[-7.719188,53.270441],[-7.719199,53.270489],[-7.719214,53.270584],[-7.719278,53.270764],[-7.719327,53.270974],[-7.719881,53.270922],[-7.720283,53.270932],[-7.722054,53.270587],[-7.722736,53.270446],[-7.722868,53.270421],[-7.722967,53.270387],[-7.722995,53.270378],[-7.72309,53.270503],[-7.724089,53.270108],[-7.724373,53.270465],[-7.724411,53.270486],[-7.72456,53.270636],[-7.724682,53.270747],[-7.724906,53.270627],[-7.724914,53.270623],[-7.725197,53.270486],[-7.725691,53.270255],[-7.726295,53.269969],[-7.726492,53.269876],[-7.727093,53.269577],[-7.727661,53.269295],[-7.727671,53.26929],[-7.727718,53.269266],[-7.728454,53.26889],[-7.728705,53.268762],[-7.728779,53.268723],[-7.72952,53.26834],[-7.730084,53.268047],[-7.73065,53.267754],[-7.730971,53.267588],[-7.731137,53.267506],[-7.73125,53.267451],[-7.731587,53.267289],[-7.73188,53.267149],[-7.732386,53.266906],[-7.732641,53.266784],[-7.732965,53.266628],[-7.73303,53.266597],[-7.733521,53.266358],[-7.733697,53.266273],[-7.734042,53.266102],[-7.734348,53.26595],[-7.735077,53.265589],[-7.735286,53.265488],[-7.735915,53.265184],[-7.736435,53.264926],[-7.737111,53.264596],[-7.737407,53.26445],[-7.737934,53.264172],[-7.738774,53.263787],[-7.738694,53.26316],[-7.738662,53.262939],[-7.73865,53.262385],[-7.738605,53.262055],[-7.738607,53.261791],[-7.738461,53.260516],[-7.738417,53.259859],[-7.73829,53.258853],[-7.738244,53.257986],[-7.738203,53.257329],[-7.738198,53.256417],[-7.738086,53.255361],[-7.738025,53.254769],[-7.737978,53.254263],[-7.737833,53.252606],[-7.7378,53.252269],[-7.737768,53.251996],[-7.736994,53.251967],[-7.736954,53.251965],[-7.736566,53.251951],[-7.735906,53.251926],[-7.735877,53.251926],[-7.735827,53.251928]],[[-7.721903,53.264804],[-7.722078,53.264709],[-7.722079,53.264482],[-7.72249,53.264483],[-7.7228,53.264314],[-7.723044,53.264484],[-7.723578,53.264486],[-7.723572,53.265384],[-7.722073,53.265381],[-7.722076,53.264922],[-7.721903,53.264804],[-7.721903,53.264804],[-7.721903,53.264804]]]]}}]}
