{"type":"FeatureCollection","features":[{"type":"Feature","properties":{"source_fid":1313030,"county":"Kildare","bog_geom_ha":334.89190365780291,"low15_pct":100.0,"low15_ha":334.89190365780291,"overlay_ha":334.89190365780291,"area_delta":0.0},"geometry":{"type":"MultiPolygon","coordinates":[[[[-6.993915,53.287063],[-6.991392,53.286239],[-6.991392,53.286239],[-6.988125,53.286951],[-6.987771,53.287028],[-6.987339,53.287122],[-6.983573,53.287942],[-6.982681,53.288137],[-6.981102,53.288481],[-6.976955,53.289373],[-6.976026,53.289971],[-6.971633,53.292796],[-6.970388,53.293604],[-6.969543,53.294152],[-6.967883,53.295188],[-6.963523,53.297938],[-6.96246,53.298596],[-6.958358,53.299266],[-6.953633,53.300041],[-6.950897,53.300498],[-6.950893,53.300623],[-6.950127,53.300616],[-6.949856,53.30066],[-6.949852,53.300661],[-6.949845,53.300662],[-6.949095,53.300783],[-6.948685,53.300846],[-6.9483,53.300905],[-6.947463,53.301041],[-6.94703,53.301112],[-6.946981,53.30112],[-6.946513,53.301198],[-6.945919,53.301289],[-6.945824,53.301495],[-6.945733,53.301721],[-6.945679,53.301851],[-6.945634,53.30196],[-6.945515,53.302211],[-6.945322,53.302612],[-6.945265,53.302739],[-6.945169,53.302951],[-6.945082,53.303143],[-6.945012,53.303297],[-6.944899,53.303566],[-6.944881,53.303605],[-6.944834,53.303705],[-6.944818,53.303749],[-6.944854,53.303756],[-6.945256,53.303857],[-6.945979,53.304038],[-6.946502,53.304169],[-6.946541,53.304179],[-6.948103,53.304193],[-6.948157,53.30412],[-6.948157,53.30412],[-6.948157,53.30412],[-6.94841,53.304195],[-6.949306,53.304203],[-6.949303,53.304327],[-6.949771,53.30369],[-6.950583,53.302586],[-6.953021,53.303211],[-6.957778,53.306664],[-6.958887,53.30611],[-6.961234,53.307823],[-6.961361,53.307911],[-6.966606,53.305239],[-6.971844,53.302665],[-6.971845,53.302603],[-6.971968,53.302604],[-6.972179,53.3025],[-6.972215,53.302454],[-6.972938,53.301499],[-6.973097,53.301289],[-6.973253,53.301071],[-6.97369,53.30046],[-6.974542,53.299997],[-6.97457,53.299982],[-6.974946,53.300185],[-6.975165,53.300005],[-6.975211,53.299967],[-6.975211,53.299967],[-6.975211,53.299967],[-6.975584,53.299968],[-6.975707,53.299968],[-6.975837,53.29999],[-6.976199,53.300049],[-6.976407,53.300023],[-6.976409,53.299946],[-6.977135,53.299952],[-6.977179,53.299949],[-6.977918,53.299563],[-6.97793,53.299061],[-6.979429,53.299074],[-6.979451,53.298175],[-6.98095,53.298188],[-6.980929,53.299086],[-6.982112,53.299097],[-6.982528,53.299015],[-6.983594,53.298809],[-6.983726,53.298783],[-6.983937,53.298743],[-6.983949,53.298214],[-6.9853,53.298225],[-6.985298,53.298188],[-6.985294,53.298171],[-6.985012,53.29802],[-6.984992,53.297994],[-6.984997,53.29797],[-6.985507,53.297688],[-6.985555,53.297661],[-6.985603,53.297616],[-6.985803,53.29735],[-6.986038,53.297105],[-6.986293,53.296862],[-6.986514,53.296892],[-6.987103,53.296746],[-6.987215,53.296807],[-6.988728,53.296768],[-6.988786,53.296693],[-6.9888,53.296642],[-6.988785,53.296595],[-6.988818,53.296541],[-6.988954,53.296491],[-6.98906,53.296485],[-6.989195,53.296466],[-6.990412,53.296313],[-6.991845,53.296143],[-6.993482,53.295944],[-6.994306,53.295845],[-6.994477,53.295833],[-6.994704,53.295827],[-6.997063,53.295825],[-6.997282,53.295819],[-6.998,53.295761],[-6.998438,53.295727],[-6.998574,53.295717],[-6.99872,53.295715],[-6.998992,53.295713],[-6.998919,53.295217],[-6.998853,53.294604],[-6.998839,53.294419],[-6.998843,53.294383],[-6.998869,53.294361],[-7.000195,53.293695],[-7.002244,53.292656],[-7.003745,53.291906],[-7.004789,53.291373],[-7.005437,53.291045],[-7.005683,53.290625],[-7.00153,53.289346],[-6.9988,53.288517],[-6.997637,53.288171],[-6.997183,53.288036],[-6.997085,53.288007],[-6.993915,53.287063]]]]}}]}
