{"type":"FeatureCollection","features":[{"type":"Feature","properties":{"source_fid":1316144,"county":"Offaly","bog_geom_ha":235.91331195863248,"low15_pct":99.732722413134795,"low15_ha":235.28276855133564,"overlay_ha":235.28331195865803,"area_delta":0.00054340732239666067},"geometry":{"type":"MultiPolygon","coordinates":[[[[-7.971947,53.299453],[-7.971359,53.299161],[-7.971359,53.299161],[-7.971359,53.299161],[-7.971076,53.299396],[-7.970956,53.299498],[-7.970871,53.29957],[-7.970743,53.299681],[-7.970736,53.299687],[-7.970569,53.299825],[-7.970357,53.300013],[-7.97023,53.300125],[-7.970041,53.30029],[-7.969773,53.300522],[-7.969674,53.300602],[-7.96967,53.300606],[-7.969656,53.300617],[-7.969599,53.300663],[-7.96947,53.300767],[-7.969174,53.30104],[-7.968731,53.301421],[-7.968525,53.301601],[-7.968063,53.301994],[-7.968025,53.302029],[-7.967822,53.302216],[-7.967719,53.302301],[-7.967664,53.302347],[-7.967518,53.302473],[-7.967198,53.302752],[-7.967092,53.302838],[-7.966819,53.30308],[-7.96672,53.303168],[-7.966604,53.303266],[-7.966496,53.303356],[-7.9662,53.303612],[-7.96601,53.303771],[-7.966003,53.303777],[-7.965901,53.303871],[-7.96589,53.303881],[-7.96575,53.304],[-7.964926,53.304746],[-7.964831,53.304837],[-7.964428,53.305182],[-7.963936,53.305613],[-7.963713,53.3058],[-7.963479,53.305997],[-7.963116,53.306314],[-7.962979,53.306433],[-7.96263,53.306735],[-7.962485,53.306859],[-7.962325,53.306997],[-7.962123,53.307169],[-7.961726,53.307513],[-7.961584,53.307645],[-7.961001,53.308136],[-7.960725,53.308364],[-7.960643,53.308432],[-7.96052,53.308541],[-7.960201,53.308823],[-7.959738,53.309216],[-7.958923,53.309915],[-7.958429,53.310343],[-7.958359,53.310402],[-7.958165,53.310567],[-7.957858,53.310833],[-7.957337,53.311296],[-7.957079,53.31152],[-7.956579,53.311955],[-7.956523,53.312004],[-7.956156,53.312322],[-7.955729,53.31269],[-7.955631,53.312773],[-7.955595,53.312804],[-7.955588,53.31281],[-7.95567,53.312863],[-7.956155,53.313166],[-7.956408,53.313327],[-7.956445,53.313284],[-7.956124,53.313053],[-7.9561,53.312739],[-7.956127,53.31247],[-7.956289,53.312448],[-7.956792,53.312407],[-7.956864,53.312379],[-7.957146,53.312326],[-7.957348,53.312328],[-7.95746,53.312337],[-7.957888,53.312491],[-7.957999,53.312572],[-7.958356,53.312647],[-7.958407,53.31268],[-7.958488,53.312828],[-7.958605,53.312835],[-7.958634,53.312867],[-7.95865,53.313024],[-7.958682,53.313125],[-7.958593,53.31331],[-7.958613,53.313345],[-7.958682,53.31339],[-7.958465,53.313603],[-7.958173,53.313722],[-7.958118,53.313779],[-7.958098,53.31383],[-7.958132,53.31402],[-7.958094,53.314256],[-7.958089,53.314391],[-7.958265,53.314495],[-7.958381,53.314566],[-7.958381,53.314566],[-7.958866,53.314864],[-7.959087,53.315003],[-7.959092,53.315073],[-7.959094,53.315106],[-7.959264,53.316073],[-7.959326,53.316121],[-7.959521,53.316598],[-7.959394,53.3166],[-7.959311,53.316605],[-7.959215,53.316631],[-7.959137,53.316652],[-7.959066,53.316671],[-7.958913,53.316678],[-7.958791,53.316692],[-7.958734,53.316699],[-7.958739,53.316738],[-7.958703,53.316779],[-7.958743,53.316788],[-7.958779,53.316759],[-7.95893,53.316742],[-7.959148,53.316738],[-7.959329,53.316668],[-7.959578,53.316664],[-7.960157,53.316774],[-7.96029,53.316795],[-7.960725,53.31688],[-7.961224,53.316972],[-7.961703,53.317067],[-7.961837,53.317105],[-7.961707,53.317385],[-7.961589,53.317507],[-7.961589,53.317507],[-7.961562,53.317772],[-7.961559,53.317813],[-7.962359,53.317813],[-7.962689,53.317765],[-7.963225,53.317687],[-7.963309,53.317682],[-7.96331,53.316915],[-7.964811,53.316915],[-7.96481,53.317696],[-7.965111,53.317729],[-7.965251,53.317739],[-7.965736,53.3174],[-7.966377,53.317053],[-7.96669,53.316876],[-7.967049,53.316726],[-7.967409,53.316651],[-7.967737,53.316651],[-7.967909,53.316661],[-7.968237,53.316745],[-7.9688,53.316867],[-7.969175,53.316932],[-7.969691,53.317087],[-7.969781,53.317063],[-7.969787,53.317062],[-7.970566,53.31684],[-7.970731,53.316786],[-7.972014,53.316365],[-7.972681,53.316155],[-7.972859,53.316099],[-7.973693,53.315836],[-7.974533,53.315573],[-7.975373,53.315305],[-7.976213,53.315052],[-7.977045,53.314792],[-7.977892,53.314522],[-7.97874,53.314259],[-7.978835,53.314234],[-7.97926,53.313628],[-7.979704,53.312997],[-7.980129,53.312366],[-7.98058,53.311738],[-7.980707,53.311526],[-7.981344,53.310595],[-7.981754,53.310011],[-7.982062,53.309533],[-7.98244,53.308989],[-7.982594,53.308757],[-7.98264,53.308687],[-7.982654,53.308667],[-7.983193,53.307877],[-7.983344,53.307651],[-7.983535,53.307375],[-7.98409,53.306562],[-7.984398,53.306106],[-7.984617,53.305797],[-7.984808,53.305534],[-7.985145,53.305043],[-7.985418,53.304657],[-7.985545,53.304475],[-7.985649,53.304322],[-7.985833,53.304086],[-7.986062,53.303774],[-7.986273,53.303461],[-7.986474,53.303191],[-7.986555,53.303071],[-7.986746,53.302802],[-7.986905,53.302568],[-7.987104,53.302275],[-7.98651,53.302263],[-7.986435,53.302262],[-7.985938,53.302252],[-7.985583,53.302241],[-7.985311,53.302235],[-7.984788,53.302221],[-7.984506,53.302215],[-7.984083,53.302199],[-7.983361,53.302188],[-7.982756,53.302166],[-7.982097,53.302151],[-7.98159,53.302139],[-7.980752,53.302115],[-7.980187,53.302108],[-7.97956,53.302089],[-7.978923,53.302066],[-7.977377,53.302025],[-7.977293,53.302007],[-7.97701,53.301874],[-7.976419,53.301581],[-7.975792,53.301285],[-7.975276,53.301046],[-7.974597,53.300713],[-7.973741,53.300307],[-7.973179,53.300034],[-7.972631,53.299773],[-7.971947,53.299453]],[[-7.981542,53.305108],[-7.981643,53.305083],[-7.981751,53.30507],[-7.981876,53.305118],[-7.982141,53.305202],[-7.982211,53.305304],[-7.98225,53.305415],[-7.982226,53.305526],[-7.982182,53.305744],[-7.982069,53.305927],[-7.982049,53.305968],[-7.981944,53.306011],[-7.98188,53.306025],[-7.981744,53.306],[-7.981658,53.305963],[-7.981631,53.30592],[-7.981654,53.305823],[-7.981693,53.305626],[-7.981684,53.305536],[-7.981639,53.305485],[-7.981512,53.305313],[-7.981454,53.305179],[-7.981466,53.305147],[-7.981542,53.305108]],[[-7.977496,53.302108],[-7.977496,53.302377],[-7.977946,53.302377],[-7.977946,53.302647],[-7.977496,53.302647],[-7.977496,53.302916],[-7.976596,53.302916],[-7.976596,53.302647],[-7.976146,53.302647],[-7.976146,53.302377],[-7.976596,53.302377],[-7.976596,53.302107],[-7.977496,53.302108]]],[[[-7.977046,53.302647],[-7.977496,53.302647],[-7.977496,53.302377],[-7.977046,53.302377],[-7.977046,53.302647]]]]}}]}
