{"type":"FeatureCollection","features":[{"type":"Feature","properties":{"source_fid":1318173,"county":"Westmeath","bog_geom_ha":174.29220553093236,"low15_pct":100.0,"low15_ha":174.29220553093236,"overlay_ha":174.29220553093236,"area_delta":0.0},"geometry":{"type":"MultiPolygon","coordinates":[[[[-7.425028,53.721484],[-7.424847,53.721366],[-7.424698,53.721268],[-7.424519,53.721163],[-7.424428,53.720979],[-7.424337,53.720794],[-7.424309,53.720588],[-7.424274,53.720323],[-7.42423,53.71996],[-7.42423,53.71996],[-7.424542,53.719606],[-7.424665,53.719391],[-7.424697,53.719334],[-7.424754,53.719231],[-7.424754,53.719231],[-7.424754,53.719231],[-7.424913,53.718945],[-7.425154,53.718573],[-7.425321,53.718348],[-7.425408,53.718291],[-7.425609,53.718159],[-7.425937,53.717997],[-7.426227,53.71783],[-7.426482,53.71775],[-7.426756,53.71764],[-7.427009,53.717482],[-7.427732,53.717008],[-7.428096,53.716742],[-7.428268,53.716502],[-7.428326,53.716307],[-7.428422,53.716024],[-7.428435,53.7157],[-7.428395,53.715349],[-7.428283,53.714982],[-7.428202,53.714897],[-7.428144,53.714828],[-7.428084,53.714745],[-7.427913,53.714474],[-7.427502,53.713798],[-7.427145,53.713208],[-7.426809,53.712699],[-7.426694,53.712551],[-7.426692,53.712548],[-7.426644,53.712486],[-7.4266,53.712428],[-7.426253,53.712042],[-7.425916,53.711699],[-7.425514,53.711364],[-7.425285,53.711025],[-7.425018,53.710741],[-7.424506,53.71035],[-7.423996,53.709849],[-7.423686,53.70955],[-7.423633,53.709441],[-7.42357,53.709093],[-7.423541,53.708822],[-7.423468,53.708136],[-7.423466,53.70812],[-7.423464,53.708107],[-7.423463,53.707881],[-7.423398,53.707572],[-7.42337,53.707438],[-7.423313,53.707356],[-7.423275,53.70727],[-7.423302,53.706839],[-7.423333,53.706395],[-7.423348,53.705796],[-7.423375,53.705354],[-7.42338,53.704814],[-7.423378,53.704504],[-7.423301,53.704096],[-7.42325,53.703905],[-7.423078,53.70347],[-7.423059,53.703338],[-7.421387,53.703096],[-7.421852,53.702373],[-7.421816,53.702356],[-7.421013,53.701973],[-7.420348,53.701643],[-7.419057,53.701011],[-7.418564,53.700763],[-7.418559,53.700761],[-7.418432,53.700721],[-7.417064,53.700381],[-7.41705,53.700427],[-7.41626,53.700454],[-7.415665,53.700492],[-7.415333,53.700242],[-7.414798,53.699825],[-7.414579,53.699775],[-7.412978,53.699399],[-7.413292,53.699135],[-7.413292,53.699135],[-7.412755,53.698923],[-7.411698,53.699787],[-7.41185,53.700049],[-7.411879,53.700099],[-7.411951,53.700231],[-7.412212,53.700643],[-7.412487,53.701124],[-7.412737,53.701547],[-7.412878,53.701764],[-7.411662,53.701579],[-7.411641,53.701623],[-7.411477,53.701955],[-7.41133,53.702252],[-7.409579,53.701954],[-7.408503,53.70177],[-7.408502,53.701771],[-7.408445,53.701874],[-7.408339,53.702073],[-7.408217,53.702303],[-7.407371,53.702165],[-7.407208,53.702217],[-7.406879,53.702297],[-7.406657,53.702335],[-7.406456,53.702372],[-7.40656,53.702589],[-7.406688,53.702857],[-7.406717,53.702927],[-7.40675,53.702971],[-7.406773,53.703015],[-7.406781,53.703058],[-7.406783,53.703114],[-7.406851,53.703258],[-7.40703,53.703625],[-7.407225,53.704042],[-7.407359,53.704375],[-7.407518,53.704691],[-7.407579,53.704809],[-7.407603,53.70486],[-7.407684,53.70493],[-7.407817,53.704957],[-7.408003,53.704996],[-7.408122,53.704988],[-7.40838,53.705107],[-7.408528,53.705175],[-7.408706,53.705187],[-7.408883,53.705172],[-7.409037,53.705192],[-7.410021,53.705356],[-7.411155,53.705759],[-7.411475,53.705966],[-7.411616,53.705999],[-7.411974,53.706055],[-7.412308,53.706143],[-7.412372,53.706161],[-7.412784,53.706263],[-7.412891,53.706481],[-7.412962,53.706511],[-7.413058,53.706521],[-7.413331,53.706534],[-7.413587,53.706537],[-7.413695,53.706569],[-7.413819,53.706629],[-7.41402,53.706722],[-7.414069,53.706767],[-7.414174,53.706791],[-7.4143,53.706827],[-7.414521,53.706911],[-7.414643,53.706955],[-7.414776,53.706988],[-7.414801,53.707001],[-7.41485,53.707088],[-7.414882,53.707126],[-7.415044,53.707236],[-7.415541,53.707511],[-7.415626,53.707545],[-7.415809,53.70758],[-7.415827,53.709021],[-7.415902,53.710766],[-7.415936,53.711749],[-7.415987,53.713456],[-7.415974,53.71357],[-7.416013,53.714416],[-7.416146,53.715742],[-7.416194,53.716927],[-7.416248,53.718137],[-7.416315,53.719195],[-7.416355,53.720932],[-7.416412,53.722287],[-7.416418,53.722425],[-7.416412,53.722604],[-7.416421,53.722698],[-7.416494,53.723168],[-7.416491,53.723242],[-7.416485,53.723363],[-7.416504,53.723534],[-7.416499,53.723583],[-7.416499,53.723614],[-7.416499,53.723643],[-7.416496,53.723754],[-7.416462,53.723875],[-7.416398,53.723959],[-7.418483,53.723525],[-7.4197,53.723258],[-7.419872,53.72322],[-7.420641,53.723039],[-7.420761,53.722996],[-7.420892,53.722961],[-7.421776,53.72277],[-7.422946,53.72249],[-7.423309,53.722418],[-7.423712,53.722314],[-7.424268,53.722173],[-7.424582,53.722103],[-7.424675,53.722082],[-7.425006,53.722065],[-7.425071,53.722062],[-7.425498,53.722042],[-7.425655,53.722043],[-7.425028,53.721484]]]]}}]}
