{"type":"FeatureCollection","features":[{"type":"Feature","properties":{"source_fid":1322853,"county":"Offaly","bog_geom_ha":152.90817163818591,"low15_pct":100.0,"low15_ha":152.90817163818591,"overlay_ha":152.90117659652009,"area_delta":-0.0069950416658173253},"geometry":{"type":"MultiPolygon","coordinates":[[[[-7.820127,53.243155],[-7.820996,53.243165],[-7.821793,53.243172],[-7.822591,53.24318],[-7.822591,53.24318],[-7.822591,53.24318],[-7.822588,53.242588],[-7.822588,53.242056],[-7.822596,53.241531],[-7.822598,53.241027],[-7.822602,53.240595],[-7.822616,53.24007],[-7.822617,53.239535],[-7.822623,53.239007],[-7.822639,53.23794],[-7.822645,53.237409],[-7.822645,53.23691],[-7.822655,53.236385],[-7.822669,53.235847],[-7.822667,53.235312],[-7.822679,53.234779],[-7.822679,53.234238],[-7.822693,53.233699],[-7.822703,53.233161],[-7.822704,53.232626],[-7.822708,53.232109],[-7.822708,53.232109],[-7.822454,53.232159],[-7.822366,53.232176],[-7.821788,53.232288],[-7.821705,53.232304],[-7.821223,53.23241],[-7.821223,53.23241],[-7.821098,53.232437],[-7.821041,53.23245],[-7.820793,53.232492],[-7.820616,53.232524],[-7.82048,53.232548],[-7.820468,53.23255],[-7.820445,53.232555],[-7.820121,53.232616],[-7.819987,53.232647],[-7.819887,53.232669],[-7.819859,53.232676],[-7.819802,53.232689],[-7.819544,53.232744],[-7.819218,53.232815],[-7.819193,53.23282],[-7.819191,53.232821],[-7.819154,53.232829],[-7.81873,53.232922],[-7.818596,53.232952],[-7.818235,53.233026],[-7.818235,53.233026],[-7.818037,53.233066],[-7.817784,53.233125],[-7.817599,53.233168],[-7.817359,53.233217],[-7.817032,53.233284],[-7.816974,53.233297],[-7.816974,53.233297],[-7.816584,53.233383],[-7.816416,53.23342],[-7.815759,53.233558],[-7.815511,53.233611],[-7.815161,53.233686],[-7.815127,53.233693],[-7.815095,53.2337],[-7.814724,53.233793],[-7.814685,53.233804],[-7.814554,53.233837],[-7.814439,53.233866],[-7.814279,53.233904],[-7.813776,53.234023],[-7.813183,53.234156],[-7.813133,53.234167],[-7.812476,53.234306],[-7.812292,53.234348],[-7.811999,53.234414],[-7.811871,53.234442],[-7.811814,53.234455],[-7.811649,53.234489],[-7.811157,53.234591],[-7.810537,53.234716],[-7.810503,53.234723],[-7.810442,53.234736],[-7.809884,53.234851],[-7.809225,53.234994],[-7.807908,53.235267],[-7.807256,53.235404],[-7.80662,53.235533],[-7.805977,53.235671],[-7.805311,53.23581],[-7.804667,53.235949],[-7.804066,53.236073],[-7.803469,53.236188],[-7.802885,53.236304],[-7.80231,53.236425],[-7.80171,53.236548],[-7.801212,53.236641],[-7.800626,53.236762],[-7.800283,53.236837],[-7.800212,53.236837],[-7.800129,53.236834],[-7.799615,53.236795],[-7.799262,53.23676],[-7.798919,53.236736],[-7.798639,53.236714],[-7.798639,53.236782],[-7.797141,53.23678],[-7.79712,53.241272],[-7.798618,53.241275],[-7.798615,53.241816],[-7.79865,53.241816],[-7.798649,53.242086],[-7.798614,53.242086],[-7.798613,53.242173],[-7.800111,53.242176],[-7.800108,53.242827],[-7.800622,53.242523],[-7.801019,53.242293],[-7.801308,53.24221],[-7.80152,53.242081],[-7.802785,53.242832],[-7.805235,53.242888],[-7.81094,53.243113],[-7.812444,53.243122],[-7.813562,53.243129],[-7.814759,53.243129],[-7.815283,53.24313],[-7.816831,53.243135],[-7.817487,53.243141],[-7.81815,53.243147],[-7.820127,53.243155]]]]}}]}
