{"type":"FeatureCollection","features":[{"type":"Feature","properties":{"source_fid":1324854,"county":"Westmeath","bog_geom_ha":119.7141536501564,"low15_pct":100.0,"low15_ha":119.7141536501564,"overlay_ha":119.7141536501564,"area_delta":0.0},"geometry":{"type":"MultiPolygon","coordinates":[[[[-7.454573,53.671933],[-7.453908,53.671563],[-7.453538,53.671357],[-7.453543,53.671353],[-7.453544,53.671352],[-7.452691,53.670858],[-7.441647,53.673139],[-7.441541,53.673067],[-7.441433,53.673116],[-7.441148,53.673249],[-7.440981,53.67335],[-7.440983,53.67335],[-7.440983,53.67335],[-7.440983,53.67335],[-7.440552,53.673629],[-7.438417,53.674739],[-7.438375,53.674706],[-7.438187,53.674577],[-7.437332,53.673987],[-7.429582,53.675475],[-7.429582,53.675475],[-7.429582,53.675475],[-7.429612,53.675527],[-7.429708,53.675694],[-7.430187,53.676497],[-7.43071,53.677527],[-7.431142,53.67838],[-7.431168,53.678432],[-7.431257,53.678632],[-7.431375,53.678899],[-7.431791,53.679786],[-7.432216,53.68062],[-7.43266,53.680566],[-7.433647,53.680447],[-7.434895,53.680301],[-7.435799,53.680195],[-7.435892,53.680185],[-7.436006,53.680171],[-7.436162,53.680153],[-7.436271,53.68014],[-7.43655,53.680108],[-7.43699,53.680057],[-7.438291,53.679906],[-7.438767,53.679851],[-7.439913,53.679718],[-7.441313,53.679568],[-7.442712,53.679418],[-7.445704,53.679093],[-7.448157,53.678826],[-7.4497,53.678628],[-7.450248,53.678569],[-7.450796,53.67851],[-7.451013,53.678473],[-7.451121,53.678454],[-7.452781,53.677992],[-7.453255,53.67786],[-7.453572,53.677764],[-7.45524,53.677256],[-7.455756,53.677055],[-7.455986,53.676965],[-7.455986,53.676965],[-7.457748,53.67646],[-7.457751,53.676366],[-7.45775,53.676181],[-7.457746,53.676119],[-7.457741,53.676065],[-7.457728,53.675894],[-7.457707,53.675624],[-7.457684,53.675326],[-7.457677,53.675268],[-7.457693,53.675179],[-7.457685,53.675126],[-7.457587,53.674583],[-7.457586,53.674573],[-7.457391,53.673533],[-7.457362,53.673517],[-7.454573,53.671933]]]]}}]}
