{"type":"FeatureCollection","features":[{"type":"Feature","properties":{"source_fid":1329161,"county":"Westmeath","bog_geom_ha":171.13422366268216,"low15_pct":100.0,"low15_ha":171.13422366268216,"overlay_ha":171.13422366268216,"area_delta":0.0},"geometry":{"type":"MultiPolygon","coordinates":[[[[-7.404267,53.709673],[-7.404513,53.709761],[-7.404668,53.709816],[-7.405147,53.709994],[-7.405147,53.709994],[-7.404998,53.710175],[-7.40494,53.710253],[-7.404851,53.710371],[-7.404788,53.710445],[-7.404743,53.710497],[-7.404606,53.710669],[-7.404505,53.710743],[-7.404483,53.710759],[-7.404487,53.71079],[-7.404455,53.710835],[-7.4044,53.710914],[-7.404345,53.710982],[-7.404291,53.711049],[-7.404225,53.711172],[-7.404161,53.711293],[-7.404149,53.7113],[-7.404126,53.711315],[-7.404073,53.711336],[-7.404066,53.711339],[-7.404061,53.711349],[-7.404062,53.711351],[-7.404073,53.711367],[-7.404108,53.711372],[-7.404125,53.711374],[-7.404131,53.711376],[-7.404144,53.711378],[-7.404398,53.711433],[-7.40469,53.711497],[-7.404591,53.711636],[-7.404424,53.711861],[-7.404404,53.711886],[-7.404226,53.712116],[-7.404029,53.712367],[-7.40395,53.712468],[-7.40394,53.712483],[-7.40372,53.712798],[-7.403594,53.712975],[-7.403532,53.713062],[-7.403177,53.713645],[-7.402921,53.714094],[-7.402847,53.714218],[-7.402698,53.71447],[-7.402663,53.714465],[-7.402663,53.714465],[-7.402663,53.714465],[-7.40266,53.714465],[-7.402353,53.714403],[-7.402152,53.714352],[-7.401971,53.714315],[-7.401753,53.71423],[-7.401629,53.714942],[-7.401615,53.715026],[-7.401714,53.715597],[-7.401764,53.715883],[-7.401764,53.715888],[-7.401786,53.716079],[-7.401849,53.716156],[-7.401943,53.716272],[-7.402153,53.716465],[-7.402467,53.716755],[-7.402404,53.717399],[-7.402408,53.717475],[-7.402411,53.717553],[-7.402441,53.717589],[-7.40246,53.717612],[-7.402552,53.717702],[-7.402745,53.717998],[-7.402869,53.718188],[-7.402878,53.718197],[-7.402887,53.718205],[-7.403011,53.718335],[-7.403316,53.718656],[-7.403721,53.719058],[-7.403758,53.71912],[-7.403778,53.719154],[-7.40379,53.719183],[-7.403936,53.719365],[-7.403934,53.719385],[-7.403922,53.719478],[-7.40388,53.719622],[-7.403854,53.719659],[-7.403815,53.719712],[-7.403686,53.720079],[-7.403553,53.720419],[-7.403416,53.720724],[-7.403346,53.721199],[-7.403275,53.721675],[-7.403415,53.72179],[-7.404218,53.722456],[-7.404303,53.722587],[-7.404324,53.722619],[-7.404338,53.722658],[-7.404395,53.722806],[-7.404432,53.722951],[-7.404455,53.723042],[-7.404486,53.723121],[-7.404511,53.723184],[-7.404826,53.723976],[-7.404908,53.724081],[-7.405074,53.72419],[-7.406111,53.724945],[-7.406259,53.725017],[-7.406336,53.725054],[-7.40659,53.725122],[-7.408629,53.725895],[-7.408699,53.725897],[-7.408809,53.725883],[-7.408961,53.725865],[-7.409477,53.725858],[-7.409868,53.725751],[-7.410462,53.725589],[-7.411571,53.725296],[-7.41258,53.725036],[-7.413553,53.724723],[-7.413627,53.724699],[-7.413714,53.724678],[-7.416398,53.723959],[-7.416462,53.723875],[-7.416496,53.723754],[-7.416499,53.723643],[-7.416499,53.723614],[-7.416499,53.723583],[-7.416504,53.723534],[-7.416485,53.723363],[-7.416491,53.723242],[-7.416494,53.723168],[-7.416421,53.722698],[-7.416412,53.722604],[-7.416418,53.722425],[-7.416412,53.722287],[-7.416355,53.720932],[-7.416315,53.719195],[-7.416248,53.718137],[-7.416194,53.716927],[-7.416146,53.715742],[-7.416013,53.714416],[-7.415974,53.71357],[-7.415987,53.713456],[-7.415936,53.711749],[-7.415902,53.710766],[-7.415827,53.709021],[-7.415809,53.70758],[-7.415626,53.707545],[-7.415541,53.707511],[-7.415044,53.707236],[-7.414882,53.707126],[-7.41485,53.707088],[-7.414801,53.707001],[-7.414776,53.706988],[-7.414643,53.706955],[-7.414521,53.706911],[-7.4143,53.706827],[-7.414174,53.706791],[-7.414069,53.706767],[-7.41402,53.706722],[-7.413819,53.706629],[-7.413695,53.706569],[-7.413587,53.706537],[-7.413331,53.706534],[-7.413058,53.706521],[-7.412962,53.706511],[-7.412891,53.706481],[-7.412784,53.706263],[-7.412372,53.706161],[-7.412308,53.706143],[-7.411974,53.706055],[-7.411616,53.705999],[-7.411475,53.705966],[-7.411155,53.705759],[-7.410021,53.705356],[-7.409037,53.705192],[-7.408883,53.705172],[-7.408706,53.705187],[-7.408528,53.705175],[-7.40838,53.705107],[-7.408122,53.704988],[-7.408003,53.704996],[-7.407817,53.704957],[-7.407733,53.705098],[-7.407697,53.705109],[-7.407649,53.705154],[-7.407602,53.705199],[-7.407515,53.705275],[-7.407346,53.705387],[-7.407147,53.705512],[-7.407018,53.705578],[-7.406973,53.705605],[-7.406733,53.705777],[-7.406615,53.705885],[-7.406618,53.705936],[-7.406601,53.705968],[-7.406586,53.705964],[-7.406451,53.706184],[-7.406236,53.706572],[-7.40602,53.706946],[-7.405786,53.707344],[-7.405555,53.707747],[-7.405334,53.708123],[-7.405228,53.708269],[-7.405058,53.7085],[-7.404806,53.708834],[-7.404796,53.708847],[-7.404532,53.709221],[-7.404247,53.709627],[-7.404226,53.709659],[-7.404267,53.709673]]]]}}]}
