{"type":"FeatureCollection","features":[{"type":"Feature","properties":{"source_fid":1332008,"county":"Offaly","bog_geom_ha":274.22403537878955,"low15_pct":99.836011807149887,"low15_ha":273.77434033881121,"overlay_ha":273.87910857437208,"area_delta":0.10476823556086856},"geometry":{"type":"MultiPolygon","coordinates":[[[[-7.983483,53.286518],[-7.98346,53.286494],[-7.980705,53.286956],[-7.979425,53.287171],[-7.978193,53.28805],[-7.977508,53.288794],[-7.977472,53.288834],[-7.977256,53.288925],[-7.976872,53.289087],[-7.974773,53.289841],[-7.973499,53.290268],[-7.973219,53.290362],[-7.972248,53.290361],[-7.971274,53.290359],[-7.969414,53.290339],[-7.968202,53.290253],[-7.966617,53.290141],[-7.966631,53.290293],[-7.966663,53.290591],[-7.966691,53.290847],[-7.966737,53.291238],[-7.966908,53.292692],[-7.966984,53.293891],[-7.967038,53.294748],[-7.965984,53.296608],[-7.966045,53.296639],[-7.966075,53.296654],[-7.967315,53.297247],[-7.967604,53.297385],[-7.969218,53.298148],[-7.969854,53.298432],[-7.970743,53.298865],[-7.970888,53.298937],[-7.970974,53.298977],[-7.970992,53.298985],[-7.97118,53.299074],[-7.971208,53.299088],[-7.971278,53.299122],[-7.97131,53.299137],[-7.971359,53.299161],[-7.971947,53.299453],[-7.972631,53.299773],[-7.973179,53.300034],[-7.973741,53.300307],[-7.974597,53.300713],[-7.975276,53.301046],[-7.975792,53.301285],[-7.976419,53.301581],[-7.97701,53.301874],[-7.977293,53.302007],[-7.977377,53.302025],[-7.978923,53.302066],[-7.97956,53.302089],[-7.980187,53.302108],[-7.980752,53.302115],[-7.98159,53.302139],[-7.982097,53.302151],[-7.982756,53.302166],[-7.983361,53.302188],[-7.984083,53.302199],[-7.984506,53.302215],[-7.984788,53.302221],[-7.985311,53.302235],[-7.985583,53.302241],[-7.985938,53.302252],[-7.986435,53.302262],[-7.98651,53.302263],[-7.987104,53.302275],[-7.9874,53.302117],[-7.98777,53.30192],[-7.98847,53.301537],[-7.989151,53.30117],[-7.989549,53.300965],[-7.990188,53.300624],[-7.99092,53.300231],[-7.991211,53.300086],[-7.991572,53.299893],[-7.992595,53.299341],[-7.993241,53.29899],[-7.993719,53.298737],[-7.99418,53.298487],[-7.994509,53.298315],[-7.995026,53.29805],[-7.995427,53.297883],[-7.995818,53.297678],[-7.996132,53.297516],[-7.996455,53.297342],[-7.996742,53.29719],[-7.996885,53.297118],[-7.998674,53.296153],[-8.0,53.29541],[-8.00074,53.294995],[-8.001495,53.294604],[-8.002518,53.294081],[-8.003144,53.293759],[-8.003297,53.293684],[-8.004047,53.293088],[-8.004991,53.292327],[-8.005673,53.291774],[-8.005832,53.291653],[-8.005855,53.291634],[-8.005122,53.291084],[-8.004293,53.290484],[-8.003883,53.290167],[-8.003012,53.289535],[-8.001878,53.288686],[-8.000739,53.287826],[-8.0,53.287279],[-7.999949,53.287241],[-7.999473,53.286881],[-7.998614,53.286226],[-7.998153,53.285891],[-7.997719,53.285602],[-7.997264,53.285267],[-7.996808,53.284956],[-7.996709,53.284893],[-7.996264,53.284573],[-7.995608,53.284093],[-7.994165,53.283495],[-7.993461,53.283215],[-7.993308,53.283711],[-7.993274,53.283811],[-7.993241,53.28391],[-7.993409,53.284114],[-7.99379,53.284573],[-7.994145,53.284993],[-7.994598,53.285505],[-7.995316,53.286484],[-7.995521,53.286826],[-7.99559,53.287042],[-7.995636,53.287138],[-7.995638,53.287143],[-7.995669,53.287328],[-7.995741,53.287975],[-7.995853,53.288973],[-7.995903,53.289556],[-7.996002,53.290228],[-7.996025,53.290466],[-7.996021,53.290483],[-7.995959,53.290731],[-7.995828,53.291179],[-7.995771,53.291393],[-7.995578,53.292028],[-7.995458,53.292385],[-7.995277,53.293],[-7.995138,53.293408],[-7.995107,53.293526],[-7.995055,53.293689],[-7.995023,53.29374],[-7.994954,53.293778],[-7.994848,53.293798],[-7.994807,53.293801],[-7.99456,53.293822],[-7.994125,53.293874],[-7.993354,53.293945],[-7.993081,53.293973],[-7.99257,53.294026],[-7.991844,53.294124],[-7.991786,53.294129],[-7.990615,53.293596],[-7.989995,53.293316],[-7.989642,53.293166],[-7.989209,53.292996],[-7.9879,53.292405],[-7.987332,53.292154],[-7.987178,53.292083],[-7.987043,53.292008],[-7.986938,53.291926],[-7.986866,53.291861],[-7.986648,53.291583],[-7.986595,53.291482],[-7.986582,53.291412],[-7.986508,53.29128],[-7.986241,53.290895],[-7.985802,53.290283],[-7.985438,53.289795],[-7.984981,53.289119],[-7.984973,53.289109],[-7.985061,53.289068],[-7.985729,53.288805],[-7.985819,53.288771],[-7.985799,53.288746],[-7.985459,53.288433],[-7.985423,53.288394],[-7.985372,53.288328],[-7.985035,53.288021],[-7.985024,53.288011],[-7.984993,53.287967],[-7.984837,53.287822],[-7.984596,53.287576],[-7.983929,53.28694],[-7.983483,53.286518]],[[-7.977092,53.295886],[-7.9771,53.295906],[-7.9775,53.295907],[-7.977499,53.296176],[-7.977499,53.296446],[-7.977499,53.296715],[-7.977049,53.296715],[-7.977049,53.296985],[-7.976599,53.296985],[-7.976599,53.296752],[-7.976389,53.296739],[-7.976315,53.296735],[-7.975812,53.296743],[-7.975657,53.29675],[-7.975657,53.29675],[-7.975657,53.29675],[-7.975472,53.296582],[-7.975421,53.2964],[-7.975686,53.295947],[-7.975696,53.295923],[-7.975788,53.295696],[-7.975811,53.295585],[-7.975819,53.295546],[-7.975819,53.295546],[-7.975819,53.295546],[-7.976185,53.295633],[-7.976399,53.295684],[-7.9766,53.295742],[-7.9766,53.295637],[-7.97705,53.295637],[-7.97705,53.295873],[-7.977092,53.295886]]]]}}]}
