{"type":"FeatureCollection","features":[{"type":"Feature","properties":{"source_fid":1337212,"county":"Offaly","bog_geom_ha":121.4757703693076,"low15_pct":100.0,"low15_ha":121.4757703693076,"overlay_ha":121.4757703693076,"area_delta":0.0},"geometry":{"type":"MultiPolygon","coordinates":[[[[-7.971516,53.278218],[-7.971516,53.278218],[-7.971516,53.278218],[-7.970891,53.278249],[-7.970453,53.278271],[-7.97028,53.278305],[-7.970051,53.278374],[-7.969723,53.278546],[-7.969411,53.278534],[-7.969277,53.278529],[-7.969277,53.278529],[-7.969277,53.278529],[-7.968929,53.278422],[-7.968761,53.278422],[-7.968626,53.278436],[-7.968407,53.278461],[-7.968141,53.278491],[-7.967945,53.278431],[-7.967882,53.278426],[-7.967844,53.278433],[-7.96781,53.278438],[-7.96773,53.278466],[-7.967544,53.278559],[-7.967344,53.278621],[-7.967347,53.278629],[-7.967349,53.278636],[-7.967331,53.278646],[-7.967316,53.278655],[-7.967269,53.278651],[-7.967245,53.278649],[-7.967209,53.278658],[-7.967162,53.27867],[-7.96687,53.278731],[-7.966723,53.278762],[-7.96629,53.278835],[-7.965964,53.27889],[-7.965906,53.278898],[-7.965791,53.278915],[-7.96587,53.279095],[-7.965971,53.279324],[-7.966155,53.279701],[-7.9664,53.280205],[-7.966529,53.280465],[-7.966775,53.280958],[-7.966824,53.281119],[-7.966873,53.28128],[-7.966922,53.281525],[-7.966957,53.281694],[-7.96705,53.282144],[-7.967123,53.282492],[-7.967143,53.282611],[-7.967154,53.282678],[-7.967152,53.283016],[-7.967012,53.283619],[-7.966878,53.284226],[-7.966788,53.284651],[-7.966673,53.285198],[-7.966543,53.285911],[-7.966503,53.286128],[-7.966467,53.286302],[-7.966318,53.287028],[-7.966231,53.287682],[-7.9662,53.287919],[-7.966168,53.288025],[-7.966146,53.2881],[-7.966137,53.288136],[-7.966092,53.288311],[-7.966097,53.2892],[-7.966755,53.289354],[-7.967392,53.289498],[-7.967835,53.289598],[-7.968467,53.289557],[-7.968715,53.289542],[-7.969099,53.289518],[-7.970933,53.289405],[-7.973741,53.28923],[-7.974315,53.289053],[-7.975234,53.288764],[-7.976144,53.288444],[-7.976814,53.288197],[-7.976994,53.288055],[-7.977208,53.287884],[-7.977669,53.28756],[-7.97779,53.287475],[-7.978402,53.28702],[-7.979227,53.286803],[-7.98072,53.286411],[-7.98129,53.286263],[-7.982223,53.286021],[-7.98293,53.285825],[-7.983065,53.285798],[-7.984702,53.28547],[-7.984702,53.28547],[-7.985758,53.284852],[-7.986244,53.284572],[-7.986623,53.284332],[-7.987801,53.283631],[-7.988082,53.283472],[-7.988131,53.283444],[-7.987833,53.283161],[-7.986493,53.283435],[-7.986157,53.282823],[-7.984903,53.283053],[-7.984688,53.282728],[-7.986294,53.282443],[-7.987937,53.282111],[-7.988686,53.281959],[-7.988856,53.282297],[-7.99083,53.281882],[-7.99083,53.281882],[-7.991064,53.281749],[-7.991359,53.281559],[-7.99136,53.281511],[-7.991436,53.281475],[-7.99148,53.281481],[-7.991234,53.281279],[-7.990903,53.281056],[-7.990694,53.280894],[-7.990816,53.280878],[-7.990688,53.280478],[-7.990532,53.280449],[-7.990412,53.28048],[-7.990188,53.28053],[-7.990107,53.280522],[-7.989972,53.280522],[-7.989398,53.280532],[-7.988895,53.280556],[-7.988785,53.280566],[-7.988589,53.280591],[-7.9884,53.28068],[-7.988365,53.280707],[-7.988162,53.280763],[-7.987861,53.280829],[-7.987489,53.280969],[-7.987307,53.281019],[-7.986977,53.281104],[-7.986902,53.281104],[-7.986788,53.281145],[-7.986349,53.281246],[-7.986255,53.281294],[-7.98616,53.281335],[-7.986073,53.281379],[-7.985465,53.281646],[-7.984811,53.282099],[-7.984217,53.282508],[-7.98363,53.282916],[-7.983131,53.282487],[-7.982591,53.282046],[-7.982375,53.281889],[-7.981964,53.281658],[-7.981694,53.281508],[-7.981532,53.281383],[-7.981303,53.281201],[-7.981161,53.281083],[-7.981073,53.280974],[-7.980932,53.280861],[-7.980729,53.280719],[-7.980527,53.280561],[-7.980264,53.280509],[-7.980109,53.280456],[-7.979792,53.280412],[-7.979454,53.280347],[-7.978895,53.28023],[-7.9788,53.280197],[-7.978645,53.280149],[-7.97853,53.28012],[-7.978287,53.280084],[-7.978126,53.280092],[-7.977883,53.280031],[-7.977437,53.27995],[-7.977087,53.279796],[-7.977053,53.27976],[-7.976992,53.279691],[-7.976932,53.279659],[-7.97677,53.279606],[-7.976304,53.279465],[-7.976075,53.279323],[-7.975792,53.279165],[-7.975434,53.278999],[-7.975171,53.27887],[-7.97507,53.278841],[-7.974328,53.2787],[-7.974239,53.278692],[-7.974078,53.278679],[-7.973984,53.278655],[-7.973842,53.278598],[-7.97339,53.278521],[-7.972878,53.278449],[-7.972768,53.278431],[-7.972432,53.278408],[-7.972115,53.278372],[-7.971516,53.278218]]]]}}]}
