{"type":"FeatureCollection","features":[{"type":"Feature","properties":{"source_fid":1337234,"county":"Offaly","bog_geom_ha":179.73851995777198,"low15_pct":99.89954796584631,"low15_ha":179.55796895831668,"overlay_ha":179.56609053287684,"area_delta":0.0081215745601639355},"geometry":{"type":"MultiPolygon","coordinates":[[[[-7.167606,53.29096],[-7.168055,53.290894],[-7.168456,53.290843],[-7.169009,53.290773],[-7.169563,53.290698],[-7.169768,53.29067],[-7.170219,53.290618],[-7.170319,53.290724],[-7.170364,53.290771],[-7.170507,53.29091],[-7.170667,53.291065],[-7.170787,53.29119],[-7.170819,53.291224],[-7.170941,53.291363],[-7.170941,53.291363],[-7.171305,53.291143],[-7.171167,53.291142],[-7.171172,53.290872],[-7.171622,53.290875],[-7.171618,53.291083],[-7.171809,53.291022],[-7.171948,53.290974],[-7.171988,53.290956],[-7.172084,53.290882],[-7.172186,53.290804],[-7.172364,53.290667],[-7.172492,53.290559],[-7.172652,53.290511],[-7.172987,53.290405],[-7.173131,53.290389],[-7.173241,53.290386],[-7.17329,53.290392],[-7.17336,53.290384],[-7.173458,53.29036],[-7.173765,53.290284],[-7.173868,53.290266],[-7.174172,53.290204],[-7.174313,53.290206],[-7.174439,53.290213],[-7.174584,53.290216],[-7.174693,53.290202],[-7.174767,53.290207],[-7.174866,53.290234],[-7.174948,53.290239],[-7.17498,53.290227],[-7.175085,53.290192],[-7.175095,53.290189],[-7.175189,53.290199],[-7.175365,53.290202],[-7.175502,53.290228],[-7.175768,53.29028],[-7.17603,53.290343],[-7.176095,53.290347],[-7.176182,53.290349],[-7.176273,53.290376],[-7.176373,53.2904],[-7.176425,53.290401],[-7.176514,53.290377],[-7.176659,53.290355],[-7.176778,53.290353],[-7.176829,53.290358],[-7.176911,53.290386],[-7.177036,53.290431],[-7.177194,53.290505],[-7.177273,53.290525],[-7.177311,53.290519],[-7.177425,53.290477],[-7.177628,53.290409],[-7.177805,53.290369],[-7.177885,53.290358],[-7.177998,53.290359],[-7.178009,53.290093],[-7.177962,53.289678],[-7.17796,53.289668],[-7.17796,53.289668],[-7.178515,53.289685],[-7.180053,53.289825],[-7.180796,53.28982],[-7.181792,53.289815],[-7.181807,53.289893],[-7.18182,53.289953],[-7.18217,53.289957],[-7.182522,53.289961],[-7.183941,53.286534],[-7.186007,53.281724],[-7.185899,53.281498],[-7.185718,53.281332],[-7.185692,53.281307],[-7.185692,53.281307],[-7.185289,53.280927],[-7.18511,53.280778],[-7.184943,53.280639],[-7.184927,53.28064],[-7.184451,53.280649],[-7.184129,53.280646],[-7.183969,53.280644],[-7.18335,53.280642],[-7.183047,53.280641],[-7.182613,53.280644],[-7.18212,53.280648],[-7.181603,53.280638],[-7.181378,53.280605],[-7.181301,53.280588],[-7.180807,53.280483],[-7.179488,53.280197],[-7.177881,53.279862],[-7.175845,53.279439],[-7.175295,53.279325],[-7.175256,53.279317],[-7.175237,53.279312],[-7.174741,53.279202],[-7.174462,53.27914],[-7.173056,53.278826],[-7.171697,53.278539],[-7.170677,53.278331],[-7.17028,53.278241],[-7.169822,53.278138],[-7.169822,53.278138],[-7.167356,53.27772],[-7.165268,53.277297],[-7.164565,53.277141],[-7.162976,53.276787],[-7.162856,53.276903],[-7.162989,53.276952],[-7.163046,53.276977],[-7.163095,53.276998],[-7.163134,53.27703],[-7.163194,53.277164],[-7.163201,53.277212],[-7.163212,53.277284],[-7.163279,53.277592],[-7.162889,53.277715],[-7.162593,53.277808],[-7.161976,53.278011],[-7.161976,53.278011],[-7.161395,53.278205],[-7.161344,53.278279],[-7.161211,53.278778],[-7.161145,53.279009],[-7.161408,53.279485],[-7.1617,53.279989],[-7.162047,53.28062],[-7.162321,53.281167],[-7.162554,53.28163],[-7.162964,53.282427],[-7.163424,53.283268],[-7.163425,53.283475],[-7.16333,53.284028],[-7.163221,53.284267],[-7.163205,53.284304],[-7.163201,53.284336],[-7.163017,53.285871],[-7.162917,53.286806],[-7.162884,53.287118],[-7.163144,53.28712],[-7.163159,53.287138],[-7.163536,53.287519],[-7.163728,53.287701],[-7.164139,53.288121],[-7.164612,53.288579],[-7.164737,53.288707],[-7.164739,53.288709],[-7.165178,53.28916],[-7.16519,53.289174],[-7.165689,53.28968],[-7.165979,53.289967],[-7.166022,53.29001],[-7.166306,53.290291],[-7.166941,53.290905],[-7.1671,53.291027],[-7.167606,53.29096]],[[-7.170733,53.29033],[-7.170728,53.290599],[-7.170278,53.290596],[-7.170283,53.290327],[-7.170733,53.29033]]]]}}]}
