{"type":"FeatureCollection","features":[{"type":"Feature","properties":{"source_fid":1338204,"county":"Offaly","bog_geom_ha":210.03237466156585,"low15_pct":100.0,"low15_ha":210.03237466156585,"overlay_ha":210.03237466156585,"area_delta":0.0},"geometry":{"type":"MultiPolygon","coordinates":[[[[-7.229071,53.405491],[-7.229169,53.405463],[-7.229266,53.405435],[-7.229435,53.405441],[-7.229458,53.405449],[-7.229556,53.405484],[-7.229761,53.405601],[-7.229762,53.405601],[-7.229835,53.405631],[-7.229923,53.405634],[-7.229975,53.405622],[-7.230075,53.405598],[-7.230421,53.405492],[-7.230528,53.405459],[-7.230604,53.405447],[-7.230645,53.40544],[-7.230764,53.40542],[-7.231049,53.405426],[-7.231149,53.405437],[-7.231222,53.405444],[-7.231293,53.405442],[-7.231419,53.405439],[-7.231498,53.405428],[-7.231624,53.405411],[-7.231934,53.405322],[-7.231934,53.405322],[-7.231934,53.405322],[-7.231946,53.405319],[-7.232189,53.405227],[-7.232344,53.405127],[-7.232424,53.405074],[-7.232523,53.405009],[-7.232619,53.404981],[-7.232666,53.404967],[-7.232761,53.404935],[-7.232792,53.40491],[-7.232798,53.404905],[-7.232798,53.404905],[-7.232798,53.404905],[-7.232878,53.404838],[-7.232994,53.40472],[-7.233104,53.40464],[-7.233212,53.404612],[-7.233254,53.4046],[-7.233332,53.404611],[-7.233596,53.40463],[-7.233842,53.404573],[-7.233842,53.404573],[-7.233934,53.404551],[-7.233958,53.404545],[-7.234303,53.404475],[-7.23433,53.40447],[-7.23441,53.404462],[-7.234585,53.404447],[-7.234602,53.404438],[-7.234746,53.404394],[-7.234853,53.404361],[-7.23491,53.404354],[-7.235407,53.40429],[-7.235446,53.404285],[-7.235462,53.404284],[-7.235545,53.404274],[-7.23566,53.404261],[-7.235717,53.404246],[-7.235821,53.404218],[-7.235885,53.404181],[-7.235948,53.404144],[-7.236045,53.404126],[-7.236072,53.404121],[-7.236182,53.404126],[-7.236268,53.404131],[-7.236417,53.404147],[-7.236506,53.404139],[-7.236521,53.404138],[-7.236667,53.404077],[-7.236805,53.404005],[-7.236845,53.403983],[-7.237119,53.403839],[-7.237236,53.40379],[-7.237468,53.403691],[-7.237559,53.403653],[-7.237712,53.403577],[-7.237862,53.403503],[-7.238033,53.40348],[-7.238214,53.403483],[-7.238291,53.4035],[-7.238406,53.403526],[-7.238556,53.403566],[-7.2387,53.403554],[-7.238955,53.403508],[-7.23896,53.403507],[-7.238968,53.403506],[-7.239207,53.403455],[-7.239409,53.403412],[-7.239495,53.403382],[-7.239562,53.403358],[-7.23978,53.403282],[-7.239959,53.403219],[-7.239984,53.403211],[-7.239986,53.40321],[-7.240171,53.403127],[-7.240337,53.403008],[-7.240405,53.40296],[-7.240435,53.402939],[-7.240439,53.402936],[-7.240557,53.402852],[-7.240557,53.402852],[-7.240557,53.402852],[-7.240687,53.402802],[-7.240744,53.40279],[-7.24081,53.402776],[-7.240891,53.402762],[-7.240957,53.402751],[-7.241096,53.402728],[-7.241527,53.402643],[-7.241635,53.402621],[-7.24182,53.402558],[-7.241969,53.402507],[-7.242043,53.40247],[-7.242115,53.402435],[-7.242164,53.402398],[-7.24234,53.40227],[-7.242479,53.402174],[-7.242589,53.402099],[-7.242735,53.402038],[-7.242739,53.402037],[-7.242739,53.402037],[-7.24283,53.402022],[-7.242935,53.402004],[-7.242992,53.402],[-7.243079,53.401995],[-7.243177,53.401989],[-7.243381,53.401989],[-7.243518,53.40199],[-7.243537,53.40199],[-7.243557,53.40199],[-7.243567,53.40199],[-7.243572,53.40199],[-7.243646,53.401986],[-7.243719,53.401982],[-7.243806,53.401952],[-7.243875,53.401929],[-7.243922,53.401898],[-7.243936,53.40189],[-7.244117,53.401771],[-7.244139,53.401754],[-7.244199,53.401706],[-7.244304,53.401622],[-7.244359,53.401578],[-7.244469,53.401505],[-7.244569,53.401438],[-7.244695,53.401353],[-7.244924,53.401173],[-7.244924,53.401173],[-7.244996,53.401115],[-7.245144,53.401032],[-7.24516,53.401023],[-7.245163,53.401022],[-7.24517,53.40102],[-7.245206,53.400998],[-7.245266,53.400962],[-7.245372,53.400898],[-7.245545,53.400793],[-7.245628,53.400718],[-7.24572,53.400637],[-7.245792,53.400592],[-7.245886,53.400572],[-7.246104,53.40056],[-7.246156,53.400551],[-7.24632,53.400524],[-7.24632,53.400524],[-7.24632,53.400524],[-7.246234,53.400376],[-7.246234,53.400376],[-7.24609,53.400126],[-7.245985,53.399964],[-7.245467,53.399389],[-7.245443,53.39932],[-7.245852,53.397615],[-7.246214,53.396114],[-7.246871,53.393375],[-7.247254,53.391832],[-7.247425,53.391117],[-7.247715,53.390021],[-7.248107,53.388194],[-7.248378,53.387035],[-7.248432,53.386805],[-7.248417,53.386748],[-7.248383,53.386748],[-7.247886,53.386757],[-7.246676,53.386757],[-7.243253,53.38676],[-7.242833,53.386762],[-7.242884,53.38703],[-7.242884,53.38703],[-7.242884,53.38703],[-7.242625,53.387032],[-7.241529,53.387043],[-7.241515,53.386769],[-7.240909,53.386772],[-7.239935,53.38677],[-7.239866,53.387227],[-7.239708,53.387193],[-7.239626,53.387395],[-7.2396,53.387788],[-7.239222,53.388184],[-7.239182,53.388179],[-7.239053,53.388166],[-7.238413,53.388092],[-7.238029,53.388756],[-7.238603,53.388896],[-7.238567,53.38893],[-7.238147,53.389319],[-7.237864,53.389223],[-7.237851,53.389234],[-7.237843,53.38924],[-7.237785,53.389291],[-7.237495,53.38956],[-7.237337,53.389758],[-7.237182,53.389954],[-7.236947,53.390196],[-7.236923,53.390218],[-7.237015,53.390247],[-7.237023,53.390248],[-7.236916,53.390312],[-7.236479,53.390574],[-7.235753,53.390971],[-7.235332,53.391164],[-7.235329,53.391165],[-7.235287,53.391185],[-7.234675,53.391353],[-7.233816,53.391619],[-7.233398,53.391729],[-7.233324,53.391611],[-7.233264,53.391625],[-7.231988,53.39192],[-7.23176,53.391914],[-7.231109,53.391891],[-7.230306,53.391892],[-7.230077,53.391442],[-7.230075,53.391439],[-7.230072,53.391432],[-7.229524,53.391384],[-7.229111,53.391348],[-7.228437,53.391266],[-7.228026,53.391234],[-7.227787,53.391496],[-7.227515,53.391818],[-7.227269,53.392121],[-7.227068,53.392336],[-7.226415,53.392198],[-7.225892,53.392084],[-7.225547,53.391924],[-7.225237,53.391739],[-7.224884,53.391493],[-7.225022,53.391716],[-7.225126,53.391943],[-7.225548,53.393515],[-7.225843,53.394613],[-7.22631,53.396326],[-7.227078,53.399299],[-7.227773,53.401905],[-7.228346,53.404126],[-7.228682,53.405574],[-7.228692,53.405616],[-7.229071,53.405491]]]]}}]}
