{"type":"FeatureCollection","features":[{"type":"Feature","properties":{"source_fid":1344479,"county":"Offaly","bog_geom_ha":258.31967354388388,"low15_pct":100.0,"low15_ha":258.31967354388388,"overlay_ha":258.31967354388388,"area_delta":0.0},"geometry":{"type":"MultiPolygon","coordinates":[[[[-7.697084,53.273131],[-7.697075,53.273097],[-7.697005,53.272815],[-7.697005,53.272815],[-7.697005,53.272815],[-7.696932,53.272517],[-7.696877,53.272294],[-7.696822,53.272074],[-7.696779,53.271901],[-7.696723,53.271672],[-7.696664,53.271434],[-7.696615,53.271236],[-7.696604,53.271199],[-7.696539,53.270975],[-7.696475,53.270756],[-7.696461,53.270708],[-7.696418,53.270524],[-7.696348,53.270224],[-7.696333,53.270162],[-7.696281,53.269943],[-7.696212,53.269651],[-7.696151,53.269391],[-7.696149,53.269384],[-7.696101,53.269183],[-7.696039,53.268921],[-7.695989,53.268714],[-7.695975,53.268655],[-7.695908,53.268379],[-7.695861,53.268189],[-7.695815,53.267999],[-7.695764,53.267794],[-7.695745,53.267715],[-7.695719,53.267596],[-7.695674,53.267386],[-7.695628,53.267174],[-7.695591,53.267004],[-7.695555,53.266835],[-7.695541,53.266785],[-7.695461,53.266792],[-7.694786,53.266852],[-7.693361,53.266988],[-7.692606,53.267066],[-7.691383,53.267172],[-7.691039,53.267213],[-7.689733,53.267335],[-7.688767,53.267429],[-7.687806,53.267528],[-7.686941,53.267603],[-7.685882,53.267713],[-7.685727,53.267742],[-7.684728,53.269706],[-7.683506,53.272187],[-7.683065,53.272278],[-7.682023,53.272561],[-7.680955,53.272853],[-7.680154,53.273069],[-7.679799,53.273164],[-7.678634,53.273486],[-7.677326,53.273841],[-7.67683,53.273222],[-7.676829,53.27322],[-7.676185,53.273374],[-7.67559,53.273529],[-7.675396,53.273583],[-7.675337,53.273599],[-7.675076,53.27367],[-7.675445,53.274225],[-7.674,53.27459],[-7.673147,53.274805],[-7.672804,53.27488],[-7.672106,53.27503],[-7.671538,53.275153],[-7.668802,53.275554],[-7.668068,53.275713],[-7.667408,53.276894],[-7.667396,53.277026],[-7.667904,53.277629],[-7.668767,53.278372],[-7.669676,53.279407],[-7.671009,53.280923],[-7.671631,53.282525],[-7.672338,53.283088],[-7.672346,53.283094],[-7.672512,53.283225],[-7.673981,53.283229],[-7.673974,53.284127],[-7.675473,53.284132],[-7.675468,53.284841],[-7.675947,53.285031],[-7.676966,53.285034],[-7.676963,53.285434],[-7.678231,53.285936],[-7.679958,53.285941],[-7.679955,53.286295],[-7.68391,53.284731],[-7.683885,53.284604],[-7.685182,53.284139],[-7.685165,53.284105],[-7.685498,53.283975],[-7.685541,53.28401],[-7.687004,53.283486],[-7.688283,53.283027],[-7.688633,53.282896],[-7.690003,53.282381],[-7.690343,53.282238],[-7.692367,53.281385],[-7.69316,53.281051],[-7.693432,53.280882],[-7.693557,53.280816],[-7.693987,53.280661],[-7.694219,53.280538],[-7.694382,53.280468],[-7.694906,53.280242],[-7.695188,53.28012],[-7.695774,53.279867],[-7.695973,53.279816],[-7.695981,53.279816],[-7.696153,53.279795],[-7.696376,53.279799],[-7.696436,53.279794],[-7.696471,53.279792],[-7.696472,53.279792],[-7.697556,53.27982],[-7.69807,53.279765],[-7.698725,53.279696],[-7.698587,53.279146],[-7.698564,53.279051],[-7.698412,53.278447],[-7.698226,53.27775],[-7.698093,53.277213],[-7.698037,53.276985],[-7.697983,53.276769],[-7.697904,53.276448],[-7.697818,53.276101],[-7.697729,53.27574],[-7.697643,53.275394],[-7.697559,53.275053],[-7.697532,53.274945],[-7.697474,53.274709],[-7.697387,53.27436],[-7.697303,53.274018],[-7.697227,53.273711],[-7.697143,53.273373],[-7.697084,53.273131]]]]}}]}
