{"type":"FeatureCollection","features":[{"type":"Feature","properties":{"source_fid":1347628,"county":"Sligo","bog_geom_ha":135.44877633063288,"low15_pct":95.086321381142099,"low15_ha":128.79325876856993,"overlay_ha":128.87861962849362,"area_delta":0.085360859923696353},"geometry":{"type":"MultiPolygon","coordinates":[[[[-8.906692,54.140877],[-8.906643,54.140866],[-8.906629,54.140863],[-8.906643,54.14089],[-8.906949,54.141434],[-8.909081,54.141418],[-8.909077,54.141239],[-8.909061,54.141241],[-8.908999,54.14124],[-8.908999,54.14124],[-8.908999,54.14124],[-8.908996,54.141238],[-8.908972,54.141219],[-8.908967,54.141198],[-8.908959,54.141161],[-8.908892,54.141141],[-8.908892,54.14114],[-8.908891,54.14114],[-8.908861,54.141128],[-8.908748,54.141156],[-8.908643,54.141175],[-8.908581,54.141189],[-8.908537,54.141205],[-8.908502,54.141218],[-8.908481,54.141239],[-8.90847,54.141251],[-8.908383,54.141273],[-8.908383,54.141273],[-8.908383,54.141273],[-8.908355,54.141267],[-8.908325,54.14126],[-8.908233,54.141252],[-8.9082,54.141264],[-8.908176,54.141273],[-8.908159,54.141274],[-8.908109,54.141279],[-8.908019,54.141246],[-8.907993,54.141215],[-8.907986,54.141206],[-8.907883,54.141203],[-8.907815,54.141183],[-8.907815,54.141183],[-8.907815,54.141183],[-8.907813,54.141173],[-8.907806,54.141147],[-8.9078,54.141144],[-8.907768,54.141127],[-8.907717,54.141144],[-8.907714,54.141145],[-8.907643,54.141173],[-8.907561,54.141188],[-8.907509,54.141166],[-8.907399,54.141122],[-8.907289,54.141083],[-8.907235,54.141076],[-8.906927,54.141034],[-8.906876,54.141017],[-8.906827,54.140985],[-8.906771,54.140913],[-8.906743,54.140893],[-8.906692,54.140877]]],[[[-8.909242,54.141461],[-8.909262,54.141417],[-8.909081,54.141418],[-8.909087,54.141688],[-8.909377,54.141686],[-8.909307,54.141623],[-8.909267,54.14155],[-8.909261,54.141528],[-8.909242,54.141461]]],[[[-8.909632,54.141966],[-8.90955,54.141861],[-8.909552,54.141954],[-8.909558,54.142223],[-8.90957,54.142763],[-8.910029,54.142759],[-8.910035,54.143029],[-8.910041,54.143298],[-8.910047,54.143568],[-8.909588,54.143571],[-8.909593,54.143841],[-8.909134,54.143844],[-8.909146,54.144383],[-8.909152,54.144653],[-8.909158,54.144922],[-8.909164,54.145192],[-8.909057,54.145193],[-8.909358,54.14573],[-8.909635,54.145727],[-8.909641,54.145997],[-8.909508,54.145998],[-8.909568,54.146103],[-8.90943,54.146538],[-8.910112,54.146533],[-8.910118,54.146802],[-8.909658,54.146806],[-8.909664,54.147075],[-8.909259,54.147078],[-8.907259,54.153399],[-8.900359,54.156017],[-8.901868,54.159929],[-8.909846,54.159624],[-8.911932,54.164448],[-8.912125,54.164893],[-8.911893,54.165405],[-8.911919,54.165407],[-8.91196,54.16543],[-8.911962,54.165431],[-8.911932,54.165487],[-8.91191,54.165544],[-8.911785,54.165871],[-8.911652,54.166241],[-8.911576,54.166472],[-8.91148,54.166765],[-8.911406,54.166977],[-8.911293,54.167299],[-8.911179,54.167594],[-8.911087,54.167926],[-8.911044,54.167912],[-8.911106,54.168032],[-8.911107,54.168033],[-8.911129,54.168079],[-8.911172,54.168218],[-8.911249,54.168472],[-8.911308,54.168657],[-8.911348,54.168738],[-8.911468,54.168817],[-8.911764,54.169001],[-8.91216,54.169251],[-8.912618,54.169533],[-8.913159,54.169869],[-8.913598,54.170153],[-8.913972,54.170403],[-8.914104,54.170495],[-8.914202,54.170564],[-8.914202,54.170564],[-8.914322,54.170635],[-8.914696,54.170871],[-8.91513,54.17116],[-8.915417,54.171352],[-8.915647,54.171501],[-8.915731,54.171549],[-8.915798,54.171578],[-8.916234,54.171728],[-8.916445,54.171802],[-8.916729,54.171877],[-8.916763,54.171894],[-8.916858,54.171947],[-8.91697,54.171988],[-8.917021,54.172008],[-8.917066,54.172025],[-8.917131,54.171888],[-8.917133,54.171884],[-8.91707,54.171868],[-8.917091,54.171845],[-8.917212,54.171656],[-8.917275,54.171538],[-8.91731,54.171499],[-8.917334,54.171452],[-8.917332,54.171417],[-8.917317,54.171408],[-8.917289,54.171418],[-8.917256,54.171441],[-8.917229,54.171441],[-8.917218,54.171428],[-8.917184,54.171376],[-8.917175,54.171347],[-8.917189,54.17132],[-8.917185,54.171263],[-8.917185,54.171229],[-8.917194,54.171197],[-8.917242,54.171149],[-8.917279,54.171118],[-8.917355,54.17103],[-8.917466,54.170861],[-8.917528,54.170767],[-8.917563,54.170738],[-8.917648,54.170694],[-8.917731,54.170664],[-8.917765,54.170648],[-8.91779,54.170617],[-8.917785,54.170555],[-8.917789,54.170537],[-8.917769,54.170519],[-8.917751,54.170442],[-8.917752,54.170421],[-8.917753,54.170391],[-8.91778,54.170357],[-8.917871,54.170286],[-8.917949,54.170235],[-8.917991,54.170224],[-8.918036,54.170218],[-8.918147,54.170199],[-8.91824,54.170169],[-8.918339,54.170141],[-8.918434,54.170117],[-8.918501,54.170069],[-8.918552,54.170011],[-8.918579,54.169943],[-8.9186,54.169919],[-8.918616,54.169873],[-8.918614,54.169828],[-8.918624,54.169787],[-8.918667,54.169717],[-8.918686,54.169682],[-8.918686,54.169665],[-8.918643,54.169645],[-8.918623,54.169614],[-8.918572,54.169577],[-8.918543,54.169557],[-8.918522,54.169511],[-8.918517,54.169489],[-8.918532,54.169444],[-8.918582,54.169418],[-8.918639,54.169406],[-8.918668,54.169384],[-8.918688,54.169367],[-8.918712,54.169337],[-8.918713,54.169303],[-8.918696,54.16926],[-8.918632,54.169235],[-8.918533,54.169226],[-8.918466,54.169219],[-8.918399,54.169192],[-8.918366,54.169141],[-8.918282,54.169111],[-8.918205,54.169086],[-8.918151,54.169046],[-8.918096,54.169016],[-8.918058,54.168993],[-8.918032,54.168974],[-8.918033,54.168928],[-8.917988,54.168911],[-8.917871,54.168882],[-8.917765,54.168841],[-8.917724,54.168829],[-8.917628,54.168818],[-8.917555,54.168793],[-8.917472,54.16873],[-8.917349,54.168675],[-8.917289,54.168652],[-8.91721,54.168594],[-8.917159,54.168525],[-8.917137,54.168466],[-8.917149,54.168421],[-8.917154,54.168374],[-8.917118,54.16832],[-8.917061,54.168256],[-8.917031,54.168199],[-8.916996,54.168062],[-8.916975,54.168002],[-8.916988,54.167948],[-8.916924,54.167925],[-8.916879,54.167885],[-8.916896,54.16782],[-8.916902,54.167735],[-8.916888,54.167683],[-8.916934,54.167644],[-8.916946,54.167615],[-8.916935,54.167566],[-8.916916,54.167511],[-8.916932,54.167455],[-8.91692,54.167419],[-8.916955,54.167361],[-8.91694,54.167318],[-8.91694,54.167263],[-8.916937,54.167196],[-8.916953,54.16714],[-8.916993,54.167094],[-8.917038,54.167061],[-8.917078,54.167049],[-8.917222,54.167052],[-8.91729,54.167063],[-8.917336,54.167062],[-8.91741,54.166993],[-8.917415,54.166964],[-8.917412,54.166948],[-8.917359,54.166935],[-8.917264,54.166911],[-8.917236,54.16688],[-8.917231,54.166847],[-8.917234,54.166818],[-8.917312,54.166765],[-8.917384,54.166736],[-8.917436,54.16672],[-8.917486,54.166719],[-8.917534,54.166722],[-8.917549,54.166719],[-8.917567,54.166699],[-8.917566,54.166671],[-8.917518,54.166629],[-8.917397,54.166579],[-8.917278,54.166558],[-8.917148,54.166497],[-8.917107,54.166457],[-8.91712,54.166438],[-8.917118,54.166394],[-8.917094,54.16634],[-8.9171,54.166281],[-8.917131,54.166235],[-8.917202,54.166205],[-8.917246,54.166193],[-8.917282,54.166163],[-8.917335,54.1661],[-8.917335,54.166089],[-8.917282,54.166042],[-8.917212,54.166007],[-8.917202,54.165978],[-8.917201,54.165945],[-8.917223,54.165908],[-8.917272,54.165902],[-8.917321,54.165902],[-8.91734,54.165896],[-8.917376,54.165858],[-8.917387,54.165837],[-8.917376,54.165804],[-8.91736,54.165749],[-8.917322,54.165699],[-8.917312,54.165679],[-8.917343,54.165645],[-8.917369,54.165596],[-8.917409,54.165546],[-8.917466,54.165494],[-8.917511,54.165445],[-8.917533,54.165412],[-8.917546,54.165373],[-8.917559,54.165333],[-8.917555,54.16526],[-8.91757,54.165217],[-8.917578,54.165153],[-8.917588,54.165118],[-8.917644,54.165098],[-8.917756,54.16508],[-8.917805,54.165047],[-8.917864,54.165006],[-8.917887,54.164986],[-8.917875,54.164912],[-8.917862,54.164874],[-8.917848,54.164835],[-8.91785,54.164809],[-8.917879,54.164764],[-8.917903,54.16474],[-8.917931,54.164692],[-8.917955,54.164669],[-8.917994,54.164649],[-8.918015,54.164626],[-8.918025,54.164568],[-8.918022,54.164501],[-8.918031,54.164431],[-8.918026,54.16437],[-8.918019,54.164322],[-8.918013,54.164274],[-8.917964,54.164214],[-8.917939,54.164162],[-8.917893,54.164116],[-8.917886,54.164082],[-8.917906,54.164038],[-8.917964,54.163981],[-8.918028,54.163948],[-8.918077,54.163908],[-8.918136,54.163877],[-8.918165,54.163858],[-8.918182,54.163824],[-8.918196,54.163767],[-8.918194,54.16371],[-8.918173,54.16367],[-8.918157,54.16361],[-8.918176,54.163538],[-8.918187,54.16348],[-8.918168,54.163427],[-8.918166,54.163386],[-8.918214,54.163337],[-8.918238,54.163295],[-8.918246,54.163251],[-8.918227,54.1632],[-8.918224,54.163154],[-8.91825,54.163115],[-8.918279,54.163058],[-8.91832,54.163024],[-8.918351,54.163001],[-8.91837,54.16294],[-8.918382,54.162877],[-8.918397,54.162804],[-8.9184,54.162739],[-8.918326,54.162711],[-8.9182,54.162671],[-8.918028,54.162608],[-8.917957,54.162566],[-8.917874,54.162519],[-8.917848,54.162457],[-8.917848,54.162373],[-8.917896,54.16233],[-8.917943,54.162247],[-8.917984,54.16219],[-8.917998,54.162148],[-8.917983,54.162092],[-8.917918,54.162007],[-8.917916,54.161999],[-8.917901,54.16196],[-8.917902,54.161858],[-8.917875,54.161808],[-8.917837,54.161787],[-8.917818,54.161764],[-8.917832,54.161735],[-8.917873,54.161673],[-8.917967,54.161623],[-8.918069,54.161602],[-8.91818,54.161539],[-8.918218,54.161491],[-8.91826,54.16142],[-8.918331,54.161335],[-8.91837,54.161282],[-8.918427,54.161235],[-8.918525,54.161194],[-8.918568,54.161164],[-8.918567,54.161136],[-8.918577,54.161021],[-8.918617,54.161],[-8.918623,54.160967],[-8.918606,54.160911],[-8.918648,54.160854],[-8.918674,54.16077],[-8.918743,54.16063],[-8.918791,54.160442],[-8.918788,54.160376],[-8.918786,54.160302],[-8.918784,54.160263],[-8.91882,54.160243],[-8.918868,54.160231],[-8.918964,54.160264],[-8.918994,54.160263],[-8.91903,54.160236],[-8.919101,54.160172],[-8.919113,54.160113],[-8.919101,54.160076],[-8.918996,54.160037],[-8.918918,54.160017],[-8.918826,54.160017],[-8.918679,54.159996],[-8.918508,54.159954],[-8.918347,54.159892],[-8.918254,54.159842],[-8.9182,54.159834],[-8.918174,54.159835],[-8.918133,54.159825],[-8.91807,54.159677],[-8.918081,54.159642],[-8.918128,54.159598],[-8.918184,54.159566],[-8.918217,54.159542],[-8.918231,54.15952],[-8.918203,54.159494],[-8.91811,54.159471],[-8.918053,54.15946],[-8.917977,54.159473],[-8.917885,54.159479],[-8.917824,54.159471],[-8.917762,54.15943],[-8.917677,54.159351],[-8.917604,54.15926],[-8.917624,54.159143],[-8.917625,54.159083],[-8.917601,54.159028],[-8.917544,54.158984],[-8.917426,54.158925],[-8.917218,54.158857],[-8.916947,54.158785],[-8.916901,54.158766],[-8.916763,54.158763],[-8.916665,54.158748],[-8.916571,54.158732],[-8.916467,54.158689],[-8.9164,54.158649],[-8.916351,54.158597],[-8.916299,54.158546],[-8.916151,54.158487],[-8.915866,54.158376],[-8.915697,54.158305],[-8.915659,54.158268],[-8.91558,54.158238],[-8.915456,54.158231],[-8.915272,54.158199],[-8.915162,54.158174],[-8.915068,54.158129],[-8.91498,54.158032],[-8.914921,54.157964],[-8.914901,54.157907],[-8.914891,54.157884],[-8.9148,54.157843],[-8.914711,54.157818],[-8.914603,54.157806],[-8.91453,54.157808],[-8.914465,54.157822],[-8.914429,54.15786],[-8.914409,54.157894],[-8.914377,54.157918],[-8.914258,54.157929],[-8.914178,54.157922],[-8.914007,54.157859],[-8.913874,54.157797],[-8.913804,54.157772],[-8.91374,54.157768],[-8.913701,54.157764],[-8.913667,54.157752],[-8.913662,54.157732],[-8.913596,54.157688],[-8.913519,54.157598],[-8.913486,54.157557],[-8.913349,54.157467],[-8.913191,54.157377],[-8.913101,54.157333],[-8.913094,54.157326],[-8.913086,54.157287],[-8.913106,54.157242],[-8.913138,54.15722],[-8.913149,54.157182],[-8.913138,54.157096],[-8.913132,54.157068],[-8.91309,54.156955],[-8.913053,54.156864],[-8.91308,54.156781],[-8.91308,54.156687],[-8.913057,54.156577],[-8.913011,54.156513],[-8.912907,54.156476],[-8.912806,54.156452],[-8.912728,54.156423],[-8.912678,54.156361],[-8.91267,54.156333],[-8.91267,54.156264],[-8.912674,54.156243],[-8.912718,54.15618],[-8.912705,54.156166],[-8.912662,54.156121],[-8.912583,54.156039],[-8.912547,54.155952],[-8.91258,54.155864],[-8.912572,54.155787],[-8.912518,54.155734],[-8.912469,54.155682],[-8.91249,54.155631],[-8.912425,54.15552],[-8.912391,54.155424],[-8.912392,54.155364],[-8.912447,54.155296],[-8.912412,54.155197],[-8.912354,54.155082],[-8.912348,54.154996],[-8.912296,54.15486],[-8.912318,54.154788],[-8.912389,54.154666],[-8.912388,54.154616],[-8.912356,54.154567],[-8.912344,54.15452],[-8.912412,54.154474],[-8.912535,54.15446],[-8.912601,54.154448],[-8.912716,54.154432],[-8.912806,54.154409],[-8.912821,54.154373],[-8.912793,54.154339],[-8.91274,54.154328],[-8.912644,54.15434],[-8.91257,54.154337],[-8.912522,54.154304],[-8.912495,54.154209],[-8.912462,54.15412],[-8.912453,54.154075],[-8.912552,54.154028],[-8.912631,54.154035],[-8.912814,54.154044],[-8.912922,54.154049],[-8.913001,54.154032],[-8.913058,54.153983],[-8.91312,54.153881],[-8.913173,54.153761],[-8.913238,54.153671],[-8.913241,54.153615],[-8.913208,54.153518],[-8.913197,54.153458],[-8.91315,54.153403],[-8.913081,54.153361],[-8.913075,54.153306],[-8.913096,54.153276],[-8.913156,54.15327],[-8.913224,54.153262],[-8.913241,54.153233],[-8.913216,54.153167],[-8.913197,54.153108],[-8.913224,54.153103],[-8.913224,54.153102],[-8.913222,54.153078],[-8.913221,54.153071],[-8.913243,54.152971],[-8.91323,54.152917],[-8.913217,54.152867],[-8.913217,54.152867],[-8.913217,54.152867],[-8.91324,54.152858],[-8.913264,54.152848],[-8.913328,54.152773],[-8.913348,54.152755],[-8.913353,54.152751],[-8.913363,54.15274],[-8.913422,54.152743],[-8.913485,54.152741],[-8.913495,54.152738],[-8.913514,54.152732],[-8.913532,54.152719],[-8.91356,54.152701],[-8.913635,54.152636],[-8.913673,54.152591],[-8.913695,54.152565],[-8.913692,54.152496],[-8.913692,54.152493],[-8.91369,54.152445],[-8.91364,54.152375],[-8.913668,54.152354],[-8.913676,54.152348],[-8.913697,54.152323],[-8.913718,54.152299],[-8.913718,54.152299],[-8.913718,54.152299],[-8.913786,54.152256],[-8.913844,54.152211],[-8.913839,54.152196],[-8.913835,54.152184],[-8.913772,54.152135],[-8.91377,54.152133],[-8.913767,54.15213],[-8.913754,54.152126],[-8.91373,54.152118],[-8.913696,54.152092],[-8.913692,54.152089],[-8.913692,54.152089],[-8.913692,54.152089],[-8.913691,54.152086],[-8.913684,54.152063],[-8.913642,54.152038],[-8.913586,54.152019],[-8.913572,54.152009],[-8.913515,54.151966],[-8.913478,54.151876],[-8.913469,54.151861],[-8.913459,54.151846],[-8.913425,54.151829],[-8.913398,54.151815],[-8.913376,54.151804],[-8.913348,54.151784],[-8.913327,54.151768],[-8.913286,54.151739],[-8.913282,54.151737],[-8.913199,54.151678],[-8.913141,54.151637],[-8.913089,54.1516],[-8.91307,54.151589],[-8.913044,54.151574],[-8.912888,54.151523],[-8.912854,54.151494],[-8.912818,54.151436],[-8.912793,54.151418],[-8.912769,54.151402],[-8.912729,54.151314],[-8.912727,54.151251],[-8.912726,54.151218],[-8.912676,54.151154],[-8.912508,54.151008],[-8.912414,54.150908],[-8.912393,54.150886],[-8.912359,54.150801],[-8.912353,54.150785],[-8.912357,54.150709],[-8.912312,54.15067],[-8.912226,54.150635],[-8.91217,54.150615],[-8.912129,54.150601],[-8.912073,54.150573],[-8.911995,54.150543],[-8.911946,54.150499],[-8.9119,54.150458],[-8.911875,54.15044],[-8.911819,54.1504],[-8.911781,54.150375],[-8.911762,54.150362],[-8.911733,54.150344],[-8.911719,54.150336],[-8.911668,54.1503],[-8.911566,54.15025],[-8.911445,54.150189],[-8.911328,54.150093],[-8.911232,54.149978],[-8.911155,54.149911],[-8.911103,54.149854],[-8.911107,54.15003],[-8.911113,54.150299],[-8.910654,54.150303],[-8.910648,54.150033],[-8.910189,54.150037],[-8.910159,54.148689],[-8.910618,54.148685],[-8.910612,54.148416],[-8.910606,54.148146],[-8.911065,54.148143],[-8.91106,54.147873],[-8.911054,54.147604],[-8.911513,54.1476],[-8.911507,54.147331],[-8.911966,54.147327],[-8.91196,54.147058],[-8.912419,54.147054],[-8.912422,54.147202],[-8.912552,54.147099],[-8.912589,54.147077],[-8.91262,54.147059],[-8.91262,54.147059],[-8.912558,54.147004],[-8.912434,54.146842],[-8.912423,54.146809],[-8.912412,54.146787],[-8.912208,54.146486],[-8.911909,54.146062],[-8.911781,54.145797],[-8.91185,54.145478],[-8.911927,54.145071],[-8.911487,54.144548],[-8.911082,54.144083],[-8.911005,54.143989],[-8.910631,54.143823],[-8.910654,54.143639],[-8.910654,54.14356],[-8.910584,54.143456],[-8.910481,54.14325],[-8.910481,54.14325],[-8.910418,54.143152],[-8.910251,54.142896],[-8.910077,54.14265],[-8.909962,54.142421],[-8.909957,54.142411],[-8.909843,54.142214],[-8.909632,54.141966]],[[-8.909347,54.153547],[-8.909353,54.153817],[-8.908435,54.153824],[-8.908429,54.153554],[-8.907969,54.153558],[-8.907964,54.153288],[-8.907504,54.153292],[-8.907498,54.153022],[-8.908876,54.153012],[-8.908882,54.153281],[-8.908888,54.153551],[-8.909347,54.153547]],[[-8.910289,54.154619],[-8.910295,54.154888],[-8.909836,54.154892],[-8.90983,54.154622],[-8.910289,54.154619]],[[-8.909382,54.155165],[-8.909388,54.155434],[-8.909394,54.155704],[-8.908935,54.155707],[-8.908947,54.156246],[-8.908488,54.15625],[-8.908476,54.155711],[-8.90847,54.155441],[-8.908929,54.155438],[-8.908923,54.155168],[-8.909382,54.155165]],[[-8.907104,54.155991],[-8.906645,54.155994],[-8.906639,54.155725],[-8.907098,54.155721],[-8.907104,54.155991]],[[-8.906186,54.155998],[-8.906645,54.155994],[-8.906651,54.156264],[-8.906191,54.156267],[-8.906186,54.155998]]],[[[-8.912159,54.147417],[-8.912269,54.147325],[-8.911966,54.147327],[-8.91197,54.147516],[-8.912053,54.147474],[-8.912106,54.147446],[-8.912159,54.147417]]],[[[-8.911071,54.148415],[-8.911073,54.148412],[-8.911071,54.148412],[-8.911071,54.148415]]],[[[-8.908196,54.143657],[-8.908213,54.143688],[-8.90821,54.143582],[-8.908204,54.143312],[-8.908003,54.143314],[-8.908196,54.143657]]]]}}]}
