{"type":"FeatureCollection","features":[{"type":"Feature","properties":{"source_fid":1401000,"county":"Offaly","bog_geom_ha":112.40836818377318,"low15_pct":99.919807538091419,"low15_ha":112.31822514593534,"overlay_ha":112.31836818377506,"area_delta":0.0001430378397202503},"geometry":{"type":"MultiPolygon","coordinates":[[[[-7.193292,53.23473],[-7.193438,53.234357],[-7.193596,53.234223],[-7.192135,53.234213],[-7.192152,53.233314],[-7.194005,53.233327],[-7.194015,53.233304],[-7.194045,53.233254],[-7.194064,53.233192],[-7.194098,53.233134],[-7.194203,53.232973],[-7.19424,53.232918],[-7.194358,53.232801],[-7.194415,53.23274],[-7.194476,53.232467],[-7.194548,53.231441],[-7.194599,53.230972],[-7.194712,53.23018],[-7.194592,53.230178],[-7.194051,53.230182],[-7.193713,53.23018],[-7.192977,53.230146],[-7.192225,53.230119],[-7.192133,53.230118],[-7.192035,53.230117],[-7.191915,53.230116],[-7.191456,53.23011],[-7.190943,53.230112],[-7.190595,53.23011],[-7.190426,53.230105],[-7.189921,53.230091],[-7.189367,53.230068],[-7.188794,53.230041],[-7.188263,53.230022],[-7.187709,53.229999],[-7.1872,53.229982],[-7.186743,53.229966],[-7.186128,53.229947],[-7.185591,53.229936],[-7.185042,53.229923],[-7.184594,53.229916],[-7.183983,53.229908],[-7.18353,53.229902],[-7.182914,53.229894],[-7.182322,53.229884],[-7.181872,53.229881],[-7.181436,53.229869],[-7.180756,53.229843],[-7.180266,53.229825],[-7.179658,53.229803],[-7.179205,53.22979],[-7.178592,53.229769],[-7.178061,53.229752],[-7.177465,53.229731],[-7.176973,53.229708],[-7.17643,53.229694],[-7.176248,53.229685],[-7.175999,53.229674],[-7.175287,53.229652],[-7.174749,53.229631],[-7.174136,53.229611],[-7.173688,53.229597],[-7.173066,53.229574],[-7.172614,53.229556],[-7.171933,53.229525],[-7.17149,53.22951],[-7.170796,53.229476],[-7.170257,53.229456],[-7.169633,53.22944],[-7.168512,53.229417],[-7.167909,53.229403],[-7.1679,53.229401],[-7.16817,53.230036],[-7.168543,53.231086],[-7.168704,53.231632],[-7.169045,53.2324],[-7.169354,53.233133],[-7.16985,53.234303],[-7.170314,53.235413],[-7.170807,53.235431],[-7.171247,53.235454],[-7.171841,53.235481],[-7.172228,53.2355],[-7.172937,53.235528],[-7.173384,53.235546],[-7.174008,53.235575],[-7.174541,53.235597],[-7.175078,53.235622],[-7.175608,53.235646],[-7.176132,53.235666],[-7.176161,53.235667],[-7.176683,53.23569],[-7.177224,53.235718],[-7.177763,53.235739],[-7.178292,53.23576],[-7.178743,53.235783],[-7.179283,53.235805],[-7.179814,53.235832],[-7.18034,53.235858],[-7.180784,53.235889],[-7.181324,53.235921],[-7.181684,53.235945],[-7.182217,53.235976],[-7.182676,53.236004],[-7.18319,53.236037],[-7.183715,53.236069],[-7.184125,53.236082],[-7.184708,53.236116],[-7.185059,53.236127],[-7.185506,53.236145],[-7.18612,53.23617],[-7.186572,53.236187],[-7.18708,53.236208],[-7.187562,53.236223],[-7.188318,53.236253],[-7.18865,53.236266],[-7.189157,53.236283],[-7.189598,53.236305],[-7.190039,53.236322],[-7.190574,53.236341],[-7.191028,53.236361],[-7.191403,53.236378],[-7.191919,53.236403],[-7.192015,53.236408],[-7.193255,53.236466],[-7.193852,53.236498],[-7.194046,53.235193],[-7.193563,53.235083],[-7.193217,53.235067],[-7.193292,53.23473]],[[-7.192965,53.232784],[-7.193415,53.232787],[-7.19341,53.233056],[-7.19296,53.233053],[-7.192965,53.232784]]]]}}]}
