{"type":"FeatureCollection","features":[{"type":"Feature","properties":{"source_fid":1431974,"county":"Roscommon","bog_geom_ha":103.61809815570516,"low15_pct":100.0,"low15_ha":103.61809815570516,"overlay_ha":103.61809815570516,"area_delta":0.0},"geometry":{"type":"MultiPolygon","coordinates":[[[[-8.538571,53.804625],[-8.538629,53.804605],[-8.539559,53.804602],[-8.539648,53.804604],[-8.539654,53.804605],[-8.539654,53.804583],[-8.539674,53.804474],[-8.539737,53.804138],[-8.539752,53.804043],[-8.53977,53.803998],[-8.539902,53.803891],[-8.540017,53.803805],[-8.540411,53.803519],[-8.5405,53.80346],[-8.540771,53.803281],[-8.541265,53.802996],[-8.541334,53.802963],[-8.541433,53.802954],[-8.54156,53.802948],[-8.541897,53.802931],[-8.54221,53.802921],[-8.542302,53.802763],[-8.542357,53.802742],[-8.542494,53.802737],[-8.542535,53.802735],[-8.542771,53.802726],[-8.543,53.802746],[-8.543225,53.802794],[-8.543361,53.802828],[-8.543627,53.802918],[-8.543627,53.802931],[-8.543921,53.802951],[-8.544213,53.803147],[-8.544513,53.803177],[-8.544971,53.803175],[-8.545443,53.803154],[-8.54588,53.803179],[-8.547065,53.803175],[-8.547218,53.803187],[-8.54753,53.80321],[-8.548038,53.803275],[-8.547746,53.802964],[-8.547422,53.802642],[-8.547248,53.802469],[-8.546329,53.801491],[-8.546534,53.801077],[-8.547107,53.800007],[-8.549545,53.800445],[-8.549738,53.80048],[-8.550051,53.800534],[-8.550383,53.800594],[-8.551062,53.800717],[-8.551361,53.80077],[-8.551674,53.800825],[-8.551687,53.800828],[-8.551741,53.800837],[-8.551995,53.800881],[-8.552546,53.800981],[-8.552918,53.801047],[-8.553248,53.801106],[-8.553365,53.801115],[-8.553634,53.800888],[-8.554156,53.801022],[-8.554248,53.8009],[-8.554858,53.801066],[-8.554809,53.80114],[-8.555597,53.801357],[-8.555742,53.801329],[-8.556302,53.801412],[-8.556353,53.80142],[-8.556631,53.80148],[-8.557109,53.801476],[-8.557487,53.801451],[-8.557672,53.801416],[-8.557782,53.801363],[-8.557863,53.801333],[-8.557941,53.801326],[-8.558015,53.801339],[-8.558057,53.801355],[-8.558112,53.801353],[-8.55822,53.801275],[-8.558652,53.800939],[-8.558911,53.800734],[-8.559061,53.800569],[-8.559248,53.800429],[-8.559509,53.800328],[-8.559223,53.800204],[-8.558692,53.800042],[-8.558481,53.79998],[-8.558197,53.799897],[-8.557621,53.799728],[-8.557062,53.799568],[-8.556486,53.799449],[-8.555576,53.799291],[-8.555069,53.799187],[-8.554152,53.799016],[-8.552887,53.798797],[-8.551895,53.798636],[-8.550801,53.798524],[-8.549105,53.798339],[-8.54769,53.798166],[-8.547069,53.798083],[-8.545659,53.797939],[-8.543994,53.797761],[-8.543122,53.79765],[-8.542284,53.797211],[-8.541586,53.796839],[-8.540769,53.796382],[-8.540123,53.796022],[-8.539523,53.795708],[-8.539282,53.79564],[-8.538587,53.795493],[-8.537168,53.795089],[-8.535203,53.794505],[-8.532728,53.793827],[-8.531304,53.793723],[-8.531292,53.793722],[-8.531211,53.793853],[-8.530966,53.794251],[-8.530914,53.794343],[-8.530904,53.794361],[-8.53077,53.794613],[-8.530574,53.794982],[-8.530555,53.795048],[-8.531229,53.795269],[-8.531267,53.795282],[-8.531484,53.795353],[-8.531988,53.795523],[-8.532186,53.795573],[-8.533347,53.795973],[-8.533609,53.796072],[-8.533789,53.796122],[-8.533859,53.796136],[-8.533853,53.796163],[-8.533732,53.796238],[-8.533584,53.79636],[-8.533439,53.796433],[-8.533473,53.796496],[-8.533768,53.796591],[-8.533978,53.796672],[-8.534045,53.796696],[-8.534178,53.796766],[-8.534252,53.796778],[-8.534306,53.796816],[-8.534368,53.796862],[-8.534532,53.796929],[-8.534962,53.797155],[-8.535276,53.797274],[-8.535456,53.797358],[-8.535644,53.797474],[-8.535802,53.797574],[-8.535921,53.797676],[-8.536067,53.79784],[-8.536178,53.798001],[-8.536262,53.79815],[-8.536367,53.798305],[-8.536385,53.798421],[-8.536363,53.798443],[-8.536405,53.798525],[-8.536402,53.798809],[-8.536234,53.798766],[-8.535936,53.798746],[-8.535727,53.798742],[-8.535532,53.798753],[-8.534961,53.798783],[-8.534674,53.798775],[-8.534457,53.798754],[-8.534509,53.799089],[-8.533084,53.798927],[-8.532204,53.798841],[-8.53155,53.798776],[-8.531455,53.798716],[-8.531276,53.799015],[-8.531125,53.799267],[-8.53096,53.799263],[-8.530302,53.799245],[-8.529635,53.799245],[-8.529115,53.799257],[-8.528548,53.799261],[-8.528243,53.799266],[-8.528488,53.799659],[-8.528634,53.799901],[-8.52852,53.799997],[-8.5285,53.800115],[-8.528467,53.800664],[-8.528467,53.800794],[-8.528488,53.801692],[-8.528457,53.802383],[-8.528883,53.802491],[-8.529444,53.802645],[-8.530025,53.80279],[-8.530501,53.802918],[-8.53115,53.803016],[-8.531327,53.803044],[-8.537333,53.804008],[-8.53736,53.804504],[-8.53741,53.804505],[-8.537602,53.804539],[-8.537764,53.804574],[-8.53785,53.804616],[-8.537898,53.804621],[-8.538198,53.804616],[-8.538571,53.804625]]]]}}]}
