{"type":"FeatureCollection","features":[{"type":"Feature","properties":{"source_fid":1463491,"county":"Mayo","bog_geom_ha":106.33888355205166,"low15_pct":98.565400843881861,"low15_ha":104.81334682598846,"overlay_ha":104.88845930107254,"area_delta":0.07511247508408303},"geometry":{"type":"MultiPolygon","coordinates":[[[[-9.416534,54.164555],[-9.416357,54.16444],[-9.416315,54.164414],[-9.41632,54.164557],[-9.416534,54.164555]]],[[[-9.416912,54.164802],[-9.416785,54.164718],[-9.416788,54.164803],[-9.416912,54.164802]]],[[[-9.413946,54.164837],[-9.415869,54.164814],[-9.415861,54.164563],[-9.415852,54.164293],[-9.416124,54.16429],[-9.416066,54.164253],[-9.415884,54.164079],[-9.415792,54.163916],[-9.415445,54.163921],[-9.415419,54.163154],[-9.41537,54.163061],[-9.415223,54.162789],[-9.415201,54.16276],[-9.415099,54.162626],[-9.414934,54.162421],[-9.414858,54.162338],[-9.414716,54.162223],[-9.414665,54.162181],[-9.414662,54.162182],[-9.414633,54.162192],[-9.414601,54.162196],[-9.414365,54.162091],[-9.414031,54.162206],[-9.413782,54.1623],[-9.413418,54.162416],[-9.413267,54.162496],[-9.412995,54.162581],[-9.412815,54.162597],[-9.412381,54.162547],[-9.41229,54.162555],[-9.41219,54.162594],[-9.412086,54.162648],[-9.411678,54.162984],[-9.411522,54.163129],[-9.411456,54.163135],[-9.411279,54.163153],[-9.411181,54.163154],[-9.411083,54.163162],[-9.410972,54.163161],[-9.410803,54.163155],[-9.410608,54.163146],[-9.410136,54.163132],[-9.410082,54.163116],[-9.410048,54.163111],[-9.409904,54.163179],[-9.409216,54.16327],[-9.403606,54.163942],[-9.402948,54.16401],[-9.402479,54.164072],[-9.402037,54.164113],[-9.40065,54.164288],[-9.400441,54.164312],[-9.400331,54.164339],[-9.400208,54.16434],[-9.399933,54.164372],[-9.399904,54.164388],[-9.399723,54.164473],[-9.399615,54.164504],[-9.39934,54.16457],[-9.399245,54.164588],[-9.399556,54.165086],[-9.399782,54.165442],[-9.400011,54.165826],[-9.400053,54.165897],[-9.400379,54.166382],[-9.400343,54.166405],[-9.400364,54.166426],[-9.400342,54.166472],[-9.400282,54.166496],[-9.4002,54.166497],[-9.400015,54.1666],[-9.399774,54.166722],[-9.399614,54.166801],[-9.401762,54.166776],[-9.401732,54.165878],[-9.409385,54.165789],[-9.409354,54.16489],[-9.410885,54.164873],[-9.410915,54.165771],[-9.412446,54.165753],[-9.412476,54.166651],[-9.414007,54.166633],[-9.413946,54.164837]],[[-9.412674,54.165409],[-9.412683,54.165678],[-9.412224,54.165684],[-9.412214,54.165414],[-9.411755,54.16542],[-9.411746,54.16515],[-9.412665,54.16514],[-9.412674,54.165409]],[[-9.411737,54.164881],[-9.411746,54.16515],[-9.411287,54.165156],[-9.411278,54.164886],[-9.411737,54.164881]],[[-9.412692,54.165948],[-9.412683,54.165678],[-9.413142,54.165673],[-9.413151,54.165943],[-9.412692,54.165948]]],[[[-9.417669,54.165424],[-9.417515,54.165298],[-9.417234,54.165045],[-9.417209,54.165022],[-9.417009,54.164868],[-9.417037,54.165699],[-9.415507,54.165717],[-9.415532,54.166454],[-9.415925,54.166449],[-9.415953,54.167258],[-9.415559,54.167262],[-9.415568,54.167513],[-9.418629,54.167477],[-9.418648,54.168039],[-9.41865,54.168038],[-9.418712,54.167999],[-9.418827,54.167901],[-9.41887,54.167852],[-9.419181,54.167507],[-9.419473,54.167101],[-9.419502,54.16702],[-9.419523,54.166921],[-9.41952,54.166862],[-9.419509,54.166731],[-9.419474,54.166574],[-9.419421,54.166487],[-9.419693,54.166413],[-9.419843,54.166361],[-9.419771,54.166281],[-9.419781,54.166146],[-9.41971,54.166005],[-9.41959,54.16595],[-9.419427,54.16589],[-9.418841,54.165725],[-9.41868,54.165679],[-9.418416,54.165611],[-9.417871,54.165471],[-9.417669,54.165424]]],[[[-9.398386,54.167543],[-9.398222,54.167633],[-9.398108,54.167705],[-9.398065,54.167717],[-9.398731,54.16771],[-9.39872,54.16737],[-9.398686,54.167394],[-9.398533,54.167476],[-9.398386,54.167543]]],[[[-9.391312,54.17519],[-9.391385,54.175346],[-9.391513,54.175519],[-9.391619,54.17561],[-9.391873,54.175827],[-9.391912,54.175861],[-9.392136,54.176191],[-9.392136,54.176191],[-9.392136,54.176191],[-9.392219,54.176346],[-9.392254,54.176372],[-9.392232,54.17641],[-9.392294,54.176532],[-9.392338,54.176674],[-9.392568,54.176806],[-9.392623,54.176845],[-9.392732,54.176957],[-9.392749,54.176974],[-9.39293,54.177061],[-9.39308,54.177197],[-9.393154,54.177279],[-9.393327,54.177628],[-9.393259,54.177787],[-9.393208,54.177907],[-9.393263,54.177977],[-9.393478,54.178184],[-9.393527,54.178223],[-9.393585,54.178264],[-9.393612,54.178351],[-9.393617,54.178397],[-9.393673,54.178491],[-9.39384,54.178613],[-9.393923,54.178627],[-9.394006,54.178587],[-9.394104,54.178582],[-9.394221,54.17863],[-9.394314,54.178721],[-9.394587,54.17883],[-9.394972,54.178936],[-9.395147,54.179007],[-9.395462,54.179074],[-9.395569,54.179072],[-9.39573,54.179103],[-9.395818,54.179112],[-9.395962,54.179166],[-9.396168,54.179213],[-9.396848,54.179428],[-9.39728,54.179552],[-9.398124,54.179739],[-9.398442,54.179822],[-9.398806,54.179665],[-9.399536,54.179422],[-9.399804,54.179324],[-9.400098,54.179211],[-9.400163,54.179153],[-9.400384,54.178965],[-9.400472,54.178892],[-9.400657,54.178809],[-9.400941,54.178729],[-9.400976,54.1785],[-9.401001,54.178409],[-9.400933,54.17841],[-9.400912,54.178374],[-9.400945,54.178304],[-9.400942,54.178246],[-9.400956,54.178184],[-9.401006,54.178155],[-9.401112,54.17805],[-9.401122,54.17802],[-9.401148,54.177973],[-9.401214,54.177936],[-9.401284,54.177932],[-9.401326,54.177943],[-9.401334,54.177892],[-9.401371,54.177735],[-9.40146,54.177584],[-9.401829,54.177647],[-9.40183,54.177659],[-9.401838,54.177659],[-9.402011,54.177659],[-9.40211,54.17767],[-9.402251,54.177695],[-9.402474,54.177722],[-9.402565,54.177728],[-9.402647,54.17773],[-9.402798,54.177733],[-9.402873,54.177747],[-9.403015,54.177765],[-9.403131,54.177787],[-9.403405,54.177844],[-9.40375,54.177939],[-9.403974,54.178003],[-9.404075,54.178074],[-9.404303,54.178072],[-9.404466,54.1781],[-9.404752,54.178153],[-9.404916,54.178166],[-9.405189,54.178143],[-9.405326,54.178114],[-9.405461,54.178086],[-9.405603,54.178083],[-9.405809,54.178061],[-9.405969,54.178092],[-9.406117,54.178172],[-9.406321,54.178285],[-9.406381,54.178314],[-9.406469,54.178364],[-9.406501,54.178395],[-9.40671,54.178144],[-9.406983,54.177882],[-9.407213,54.177625],[-9.407323,54.177522],[-9.407445,54.177421],[-9.407617,54.177298],[-9.407839,54.177152],[-9.407928,54.177093],[-9.407928,54.177093],[-9.407928,54.177093],[-9.40821,54.176863],[-9.408441,54.176643],[-9.408441,54.176643],[-9.408508,54.176578],[-9.408717,54.176377],[-9.408718,54.176376],[-9.408744,54.176352],[-9.408744,54.176352],[-9.408775,54.176324],[-9.408784,54.176314],[-9.408851,54.17624],[-9.408853,54.176193],[-9.408859,54.176092],[-9.408859,54.176092],[-9.408862,54.176028],[-9.408934,54.175849],[-9.408844,54.175557],[-9.408994,54.175363],[-9.408994,54.175363],[-9.408994,54.175363],[-9.409183,54.175268],[-9.409191,54.175262],[-9.409218,54.175242],[-9.409347,54.175148],[-9.409459,54.174999],[-9.409534,54.174901],[-9.409487,54.174805],[-9.409499,54.174795],[-9.409605,54.174705],[-9.409824,54.17454],[-9.409872,54.174503],[-9.409873,54.174503],[-9.410506,54.174021],[-9.410661,54.173754],[-9.4107,54.173684],[-9.411073,54.17359],[-9.411252,54.173555],[-9.411555,54.173482],[-9.412202,54.173372],[-9.413031,54.17342],[-9.413565,54.173368],[-9.414422,54.173247],[-9.414772,54.17331],[-9.415498,54.17323],[-9.415917,54.173259],[-9.416294,54.173176],[-9.416993,54.172912],[-9.41904,54.172735],[-9.418701,54.172004],[-9.418313,54.171205],[-9.417978,54.170551],[-9.41771,54.170134],[-9.417531,54.169776],[-9.41749,54.169626],[-9.41746,54.169517],[-9.417487,54.169469],[-9.417479,54.169391],[-9.417447,54.169324],[-9.417367,54.1693],[-9.417129,54.168882],[-9.41692,54.168422],[-9.417005,54.168404],[-9.417051,54.168394],[-9.415599,54.168411],[-9.415605,54.16861],[-9.416458,54.1686],[-9.416467,54.168869],[-9.415615,54.168879],[-9.415629,54.169309],[-9.412568,54.169345],[-9.41269,54.172937],[-9.405036,54.173027],[-9.405128,54.175721],[-9.399004,54.175793],[-9.399034,54.176691],[-9.395973,54.176726],[-9.395942,54.175828],[-9.39288,54.175864],[-9.39285,54.174965],[-9.391861,54.174977],[-9.391865,54.175087],[-9.391405,54.175092],[-9.391402,54.174982],[-9.391319,54.174983],[-9.391314,54.174824],[-9.391083,54.174827],[-9.391045,54.174878],[-9.391049,54.174901],[-9.391238,54.175032],[-9.391258,54.175055],[-9.391285,54.175086],[-9.391313,54.175118],[-9.391312,54.17519]],[[-9.391874,54.175357],[-9.391865,54.175087],[-9.392324,54.175082],[-9.392333,54.175351],[-9.391874,54.175357]]],[[[-9.390909,54.174469],[-9.390959,54.174558],[-9.391305,54.174554],[-9.391289,54.174085],[-9.395882,54.174032],[-9.395912,54.17493],[-9.398974,54.174894],[-9.398943,54.173996],[-9.397413,54.174014],[-9.397382,54.173116],[-9.397313,54.173117],[-9.397313,54.173137],[-9.396854,54.173142],[-9.396853,54.173122],[-9.395852,54.173134],[-9.395791,54.171338],[-9.39426,54.171355],[-9.39423,54.170457],[-9.395761,54.170439],[-9.395718,54.169162],[-9.395697,54.169182],[-9.395686,54.169191],[-9.395554,54.169294],[-9.395467,54.169342],[-9.395406,54.169375],[-9.395259,54.169423],[-9.395165,54.169469],[-9.395024,54.169534],[-9.394852,54.16969],[-9.394567,54.169919],[-9.394113,54.170235],[-9.394008,54.170307],[-9.393596,54.170567],[-9.393203,54.170816],[-9.392925,54.170912],[-9.392745,54.170991],[-9.392514,54.171131],[-9.392483,54.17115],[-9.39248,54.171164],[-9.392473,54.171203],[-9.392473,54.171203],[-9.392473,54.171203],[-9.392452,54.17122],[-9.392377,54.171279],[-9.392187,54.171443],[-9.391445,54.171869],[-9.391168,54.172028],[-9.390852,54.172208],[-9.390526,54.172361],[-9.390517,54.172364],[-9.390466,54.172382],[-9.390401,54.172389],[-9.390382,54.172495],[-9.390292,54.17282],[-9.390228,54.173073],[-9.390229,54.173223],[-9.390139,54.173344],[-9.389936,54.173587],[-9.389887,54.173638],[-9.389856,54.173679],[-9.389818,54.173685],[-9.3898,54.173694],[-9.389703,54.173788],[-9.389746,54.173802],[-9.389813,54.173823],[-9.389841,54.173853],[-9.389954,54.173881],[-9.390336,54.173962],[-9.390459,54.174009],[-9.390656,54.174111],[-9.390801,54.174247],[-9.390909,54.174469]],[[-9.397809,54.17421],[-9.398268,54.174204],[-9.398287,54.174743],[-9.397827,54.174749],[-9.397809,54.17421]]]]}}]}
