{"type":"FeatureCollection","features":[{"type":"Feature","properties":{"source_fid":1543925,"county":"Donegal","bog_geom_ha":400.97465089739904,"low15_pct":96.408529741863077,"low15_ha":386.57376556775063,"overlay_ha":386.33500875998067,"area_delta":-0.23875680776995978},"geometry":{"type":"MultiPolygon","coordinates":[[[[-7.351464,55.230354],[-7.351455,55.230294],[-7.351479,55.230093],[-7.351765,55.229821],[-7.351774,55.229813],[-7.351994,55.229602],[-7.352187,55.229418],[-7.352605,55.228982],[-7.353081,55.228518],[-7.353369,55.228349],[-7.353725,55.22814],[-7.354292,55.227818],[-7.354311,55.227807],[-7.355076,55.227308],[-7.355327,55.227118],[-7.355325,55.227068],[-7.355399,55.227042],[-7.355526,55.227055],[-7.355546,55.227043],[-7.355535,55.227],[-7.355435,55.226926],[-7.355409,55.226855],[-7.35542,55.226793],[-7.355383,55.226753],[-7.355303,55.226733],[-7.355249,55.226751],[-7.355169,55.22679],[-7.355045,55.226788],[-7.354911,55.226768],[-7.354692,55.226641],[-7.354576,55.226517],[-7.354468,55.226302],[-7.354411,55.226168],[-7.354355,55.226076],[-7.354212,55.225971],[-7.354269,55.225837],[-7.354241,55.225785],[-7.354253,55.225688],[-7.3542,55.225648],[-7.354265,55.225587],[-7.354322,55.225587],[-7.354397,55.225606],[-7.354405,55.225541],[-7.354377,55.225504],[-7.354362,55.225443],[-7.354408,55.225391],[-7.35437,55.225369],[-7.354327,55.225335],[-7.354239,55.225179],[-7.354233,55.225085],[-7.354341,55.224881],[-7.354388,55.224826],[-7.354487,55.224771],[-7.354521,55.224743],[-7.35452,55.224693],[-7.354476,55.224644],[-7.354551,55.224559],[-7.354577,55.224529],[-7.354585,55.224505],[-7.354559,55.224463],[-7.35453,55.224442],[-7.354413,55.224415],[-7.354375,55.22439],[-7.354356,55.224367],[-7.354354,55.224209],[-7.354385,55.224106],[-7.354441,55.224031],[-7.354389,55.223946],[-7.354381,55.223809],[-7.354433,55.223654],[-7.354407,55.223577],[-7.354402,55.22357],[-7.354375,55.223533],[-7.35437,55.223525],[-7.354356,55.223512],[-7.354316,55.223475],[-7.354253,55.223395],[-7.354201,55.223326],[-7.354078,55.223225],[-7.354041,55.223179],[-7.354047,55.223138],[-7.354065,55.223095],[-7.354115,55.223032],[-7.354162,55.222996],[-7.354347,55.222885],[-7.354426,55.222828],[-7.354452,55.222753],[-7.354464,55.222718],[-7.354489,55.222642],[-7.354488,55.222595],[-7.354487,55.222563],[-7.354422,55.22239],[-7.354358,55.222264],[-7.354243,55.222036],[-7.354052,55.221692],[-7.353984,55.221569],[-7.353895,55.2215],[-7.353793,55.221479],[-7.353469,55.221459],[-7.353028,55.221445],[-7.352842,55.22144],[-7.352565,55.221391],[-7.352465,55.221345],[-7.352358,55.221269],[-7.352241,55.221155],[-7.352191,55.221097],[-7.352187,55.221321],[-7.351716,55.221318],[-7.351707,55.221857],[-7.351235,55.221855],[-7.351227,55.222394],[-7.350755,55.222391],[-7.350746,55.22293],[-7.348389,55.222917],[-7.348398,55.222378],[-7.349341,55.222384],[-7.349349,55.221844],[-7.349358,55.221305],[-7.34983,55.221308],[-7.349834,55.221038],[-7.349839,55.220769],[-7.35031,55.220771],[-7.350314,55.220502],[-7.351257,55.220507],[-7.351262,55.220237],[-7.351353,55.220238],[-7.351198,55.220196],[-7.350985,55.220153],[-7.350778,55.220104],[-7.350585,55.220059],[-7.350441,55.220014],[-7.350385,55.219957],[-7.350184,55.219766],[-7.350119,55.219711],[-7.348913,55.219705],[-7.348909,55.219955],[-7.348437,55.219953],[-7.348433,55.220222],[-7.34749,55.220217],[-7.347486,55.220487],[-7.347014,55.220484],[-7.347019,55.220215],[-7.347023,55.219945],[-7.347495,55.219948],[-7.347499,55.219678],[-7.34797,55.219681],[-7.347975,55.219411],[-7.346561,55.219404],[-7.346569,55.218865],[-7.346574,55.218595],[-7.347242,55.218599],[-7.347254,55.2179],[-7.347256,55.21779],[-7.346116,55.217784],[-7.34612,55.217515],[-7.345177,55.21751],[-7.345182,55.21724],[-7.344239,55.217235],[-7.344252,55.216427],[-7.342367,55.216416],[-7.342362,55.216686],[-7.341155,55.216679],[-7.341069,55.216847],[-7.340937,55.217079],[-7.340887,55.217184],[-7.340824,55.217318],[-7.340686,55.217546],[-7.340632,55.217665],[-7.340459,55.218027],[-7.340247,55.218486],[-7.340187,55.218622],[-7.340041,55.218968],[-7.33999,55.219099],[-7.339833,55.21944],[-7.339727,55.219679],[-7.339616,55.219922],[-7.33948,55.22016],[-7.339377,55.220388],[-7.33924,55.220622],[-7.339124,55.22084],[-7.339057,55.220965],[-7.338877,55.221306],[-7.338816,55.221437],[-7.338656,55.22177],[-7.338544,55.222021],[-7.338439,55.22225],[-7.338373,55.222363],[-7.338251,55.222543],[-7.338165,55.22269],[-7.338094,55.222796],[-7.337971,55.223016],[-7.337854,55.223238],[-7.337672,55.223611],[-7.337281,55.224479],[-7.337173,55.224689],[-7.337153,55.224729],[-7.337226,55.224792],[-7.337236,55.22483],[-7.337212,55.224858],[-7.337136,55.224884],[-7.337046,55.224894],[-7.337006,55.22494],[-7.337036,55.224971],[-7.337077,55.224998],[-7.337148,55.225035],[-7.337166,55.225083],[-7.337128,55.225178],[-7.337031,55.225174],[-7.336979,55.225162],[-7.336891,55.225304],[-7.336794,55.22547],[-7.336719,55.225571],[-7.336765,55.225683],[-7.336726,55.225738],[-7.336628,55.225845],[-7.336664,55.225947],[-7.336609,55.225986],[-7.336487,55.226046],[-7.336474,55.226106],[-7.336358,55.22619],[-7.336351,55.226267],[-7.336314,55.226336],[-7.336216,55.226371],[-7.336102,55.226423],[-7.33606,55.226459],[-7.336092,55.226479],[-7.336249,55.226541],[-7.336276,55.226618],[-7.336282,55.226646],[-7.336278,55.226667],[-7.336226,55.226694],[-7.336166,55.226711],[-7.336115,55.226713],[-7.336078,55.226796],[-7.336052,55.226895],[-7.335996,55.226983],[-7.335993,55.227025],[-7.336012,55.227154],[-7.335993,55.227191],[-7.335902,55.227268],[-7.335883,55.227292],[-7.335863,55.227329],[-7.335854,55.227406],[-7.335802,55.227473],[-7.335744,55.227552],[-7.335796,55.227649],[-7.335854,55.227715],[-7.335853,55.227725],[-7.335846,55.227777],[-7.335843,55.227802],[-7.335781,55.227897],[-7.335673,55.22791],[-7.335604,55.228002],[-7.335597,55.228082],[-7.335657,55.228168],[-7.335695,55.228191],[-7.335758,55.228212],[-7.335806,55.228203],[-7.33586,55.228217],[-7.335909,55.22825],[-7.335963,55.228315],[-7.336026,55.228352],[-7.336048,55.228389],[-7.336039,55.228431],[-7.335926,55.228492],[-7.335853,55.228579],[-7.335868,55.228636],[-7.33591,55.228682],[-7.335938,55.228713],[-7.335958,55.228801],[-7.335963,55.22889],[-7.335999,55.229006],[-7.335998,55.229038],[-7.336003,55.229069],[-7.336051,55.229133],[-7.336068,55.229177],[-7.336051,55.229213],[-7.335994,55.229261],[-7.335941,55.229321],[-7.335939,55.229386],[-7.335967,55.229416],[-7.335973,55.229445],[-7.335937,55.229484],[-7.335853,55.229525],[-7.335746,55.229559],[-7.33572,55.229604],[-7.335739,55.22972],[-7.335735,55.229849],[-7.335756,55.229931],[-7.335732,55.229948],[-7.335668,55.229967],[-7.335466,55.229983],[-7.335401,55.230004],[-7.335362,55.230098],[-7.335372,55.230129],[-7.335419,55.230179],[-7.335526,55.230241],[-7.335606,55.230344],[-7.335664,55.230426],[-7.335691,55.230479],[-7.335657,55.230586],[-7.33558,55.230634],[-7.335499,55.230675],[-7.33539,55.230752],[-7.335293,55.230853],[-7.335178,55.230944],[-7.335059,55.231003],[-7.335001,55.23104],[-7.33496,55.231085],[-7.334947,55.231105],[-7.334904,55.23117],[-7.334872,55.231222],[-7.334692,55.231276],[-7.334525,55.231324],[-7.33445,55.231358],[-7.334406,55.231461],[-7.334381,55.231491],[-7.33424,55.231525],[-7.334134,55.231544],[-7.334014,55.231575],[-7.334002,55.231652],[-7.333971,55.231708],[-7.333826,55.231797],[-7.333755,55.231875],[-7.333681,55.231906],[-7.333579,55.23194],[-7.333504,55.231997],[-7.333517,55.232068],[-7.333558,55.232115],[-7.333532,55.232175],[-7.333454,55.232197],[-7.333419,55.232206],[-7.333289,55.232226],[-7.333261,55.232254],[-7.333239,55.232332],[-7.33332,55.232355],[-7.33335,55.232417],[-7.333326,55.232525],[-7.33327,55.232585],[-7.333188,55.232624],[-7.333089,55.232641],[-7.333046,55.232645],[-7.332969,55.232652],[-7.332846,55.232641],[-7.332766,55.232644],[-7.332711,55.232662],[-7.332668,55.232727],[-7.33262,55.232763],[-7.332619,55.232781],[-7.3327,55.2328],[-7.332768,55.232841],[-7.332755,55.23286],[-7.332635,55.232927],[-7.3324,55.233083],[-7.332344,55.23318],[-7.332303,55.233246],[-7.332321,55.233602],[-7.332392,55.234034],[-7.332383,55.234652],[-7.332455,55.23516],[-7.332487,55.235809],[-7.332563,55.236441],[-7.332567,55.236683],[-7.332596,55.23681],[-7.332649,55.236899],[-7.332652,55.236904],[-7.332669,55.23706],[-7.332697,55.237277],[-7.332704,55.237384],[-7.332723,55.237548],[-7.332736,55.237713],[-7.332756,55.237874],[-7.332781,55.238145],[-7.332801,55.238309],[-7.332827,55.238577],[-7.332851,55.238793],[-7.332874,55.239012],[-7.332888,55.239173],[-7.33292,55.239442],[-7.332939,55.239601],[-7.332957,55.239875],[-7.332972,55.239984],[-7.33298,55.240096],[-7.332995,55.240205],[-7.333006,55.24031],[-7.333021,55.240415],[-7.333039,55.240578],[-7.333054,55.240739],[-7.333069,55.240851],[-7.333088,55.241013],[-7.333103,55.24117],[-7.333123,55.241331],[-7.333156,55.241598],[-7.333164,55.241707],[-7.333179,55.241874],[-7.333205,55.242036],[-7.33322,55.242199],[-7.333237,55.242417],[-7.333251,55.242528],[-7.333263,55.242636],[-7.333277,55.242852],[-7.33333,55.243286],[-7.333378,55.243662],[-7.333387,55.243824],[-7.333415,55.244094],[-7.333432,55.244205],[-7.333452,55.244312],[-7.333464,55.244427],[-7.333473,55.24454],[-7.333486,55.244701],[-7.333505,55.244925],[-7.333534,55.245141],[-7.333542,55.245204],[-7.33356,55.245359],[-7.333581,55.245579],[-7.333605,55.245795],[-7.333629,55.246067],[-7.333635,55.246114],[-7.333645,55.246223],[-7.333665,55.246384],[-7.333701,55.246659],[-7.333708,55.246769],[-7.333712,55.246821],[-7.333731,55.246876],[-7.333682,55.246921],[-7.333634,55.246965],[-7.334632,55.246676],[-7.336551,55.246104],[-7.33675,55.246309],[-7.336762,55.246321],[-7.336785,55.246344],[-7.337455,55.247031],[-7.339374,55.249013],[-7.339906,55.249566],[-7.340679,55.250368],[-7.341365,55.25108],[-7.341544,55.251301],[-7.342443,55.252413],[-7.342686,55.252661],[-7.343291,55.253279],[-7.344442,55.254521],[-7.344558,55.254358],[-7.344749,55.254095],[-7.344999,55.253794],[-7.34516,55.253599],[-7.345258,55.253473],[-7.345296,55.253424],[-7.345427,55.25321],[-7.345532,55.253068],[-7.345667,55.252943],[-7.345891,55.252743],[-7.346032,55.252614],[-7.346242,55.252426],[-7.346542,55.252181],[-7.346743,55.252013],[-7.346959,55.251854],[-7.347157,55.251704],[-7.347401,55.251526],[-7.34764,55.251354],[-7.34777,55.251358],[-7.347986,55.251358],[-7.34818,55.251348],[-7.348368,55.251312],[-7.348535,55.25129],[-7.348752,55.251225],[-7.348987,55.251132],[-7.349151,55.251038],[-7.349408,55.250868],[-7.349631,55.25071],[-7.349871,55.250557],[-7.350084,55.250418],[-7.350086,55.250417],[-7.35022,55.250333],[-7.350361,55.250253],[-7.350376,55.250245],[-7.35048,55.250252],[-7.350635,55.250251],[-7.35076,55.250244],[-7.350839,55.250222],[-7.35124,55.250233],[-7.351261,55.250181],[-7.351274,55.250137],[-7.351273,55.250116],[-7.351268,55.250053],[-7.351265,55.249994],[-7.35125,55.249955],[-7.351221,55.249926],[-7.351131,55.249859],[-7.351019,55.249803],[-7.350982,55.249771],[-7.35096,55.249753],[-7.350952,55.249735],[-7.350951,55.249717],[-7.35098,55.249671],[-7.351028,55.249642],[-7.351062,55.249635],[-7.351098,55.249637],[-7.351126,55.249634],[-7.351172,55.249592],[-7.351179,55.24957],[-7.351175,55.249545],[-7.351152,55.24949],[-7.35115,55.249467],[-7.351172,55.249419],[-7.351154,55.249358],[-7.351136,55.249337],[-7.351105,55.249313],[-7.351063,55.24929],[-7.350963,55.249269],[-7.350928,55.249279],[-7.350904,55.249292],[-7.350871,55.249299],[-7.350836,55.249293],[-7.35083,55.249282],[-7.35085,55.249253],[-7.350815,55.249204],[-7.35078,55.249147],[-7.350769,55.249142],[-7.350709,55.249127],[-7.350679,55.249121],[-7.350638,55.249106],[-7.350622,55.249079],[-7.350601,55.249044],[-7.35057,55.249019],[-7.35056,55.248947],[-7.350544,55.24883],[-7.350555,55.248807],[-7.350556,55.248805],[-7.350661,55.248845],[-7.350794,55.248819],[-7.35084,55.24876],[-7.350868,55.248717],[-7.350897,55.24865],[-7.350823,55.248534],[-7.35078,55.248511],[-7.350566,55.248489],[-7.350658,55.248414],[-7.350686,55.248364],[-7.350669,55.248304],[-7.350674,55.248253],[-7.350699,55.24824],[-7.350764,55.24822],[-7.350761,55.248142],[-7.350632,55.248136],[-7.350597,55.248096],[-7.350702,55.247998],[-7.350925,55.247889],[-7.350961,55.247829],[-7.351032,55.247778],[-7.351048,55.247717],[-7.351078,55.247684],[-7.35114,55.247611],[-7.351133,55.247494],[-7.351155,55.24738],[-7.351133,55.247339],[-7.351109,55.247317],[-7.351129,55.24729],[-7.3512,55.247255],[-7.351246,55.247209],[-7.351263,55.247185],[-7.351339,55.247109],[-7.351308,55.247034],[-7.35127,55.246974],[-7.351267,55.246918],[-7.351312,55.246879],[-7.351327,55.246859],[-7.351318,55.246837],[-7.351255,55.246798],[-7.351096,55.246726],[-7.351006,55.246706],[-7.350937,55.246688],[-7.35092,55.246661],[-7.350921,55.246602],[-7.351315,55.246538],[-7.351314,55.24653],[-7.351284,55.246484],[-7.351396,55.246451],[-7.351409,55.2464],[-7.351449,55.246354],[-7.3515,55.246328],[-7.35154,55.246305],[-7.351498,55.246273],[-7.351425,55.246257],[-7.351303,55.246249],[-7.351217,55.246234],[-7.351178,55.246208],[-7.351136,55.246133],[-7.351078,55.246115],[-7.351034,55.246108],[-7.351015,55.246068],[-7.351048,55.246057],[-7.351173,55.24602],[-7.351217,55.245999],[-7.351234,55.245946],[-7.351228,55.245866],[-7.351193,55.24582],[-7.351148,55.245785],[-7.351195,55.24574],[-7.351198,55.24571],[-7.351161,55.245646],[-7.351156,55.245569],[-7.351165,55.245516],[-7.351204,55.24548],[-7.351235,55.24546],[-7.351234,55.245405],[-7.351213,55.245341],[-7.351259,55.245239],[-7.3513,55.245201],[-7.351337,55.245183],[-7.351378,55.245176],[-7.351445,55.245172],[-7.35148,55.245153],[-7.351513,55.245095],[-7.351531,55.24504],[-7.351491,55.245009],[-7.351479,55.244957],[-7.351555,55.244859],[-7.351661,55.244779],[-7.351773,55.244733],[-7.351848,55.244686],[-7.351933,55.244664],[-7.351906,55.244631],[-7.351868,55.244578],[-7.351847,55.244472],[-7.351909,55.244446],[-7.352105,55.244471],[-7.352175,55.244447],[-7.352187,55.244411],[-7.35225,55.244349],[-7.352353,55.244237],[-7.35245,55.244184],[-7.35249,55.244174],[-7.352544,55.244159],[-7.352334,55.243862],[-7.35214,55.243616],[-7.351719,55.243073],[-7.351544,55.242834],[-7.351338,55.242545],[-7.351204,55.242344],[-7.350976,55.242055],[-7.350662,55.241608],[-7.350349,55.241165],[-7.350365,55.241148],[-7.350385,55.241123],[-7.350303,55.24105],[-7.350288,55.24101],[-7.35029,55.240978],[-7.350325,55.240816],[-7.350311,55.240775],[-7.350253,55.240664],[-7.350275,55.240608],[-7.35039,55.240532],[-7.350492,55.240453],[-7.350505,55.240404],[-7.350442,55.240362],[-7.350247,55.240302],[-7.350191,55.24026],[-7.350221,55.240223],[-7.350382,55.240063],[-7.350438,55.239944],[-7.350445,55.239879],[-7.350497,55.239671],[-7.350536,55.23963],[-7.3506,55.239614],[-7.350707,55.239617],[-7.350752,55.239627],[-7.350776,55.239638],[-7.350785,55.239661],[-7.350781,55.239676],[-7.350744,55.239723],[-7.350748,55.239732],[-7.350771,55.239739],[-7.350827,55.239743],[-7.350908,55.239722],[-7.350948,55.239698],[-7.35096,55.239691],[-7.351025,55.239675],[-7.351095,55.239652],[-7.35113,55.239606],[-7.351124,55.23959],[-7.351086,55.239561],[-7.35097,55.23952],[-7.350899,55.239487],[-7.350874,55.239456],[-7.350894,55.239395],[-7.350965,55.239297],[-7.351,55.239262],[-7.351138,55.239156],[-7.351302,55.239041],[-7.351369,55.239003],[-7.351429,55.238978],[-7.351523,55.238947],[-7.351569,55.238916],[-7.351609,55.238864],[-7.351612,55.238823],[-7.351655,55.238782],[-7.351757,55.238733],[-7.351848,55.238696],[-7.351892,55.238651],[-7.351889,55.238594],[-7.351874,55.238537],[-7.35186,55.238517],[-7.351787,55.238469],[-7.351716,55.238438],[-7.351684,55.238411],[-7.35167,55.238369],[-7.351672,55.23835],[-7.351697,55.238326],[-7.351742,55.238301],[-7.351783,55.238292],[-7.351865,55.238286],[-7.351933,55.238271],[-7.352004,55.238236],[-7.352102,55.238166],[-7.352272,55.237988],[-7.352306,55.237944],[-7.352318,55.237902],[-7.352319,55.237894],[-7.352332,55.237879],[-7.352381,55.237869],[-7.352448,55.237876],[-7.352484,55.237894],[-7.352485,55.237928],[-7.352479,55.237937],[-7.352487,55.237951],[-7.352509,55.237956],[-7.352536,55.237956],[-7.352563,55.237946],[-7.352612,55.237928],[-7.352626,55.237918],[-7.352645,55.237899],[-7.352652,55.237846],[-7.352662,55.237845],[-7.352658,55.237828],[-7.352617,55.237644],[-7.352543,55.237206],[-7.352475,55.236962],[-7.352466,55.236933],[-7.3524,55.23658],[-7.352366,55.236206],[-7.352292,55.235801],[-7.352193,55.23535],[-7.352132,55.234976],[-7.352024,55.234266],[-7.351975,55.233686],[-7.351908,55.232895],[-7.351826,55.232439],[-7.351716,55.231798],[-7.351642,55.231397],[-7.351606,55.231201],[-7.351562,55.230925],[-7.351478,55.230446],[-7.351464,55.230354]],[[-7.346503,55.222907],[-7.346032,55.222905],[-7.346036,55.222635],[-7.34604,55.222366],[-7.346512,55.222368],[-7.346516,55.222099],[-7.346988,55.222101],[-7.346983,55.222371],[-7.346979,55.22264],[-7.346508,55.222638],[-7.346503,55.222907]],[[-7.34556,55.222902],[-7.346032,55.222905],[-7.346027,55.223174],[-7.345556,55.223172],[-7.34556,55.222902]],[[-7.344137,55.223434],[-7.344132,55.223703],[-7.343661,55.223701],[-7.343665,55.223431],[-7.344137,55.223434]],[[-7.345027,55.226673],[-7.344555,55.22667],[-7.344573,55.225592],[-7.345044,55.225595],[-7.345027,55.226673]],[[-7.344013,55.23098],[-7.344484,55.230982],[-7.34448,55.231252],[-7.345423,55.231257],[-7.345414,55.231796],[-7.345886,55.231799],[-7.345881,55.232068],[-7.344467,55.23206],[-7.344471,55.231791],[-7.343999,55.231788],[-7.344008,55.231249],[-7.343537,55.231247],[-7.343541,55.230977],[-7.343546,55.230708],[-7.344017,55.23071],[-7.344013,55.23098]],[[-7.340934,55.246057],[-7.340938,55.245787],[-7.34141,55.24579],[-7.341415,55.24552],[-7.341886,55.245523],[-7.341882,55.245793],[-7.341877,55.246062],[-7.340934,55.246057]]],[[[-7.3426,55.214282],[-7.342402,55.214281],[-7.342398,55.21453],[-7.342596,55.214531],[-7.3426,55.214282]]]]}}]}
