{"type":"FeatureCollection","features":[{"type":"Feature","properties":{"source_fid":1546162,"county":"Offaly","bog_geom_ha":138.98506140800498,"low15_pct":98.566775244299677,"low15_ha":136.99309310118016,"overlay_ha":136.98862142410937,"area_delta":-0.0044716770707964315},"geometry":{"type":"MultiPolygon","coordinates":[[[[-7.881923,53.173998],[-7.881931,53.174014],[-7.881931,53.174014],[-7.881931,53.174014],[-7.881183,53.174145],[-7.881182,53.174639],[-7.881253,53.174858],[-7.88143,53.175331],[-7.881712,53.176125],[-7.881807,53.17638],[-7.881807,53.17638],[-7.881929,53.176631],[-7.881945,53.176693],[-7.882672,53.176694],[-7.882668,53.178062],[-7.882985,53.178267],[-7.883326,53.178492],[-7.885658,53.178494],[-7.885651,53.18119],[-7.885646,53.182987],[-7.88415,53.182985],[-7.884151,53.182648],[-7.882918,53.183605],[-7.882899,53.183621],[-7.881963,53.184376],[-7.880853,53.184407],[-7.880926,53.184769],[-7.881056,53.184769],[-7.881055,53.185039],[-7.880978,53.185038],[-7.880985,53.185074],[-7.880986,53.18508],[-7.880986,53.185084],[-7.881008,53.18523],[-7.881021,53.185297],[-7.881024,53.185311],[-7.881237,53.185398],[-7.884318,53.186651],[-7.884584,53.186763],[-7.885046,53.186956],[-7.885449,53.186726],[-7.885769,53.186538],[-7.887126,53.185742],[-7.887712,53.185404],[-7.888306,53.185062],[-7.888391,53.185012],[-7.888559,53.184911],[-7.888849,53.184738],[-7.888957,53.184676],[-7.888999,53.184651],[-7.890004,53.184072],[-7.890494,53.18379],[-7.891318,53.183309],[-7.892142,53.182828],[-7.892476,53.182637],[-7.89268,53.182521],[-7.893046,53.182312],[-7.893629,53.18198],[-7.894304,53.181591],[-7.894548,53.18145],[-7.895548,53.180871],[-7.895799,53.180727],[-7.896005,53.180608],[-7.896506,53.180314],[-7.897009,53.180019],[-7.897226,53.179897],[-7.898158,53.179373],[-7.897232,53.178841],[-7.896619,53.178488],[-7.896187,53.178078],[-7.895324,53.177257],[-7.895048,53.176981],[-7.894772,53.176704],[-7.894548,53.1765],[-7.894086,53.176073],[-7.89379,53.175799],[-7.892929,53.174957],[-7.893488,53.173465],[-7.893692,53.173354],[-7.893711,53.173344],[-7.893728,53.173334],[-7.893848,53.173269],[-7.895857,53.172147],[-7.89624,53.171937],[-7.897533,53.171224],[-7.897698,53.171134],[-7.897839,53.171055],[-7.899375,53.170191],[-7.899914,53.169888],[-7.898713,53.169895],[-7.897913,53.169899],[-7.897115,53.169894],[-7.896714,53.169891],[-7.896417,53.169892],[-7.895523,53.169893],[-7.894639,53.169888],[-7.894347,53.169886],[-7.894048,53.169886],[-7.893154,53.169885],[-7.89256,53.169881],[-7.891971,53.169876],[-7.890793,53.169872],[-7.890493,53.169872],[-7.889592,53.169871],[-7.888157,53.16987],[-7.8872,53.169868],[-7.886001,53.169857],[-7.884783,53.169851],[-7.884213,53.169844],[-7.883592,53.169836],[-7.883459,53.169836],[-7.88306,53.169836],[-7.882325,53.169832],[-7.881114,53.169844],[-7.880886,53.169825],[-7.880511,53.169819],[-7.880238,53.169814],[-7.879917,53.169811],[-7.879707,53.16981],[-7.8797,53.16981],[-7.879698,53.170401],[-7.878203,53.1704],[-7.878201,53.171101],[-7.878427,53.17117],[-7.878714,53.171261],[-7.878836,53.171299],[-7.881191,53.171301],[-7.881188,53.172379],[-7.881223,53.172455],[-7.881359,53.172762],[-7.881495,53.173099],[-7.882681,53.1731],[-7.882679,53.173998],[-7.881923,53.173998]],[[-7.887368,53.174003],[-7.887165,53.174003],[-7.887168,53.173104],[-7.888663,53.173106],[-7.888661,53.174004],[-7.887817,53.174003],[-7.887816,53.17426],[-7.887367,53.17426],[-7.887368,53.174003]],[[-7.887815,53.17453],[-7.887816,53.17426],[-7.888714,53.174261],[-7.888713,53.174531],[-7.887815,53.17453]],[[-7.890065,53.172375],[-7.890065,53.172106],[-7.890514,53.172106],[-7.890513,53.172376],[-7.890065,53.172375]],[[-7.891405,53.174803],[-7.891404,53.175073],[-7.890955,53.175072],[-7.890955,53.175342],[-7.890954,53.175611],[-7.890505,53.175611],[-7.890504,53.175881],[-7.889158,53.175879],[-7.889159,53.17561],[-7.88916,53.175071],[-7.889161,53.174801],[-7.890058,53.174802],[-7.890058,53.175071],[-7.889609,53.175071],[-7.889608,53.17561],[-7.890056,53.175611],[-7.890057,53.175341],[-7.890506,53.175341],[-7.890507,53.175072],[-7.890507,53.174802],[-7.890956,53.174803],[-7.890957,53.174533],[-7.891405,53.174533],[-7.891405,53.174803]],[[-7.889169,53.171566],[-7.889618,53.171566],[-7.889616,53.172375],[-7.889167,53.172374],[-7.889169,53.171566]],[[-7.884231,53.172639],[-7.885128,53.17264],[-7.885127,53.17291],[-7.88423,53.172909],[-7.884231,53.172639]]]]}}]}
