{"type":"FeatureCollection","features":[{"type":"Feature","properties":{"source_fid":1552267,"county":"Donegal","bog_geom_ha":323.57687348873134,"low15_pct":98.144558294101358,"low15_ha":317.57309322737854,"overlay_ha":317.47757193131554,"area_delta":-0.095521296062997862},"geometry":{"type":"MultiPolygon","coordinates":[[[[-8.20782,55.08245],[-8.207285,55.082308],[-8.206763,55.082198],[-8.2068,55.082323],[-8.20711,55.082389],[-8.208661,55.082757],[-8.212394,55.08362],[-8.21293,55.083713],[-8.213916,55.083672],[-8.21515,55.08367],[-8.215973,55.083653],[-8.217014,55.083635],[-8.217275,55.083599],[-8.218041,55.083417],[-8.218795,55.083274],[-8.219247,55.083202],[-8.219561,55.083084],[-8.219889,55.083031],[-8.219889,55.082945],[-8.21965,55.083001],[-8.219085,55.083137],[-8.218315,55.083247],[-8.217799,55.083387],[-8.217239,55.083502],[-8.216851,55.083537],[-8.216041,55.083551],[-8.215251,55.083563],[-8.214649,55.083563],[-8.214076,55.083561],[-8.213447,55.083586],[-8.212942,55.083612],[-8.212707,55.083587],[-8.212087,55.083454],[-8.211609,55.083343],[-8.211071,55.083208],[-8.210607,55.083103],[-8.210062,55.082972],[-8.209449,55.082843],[-8.208913,55.082696],[-8.208367,55.082584],[-8.20782,55.08245]]],[[[-8.221246,55.082674],[-8.221186,55.082686],[-8.221297,55.082685],[-8.221297,55.082664],[-8.221246,55.082674]]],[[[-8.227526,55.082781],[-8.227405,55.082757],[-8.227406,55.082952],[-8.227511,55.082974],[-8.23001,55.083627],[-8.229293,55.084275],[-8.229293,55.084288],[-8.229763,55.084287],[-8.229765,55.084556],[-8.228981,55.084558],[-8.228483,55.085008],[-8.228425,55.085052],[-8.228361,55.085074],[-8.228277,55.085135],[-8.228191,55.085209],[-8.228181,55.085244],[-8.228217,55.085335],[-8.22824,55.08542],[-8.228267,55.085531],[-8.228246,55.085596],[-8.228246,55.085598],[-8.228246,55.085641],[-8.228298,55.085665],[-8.228379,55.085688],[-8.22853,55.085732],[-8.22855,55.085766],[-8.228553,55.085808],[-8.228521,55.085849],[-8.22847,55.08588],[-8.228211,55.085976],[-8.22815,55.086004],[-8.227903,55.086128],[-8.227758,55.086189],[-8.227694,55.086245],[-8.227723,55.086324],[-8.227728,55.086324],[-8.227749,55.086328],[-8.227865,55.086335],[-8.22803,55.086364],[-8.228133,55.086394],[-8.228312,55.08644],[-8.228409,55.086464],[-8.228651,55.086505],[-8.228796,55.086519],[-8.228836,55.086522],[-8.228834,55.086175],[-8.228833,55.085906],[-8.228831,55.085636],[-8.228361,55.085637],[-8.22836,55.085368],[-8.228358,55.085098],[-8.228828,55.085097],[-8.228827,55.084828],[-8.229296,55.084827],[-8.229298,55.085096],[-8.229299,55.085366],[-8.229769,55.085365],[-8.229771,55.085634],[-8.230241,55.085634],[-8.230239,55.085364],[-8.230709,55.085363],[-8.230708,55.085094],[-8.230703,55.084285],[-8.230233,55.084286],[-8.230231,55.084016],[-8.230701,55.084016],[-8.2307,55.083746],[-8.230699,55.083603],[-8.230268,55.083478],[-8.229782,55.083348],[-8.229547,55.083302],[-8.229271,55.083245],[-8.229008,55.083174],[-8.228787,55.083117],[-8.228601,55.083065],[-8.228314,55.08298],[-8.228105,55.08291],[-8.227838,55.082854],[-8.227526,55.082781]]],[[[-8.232132,55.083994],[-8.232111,55.08399],[-8.232111,55.084013],[-8.232112,55.084282],[-8.231643,55.084283],[-8.231647,55.085092],[-8.231177,55.085093],[-8.231179,55.085362],[-8.231181,55.085632],[-8.231182,55.085901],[-8.230712,55.085902],[-8.230714,55.086172],[-8.229774,55.086173],[-8.229777,55.086713],[-8.229505,55.086713],[-8.229515,55.086743],[-8.229548,55.086865],[-8.229604,55.086944],[-8.22972,55.086998],[-8.229784,55.086986],[-8.229906,55.086944],[-8.230028,55.086868],[-8.230118,55.08685],[-8.230132,55.086842],[-8.230175,55.086815],[-8.230222,55.086805],[-8.230296,55.086795],[-8.23038,55.086793],[-8.230471,55.086788],[-8.230522,55.086793],[-8.230588,55.0868],[-8.230633,55.08681],[-8.230669,55.086838],[-8.230716,55.086854],[-8.230734,55.086872],[-8.230834,55.086898],[-8.230808,55.086938],[-8.230747,55.086974],[-8.230675,55.086983],[-8.230675,55.086988],[-8.23032,55.087033],[-8.230236,55.087066],[-8.230052,55.087207],[-8.229867,55.087314],[-8.229699,55.087376],[-8.22944,55.087471],[-8.229152,55.087612],[-8.228912,55.087727],[-8.22863,55.087861],[-8.228287,55.087998],[-8.227946,55.088121],[-8.227791,55.088146],[-8.227673,55.088156],[-8.227582,55.088179],[-8.227357,55.088243],[-8.227226,55.08828],[-8.227098,55.088321],[-8.226925,55.088351],[-8.2268,55.088345],[-8.226299,55.088317],[-8.226248,55.088336],[-8.226101,55.088541],[-8.226141,55.088677],[-8.226141,55.088765],[-8.226104,55.088823],[-8.226,55.088856],[-8.225835,55.088868],[-8.225404,55.088871],[-8.225344,55.088879],[-8.22532,55.088902],[-8.225284,55.089051],[-8.22525,55.08908],[-8.225197,55.089101],[-8.224645,55.089216],[-8.224505,55.089217],[-8.224448,55.089298],[-8.224537,55.089437],[-8.224645,55.089512],[-8.224817,55.089554],[-8.22506,55.08958],[-8.225275,55.089576],[-8.225497,55.089566],[-8.225837,55.089508],[-8.22617,55.089401],[-8.22635,55.089319],[-8.226588,55.089172],[-8.226685,55.089035],[-8.22686,55.088762],[-8.226954,55.088729],[-8.227166,55.088715],[-8.227597,55.088718],[-8.227661,55.088739],[-8.228052,55.088833],[-8.228144,55.088843],[-8.228631,55.088987],[-8.228646,55.089363],[-8.228429,55.089962],[-8.228316,55.090436],[-8.228346,55.090718],[-8.228421,55.090905],[-8.228625,55.091492],[-8.228664,55.091625],[-8.228449,55.091718],[-8.228217,55.091724],[-8.227695,55.091805],[-8.227327,55.091828],[-8.227118,55.091891],[-8.226506,55.091967],[-8.225956,55.092063],[-8.22529,55.092211],[-8.224302,55.092369],[-8.223355,55.092527],[-8.223145,55.092574],[-8.222956,55.092574],[-8.222599,55.092563],[-8.222508,55.09255],[-8.222494,55.092471],[-8.222524,55.092363],[-8.222493,55.092243],[-8.222465,55.092127],[-8.222232,55.091934],[-8.221878,55.091585],[-8.221821,55.091512],[-8.22129,55.091782],[-8.219975,55.092404],[-8.218908,55.092881],[-8.218587,55.093028],[-8.218598,55.093088],[-8.219112,55.093543],[-8.219297,55.093699],[-8.219845,55.094162],[-8.219753,55.094365],[-8.219724,55.094545],[-8.219724,55.094547],[-8.219952,55.094547],[-8.219954,55.094817],[-8.220424,55.094816],[-8.220425,55.095085],[-8.220895,55.095084],[-8.220897,55.095354],[-8.221367,55.095353],[-8.221368,55.095623],[-8.22137,55.095892],[-8.22184,55.095891],[-8.221843,55.096403],[-8.221845,55.096404],[-8.222092,55.096519],[-8.22247,55.096691],[-8.223004,55.096949],[-8.223457,55.097143],[-8.223711,55.097258],[-8.224062,55.097432],[-8.224389,55.09758],[-8.224651,55.097693],[-8.224854,55.097777],[-8.225096,55.097868],[-8.22539,55.098003],[-8.225734,55.09813],[-8.225925,55.098221],[-8.226076,55.098282],[-8.226385,55.098414],[-8.226588,55.098487],[-8.227055,55.098661],[-8.22742,55.098776],[-8.227599,55.098833],[-8.227936,55.098951],[-8.228264,55.099068],[-8.228752,55.099238],[-8.229097,55.09937],[-8.22979,55.099594],[-8.230313,55.09979],[-8.230964,55.100047],[-8.231424,55.100239],[-8.231746,55.100369],[-8.231928,55.100451],[-8.232075,55.100513],[-8.232279,55.100584],[-8.232559,55.100686],[-8.232752,55.100761],[-8.233059,55.100896],[-8.233386,55.101018],[-8.233728,55.101166],[-8.233851,55.10123],[-8.234016,55.101306],[-8.234167,55.10137],[-8.234377,55.101454],[-8.234658,55.10155],[-8.235017,55.101681],[-8.235034,55.101688],[-8.235582,55.10191],[-8.235696,55.10196],[-8.237865,55.100708],[-8.238835,55.100142],[-8.238808,55.100068],[-8.238821,55.100035],[-8.238857,55.100004],[-8.238857,55.099969],[-8.238873,55.099939],[-8.238915,55.099897],[-8.238977,55.099849],[-8.239071,55.099814],[-8.239211,55.099798],[-8.23932,55.099794],[-8.239357,55.09979],[-8.239385,55.099782],[-8.239413,55.099736],[-8.239416,55.099611],[-8.239429,55.099535],[-8.23945,55.099491],[-8.239519,55.09946],[-8.239636,55.099439],[-8.239687,55.099445],[-8.239793,55.099465],[-8.239829,55.09947],[-8.239831,55.099459],[-8.239811,55.099423],[-8.239746,55.099353],[-8.239719,55.099254],[-8.239694,55.099165],[-8.239657,55.099079],[-8.240226,55.098874],[-8.240916,55.098651],[-8.241222,55.098567],[-8.241498,55.098466],[-8.241987,55.098323],[-8.242325,55.098267],[-8.242469,55.098248],[-8.244229,55.098876],[-8.244271,55.098845],[-8.244379,55.098929],[-8.244465,55.099009],[-8.244522,55.099071],[-8.244799,55.099285],[-8.244897,55.099442],[-8.245125,55.099785],[-8.245719,55.099846],[-8.246304,55.099928],[-8.246421,55.099983],[-8.246478,55.100041],[-8.246075,55.100255],[-8.246036,55.100257],[-8.246276,55.100341],[-8.246552,55.100362],[-8.246667,55.100416],[-8.246728,55.100457],[-8.246849,55.100475],[-8.246971,55.100489],[-8.247219,55.100576],[-8.247313,55.100641],[-8.247352,55.100796],[-8.247379,55.100826],[-8.247497,55.100894],[-8.248097,55.101137],[-8.248317,55.1013],[-8.248442,55.101527],[-8.248545,55.10164],[-8.248579,55.1017],[-8.248634,55.101758],[-8.248611,55.101925],[-8.24882,55.102207],[-8.249071,55.102462],[-8.249086,55.102511],[-8.249118,55.102614],[-8.249044,55.102765],[-8.248936,55.102853],[-8.248919,55.102905],[-8.248975,55.102958],[-8.249106,55.103022],[-8.249203,55.103234],[-8.249362,55.103448],[-8.249491,55.103516],[-8.25016,55.103348],[-8.250411,55.103391],[-8.250616,55.103451],[-8.250889,55.103537],[-8.251123,55.103571],[-8.251215,55.103611],[-8.251342,55.103636],[-8.251405,55.103649],[-8.251582,55.10366],[-8.251781,55.103645],[-8.252232,55.103682],[-8.252401,55.103675],[-8.252579,55.103729],[-8.252647,55.103786],[-8.2528,55.103975],[-8.252935,55.104096],[-8.25304,55.104139],[-8.253298,55.104227],[-8.253438,55.104266],[-8.253861,55.104385],[-8.25417,55.104447],[-8.254917,55.103971],[-8.255254,55.103519],[-8.255574,55.103202],[-8.2566,55.102712],[-8.256792,55.10262],[-8.25744,55.10228],[-8.258108,55.101774],[-8.257861,55.101648],[-8.258226,55.101385],[-8.25847,55.101181],[-8.258525,55.101133],[-8.259852,55.101177],[-8.260138,55.101177],[-8.261111,55.101184],[-8.261238,55.101148],[-8.261264,55.101032],[-8.261311,55.100926],[-8.261388,55.100815],[-8.261426,55.100789],[-8.261544,55.100741],[-8.261793,55.100681],[-8.26185,55.100696],[-8.261881,55.100703],[-8.262117,55.100674],[-8.262602,55.100656],[-8.262887,55.100607],[-8.263315,55.100533],[-8.26329,55.100493],[-8.262798,55.099708],[-8.263868,55.099779],[-8.264991,55.099855],[-8.265116,55.099863],[-8.265097,55.099835],[-8.265081,55.099812],[-8.264934,55.099666],[-8.264745,55.099458],[-8.264681,55.09944],[-8.264615,55.099412],[-8.264572,55.099386],[-8.264483,55.099274],[-8.264454,55.099243],[-8.264405,55.099194],[-8.264265,55.099111],[-8.26416,55.09907],[-8.263962,55.099051],[-8.263847,55.099038],[-8.263781,55.09901],[-8.263745,55.098972],[-8.26364,55.098925],[-8.263582,55.09889],[-8.263498,55.098806],[-8.263409,55.098743],[-8.26335,55.098682],[-8.263312,55.098655],[-8.263284,55.098635],[-8.263246,55.098607],[-8.26318,55.098499],[-8.263155,55.098422],[-8.263164,55.098384],[-8.2632,55.098342],[-8.26317,55.098306],[-8.263096,55.098277],[-8.263038,55.098257],[-8.262954,55.098236],[-8.262893,55.098232],[-8.262844,55.09825],[-8.262777,55.098279],[-8.262719,55.098265],[-8.262688,55.098244],[-8.262692,55.098207],[-8.262726,55.098179],[-8.262796,55.09812],[-8.262787,55.098102],[-8.26273,55.098068],[-8.262614,55.098044],[-8.262468,55.097989],[-8.262384,55.097942],[-8.262253,55.097891],[-8.262221,55.097829],[-8.262139,55.097778],[-8.261944,55.097741],[-8.261767,55.09768],[-8.261631,55.097615],[-8.261616,55.097584],[-8.261644,55.097527],[-8.261651,55.097492],[-8.261638,55.097472],[-8.261566,55.097429],[-8.261438,55.097375],[-8.261388,55.097332],[-8.261355,55.097292],[-8.261389,55.09726],[-8.261443,55.097237],[-8.261557,55.097227],[-8.261602,55.097205],[-8.261657,55.09716],[-8.261679,55.097108],[-8.261682,55.097044],[-8.261666,55.097022],[-8.261604,55.096997],[-8.261549,55.096945],[-8.261476,55.096828],[-8.261425,55.096711],[-8.261314,55.096655],[-8.261269,55.096549],[-8.261212,55.096494],[-8.261207,55.096422],[-8.261163,55.096406],[-8.261072,55.096373],[-8.26098,55.096321],[-8.260902,55.096208],[-8.260788,55.096184],[-8.260481,55.096147],[-8.2603,55.09612],[-8.26022,55.096092],[-8.260072,55.095996],[-8.25999,55.09595],[-8.259787,55.095935],[-8.259522,55.095844],[-8.259478,55.095829],[-8.259401,55.095793],[-8.259397,55.095759],[-8.259341,55.095716],[-8.259281,55.095667],[-8.259238,55.09564],[-8.25917,55.095556],[-8.25913,55.095538],[-8.259107,55.095529],[-8.259087,55.09552],[-8.259031,55.095514],[-8.258984,55.095507],[-8.258956,55.095498],[-8.258932,55.095478],[-8.258909,55.095462],[-8.258908,55.095433],[-8.258833,55.095401],[-8.258734,55.095368],[-8.258628,55.095371],[-8.258537,55.09534],[-8.258473,55.095329],[-8.258442,55.095315],[-8.258378,55.095284],[-8.258327,55.09525],[-8.258303,55.095214],[-8.258188,55.095183],[-8.258073,55.095158],[-8.257994,55.095134],[-8.257926,55.09503],[-8.257915,55.095005],[-8.257874,55.094908],[-8.257816,55.094848],[-8.257782,55.094813],[-8.25771,55.094727],[-8.25769,55.094716],[-8.257641,55.094689],[-8.2575,55.094613],[-8.257425,55.094568],[-8.257338,55.094568],[-8.257196,55.094569],[-8.257056,55.094567],[-8.25705,55.094567],[-8.256955,55.094547],[-8.256844,55.094519],[-8.256729,55.09449],[-8.256635,55.094479],[-8.256461,55.094471],[-8.256354,55.094453],[-8.256239,55.094417],[-8.256176,55.094386],[-8.256136,55.094368],[-8.256049,55.094348],[-8.255974,55.094315],[-8.255899,55.094279],[-8.255828,55.094261],[-8.255744,55.094232],[-8.255725,55.094225],[-8.255539,55.09416],[-8.255479,55.094136],[-8.255463,55.09409],[-8.255427,55.094032],[-8.255352,55.094018],[-8.255312,55.093996],[-8.255312,55.093971],[-8.255312,55.093935],[-8.255284,55.093883],[-8.255268,55.093856],[-8.255228,55.093847],[-8.255177,55.093827],[-8.255125,55.093818],[-8.255054,55.093818],[-8.255015,55.093823],[-8.254971,55.093821],[-8.25494,55.093808],[-8.254928,55.093794],[-8.254876,55.093776],[-8.254837,55.093756],[-8.254828,55.093736],[-8.254794,55.093672],[-8.254772,55.093627],[-8.25472,55.093539],[-8.254605,55.093433],[-8.254596,55.093394],[-8.254596,55.093356],[-8.254596,55.093308],[-8.254596,55.093301],[-8.25459,55.093165],[-8.254535,55.093109],[-8.254456,55.093094],[-8.2544,55.093074],[-8.254297,55.093058],[-8.254218,55.093025],[-8.254163,55.092991],[-8.254154,55.092948],[-8.254126,55.09288],[-8.254102,55.092832],[-8.25403,55.092756],[-8.25401,55.092695],[-8.253998,55.09262],[-8.25399,55.092602],[-8.253954,55.092568],[-8.253938,55.09253],[-8.253937,55.092477],[-8.253885,55.09241],[-8.253837,55.092367],[-8.253663,55.092313],[-8.253572,55.092296],[-8.253485,55.09221],[-8.253418,55.092185],[-8.253354,55.092172],[-8.253283,55.092141],[-8.253101,55.09204],[-8.252993,55.09197],[-8.25293,55.091929],[-8.252898,55.091868],[-8.252898,55.091845],[-8.252729,55.091751],[-8.252674,55.09172],[-8.252466,55.091674],[-8.25231,55.091665],[-8.252122,55.091662],[-8.251977,55.091689],[-8.251906,55.091699],[-8.251787,55.091672],[-8.251657,55.091632],[-8.251601,55.091601],[-8.251555,55.091578],[-8.251494,55.091547],[-8.251388,55.091541],[-8.251334,55.091522],[-8.251255,55.091506],[-8.251145,55.091485],[-8.251099,55.091443],[-8.25107,55.091412],[-8.250978,55.091412],[-8.2509,55.091391],[-8.250803,55.091364],[-8.250659,55.091344],[-8.250537,55.091294],[-8.250439,55.091225],[-8.250319,55.091134],[-8.250247,55.091113],[-8.250129,55.091113],[-8.250034,55.091083],[-8.249844,55.091088],[-8.249691,55.091078],[-8.249547,55.091082],[-8.249441,55.0911],[-8.24933,55.091073],[-8.249267,55.091032],[-8.249214,55.090982],[-8.249059,55.090946],[-8.24894,55.090899],[-8.24884,55.090827],[-8.248701,55.090773],[-8.248586,55.090732],[-8.248392,55.09071],[-8.24821,55.090691],[-8.247988,55.090647],[-8.247869,55.090619],[-8.247807,55.090552],[-8.247725,55.090502],[-8.247626,55.090435],[-8.247605,55.090342],[-8.247612,55.090274],[-8.247618,55.090211],[-8.247611,55.090119],[-8.247591,55.090054],[-8.247524,55.089916],[-8.247436,55.089786],[-8.247141,55.089592],[-8.247098,55.089431],[-8.246986,55.089337],[-8.246942,55.08932],[-8.246847,55.089286],[-8.246697,55.089246],[-8.246565,55.089174],[-8.246553,55.089045],[-8.246511,55.089013],[-8.246394,55.088896],[-8.246265,55.088777],[-8.246224,55.088673],[-8.246115,55.088584],[-8.246015,55.088533],[-8.245863,55.088483],[-8.245718,55.088423],[-8.245544,55.088383],[-8.245512,55.088371],[-8.245484,55.088361],[-8.245377,55.088323],[-8.24523,55.088268],[-8.245065,55.08826],[-8.244886,55.088238],[-8.244662,55.088226],[-8.244483,55.088213],[-8.24423,55.08819],[-8.244096,55.088171],[-8.243975,55.088128],[-8.243746,55.088013],[-8.243197,55.087744],[-8.242768,55.087531],[-8.242698,55.087497],[-8.242384,55.087347],[-8.242,55.087178],[-8.241788,55.087091],[-8.241498,55.086958],[-8.241149,55.086824],[-8.240957,55.086752],[-8.240665,55.086627],[-8.240297,55.086487],[-8.239916,55.086342],[-8.239334,55.086107],[-8.238823,55.085909],[-8.238452,55.085751],[-8.238248,55.085683],[-8.237952,55.085573],[-8.237665,55.085481],[-8.237227,55.085361],[-8.236988,55.085303],[-8.236695,55.085221],[-8.23654,55.085189],[-8.236346,55.085127],[-8.236349,55.085622],[-8.235879,55.085623],[-8.235882,55.086162],[-8.235413,55.086163],[-8.235409,55.085624],[-8.235405,55.084859],[-8.235223,55.084806],[-8.234934,55.084724],[-8.234824,55.084693],[-8.234369,55.084571],[-8.234196,55.084524],[-8.233879,55.084437],[-8.23344,55.084341],[-8.233041,55.084234],[-8.232621,55.084115],[-8.232589,55.084107],[-8.232188,55.084006],[-8.232132,55.083994]],[[-8.234473,55.086165],[-8.235413,55.086163],[-8.235414,55.086432],[-8.234944,55.086433],[-8.234946,55.086703],[-8.234476,55.086704],[-8.234478,55.086973],[-8.234479,55.087243],[-8.234009,55.087244],[-8.234011,55.087513],[-8.233541,55.087514],[-8.233539,55.087244],[-8.233538,55.086975],[-8.234008,55.086974],[-8.234006,55.086705],[-8.234004,55.086435],[-8.234474,55.086434],[-8.234473,55.086165]]],[[[-8.229304,55.086174],[-8.229774,55.086173],[-8.229772,55.085904],[-8.229303,55.085905],[-8.229304,55.086174]]]]}}]}
