{"type":"FeatureCollection","features":[{"type":"Feature","properties":{"source_fid":1561745,"county":"Mayo","bog_geom_ha":561.09332863754037,"low15_pct":100.0,"low15_ha":561.09332863754037,"overlay_ha":561.09332863754037,"area_delta":0.0},"geometry":{"type":"MultiPolygon","coordinates":[[[[-9.420473,54.228439],[-9.420673,54.228194],[-9.420708,54.22815],[-9.420838,54.227991],[-9.421017,54.227769],[-9.421043,54.227738],[-9.421121,54.227644],[-9.421244,54.227496],[-9.421453,54.227242],[-9.421608,54.227054],[-9.421712,54.226928],[-9.42177,54.226893],[-9.421914,54.226808],[-9.422179,54.22675],[-9.422292,54.226726],[-9.42274,54.226646],[-9.423319,54.226543],[-9.423704,54.226474],[-9.424573,54.22632],[-9.425041,54.226237],[-9.42573,54.226114],[-9.426961,54.225874],[-9.428253,54.225623],[-9.428712,54.225533],[-9.430154,54.22536],[-9.430198,54.225355],[-9.43026,54.225347],[-9.431607,54.225186],[-9.433896,54.224894],[-9.434475,54.224815],[-9.435208,54.224715],[-9.435937,54.224631],[-9.437867,54.224412],[-9.438068,54.224385],[-9.438123,54.224377],[-9.43818,54.224369],[-9.439112,54.224242],[-9.440139,54.224103],[-9.440668,54.224041],[-9.442111,54.223875],[-9.443206,54.223339],[-9.443255,54.223315],[-9.44329,54.223298],[-9.443725,54.223085],[-9.443999,54.222951],[-9.444206,54.22285],[-9.444866,54.222529],[-9.445695,54.222126],[-9.44583,54.222046],[-9.445837,54.222042],[-9.446301,54.221767],[-9.446451,54.221719],[-9.446507,54.221694],[-9.446729,54.221638],[-9.446936,54.221516],[-9.447095,54.221501],[-9.447184,54.221487],[-9.447475,54.221327],[-9.447695,54.221182],[-9.447971,54.220873],[-9.448194,54.220641],[-9.448152,54.220462],[-9.448185,54.220342],[-9.448299,54.220235],[-9.448491,54.220004],[-9.448594,54.219743],[-9.448874,54.219554],[-9.448904,54.219416],[-9.448954,54.219226],[-9.44897,54.219163],[-9.449157,54.219008],[-9.449334,54.218846],[-9.449398,54.218613],[-9.449399,54.218599],[-9.449298,54.218444],[-9.449307,54.218248],[-9.449195,54.218206],[-9.44919,54.21818],[-9.44924,54.218052],[-9.449301,54.217851],[-9.449341,54.217723],[-9.449355,54.217681],[-9.449415,54.217577],[-9.449468,54.217447],[-9.449646,54.21724],[-9.449648,54.217238],[-9.449669,54.217157],[-9.449717,54.216789],[-9.449756,54.216644],[-9.449766,54.216558],[-9.4498,54.216479],[-9.449831,54.216361],[-9.449897,54.216247],[-9.449925,54.216179],[-9.450082,54.215858],[-9.450449,54.215017],[-9.450961,54.213869],[-9.451122,54.213608],[-9.45113,54.213591],[-9.45047,54.213108],[-9.449878,54.212641],[-9.44946,54.21231],[-9.448978,54.211918],[-9.448526,54.211549],[-9.448393,54.210876],[-9.447829,54.21024],[-9.447786,54.210194],[-9.447148,54.209508],[-9.447148,54.209508],[-9.446408,54.208683],[-9.446049,54.208271],[-9.445606,54.207761],[-9.444783,54.206867],[-9.444502,54.207],[-9.443885,54.207294],[-9.442714,54.207871],[-9.441647,54.208412],[-9.439169,54.209384],[-9.437304,54.209951],[-9.436246,54.210202],[-9.435622,54.210327],[-9.435552,54.210341],[-9.434998,54.210452],[-9.433002,54.210855],[-9.430864,54.211279],[-9.430641,54.211321],[-9.428341,54.211755],[-9.427922,54.211817],[-9.426939,54.21196],[-9.425852,54.212134],[-9.425633,54.212815],[-9.425529,54.213146],[-9.42533,54.213743],[-9.425111,54.214156],[-9.424798,54.214774],[-9.424781,54.214808],[-9.424762,54.214863],[-9.424457,54.215281],[-9.423706,54.215517],[-9.422875,54.21576],[-9.421996,54.215995],[-9.421138,54.21629],[-9.420381,54.216627],[-9.419383,54.217073],[-9.417911,54.217625],[-9.416997,54.217915],[-9.415927,54.218112],[-9.415105,54.218263],[-9.414241,54.218384],[-9.414009,54.218417],[-9.413424,54.218444],[-9.41272,54.218475],[-9.411809,54.218554],[-9.4111,54.218625],[-9.409978,54.218673],[-9.409971,54.218677],[-9.40932,54.218755],[-9.409042,54.218945],[-9.408964,54.218994],[-9.408823,54.219056],[-9.408533,54.219372],[-9.408209,54.219537],[-9.407973,54.219552],[-9.407792,54.219565],[-9.407741,54.219583],[-9.407699,54.219621],[-9.407656,54.219716],[-9.407351,54.220158],[-9.407384,54.220266],[-9.407346,54.220323],[-9.407305,54.220355],[-9.407224,54.220381],[-9.407159,54.220385],[-9.407064,54.220398],[-9.406942,54.220459],[-9.406855,54.220511],[-9.406697,54.220567],[-9.406644,54.220597],[-9.406568,54.220613],[-9.406488,54.220608],[-9.406441,54.220629],[-9.406381,54.220703],[-9.406306,54.220711],[-9.406253,54.220707],[-9.406154,54.2207],[-9.40609,54.220722],[-9.405979,54.220782],[-9.405892,54.220802],[-9.405856,54.220752],[-9.405753,54.220679],[-9.405675,54.220677],[-9.405576,54.220681],[-9.405515,54.22072],[-9.405517,54.22075],[-9.405439,54.220786],[-9.405377,54.220788],[-9.405268,54.220731],[-9.405259,54.22072],[-9.40523,54.220717],[-9.405052,54.220705],[-9.405001,54.220699],[-9.404888,54.220699],[-9.404735,54.220758],[-9.404601,54.220785],[-9.404427,54.220794],[-9.404337,54.220781],[-9.404218,54.220761],[-9.404047,54.220764],[-9.403932,54.220772],[-9.403851,54.220776],[-9.403778,54.220792],[-9.403692,54.220846],[-9.403595,54.220895],[-9.403447,54.220937],[-9.403333,54.22096],[-9.403196,54.22096],[-9.403092,54.22096],[-9.402968,54.220984],[-9.40281,54.22098],[-9.402689,54.220963],[-9.402526,54.220908],[-9.402469,54.220897],[-9.402455,54.220957],[-9.40245,54.221007],[-9.402394,54.220999],[-9.402319,54.220959],[-9.402274,54.220935],[-9.402253,54.220936],[-9.402227,54.220942],[-9.402209,54.220963],[-9.402205,54.220993],[-9.402199,54.221013],[-9.402181,54.22103],[-9.402142,54.221044],[-9.402028,54.221067],[-9.401882,54.221096],[-9.401676,54.221204],[-9.401577,54.221203],[-9.401517,54.221207],[-9.401213,54.221225],[-9.400925,54.22123],[-9.400811,54.221232],[-9.400748,54.22126],[-9.400716,54.221274],[-9.400694,54.221262],[-9.400373,54.221401],[-9.400141,54.221479],[-9.399903,54.221583],[-9.399721,54.221663],[-9.399191,54.221873],[-9.398522,54.222131],[-9.397959,54.222389],[-9.3976,54.222517],[-9.397286,54.222639],[-9.39716,54.22268],[-9.397034,54.222734],[-9.396703,54.222857],[-9.395972,54.223131],[-9.395318,54.223426],[-9.394583,54.223718],[-9.394541,54.223735],[-9.3943,54.223831],[-9.393715,54.224065],[-9.392963,54.224351],[-9.392098,54.224688],[-9.391575,54.224889],[-9.391379,54.224964],[-9.391111,54.225065],[-9.390732,54.225208],[-9.390411,54.225329],[-9.390318,54.225367],[-9.389887,54.225539],[-9.389478,54.225703],[-9.38922,54.225806],[-9.388945,54.22592],[-9.388513,54.226099],[-9.388384,54.226153],[-9.388154,54.226254],[-9.387867,54.226381],[-9.387764,54.226418],[-9.386622,54.226824],[-9.385857,54.227142],[-9.384993,54.227477],[-9.384663,54.227604],[-9.384231,54.227774],[-9.38424,54.227797],[-9.383744,54.227987],[-9.38323,54.228204],[-9.382714,54.228401],[-9.382483,54.228491],[-9.382385,54.228529],[-9.382401,54.228993],[-9.382431,54.229891],[-9.383964,54.229873],[-9.383994,54.230772],[-9.385527,54.230754],[-9.385559,54.231727],[-9.385622,54.231755],[-9.385694,54.231785],[-9.386071,54.231958],[-9.386567,54.232161],[-9.386592,54.232171],[-9.386614,54.23218],[-9.386729,54.232235],[-9.38712,54.232413],[-9.38749,54.232586],[-9.387639,54.232689],[-9.387878,54.232856],[-9.388037,54.233006],[-9.388105,54.23306],[-9.388192,54.233183],[-9.388244,54.233251],[-9.388392,54.233446],[-9.388459,54.233837],[-9.388517,54.234207],[-9.388575,54.234561],[-9.388603,54.234757],[-9.388589,54.2349],[-9.388526,54.234981],[-9.388493,54.235025],[-9.388467,54.23511],[-9.388482,54.235187],[-9.388557,54.235366],[-9.388541,54.235474],[-9.38845,54.235636],[-9.388405,54.235722],[-9.3882,54.23591],[-9.38821,54.235942],[-9.388167,54.236012],[-9.388152,54.236071],[-9.388152,54.236102],[-9.388152,54.23612],[-9.388152,54.236271],[-9.388504,54.236361],[-9.3888,54.236498],[-9.388917,54.23663],[-9.388977,54.236729],[-9.389071,54.236876],[-9.389106,54.237004],[-9.389412,54.23692],[-9.389546,54.236906],[-9.389593,54.236918],[-9.389792,54.236881],[-9.389872,54.236867],[-9.389985,54.236852],[-9.390144,54.236835],[-9.390254,54.236801],[-9.390341,54.236771],[-9.39065,54.236553],[-9.390918,54.236342],[-9.391118,54.236154],[-9.391141,54.236133],[-9.391224,54.236027],[-9.391422,54.235823],[-9.391524,54.235692],[-9.391618,54.23553],[-9.391822,54.23535],[-9.391918,54.235262],[-9.39224,54.234941],[-9.39233,54.234854],[-9.392668,54.234457],[-9.393134,54.233915],[-9.393403,54.233605],[-9.393681,54.233355],[-9.393756,54.233263],[-9.39381,54.23307],[-9.393901,54.232872],[-9.394091,54.232688],[-9.394234,54.232546],[-9.394322,54.232382],[-9.394532,54.232103],[-9.394787,54.231816],[-9.394915,54.23164],[-9.394932,54.231525],[-9.394943,54.231478],[-9.39502,54.231417],[-9.395149,54.231308],[-9.39526,54.231221],[-9.395337,54.231103],[-9.3954,54.230994],[-9.395549,54.230835],[-9.395641,54.230761],[-9.395991,54.230835],[-9.396119,54.230849],[-9.396415,54.230841],[-9.396561,54.230874],[-9.396844,54.230953],[-9.397096,54.230999],[-9.397305,54.230986],[-9.397476,54.231007],[-9.397667,54.231064],[-9.397706,54.230982],[-9.397749,54.230968],[-9.398021,54.230938],[-9.398237,54.230914],[-9.398294,54.230907],[-9.398558,54.230879],[-9.398897,54.230836],[-9.39902,54.23085],[-9.399147,54.230863],[-9.399226,54.230857],[-9.399524,54.230834],[-9.399652,54.230824],[-9.399967,54.230793],[-9.400132,54.230784],[-9.400231,54.230778],[-9.400468,54.230761],[-9.400679,54.230746],[-9.400746,54.230741],[-9.400909,54.230724],[-9.401163,54.230698],[-9.401275,54.230687],[-9.40162,54.230657],[-9.402008,54.230624],[-9.402276,54.230596],[-9.402741,54.230549],[-9.402959,54.230527],[-9.403122,54.23051],[-9.403536,54.230458],[-9.403558,54.230455],[-9.403786,54.23043],[-9.40386,54.230421],[-9.404083,54.230385],[-9.404115,54.230379],[-9.404357,54.230344],[-9.404524,54.230347],[-9.404731,54.230354],[-9.40519,54.230401],[-9.405279,54.230413],[-9.405282,54.230413],[-9.405343,54.230441],[-9.4057,54.23049],[-9.406395,54.230604],[-9.40649,54.230619],[-9.407181,54.230818],[-9.407395,54.23088],[-9.407985,54.231019],[-9.408652,54.231176],[-9.408678,54.231182],[-9.408985,54.231248],[-9.409448,54.231346],[-9.40989,54.23144],[-9.410315,54.231531],[-9.410501,54.231572],[-9.410881,54.231656],[-9.411302,54.231749],[-9.411549,54.231803],[-9.411819,54.231854],[-9.412347,54.231952],[-9.412871,54.23205],[-9.41335,54.232139],[-9.413648,54.232194],[-9.413903,54.232247],[-9.414445,54.23236],[-9.414992,54.232473],[-9.41532,54.232541],[-9.415674,54.232608],[-9.416442,54.232754],[-9.416659,54.232795],[-9.416786,54.232757],[-9.416955,54.232576],[-9.417277,54.232232],[-9.417299,54.232208],[-9.417567,54.231885],[-9.417829,54.231568],[-9.41807,54.231276],[-9.418235,54.231076],[-9.418286,54.231019],[-9.418538,54.230732],[-9.418794,54.230442],[-9.419035,54.230168],[-9.419062,54.230137],[-9.41926,54.229916],[-9.419506,54.229639],[-9.419554,54.229586],[-9.419722,54.229375],[-9.419931,54.229114],[-9.4201,54.228902],[-9.42025,54.228713],[-9.420289,54.228666],[-9.420382,54.228551],[-9.420473,54.228439]]]]}}]}
