{"type":"FeatureCollection","features":[{"type":"Feature","properties":{"source_fid":1562060,"county":"Mayo","bog_geom_ha":153.93612143451318,"low15_pct":76.198830409356717,"low15_ha":117.29752411062613,"overlay_ha":117.32129027654319,"area_delta":0.023766165917066928},"geometry":{"type":"MultiPolygon","coordinates":[[[[-9.985539,54.255781],[-9.985564,54.255745],[-9.98557,54.255735],[-9.985349,54.255739],[-9.98534,54.255565],[-9.98526,54.255494],[-9.985237,54.255471],[-9.984875,54.255477],[-9.984863,54.255208],[-9.984977,54.255206],[-9.984954,54.255182],[-9.984816,54.255015],[-9.984756,54.25494],[-9.984389,54.254946],[-9.984364,54.254422],[-9.98432,54.254378],[-9.984203,54.254246],[-9.984029,54.253997],[-9.983935,54.253822],[-9.983891,54.253703],[-9.983877,54.253609],[-9.983871,54.253561],[-9.983863,54.253387],[-9.983872,54.253294],[-9.983886,54.253184],[-9.983907,54.253055],[-9.98394,54.252934],[-9.983971,54.252862],[-9.984006,54.252792],[-9.98404,54.252709],[-9.984098,54.252582],[-9.984128,54.25251],[-9.984146,54.252408],[-9.984136,54.252341],[-9.984133,54.252227],[-9.984114,54.252098],[-9.984105,54.252048],[-9.9841,54.252018],[-9.984079,54.251834],[-9.984056,54.251595],[-9.984079,54.25155],[-9.984084,54.251545],[-9.98407,54.251512],[-9.983816,54.251566],[-9.983209,54.251696],[-9.983185,54.251656],[-9.982859,54.251728],[-9.982784,54.251744],[-9.982152,54.251871],[-9.981532,54.252009],[-9.981045,54.252118],[-9.98074,54.25218],[-9.980727,54.252183],[-9.980555,54.252206],[-9.980539,54.252208],[-9.980363,54.252217],[-9.980302,54.252214],[-9.980412,54.252695],[-9.980408,54.252696],[-9.980501,54.252689],[-9.980528,54.252925],[-9.980634,54.253093],[-9.980199,54.253136],[-9.979944,54.253171],[-9.979864,54.253176],[-9.9798,54.253168],[-9.979573,54.253076],[-9.979453,54.253073],[-9.97937,54.253068],[-9.979406,54.252942],[-9.979526,54.25276],[-9.979198,54.252702],[-9.978823,54.252615],[-9.978968,54.252489],[-9.979031,54.252432],[-9.979084,54.252385],[-9.979199,54.252298],[-9.979367,54.252159],[-9.979422,54.252107],[-9.979301,54.25209],[-9.978132,54.251926],[-9.978253,54.252214],[-9.978113,54.25232],[-9.978005,54.252385],[-9.977901,54.252458],[-9.977726,54.252554],[-9.977676,54.252581],[-9.977524,54.252626],[-9.977311,54.252577],[-9.977204,54.252446],[-9.977149,54.252378],[-9.977053,54.252258],[-9.976963,54.252131],[-9.976954,54.252118],[-9.976832,54.251945],[-9.976849,54.251923],[-9.977103,54.251854],[-9.977222,54.251806],[-9.976803,54.251752],[-9.976421,54.251707],[-9.976336,54.251696],[-9.97625,54.251685],[-9.976051,54.25166],[-9.975838,54.251626],[-9.975598,54.2516],[-9.975305,54.251577],[-9.974992,54.251571],[-9.97467,54.251571],[-9.974407,54.251573],[-9.974334,54.251578],[-9.973968,54.2516],[-9.973839,54.251614],[-9.9741,54.25161],[-9.974113,54.251879],[-9.974125,54.252149],[-9.973665,54.252156],[-9.973678,54.252425],[-9.973691,54.252695],[-9.973231,54.252702],[-9.973244,54.252972],[-9.972784,54.252979],[-9.972797,54.253249],[-9.971876,54.253264],[-9.971889,54.253533],[-9.971429,54.253541],[-9.971442,54.25381],[-9.971455,54.25408],[-9.970535,54.254095],[-9.970548,54.254364],[-9.968247,54.254402],[-9.96826,54.254671],[-9.9678,54.254679],[-9.967813,54.254948],[-9.967352,54.254955],[-9.967365,54.255225],[-9.966905,54.255232],[-9.966931,54.255771],[-9.966036,54.255786],[-9.966044,54.255826],[-9.966089,54.25606],[-9.966123,54.256232],[-9.96614,54.256309],[-9.966157,54.256397],[-9.966169,54.256493],[-9.966182,54.256603],[-9.966214,54.256712],[-9.966246,54.256843],[-9.966279,54.256968],[-9.966302,54.257099],[-9.966361,54.257298],[-9.966459,54.25745],[-9.966565,54.257606],[-9.966641,54.257722],[-9.966672,54.257784],[-9.96677,54.257953],[-9.966857,54.258076],[-9.966972,54.258203],[-9.96702,54.258287],[-9.967092,54.258367],[-9.967129,54.25846],[-9.967206,54.258589],[-9.967313,54.258736],[-9.967569,54.258972],[-9.96767,54.259043],[-9.967708,54.259075],[-9.967795,54.259232],[-9.967836,54.259323],[-9.967898,54.259549],[-9.967952,54.25965],[-9.967993,54.259747],[-9.968045,54.259858],[-9.968142,54.260026],[-9.968219,54.260171],[-9.968239,54.260208],[-9.968322,54.260364],[-9.968638,54.260876],[-9.968764,54.261055],[-9.968851,54.261183],[-9.968958,54.261373],[-9.96905,54.261538],[-9.969177,54.261723],[-9.969269,54.261893],[-9.969412,54.262132],[-9.969519,54.262345],[-9.969546,54.2624],[-9.96965,54.262627],[-9.96984,54.263],[-9.969912,54.263131],[-9.969989,54.26327],[-9.970108,54.263541],[-9.970145,54.26364],[-9.970156,54.263692],[-9.970236,54.263873],[-9.970273,54.263969],[-9.97031,54.264086],[-9.970314,54.264229],[-9.970371,54.264454],[-9.970421,54.264469],[-9.970804,54.264585],[-9.971345,54.264712],[-9.971742,54.264791],[-9.97188,54.264813],[-9.97209,54.264831],[-9.972334,54.264846],[-9.972765,54.264877],[-9.972892,54.264884],[-9.972864,54.264302],[-9.972825,54.263494],[-9.972812,54.263224],[-9.973273,54.263217],[-9.97326,54.262947],[-9.973247,54.262678],[-9.973707,54.26267],[-9.973694,54.262401],[-9.973681,54.262132],[-9.973669,54.261862],[-9.973208,54.26187],[-9.973195,54.2616],[-9.973656,54.261593],[-9.973643,54.261323],[-9.974103,54.261316],[-9.97409,54.261046],[-9.97501,54.261031],[-9.974998,54.260762],[-9.975458,54.260754],[-9.975432,54.260216],[-9.976352,54.260201],[-9.976378,54.260739],[-9.976391,54.261009],[-9.976404,54.261278],[-9.976864,54.261271],[-9.976877,54.26154],[-9.97689,54.261809],[-9.97735,54.261802],[-9.977337,54.261533],[-9.977797,54.261525],[-9.977784,54.261256],[-9.978245,54.261248],[-9.978232,54.260979],[-9.978193,54.26017],[-9.978653,54.260163],[-9.978614,54.259355],[-9.978154,54.259362],[-9.978141,54.259093],[-9.977681,54.2591],[-9.977668,54.258831],[-9.977208,54.258838],[-9.977195,54.258569],[-9.976735,54.258577],[-9.976709,54.258038],[-9.976249,54.258045],[-9.976236,54.257776],[-9.975776,54.257783],[-9.975763,54.257514],[-9.975303,54.257522],[-9.97529,54.257252],[-9.97483,54.25726],[-9.974817,54.25699],[-9.974357,54.256998],[-9.974331,54.256459],[-9.973871,54.256467],[-9.973846,54.255928],[-9.973833,54.255658],[-9.973807,54.25512],[-9.973781,54.254581],[-9.974701,54.254566],[-9.974689,54.254296],[-9.974676,54.254027],[-9.975136,54.254019],[-9.975149,54.254289],[-9.975609,54.254281],[-9.975622,54.254551],[-9.976082,54.254543],[-9.976107,54.255082],[-9.976568,54.255074],[-9.976593,54.255613],[-9.978434,54.255583],[-9.978447,54.255852],[-9.978907,54.255845],[-9.978933,54.256384],[-9.979393,54.256376],[-9.979419,54.256915],[-9.979879,54.256907],[-9.979892,54.257177],[-9.979905,54.257446],[-9.979917,54.257715],[-9.97993,54.257985],[-9.980391,54.257977],[-9.980416,54.258516],[-9.980877,54.258509],[-9.980889,54.258778],[-9.980902,54.259047],[-9.981362,54.25904],[-9.981375,54.259309],[-9.981414,54.260117],[-9.981453,54.260926],[-9.980993,54.260933],[-9.981006,54.261203],[-9.981019,54.261472],[-9.979638,54.261495],[-9.979651,54.261764],[-9.979191,54.261772],[-9.979204,54.262041],[-9.978744,54.262049],[-9.978756,54.262318],[-9.977376,54.262341],[-9.977389,54.26261],[-9.977402,54.26288],[-9.976941,54.262887],[-9.976954,54.263156],[-9.975574,54.263179],[-9.975587,54.263449],[-9.974206,54.263471],[-9.974245,54.264279],[-9.973784,54.264287],[-9.973814,54.264912],[-9.973967,54.264917],[-9.974367,54.26492],[-9.974782,54.264924],[-9.975192,54.264909],[-9.975524,54.264901],[-9.975919,54.264889],[-9.976368,54.264885],[-9.976925,54.264897],[-9.977261,54.264879],[-9.977609,54.264902],[-9.977672,54.264907],[-9.977703,54.264893],[-9.977901,54.2648],[-9.977984,54.264757],[-9.978096,54.264732],[-9.978124,54.264726],[-9.978362,54.264672],[-9.978372,54.26467],[-9.978509,54.264618],[-9.97859,54.264597],[-9.978638,54.264585],[-9.978682,54.264574],[-9.978739,54.264541],[-9.978956,54.264465],[-9.979126,54.264444],[-9.979264,54.264423],[-9.979299,54.264417],[-9.979501,54.264383],[-9.979765,54.264278],[-9.97981,54.26426],[-9.980028,54.264223],[-9.980196,54.26415],[-9.980229,54.264136],[-9.980342,54.26409],[-9.980411,54.264039],[-9.980469,54.26403],[-9.980572,54.264015],[-9.980634,54.263991],[-9.981004,54.263809],[-9.981101,54.263743],[-9.98124,54.263647],[-9.981489,54.263487],[-9.981541,54.263452],[-9.981655,54.263318],[-9.981661,54.263311],[-9.981886,54.262997],[-9.981916,54.262932],[-9.982022,54.262706],[-9.981971,54.262659],[-9.981964,54.262596],[-9.98201,54.262522],[-9.982132,54.262431],[-9.982166,54.262291],[-9.982253,54.262111],[-9.982376,54.261928],[-9.982525,54.261641],[-9.982584,54.261562],[-9.982618,54.261517],[-9.982746,54.261344],[-9.983042,54.261003],[-9.983071,54.260967],[-9.98311,54.260918],[-9.983558,54.260356],[-9.983571,54.260287],[-9.983586,54.260206],[-9.983595,54.260159],[-9.983702,54.259828],[-9.983704,54.259752],[-9.983771,54.259635],[-9.983829,54.259531],[-9.98387,54.259427],[-9.984066,54.258995],[-9.984139,54.258838],[-9.984242,54.258619],[-9.984371,54.258223],[-9.984429,54.258042],[-9.984432,54.258037],[-9.984588,54.25769],[-9.984833,54.257261],[-9.984964,54.257034],[-9.985003,54.256956],[-9.985064,54.256837],[-9.985253,54.25641],[-9.98537,54.256153],[-9.985501,54.255839],[-9.985539,54.255781]],[[-9.980937,54.253546],[-9.981199,54.253935],[-9.981277,54.254284],[-9.981283,54.25431],[-9.980595,54.254294],[-9.980098,54.254282],[-9.979927,54.253971],[-9.979783,54.253692],[-9.979602,54.253502],[-9.979843,54.253386],[-9.980135,54.253269],[-9.980198,54.253244],[-9.98031,54.253211],[-9.980448,54.253189],[-9.980694,54.253179],[-9.980937,54.253546]],[[-9.977635,54.252732],[-9.977624,54.252692],[-9.977667,54.252655],[-9.97781,54.252592],[-9.977967,54.252549],[-9.977981,54.252554],[-9.978149,54.252615],[-9.97829,54.252707],[-9.978034,54.252839],[-9.977934,54.252848],[-9.977872,54.252867],[-9.977808,54.252854],[-9.977691,54.252826],[-9.977656,54.252775],[-9.977635,54.252732]],[[-9.975123,54.25375],[-9.974663,54.253757],[-9.97465,54.253488],[-9.97511,54.253481],[-9.975123,54.25375]]],[[[-9.965976,54.255089],[-9.965997,54.255247],[-9.966445,54.25524],[-9.966432,54.25497],[-9.966419,54.254701],[-9.96688,54.254694],[-9.966867,54.254424],[-9.966854,54.254155],[-9.967314,54.254147],[-9.967301,54.253878],[-9.967761,54.25387],[-9.967748,54.253601],[-9.967736,54.253332],[-9.966815,54.253347],[-9.966803,54.253077],[-9.96679,54.252808],[-9.96725,54.2528],[-9.967237,54.252531],[-9.967697,54.252523],[-9.967684,54.252254],[-9.973205,54.252164],[-9.973192,54.251894],[-9.973652,54.251887],[-9.973641,54.251642],[-9.973434,54.251679],[-9.973188,54.251723],[-9.973015,54.25174],[-9.972862,54.25174],[-9.972763,54.25174],[-9.972608,54.251739],[-9.97238,54.251717],[-9.972157,54.251683],[-9.971873,54.25164],[-9.971596,54.251581],[-9.971345,54.251523],[-9.970917,54.25139],[-9.97067,54.251311],[-9.970519,54.251262],[-9.970196,54.251135],[-9.970002,54.251063],[-9.969787,54.250978],[-9.969587,54.250902],[-9.969342,54.250782],[-9.969189,54.250704],[-9.969008,54.250578],[-9.968956,54.250541],[-9.968881,54.250574],[-9.968464,54.250743],[-9.968163,54.250824],[-9.967973,54.250867],[-9.96706,54.251036],[-9.966778,54.251089],[-9.96668,54.250988],[-9.966625,54.250948],[-9.96659,54.250913],[-9.966563,54.250886],[-9.966527,54.25085],[-9.966455,54.250784],[-9.966335,54.250671],[-9.966273,54.250624],[-9.965861,54.250686],[-9.964924,54.250943],[-9.963679,54.251387],[-9.963709,54.251425],[-9.963874,54.251633],[-9.963885,54.251676],[-9.964046,54.251821],[-9.964241,54.251971],[-9.964632,54.252218],[-9.964675,54.252233],[-9.964861,54.252298],[-9.96496,54.252366],[-9.965015,54.252403],[-9.965129,54.252616],[-9.965173,54.252663],[-9.965188,54.252698],[-9.965287,54.252918],[-9.965365,54.253103],[-9.965467,54.253274],[-9.965564,54.253464],[-9.965663,54.253689],[-9.965806,54.253929],[-9.965897,54.254102],[-9.965974,54.25423],[-9.965975,54.254288],[-9.965974,54.25441],[-9.965963,54.254556],[-9.965959,54.254779],[-9.965958,54.254931],[-9.965976,54.255089]]],[[[-9.976903,54.262079],[-9.97689,54.261809],[-9.97643,54.261817],[-9.976443,54.262086],[-9.975982,54.262094],[-9.975995,54.262363],[-9.975535,54.262371],[-9.975548,54.26264],[-9.976468,54.262625],[-9.976455,54.262356],[-9.976916,54.262348],[-9.976903,54.262079]]]]}}]}
