{"type":"FeatureCollection","features":[{"type":"Feature","properties":{"source_fid":1590813,"county":"Kildare","bog_geom_ha":128.80440874289238,"low15_pct":99.438596491228068,"low15_ha":128.08129627275684,"overlay_ha":128.02707856636135,"area_delta":-0.05421770639549095},"geometry":{"type":"MultiPolygon","coordinates":[[[[-6.837749,53.306553],[-6.838924,53.306555],[-6.839736,53.306558],[-6.839754,53.305883],[-6.841254,53.305898],[-6.841236,53.306557],[-6.842271,53.306556],[-6.843101,53.30656],[-6.844101,53.306569],[-6.845297,53.306565],[-6.846283,53.306571],[-6.847227,53.30657],[-6.84797,53.30657],[-6.848221,53.306569],[-6.849046,53.306565],[-6.850171,53.306561],[-6.8517,53.306567],[-6.854191,53.306577],[-6.855227,53.306585],[-6.856734,53.30659],[-6.857939,53.306596],[-6.859437,53.306592],[-6.860658,53.306589],[-6.860819,53.306588],[-6.86066,53.306519],[-6.860631,53.306507],[-6.860462,53.306433],[-6.860411,53.306407],[-6.860342,53.306371],[-6.860035,53.306217],[-6.85983,53.306114],[-6.859754,53.306075],[-6.859692,53.306044],[-6.859679,53.306037],[-6.859254,53.305837],[-6.858406,53.305439],[-6.856915,53.304716],[-6.855692,53.304128],[-6.854776,53.303686],[-6.851567,53.302122],[-6.850241,53.30147],[-6.849604,53.301157],[-6.849558,53.301134],[-6.849521,53.301116],[-6.847886,53.300346],[-6.846536,53.299701],[-6.844519,53.298758],[-6.843461,53.298248],[-6.843146,53.298102],[-6.843116,53.298039],[-6.840879,53.297556],[-6.840259,53.29755],[-6.840263,53.297423],[-6.839572,53.297274],[-6.838467,53.297263],[-6.838473,53.297038],[-6.838253,53.296991],[-6.836675,53.296976],[-6.836682,53.296706],[-6.834882,53.296689],[-6.83489,53.296419],[-6.834012,53.296411],[-6.833976,53.29774],[-6.832476,53.297725],[-6.832354,53.302217],[-6.833853,53.302231],[-6.833804,53.304028],[-6.832305,53.304013],[-6.832256,53.30581],[-6.830756,53.305795],[-6.830742,53.306316],[-6.832201,53.306559],[-6.833162,53.306562],[-6.83429,53.306558],[-6.835439,53.306558],[-6.836698,53.306562],[-6.837749,53.306553]]],[[[-6.834021,53.29609],[-6.834019,53.296141],[-6.834277,53.296144],[-6.834021,53.29609]]]]}}]}
