{"type":"FeatureCollection","features":[{"type":"Feature","properties":{"source_fid":1590624,"county":"Offaly","bog_geom_ha":256.81632978581484,"low15_pct":100.0,"low15_ha":256.81632978581484,"overlay_ha":256.81632186717985,"area_delta":-0.0000079186349921656074},"geometry":{"type":"MultiPolygon","coordinates":[[[[-7.016028,53.321618],[-7.016068,53.321594],[-7.01653,53.321313],[-7.016563,53.321293],[-7.016578,53.321284],[-7.016682,53.321217],[-7.017018,53.321002],[-7.017093,53.320954],[-7.017432,53.320731],[-7.017527,53.320677],[-7.017801,53.320521],[-7.017913,53.320474],[-7.018157,53.320328],[-7.017078,53.31966],[-7.016366,53.319212],[-7.016366,53.319212],[-7.016366,53.319212],[-7.016966,53.318881],[-7.017057,53.31883],[-7.017568,53.318543],[-7.018061,53.318267],[-7.018423,53.318001],[-7.018626,53.317863],[-7.01885,53.317712],[-7.0183,53.317368],[-7.018197,53.317279],[-7.018021,53.317133],[-7.017869,53.31701],[-7.017595,53.316789],[-7.017352,53.316582],[-7.017595,53.316433],[-7.017958,53.316227],[-7.017966,53.316222],[-7.018136,53.316117],[-7.018767,53.315883],[-7.018765,53.315864],[-7.018732,53.31585],[-7.018214,53.315734],[-7.017372,53.315548],[-7.01659,53.315359],[-7.016053,53.315165],[-7.015958,53.315165],[-7.015554,53.315107],[-7.015308,53.315156],[-7.015143,53.315176],[-7.014788,53.315295],[-7.014417,53.31539],[-7.014054,53.315461],[-7.014017,53.315496],[-7.01385,53.315585],[-7.013577,53.315663],[-7.013144,53.315626],[-7.012859,53.315528],[-7.012747,53.315465],[-7.012477,53.315248],[-7.012528,53.315127],[-7.012546,53.315043],[-7.01256,53.314956],[-7.012427,53.314891],[-7.011805,53.314581],[-7.011278,53.314328],[-7.011031,53.314207],[-7.010719,53.314053],[-7.010608,53.313996],[-7.010455,53.313918],[-7.010127,53.313764],[-7.009782,53.313605],[-7.009585,53.313556],[-7.009431,53.3135],[-7.009302,53.313374],[-7.009021,53.313177],[-7.00894,53.313044],[-7.008807,53.312947],[-7.008599,53.312888],[-7.008368,53.312856],[-7.008329,53.312833],[-7.008173,53.312736],[-7.007845,53.31262],[-7.00752,53.312571],[-7.007046,53.312525],[-7.007005,53.312539],[-7.00677,53.312625],[-7.006627,53.312622],[-7.006618,53.312621],[-7.006489,53.312581],[-7.006437,53.312552],[-7.00633,53.312564],[-7.006234,53.312619],[-7.006091,53.312625],[-7.006054,53.312606],[-7.005969,53.312563],[-7.005963,53.312546],[-7.005953,53.312515],[-7.005953,53.312515],[-7.005953,53.312515],[-7.005784,53.31256],[-7.005572,53.312617],[-7.005502,53.312635],[-7.005502,53.312635],[-7.005436,53.31265],[-7.00541,53.312655],[-7.004574,53.312786],[-7.004206,53.31279],[-7.004024,53.312742],[-7.003741,53.312693],[-7.003518,53.312747],[-7.003279,53.312794],[-7.002711,53.312813],[-7.00253,53.312785],[-7.002402,53.312767],[-7.002381,53.312767],[-7.002005,53.312789],[-7.00194,53.312798],[-7.001505,53.312897],[-7.001322,53.312975],[-7.001141,53.313052],[-7.000546,53.313319],[-7.000264,53.313467],[-7.000118,53.3135],[-6.999935,53.313495],[-6.999542,53.313452],[-6.999287,53.313439],[-6.999069,53.313411],[-6.999003,53.313404],[-6.998894,53.313416],[-6.998565,53.313452],[-6.998074,53.313507],[-6.997547,53.313572],[-6.996955,53.313533],[-6.996671,53.313498],[-6.9966,53.313489],[-6.996441,53.313578],[-6.996165,53.313706],[-6.996171,53.313732],[-6.996074,53.313767],[-6.995818,53.313831],[-6.995395,53.31393],[-6.994914,53.314027],[-6.994759,53.314113],[-6.994514,53.314219],[-6.994398,53.314245],[-6.994204,53.314272],[-6.994107,53.314242],[-6.994014,53.314172],[-6.993817,53.314063],[-6.993496,53.313887],[-6.993267,53.313731],[-6.992841,53.313487],[-6.992613,53.313357],[-6.992478,53.313246],[-6.992226,53.313027],[-6.992153,53.31302],[-6.992114,53.313002],[-6.992126,53.312986],[-6.99213,53.312958],[-6.99199,53.312853],[-6.991909,53.312842],[-6.991688,53.312918],[-6.991626,53.312927],[-6.991541,53.312911],[-6.991304,53.312818],[-6.991159,53.312754],[-6.99113,53.312741],[-6.990881,53.312713],[-6.990464,53.312647],[-6.990331,53.312626],[-6.9899,53.312558],[-6.989795,53.312562],[-6.98956,53.312587],[-6.989447,53.312607],[-6.98943,53.312513],[-6.989341,53.312513],[-6.989097,53.312518],[-6.988919,53.31257],[-6.988817,53.312601],[-6.988393,53.312682],[-6.987983,53.312758],[-6.987987,53.312809],[-6.987979,53.31286],[-6.987974,53.31291],[-6.987925,53.312997],[-6.987812,53.313185],[-6.987633,53.313312],[-6.987416,53.313419],[-6.987158,53.313472],[-6.986878,53.313502],[-6.986567,53.313491],[-6.986251,53.313422],[-6.986027,53.313325],[-6.985837,53.313191],[-6.985714,53.313036],[-6.985656,53.312852],[-6.985686,53.312692],[-6.985751,53.312532],[-6.985885,53.312394],[-6.986088,53.312274],[-6.98635,53.312177],[-6.98663,53.312134],[-6.98697,53.312135],[-6.987229,53.312177],[-6.987498,53.312254],[-6.987667,53.312344],[-6.98786,53.312516],[-6.987924,53.312626],[-6.988888,53.312458],[-6.989425,53.312361],[-6.989225,53.311907],[-6.989225,53.311907],[-6.989225,53.311907],[-6.990655,53.311628],[-6.991926,53.311448],[-6.992755,53.311347],[-6.993242,53.311342],[-6.99365,53.311322],[-6.993657,53.311295],[-6.993654,53.311228],[-6.993634,53.311196],[-6.993931,53.311148],[-6.994145,53.311108],[-6.994151,53.31088],[-6.995161,53.310888],[-6.995036,53.310628],[-6.99507,53.31063],[-6.995062,53.310617],[-6.995058,53.310602],[-6.995117,53.310598],[-6.995177,53.310602],[-6.995257,53.310609],[-6.995293,53.31061],[-6.995407,53.310616],[-6.995442,53.310613],[-6.995541,53.310621],[-6.995593,53.310625],[-6.995694,53.31063],[-6.995771,53.31063],[-6.995819,53.310632],[-6.995868,53.310635],[-6.995878,53.310652],[-6.99595,53.310788],[-6.996009,53.310895],[-6.996244,53.310897],[-6.996267,53.310891],[-6.996602,53.310802],[-6.997017,53.310766],[-6.997868,53.310713],[-6.998191,53.310695],[-6.998591,53.31066],[-6.998847,53.310635],[-6.999166,53.310589],[-6.999318,53.310511],[-6.999649,53.310454],[-6.999784,53.31043],[-6.999801,53.31043],[-6.999993,53.310428],[-7.000405,53.31038],[-7.000527,53.310432],[-7.000641,53.310429],[-7.000931,53.310421],[-7.000953,53.310376],[-7.000953,53.310376],[-7.000953,53.310376],[-7.001095,53.310365],[-7.001173,53.310384],[-7.001247,53.310385],[-7.001413,53.310384],[-7.0018,53.310339],[-7.00182,53.310398],[-7.002096,53.31035],[-7.002871,53.310267],[-7.003127,53.310191],[-7.003693,53.310064],[-7.003736,53.310045],[-7.003779,53.31001],[-7.003773,53.30993],[-7.003773,53.30993],[-7.003773,53.30993],[-7.00405,53.309874],[-7.00405,53.309874],[-7.004185,53.309847],[-7.004261,53.309831],[-7.004385,53.309825],[-7.004477,53.309933],[-7.004648,53.309901],[-7.004699,53.309895],[-7.004825,53.309879],[-7.005517,53.309669],[-7.00649,53.309379],[-7.00649,53.309379],[-7.007351,53.309121],[-7.007351,53.309121],[-7.007536,53.309],[-7.007538,53.308999],[-7.007538,53.308999],[-7.006599,53.30887],[-7.005129,53.308673],[-7.004408,53.308577],[-7.003357,53.308754],[-7.002162,53.308953],[-7.000958,53.309149],[-6.999733,53.309348],[-6.998486,53.30955],[-6.997194,53.309748],[-6.995996,53.309953],[-6.994721,53.310172],[-6.991878,53.310646],[-6.988582,53.31118],[-6.986446,53.311522],[-6.984912,53.311794],[-6.98245,53.312203],[-6.979767,53.312644],[-6.979091,53.312756],[-6.979142,53.312928],[-6.979163,53.312993],[-6.979205,53.313127],[-6.97923,53.313193],[-6.979292,53.313286],[-6.979368,53.31336],[-6.979756,53.313692],[-6.979776,53.313706],[-6.97995,53.313828],[-6.980025,53.313881],[-6.98049,53.31417],[-6.980603,53.314249],[-6.980603,53.314249],[-6.981155,53.314639],[-6.981847,53.315127],[-6.982908,53.315883],[-6.982971,53.315928],[-6.983039,53.315977],[-6.983628,53.316409],[-6.984532,53.317073],[-6.98618,53.318239],[-6.98738,53.319116],[-6.989098,53.320361],[-6.989338,53.320533],[-6.989606,53.320724],[-6.99018,53.321131],[-6.990489,53.321354],[-6.991199,53.321564],[-6.991824,53.321739],[-6.992173,53.321837],[-6.992396,53.3219],[-6.993017,53.322072],[-6.993563,53.32221],[-6.99379,53.322277],[-6.994066,53.322359],[-6.994924,53.322609],[-6.995844,53.322862],[-6.996044,53.322919],[-6.996207,53.322966],[-6.996631,53.323084],[-6.997078,53.323208],[-6.997188,53.323239],[-6.997441,53.32331],[-6.99778,53.323405],[-6.997953,53.323453],[-6.998367,53.323572],[-6.998522,53.323616],[-6.99868,53.32366],[-6.999169,53.323798],[-7.000073,53.324058],[-7.000591,53.324189],[-7.000824,53.324256],[-7.001325,53.3244],[-7.001945,53.324573],[-7.002133,53.324624],[-7.002582,53.324746],[-7.0032,53.324914],[-7.003594,53.325016],[-7.003681,53.325039],[-7.004542,53.325284],[-7.004795,53.32535],[-7.004933,53.325386],[-7.005736,53.32561],[-7.005803,53.325629],[-7.005933,53.325667],[-7.006101,53.325494],[-7.006442,53.325142],[-7.006623,53.325149],[-7.007069,53.325167],[-7.008105,53.325192],[-7.008105,53.325192],[-7.008105,53.325192],[-7.008067,53.325458],[-7.008052,53.325569],[-7.008242,53.325592],[-7.008442,53.325617],[-7.008927,53.325676],[-7.008929,53.325856],[-7.008926,53.325922],[-7.008925,53.325939],[-7.008971,53.325944],[-7.008971,53.325944],[-7.009104,53.32596],[-7.009428,53.326005],[-7.009431,53.326027],[-7.0094,53.326429],[-7.009383,53.326577],[-7.009379,53.326607],[-7.0095,53.326644],[-7.009523,53.326022],[-7.010275,53.326106],[-7.010381,53.326117],[-7.010973,53.326191],[-7.011952,53.326304],[-7.011953,53.326304],[-7.011965,53.326102],[-7.011967,53.326056],[-7.011967,53.326056],[-7.011967,53.326056],[-7.011977,53.325779],[-7.011984,53.325594],[-7.012011,53.325076],[-7.010327,53.324987],[-7.009926,53.324982],[-7.009934,53.324493],[-7.010342,53.324511],[-7.012033,53.324604],[-7.012033,53.324604],[-7.012048,53.324297],[-7.012076,53.323679],[-7.012086,53.323504],[-7.012095,53.32335],[-7.012095,53.32335],[-7.012095,53.32335],[-7.012213,53.323292],[-7.012219,53.323281],[-7.012282,53.323162],[-7.012316,53.323083],[-7.012359,53.322984],[-7.012456,53.322741],[-7.012732,53.322726],[-7.012927,53.322707],[-7.013043,53.322695],[-7.013328,53.322657],[-7.013629,53.322595],[-7.013785,53.322563],[-7.013897,53.322533],[-7.014008,53.322502],[-7.014287,53.322404],[-7.014655,53.322257],[-7.015075,53.322089],[-7.015151,53.322059],[-7.015306,53.321998],[-7.015332,53.321988],[-7.015353,53.32198],[-7.015379,53.32197],[-7.015718,53.321795],[-7.015914,53.321683],[-7.015921,53.321679],[-7.015933,53.321672],[-7.015949,53.321663],[-7.016028,53.321618]]]]}}]}
