{"type":"FeatureCollection","features":[{"type":"Feature","properties":{"source_fid":1593727,"county":"Westmeath","bog_geom_ha":119.0437251933849,"low15_pct":100.0,"low15_ha":119.0437251933849,"overlay_ha":118.95396503011678,"area_delta":-0.089760163268124415},"geometry":{"type":"MultiPolygon","coordinates":[[[[-7.381569,53.747258],[-7.381719,53.747269],[-7.381758,53.747275],[-7.381794,53.747281],[-7.382401,53.747378],[-7.382413,53.746593],[-7.383928,53.746601],[-7.383924,53.746905],[-7.384303,53.746679],[-7.384688,53.746454],[-7.385022,53.746257],[-7.385155,53.746162],[-7.385237,53.746107],[-7.385318,53.746052],[-7.385419,53.745969],[-7.385607,53.745816],[-7.385741,53.745692],[-7.385899,53.745509],[-7.385916,53.745405],[-7.385884,53.74528],[-7.385819,53.745155],[-7.385719,53.744962],[-7.385634,53.744554],[-7.385538,53.744181],[-7.38544,53.743914],[-7.383968,53.743906],[-7.383981,53.742977],[-7.38352,53.743009],[-7.38289,53.743039],[-7.382689,53.743051],[-7.382431,53.743067],[-7.382415,53.743068],[-7.382413,53.743201],[-7.380683,53.743192],[-7.379963,53.743242],[-7.379921,53.743247],[-7.379883,53.743251],[-7.37658,53.740506],[-7.3742,53.738529],[-7.373204,53.738016],[-7.373172,53.738],[-7.373172,53.738],[-7.372583,53.737601],[-7.371594,53.7371],[-7.37096,53.736779],[-7.369618,53.736415],[-7.369596,53.736409],[-7.368563,53.736122],[-7.367953,53.735754],[-7.367536,53.735506],[-7.367322,53.735378],[-7.366359,53.73483],[-7.365917,53.734827],[-7.365903,53.735726],[-7.364388,53.735718],[-7.364375,53.736616],[-7.363603,53.736612],[-7.363009,53.737053],[-7.362302,53.737603],[-7.362012,53.737829],[-7.361943,53.737899],[-7.360901,53.73895],[-7.360546,53.739207],[-7.360368,53.739336],[-7.359969,53.739476],[-7.359551,53.739559],[-7.35929,53.739606],[-7.358077,53.739812],[-7.358145,53.739871],[-7.358427,53.74011],[-7.358696,53.740364],[-7.358965,53.740595],[-7.359142,53.74074],[-7.359261,53.74084],[-7.35947,53.741014],[-7.359568,53.741081],[-7.359999,53.74124],[-7.360349,53.741368],[-7.36074,53.741488],[-7.36118,53.741647],[-7.361618,53.741812],[-7.361904,53.74192],[-7.362184,53.742027],[-7.36239,53.742108],[-7.362396,53.742133],[-7.362392,53.742147],[-7.362384,53.742165],[-7.362299,53.742334],[-7.362294,53.742344],[-7.362431,53.742374],[-7.362468,53.742378],[-7.362505,53.742382],[-7.363091,53.742487],[-7.363349,53.742531],[-7.363526,53.742561],[-7.363696,53.742592],[-7.363975,53.742644],[-7.364363,53.742713],[-7.364405,53.742721],[-7.364438,53.742726],[-7.364783,53.742783],[-7.365178,53.742859],[-7.365534,53.742922],[-7.365793,53.742955],[-7.365958,53.742957],[-7.366128,53.74296],[-7.366184,53.74296],[-7.366298,53.74296],[-7.366678,53.742932],[-7.366865,53.742924],[-7.366929,53.742927],[-7.366971,53.742928],[-7.367058,53.74294],[-7.367264,53.743011],[-7.367356,53.743054],[-7.367361,53.743056],[-7.367382,53.743068],[-7.36743,53.743122],[-7.367587,53.743304],[-7.367707,53.743414],[-7.368122,53.74369],[-7.368201,53.74374],[-7.368347,53.743831],[-7.368364,53.743843],[-7.368387,53.74386],[-7.368451,53.743906],[-7.368464,53.743915],[-7.368479,53.743924],[-7.368574,53.743975],[-7.368684,53.744028],[-7.368778,53.744073],[-7.368803,53.744082],[-7.368903,53.744114],[-7.36892,53.744148],[-7.368916,53.744206],[-7.368913,53.744246],[-7.368927,53.744257],[-7.369013,53.744326],[-7.369366,53.7448],[-7.369941,53.745564],[-7.370042,53.745653],[-7.370296,53.746003],[-7.370301,53.745632],[-7.371817,53.74564],[-7.371788,53.747575],[-7.371938,53.747625],[-7.372239,53.747773],[-7.372448,53.747876],[-7.37246,53.747882],[-7.372797,53.747832],[-7.373133,53.74781],[-7.373532,53.747783],[-7.373636,53.747775],[-7.37467,53.747724],[-7.375117,53.747688],[-7.375412,53.747664],[-7.376539,53.747586],[-7.377955,53.747482],[-7.378714,53.747424],[-7.379439,53.747391],[-7.379439,53.747391],[-7.379439,53.747391],[-7.379536,53.747386],[-7.379591,53.747384],[-7.380074,53.747348],[-7.380872,53.74729],[-7.381239,53.747264],[-7.381447,53.74725],[-7.381569,53.747258]]],[[[-7.385648,53.743002],[-7.385728,53.742914],[-7.385728,53.742914],[-7.385601,53.74289],[-7.3856,53.742948],[-7.385497,53.742948],[-7.385494,53.743174],[-7.385548,53.743112],[-7.385648,53.743002]]]]}}]}
