{"type":"FeatureCollection","features":[{"type":"Feature","properties":{"source_fid":1611294,"county":"Offaly","bog_geom_ha":140.78216152051687,"low15_pct":100.0,"low15_ha":140.78216152051687,"overlay_ha":140.78216152051687,"area_delta":0.0},"geometry":{"type":"MultiPolygon","coordinates":[[[[-7.812384,53.192522],[-7.807818,53.193744],[-7.807814,53.194567],[-7.805821,53.194564],[-7.8057,53.194861],[-7.805733,53.194905],[-7.8055,53.195466],[-7.805491,53.19562],[-7.805574,53.195621],[-7.805615,53.195713],[-7.805477,53.196317],[-7.805867,53.19631],[-7.806258,53.196696],[-7.807086,53.197543],[-7.807734,53.198161],[-7.807798,53.198161],[-7.807798,53.198222],[-7.808146,53.198553],[-7.808945,53.199305],[-7.809127,53.199485],[-7.809321,53.199688],[-7.809453,53.199812],[-7.809805,53.200168],[-7.809904,53.200271],[-7.810147,53.200423],[-7.81049,53.200589],[-7.810784,53.200825],[-7.810862,53.2008],[-7.811097,53.200724],[-7.811147,53.200708],[-7.81122,53.200686],[-7.81151,53.200596],[-7.811655,53.200548],[-7.81179,53.200517],[-7.812008,53.200481],[-7.812016,53.200479],[-7.812016,53.200479],[-7.812016,53.200479],[-7.812202,53.200467],[-7.812649,53.200438],[-7.813292,53.200387],[-7.814146,53.20032],[-7.814403,53.200305],[-7.81442,53.200304],[-7.814429,53.200303],[-7.814477,53.200299],[-7.815095,53.200247],[-7.815315,53.200229],[-7.816906,53.200114],[-7.817995,53.200023],[-7.819866,53.199884],[-7.821177,53.199798],[-7.821265,53.199789],[-7.821303,53.199786],[-7.822803,53.199661],[-7.824277,53.199555],[-7.825835,53.199435],[-7.827369,53.199313],[-7.827675,53.199289],[-7.828871,53.199191],[-7.829269,53.199162],[-7.830337,53.199078],[-7.831892,53.198966],[-7.833437,53.198836],[-7.834911,53.198728],[-7.835401,53.198688],[-7.836441,53.198609],[-7.837967,53.198487],[-7.839351,53.19839],[-7.839916,53.198345],[-7.840921,53.198259],[-7.842012,53.198192],[-7.842087,53.198185],[-7.841213,53.196978],[-7.839637,53.19733],[-7.838584,53.195982],[-7.834194,53.197195],[-7.831733,53.197894],[-7.830588,53.196316],[-7.827356,53.197037],[-7.823992,53.19251],[-7.821154,53.193163],[-7.820329,53.192154],[-7.820139,53.191908],[-7.817747,53.188806],[-7.816331,53.189158],[-7.810892,53.190187],[-7.812384,53.192522]]]]}}]}
