{"type":"FeatureCollection","features":[{"type":"Feature","properties":{"source_fid":1646904,"county":"Galway","bog_geom_ha":139.10062052313498,"low15_pct":100.0,"low15_ha":139.10062052313498,"overlay_ha":139.10062052313498,"area_delta":0.0},"geometry":{"type":"MultiPolygon","coordinates":[[[[-8.048272,53.265696],[-8.048412,53.266393],[-8.048594,53.267238],[-8.048626,53.267392],[-8.049099,53.267403],[-8.049093,53.267436],[-8.049281,53.267717],[-8.049497,53.268067],[-8.04951,53.268221],[-8.050001,53.268352],[-8.05171,53.268801],[-8.053559,53.269293],[-8.056718,53.269122],[-8.060474,53.268894],[-8.062671,53.268747],[-8.062706,53.26843],[-8.062747,53.268199],[-8.062769,53.268006],[-8.062801,53.267863],[-8.062867,53.267477],[-8.06292,53.267126],[-8.062974,53.266761],[-8.063028,53.2664],[-8.0631,53.265903],[-8.063142,53.265626],[-8.063215,53.265201],[-8.063252,53.264899],[-8.063318,53.264457],[-8.063369,53.264081],[-8.063416,53.26378],[-8.063509,53.263314],[-8.063575,53.262908],[-8.063631,53.262534],[-8.063675,53.262228],[-8.063724,53.261899],[-8.063785,53.261475],[-8.063851,53.261047],[-8.063856,53.261017],[-8.063864,53.260967],[-8.055313,53.256408],[-8.050525,53.253842],[-8.05052,53.253843],[-8.050151,53.253902],[-8.049109,53.254075],[-8.048048,53.254241],[-8.046699,53.254445],[-8.045363,53.254653],[-8.04459,53.254765],[-8.044829,53.255164],[-8.045196,53.25568],[-8.045489,53.256102],[-8.04581,53.256561],[-8.046328,53.25733],[-8.04653,53.25761],[-8.04727,53.25761],[-8.047271,53.258317],[-8.048155,53.259406],[-8.04877,53.259406],[-8.048771,53.260269],[-8.049178,53.260847],[-8.048772,53.260878],[-8.048777,53.265696],[-8.048272,53.265696]]]]}}]}
