{"type":"FeatureCollection","features":[{"type":"Feature","properties":{"source_fid":1646712,"county":"Roscommon","bog_geom_ha":135.86264656034334,"low15_pct":100.0,"low15_ha":135.86264656034334,"overlay_ha":135.86264656034334,"area_delta":0.0},"geometry":{"type":"MultiPolygon","coordinates":[[[[-7.990212,53.361151],[-7.990212,53.361151],[-7.989959,53.360994],[-7.989851,53.360929],[-7.989771,53.360881],[-7.989526,53.360733],[-7.989148,53.360504],[-7.988778,53.36028],[-7.988396,53.360051],[-7.988099,53.359867],[-7.987979,53.359794],[-7.987976,53.359794],[-7.987916,53.359783],[-7.987891,53.359767],[-7.987659,53.359624],[-7.987555,53.359559],[-7.987339,53.359423],[-7.9867,53.359035],[-7.986576,53.358961],[-7.986522,53.358929],[-7.986435,53.358877],[-7.986037,53.358638],[-7.985839,53.358519],[-7.985788,53.358488],[-7.985457,53.358283],[-7.985274,53.358171],[-7.985195,53.358122],[-7.984966,53.357979],[-7.984806,53.357879],[-7.984486,53.357683],[-7.984171,53.357489],[-7.98407,53.357426],[-7.984065,53.357423],[-7.983975,53.357366],[-7.983919,53.35734],[-7.983909,53.357335],[-7.983719,53.357218],[-7.983527,53.357104],[-7.983287,53.356961],[-7.983208,53.356913],[-7.983145,53.356875],[-7.982895,53.356724],[-7.982631,53.356565],[-7.98226,53.356335],[-7.982203,53.3563],[-7.98219,53.356292],[-7.98217,53.35628],[-7.98213,53.356256],[-7.981975,53.356164],[-7.981594,53.355938],[-7.981539,53.355906],[-7.981258,53.355736],[-7.980974,53.355565],[-7.980941,53.355545],[-7.980875,53.355504],[-7.980468,53.355255],[-7.980215,53.3551],[-7.98009,53.355024],[-7.979889,53.3549],[-7.979261,53.354518],[-7.978872,53.354285],[-7.978627,53.354128],[-7.97818,53.353856],[-7.977868,53.353667],[-7.977792,53.353621],[-7.977356,53.35335],[-7.976777,53.352996],[-7.976265,53.352692],[-7.976215,53.352662],[-7.975825,53.352423],[-7.975324,53.352122],[-7.975095,53.351985],[-7.97458,53.351954],[-7.973361,53.351875],[-7.971549,53.351751],[-7.970707,53.351693],[-7.969312,53.351602],[-7.967685,53.35149],[-7.965997,53.351386],[-7.964258,53.351259],[-7.964258,53.351259],[-7.964276,53.351276],[-7.964304,53.351301],[-7.964684,53.351645],[-7.965258,53.352179],[-7.965671,53.352561],[-7.966113,53.352973],[-7.966827,53.353637],[-7.967378,53.354155],[-7.967763,53.354505],[-7.968143,53.354851],[-7.968607,53.355282],[-7.968823,53.355483],[-7.969404,53.356023],[-7.969595,53.356203],[-7.969815,53.35641],[-7.970299,53.356861],[-7.970416,53.356971],[-7.970664,53.357215],[-7.97113,53.357649],[-7.971349,53.357853],[-7.971445,53.357943],[-7.971514,53.358006],[-7.971705,53.358182],[-7.972224,53.358644],[-7.972356,53.358766],[-7.972356,53.358766],[-7.972552,53.358949],[-7.973195,53.359234],[-7.973195,53.359234],[-7.973416,53.359332],[-7.973875,53.359536],[-7.973965,53.359579],[-7.97397,53.359581],[-7.974023,53.359606],[-7.974233,53.359704],[-7.974728,53.359935],[-7.974992,53.360058],[-7.975063,53.36009],[-7.975832,53.360432],[-7.97593,53.360476],[-7.976016,53.360514],[-7.976539,53.36075],[-7.976886,53.360906],[-7.977323,53.361102],[-7.978096,53.361447],[-7.979187,53.361946],[-7.979416,53.36205],[-7.979711,53.362185],[-7.980797,53.362683],[-7.981587,53.363044],[-7.981664,53.36308],[-7.981689,53.363091],[-7.981923,53.363196],[-7.983464,53.363886],[-7.983737,53.364008],[-7.983901,53.364081],[-7.984182,53.364207],[-7.985709,53.36489],[-7.985931,53.36499],[-7.986391,53.365197],[-7.986924,53.365437],[-7.986928,53.365439],[-7.986939,53.365444],[-7.987149,53.365538],[-7.987398,53.365649],[-7.987597,53.365738],[-7.988096,53.365961],[-7.98846,53.366123],[-7.988477,53.366131],[-7.988544,53.36616],[-7.988851,53.366297],[-7.988851,53.366297],[-7.989155,53.366432],[-7.989184,53.366445],[-7.989196,53.36645],[-7.989212,53.366457],[-7.989625,53.366645],[-7.990029,53.366828],[-7.990378,53.366987],[-7.990564,53.367072],[-7.990843,53.367199],[-7.991039,53.367288],[-7.991154,53.36734],[-7.991221,53.36737],[-7.991459,53.367478],[-7.992842,53.368106],[-7.992856,53.368113],[-7.99286,53.368115],[-7.993192,53.368262],[-7.993712,53.368493],[-7.994632,53.368907],[-7.995205,53.369164],[-7.995205,53.369164],[-7.996315,53.369685],[-7.996315,53.369033],[-7.996402,53.369033],[-7.996215,53.36823],[-7.996086,53.367847],[-7.995994,53.367572],[-7.995864,53.367344],[-7.995828,53.367282],[-7.995781,53.367123],[-7.995778,53.367115],[-7.995704,53.366835],[-7.995689,53.366764],[-7.995689,53.366703],[-7.995689,53.366679],[-7.995689,53.366593],[-7.995662,53.366395],[-7.995631,53.366175],[-7.995602,53.366012],[-7.995584,53.365907],[-7.995557,53.365773],[-7.995519,53.365635],[-7.99549,53.365532],[-7.995467,53.365438],[-7.995438,53.365351],[-7.995396,53.365223],[-7.995387,53.365198],[-7.995382,53.365181],[-7.995343,53.36512],[-7.9953,53.365057],[-7.995213,53.364929],[-7.995117,53.364798],[-7.995112,53.364787],[-7.995109,53.364767],[-7.994958,53.364552],[-7.994818,53.364327],[-7.994755,53.364214],[-7.994754,53.364212],[-7.994723,53.364167],[-7.994649,53.364097],[-7.994623,53.364061],[-7.994501,53.363887],[-7.994402,53.363737],[-7.99436,53.363673],[-7.994244,53.363544],[-7.994221,53.363525],[-7.994209,53.363514],[-7.994177,53.363528],[-7.994161,53.363517],[-7.994099,53.363476],[-7.994002,53.363423],[-7.993904,53.363362],[-7.993768,53.363292],[-7.993749,53.363259],[-7.993553,53.363142],[-7.993344,53.363018],[-7.992904,53.362748],[-7.992537,53.36254],[-7.992245,53.362365],[-7.992197,53.362356],[-7.992158,53.362314],[-7.99183,53.362122],[-7.991433,53.361877],[-7.991223,53.361756],[-7.990956,53.361596],[-7.990836,53.361524],[-7.990598,53.361389],[-7.990212,53.361151]]]]}}]}
