{"type":"FeatureCollection","features":[{"type":"Feature","properties":{"source_fid":1654511,"county":"Roscommon","bog_geom_ha":104.15264878196443,"low15_pct":99.913941480206532,"low15_ha":104.06301655409699,"overlay_ha":104.08623592845798,"area_delta":0.023219374360991196},"geometry":{"type":"MultiPolygon","coordinates":[[[[-8.195647,53.37553],[-8.1968,53.375912],[-8.196643,53.37606],[-8.197652,53.376058],[-8.19766,53.377855],[-8.197765,53.377855],[-8.197922,53.37774],[-8.197991,53.377782],[-8.198058,53.377731],[-8.198148,53.377699],[-8.198253,53.37762],[-8.198266,53.377626],[-8.198281,53.377605],[-8.19834,53.377616],[-8.198525,53.377463],[-8.198514,53.377439],[-8.19857,53.377398],[-8.198843,53.377192],[-8.198985,53.377067],[-8.199038,53.376996],[-8.20045,53.37778],[-8.200574,53.37785],[-8.200666,53.37785],[-8.200666,53.377903],[-8.200942,53.37806],[-8.20203,53.378674],[-8.202158,53.378746],[-8.202172,53.378746],[-8.202173,53.378754],[-8.202933,53.379185],[-8.20352,53.379529],[-8.203907,53.379377],[-8.204372,53.379195],[-8.204584,53.378741],[-8.204741,53.378455],[-8.204829,53.378289],[-8.204885,53.378161],[-8.204931,53.378086],[-8.204995,53.378004],[-8.205296,53.377696],[-8.205584,53.377391],[-8.205873,53.377092],[-8.206089,53.376855],[-8.20639,53.376539],[-8.206967,53.375928],[-8.207916,53.37494],[-8.208562,53.374264],[-8.208597,53.374228],[-8.209193,53.373617],[-8.209806,53.372952],[-8.210629,53.372089],[-8.211222,53.371469],[-8.211405,53.371273],[-8.212031,53.370638],[-8.212717,53.369923],[-8.213046,53.369577],[-8.213433,53.369167],[-8.213164,53.369115],[-8.212352,53.368957],[-8.212228,53.36893],[-8.211321,53.369137],[-8.211197,53.368693],[-8.210611,53.36858],[-8.207658,53.368488],[-8.205124,53.368415],[-8.203383,53.368467],[-8.201113,53.368794],[-8.201111,53.368785],[-8.201108,53.368766],[-8.201105,53.368746],[-8.201101,53.368727],[-8.201097,53.368707],[-8.201093,53.368687],[-8.20109,53.368668],[-8.201086,53.368648],[-8.201082,53.368628],[-8.201078,53.368608],[-8.201074,53.368586],[-8.20107,53.368564],[-8.201065,53.368539],[-8.20106,53.368512],[-8.201054,53.368483],[-8.201047,53.368449],[-8.20104,53.368412],[-8.201032,53.36837],[-8.201022,53.368321],[-8.201011,53.368262],[-8.200997,53.368202],[-8.200978,53.368101],[-8.200969,53.368056],[-8.20012,53.367888],[-8.199881,53.367832],[-8.199518,53.367761],[-8.199238,53.367711],[-8.199239,53.367728],[-8.198337,53.367729],[-8.198336,53.367546],[-8.1982,53.36752],[-8.197782,53.367438],[-8.197584,53.3674],[-8.197481,53.367364],[-8.197187,53.367631],[-8.19685,53.367944],[-8.196543,53.368261],[-8.196505,53.368294],[-8.196528,53.36834],[-8.196496,53.36837],[-8.196345,53.368542],[-8.196274,53.368601],[-8.196162,53.368706],[-8.196496,53.368851],[-8.197032,53.369096],[-8.196736,53.369392],[-8.197333,53.369631],[-8.197481,53.369736],[-8.19787,53.369901],[-8.19688,53.371205],[-8.194921,53.370651],[-8.194391,53.370498],[-8.194345,53.370485],[-8.194199,53.370662],[-8.193992,53.370915],[-8.193842,53.371098],[-8.193648,53.371328],[-8.193343,53.371728],[-8.193292,53.37176],[-8.19304,53.372059],[-8.192809,53.372314],[-8.192606,53.372533],[-8.192526,53.372618],[-8.192402,53.37275],[-8.192438,53.372762],[-8.192093,53.373147],[-8.192061,53.373207],[-8.191912,53.373403],[-8.191752,53.373584],[-8.191606,53.373761],[-8.191434,53.373943],[-8.19128,53.374091],[-8.19149,53.374153],[-8.192047,53.37435],[-8.192713,53.37456],[-8.193863,53.374941],[-8.193989,53.374984],[-8.194613,53.375196],[-8.195647,53.37553]]]]}}]}
