{"type":"FeatureCollection","features":[{"type":"Feature","properties":{"source_fid":1665269,"county":"Mayo","bog_geom_ha":121.33537455402016,"low15_pct":100.0,"low15_ha":121.33537455402016,"overlay_ha":121.33537455402016,"area_delta":0.0},"geometry":{"type":"MultiPolygon","coordinates":[[[[-9.568537,54.128808],[-9.567217,54.12853],[-9.567294,54.130593],[-9.566652,54.130602],[-9.566668,54.130656],[-9.566668,54.130659],[-9.566681,54.130704],[-9.566721,54.130849],[-9.566798,54.131108],[-9.566799,54.131109],[-9.566818,54.131186],[-9.566823,54.131205],[-9.566884,54.131431],[-9.566928,54.131612],[-9.56695,54.131704],[-9.566992,54.131871],[-9.567043,54.132098],[-9.567085,54.132287],[-9.567144,54.132622],[-9.567181,54.132829],[-9.567225,54.133048],[-9.567262,54.13321],[-9.567298,54.133369],[-9.567326,54.133461],[-9.567343,54.133505],[-9.567369,54.133572],[-9.567468,54.133816],[-9.567543,54.134007],[-9.567582,54.134113],[-9.567626,54.134222],[-9.567639,54.134262],[-9.567658,54.134307],[-9.567735,54.134493],[-9.567826,54.134709],[-9.56792,54.134935],[-9.567984,54.135106],[-9.568036,54.135253],[-9.568036,54.135255],[-9.568078,54.135252],[-9.568995,54.135338],[-9.571048,54.135668],[-9.572494,54.135911],[-9.57257,54.135924],[-9.574651,54.136274],[-9.578656,54.136908],[-9.580416,54.137223],[-9.582578,54.13761],[-9.586576,54.138289],[-9.590757,54.139032],[-9.598529,54.140362],[-9.599545,54.139376],[-9.600496,54.138546],[-9.600784,54.138275],[-9.598678,54.13754],[-9.595677,54.136509],[-9.594186,54.136046],[-9.593662,54.135884],[-9.59299,54.135828],[-9.591888,54.135757],[-9.591407,54.13572],[-9.591233,54.135688],[-9.591198,54.135668],[-9.591079,54.135585],[-9.589573,54.134668],[-9.589387,54.134558],[-9.589272,54.134498],[-9.589209,54.134454],[-9.588532,54.133745],[-9.588405,54.133623],[-9.588323,54.133532],[-9.587782,54.13288],[-9.585857,54.132488],[-9.577366,54.130665],[-9.572852,54.129715],[-9.572762,54.129697],[-9.568537,54.128808]]]]}}]}
