{"type":"FeatureCollection","features":[{"type":"Feature","properties":{"source_fid":1665735,"county":"Mayo","bog_geom_ha":107.52531169284534,"low15_pct":99.916597164303596,"low15_ha":107.43563253380209,"overlay_ha":107.46949133059098,"area_delta":0.033858796788891254},"geometry":{"type":"MultiPolygon","coordinates":[[[[-9.803648,54.102808],[-9.803676,54.102792],[-9.803678,54.102781],[-9.803595,54.102788],[-9.803587,54.102728],[-9.803629,54.102687],[-9.80367,54.102661],[-9.803755,54.102622],[-9.803857,54.102578],[-9.803918,54.102549],[-9.803925,54.10254],[-9.803917,54.102522],[-9.803922,54.10246],[-9.803954,54.102294],[-9.803958,54.102255],[-9.803938,54.102208],[-9.803915,54.102179],[-9.803903,54.102105],[-9.803897,54.102052],[-9.803895,54.102031],[-9.803906,54.102008],[-9.803961,54.101972],[-9.804015,54.101932],[-9.804033,54.101906],[-9.804034,54.101877],[-9.804015,54.10186],[-9.803982,54.101848],[-9.803955,54.10184],[-9.803922,54.101829],[-9.803882,54.101793],[-9.803881,54.10176],[-9.803894,54.101736],[-9.803919,54.101719],[-9.80395,54.101709],[-9.803985,54.101695],[-9.803991,54.101694],[-9.803982,54.101684],[-9.803988,54.101641],[-9.804037,54.101608],[-9.804125,54.10158],[-9.804221,54.101558],[-9.804203,54.10155],[-9.80418,54.101524],[-9.804157,54.101498],[-9.804165,54.101468],[-9.804183,54.101444],[-9.804195,54.101434],[-9.804227,54.101422],[-9.804269,54.101409],[-9.804357,54.101399],[-9.804403,54.101387],[-9.80443,54.101371],[-9.804443,54.101343],[-9.804443,54.101341],[-9.80443,54.101307],[-9.80446,54.101267],[-9.804472,54.101221],[-9.804476,54.101112],[-9.804462,54.101005],[-9.804444,54.100878],[-9.804444,54.100873],[-9.804418,54.100837],[-9.804404,54.100816],[-9.804416,54.100801],[-9.804443,54.100787],[-9.804443,54.100762],[-9.804464,54.100654],[-9.804486,54.100585],[-9.804466,54.100569],[-9.804421,54.10053],[-9.804405,54.1005],[-9.804403,54.100426],[-9.804412,54.100364],[-9.804401,54.100349],[-9.804382,54.100337],[-9.804374,54.100338],[-9.804343,54.100337],[-9.804292,54.100334],[-9.804273,54.100331],[-9.804261,54.10031],[-9.804263,54.100259],[-9.804266,54.100247],[-9.804274,54.100219],[-9.80429,54.100193],[-9.804327,54.100161],[-9.804354,54.10014],[-9.804361,54.100089],[-9.804334,54.100046],[-9.804352,54.100007],[-9.804355,54.099986],[-9.804334,54.099953],[-9.804342,54.099929],[-9.804373,54.099889],[-9.804389,54.099852],[-9.804382,54.099825],[-9.804367,54.099786],[-9.804374,54.099777],[-9.804399,54.099771],[-9.804403,54.099771],[-9.804398,54.099738],[-9.804408,54.099716],[-9.804426,54.099689],[-9.804458,54.099673],[-9.804483,54.099665],[-9.804495,54.099661],[-9.804534,54.099656],[-9.8046,54.099647],[-9.804678,54.099633],[-9.804827,54.099597],[-9.804965,54.099547],[-9.805007,54.099523],[-9.805059,54.099477],[-9.805199,54.09943],[-9.805229,54.099417],[-9.805258,54.099421],[-9.805287,54.099438],[-9.805318,54.099455],[-9.805324,54.099481],[-9.805461,54.099499],[-9.805493,54.099506],[-9.805697,54.099473],[-9.805822,54.099453],[-9.80592,54.099389],[-9.805917,54.09937],[-9.805955,54.099335],[-9.805979,54.099324],[-9.806026,54.0993],[-9.806068,54.099271],[-9.806108,54.099254],[-9.806143,54.099229],[-9.806171,54.099194],[-9.806186,54.099165],[-9.80627,54.099121],[-9.806322,54.099108],[-9.806353,54.099105],[-9.806409,54.099101],[-9.806475,54.099095],[-9.806519,54.099089],[-9.806546,54.099085],[-9.806553,54.099081],[-9.806563,54.09907],[-9.806573,54.099053],[-9.806572,54.099029],[-9.806612,54.098978],[-9.80668,54.098906],[-9.806713,54.098871],[-9.806716,54.098849],[-9.806702,54.098838],[-9.806647,54.098816],[-9.806607,54.098783],[-9.806596,54.098767],[-9.806596,54.098758],[-9.806613,54.098751],[-9.806645,54.098739],[-9.806719,54.098711],[-9.806747,54.098676],[-9.806748,54.098642],[-9.806775,54.098629],[-9.806808,54.098638],[-9.806838,54.098646],[-9.806874,54.098642],[-9.806904,54.098612],[-9.806981,54.098606],[-9.80707,54.09863],[-9.807208,54.098623],[-9.807214,54.098625],[-9.807569,54.098526],[-9.807592,54.098484],[-9.807576,54.098468],[-9.807584,54.098457],[-9.807573,54.098438],[-9.807592,54.098396],[-9.807701,54.098333],[-9.807691,54.098302],[-9.8077,54.098261],[-9.807714,54.098214],[-9.807744,54.098189],[-9.807764,54.098178],[-9.807781,54.098171],[-9.8078,54.098168],[-9.807871,54.098166],[-9.807916,54.098131],[-9.808097,54.098047],[-9.808256,54.097941],[-9.808352,54.097826],[-9.808407,54.097784],[-9.808408,54.097783],[-9.808418,54.097769],[-9.808443,54.097752],[-9.808468,54.097738],[-9.808471,54.097737],[-9.808494,54.09772],[-9.8087,54.097653],[-9.808778,54.097604],[-9.808853,54.09741],[-9.808901,54.097252],[-9.80892,54.097119],[-9.808864,54.097045],[-9.808826,54.097024],[-9.808756,54.096993],[-9.808757,54.09697],[-9.808749,54.09694],[-9.808775,54.096902],[-9.808747,54.096886],[-9.808722,54.096874],[-9.808697,54.096859],[-9.808621,54.096852],[-9.808584,54.096846],[-9.808518,54.096883],[-9.808477,54.0969],[-9.808461,54.096896],[-9.808424,54.096897],[-9.808378,54.096889],[-9.808329,54.096881],[-9.808215,54.096873],[-9.808186,54.096844],[-9.808186,54.096833],[-9.808204,54.096814],[-9.808193,54.096784],[-9.808157,54.096771],[-9.808123,54.096774],[-9.808055,54.096778],[-9.808028,54.096765],[-9.808034,54.096745],[-9.808071,54.096724],[-9.808109,54.096689],[-9.808095,54.096669],[-9.808052,54.096646],[-9.807999,54.096619],[-9.807924,54.096556],[-9.807932,54.096543],[-9.80794,54.096525],[-9.807974,54.096505],[-9.808007,54.096473],[-9.80801,54.096446],[-9.807975,54.096427],[-9.807917,54.096423],[-9.807812,54.096438],[-9.807744,54.096425],[-9.807721,54.096402],[-9.807705,54.096364],[-9.807724,54.096322],[-9.807737,54.096295],[-9.807702,54.096237],[-9.807669,54.096216],[-9.807616,54.096198],[-9.807556,54.096199],[-9.807521,54.096207],[-9.807489,54.09622],[-9.807436,54.096233],[-9.807387,54.096227],[-9.807351,54.096214],[-9.807326,54.096184],[-9.807312,54.096156],[-9.807199,54.096138],[-9.807196,54.096139],[-9.807184,54.096152],[-9.807176,54.096168],[-9.807107,54.096192],[-9.807056,54.096196],[-9.807003,54.096184],[-9.806941,54.096152],[-9.80693,54.096127],[-9.806932,54.096104],[-9.806722,54.096078],[-9.806673,54.096127],[-9.806601,54.096156],[-9.806558,54.09615],[-9.806539,54.096138],[-9.806528,54.096108],[-9.806524,54.096071],[-9.80652,54.096054],[-9.80648,54.096049],[-9.806474,54.096044],[-9.806462,54.096051],[-9.806376,54.096071],[-9.806345,54.096066],[-9.806339,54.096033],[-9.806342,54.096021],[-9.806357,54.095992],[-9.806353,54.095969],[-9.806332,54.095962],[-9.806271,54.095951],[-9.806277,54.095929],[-9.806302,54.095917],[-9.806315,54.09591],[-9.806304,54.095876],[-9.806367,54.09577],[-9.80637,54.095744],[-9.806369,54.095714],[-9.806048,54.095679],[-9.806044,54.095668],[-9.806017,54.095664],[-9.805986,54.095648],[-9.805975,54.095618],[-9.805985,54.095593],[-9.806008,54.095557],[-9.806046,54.095525],[-9.806071,54.0955],[-9.806077,54.095477],[-9.806073,54.095448],[-9.806052,54.095415],[-9.806022,54.095388],[-9.805995,54.095368],[-9.805954,54.095346],[-9.805856,54.095312],[-9.805854,54.095309],[-9.805799,54.095298],[-9.805773,54.095282],[-9.805774,54.095265],[-9.805791,54.095247],[-9.805831,54.095224],[-9.805866,54.095189],[-9.805878,54.095137],[-9.8059,54.095075],[-9.805898,54.095064],[-9.805886,54.095019],[-9.805788,54.094993],[-9.805691,54.094976],[-9.80566,54.094957],[-9.805634,54.09495],[-9.805618,54.094934],[-9.805614,54.0949],[-9.805674,54.094863],[-9.805735,54.094834],[-9.805755,54.09481],[-9.805754,54.094795],[-9.805721,54.094697],[-9.805737,54.094682],[-9.80576,54.094677],[-9.80578,54.094661],[-9.805819,54.094655],[-9.805854,54.094655],[-9.805886,54.094648],[-9.805938,54.094588],[-9.80594,54.094585],[-9.805887,54.094575],[-9.805792,54.094528],[-9.805768,54.094508],[-9.805762,54.094494],[-9.805758,54.094492],[-9.805748,54.094458],[-9.805788,54.094417],[-9.805836,54.094358],[-9.805882,54.094268],[-9.805877,54.09425],[-9.8058,54.094214],[-9.805771,54.094203],[-9.805678,54.094179],[-9.805611,54.094161],[-9.80559,54.094139],[-9.805589,54.094132],[-9.805578,54.094106],[-9.805614,54.094079],[-9.80572,54.094001],[-9.805777,54.093968],[-9.805795,54.09393],[-9.805791,54.093928],[-9.805765,54.0939],[-9.805754,54.093882],[-9.805754,54.093865],[-9.805797,54.093821],[-9.805865,54.093816],[-9.805866,54.093816],[-9.805871,54.093809],[-9.805899,54.093789],[-9.805962,54.09379],[-9.806034,54.093794],[-9.806124,54.093748],[-9.806168,54.093706],[-9.806179,54.093671],[-9.806161,54.093644],[-9.806061,54.093607],[-9.806007,54.093593],[-9.805958,54.093565],[-9.805946,54.093534],[-9.805966,54.093498],[-9.805996,54.093466],[-9.806014,54.093436],[-9.806022,54.093412],[-9.806046,54.093384],[-9.806104,54.093358],[-9.806159,54.09335],[-9.806239,54.093347],[-9.806289,54.09334],[-9.806311,54.093333],[-9.806353,54.093318],[-9.806364,54.093297],[-9.806372,54.093266],[-9.806376,54.09323],[-9.806392,54.093211],[-9.80641,54.093195],[-9.806422,54.093168],[-9.806347,54.093096],[-9.806297,54.093094],[-9.806223,54.093122],[-9.80618,54.09311],[-9.806175,54.093088],[-9.806234,54.093046],[-9.806234,54.093042],[-9.806256,54.093029],[-9.806253,54.093009],[-9.806107,54.092967],[-9.806087,54.092947],[-9.806091,54.092898],[-9.806089,54.09286],[-9.806064,54.092844],[-9.805992,54.092845],[-9.805913,54.092855],[-9.805872,54.092824],[-9.805864,54.092776],[-9.805861,54.09272],[-9.805857,54.092674],[-9.805827,54.092558],[-9.805791,54.092548],[-9.805652,54.092585],[-9.805395,54.092597],[-9.805352,54.092581],[-9.805301,54.092515],[-9.805262,54.092437],[-9.805221,54.092402],[-9.805181,54.092402],[-9.80515,54.092408],[-9.805147,54.092413],[-9.805121,54.092433],[-9.805095,54.092446],[-9.805085,54.092447],[-9.805043,54.092474],[-9.804999,54.092465],[-9.804971,54.092442],[-9.80497,54.09243],[-9.804951,54.092422],[-9.804941,54.092399],[-9.804937,54.092373],[-9.804938,54.092336],[-9.804938,54.092331],[-9.80493,54.092318],[-9.804922,54.092283],[-9.804921,54.092271],[-9.804915,54.092259],[-9.804887,54.092237],[-9.80488,54.092212],[-9.804886,54.092183],[-9.804896,54.092165],[-9.804918,54.092142],[-9.804948,54.092122],[-9.80499,54.092104],[-9.805041,54.092088],[-9.805063,54.092075],[-9.805083,54.092054],[-9.8051,54.092031],[-9.805075,54.091993],[-9.805015,54.091956],[-9.804961,54.091925],[-9.804957,54.091892],[-9.804984,54.09187],[-9.805008,54.091859],[-9.80504,54.091857],[-9.805059,54.091858],[-9.805059,54.091857],[-9.805071,54.091843],[-9.805107,54.091831],[-9.805168,54.091819],[-9.805204,54.091793],[-9.80524,54.091777],[-9.8053,54.091696],[-9.805301,54.091614],[-9.805276,54.091542],[-9.805241,54.091501],[-9.804987,54.091398],[-9.804853,54.091282],[-9.804712,54.091134],[-9.804652,54.091057],[-9.8047,54.091041],[-9.804755,54.091026],[-9.804783,54.090992],[-9.804783,54.090954],[-9.804782,54.090916],[-9.804769,54.090852],[-9.804726,54.09077],[-9.804607,54.090635],[-9.804584,54.090558],[-9.80456,54.090513],[-9.804517,54.090492],[-9.804444,54.090481],[-9.804363,54.090474],[-9.804288,54.090473],[-9.804233,54.090463],[-9.804162,54.090424],[-9.804081,54.090402],[-9.804,54.090367],[-9.803971,54.090334],[-9.803961,54.090302],[-9.803934,54.090274],[-9.80392,54.090254],[-9.803904,54.090156],[-9.803896,54.090118],[-9.803869,54.090105],[-9.803815,54.090096],[-9.803732,54.090093],[-9.803691,54.090108],[-9.803649,54.090137],[-9.803597,54.09015],[-9.803536,54.090128],[-9.803475,54.090088],[-9.803391,54.090054],[-9.803284,54.090015],[-9.803188,54.089967],[-9.803154,54.089939],[-9.803121,54.089906],[-9.803114,54.089876],[-9.803135,54.089862],[-9.803163,54.08986],[-9.803218,54.089868],[-9.80328,54.089854],[-9.80331,54.089822],[-9.803348,54.089776],[-9.803378,54.089734],[-9.803384,54.089685],[-9.803355,54.089662],[-9.803302,54.089652],[-9.803225,54.089648],[-9.803199,54.089642],[-9.803175,54.089616],[-9.803158,54.089585],[-9.803131,54.08955],[-9.803089,54.089516],[-9.80303,54.089501],[-9.802943,54.0895],[-9.802862,54.089498],[-9.802781,54.089489],[-9.802748,54.089463],[-9.80271,54.089452],[-9.802598,54.089451],[-9.802558,54.08943],[-9.802527,54.089391],[-9.802488,54.089342],[-9.802421,54.08931],[-9.802338,54.089302],[-9.802216,54.089279],[-9.802133,54.089266],[-9.802101,54.089278],[-9.802055,54.089308],[-9.80201,54.089334],[-9.80195,54.089342],[-9.801909,54.089325],[-9.80188,54.089292],[-9.801856,54.089263],[-9.801797,54.089243],[-9.80173,54.089214],[-9.801709,54.089178],[-9.801709,54.089159],[-9.801691,54.089142],[-9.801608,54.089148],[-9.801531,54.08916],[-9.80141,54.089179],[-9.801275,54.089214],[-9.801184,54.089233],[-9.801123,54.089221],[-9.801084,54.089194],[-9.801013,54.089159],[-9.800912,54.089138],[-9.800828,54.089114],[-9.800782,54.089075],[-9.800725,54.089051],[-9.800655,54.089011],[-9.800609,54.088998],[-9.800502,54.089011],[-9.800403,54.089018],[-9.800348,54.089012],[-9.800317,54.088989],[-9.800317,54.088961],[-9.800329,54.088935],[-9.800333,54.088901],[-9.80032,54.088858],[-9.800308,54.088828],[-9.800261,54.088798],[-9.800216,54.088777],[-9.800099,54.08876],[-9.799965,54.088744],[-9.799923,54.08873],[-9.799868,54.088698],[-9.799824,54.088661],[-9.799781,54.088641],[-9.799746,54.088638],[-9.799743,54.088601],[-9.799683,54.088558],[-9.799607,54.088502],[-9.799527,54.088422],[-9.799482,54.088329],[-9.799408,54.088262],[-9.799286,54.088148],[-9.799282,54.088091],[-9.799361,54.08801],[-9.79943,54.087928],[-9.799449,54.087844],[-9.799407,54.087739],[-9.799275,54.087598],[-9.799184,54.087519],[-9.799185,54.087481],[-9.799249,54.087411],[-9.799271,54.087351],[-9.799231,54.087276],[-9.799102,54.087166],[-9.798909,54.087044],[-9.798773,54.086968],[-9.798684,54.086886],[-9.798503,54.086729],[-9.798363,54.086589],[-9.798272,54.086498],[-9.798232,54.086446],[-9.798275,54.086366],[-9.798268,54.086327],[-9.79822,54.086272],[-9.798191,54.086233],[-9.798188,54.086179],[-9.79821,54.086111],[-9.798203,54.086021],[-9.798193,54.085949],[-9.798139,54.085865],[-9.798006,54.0857],[-9.797925,54.085589],[-9.797449,54.085597],[-9.797443,54.085448],[-9.797347,54.085446],[-9.797249,54.085429],[-9.797186,54.085418],[-9.796985,54.08536],[-9.796965,54.085354],[-9.796875,54.085336],[-9.79681,54.085341],[-9.796765,54.085344],[-9.7967,54.085344],[-9.796601,54.085345],[-9.796295,54.085487],[-9.795568,54.085804],[-9.79502,54.086063],[-9.794211,54.086458],[-9.793566,54.086756],[-9.792986,54.087053],[-9.793147,54.08734],[-9.793274,54.087546],[-9.793406,54.087544],[-9.793417,54.087803],[-9.793526,54.088017],[-9.793625,54.088214],[-9.793668,54.088305],[-9.793711,54.088408],[-9.793747,54.088645],[-9.793712,54.088818],[-9.793703,54.088869],[-9.793606,54.088921],[-9.793527,54.088952],[-9.793451,54.088961],[-9.793323,54.088988],[-9.793233,54.089008],[-9.793176,54.089017],[-9.793112,54.089014],[-9.793051,54.08901],[-9.792904,54.089007],[-9.792839,54.089018],[-9.792792,54.089021],[-9.792734,54.089007],[-9.792631,54.088981],[-9.792576,54.088954],[-9.792531,54.088939],[-9.792496,54.088948],[-9.792474,54.08898],[-9.792465,54.089003],[-9.792437,54.089025],[-9.792361,54.08904],[-9.792279,54.089035],[-9.792202,54.089024],[-9.792125,54.089002],[-9.792066,54.088985],[-9.792019,54.088981],[-9.791985,54.088984],[-9.791918,54.088996],[-9.791861,54.089005],[-9.791686,54.08902],[-9.791592,54.089036],[-9.791544,54.089036],[-9.791496,54.089026],[-9.791432,54.089017],[-9.791374,54.089026],[-9.791309,54.089044],[-9.791246,54.089096],[-9.791234,54.089111],[-9.791205,54.089149],[-9.791168,54.08921],[-9.791143,54.089265],[-9.791104,54.089344],[-9.791057,54.089468],[-9.791027,54.089543],[-9.791015,54.089622],[-9.791023,54.089666],[-9.791005,54.089726],[-9.790974,54.08977],[-9.790947,54.089818],[-9.790934,54.08986],[-9.790935,54.089898],[-9.790907,54.089941],[-9.790859,54.089981],[-9.790826,54.090007],[-9.79081,54.090031],[-9.790799,54.090057],[-9.790794,54.090075],[-9.790782,54.090092],[-9.790758,54.090104],[-9.790724,54.090113],[-9.790692,54.09012],[-9.790661,54.090133],[-9.790649,54.090139],[-9.790637,54.090164],[-9.790646,54.090185],[-9.790662,54.090204],[-9.790675,54.090219],[-9.790684,54.090237],[-9.790686,54.090255],[-9.790677,54.09028],[-9.790653,54.090293],[-9.790628,54.090296],[-9.790607,54.090303],[-9.790597,54.090326],[-9.790589,54.090346],[-9.790592,54.090365],[-9.790599,54.090381],[-9.790596,54.090407],[-9.79058,54.090425],[-9.790567,54.090441],[-9.790539,54.090452],[-9.790504,54.090472],[-9.790497,54.090486],[-9.79049,54.090507],[-9.790468,54.09052],[-9.790437,54.090523],[-9.790389,54.090512],[-9.790356,54.090493],[-9.790321,54.090496],[-9.790293,54.090529],[-9.790277,54.090553],[-9.790216,54.090569],[-9.790157,54.090566],[-9.790121,54.090564],[-9.790092,54.090564],[-9.790052,54.090577],[-9.790039,54.090602],[-9.790034,54.090633],[-9.790037,54.090662],[-9.79003,54.090706],[-9.790032,54.090729],[-9.790052,54.090778],[-9.790045,54.090796],[-9.790013,54.090821],[-9.789967,54.090837],[-9.789939,54.09085],[-9.789912,54.090875],[-9.789902,54.090904],[-9.7899,54.090938],[-9.789895,54.090982],[-9.789859,54.091113],[-9.78981,54.091235],[-9.789793,54.091252],[-9.789771,54.091286],[-9.789759,54.091308],[-9.789745,54.091339],[-9.789758,54.091369],[-9.789774,54.091403],[-9.789764,54.091433],[-9.789734,54.091449],[-9.789678,54.091466],[-9.789661,54.091506],[-9.789734,54.09152],[-9.789768,54.091536],[-9.789802,54.091578],[-9.789819,54.091602],[-9.789832,54.091633],[-9.789837,54.091645],[-9.789832,54.091675],[-9.789805,54.091703],[-9.789769,54.091712],[-9.789694,54.09173],[-9.789659,54.091752],[-9.789639,54.091774],[-9.789637,54.091793],[-9.789648,54.091819],[-9.78966,54.091852],[-9.789634,54.091916],[-9.789592,54.092091],[-9.78959,54.092153],[-9.789591,54.092216],[-9.78957,54.092273],[-9.789643,54.092196],[-9.78967,54.092125],[-9.789651,54.092025],[-9.789648,54.091973],[-9.789856,54.091782],[-9.789946,54.091632],[-9.791713,54.091562],[-9.793138,54.09151],[-9.79321,54.091623],[-9.795049,54.091516],[-9.795205,54.092025],[-9.798687,54.09189],[-9.800624,54.091805],[-9.801897,54.091753],[-9.801666,54.093133],[-9.80157,54.093816],[-9.798954,54.094026],[-9.798213,54.094085],[-9.797597,54.094125],[-9.797936,54.095423],[-9.796182,54.095606],[-9.794768,54.095758],[-9.794691,54.095765],[-9.79464,54.095922],[-9.794626,54.096222],[-9.794634,54.097393],[-9.794584,54.098222],[-9.794604,54.098331],[-9.794763,54.098416],[-9.794969,54.098535],[-9.795076,54.098599],[-9.795102,54.098669],[-9.795087,54.098772],[-9.795026,54.098904],[-9.795009,54.099022],[-9.795017,54.09921],[-9.795163,54.099322],[-9.795361,54.099423],[-9.795678,54.099524],[-9.795927,54.099603],[-9.796033,54.099662],[-9.796096,54.099749],[-9.796129,54.099814],[-9.79616,54.100015],[-9.796195,54.100141],[-9.796348,54.100316],[-9.796541,54.100492],[-9.796841,54.100711],[-9.797262,54.101001],[-9.797607,54.101241],[-9.797665,54.101406],[-9.797619,54.101499],[-9.797543,54.101553],[-9.797496,54.101561],[-9.797649,54.101644],[-9.797802,54.101708],[-9.797919,54.101771],[-9.798004,54.101835],[-9.798104,54.101887],[-9.79823,54.101947],[-9.798296,54.101999],[-9.798346,54.102036],[-9.798464,54.102064],[-9.79856,54.102091],[-9.79871,54.102101],[-9.798765,54.102129],[-9.79881,54.102163],[-9.798852,54.1022],[-9.79889,54.10224],[-9.798946,54.102298],[-9.798979,54.10233],[-9.799026,54.102356],[-9.799084,54.102371],[-9.799157,54.102375],[-9.7992,54.102381],[-9.799248,54.102385],[-9.79934,54.102417],[-9.799368,54.102437],[-9.799402,54.102498],[-9.799522,54.102525],[-9.799571,54.102534],[-9.79963,54.102565],[-9.799661,54.102581],[-9.799705,54.10259],[-9.799734,54.10259],[-9.79978,54.102578],[-9.799822,54.102554],[-9.799842,54.102534],[-9.799867,54.102518],[-9.799909,54.102505],[-9.799979,54.10251],[-9.800037,54.102508],[-9.800121,54.102478],[-9.800151,54.102444],[-9.80016,54.102408],[-9.800153,54.102384],[-9.800144,54.102367],[-9.800128,54.102345],[-9.800107,54.102329],[-9.800086,54.102308],[-9.800079,54.102283],[-9.800143,54.102209],[-9.800185,54.102162],[-9.80025,54.102131],[-9.800286,54.102122],[-9.800345,54.10212],[-9.8004,54.102133],[-9.800436,54.102149],[-9.800462,54.102174],[-9.80048,54.102208],[-9.800488,54.102237],[-9.800515,54.102253],[-9.800592,54.102265],[-9.800715,54.102277],[-9.800776,54.102279],[-9.800831,54.10229],[-9.800867,54.102303],[-9.800956,54.102328],[-9.80107,54.102322],[-9.801228,54.102317],[-9.801262,54.102326],[-9.801307,54.102365],[-9.801328,54.102431],[-9.801356,54.102471],[-9.80147,54.102553],[-9.801587,54.102612],[-9.801721,54.102648],[-9.801903,54.10271],[-9.802007,54.102744],[-9.802076,54.102767],[-9.802135,54.102788],[-9.802344,54.102811],[-9.802566,54.10284],[-9.802733,54.102866],[-9.802936,54.102885],[-9.803086,54.102896],[-9.803263,54.102885],[-9.803624,54.102848],[-9.803631,54.102833],[-9.803648,54.102808]]]]}}]}
