{"type":"FeatureCollection","features":[{"type":"Feature","properties":{"source_fid":1665698,"county":"Mayo","bog_geom_ha":162.84969341904855,"low15_pct":98.401323042998897,"low15_ha":160.2462528958113,"overlay_ha":160.19079404342673,"area_delta":-0.055458852384560942},"geometry":{"type":"MultiPolygon","coordinates":[[[[-9.816269,54.159483],[-9.819115,54.158534],[-9.819115,54.158534],[-9.819115,54.158534],[-9.819426,54.158431],[-9.819717,54.158288],[-9.819733,54.15828],[-9.81982,54.158244],[-9.819951,54.15819],[-9.820073,54.15814],[-9.820231,54.158077],[-9.820377,54.158004],[-9.820633,54.157885],[-9.820761,54.157825],[-9.820963,54.157731],[-9.82101,54.157706],[-9.821064,54.157677],[-9.821064,54.157677],[-9.821112,54.157661],[-9.821166,54.157642],[-9.821405,54.15756],[-9.82153,54.157508],[-9.821688,54.157441],[-9.822003,54.157318],[-9.822228,54.157223],[-9.822279,54.157202],[-9.822808,54.156984],[-9.823366,54.156749],[-9.823402,54.156737],[-9.823373,54.1567],[-9.823248,54.156518],[-9.823149,54.15635],[-9.823072,54.156205],[-9.822947,54.155963],[-9.822875,54.15583],[-9.822784,54.155633],[-9.82268,54.155417],[-9.822571,54.155143],[-9.822485,54.154916],[-9.8223,54.154457],[-9.82217,54.154232],[-9.821968,54.153909],[-9.821776,54.153605],[-9.82159,54.153312],[-9.821442,54.153074],[-9.82126,54.152849],[-9.821066,54.152641],[-9.820908,54.152464],[-9.820722,54.152288],[-9.820409,54.151985],[-9.820027,54.151608],[-9.819753,54.151327],[-9.81958,54.151157],[-9.819443,54.151022],[-9.819238,54.150836],[-9.819038,54.150654],[-9.818761,54.150391],[-9.81852,54.150165],[-9.818286,54.149943],[-9.817976,54.149638],[-9.817555,54.149239],[-9.817318,54.148998],[-9.817065,54.148755],[-9.816791,54.148483],[-9.816524,54.148218],[-9.816343,54.148036],[-9.816116,54.147804],[-9.8159,54.147582],[-9.815665,54.147332],[-9.815538,54.147199],[-9.815535,54.147195],[-9.81536,54.147008],[-9.815218,54.14686],[-9.815082,54.146698],[-9.814942,54.146532],[-9.814792,54.146352],[-9.814593,54.146111],[-9.814404,54.145891],[-9.814175,54.145637],[-9.81388,54.145315],[-9.813676,54.145088],[-9.813494,54.14488],[-9.813255,54.144625],[-9.813101,54.144467],[-9.812919,54.144269],[-9.812706,54.144054],[-9.812545,54.143881],[-9.812393,54.143725],[-9.812084,54.143431],[-9.811895,54.143258],[-9.811809,54.143186],[-9.811785,54.143166],[-9.811723,54.143115],[-9.811486,54.142921],[-9.811387,54.142887],[-9.811011,54.143116],[-9.810727,54.143317],[-9.810555,54.143451],[-9.810523,54.143479],[-9.810259,54.143715],[-9.809987,54.143908],[-9.809716,54.144073],[-9.809451,54.14422],[-9.809153,54.144366],[-9.808899,54.144519],[-9.808548,54.144716],[-9.808263,54.144852],[-9.80799,54.144926],[-9.807555,54.145019],[-9.807372,54.145056],[-9.807383,54.145302],[-9.807842,54.145295],[-9.807853,54.145565],[-9.805559,54.145599],[-9.80557,54.145869],[-9.805111,54.145876],[-9.805123,54.146145],[-9.805135,54.146414],[-9.804676,54.146421],[-9.804699,54.14696],[-9.80424,54.146967],[-9.804217,54.146428],[-9.804205,54.146159],[-9.804664,54.146152],[-9.804652,54.145882],[-9.804643,54.14566],[-9.804536,54.145682],[-9.804246,54.145714],[-9.804031,54.145719],[-9.80399,54.147754],[-9.803444,54.147855],[-9.802719,54.147996],[-9.802049,54.148111],[-9.801958,54.148128],[-9.801968,54.148141],[-9.802045,54.148249],[-9.802099,54.148308],[-9.802118,54.148379],[-9.802136,54.148457],[-9.803942,54.148036],[-9.804069,54.149046],[-9.803432,54.149998],[-9.803066,54.150454],[-9.802424,54.151253],[-9.8009,54.15342],[-9.80109,54.153688],[-9.801122,54.153694],[-9.801583,54.153795],[-9.8016,54.153799],[-9.80194,54.154117],[-9.802341,54.153981],[-9.802371,54.153988],[-9.80252,54.154002],[-9.802715,54.153838],[-9.803098,54.153917],[-9.803675,54.154018],[-9.804112,54.154123],[-9.804631,54.154381],[-9.805253,54.154732],[-9.805366,54.154804],[-9.805556,54.154802],[-9.805938,54.155065],[-9.806207,54.155146],[-9.806369,54.155278],[-9.806358,54.155402],[-9.806328,54.155633],[-9.806472,54.155843],[-9.805848,54.156148],[-9.805621,54.156161],[-9.805503,54.156244],[-9.80544,54.156371],[-9.80554,54.156508],[-9.8058,54.156533],[-9.805925,54.156555],[-9.805922,54.156633],[-9.805494,54.156623],[-9.805407,54.15675],[-9.80547,54.156875],[-9.80564,54.157037],[-9.805488,54.157295],[-9.805902,54.157378],[-9.806077,54.157374],[-9.806205,54.157504],[-9.806444,54.157742],[-9.806508,54.157834],[-9.80677,54.157978],[-9.806762,54.158157],[-9.806743,54.158391],[-9.806863,54.158457],[-9.807196,54.158491],[-9.807316,54.158523],[-9.807598,54.158666],[-9.80768,54.158694],[-9.807707,54.158722],[-9.807754,54.158775],[-9.807776,54.158813],[-9.807806,54.158876],[-9.807853,54.158926],[-9.807913,54.15899],[-9.807982,54.159075],[-9.807973,54.159162],[-9.80796,54.15931],[-9.807975,54.159341],[-9.808031,54.159389],[-9.808152,54.159451],[-9.808372,54.159577],[-9.808393,54.159574],[-9.808472,54.159564],[-9.808676,54.159576],[-9.808945,54.159617],[-9.809091,54.159645],[-9.809185,54.159649],[-9.809299,54.159619],[-9.80956,54.159556],[-9.809843,54.159512],[-9.81014,54.159471],[-9.810359,54.159431],[-9.810737,54.159482],[-9.810993,54.159532],[-9.811349,54.159613],[-9.811704,54.159677],[-9.811912,54.159697],[-9.812339,54.159754],[-9.812673,54.159827],[-9.812888,54.159885],[-9.812995,54.159969],[-9.81302,54.160062],[-9.81312,54.160153],[-9.813362,54.160302],[-9.813378,54.16031],[-9.813513,54.16038],[-9.813629,54.160429],[-9.813718,54.160428],[-9.813755,54.160421],[-9.813791,54.160376],[-9.813811,54.160351],[-9.813898,54.160318],[-9.814078,54.160347],[-9.814213,54.16037],[-9.81438,54.160421],[-9.81464,54.160291],[-9.816269,54.159483]],[[-9.811937,54.144425],[-9.811948,54.144694],[-9.81149,54.144701],[-9.811478,54.144432],[-9.811937,54.144425]],[[-9.81196,54.144964],[-9.811948,54.144694],[-9.812407,54.144687],[-9.812419,54.144957],[-9.81196,54.144964]],[[-9.807877,54.146104],[-9.807418,54.146111],[-9.807406,54.145841],[-9.807865,54.145834],[-9.807877,54.146104]],[[-9.806959,54.146117],[-9.807418,54.146111],[-9.80743,54.14638],[-9.806971,54.146387],[-9.806959,54.146117]],[[-9.806512,54.146394],[-9.806971,54.146387],[-9.806982,54.146656],[-9.806523,54.146663],[-9.806512,54.146394]],[[-9.806064,54.14667],[-9.806523,54.146663],[-9.806535,54.146933],[-9.806076,54.14694],[-9.806064,54.14667]],[[-9.813514,54.148985],[-9.813973,54.148978],[-9.813984,54.149247],[-9.814443,54.14924],[-9.814455,54.14951],[-9.814914,54.149503],[-9.814926,54.149772],[-9.814938,54.150042],[-9.814479,54.150049],[-9.814467,54.149779],[-9.814008,54.149786],[-9.813996,54.149517],[-9.813537,54.149523],[-9.813525,54.149254],[-9.813514,54.148985]],[[-9.819163,54.152135],[-9.819175,54.152404],[-9.818716,54.152411],[-9.818704,54.152142],[-9.819163,54.152135]],[[-9.818941,54.15753],[-9.818952,54.1578],[-9.819411,54.157793],[-9.819423,54.158062],[-9.818505,54.158076],[-9.818493,54.157807],[-9.818481,54.157537],[-9.818941,54.15753]]],[[[-9.805096,54.145533],[-9.80482,54.14561],[-9.8051,54.145606],[-9.805096,54.145533]]],[[[-9.806049,54.145299],[-9.805945,54.145324],[-9.806465,54.145316],[-9.806461,54.145224],[-9.806049,54.145299]]]]}}]}
