{"type":"FeatureCollection","features":[{"type":"Feature","properties":{"source_fid":1669763,"county":"Galway","bog_geom_ha":174.07002560188971,"low15_pct":99.689762150982418,"low15_ha":173.52999449867806,"overlay_ha":173.5399703699463,"area_delta":0.009975871268238734},"geometry":{"type":"MultiPolygon","coordinates":[[[[-10.089758,53.527344],[-10.090172,53.527044],[-10.090634,53.526704],[-10.090671,53.526676],[-10.090673,53.526676],[-10.090703,53.526654],[-10.090719,53.526642],[-10.09089,53.526516],[-10.091219,53.525981],[-10.091638,53.525317],[-10.092073,53.524644],[-10.092383,53.524165],[-10.092648,53.523711],[-10.092861,53.523406],[-10.093237,53.523136],[-10.093703,53.522817],[-10.093926,53.522661],[-10.093928,53.522643],[-10.093431,53.522651],[-10.093417,53.522382],[-10.094277,53.522367],[-10.094314,53.52234],[-10.094389,53.522296],[-10.094486,53.522224],[-10.094561,53.522176],[-10.094632,53.522147],[-10.094703,53.522113],[-10.094793,53.522052],[-10.094879,53.522007],[-10.094926,53.521973],[-10.094693,53.521904],[-10.094307,53.521784],[-10.094179,53.521737],[-10.093872,53.52161],[-10.093465,53.521445],[-10.093147,53.521319],[-10.092744,53.521155],[-10.092717,53.521143],[-10.092502,53.521055],[-10.092313,53.520983],[-10.091987,53.520843],[-10.091786,53.520766],[-10.091859,53.520676],[-10.091917,53.520625],[-10.091909,53.520599],[-10.091888,53.520581],[-10.091908,53.520561],[-10.091943,53.520543],[-10.09178,53.520531],[-10.091688,53.520519],[-10.091479,53.520464],[-10.091181,53.52046],[-10.090957,53.520413],[-10.09089,53.520376],[-10.090882,53.520372],[-10.090857,53.520358],[-10.090797,53.520327],[-10.090648,53.520267],[-10.090503,53.52022],[-10.090363,53.520179],[-10.090287,53.520161],[-10.090101,53.520084],[-10.089928,53.520007],[-10.089889,53.519983],[-10.089867,53.51997],[-10.08983,53.51993],[-10.089774,53.519909],[-10.089649,53.519879],[-10.089554,53.519882],[-10.089579,53.519813],[-10.089435,53.519753],[-10.089292,53.5197],[-10.08929,53.519699],[-10.088983,53.519704],[-10.088977,53.519579],[-10.088705,53.519479],[-10.088516,53.519405],[-10.088282,53.51931],[-10.088029,53.519209],[-10.087892,53.51915],[-10.087522,53.51902],[-10.087281,53.518939],[-10.086951,53.518841],[-10.086456,53.51885],[-10.086464,53.518998],[-10.086012,53.519006],[-10.086004,53.518857],[-10.085926,53.518859],[-10.085908,53.518498],[-10.085843,53.518432],[-10.085477,53.518343],[-10.085352,53.518312],[-10.08506,53.518297],[-10.084636,53.518183],[-10.084219,53.518069],[-10.083873,53.517996],[-10.083248,53.518007],[-10.08326,53.518245],[-10.082807,53.518253],[-10.082796,53.518015],[-10.079855,53.518066],[-10.07983,53.517543],[-10.079647,53.517533],[-10.079412,53.517533],[-10.079194,53.517507],[-10.078627,53.517457],[-10.07807,53.517407],[-10.077901,53.517386],[-10.077707,53.517352],[-10.077435,53.517275],[-10.077272,53.517228],[-10.07687,53.517117],[-10.076769,53.517096],[-10.076588,53.517071],[-10.076431,53.517048],[-10.076348,53.517042],[-10.076148,53.516999],[-10.076105,53.517009],[-10.076074,53.517027],[-10.076092,53.51704],[-10.076057,53.517069],[-10.076035,53.517121],[-10.076029,53.517152],[-10.075868,53.517278],[-10.075677,53.517425],[-10.075485,53.517551],[-10.075432,53.517601],[-10.075398,53.517678],[-10.075415,53.517742],[-10.075417,53.517785],[-10.075408,53.517862],[-10.075373,53.517903],[-10.075202,53.518028],[-10.075092,53.518094],[-10.075037,53.518135],[-10.074915,53.518258],[-10.074794,53.518404],[-10.074765,53.518442],[-10.074732,53.518479],[-10.074681,53.518533],[-10.074658,53.518552],[-10.07464,53.518569],[-10.074577,53.518607],[-10.074367,53.518724],[-10.07416,53.51882],[-10.074046,53.518876],[-10.07381,53.518994],[-10.07349,53.519114],[-10.073352,53.519186],[-10.073293,53.519222],[-10.073237,53.519267],[-10.073115,53.519327],[-10.072876,53.519946],[-10.072528,53.520478],[-10.072397,53.520782],[-10.072385,53.520876],[-10.072304,53.521183],[-10.072223,53.521433],[-10.072152,53.521636],[-10.072069,53.521967],[-10.071956,53.522222],[-10.071456,53.52296],[-10.071226,53.523324],[-10.071003,53.523673],[-10.070719,53.524089],[-10.070435,53.524429],[-10.070224,53.524649],[-10.070076,53.524787],[-10.069524,53.525227],[-10.06894,53.525505],[-10.068588,53.525648],[-10.068579,53.525652],[-10.068207,53.525813],[-10.067618,53.526073],[-10.067416,53.526407],[-10.067314,53.526583],[-10.067047,53.527063],[-10.067046,53.527065],[-10.06702,53.527155],[-10.067009,53.527261],[-10.067024,53.527434],[-10.067036,53.527954],[-10.067025,53.528338],[-10.066981,53.528524],[-10.06698,53.528535],[-10.066938,53.528785],[-10.067878,53.528988],[-10.069061,53.529249],[-10.070045,53.529464],[-10.071078,53.529681],[-10.072249,53.529943],[-10.072946,53.530094],[-10.073886,53.530313],[-10.074997,53.530267],[-10.076078,53.530222],[-10.077325,53.530156],[-10.077645,53.530109],[-10.077962,53.53005],[-10.078074,53.530032],[-10.078726,53.52991],[-10.079557,53.529748],[-10.080057,53.529648],[-10.080698,53.52958],[-10.081182,53.52951],[-10.081432,53.529473],[-10.081841,53.529428],[-10.082044,53.529391],[-10.082294,53.529342],[-10.08293,53.529235],[-10.083904,53.529013],[-10.084408,53.528899],[-10.084849,53.528789],[-10.085059,53.528751],[-10.085583,53.528571],[-10.086329,53.528476],[-10.087368,53.528558],[-10.087856,53.528411],[-10.088387,53.528245],[-10.088703,53.528148],[-10.089239,53.527739],[-10.089758,53.527344]],[[-10.083273,53.518514],[-10.08326,53.518245],[-10.084164,53.518229],[-10.084177,53.518499],[-10.083273,53.518514]],[[-10.085107,53.519022],[-10.085094,53.518752],[-10.085546,53.518744],[-10.08556,53.519014],[-10.085107,53.519022]]]]}}]}
