{"type":"FeatureCollection","features":[{"type":"Feature","properties":{"source_fid":1670296,"county":"Galway","bog_geom_ha":155.34368458133756,"low15_pct":73.561882626380012,"low15_ha":114.27373891921752,"overlay_ha":113.39656861822091,"area_delta":-0.87717030099661031},"geometry":{"type":"MultiPolygon","coordinates":[[[[-9.410592,53.426595],[-9.410466,53.426562],[-9.409793,53.426386],[-9.409513,53.426311],[-9.408882,53.426318],[-9.408363,53.426324],[-9.408367,53.426453],[-9.409721,53.426437],[-9.40973,53.426707],[-9.411001,53.426692],[-9.410592,53.426595]]],[[[-9.411901,53.426634],[-9.411596,53.426685],[-9.411902,53.426681],[-9.411901,53.426634]]],[[[-9.40893,53.427795],[-9.408921,53.427525],[-9.407049,53.427547],[-9.40704,53.427278],[-9.407022,53.426738],[-9.40612,53.426749],[-9.406111,53.42648],[-9.40566,53.426485],[-9.405651,53.426215],[-9.405869,53.426213],[-9.405865,53.426071],[-9.405861,53.426071],[-9.405638,53.426086],[-9.405464,53.42607],[-9.405298,53.426079],[-9.404988,53.426114],[-9.404413,53.426185],[-9.403977,53.42627],[-9.403551,53.426368],[-9.403535,53.42637],[-9.403411,53.426644],[-9.403197,53.427048],[-9.40305,53.427317],[-9.402887,53.427618],[-9.402854,53.427678],[-9.402788,53.427743],[-9.402672,53.427922],[-9.40271,53.427927],[-9.402715,53.427928],[-9.402773,53.427955],[-9.402923,53.428126],[-9.403003,53.428301],[-9.403,53.428446],[-9.403044,53.428485],[-9.403077,53.428482],[-9.403194,53.42852],[-9.40345,53.428654],[-9.403711,53.428724],[-9.404086,53.42892],[-9.404269,53.428968],[-9.404449,53.428952],[-9.404521,53.429008],[-9.404672,53.429022],[-9.404886,53.428993],[-9.404939,53.428954],[-9.404984,53.428923],[-9.405115,53.42893],[-9.405168,53.428916],[-9.405204,53.428839],[-9.405284,53.428817],[-9.405354,53.428832],[-9.405425,53.428877],[-9.405509,53.428857],[-9.40568,53.428892],[-9.405814,53.428968],[-9.406017,53.42931],[-9.406118,53.429403],[-9.406514,53.429652],[-9.407138,53.430201],[-9.407357,53.430267],[-9.407579,53.430451],[-9.407907,53.430653],[-9.408078,53.43077],[-9.410315,53.430744],[-9.410324,53.431014],[-9.408519,53.431035],[-9.408519,53.431058],[-9.408617,53.431117],[-9.408838,53.431266],[-9.409165,53.431471],[-9.409514,53.431693],[-9.409935,53.431961],[-9.410419,53.432284],[-9.41073,53.432468],[-9.411036,53.432664],[-9.411452,53.432805],[-9.411937,53.432957],[-9.412536,53.433161],[-9.413024,53.433312],[-9.413539,53.43347],[-9.414185,53.433677],[-9.41489,53.433898],[-9.41507,53.433938],[-9.415673,53.434132],[-9.41636,53.434345],[-9.416597,53.434417],[-9.416674,53.434444],[-9.41667,53.434313],[-9.418174,53.434295],[-9.418205,53.435234],[-9.419945,53.435214],[-9.419936,53.434944],[-9.420839,53.434933],[-9.42083,53.434664],[-9.421732,53.434653],[-9.421723,53.434384],[-9.423529,53.434362],[-9.42352,53.434093],[-9.424874,53.434076],[-9.424865,53.433807],[-9.426219,53.433791],[-9.426209,53.433521],[-9.428466,53.433494],[-9.428457,53.433225],[-9.428448,53.432955],[-9.427997,53.432961],[-9.427988,53.432691],[-9.427536,53.432696],[-9.427527,53.432427],[-9.427076,53.432432],[-9.427067,53.432163],[-9.426164,53.432174],[-9.426155,53.431904],[-9.425704,53.431909],[-9.425695,53.43164],[-9.426146,53.431635],[-9.426142,53.431505],[-9.425604,53.431511],[-9.425418,53.431514],[-9.425414,53.431522],[-9.425386,53.431556],[-9.425322,53.431561],[-9.42527,53.43156],[-9.425229,53.431563],[-9.425218,53.43157],[-9.425222,53.431583],[-9.42523,53.431599],[-9.42525,53.431621],[-9.425275,53.431672],[-9.425269,53.431701],[-9.425236,53.431778],[-9.425157,53.431849],[-9.425107,53.431892],[-9.425067,53.431918],[-9.424995,53.431975],[-9.42497,53.432001],[-9.424836,53.431938],[-9.424801,53.43192],[-9.42435,53.431926],[-9.424342,53.431692],[-9.424324,53.431683],[-9.42427,53.431657],[-9.42389,53.431662],[-9.423885,53.431532],[-9.422596,53.431547],[-9.422571,53.430801],[-9.422262,53.430653],[-9.419558,53.430685],[-9.419538,53.430096],[-9.419323,53.430098],[-9.419314,53.429829],[-9.416606,53.429861],[-9.416597,53.429591],[-9.416588,53.429322],[-9.415686,53.429332],[-9.415677,53.429063],[-9.415225,53.429068],[-9.415234,53.429338],[-9.414332,53.429348],[-9.414323,53.429079],[-9.413872,53.429084],[-9.413867,53.428955],[-9.412514,53.428971],[-9.412518,53.4291],[-9.411615,53.429111],[-9.411611,53.428982],[-9.410708,53.428992],[-9.410713,53.429122],[-9.411164,53.429116],[-9.411182,53.429655],[-9.411191,53.429925],[-9.410739,53.42993],[-9.410748,53.4302],[-9.410757,53.430469],[-9.410306,53.430475],[-9.410297,53.430205],[-9.409846,53.43021],[-9.409837,53.429941],[-9.409828,53.429671],[-9.409377,53.429677],[-9.409359,53.429138],[-9.408908,53.429143],[-9.408903,53.429014],[-9.407467,53.429031],[-9.407437,53.428132],[-9.408874,53.428116],[-9.408872,53.428065],[-9.408863,53.427795],[-9.40893,53.427795]],[[-9.418872,53.430103],[-9.419323,53.430098],[-9.419332,53.430368],[-9.418881,53.430373],[-9.418872,53.430103]],[[-9.41652,53.429822],[-9.41655,53.43072],[-9.413542,53.430756],[-9.413512,53.429858],[-9.41652,53.429822]],[[-9.425289,53.432993],[-9.424386,53.433004],[-9.424377,53.432734],[-9.424828,53.432729],[-9.424819,53.432459],[-9.425271,53.432454],[-9.42528,53.432723],[-9.425289,53.432993]],[[-9.41536,53.433111],[-9.416262,53.4331],[-9.416253,53.432831],[-9.417156,53.43282],[-9.417165,53.43309],[-9.417174,53.433359],[-9.415369,53.433381],[-9.41536,53.433111]]],[[[-9.427108,53.431493],[-9.426593,53.4315],[-9.426598,53.431629],[-9.427049,53.431624],[-9.427058,53.431893],[-9.427509,53.431888],[-9.427518,53.432157],[-9.42797,53.432152],[-9.427979,53.432422],[-9.430235,53.432395],[-9.430226,53.432125],[-9.431129,53.432114],[-9.431138,53.432384],[-9.43204,53.432373],[-9.432049,53.432642],[-9.433855,53.432621],[-9.433864,53.43289],[-9.434315,53.432885],[-9.434324,53.433154],[-9.434333,53.433424],[-9.432077,53.433451],[-9.432068,53.433181],[-9.42936,53.433214],[-9.429369,53.433483],[-9.428917,53.433489],[-9.428926,53.433758],[-9.428475,53.433764],[-9.428484,53.434033],[-9.429387,53.434022],[-9.429378,53.433753],[-9.43028,53.433742],[-9.430289,53.434012],[-9.431192,53.434001],[-9.431201,53.43427],[-9.432104,53.43426],[-9.432113,53.434529],[-9.432122,53.434799],[-9.432573,53.434793],[-9.432582,53.435063],[-9.433034,53.435057],[-9.433043,53.435327],[-9.433494,53.435321],[-9.433485,53.435052],[-9.433936,53.435046],[-9.433945,53.435316],[-9.434397,53.435311],[-9.434406,53.43558],[-9.434415,53.43585],[-9.434866,53.435844],[-9.434875,53.436114],[-9.434884,53.436383],[-9.435336,53.436378],[-9.435345,53.436647],[-9.435354,53.436917],[-9.434903,53.436922],[-9.434912,53.437192],[-9.43446,53.437197],[-9.434469,53.437467],[-9.434018,53.437472],[-9.434082,53.439359],[-9.43363,53.439364],[-9.433635,53.439502],[-9.435843,53.439476],[-9.435865,53.439466],[-9.435898,53.439452],[-9.43591,53.439449],[-9.435964,53.439458],[-9.436051,53.439472],[-9.436055,53.439473],[-9.43616,53.439472],[-9.436191,53.439463],[-9.4362,53.439442],[-9.436207,53.439426],[-9.436209,53.439362],[-9.436224,53.439322],[-9.436242,53.439301],[-9.436244,53.4393],[-9.43628,53.43928],[-9.436341,53.43927],[-9.436346,53.439269],[-9.436424,53.439266],[-9.436467,53.439268],[-9.43649,53.43927],[-9.436543,53.43928],[-9.436619,53.439295],[-9.436631,53.439297],[-9.436649,53.4393],[-9.436669,53.439303],[-9.436677,53.439305],[-9.436727,53.439304],[-9.436772,53.439296],[-9.436802,53.439277],[-9.436829,53.439261],[-9.436889,53.439226],[-9.436907,53.439222],[-9.436914,53.43922],[-9.436993,53.439229],[-9.437003,53.43923],[-9.437034,53.439234],[-9.437152,53.439185],[-9.437203,53.439159],[-9.437205,53.439158],[-9.437205,53.439158],[-9.437251,53.439167],[-9.437414,53.439234],[-9.437539,53.439272],[-9.437571,53.439278],[-9.437576,53.439279],[-9.437716,53.43927],[-9.437786,53.439257],[-9.437855,53.439263],[-9.437906,53.439268],[-9.437917,53.439266],[-9.437922,53.439265],[-9.437922,53.439265],[-9.437922,53.439265],[-9.43798,53.439254],[-9.438094,53.439196],[-9.438192,53.439139],[-9.438266,53.439138],[-9.438299,53.439138],[-9.438316,53.439148],[-9.438318,53.439176],[-9.438281,53.439206],[-9.438238,53.439225],[-9.438227,53.439253],[-9.438242,53.439263],[-9.43829,53.43926],[-9.438373,53.43924],[-9.438429,53.439224],[-9.438459,53.439217],[-9.43858,53.439188],[-9.438773,53.439141],[-9.438924,53.439107],[-9.438953,53.439092],[-9.439036,53.439],[-9.4391,53.438935],[-9.439128,53.43891],[-9.439197,53.438877],[-9.43932,53.438851],[-9.439431,53.438842],[-9.43953,53.438836],[-9.439786,53.438841],[-9.439931,53.438844],[-9.440141,53.438844],[-9.440265,53.438835],[-9.440351,53.438814],[-9.44044,53.438774],[-9.440574,53.43871],[-9.440655,53.438681],[-9.440712,53.438595],[-9.440825,53.438445],[-9.440957,53.438262],[-9.440967,53.43825],[-9.441062,53.43813],[-9.441189,53.437983],[-9.441213,53.437953],[-9.44132,53.437815],[-9.441488,53.43761],[-9.441643,53.437391],[-9.441721,53.437297],[-9.441794,53.437209],[-9.441999,53.436961],[-9.442067,53.436881],[-9.442081,53.436885],[-9.442109,53.436893],[-9.442154,53.436856],[-9.441869,53.43678],[-9.441435,53.436642],[-9.441384,53.436621],[-9.441353,53.43666],[-9.441285,53.436636],[-9.441016,53.436509],[-9.440773,53.436386],[-9.440297,53.436032],[-9.440152,53.435898],[-9.439826,53.435574],[-9.439752,53.435491],[-9.439631,53.435395],[-9.439526,53.435313],[-9.439506,53.435299],[-9.439231,53.435132],[-9.438887,53.434939],[-9.438825,53.434897],[-9.438732,53.434848],[-9.438705,53.434828],[-9.438401,53.43461],[-9.438089,53.434302],[-9.437923,53.434133],[-9.437656,53.4339],[-9.437522,53.433791],[-9.437341,53.433689],[-9.437018,53.433538],[-9.436854,53.433488],[-9.436596,53.433409],[-9.436363,53.433338],[-9.435914,53.433216],[-9.435496,53.433094],[-9.435246,53.433018],[-9.435199,53.433003],[-9.434786,53.432859],[-9.434184,53.43266],[-9.433821,53.432541],[-9.433341,53.432384],[-9.432647,53.432159],[-9.432026,53.431963],[-9.431325,53.431745],[-9.430309,53.431446],[-9.429966,53.431341],[-9.429594,53.431214],[-9.429317,53.43112],[-9.428492,53.430831],[-9.428455,53.430817],[-9.428015,53.430656],[-9.427323,53.430408],[-9.427283,53.430453],[-9.427285,53.430464],[-9.427286,53.430482],[-9.427288,53.430508],[-9.427282,53.430526],[-9.427267,53.430547],[-9.427262,53.430554],[-9.427257,53.430561],[-9.427236,53.430592],[-9.427205,53.430619],[-9.427184,53.430632],[-9.427102,53.430666],[-9.427081,53.430673],[-9.427108,53.431493]],[[-9.436717,53.43717],[-9.436708,53.436901],[-9.438513,53.436879],[-9.438523,53.437148],[-9.438974,53.437143],[-9.438983,53.437412],[-9.439434,53.437407],[-9.439443,53.437677],[-9.439453,53.437946],[-9.43855,53.437957],[-9.438541,53.437687],[-9.437638,53.437698],[-9.437629,53.437429],[-9.437178,53.437434],[-9.437168,53.437165],[-9.436717,53.43717]]],[[[-9.433256,53.43993],[-9.433332,53.439907],[-9.432746,53.439914],[-9.432736,53.439645],[-9.433188,53.439639],[-9.433179,53.43937],[-9.433115,53.437483],[-9.433106,53.437213],[-9.433097,53.436944],[-9.433088,53.436674],[-9.432637,53.43668],[-9.432628,53.43641],[-9.432176,53.436416],[-9.432167,53.436146],[-9.431716,53.436152],[-9.431725,53.436421],[-9.431274,53.436427],[-9.431283,53.436696],[-9.431301,53.437235],[-9.430398,53.437246],[-9.430407,53.437515],[-9.429956,53.437521],[-9.429965,53.43779],[-9.429513,53.437796],[-9.429523,53.438065],[-9.42862,53.438076],[-9.428611,53.437807],[-9.427257,53.437823],[-9.427248,53.437553],[-9.425894,53.437569],[-9.425884,53.4373],[-9.424982,53.437311],[-9.424973,53.437041],[-9.424964,53.436772],[-9.425415,53.436766],[-9.425424,53.437036],[-9.425875,53.43703],[-9.425866,53.436761],[-9.427672,53.436739],[-9.427663,53.43647],[-9.42676,53.436481],[-9.426751,53.436211],[-9.4263,53.436216],[-9.426291,53.435947],[-9.424034,53.435974],[-9.424025,53.435704],[-9.418609,53.435769],[-9.4186,53.435499],[-9.418214,53.435504],[-9.418233,53.436092],[-9.419738,53.436074],[-9.419768,53.436972],[-9.421272,53.436954],[-9.421325,53.438564],[-9.421495,53.438674],[-9.421607,53.438747],[-9.422795,53.438733],[-9.423017,53.438656],[-9.423116,53.438622],[-9.423168,53.438605],[-9.423287,53.438566],[-9.423448,53.438579],[-9.423601,53.438603],[-9.423664,53.438613],[-9.423681,53.438617],[-9.423722,53.438625],[-9.42395,53.438645],[-9.423993,53.438656],[-9.424146,53.438694],[-9.424234,53.438716],[-9.428853,53.438661],[-9.428883,53.439559],[-9.431892,53.439523],[-9.431911,53.440084],[-9.431932,53.440079],[-9.432154,53.440069],[-9.432183,53.440069],[-9.432263,53.44011],[-9.432273,53.440114],[-9.432284,53.440119],[-9.432359,53.44011],[-9.432547,53.440089],[-9.432596,53.440097],[-9.43268,53.440112],[-9.432705,53.44011],[-9.432717,53.440109],[-9.432746,53.440106],[-9.43277,53.440098],[-9.43284,53.440073],[-9.432925,53.440037],[-9.432976,53.440026],[-9.432995,53.440022],[-9.433025,53.440013],[-9.433081,53.439996],[-9.43315,53.439971],[-9.433227,53.43994],[-9.43324,53.439935],[-9.433256,53.43993]]],[[[-9.442265,53.436506],[-9.442263,53.436501],[-9.442281,53.436479],[-9.442319,53.436352],[-9.442319,53.436352],[-9.442281,53.436479],[-9.442263,53.436501],[-9.442265,53.436506],[-9.442265,53.436506]]],[[[-9.43038,53.436707],[-9.427672,53.436739],[-9.427681,53.437009],[-9.42769,53.437278],[-9.430398,53.437246],[-9.43038,53.436707]]]]}}]}
