{"type":"FeatureCollection","features":[{"type":"Feature","properties":{"source_fid":1670432,"county":"Galway","bog_geom_ha":254.64123261804724,"low15_pct":82.884479092841957,"low15_ha":211.05805921106042,"overlay_ha":210.71349256293084,"area_delta":-0.34456664812958593},"geometry":{"type":"MultiPolygon","coordinates":[[[[-9.256918,53.347],[-9.256768,53.347056],[-9.256503,53.34711],[-9.256261,53.347102],[-9.256107,53.347087],[-9.256108,53.347152],[-9.254807,53.347166],[-9.25481,53.347278],[-9.254818,53.347547],[-9.256169,53.347533],[-9.256162,53.347264],[-9.257963,53.347245],[-9.257971,53.347514],[-9.257979,53.347784],[-9.257987,53.348053],[-9.258438,53.348048],[-9.258445,53.348318],[-9.257995,53.348323],[-9.258011,53.348862],[-9.258019,53.349131],[-9.257118,53.349141],[-9.257126,53.34941],[-9.256675,53.349415],[-9.256691,53.349954],[-9.256241,53.349959],[-9.256249,53.350229],[-9.255798,53.350233],[-9.255814,53.350772],[-9.255364,53.350777],[-9.255379,53.351316],[-9.25583,53.351311],[-9.255838,53.351581],[-9.25764,53.351562],[-9.257648,53.351832],[-9.258549,53.351822],[-9.258541,53.351553],[-9.259442,53.351543],[-9.25945,53.351813],[-9.258999,53.351817],[-9.259007,53.352087],[-9.259015,53.352356],[-9.259466,53.352352],[-9.259474,53.352621],[-9.260825,53.352607],[-9.260817,53.352337],[-9.261268,53.352333],[-9.261252,53.351794],[-9.261702,53.351789],[-9.261694,53.351519],[-9.261686,53.35125],[-9.262587,53.35124],[-9.262595,53.35151],[-9.263046,53.351505],[-9.263038,53.351235],[-9.26303,53.350966],[-9.263022,53.350696],[-9.263014,53.350427],[-9.263464,53.350422],[-9.263456,53.350152],[-9.263448,53.349883],[-9.264349,53.349873],[-9.264341,53.349604],[-9.264792,53.349599],[-9.264784,53.349329],[-9.265234,53.349325],[-9.265242,53.349594],[-9.26525,53.349864],[-9.265258,53.350133],[-9.265266,53.350403],[-9.265717,53.350398],[-9.265733,53.350937],[-9.265741,53.351207],[-9.26529,53.351212],[-9.265298,53.351481],[-9.264848,53.351486],[-9.264856,53.351755],[-9.264872,53.352294],[-9.264421,53.352299],[-9.264429,53.352569],[-9.264437,53.352838],[-9.263986,53.352843],[-9.263994,53.353113],[-9.264002,53.353382],[-9.264903,53.353373],[-9.264911,53.353642],[-9.264461,53.353647],[-9.264469,53.353916],[-9.264018,53.353921],[-9.264026,53.354191],[-9.263576,53.354196],[-9.263584,53.354465],[-9.262683,53.354475],[-9.262691,53.354744],[-9.261339,53.354758],[-9.261347,53.355028],[-9.259545,53.355047],[-9.259553,53.355317],[-9.259561,53.355586],[-9.25911,53.355591],[-9.259118,53.35586],[-9.258668,53.355865],[-9.25866,53.355596],[-9.258657,53.355495],[-9.258518,53.355564],[-9.258327,53.355653],[-9.258191,53.355535],[-9.25812,53.355457],[-9.258074,53.355374],[-9.258033,53.355242],[-9.258023,53.355179],[-9.258026,53.355147],[-9.258049,53.355116],[-9.258193,53.35505],[-9.258465,53.35501],[-9.258767,53.354971],[-9.258911,53.354962],[-9.258929,53.355028],[-9.258941,53.355143],[-9.258955,53.355243],[-9.258956,53.355323],[-9.259102,53.355321],[-9.259095,53.355052],[-9.259087,53.354782],[-9.257735,53.354797],[-9.257743,53.355066],[-9.257751,53.355336],[-9.25685,53.355345],[-9.256842,53.355076],[-9.256391,53.35508],[-9.256383,53.354811],[-9.255482,53.35482],[-9.255474,53.354551],[-9.255024,53.354555],[-9.255016,53.354286],[-9.254385,53.354293],[-9.254383,53.354341],[-9.254388,53.354359],[-9.254818,53.354354],[-9.254834,53.35489],[-9.254993,53.354947],[-9.255095,53.35499],[-9.255204,53.35506],[-9.254976,53.355254],[-9.254772,53.355422],[-9.254706,53.355533],[-9.2547,53.355655],[-9.25471,53.355744],[-9.254735,53.355837],[-9.254752,53.356005],[-9.254759,53.356108],[-9.254738,53.356172],[-9.254617,53.356304],[-9.25462,53.356391],[-9.254655,53.356578],[-9.254646,53.356686],[-9.254657,53.356787],[-9.254553,53.356825],[-9.254328,53.356871],[-9.254012,53.357621],[-9.253936,53.357769],[-9.253869,53.357923],[-9.253794,53.358078],[-9.253697,53.358295],[-9.253689,53.358306],[-9.253904,53.35843],[-9.254168,53.358578],[-9.254228,53.358608],[-9.254508,53.35875],[-9.254691,53.358847],[-9.254781,53.358887],[-9.254903,53.358943],[-9.255174,53.359044],[-9.2553,53.359096],[-9.255435,53.359155],[-9.255447,53.359163],[-9.255532,53.359214],[-9.255592,53.359248],[-9.255611,53.359258],[-9.255744,53.359209],[-9.255809,53.359175],[-9.255808,53.359161],[-9.255807,53.359137],[-9.255862,53.359107],[-9.255949,53.359072],[-9.256047,53.359055],[-9.256122,53.359029],[-9.256184,53.358974],[-9.256207,53.358931],[-9.256185,53.358893],[-9.256169,53.358832],[-9.256159,53.358792],[-9.256175,53.358759],[-9.256276,53.35874],[-9.256443,53.358722],[-9.256486,53.358703],[-9.256502,53.358674],[-9.256482,53.358628],[-9.256454,53.358585],[-9.256442,53.358566],[-9.256357,53.358527],[-9.256345,53.358509],[-9.256386,53.358383],[-9.25638,53.358343],[-9.256401,53.358246],[-9.256551,53.358127],[-9.256575,53.358091],[-9.256633,53.358083],[-9.256709,53.358074],[-9.256778,53.358063],[-9.256822,53.358084],[-9.256867,53.358098],[-9.257014,53.358124],[-9.257046,53.358123],[-9.257092,53.3581],[-9.257123,53.358048],[-9.257187,53.357958],[-9.257223,53.357876],[-9.257258,53.35785],[-9.257236,53.357833],[-9.257189,53.357775],[-9.257182,53.357716],[-9.257217,53.357678],[-9.25723,53.357644],[-9.257213,53.357594],[-9.257219,53.357504],[-9.257241,53.357424],[-9.257324,53.357351],[-9.257414,53.357333],[-9.257462,53.357332],[-9.257498,53.357322],[-9.257558,53.3573],[-9.25771,53.357271],[-9.257795,53.357238],[-9.257861,53.357234],[-9.258164,53.357321],[-9.258461,53.357376],[-9.259142,53.357518],[-9.259315,53.357566],[-9.259425,53.35758],[-9.259512,53.357584],[-9.259646,53.357564],[-9.259834,53.357532],[-9.260018,53.357509],[-9.260177,53.357489],[-9.260272,53.357484],[-9.260331,53.357495],[-9.260414,53.357495],[-9.260523,53.357478],[-9.260653,53.357457],[-9.260676,53.357456],[-9.260812,53.35737],[-9.260894,53.357302],[-9.260987,53.357296],[-9.261028,53.357278],[-9.261256,53.357134],[-9.261513,53.357112],[-9.26158,53.35709],[-9.261817,53.357049],[-9.262059,53.357019],[-9.262064,53.357013],[-9.262093,53.357001],[-9.262136,53.357],[-9.262209,53.357],[-9.262245,53.356992],[-9.262274,53.35698],[-9.262322,53.356968],[-9.262421,53.35695],[-9.262559,53.35688],[-9.262562,53.356855],[-9.262633,53.356765],[-9.262604,53.356731],[-9.262626,53.356645],[-9.262729,53.356592],[-9.262936,53.356516],[-9.262987,53.356489],[-9.263317,53.35644],[-9.263523,53.356372],[-9.263584,53.356368],[-9.263652,53.356364],[-9.263785,53.356303],[-9.263832,53.356255],[-9.263884,53.356238],[-9.263961,53.356233],[-9.263975,53.356215],[-9.26425,53.356235],[-9.2645,53.356282],[-9.264816,53.356266],[-9.265064,53.356239],[-9.265968,53.356188],[-9.266465,53.356179],[-9.26724,53.356257],[-9.267804,53.356318],[-9.267944,53.356335],[-9.268186,53.356351],[-9.268567,53.356295],[-9.268801,53.356145],[-9.269193,53.355909],[-9.269387,53.355791],[-9.269668,53.35573],[-9.269966,53.355707],[-9.270151,53.355772],[-9.270322,53.355784],[-9.270492,53.355762],[-9.270711,53.355704],[-9.271072,53.355702],[-9.271386,53.355728],[-9.27169,53.355765],[-9.271863,53.355885],[-9.27189,53.355989],[-9.272097,53.356111],[-9.272151,53.356259],[-9.27238,53.356467],[-9.272629,53.356928],[-9.272858,53.357066],[-9.272932,53.357165],[-9.273161,53.35729],[-9.273206,53.357403],[-9.273434,53.357579],[-9.273429,53.35785],[-9.27347,53.358022],[-9.273555,53.358178],[-9.273713,53.358353],[-9.274651,53.358098],[-9.274729,53.358085],[-9.274956,53.358027],[-9.27505,53.357958],[-9.275047,53.357897],[-9.275063,53.357848],[-9.275277,53.357824],[-9.275459,53.357759],[-9.27558,53.357782],[-9.275919,53.357723],[-9.276089,53.357557],[-9.276157,53.357447],[-9.276177,53.35735],[-9.276172,53.357317],[-9.276177,53.357279],[-9.27631,53.357249],[-9.276398,53.35718],[-9.276393,53.357084],[-9.276423,53.357025],[-9.27649,53.356977],[-9.276529,53.356963],[-9.276531,53.356939],[-9.276657,53.356904],[-9.276701,53.356916],[-9.276875,53.356881],[-9.276881,53.356879],[-9.277128,53.356652],[-9.277542,53.356481],[-9.277722,53.35641],[-9.277735,53.356405],[-9.277815,53.356332],[-9.277825,53.356323],[-9.277893,53.356292],[-9.277953,53.356182],[-9.278139,53.356117],[-9.278165,53.356066],[-9.278263,53.355992],[-9.278275,53.35598],[-9.278593,53.355888],[-9.278859,53.355825],[-9.279497,53.355706],[-9.279952,53.355774],[-9.280355,53.355759],[-9.280535,53.355718],[-9.280695,53.355652],[-9.280717,53.355508],[-9.280816,53.355441],[-9.280819,53.355353],[-9.280878,53.355305],[-9.2812,53.355267],[-9.281442,53.355111],[-9.281248,53.354986],[-9.280994,53.354648],[-9.280995,53.354602],[-9.281172,53.354325],[-9.281171,53.354295],[-9.281284,53.354127],[-9.281329,53.354061],[-9.281383,53.35376],[-9.281417,53.353635],[-9.281442,53.353543],[-9.281419,53.353312],[-9.281412,53.353251],[-9.281368,53.353227],[-9.281344,53.353215],[-9.281339,53.353209],[-9.281326,53.353196],[-9.281328,53.353162],[-9.281441,53.352977],[-9.28142,53.352945],[-9.281417,53.352941],[-9.281417,53.352941],[-9.281398,53.352912],[-9.281377,53.352836],[-9.281375,53.352798],[-9.281392,53.352753],[-9.281523,53.352646],[-9.28153,53.352555],[-9.281659,53.352256],[-9.28164,53.352227],[-9.281688,53.352152],[-9.281693,53.352022],[-9.281673,53.351914],[-9.281739,53.351821],[-9.281852,53.351747],[-9.281934,53.35174],[-9.282044,53.351673],[-9.282172,53.351524],[-9.282108,53.351397],[-9.282057,53.351249],[-9.282022,53.351146],[-9.281964,53.351086],[-9.281876,53.350868],[-9.281618,53.350663],[-9.281513,53.350659],[-9.281382,53.350669],[-9.281313,53.350646],[-9.281222,53.350561],[-9.281111,53.350421],[-9.281124,53.350358],[-9.28118,53.350284],[-9.281282,53.350239],[-9.281331,53.350216],[-9.28139,53.350158],[-9.281458,53.350076],[-9.28156,53.350007],[-9.281683,53.349998],[-9.281812,53.349901],[-9.281914,53.349827],[-9.282045,53.349745],[-9.282142,53.349677],[-9.282301,53.349599],[-9.282499,53.349503],[-9.282622,53.349345],[-9.282633,53.349231],[-9.282704,53.349071],[-9.282768,53.348952],[-9.282814,53.348838],[-9.282853,53.348753],[-9.282921,53.348689],[-9.283024,53.348634],[-9.28327,53.348567],[-9.283327,53.348549],[-9.283331,53.348524],[-9.28328,53.348419],[-9.283303,53.348339],[-9.28341,53.348212],[-9.283429,53.348076],[-9.283436,53.348019],[-9.283483,53.347958],[-9.283578,53.347902],[-9.283814,53.347836],[-9.284022,53.347726],[-9.284112,53.347706],[-9.284243,53.347636],[-9.284426,53.347457],[-9.28443,53.347445],[-9.284462,53.347303],[-9.284577,53.347197],[-9.28473,53.347036],[-9.284734,53.346831],[-9.284776,53.346783],[-9.284965,53.346678],[-9.285102,53.346572],[-9.285197,53.346456],[-9.285301,53.346397],[-9.285364,53.346288],[-9.285392,53.346145],[-9.285258,53.346043],[-9.285249,53.345859],[-9.285247,53.345813],[-9.285239,53.345733],[-9.285239,53.345645],[-9.285239,53.345593],[-9.285188,53.345514],[-9.285147,53.345483],[-9.285094,53.345444],[-9.285013,53.345321],[-9.285,53.345292],[-9.284953,53.345255],[-9.284896,53.34521],[-9.284792,53.34515],[-9.284723,53.345111],[-9.284683,53.345056],[-9.284681,53.345053],[-9.284681,53.345053],[-9.284681,53.345053],[-9.284671,53.345014],[-9.28467,53.345012],[-9.284651,53.344972],[-9.28465,53.344971],[-9.28463,53.344952],[-9.284601,53.344936],[-9.284548,53.344907],[-9.284525,53.344885],[-9.284522,53.344883],[-9.284524,53.344838],[-9.284523,53.344822],[-9.284517,53.344808],[-9.284482,53.34479],[-9.284413,53.344754],[-9.284297,53.344692],[-9.284288,53.344687],[-9.284237,53.344662],[-9.284213,53.344635],[-9.284194,53.344614],[-9.284153,53.344556],[-9.284113,53.344501],[-9.284115,53.344476],[-9.284116,53.344438],[-9.284149,53.344405],[-9.284209,53.344374],[-9.284241,53.344361],[-9.284343,53.344323],[-9.284394,53.3443],[-9.28451,53.344246],[-9.284565,53.344197],[-9.284571,53.344192],[-9.284601,53.344122],[-9.284599,53.344095],[-9.284593,53.344037],[-9.284579,53.344002],[-9.284567,53.343971],[-9.284592,53.343929],[-9.284707,53.343834],[-9.284754,53.343791],[-9.284812,53.343737],[-9.284827,53.343711],[-9.284821,53.343686],[-9.284818,53.343675],[-9.284766,53.34357],[-9.284701,53.343471],[-9.284698,53.343456],[-9.284698,53.343455],[-9.284434,53.343457],[-9.284418,53.342918],[-9.284812,53.342914],[-9.284826,53.342898],[-9.284834,53.342877],[-9.284844,53.342852],[-9.284862,53.342728],[-9.284836,53.341835],[-9.285031,53.341833],[-9.285004,53.341778],[-9.284998,53.341773],[-9.284977,53.341753],[-9.284979,53.341738],[-9.28498,53.341729],[-9.284996,53.341704],[-9.285032,53.341675],[-9.285043,53.341658],[-9.285067,53.34162],[-9.285071,53.341613],[-9.285036,53.341607],[-9.284998,53.341588],[-9.284965,53.341572],[-9.284917,53.34156],[-9.284862,53.341549],[-9.284713,53.341558],[-9.284645,53.341569],[-9.284569,53.341584],[-9.284522,53.341583],[-9.284492,53.341575],[-9.284376,53.341575],[-9.284178,53.341552],[-9.284118,53.341521],[-9.284066,53.341487],[-9.283927,53.341342],[-9.283882,53.341315],[-9.283696,53.341296],[-9.283607,53.341266],[-9.283467,53.341239],[-9.283181,53.341184],[-9.283002,53.341168],[-9.282891,53.341145],[-9.282843,53.341129],[-9.282835,53.341118],[-9.282816,53.34109],[-9.282684,53.341066],[-9.282605,53.341024],[-9.28244,53.341003],[-9.28241,53.340984],[-9.282391,53.340965],[-9.282391,53.340894],[-9.28238,53.340751],[-9.282349,53.340627],[-9.282307,53.340602],[-9.282208,53.340574],[-9.282096,53.340534],[-9.281852,53.340515],[-9.281643,53.340492],[-9.281581,53.340481],[-9.281558,53.340471],[-9.281416,53.340455],[-9.28135,53.340467],[-9.281199,53.340493],[-9.281135,53.340512],[-9.281082,53.340545],[-9.280982,53.340654],[-9.280853,53.340697],[-9.280698,53.340726],[-9.280482,53.340759],[-9.280315,53.34078],[-9.280108,53.340845],[-9.27982,53.340914],[-9.279382,53.341039],[-9.279075,53.341145],[-9.278825,53.341237],[-9.27869,53.341296],[-9.27859,53.341341],[-9.278391,53.341358],[-9.278216,53.341359],[-9.278074,53.341359],[-9.277959,53.341375],[-9.277694,53.341399],[-9.277513,53.341407],[-9.277373,53.341442],[-9.277269,53.34148],[-9.277256,53.34148],[-9.277198,53.341502],[-9.276991,53.341577],[-9.276527,53.341744],[-9.276424,53.341782],[-9.276282,53.341835],[-9.275987,53.341944],[-9.275513,53.342143],[-9.275204,53.342271],[-9.275032,53.342342],[-9.274942,53.342376],[-9.274706,53.342474],[-9.274417,53.342583],[-9.27421,53.342664],[-9.273879,53.342793],[-9.273647,53.342883],[-9.273439,53.342972],[-9.273237,53.343069],[-9.273174,53.343102],[-9.272964,53.343202],[-9.272664,53.343344],[-9.272315,53.34351],[-9.272138,53.343593],[-9.271966,53.34367],[-9.271624,53.34381],[-9.271271,53.343957],[-9.271107,53.344027],[-9.27108,53.344034],[-9.271351,53.344815],[-9.271465,53.345193],[-9.272567,53.345181],[-9.272568,53.345202],[-9.272772,53.3452],[-9.272764,53.344931],[-9.273214,53.344926],[-9.273206,53.344656],[-9.274107,53.344647],[-9.274099,53.344377],[-9.275,53.344367],[-9.275008,53.344637],[-9.275458,53.344632],[-9.275466,53.344902],[-9.275916,53.344897],[-9.275924,53.345166],[-9.275933,53.345436],[-9.275482,53.345441],[-9.275474,53.345171],[-9.274573,53.345181],[-9.274565,53.344911],[-9.274115,53.344916],[-9.274123,53.345186],[-9.273672,53.345191],[-9.27368,53.34546],[-9.273688,53.34573],[-9.273238,53.345734],[-9.273246,53.346004],[-9.272796,53.346009],[-9.272804,53.346278],[-9.271903,53.346288],[-9.271911,53.346557],[-9.271694,53.34656],[-9.271787,53.346705],[-9.271807,53.346758],[-9.271803,53.346759],[-9.271547,53.346785],[-9.271121,53.346811],[-9.270693,53.34679],[-9.270208,53.346758],[-9.269523,53.346757],[-9.269097,53.346786],[-9.268684,53.346848],[-9.26831,53.346887],[-9.267754,53.346991],[-9.266662,53.347162],[-9.265932,53.347274],[-9.265267,53.347357],[-9.264659,53.347453],[-9.264279,53.347511],[-9.264285,53.347717],[-9.263835,53.347722],[-9.26383,53.347559],[-9.26359,53.347576],[-9.263302,53.347591],[-9.263009,53.347581],[-9.262683,53.34756],[-9.262414,53.347515],[-9.262129,53.347477],[-9.262041,53.34746],[-9.261695,53.347385],[-9.261316,53.347298],[-9.260922,53.347217],[-9.260451,53.347133],[-9.260015,53.347057],[-9.259738,53.347007],[-9.259443,53.346953],[-9.258951,53.346873],[-9.258483,53.346795],[-9.258059,53.346732],[-9.257823,53.3467],[-9.257541,53.346678],[-9.257496,53.34669],[-9.257497,53.34671],[-9.257423,53.346711],[-9.257346,53.346733],[-9.257059,53.34687],[-9.256918,53.347]],[[-9.263385,53.347727],[-9.263835,53.347722],[-9.263851,53.348261],[-9.2634,53.348266],[-9.263385,53.347727]],[[-9.265354,53.353368],[-9.264903,53.353373],[-9.264895,53.353103],[-9.265346,53.353098],[-9.265354,53.353368]],[[-9.265796,53.353094],[-9.265346,53.353098],[-9.26533,53.352559],[-9.26578,53.352554],[-9.265796,53.353094]],[[-9.263432,53.349344],[-9.263448,53.349883],[-9.262998,53.349888],[-9.262982,53.349349],[-9.262974,53.349079],[-9.262966,53.348809],[-9.263416,53.348805],[-9.263424,53.349074],[-9.263875,53.349069],[-9.263883,53.349339],[-9.263432,53.349344]],[[-9.277678,53.34353],[-9.27767,53.34326],[-9.278571,53.343251],[-9.278579,53.34352],[-9.277678,53.34353]],[[-9.279938,53.343775],[-9.279946,53.344045],[-9.279496,53.34405],[-9.279487,53.34378],[-9.279938,53.343775]],[[-9.279954,53.344314],[-9.279946,53.344045],[-9.280396,53.34404],[-9.280404,53.34431],[-9.279954,53.344314]],[[-9.281418,53.348074],[-9.280968,53.348078],[-9.280984,53.348617],[-9.280534,53.348622],[-9.280542,53.348892],[-9.280091,53.348897],[-9.280083,53.348627],[-9.279633,53.348632],[-9.279617,53.348093],[-9.279592,53.347284],[-9.280043,53.347279],[-9.280035,53.34701],[-9.280936,53.347],[-9.280928,53.346731],[-9.281378,53.346726],[-9.281386,53.346995],[-9.281394,53.347265],[-9.281418,53.348074]],[[-9.277364,53.348117],[-9.276914,53.348122],[-9.276906,53.347852],[-9.277356,53.347847],[-9.277364,53.348117]],[[-9.276463,53.348127],[-9.276914,53.348122],[-9.276922,53.348391],[-9.276472,53.348396],[-9.276463,53.348127]],[[-9.276021,53.348401],[-9.276472,53.348396],[-9.27648,53.348666],[-9.276029,53.348671],[-9.276021,53.348401]],[[-9.275627,53.350293],[-9.275603,53.349484],[-9.276053,53.349479],[-9.276077,53.350288],[-9.275627,53.350293]],[[-9.27837,53.351611],[-9.27792,53.351616],[-9.277912,53.351347],[-9.278362,53.351342],[-9.27837,53.351611]],[[-9.277469,53.351621],[-9.27792,53.351616],[-9.277928,53.351886],[-9.277477,53.351891],[-9.277469,53.351621]],[[-9.275225,53.351915],[-9.275241,53.352454],[-9.27479,53.352459],[-9.274774,53.351919],[-9.274758,53.35138],[-9.275659,53.351371],[-9.275675,53.35191],[-9.275225,53.351915]],[[-9.274823,53.353537],[-9.274814,53.353267],[-9.275265,53.353262],[-9.275273,53.353532],[-9.274823,53.353537]],[[-9.278934,53.35538],[-9.278483,53.355385],[-9.278475,53.355115],[-9.278925,53.355111],[-9.278934,53.35538]],[[-9.277582,53.355395],[-9.278483,53.355385],[-9.278491,53.355654],[-9.27759,53.355664],[-9.277582,53.355395]],[[-9.27035,53.354663],[-9.270342,53.354393],[-9.270792,53.354389],[-9.2708,53.354658],[-9.27035,53.354663]],[[-9.274412,53.354889],[-9.273962,53.354894],[-9.273954,53.354624],[-9.274404,53.35462],[-9.274412,53.354889]],[[-9.259852,53.350191],[-9.259402,53.350195],[-9.259394,53.349926],[-9.259845,53.349921],[-9.259852,53.350191]],[[-9.259134,53.3564],[-9.259142,53.356669],[-9.25734,53.356688],[-9.257332,53.356419],[-9.257783,53.356414],[-9.257775,53.356144],[-9.259577,53.356125],[-9.259585,53.356395],[-9.259134,53.3564]]],[[[-9.253538,53.353551],[-9.253641,53.353493],[-9.253641,53.353491],[-9.253291,53.353495],[-9.253293,53.353547],[-9.253496,53.353558],[-9.253538,53.353551]]],[[[-9.264357,53.350143],[-9.263907,53.350148],[-9.263915,53.350417],[-9.263923,53.350687],[-9.264373,53.350682],[-9.264381,53.350952],[-9.264832,53.350947],[-9.264816,53.350408],[-9.264365,53.350412],[-9.264357,53.350143]]],[[[-9.256352,53.353733],[-9.256344,53.353463],[-9.254992,53.353477],[-9.255,53.353747],[-9.255451,53.353742],[-9.255459,53.354012],[-9.25636,53.354002],[-9.256352,53.353733]]],[[[-9.256336,53.353193],[-9.256344,53.353463],[-9.256794,53.353458],[-9.256786,53.353189],[-9.256336,53.353193]]],[[[-9.259031,53.352895],[-9.25813,53.352905],[-9.258138,53.353175],[-9.258146,53.353444],[-9.258154,53.353714],[-9.258604,53.353709],[-9.258596,53.353439],[-9.258588,53.35317],[-9.259039,53.353165],[-9.259031,53.352895]]],[[[-9.257679,53.35291],[-9.25813,53.352905],[-9.258122,53.352635],[-9.258114,53.352366],[-9.257664,53.352371],[-9.257656,53.352101],[-9.257205,53.352106],[-9.257221,53.352645],[-9.257672,53.35264],[-9.257679,53.35291]]]]}}]}
