{"type":"FeatureCollection","features":[{"type":"Feature","properties":{"source_fid":1702868,"county":"Kerry","bog_geom_ha":159.83321964950116,"low15_pct":72.942502818489288,"low15_ha":116.58635074771955,"overlay_ha":116.21206462007422,"area_delta":-0.37428612764533398},"geometry":{"type":"MultiPolygon","coordinates":[[[[-9.362166,51.934952],[-9.362052,51.934973],[-9.361963,51.935007],[-9.36192,51.935057],[-9.361914,51.935075],[-9.362934,51.935064],[-9.362931,51.934961],[-9.363154,51.934958],[-9.363147,51.934724],[-9.363115,51.934727],[-9.363071,51.934716],[-9.362931,51.934704],[-9.362781,51.934691],[-9.362678,51.934692],[-9.362413,51.934712],[-9.362359,51.934721],[-9.362312,51.934762],[-9.362274,51.934805],[-9.362239,51.934879],[-9.362211,51.934916],[-9.362166,51.934952]]],[[[-9.347495,51.93488],[-9.347436,51.934905],[-9.347387,51.93494],[-9.347287,51.934968],[-9.347162,51.935005],[-9.347169,51.935245],[-9.347196,51.936143],[-9.347696,51.936138],[-9.34769,51.935945],[-9.348126,51.93594],[-9.348132,51.936133],[-9.348649,51.936127],[-9.348668,51.936743],[-9.349023,51.936739],[-9.349031,51.937009],[-9.349039,51.937278],[-9.349047,51.937548],[-9.349483,51.937543],[-9.349491,51.937812],[-9.349494,51.937915],[-9.349993,51.937909],[-9.350027,51.937853],[-9.350068,51.937815],[-9.350122,51.937795],[-9.350134,51.937785],[-9.350143,51.937775],[-9.350141,51.93776],[-9.350129,51.937729],[-9.350135,51.937687],[-9.350163,51.937647],[-9.350159,51.937626],[-9.350135,51.937601],[-9.350133,51.937577],[-9.350147,51.93756],[-9.350202,51.937513],[-9.350235,51.937463],[-9.350238,51.937439],[-9.350218,51.937417],[-9.350169,51.937381],[-9.350158,51.937355],[-9.35017,51.937328],[-9.350183,51.937285],[-9.350172,51.937261],[-9.350148,51.937241],[-9.350118,51.937225],[-9.35008,51.937212],[-9.350078,51.937211],[-9.350051,51.937198],[-9.350039,51.937192],[-9.35003,51.937159],[-9.349995,51.937047],[-9.35003,51.93701],[-9.350059,51.936986],[-9.350031,51.936885],[-9.350001,51.936847],[-9.349953,51.936825],[-9.349938,51.936798],[-9.349933,51.936758],[-9.349956,51.936661],[-9.349948,51.936638],[-9.349933,51.936625],[-9.349904,51.93661],[-9.34986,51.93659],[-9.349809,51.936588],[-9.349721,51.936584],[-9.349663,51.936583],[-9.349583,51.936568],[-9.349539,51.936544],[-9.349516,51.936528],[-9.349505,51.936503],[-9.349508,51.936476],[-9.349497,51.936459],[-9.349471,51.936439],[-9.349448,51.936401],[-9.349416,51.936289],[-9.349404,51.936264],[-9.349367,51.936235],[-9.349272,51.936196],[-9.349184,51.936176],[-9.349199,51.936169],[-9.349191,51.936147],[-9.349136,51.936134],[-9.349085,51.936126],[-9.34907,51.936126],[-9.349048,51.936115],[-9.349026,51.936113],[-9.349008,51.93612],[-9.348998,51.936126],[-9.348987,51.936136],[-9.348951,51.936149],[-9.348915,51.93615],[-9.348867,51.936139],[-9.348856,51.936119],[-9.348778,51.936072],[-9.348738,51.936055],[-9.348733,51.936026],[-9.348743,51.93596],[-9.348785,51.935924],[-9.348817,51.935879],[-9.348784,51.935846],[-9.348742,51.935811],[-9.348721,51.935767],[-9.348731,51.935754],[-9.348751,51.935754],[-9.348776,51.935741],[-9.348812,51.935715],[-9.348831,51.935677],[-9.348814,51.935617],[-9.348822,51.935524],[-9.348835,51.935429],[-9.348804,51.935388],[-9.348766,51.935318],[-9.348789,51.93521],[-9.348772,51.935163],[-9.348631,51.935066],[-9.348537,51.935003],[-9.348396,51.934938],[-9.348283,51.93492],[-9.348189,51.934915],[-9.348032,51.934858],[-9.347904,51.934832],[-9.347819,51.934837],[-9.347759,51.934838],[-9.347664,51.934849],[-9.347613,51.934859],[-9.347554,51.934877],[-9.347495,51.93488]],[[-9.347682,51.935676],[-9.347674,51.935406],[-9.34811,51.935401],[-9.348118,51.935671],[-9.347682,51.935676]]],[[[-9.348692,51.937552],[-9.3487,51.937821],[-9.349055,51.937817],[-9.349047,51.937548],[-9.348692,51.937552]]],[[[-9.358957,51.937676],[-9.358904,51.937699],[-9.358871,51.937722],[-9.358815,51.937749],[-9.35875,51.937808],[-9.358878,51.937807],[-9.358891,51.938244],[-9.359103,51.938241],[-9.359112,51.938511],[-9.360353,51.938496],[-9.360305,51.936892],[-9.36168,51.936876],[-9.36168,51.936863],[-9.361758,51.936862],[-9.361711,51.935323],[-9.36162,51.935395],[-9.361475,51.935476],[-9.361332,51.935526],[-9.361253,51.935559],[-9.361212,51.935583],[-9.361193,51.935606],[-9.361177,51.935643],[-9.361155,51.935705],[-9.361108,51.935776],[-9.361009,51.935864],[-9.360924,51.935914],[-9.36079,51.935983],[-9.360709,51.936016],[-9.360597,51.936061],[-9.360507,51.936079],[-9.360464,51.9361],[-9.360436,51.936128],[-9.360413,51.936151],[-9.360365,51.936206],[-9.360315,51.936251],[-9.360273,51.936301],[-9.360221,51.936322],[-9.360159,51.936328],[-9.360106,51.936331],[-9.360034,51.936355],[-9.359982,51.936379],[-9.359928,51.936405],[-9.359869,51.936424],[-9.359788,51.936453],[-9.359702,51.936492],[-9.359692,51.93651],[-9.359688,51.936518],[-9.359672,51.936548],[-9.359668,51.936583],[-9.35969,51.936604],[-9.359813,51.936659],[-9.359863,51.936676],[-9.359897,51.936686],[-9.359921,51.936706],[-9.359949,51.936726],[-9.359975,51.936746],[-9.359989,51.936779],[-9.359997,51.936808],[-9.359984,51.936859],[-9.359995,51.936876],[-9.36003,51.936891],[-9.360081,51.936918],[-9.360125,51.936936],[-9.360117,51.936967],[-9.360072,51.936999],[-9.36003,51.937029],[-9.35996,51.937067],[-9.35981,51.937097],[-9.359732,51.9371],[-9.359665,51.937106],[-9.359634,51.93712],[-9.359594,51.937149],[-9.359558,51.937173],[-9.359504,51.937196],[-9.359503,51.937196],[-9.359462,51.937219],[-9.359426,51.937238],[-9.359412,51.937256],[-9.359402,51.937292],[-9.359408,51.937326],[-9.359428,51.937402],[-9.359438,51.937481],[-9.359418,51.937519],[-9.359376,51.937563],[-9.35931,51.937595],[-9.359256,51.937621],[-9.359242,51.937624],[-9.3591,51.937649],[-9.359041,51.937652],[-9.358957,51.937676]]],[[[-9.35482,51.938626],[-9.354765,51.938681],[-9.354754,51.938691],[-9.354758,51.938831],[-9.354547,51.938833],[-9.354572,51.939654],[-9.351664,51.939687],[-9.351653,51.93931],[-9.351602,51.939343],[-9.351512,51.93937],[-9.351452,51.939393],[-9.351372,51.939439],[-9.351348,51.939458],[-9.351317,51.939496],[-9.351272,51.939509],[-9.351228,51.939519],[-9.351185,51.939538],[-9.351147,51.939556],[-9.351137,51.939584],[-9.351145,51.939612],[-9.351138,51.939626],[-9.35112,51.939634],[-9.351102,51.939633],[-9.351058,51.939625],[-9.35098,51.939604],[-9.350948,51.93959],[-9.350946,51.939569],[-9.350924,51.939544],[-9.350893,51.939538],[-9.350849,51.939535],[-9.350816,51.939539],[-9.350773,51.939547],[-9.350708,51.939565],[-9.350621,51.939569],[-9.350546,51.93957],[-9.350421,51.939561],[-9.350377,51.939553],[-9.350323,51.939509],[-9.350284,51.939464],[-9.350263,51.939447],[-9.350236,51.939448],[-9.350211,51.939459],[-9.350166,51.939475],[-9.350101,51.939479],[-9.350054,51.939494],[-9.349994,51.939508],[-9.349821,51.939507],[-9.349765,51.939493],[-9.349726,51.939478],[-9.349695,51.939455],[-9.349687,51.939428],[-9.34954,51.93943],[-9.349548,51.9397],[-9.349564,51.940239],[-9.35,51.940234],[-9.350008,51.940503],[-9.350016,51.940773],[-9.349144,51.940783],[-9.349136,51.940513],[-9.348264,51.940523],[-9.348272,51.940793],[-9.347835,51.940798],[-9.347844,51.941068],[-9.347407,51.941073],[-9.347415,51.941342],[-9.346543,51.941352],[-9.346551,51.941622],[-9.346559,51.941891],[-9.346123,51.941896],[-9.346131,51.942166],[-9.345695,51.942171],[-9.345703,51.94244],[-9.345267,51.942445],[-9.345275,51.942715],[-9.344838,51.94272],[-9.344847,51.94299],[-9.34441,51.942995],[-9.344418,51.943264],[-9.34311,51.943279],[-9.343118,51.943549],[-9.341809,51.943564],[-9.341817,51.943833],[-9.340508,51.943848],[-9.340516,51.944118],[-9.338457,51.944141],[-9.338628,51.944237],[-9.338698,51.944276],[-9.339065,51.944491],[-9.339218,51.944576],[-9.339661,51.944844],[-9.340113,51.945068],[-9.340654,51.945333],[-9.341161,51.94553],[-9.341547,51.945708],[-9.341919,51.94588],[-9.342182,51.945936],[-9.342627,51.945982],[-9.344499,51.94596],[-9.344467,51.944882],[-9.344031,51.944887],[-9.344022,51.944617],[-9.343998,51.943808],[-9.344435,51.943803],[-9.344459,51.944612],[-9.344895,51.944607],[-9.344903,51.944877],[-9.344935,51.945955],[-9.345019,51.945954],[-9.345241,51.945882],[-9.345369,51.945858],[-9.345363,51.945681],[-9.3458,51.945676],[-9.345792,51.945406],[-9.346228,51.945401],[-9.34622,51.945131],[-9.346656,51.945126],[-9.346648,51.944857],[-9.34664,51.944587],[-9.346204,51.944592],[-9.346196,51.944323],[-9.347504,51.944308],[-9.347496,51.944038],[-9.348369,51.944028],[-9.348361,51.943759],[-9.350106,51.943739],[-9.350097,51.943469],[-9.351406,51.943454],[-9.351414,51.943724],[-9.350542,51.943734],[-9.35055,51.944003],[-9.349677,51.944013],[-9.349685,51.944283],[-9.348377,51.944298],[-9.348385,51.944567],[-9.348821,51.944562],[-9.348829,51.944832],[-9.350017,51.944818],[-9.350359,51.944728],[-9.350478,51.944699],[-9.350667,51.944668],[-9.350858,51.944635],[-9.351286,51.94457],[-9.351439,51.94455],[-9.351439,51.944532],[-9.351577,51.944531],[-9.351659,51.94452],[-9.351797,51.944505],[-9.351941,51.944481],[-9.352039,51.944471],[-9.352387,51.944414],[-9.352633,51.944371],[-9.35264,51.944371],[-9.352997,51.944237],[-9.35318,51.944175],[-9.353655,51.943984],[-9.35425,51.943769],[-9.354768,51.94356],[-9.35526,51.943339],[-9.3557,51.943173],[-9.356077,51.943017],[-9.356256,51.942905],[-9.356295,51.942867],[-9.356421,51.942814],[-9.356546,51.942743],[-9.356705,51.942678],[-9.3568,51.9426],[-9.356851,51.942569],[-9.356998,51.942505],[-9.35706,51.94247],[-9.357228,51.942377],[-9.357439,51.942244],[-9.357765,51.942194],[-9.358092,51.942191],[-9.358593,51.942188],[-9.358688,51.94219],[-9.358924,51.942199],[-9.359226,51.9422],[-9.359422,51.942198],[-9.359651,51.942183],[-9.359683,51.942169],[-9.35976,51.942168],[-9.359872,51.942167],[-9.360181,51.942175],[-9.360509,51.942179],[-9.360963,51.942174],[-9.361373,51.94215],[-9.361403,51.94215],[-9.361399,51.94199],[-9.36358,51.941965],[-9.363584,51.942119],[-9.363763,51.942102],[-9.363979,51.942077],[-9.364202,51.942042],[-9.364437,51.942012],[-9.364884,51.941983],[-9.365253,51.941946],[-9.365801,51.941898],[-9.366185,51.941838],[-9.366194,51.941836],[-9.366189,51.941665],[-9.36618,51.941396],[-9.366617,51.94139],[-9.366625,51.94166],[-9.367055,51.941655],[-9.367403,51.941595],[-9.367495,51.941577],[-9.367489,51.94138],[-9.368362,51.94137],[-9.368353,51.941101],[-9.368345,51.940831],[-9.368781,51.940826],[-9.368773,51.940556],[-9.369141,51.940552],[-9.369108,51.939486],[-9.369177,51.939485],[-9.369176,51.939473],[-9.369613,51.939468],[-9.369604,51.939198],[-9.369168,51.939203],[-9.369152,51.938664],[-9.369588,51.938659],[-9.369555,51.937581],[-9.369119,51.937586],[-9.369127,51.937855],[-9.368691,51.93786],[-9.368699,51.93813],[-9.368263,51.938135],[-9.368271,51.938405],[-9.367835,51.93841],[-9.367827,51.93814],[-9.367819,51.937871],[-9.368255,51.937865],[-9.368247,51.937596],[-9.368683,51.937591],[-9.368675,51.937321],[-9.369111,51.937316],[-9.369103,51.937047],[-9.368666,51.937052],[-9.368659,51.936795],[-9.368222,51.9368],[-9.36823,51.937057],[-9.367794,51.937062],[-9.367802,51.937331],[-9.367366,51.937336],[-9.367358,51.937067],[-9.36735,51.93681],[-9.366119,51.936824],[-9.366092,51.935926],[-9.367545,51.935909],[-9.367518,51.93501],[-9.368971,51.934994],[-9.368944,51.934095],[-9.366396,51.934125],[-9.366404,51.934381],[-9.366045,51.934385],[-9.366064,51.935027],[-9.365551,51.935033],[-9.365564,51.935469],[-9.365572,51.935739],[-9.365136,51.935744],[-9.365144,51.936014],[-9.364708,51.936019],[-9.364716,51.936288],[-9.36428,51.936293],[-9.364288,51.936563],[-9.363852,51.936568],[-9.36386,51.936838],[-9.363869,51.937107],[-9.36322,51.937115],[-9.363228,51.937384],[-9.364313,51.937372],[-9.364321,51.937641],[-9.363885,51.937646],[-9.363893,51.937916],[-9.363244,51.937924],[-9.363266,51.938655],[-9.363043,51.938657],[-9.363045,51.938735],[-9.362609,51.93874],[-9.362617,51.93901],[-9.362181,51.939015],[-9.362189,51.939284],[-9.361831,51.939288],[-9.36184,51.93957],[-9.361762,51.939571],[-9.361769,51.939829],[-9.361333,51.939834],[-9.361341,51.940103],[-9.360905,51.940108],[-9.360897,51.939839],[-9.360889,51.939581],[-9.358272,51.939611],[-9.35828,51.939869],[-9.357844,51.939874],[-9.357852,51.940143],[-9.359597,51.940123],[-9.359605,51.940393],[-9.360041,51.940388],[-9.360057,51.940927],[-9.359185,51.940937],[-9.359169,51.940398],[-9.358732,51.940403],[-9.358741,51.940673],[-9.358304,51.940678],[-9.358312,51.940947],[-9.357876,51.940952],[-9.357884,51.941222],[-9.357448,51.941227],[-9.357456,51.941496],[-9.35702,51.941501],[-9.357012,51.941232],[-9.357004,51.940962],[-9.356996,51.940693],[-9.356988,51.940423],[-9.356979,51.940154],[-9.356543,51.940159],[-9.35656,51.940698],[-9.356568,51.940967],[-9.356576,51.941237],[-9.35614,51.941242],[-9.356131,51.940972],[-9.355695,51.940977],[-9.355687,51.940708],[-9.353942,51.940728],[-9.35395,51.940997],[-9.353514,51.941002],[-9.353506,51.940733],[-9.35307,51.940738],[-9.353054,51.940199],[-9.353046,51.939929],[-9.353482,51.939924],[-9.35349,51.940194],[-9.353926,51.940189],[-9.353918,51.939919],[-9.354354,51.939914],[-9.354362,51.940184],[-9.354798,51.940179],[-9.35479,51.939909],[-9.354782,51.939639],[-9.354774,51.93937],[-9.35521,51.939365],[-9.355202,51.939095],[-9.356009,51.939086],[-9.355998,51.938739],[-9.357452,51.938722],[-9.357433,51.938095],[-9.357431,51.938098],[-9.357395,51.938103],[-9.357362,51.938098],[-9.357333,51.938097],[-9.357308,51.9381],[-9.357259,51.938112],[-9.357219,51.938133],[-9.357152,51.938159],[-9.357007,51.938203],[-9.356841,51.93825],[-9.356772,51.93826],[-9.356715,51.938259],[-9.356615,51.938242],[-9.356581,51.938236],[-9.356555,51.938227],[-9.356519,51.938219],[-9.356496,51.938223],[-9.356478,51.938236],[-9.356443,51.938266],[-9.356409,51.938332],[-9.356361,51.938386],[-9.356334,51.938429],[-9.356302,51.938482],[-9.356275,51.938528],[-9.356256,51.938544],[-9.356233,51.938552],[-9.356185,51.938556],[-9.356159,51.938552],[-9.356126,51.938534],[-9.356118,51.938515],[-9.356107,51.938499],[-9.35611,51.938483],[-9.35613,51.938464],[-9.356149,51.938455],[-9.356151,51.938443],[-9.356126,51.938422],[-9.355991,51.938358],[-9.355895,51.938351],[-9.355772,51.938366],[-9.355662,51.938375],[-9.355617,51.938389],[-9.355622,51.938551],[-9.35501,51.938558],[-9.355001,51.938561],[-9.354937,51.938581],[-9.354881,51.938599],[-9.354838,51.938602],[-9.35482,51.938626]],[[-9.356148,51.941512],[-9.35702,51.941501],[-9.357028,51.941771],[-9.356156,51.941781],[-9.356148,51.941512]],[[-9.365185,51.937362],[-9.364313,51.937372],[-9.364305,51.937102],[-9.364741,51.937097],[-9.364733,51.936828],[-9.365605,51.936817],[-9.365613,51.937087],[-9.365177,51.937092],[-9.365185,51.937362]],[[-9.345283,51.942985],[-9.345275,51.942715],[-9.346583,51.9427],[-9.346575,51.942431],[-9.347884,51.942416],[-9.347892,51.942685],[-9.3479,51.942955],[-9.346155,51.942975],[-9.346163,51.943244],[-9.345727,51.943249],[-9.345719,51.94298],[-9.345283,51.942985]],[[-9.367876,51.939758],[-9.367868,51.939488],[-9.368304,51.939483],[-9.368312,51.939753],[-9.367876,51.939758]],[[-9.360074,51.941466],[-9.359637,51.941471],[-9.359629,51.941202],[-9.360065,51.941197],[-9.360074,51.941466]],[[-9.359201,51.941476],[-9.359637,51.941471],[-9.359654,51.94201],[-9.359217,51.942016],[-9.359201,51.941476]],[[-9.349168,51.941592],[-9.349176,51.941861],[-9.34874,51.941866],[-9.348732,51.941597],[-9.34786,51.941607],[-9.347852,51.941337],[-9.348288,51.941332],[-9.34828,51.941063],[-9.348716,51.941058],[-9.348724,51.941327],[-9.34916,51.941322],[-9.349168,51.941592]],[[-9.353571,51.94289],[-9.350954,51.94292],[-9.350962,51.943189],[-9.349217,51.943209],[-9.349225,51.943479],[-9.348789,51.943484],[-9.348781,51.943214],[-9.348773,51.942945],[-9.350081,51.94293],[-9.350073,51.94266],[-9.350065,51.942391],[-9.350501,51.942386],[-9.350509,51.942655],[-9.351382,51.942645],[-9.351374,51.942376],[-9.352246,51.942365],[-9.352254,51.942635],[-9.353563,51.94262],[-9.353571,51.94289]],[[-9.345751,51.944058],[-9.345743,51.943788],[-9.346616,51.943778],[-9.346624,51.944048],[-9.345751,51.944058]],[[-9.340961,51.944382],[-9.340953,51.944113],[-9.341825,51.944103],[-9.341833,51.944372],[-9.341397,51.944377],[-9.341405,51.944647],[-9.340533,51.944657],[-9.340524,51.944387],[-9.340961,51.944382]],[[-9.343166,51.945166],[-9.342294,51.945176],[-9.342286,51.944907],[-9.343158,51.944897],[-9.343166,51.945166]],[[-9.341857,51.945181],[-9.342294,51.945176],[-9.342302,51.945446],[-9.341865,51.945451],[-9.341857,51.945181]]],[[[-9.337985,51.943877],[-9.338333,51.944072],[-9.338327,51.943873],[-9.337985,51.943877]]],[[[-9.336166,51.942953],[-9.33656,51.943159],[-9.336558,51.943084],[-9.336994,51.943079],[-9.336986,51.942809],[-9.338295,51.942795],[-9.338287,51.942525],[-9.338723,51.94252],[-9.338715,51.94225],[-9.339588,51.942241],[-9.33958,51.941971],[-9.340016,51.941966],[-9.340008,51.941696],[-9.34088,51.941686],[-9.340872,51.941417],[-9.341309,51.941412],[-9.3413,51.941142],[-9.341292,51.940873],[-9.342165,51.940863],[-9.342157,51.940593],[-9.343029,51.940583],[-9.343021,51.940314],[-9.343894,51.940304],[-9.343885,51.940034],[-9.344322,51.940029],[-9.34433,51.940299],[-9.344338,51.940568],[-9.343902,51.940573],[-9.34391,51.940843],[-9.344782,51.940833],[-9.344774,51.940563],[-9.34521,51.940558],[-9.345202,51.940289],[-9.345186,51.939749],[-9.346058,51.93974],[-9.34605,51.93947],[-9.346923,51.93946],[-9.346915,51.93919],[-9.347351,51.939185],[-9.347343,51.938916],[-9.346907,51.938921],[-9.346904,51.938843],[-9.346468,51.938848],[-9.34647,51.938926],[-9.346034,51.938931],[-9.346042,51.9392],[-9.344734,51.939215],[-9.344742,51.939485],[-9.344306,51.93949],[-9.344297,51.93922],[-9.344289,51.938951],[-9.344726,51.938946],[-9.344718,51.938676],[-9.34559,51.938666],[-9.345582,51.938397],[-9.345809,51.938394],[-9.345796,51.937957],[-9.344342,51.937974],[-9.344285,51.936065],[-9.343982,51.936154],[-9.342907,51.936544],[-9.342319,51.936756],[-9.342317,51.936756],[-9.342198,51.936799],[-9.341539,51.937037],[-9.340494,51.937382],[-9.340286,51.937458],[-9.339716,51.937666],[-9.338446,51.938118],[-9.337727,51.938349],[-9.337731,51.938486],[-9.337284,51.938491],[-9.334269,51.939459],[-9.334273,51.939604],[-9.334281,51.939874],[-9.334717,51.939869],[-9.334725,51.940138],[-9.335598,51.940128],[-9.335606,51.940398],[-9.335614,51.940668],[-9.335622,51.940937],[-9.336494,51.940927],[-9.336502,51.941197],[-9.335194,51.941212],[-9.335186,51.940942],[-9.333441,51.940962],[-9.333449,51.941231],[-9.333012,51.941236],[-9.333019,51.941461],[-9.333126,51.94151],[-9.334672,51.942255],[-9.335063,51.942435],[-9.336166,51.942953]],[[-9.336938,51.941192],[-9.337811,51.941182],[-9.337819,51.941452],[-9.336946,51.941461],[-9.336938,51.941192]]],[[[-9.331599,51.940811],[-9.331965,51.940979],[-9.332132,51.940977],[-9.332124,51.940707],[-9.332116,51.940437],[-9.332552,51.940433],[-9.332544,51.940163],[-9.332184,51.940167],[-9.331186,51.940523],[-9.331052,51.940553],[-9.331599,51.940811]]],[[[-9.348649,51.938823],[-9.348213,51.938828],[-9.348215,51.938906],[-9.348651,51.938901],[-9.348649,51.938823]]],[[[-9.350135,51.938806],[-9.349958,51.938808],[-9.34996,51.938886],[-9.349963,51.938988],[-9.349994,51.938945],[-9.35004,51.938873],[-9.350135,51.938806]]],[[[-9.343522,51.942465],[-9.343958,51.94246],[-9.34395,51.942191],[-9.344386,51.942186],[-9.344378,51.941916],[-9.344814,51.941911],[-9.344806,51.941642],[-9.345242,51.941637],[-9.345234,51.941367],[-9.343926,51.941382],[-9.343934,51.941652],[-9.343498,51.941657],[-9.343506,51.941926],[-9.343069,51.941931],[-9.343078,51.942201],[-9.341333,51.942221],[-9.341341,51.94249],[-9.340904,51.942495],[-9.340912,51.942765],[-9.34004,51.942775],[-9.340048,51.943044],[-9.339612,51.943049],[-9.33962,51.943319],[-9.338747,51.943329],[-9.338755,51.943598],[-9.338763,51.943868],[-9.339636,51.943858],[-9.339628,51.943589],[-9.340937,51.943574],[-9.340929,51.943304],[-9.341801,51.943294],[-9.341793,51.943024],[-9.343102,51.94301],[-9.343094,51.94274],[-9.34353,51.942735],[-9.343522,51.942465]]],[[[-9.332568,51.940972],[-9.333441,51.940962],[-9.333433,51.940692],[-9.333869,51.940687],[-9.333861,51.940418],[-9.332989,51.940428],[-9.332997,51.940697],[-9.33256,51.940702],[-9.332568,51.940972]]]]}}]}
