{"type":"FeatureCollection","features":[{"type":"Feature","properties":{"source_fid":1722358,"county":"Offaly","bog_geom_ha":216.69652239448683,"low15_pct":100.0,"low15_ha":216.69652239448683,"overlay_ha":216.69652239448683,"area_delta":0.0},"geometry":{"type":"MultiPolygon","coordinates":[[[[-7.835451,53.176788],[-7.835447,53.176788],[-7.835445,53.176787],[-7.835253,53.176763],[-7.834742,53.1767],[-7.834257,53.17664],[-7.834226,53.176652],[-7.83419,53.176665],[-7.83398,53.176759],[-7.83398,53.176759],[-7.83398,53.176759],[-7.833743,53.176865],[-7.839498,53.185349],[-7.84005,53.186162],[-7.84134,53.187895],[-7.842332,53.189228],[-7.844332,53.192666],[-7.845972,53.1923],[-7.849,53.196941],[-7.849853,53.196729],[-7.850344,53.196604],[-7.851116,53.19641],[-7.851779,53.196239],[-7.852621,53.196032],[-7.854297,53.195626],[-7.855127,53.195414],[-7.855961,53.195207],[-7.85679,53.195004],[-7.857619,53.194785],[-7.858454,53.194588],[-7.860166,53.194143],[-7.859788,53.193189],[-7.859325,53.192006],[-7.858904,53.190968],[-7.858713,53.190518],[-7.858626,53.190294],[-7.858621,53.19028],[-7.858564,53.190144],[-7.858456,53.189876],[-7.85835,53.189633],[-7.858146,53.189148],[-7.857953,53.188648],[-7.857737,53.188124],[-7.85763,53.187838],[-7.857471,53.187381],[-7.857278,53.186912],[-7.857102,53.186448],[-7.856913,53.185984],[-7.856735,53.185522],[-7.856676,53.185371],[-7.856552,53.185061],[-7.856551,53.18506],[-7.856551,53.18506],[-7.856551,53.18506],[-7.856386,53.184633],[-7.856386,53.184633],[-7.856371,53.184593],[-7.856195,53.184124],[-7.856002,53.183657],[-7.855826,53.183189],[-7.855637,53.182731],[-7.855471,53.182262],[-7.855278,53.181792],[-7.855106,53.181326],[-7.854925,53.180871],[-7.854761,53.180409],[-7.85457,53.179938],[-7.854392,53.179469],[-7.854246,53.179114],[-7.853205,53.178991],[-7.851959,53.178831],[-7.851177,53.178742],[-7.850406,53.178643],[-7.85001,53.178592],[-7.849325,53.1785],[-7.848635,53.178415],[-7.84795,53.178329],[-7.847264,53.178241],[-7.846576,53.178148],[-7.845909,53.178076],[-7.845219,53.177981],[-7.84457,53.177896],[-7.843886,53.177812],[-7.84323,53.177726],[-7.842531,53.177632],[-7.841862,53.177548],[-7.8405,53.177384],[-7.839811,53.177295],[-7.83912,53.177224],[-7.838428,53.177134],[-7.837732,53.177052],[-7.837037,53.176959],[-7.836986,53.176979],[-7.836965,53.177042],[-7.836898,53.177069],[-7.836649,53.17713],[-7.836596,53.177156],[-7.836593,53.177168],[-7.836592,53.177223],[-7.836571,53.177225],[-7.83655,53.177219],[-7.836484,53.1772],[-7.836452,53.177195],[-7.83641,53.177193],[-7.836291,53.177202],[-7.836266,53.177206],[-7.836175,53.177244],[-7.836101,53.177281],[-7.836044,53.177317],[-7.835981,53.17738],[-7.835872,53.17742],[-7.835791,53.177448],[-7.835742,53.177454],[-7.835703,53.177456],[-7.835577,53.177437],[-7.835503,53.177434],[-7.835444,53.177436],[-7.835423,53.177451],[-7.835419,53.177479],[-7.835398,53.1775],[-7.835363,53.177519],[-7.835328,53.177523],[-7.835286,53.177516],[-7.835233,53.177504],[-7.835212,53.177483],[-7.835202,53.177455],[-7.835198,53.177451],[-7.835181,53.177432],[-7.835167,53.177411],[-7.835094,53.177265],[-7.835009,53.177238],[-7.834971,53.17724],[-7.834894,53.177246],[-7.834876,53.177248],[-7.834816,53.17724],[-7.834729,53.177204],[-7.834743,53.177185],[-7.834715,53.177163],[-7.834666,53.17713],[-7.834722,53.177109],[-7.834726,53.177056],[-7.834652,53.177009],[-7.834708,53.177001],[-7.834744,53.177001],[-7.834912,53.17705],[-7.835028,53.177082],[-7.835206,53.177095],[-7.835677,53.177083],[-7.835772,53.177072],[-7.835803,53.177026],[-7.835807,53.176992],[-7.835811,53.176971],[-7.835762,53.176935],[-7.835451,53.176788]]]]}}]}
