{"type":"FeatureCollection","features":[{"type":"Feature","properties":{"source_fid":1728549,"county":"Leitrim","bog_geom_ha":198.56503615075979,"low15_pct":61.675011379153389,"low15_ha":122.46500864100115,"overlay_ha":122.60676426815363,"area_delta":0.14175562715247736},"geometry":{"type":"MultiPolygon","coordinates":[[[[-7.913029,54.125712],[-7.912972,54.125147],[-7.912972,54.125147],[-7.912913,54.125162],[-7.912477,54.125303],[-7.912433,54.125317],[-7.912433,54.125317],[-7.912441,54.125346],[-7.912448,54.125407],[-7.912457,54.125481],[-7.912447,54.125516],[-7.91241,54.125562],[-7.912363,54.125622],[-7.91229,54.125692],[-7.912254,54.125726],[-7.912034,54.125863],[-7.911939,54.125919],[-7.911809,54.125996],[-7.911718,54.126049],[-7.911585,54.126126],[-7.911303,54.126282],[-7.911284,54.126291],[-7.911273,54.126295],[-7.911157,54.126348],[-7.91107,54.126388],[-7.910846,54.126476],[-7.91061,54.126563],[-7.910435,54.126606],[-7.910346,54.12664],[-7.910318,54.126646],[-7.91029,54.126653],[-7.91002,54.126681],[-7.909759,54.126694],[-7.909653,54.1267],[-7.909667,54.126757],[-7.909768,54.127159],[-7.910339,54.127107],[-7.910784,54.126941],[-7.911442,54.126723],[-7.911815,54.12655],[-7.91211,54.126444],[-7.912499,54.126271],[-7.913029,54.125712]],[[-7.911375,54.126297],[-7.911476,54.126238],[-7.91159,54.126174],[-7.911907,54.126364],[-7.911584,54.126518],[-7.911511,54.126474],[-7.911366,54.126389],[-7.911284,54.12634],[-7.911342,54.126316],[-7.911375,54.126297]],[[-7.912743,54.125793],[-7.912606,54.125943],[-7.912552,54.125923],[-7.912422,54.125877],[-7.912306,54.125835],[-7.912255,54.125822],[-7.912207,54.125812],[-7.912246,54.125788],[-7.912308,54.12575],[-7.912346,54.125713],[-7.912384,54.125677],[-7.912458,54.125703],[-7.912743,54.125793]],[[-7.910645,54.126597],[-7.910756,54.126555],[-7.910835,54.126526],[-7.910872,54.126567],[-7.911017,54.126722],[-7.910751,54.126813],[-7.910677,54.126731],[-7.910602,54.126648],[-7.910573,54.126614],[-7.910645,54.126597]],[[-7.910419,54.126727],[-7.910524,54.126869],[-7.910268,54.126935],[-7.910173,54.126787],[-7.910419,54.126727]]],[[[-7.93455,54.136296],[-7.934812,54.136224],[-7.934812,54.136206],[-7.934353,54.136206],[-7.934354,54.135936],[-7.934813,54.135937],[-7.934813,54.135667],[-7.935272,54.135667],[-7.935273,54.135398],[-7.935273,54.135128],[-7.935732,54.135128],[-7.935732,54.135398],[-7.936097,54.135398],[-7.936095,54.135315],[-7.936082,54.135301],[-7.936077,54.135299],[-7.93605,54.135289],[-7.936028,54.135277],[-7.936012,54.135263],[-7.935993,54.135247],[-7.935988,54.135238],[-7.935985,54.135231],[-7.935985,54.135231],[-7.935985,54.135231],[-7.935985,54.135231],[-7.935989,54.135182],[-7.935989,54.135182],[-7.935989,54.135182],[-7.936019,54.135121],[-7.936019,54.135089],[-7.936018,54.135086],[-7.936014,54.135072],[-7.935979,54.135009],[-7.935974,54.134993],[-7.935973,54.134991],[-7.935973,54.134991],[-7.935973,54.134991],[-7.935964,54.134939],[-7.935963,54.134937],[-7.935948,54.134927],[-7.935834,54.134908],[-7.935806,54.1349],[-7.935754,54.13488],[-7.935726,54.134874],[-7.935691,54.134869],[-7.935665,54.134865],[-7.935651,54.134857],[-7.935646,54.134854],[-7.935634,54.134828],[-7.935634,54.134828],[-7.935634,54.134828],[-7.935635,54.134817],[-7.935636,54.134811],[-7.935651,54.13479],[-7.935697,54.134747],[-7.935762,54.134699],[-7.935767,54.134683],[-7.935752,54.134656],[-7.935736,54.134642],[-7.935694,54.134621],[-7.935678,54.134614],[-7.935595,54.134571],[-7.935581,54.134557],[-7.93558,54.134556],[-7.935568,54.134519],[-7.935527,54.134482],[-7.935489,54.134463],[-7.935475,54.134462],[-7.935463,54.13446],[-7.935397,54.134472],[-7.935368,54.134471],[-7.93534,54.134465],[-7.93531,54.134458],[-7.935296,54.134446],[-7.935296,54.134424],[-7.935297,54.134386],[-7.935297,54.134364],[-7.935288,54.134348],[-7.935252,54.134316],[-7.93525,54.134313],[-7.93524,54.1343],[-7.935212,54.134247],[-7.935209,54.13423],[-7.935215,54.134194],[-7.935226,54.134178],[-7.935232,54.134174],[-7.93525,54.134161],[-7.935256,54.134149],[-7.935262,54.134136],[-7.93526,54.13412],[-7.93526,54.134119],[-7.935249,54.134108],[-7.935231,54.1341],[-7.935228,54.134098],[-7.935164,54.134088],[-7.935142,54.134079],[-7.93509,54.134059],[-7.935058,54.134032],[-7.935051,54.134017],[-7.93505,54.134016],[-7.935053,54.133966],[-7.935048,54.133948],[-7.935028,54.133921],[-7.935015,54.133913],[-7.935008,54.133909],[-7.934975,54.1339],[-7.934937,54.13389],[-7.934926,54.13388],[-7.934922,54.133877],[-7.934922,54.133877],[-7.934922,54.133877],[-7.934919,54.13385],[-7.934916,54.133829],[-7.934916,54.133829],[-7.934916,54.133829],[-7.93492,54.133823],[-7.934925,54.133813],[-7.93496,54.133789],[-7.934961,54.133786],[-7.934967,54.133773],[-7.93495,54.133699],[-7.93495,54.133699],[-7.93495,54.133699],[-7.934954,54.133653],[-7.934948,54.133636],[-7.934921,54.133605],[-7.934901,54.133592],[-7.934844,54.133571],[-7.934832,54.133563],[-7.934824,54.133558],[-7.93477,54.133507],[-7.93471,54.133417],[-7.934706,54.133401],[-7.93469,54.133337],[-7.93469,54.133337],[-7.93469,54.133337],[-7.934694,54.133313],[-7.934699,54.133282],[-7.934741,54.133241],[-7.934743,54.133225],[-7.934721,54.133192],[-7.934709,54.133174],[-7.934697,54.133154],[-7.934685,54.133147],[-7.934678,54.133143],[-7.93461,54.133131],[-7.934522,54.133124],[-7.934503,54.133114],[-7.934491,54.133082],[-7.934491,54.133082],[-7.934491,54.133082],[-7.934516,54.133034],[-7.934562,54.13299],[-7.934608,54.132971],[-7.934624,54.132957],[-7.934638,54.132924],[-7.934636,54.132907],[-7.934598,54.132844],[-7.934599,54.132833],[-7.934599,54.132827],[-7.934612,54.132811],[-7.934626,54.132794],[-7.934681,54.132729],[-7.934684,54.132717],[-7.934691,54.132689],[-7.934685,54.132673],[-7.934681,54.132669],[-7.93464,54.132632],[-7.934579,54.132581],[-7.934544,54.132556],[-7.934539,54.132546],[-7.934535,54.13254],[-7.934535,54.13254],[-7.934535,54.13254],[-7.934536,54.132537],[-7.934538,54.132522],[-7.934533,54.132504],[-7.934508,54.132467],[-7.934508,54.132467],[-7.934508,54.132467],[-7.93451,54.13246],[-7.934513,54.132453],[-7.934528,54.132444],[-7.934533,54.132441],[-7.934545,54.132437],[-7.934559,54.132433],[-7.934563,54.132432],[-7.934359,54.132432],[-7.93436,54.131893],[-7.933901,54.131893],[-7.933901,54.132162],[-7.933442,54.132162],[-7.933441,54.132432],[-7.932982,54.132431],[-7.932981,54.13297],[-7.93344,54.132971],[-7.93344,54.13324],[-7.933439,54.134049],[-7.933898,54.134049],[-7.933897,54.134319],[-7.934356,54.134319],[-7.934356,54.134589],[-7.934815,54.134589],[-7.934814,54.134858],[-7.934355,54.134858],[-7.934355,54.135397],[-7.934354,54.135667],[-7.933895,54.135667],[-7.933895,54.135397],[-7.933436,54.135397],[-7.933437,54.134858],[-7.933438,54.134588],[-7.933438,54.134319],[-7.932979,54.134318],[-7.93298,54.134049],[-7.93252,54.134048],[-7.932522,54.13324],[-7.932063,54.133239],[-7.932062,54.133509],[-7.931603,54.133509],[-7.931604,54.133239],[-7.931604,54.13297],[-7.932063,54.13297],[-7.932064,54.132431],[-7.932065,54.132161],[-7.931146,54.132161],[-7.931147,54.131891],[-7.930229,54.131891],[-7.930229,54.131621],[-7.92977,54.131621],[-7.929771,54.131351],[-7.928853,54.131351],[-7.928853,54.131081],[-7.929312,54.131081],[-7.929313,54.130542],[-7.928395,54.130542],[-7.928396,54.130272],[-7.927937,54.130272],[-7.927936,54.130541],[-7.926559,54.130541],[-7.92656,54.130271],[-7.925183,54.13027],[-7.925183,54.130001],[-7.923347,54.129999],[-7.923348,54.12973],[-7.922889,54.12973],[-7.922889,54.12946],[-7.92243,54.12946],[-7.922431,54.12919],[-7.924726,54.129192],[-7.924725,54.129461],[-7.925184,54.129461],[-7.925185,54.129192],[-7.925185,54.128922],[-7.925185,54.128653],[-7.925186,54.128383],[-7.92794,54.128385],[-7.927939,54.128654],[-7.927021,54.128654],[-7.927021,54.128923],[-7.926562,54.128923],[-7.926561,54.129193],[-7.925643,54.129192],[-7.925643,54.129462],[-7.925643,54.129731],[-7.927938,54.129733],[-7.927938,54.129463],[-7.928397,54.129463],[-7.928397,54.129194],[-7.928856,54.129194],[-7.928856,54.129464],[-7.929315,54.129464],[-7.929314,54.129733],[-7.929314,54.130003],[-7.930232,54.130004],[-7.930233,54.129464],[-7.931151,54.129465],[-7.931151,54.129195],[-7.931153,54.128117],[-7.931612,54.128117],[-7.931613,54.127578],[-7.930695,54.127578],[-7.930695,54.127847],[-7.930694,54.128117],[-7.930235,54.128117],[-7.930236,54.127847],[-7.927023,54.127845],[-7.927023,54.127576],[-7.927024,54.127306],[-7.926565,54.127306],[-7.926564,54.127575],[-7.926105,54.127575],[-7.926106,54.127305],[-7.926106,54.127036],[-7.925188,54.127035],[-7.925188,54.127305],[-7.924729,54.127305],[-7.924729,54.127035],[-7.923811,54.127034],[-7.923811,54.127304],[-7.923811,54.127574],[-7.924269,54.127574],[-7.924269,54.127843],[-7.924268,54.128113],[-7.92381,54.128113],[-7.923809,54.128382],[-7.92335,54.128382],[-7.923351,54.128112],[-7.923351,54.127843],[-7.922433,54.127842],[-7.922433,54.128112],[-7.921974,54.128111],[-7.921974,54.127842],[-7.921515,54.127842],[-7.921516,54.127572],[-7.921057,54.127572],[-7.921057,54.127302],[-7.91968,54.127301],[-7.919681,54.127032],[-7.919681,54.126762],[-7.918763,54.126761],[-7.918764,54.126492],[-7.917387,54.126491],[-7.917386,54.126761],[-7.91601,54.12676],[-7.91601,54.12649],[-7.915551,54.12649],[-7.915552,54.12622],[-7.915552,54.125951],[-7.915553,54.125681],[-7.915094,54.125681],[-7.915094,54.125411],[-7.914635,54.125411],[-7.914636,54.125141],[-7.913718,54.125141],[-7.913719,54.124962],[-7.913468,54.125029],[-7.913207,54.125107],[-7.913224,54.125367],[-7.913292,54.125573],[-7.913309,54.125679],[-7.913717,54.12568],[-7.913716,54.125949],[-7.913355,54.125949],[-7.91338,54.126092],[-7.913455,54.126381],[-7.913514,54.126674],[-7.91358,54.127009],[-7.91365,54.127349],[-7.913716,54.1277],[-7.913774,54.127943],[-7.91384,54.12796],[-7.913911,54.128271],[-7.913982,54.128538],[-7.914041,54.128775],[-7.914073,54.128848],[-7.914038,54.128962],[-7.914005,54.129001],[-7.914066,54.129066],[-7.913986,54.129228],[-7.91387,54.12956],[-7.913712,54.129981],[-7.91358,54.130305],[-7.913558,54.130387],[-7.913559,54.130389],[-7.913557,54.13039],[-7.913555,54.130401],[-7.913516,54.130545],[-7.913472,54.130641],[-7.91343,54.130736],[-7.913371,54.130867],[-7.913277,54.131159],[-7.913189,54.131232],[-7.913134,54.131377],[-7.913157,54.131508],[-7.913139,54.131658],[-7.913028,54.13191],[-7.91291,54.132149],[-7.913245,54.132149],[-7.913244,54.132419],[-7.914162,54.132419],[-7.914161,54.132689],[-7.914161,54.132958],[-7.913702,54.132958],[-7.913702,54.132689],[-7.912697,54.132688],[-7.912638,54.132807],[-7.912615,54.132989],[-7.912576,54.1331],[-7.91253,54.133219],[-7.912465,54.13347],[-7.912388,54.133668],[-7.912379,54.133689],[-7.91235,54.133763],[-7.912349,54.133767],[-7.9123,54.133915],[-7.912296,54.133926],[-7.912294,54.133933],[-7.912251,54.134034],[-7.912418,54.134195],[-7.912737,54.134436],[-7.913036,54.134656],[-7.913208,54.134785],[-7.913318,54.134848],[-7.913461,54.134965],[-7.913464,54.134968],[-7.913508,54.135007],[-7.913519,54.135016],[-7.91358,54.13508],[-7.913698,54.135177],[-7.913615,54.135223],[-7.91359,54.135291],[-7.913704,54.135349],[-7.913822,54.135483],[-7.914064,54.135673],[-7.914155,54.135757],[-7.914155,54.135654],[-7.914614,54.135655],[-7.914613,54.136194],[-7.915072,54.136194],[-7.915072,54.136464],[-7.915531,54.136464],[-7.91553,54.136733],[-7.91553,54.137003],[-7.915989,54.137003],[-7.915988,54.137266],[-7.920121,54.136945],[-7.920121,54.136737],[-7.919662,54.136736],[-7.919663,54.136467],[-7.919203,54.136466],[-7.919204,54.136197],[-7.920122,54.136197],[-7.920122,54.136467],[-7.92104,54.136468],[-7.921039,54.136737],[-7.921498,54.136737],[-7.921498,54.136838],[-7.922356,54.136771],[-7.922355,54.13678],[-7.922361,54.136797],[-7.922372,54.13681],[-7.92239,54.136824],[-7.922469,54.136861],[-7.922483,54.136876],[-7.922501,54.136942],[-7.922507,54.137059],[-7.922519,54.137074],[-7.92257,54.137103],[-7.922585,54.137118],[-7.922605,54.13717],[-7.922596,54.137231],[-7.922573,54.137264],[-7.922568,54.137281],[-7.922573,54.137319],[-7.922583,54.137335],[-7.922615,54.137362],[-7.922636,54.137405],[-7.922638,54.137464],[-7.922647,54.137481],[-7.922684,54.137512],[-7.922705,54.137547],[-7.922874,54.137547],[-7.922875,54.137278],[-7.923334,54.137278],[-7.923333,54.137547],[-7.924251,54.137548],[-7.924251,54.137818],[-7.92471,54.137818],[-7.92471,54.137548],[-7.925629,54.137549],[-7.925628,54.137818],[-7.926087,54.137819],[-7.926087,54.138088],[-7.927464,54.138089],[-7.927464,54.138242],[-7.927634,54.138194],[-7.927998,54.138093],[-7.928343,54.137998],[-7.929315,54.137734],[-7.929522,54.137678],[-7.929971,54.137556],[-7.930415,54.137431],[-7.930621,54.137373],[-7.930958,54.137282],[-7.930679,54.137282],[-7.930679,54.137013],[-7.931138,54.137013],[-7.931139,54.136743],[-7.932908,54.136744],[-7.933074,54.136698],[-7.933882,54.136499],[-7.933898,54.136494],[-7.93455,54.136296]],[[-7.931139,54.136474],[-7.931139,54.136743],[-7.929303,54.136742],[-7.929303,54.136473],[-7.927926,54.136472],[-7.927925,54.136742],[-7.927466,54.136741],[-7.927467,54.136472],[-7.926549,54.136471],[-7.926549,54.136202],[-7.925631,54.136201],[-7.925631,54.135931],[-7.925172,54.135931],[-7.925173,54.135662],[-7.926091,54.135662],[-7.92609,54.135932],[-7.92655,54.135932],[-7.92655,54.135662],[-7.927468,54.135663],[-7.927468,54.135933],[-7.927467,54.136202],[-7.930222,54.136204],[-7.930221,54.136473],[-7.931139,54.136474]],[[-7.917386,54.12703],[-7.917386,54.126761],[-7.917845,54.126761],[-7.917845,54.12703],[-7.917386,54.12703]],[[-7.918762,54.127301],[-7.91968,54.127301],[-7.91968,54.127571],[-7.918762,54.12757],[-7.918762,54.127301]],[[-7.921515,54.128111],[-7.921974,54.128111],[-7.921973,54.128381],[-7.921514,54.128381],[-7.921515,54.128111]],[[-7.923809,54.128652],[-7.923809,54.128382],[-7.924268,54.128383],[-7.924268,54.128652],[-7.923809,54.128652]],[[-7.925187,54.127574],[-7.925188,54.127305],[-7.925647,54.127305],[-7.925646,54.127575],[-7.925187,54.127574]],[[-7.922431,54.12892],[-7.922431,54.12919],[-7.921972,54.12919],[-7.921972,54.12892],[-7.922431,54.12892]],[[-7.9339,54.132432],[-7.934359,54.132432],[-7.934359,54.132702],[-7.9339,54.132701],[-7.9339,54.132432]],[[-7.924722,54.131079],[-7.924723,54.130809],[-7.9261,54.13081],[-7.926099,54.131079],[-7.926099,54.131349],[-7.926098,54.131619],[-7.927016,54.131619],[-7.927016,54.131889],[-7.927475,54.131889],[-7.927474,54.132159],[-7.927933,54.132159],[-7.927933,54.132428],[-7.927932,54.132698],[-7.928391,54.132698],[-7.928391,54.132968],[-7.929309,54.132968],[-7.929309,54.133238],[-7.929308,54.133507],[-7.928849,54.133507],[-7.928849,54.133238],[-7.927472,54.133237],[-7.927473,54.132967],[-7.926555,54.132967],[-7.926555,54.132697],[-7.926556,54.132428],[-7.925638,54.132427],[-7.925638,54.132157],[-7.925179,54.132157],[-7.92518,54.131888],[-7.924262,54.131887],[-7.924262,54.131617],[-7.923344,54.131617],[-7.923344,54.131886],[-7.923343,54.132156],[-7.922884,54.132156],[-7.922883,54.132695],[-7.922883,54.132964],[-7.922424,54.132964],[-7.922423,54.133503],[-7.921963,54.133503],[-7.921963,54.133772],[-7.922422,54.133773],[-7.922421,54.134042],[-7.921962,54.134042],[-7.921962,54.134312],[-7.921961,54.134581],[-7.921961,54.134851],[-7.921502,54.13485],[-7.921501,54.13512],[-7.921042,54.13512],[-7.921042,54.135389],[-7.919665,54.135388],[-7.919665,54.135119],[-7.919666,54.134849],[-7.919207,54.134849],[-7.919207,54.134579],[-7.920125,54.13458],[-7.920126,54.13431],[-7.920585,54.134311],[-7.920585,54.134041],[-7.920586,54.133772],[-7.920586,54.133502],[-7.921045,54.133502],[-7.921046,54.132963],[-7.921047,54.132694],[-7.921506,54.132694],[-7.921507,54.132155],[-7.921966,54.132155],[-7.921967,54.131885],[-7.922426,54.131886],[-7.922426,54.131616],[-7.921967,54.131616],[-7.921968,54.131346],[-7.922427,54.131347],[-7.922427,54.131077],[-7.922886,54.131077],[-7.922887,54.130808],[-7.922887,54.130538],[-7.923805,54.130539],[-7.923805,54.130808],[-7.924264,54.130809],[-7.924263,54.131078],[-7.924722,54.131079]],[[-7.91416,54.133228],[-7.915078,54.133229],[-7.915078,54.133498],[-7.915077,54.133768],[-7.914618,54.133768],[-7.914619,54.133498],[-7.91416,54.133498],[-7.91416,54.133228]],[[-7.917367,54.136465],[-7.918285,54.136466],[-7.918285,54.136735],[-7.918284,54.137005],[-7.916907,54.137004],[-7.916908,54.136734],[-7.916449,54.136734],[-7.916449,54.136465],[-7.91645,54.136195],[-7.915991,54.136195],[-7.915991,54.135925],[-7.916909,54.135926],[-7.916909,54.136195],[-7.917368,54.136196],[-7.917367,54.136465]]],[[[-7.923778,54.138255],[-7.923791,54.138276],[-7.923791,54.138087],[-7.923496,54.138087],[-7.923518,54.1381],[-7.923556,54.138124],[-7.923607,54.138161],[-7.92363,54.138173],[-7.92369,54.138193],[-7.923713,54.138204],[-7.923763,54.138239],[-7.923778,54.138255]]],[[[-7.923319,54.137898],[-7.923332,54.137912],[-7.923333,54.137817],[-7.923333,54.137547],[-7.922874,54.137547],[-7.922874,54.13767],[-7.922879,54.137673],[-7.922902,54.137683],[-7.922921,54.137688],[-7.922947,54.137701],[-7.922973,54.137707],[-7.923017,54.137708],[-7.923042,54.137715],[-7.923077,54.137739],[-7.923129,54.137774],[-7.923144,54.137789],[-7.923179,54.137842],[-7.923186,54.137851],[-7.923206,54.137856],[-7.923222,54.137854],[-7.923248,54.137857],[-7.923299,54.137885],[-7.923319,54.137898]]],[[[-7.915061,54.137339],[-7.91507,54.137338],[-7.915071,54.137003],[-7.915071,54.136733],[-7.914903,54.136733],[-7.914925,54.136753],[-7.914993,54.136789],[-7.915026,54.13682],[-7.914979,54.136927],[-7.914952,54.137026],[-7.914924,54.137133],[-7.914992,54.137276],[-7.915025,54.137295],[-7.915029,54.137295],[-7.915061,54.137339]]],[[[-7.91453,54.136518],[-7.914613,54.136536],[-7.914613,54.136463],[-7.914613,54.136194],[-7.914429,54.136194],[-7.914465,54.13623],[-7.914509,54.136361],[-7.914516,54.136375],[-7.914508,54.13638],[-7.914528,54.136404],[-7.914541,54.136434],[-7.91453,54.136518]]],[[[-7.914176,54.124842],[-7.914066,54.124871],[-7.914178,54.124871],[-7.914178,54.124842],[-7.914176,54.124842]]],[[[-7.934948,54.125261],[-7.933404,54.125423],[-7.933911,54.125423],[-7.933911,54.125692],[-7.934829,54.125693],[-7.934828,54.125963],[-7.935746,54.125963],[-7.935746,54.126233],[-7.936323,54.126233],[-7.936322,54.126167],[-7.936316,54.12615],[-7.93623,54.126032],[-7.936225,54.12602],[-7.936223,54.126015],[-7.936218,54.125972],[-7.936211,54.125955],[-7.936201,54.125942],[-7.93614,54.125854],[-7.936103,54.125793],[-7.936054,54.125738],[-7.936046,54.125729],[-7.936034,54.125725],[-7.93602,54.125724],[-7.935991,54.125726],[-7.935932,54.125741],[-7.935906,54.125739],[-7.935893,54.125734],[-7.935861,54.12572],[-7.935839,54.125708],[-7.935758,54.125642],[-7.935654,54.12558],[-7.935642,54.125565],[-7.935636,54.125522],[-7.935633,54.125505],[-7.935618,54.125492],[-7.935523,54.125465],[-7.935498,54.125455],[-7.935473,54.12544],[-7.935473,54.12544],[-7.935473,54.12544],[-7.935474,54.125434],[-7.935482,54.12543],[-7.935491,54.125425],[-7.935491,54.12542],[-7.935312,54.125347],[-7.935179,54.12527],[-7.935161,54.125256],[-7.935154,54.125248],[-7.935147,54.125242],[-7.935147,54.125242],[-7.934948,54.125261]]],[[[-7.93532,54.130009],[-7.935321,54.130006],[-7.935281,54.130006],[-7.935281,54.130071],[-7.9353,54.130056],[-7.935301,54.130056],[-7.935313,54.13004],[-7.93532,54.130009]]],[[[-7.935318,54.130161],[-7.935281,54.130118],[-7.935281,54.130276],[-7.93528,54.130546],[-7.935279,54.131085],[-7.935738,54.131085],[-7.935738,54.131201],[-7.93578,54.131185],[-7.935856,54.131143],[-7.935859,54.131135],[-7.935861,54.131128],[-7.935855,54.13112],[-7.935825,54.131104],[-7.935801,54.131091],[-7.93579,54.131076],[-7.935795,54.130937],[-7.935803,54.130924],[-7.935805,54.130921],[-7.935853,54.130886],[-7.935854,54.130881],[-7.935858,54.130871],[-7.935829,54.130815],[-7.935739,54.130815],[-7.935739,54.130757],[-7.935679,54.130771],[-7.935657,54.130767],[-7.935642,54.130754],[-7.935624,54.130738],[-7.935618,54.130722],[-7.935618,54.130722],[-7.935618,54.130722],[-7.935629,54.13068],[-7.93566,54.130637],[-7.935669,54.130625],[-7.93567,54.130609],[-7.935664,54.1306],[-7.935639,54.130561],[-7.935585,54.130508],[-7.935563,54.130498],[-7.93554,54.130495],[-7.935502,54.13049],[-7.935486,54.130481],[-7.935482,54.130479],[-7.935478,54.13047],[-7.935443,54.130402],[-7.935435,54.130392],[-7.93543,54.130386],[-7.935398,54.130359],[-7.935388,54.130346],[-7.935386,54.130343],[-7.935361,54.130283],[-7.935361,54.130283],[-7.935361,54.130283],[-7.935364,54.130266],[-7.935401,54.130219],[-7.935399,54.130204],[-7.935396,54.130201],[-7.935363,54.130169],[-7.935352,54.130165],[-7.935351,54.130165],[-7.935349,54.130165],[-7.935329,54.130165],[-7.935326,54.130164],[-7.935318,54.130161]]],[[[-7.935773,54.131347],[-7.935738,54.131321],[-7.935738,54.131354],[-7.935738,54.131415],[-7.935748,54.131407],[-7.935764,54.131383],[-7.935777,54.131363],[-7.935773,54.131347]]],[[[-7.935597,54.131654],[-7.935646,54.131624],[-7.935279,54.131624],[-7.935278,54.131893],[-7.934819,54.131893],[-7.934818,54.132369],[-7.934833,54.132366],[-7.934917,54.13237],[-7.934939,54.132363],[-7.934951,54.13235],[-7.934951,54.132334],[-7.93492,54.132292],[-7.934876,54.132233],[-7.934871,54.132204],[-7.93487,54.132196],[-7.93487,54.132196],[-7.93487,54.132196],[-7.934876,54.132184],[-7.934879,54.13218],[-7.934929,54.132148],[-7.934939,54.132138],[-7.934945,54.132133],[-7.93496,54.132108],[-7.934973,54.132088],[-7.935027,54.132034],[-7.935056,54.132003],[-7.935067,54.131987],[-7.935094,54.131948],[-7.935111,54.131933],[-7.935124,54.131927],[-7.935133,54.131923],[-7.935176,54.131912],[-7.935177,54.131912],[-7.935269,54.131905],[-7.935335,54.131896],[-7.935371,54.131891],[-7.935426,54.131865],[-7.93544,54.131851],[-7.935451,54.131799],[-7.935448,54.131745],[-7.935448,54.131745],[-7.935448,54.131745],[-7.935458,54.131729],[-7.935474,54.131719],[-7.935506,54.131697],[-7.935597,54.131654]]],[[[-7.936192,54.135436],[-7.936191,54.135435],[-7.93619,54.135668],[-7.93619,54.135837],[-7.936254,54.135805],[-7.936289,54.135787],[-7.936284,54.135782],[-7.936279,54.135777],[-7.936264,54.135694],[-7.936228,54.135597],[-7.936228,54.135597],[-7.936228,54.135597],[-7.936225,54.135505],[-7.936211,54.135477],[-7.936192,54.135436]]],[[[-7.930696,54.127308],[-7.930237,54.127308],[-7.930236,54.127577],[-7.930695,54.127578],[-7.930696,54.127308]]],[[[-7.929778,54.127308],[-7.930237,54.127308],[-7.930237,54.127038],[-7.929778,54.127038],[-7.929778,54.127308]]],[[[-7.925189,54.126496],[-7.92473,54.126496],[-7.92473,54.126765],[-7.925189,54.126766],[-7.925189,54.126496]]],[[[-7.916011,54.125951],[-7.91647,54.125951],[-7.916471,54.125682],[-7.916012,54.125681],[-7.916011,54.125951]]],[[[-7.923353,54.127034],[-7.923353,54.126765],[-7.921976,54.126764],[-7.921976,54.127033],[-7.922435,54.127033],[-7.922434,54.127303],[-7.922893,54.127303],[-7.922894,54.127034],[-7.923353,54.127034]]],[[[-7.93161,54.129465],[-7.932069,54.129465],[-7.932069,54.129196],[-7.93161,54.129196],[-7.93161,54.129465]]],[[[-7.929319,54.127307],[-7.92886,54.127307],[-7.928859,54.127577],[-7.929318,54.127577],[-7.929319,54.127307]]],[[[-7.928401,54.127307],[-7.92886,54.127307],[-7.92886,54.127037],[-7.928401,54.127037],[-7.928401,54.127307]]]]}}]}
