{"type":"FeatureCollection","features":[{"type":"Feature","properties":{"source_fid":1742512,"county":"Donegal","bog_geom_ha":205.68373236795128,"low15_pct":97.331583552055989,"low15_ha":200.19523382269972,"overlay_ha":199.95790654433546,"area_delta":-0.23732727836426193},"geometry":{"type":"MultiPolygon","coordinates":[[[[-8.282345,55.137118],[-8.282585,55.137004],[-8.28229,55.137004],[-8.282288,55.136735],[-8.280876,55.136738],[-8.280878,55.137007],[-8.279937,55.13701],[-8.279941,55.137549],[-8.281397,55.137545],[-8.28141,55.137536],[-8.281854,55.137338],[-8.282345,55.137118]]],[[[-8.261701,55.142632],[-8.261532,55.142612],[-8.261341,55.142637],[-8.261238,55.142635],[-8.261156,55.142652],[-8.261158,55.143019],[-8.259745,55.143022],[-8.259747,55.143253],[-8.259591,55.143254],[-8.259596,55.143921],[-8.256459,55.143928],[-8.254891,55.143931],[-8.254897,55.144829],[-8.25311,55.144833],[-8.253248,55.144999],[-8.253487,55.145442],[-8.253676,55.145889],[-8.253855,55.146337],[-8.254056,55.146891],[-8.254258,55.146933],[-8.254955,55.147107],[-8.255489,55.147244],[-8.255858,55.147359],[-8.256146,55.147472],[-8.256615,55.147713],[-8.257226,55.148007],[-8.257671,55.148239],[-8.258276,55.148536],[-8.25892,55.14881],[-8.259039,55.148865],[-8.259653,55.149],[-8.2602,55.149117],[-8.261154,55.149318],[-8.26115,55.149339],[-8.261145,55.14938],[-8.261124,55.149419],[-8.26111,55.149503],[-8.261102,55.14953],[-8.261097,55.149561],[-8.261127,55.149631],[-8.261151,55.149684],[-8.261138,55.14974],[-8.261079,55.149776],[-8.260994,55.149831],[-8.260842,55.14993],[-8.260774,55.150017],[-8.260727,55.150084],[-8.260701,55.150159],[-8.260752,55.150195],[-8.260798,55.150195],[-8.260887,55.150186],[-8.260941,55.150196],[-8.261005,55.150205],[-8.261059,55.150254],[-8.261093,55.150295],[-8.261109,55.150334],[-8.261105,55.150387],[-8.261095,55.150594],[-8.26109,55.150664],[-8.261153,55.150761],[-8.261275,55.150817],[-8.261351,55.150844],[-8.261422,55.15088],[-8.26146,55.150933],[-8.261484,55.15103],[-8.261458,55.151172],[-8.26144,55.151298],[-8.261448,55.151377],[-8.261583,55.15145],[-8.261696,55.151499],[-8.26178,55.151545],[-8.261788,55.151586],[-8.261724,55.151721],[-8.261736,55.151822],[-8.261723,55.151892],[-8.26168,55.151977],[-8.261693,55.152001],[-8.262785,55.151998],[-8.262791,55.152897],[-8.265928,55.15289],[-8.265934,55.153752],[-8.266405,55.153751],[-8.266405,55.153787],[-8.267503,55.153785],[-8.273777,55.153771],[-8.27378,55.154273],[-8.27441,55.154272],[-8.274412,55.154541],[-8.274882,55.15454],[-8.274883,55.154666],[-8.275352,55.154665],[-8.275353,55.154809],[-8.275355,55.154809],[-8.275357,55.155078],[-8.275827,55.155077],[-8.275828,55.15521],[-8.275915,55.155154],[-8.276019,55.155023],[-8.27607,55.155058],[-8.276086,55.155196],[-8.275998,55.155281],[-8.275915,55.155347],[-8.2763,55.155346],[-8.276301,55.155561],[-8.276926,55.15556],[-8.276929,55.155883],[-8.277245,55.155883],[-8.277247,55.156152],[-8.277718,55.156151],[-8.277719,55.156421],[-8.27819,55.15642],[-8.27819,55.156455],[-8.278501,55.156455],[-8.278503,55.156688],[-8.278663,55.156688],[-8.278664,55.156899],[-8.278695,55.156919],[-8.278732,55.156951],[-8.278735,55.156957],[-8.279135,55.156957],[-8.279137,55.157169],[-8.279139,55.15717],[-8.279223,55.157214],[-8.279232,55.157226],[-8.279608,55.157225],[-8.279609,55.15735],[-8.280076,55.157349],[-8.281645,55.157346],[-8.281651,55.158244],[-8.28322,55.15824],[-8.283214,55.157342],[-8.284782,55.157338],[-8.28477,55.155542],[-8.286338,55.155538],[-8.286332,55.15464],[-8.287592,55.154637],[-8.287591,55.154511],[-8.2879,55.15451],[-8.287888,55.15284],[-8.289456,55.152836],[-8.28945,55.151938],[-8.290171,55.151936],[-8.290154,55.151921],[-8.290113,55.151542],[-8.28967,55.15141],[-8.288982,55.150801],[-8.288773,55.150633],[-8.288499,55.150319],[-8.288342,55.150101],[-8.288,55.149916],[-8.287955,55.149923],[-8.287856,55.14995],[-8.287794,55.149977],[-8.287714,55.150018],[-8.287564,55.150031],[-8.287485,55.150055],[-8.286966,55.150198],[-8.286931,55.150162],[-8.286599,55.149786],[-8.286438,55.149529],[-8.286435,55.149523],[-8.286265,55.149254],[-8.286246,55.149224],[-8.286214,55.14923],[-8.286187,55.149238],[-8.286032,55.149014],[-8.285946,55.148889],[-8.28587,55.148731],[-8.285857,55.148704],[-8.285774,55.148501],[-8.285671,55.148356],[-8.285535,55.148232],[-8.285196,55.147951],[-8.285027,55.148012],[-8.284212,55.148304],[-8.283202,55.148686],[-8.283204,55.148604],[-8.283205,55.148569],[-8.283184,55.148522],[-8.283179,55.148511],[-8.283086,55.148419],[-8.283081,55.148354],[-8.28313,55.14816],[-8.283124,55.148138],[-8.283105,55.148062],[-8.283302,55.147886],[-8.283284,55.147797],[-8.283376,55.147705],[-8.283375,55.147602],[-8.283359,55.147522],[-8.283229,55.147449],[-8.283111,55.147382],[-8.283031,55.14734],[-8.283018,55.147276],[-8.283114,55.147123],[-8.2831,55.147099],[-8.283084,55.147071],[-8.283117,55.146971],[-8.283087,55.146901],[-8.283014,55.146852],[-8.283093,55.146806],[-8.283096,55.146737],[-8.283156,55.14668],[-8.283122,55.146582],[-8.283044,55.146502],[-8.283033,55.146491],[-8.283019,55.14647],[-8.282881,55.146262],[-8.282625,55.145967],[-8.282573,55.145921],[-8.282509,55.145865],[-8.282445,55.145902],[-8.282428,55.145888],[-8.282351,55.145814],[-8.282312,55.145756],[-8.282235,55.145724],[-8.282102,55.145688],[-8.282007,55.145657],[-8.282103,55.145584],[-8.282139,55.145551],[-8.281977,55.145479],[-8.281858,55.145415],[-8.28175,55.145357],[-8.281539,55.145276],[-8.281475,55.145251],[-8.281355,55.145204],[-8.281327,55.145193],[-8.281158,55.145154],[-8.281092,55.145143],[-8.28055,55.145025],[-8.2805,55.145014],[-8.280465,55.145006],[-8.280153,55.144932],[-8.27957,55.144981],[-8.279297,55.144994],[-8.279014,55.144998],[-8.278855,55.144907],[-8.278532,55.14482],[-8.278133,55.144735],[-8.277748,55.144704],[-8.277541,55.144689],[-8.276655,55.144844],[-8.276053,55.144844],[-8.275772,55.144844],[-8.275413,55.144853],[-8.275111,55.14486],[-8.274754,55.144858],[-8.274717,55.144858],[-8.274689,55.144858],[-8.27433,55.144859],[-8.274152,55.144859],[-8.273565,55.144881],[-8.273437,55.144871],[-8.273068,55.144847],[-8.273003,55.144849],[-8.272767,55.144855],[-8.272675,55.14487],[-8.272533,55.144911],[-8.27244,55.144914],[-8.272028,55.144901],[-8.27194,55.144907],[-8.271786,55.144919],[-8.271762,55.144921],[-8.27165,55.144927],[-8.271619,55.144903],[-8.271553,55.144882],[-8.2714,55.14487],[-8.27107,55.144874],[-8.270985,55.14487],[-8.270957,55.144866],[-8.27094,55.144841],[-8.270556,55.144859],[-8.270175,55.144859],[-8.269888,55.144859],[-8.269645,55.144853],[-8.269523,55.144839],[-8.269457,55.144823],[-8.269143,55.144829],[-8.268761,55.144826],[-8.26873,55.144826],[-8.26874,55.144852],[-8.268754,55.144883],[-8.268727,55.144884],[-8.26766,55.144874],[-8.267653,55.144829],[-8.267504,55.144845],[-8.267403,55.144816],[-8.267201,55.144806],[-8.267142,55.144776],[-8.266816,55.144801],[-8.266816,55.144855],[-8.266684,55.144856],[-8.26668,55.1449],[-8.266677,55.14494],[-8.266664,55.144981],[-8.266668,55.145046],[-8.266693,55.145106],[-8.266688,55.145125],[-8.266818,55.145125],[-8.26682,55.145394],[-8.26669,55.145395],[-8.266687,55.145439],[-8.266707,55.145495],[-8.266722,55.145552],[-8.26672,55.145559],[-8.266709,55.145563],[-8.266621,55.145575],[-8.266608,55.145586],[-8.266614,55.145606],[-8.266622,55.145664],[-8.266605,55.145707],[-8.266589,55.145738],[-8.266575,55.145765],[-8.266566,55.145862],[-8.266333,55.146062],[-8.266315,55.146093],[-8.266231,55.14616],[-8.266163,55.146167],[-8.266041,55.146167],[-8.26594,55.14615],[-8.265637,55.146065],[-8.265506,55.146029],[-8.265165,55.146133],[-8.265172,55.146161],[-8.265167,55.146383],[-8.264848,55.146403],[-8.264794,55.146473],[-8.264729,55.146513],[-8.264559,55.146569],[-8.264415,55.146617],[-8.264151,55.146689],[-8.263869,55.146748],[-8.263801,55.146635],[-8.263768,55.146553],[-8.263812,55.146474],[-8.263747,55.146384],[-8.263595,55.146235],[-8.263515,55.146157],[-8.263437,55.146041],[-8.263372,55.145958],[-8.263341,55.145871],[-8.263363,55.145821],[-8.263477,55.145696],[-8.263769,55.145375],[-8.263938,55.145196],[-8.263815,55.144996],[-8.263631,55.144715],[-8.263407,55.144354],[-8.263268,55.144128],[-8.26309,55.144027],[-8.263057,55.143964],[-8.262892,55.143905],[-8.262691,55.143831],[-8.262542,55.143749],[-8.262416,55.143678],[-8.262041,55.143446],[-8.261945,55.143386],[-8.261873,55.143342],[-8.261938,55.143284],[-8.262058,55.143199],[-8.262097,55.143153],[-8.262132,55.143112],[-8.262147,55.143038],[-8.262125,55.142948],[-8.262098,55.142747],[-8.261701,55.142632]],[[-8.261171,55.145137],[-8.261173,55.145407],[-8.260702,55.145408],[-8.2607,55.145138],[-8.261171,55.145137]],[[-8.268702,55.14539],[-8.268704,55.14566],[-8.267762,55.145662],[-8.267761,55.145392],[-8.268702,55.14539]]]]}}]}
