{"type":"FeatureCollection","features":[{"type":"Feature","properties":{"source_fid":1750385,"county":"Donegal","bog_geom_ha":120.24723662023767,"low15_pct":92.664670658682638,"low15_ha":111.42670579031005,"overlay_ha":111.47148909852305,"area_delta":0.044783308212998918},"geometry":{"type":"MultiPolygon","coordinates":[[[[-8.618771,54.714136],[-8.618697,54.714195],[-8.619114,54.714427],[-8.620214,54.71504],[-8.620385,54.715135],[-8.620397,54.715142],[-8.620454,54.715177],[-8.620572,54.715214],[-8.620709,54.715267],[-8.620763,54.715295],[-8.620787,54.715328],[-8.620801,54.715348],[-8.620824,54.715375],[-8.620874,54.715399],[-8.621207,54.71559],[-8.621222,54.715632],[-8.62131,54.715658],[-8.621407,54.715702],[-8.621562,54.715783],[-8.621623,54.715823],[-8.621776,54.715898],[-8.621818,54.715904],[-8.621852,54.715919],[-8.621936,54.715963],[-8.62197,54.715977],[-8.622009,54.715981],[-8.623528,54.716827],[-8.627141,54.718756],[-8.628595,54.719535],[-8.628921,54.719768],[-8.628991,54.719805],[-8.629547,54.719802],[-8.629551,54.720071],[-8.630482,54.720067],[-8.630487,54.720336],[-8.630952,54.720334],[-8.630956,54.720603],[-8.631422,54.720601],[-8.631426,54.72087],[-8.631892,54.720868],[-8.631896,54.721137],[-8.632827,54.721133],[-8.632831,54.721402],[-8.632836,54.721672],[-8.632437,54.721674],[-8.632835,54.721926],[-8.632979,54.721906],[-8.633478,54.721781],[-8.633618,54.721728],[-8.633939,54.721598],[-8.634008,54.721553],[-8.634443,54.721371],[-8.635173,54.721044],[-8.635499,54.720774],[-8.635798,54.720528],[-8.635916,54.720422],[-8.636159,54.720221],[-8.636327,54.720044],[-8.636428,54.719916],[-8.636571,54.719711],[-8.636703,54.71946],[-8.636885,54.719091],[-8.637062,54.71869],[-8.637217,54.718374],[-8.637345,54.718131],[-8.637505,54.717874],[-8.637693,54.717563],[-8.637964,54.717158],[-8.638087,54.716945],[-8.638325,54.716522],[-8.638502,54.716184],[-8.638676,54.715837],[-8.63871,54.715777],[-8.63874,54.715725],[-8.63878,54.715597],[-8.63882,54.715496],[-8.63885,54.715273],[-8.638905,54.714918],[-8.638911,54.714701],[-8.638937,54.714556],[-8.638962,54.714314],[-8.638993,54.713949],[-8.639007,54.713633],[-8.63904,54.713317],[-8.639064,54.713067],[-8.639084,54.712838],[-8.639205,54.712788],[-8.639798,54.712834],[-8.640564,54.712865],[-8.640992,54.712901],[-8.641156,54.712911],[-8.641256,54.71291],[-8.641383,54.712731],[-8.641615,54.712717],[-8.641686,54.712687],[-8.641758,54.712656],[-8.641775,54.712649],[-8.641961,54.712604],[-8.642105,54.712562],[-8.642046,54.712396],[-8.642043,54.712387],[-8.64204,54.712377],[-8.642035,54.712284],[-8.642118,54.71209],[-8.641965,54.711986],[-8.641918,54.711992],[-8.641736,54.712013],[-8.641565,54.712023],[-8.64118,54.711977],[-8.640954,54.711918],[-8.640944,54.711915],[-8.640905,54.711905],[-8.64081,54.711905],[-8.640727,54.71198],[-8.640612,54.712002],[-8.640228,54.712036],[-8.640151,54.712003],[-8.640032,54.711903],[-8.640015,54.711889],[-8.63982,54.711736],[-8.639734,54.711693],[-8.639706,54.711555],[-8.639759,54.711437],[-8.6398,54.711392],[-8.639843,54.711346],[-8.639738,54.711124],[-8.639742,54.711027],[-8.639726,54.710961],[-8.639703,54.71093],[-8.639661,54.710897],[-8.639615,54.710895],[-8.639432,54.710911],[-8.639367,54.710902],[-8.639291,54.710885],[-8.639234,54.710852],[-8.639207,54.710788],[-8.63921,54.710708],[-8.639256,54.710669],[-8.639297,54.710605],[-8.639304,54.710543],[-8.63925,54.71045],[-8.639208,54.710397],[-8.639246,54.710333],[-8.63923,54.710334],[-8.635659,54.710505],[-8.631495,54.710601],[-8.630965,54.710593],[-8.630546,54.710602],[-8.630078,54.710619],[-8.62991,54.710623],[-8.628982,54.710763],[-8.62862,54.710812],[-8.627282,54.710763],[-8.626646,54.710671],[-8.626504,54.710674],[-8.625952,54.710649],[-8.625346,54.710635],[-8.624813,54.710631],[-8.624504,54.710634],[-8.624302,54.710626],[-8.624066,54.710595],[-8.62365,54.710565],[-8.623037,54.710527],[-8.622553,54.710514],[-8.622122,54.710519],[-8.621489,54.710508],[-8.621491,54.710679],[-8.623353,54.710669],[-8.623358,54.710939],[-8.623823,54.710936],[-8.623827,54.711206],[-8.624293,54.711203],[-8.624297,54.711473],[-8.624762,54.711471],[-8.624767,54.71174],[-8.623835,54.711745],[-8.62384,54.712014],[-8.623374,54.712017],[-8.62337,54.711747],[-8.622904,54.71175],[-8.6229,54.71148],[-8.621504,54.711487],[-8.621508,54.711757],[-8.620577,54.711762],[-8.620573,54.711492],[-8.619642,54.711497],[-8.619638,54.711227],[-8.618241,54.711234],[-8.618237,54.710965],[-8.61809,54.710966],[-8.617909,54.71112],[-8.617683,54.711311],[-8.617512,54.711462],[-8.617467,54.711508],[-8.617408,54.711569],[-8.61732,54.711681],[-8.617215,54.711759],[-8.61715,54.711793],[-8.617127,54.711807],[-8.617311,54.71184],[-8.617385,54.711846],[-8.617467,54.711879],[-8.617572,54.711897],[-8.61763,54.711897],[-8.617724,54.711901],[-8.617798,54.711907],[-8.617833,54.711917],[-8.617889,54.711945],[-8.617947,54.711974],[-8.618058,54.712016],[-8.618105,54.712035],[-8.618001,54.712056],[-8.617956,54.712113],[-8.617829,54.712229],[-8.6177,54.712395],[-8.617337,54.712784],[-8.617096,54.713052],[-8.617785,54.713221],[-8.617981,54.713193],[-8.618481,54.713325],[-8.618757,54.713473],[-8.61915,54.713884],[-8.618973,54.713986],[-8.618771,54.714136]],[[-8.636459,54.715183],[-8.636464,54.715453],[-8.635998,54.715455],[-8.635994,54.715186],[-8.636459,54.715183]],[[-8.63695,54.716798],[-8.636485,54.716801],[-8.63648,54.716531],[-8.636946,54.716529],[-8.63695,54.716798]],[[-8.636019,54.716803],[-8.636485,54.716801],[-8.636489,54.71707],[-8.636023,54.717073],[-8.636019,54.716803]],[[-8.635558,54.717075],[-8.636023,54.717073],[-8.636028,54.717342],[-8.635562,54.717345],[-8.635558,54.717075]],[[-8.634165,54.717352],[-8.635562,54.717345],[-8.635566,54.717614],[-8.635101,54.717616],[-8.635105,54.717886],[-8.635109,54.718156],[-8.634643,54.718158],[-8.634648,54.718428],[-8.634182,54.71843],[-8.634186,54.718699],[-8.633721,54.718702],[-8.633725,54.718971],[-8.633729,54.719241],[-8.633263,54.719243],[-8.633268,54.719513],[-8.632336,54.719518],[-8.632332,54.719248],[-8.632328,54.718979],[-8.632794,54.718976],[-8.632789,54.718707],[-8.632785,54.718437],[-8.632781,54.718168],[-8.632777,54.717898],[-8.633242,54.717896],[-8.633238,54.717626],[-8.633234,54.717357],[-8.633226,54.716818],[-8.634157,54.716813],[-8.634165,54.717352]],[[-8.635138,54.720042],[-8.635143,54.720312],[-8.634677,54.720314],[-8.634673,54.720045],[-8.635138,54.720042]],[[-8.625706,54.712274],[-8.625714,54.712813],[-8.625249,54.712816],[-8.62524,54.712277],[-8.625706,54.712274]],[[-8.628503,54.712529],[-8.628507,54.712799],[-8.628973,54.712797],[-8.628977,54.713066],[-8.628046,54.713071],[-8.628042,54.712801],[-8.627576,54.712804],[-8.627572,54.712534],[-8.628503,54.712529]]]]}}]}
