{"type":"FeatureCollection","features":[{"type":"Feature","properties":{"source_fid":1750838,"county":"Donegal","bog_geom_ha":111.15687316729883,"low15_pct":97.477624084621638,"low15_ha":108.35307897023921,"overlay_ha":108.44347439030977,"area_delta":0.090395420070564114},"geometry":{"type":"MultiPolygon","coordinates":[[[[-8.701474,54.677818],[-8.701194,54.677841],[-8.700282,54.677893],[-8.699996,54.677915],[-8.69998,54.677916],[-8.69966,54.677925],[-8.699206,54.67795],[-8.698935,54.677962],[-8.698769,54.677976],[-8.698564,54.677988],[-8.698105,54.678015],[-8.697843,54.678037],[-8.697746,54.678041],[-8.697228,54.678065],[-8.696204,54.678129],[-8.695759,54.67816],[-8.695472,54.678178],[-8.695048,54.678198],[-8.69467,54.67822],[-8.694467,54.678236],[-8.69417,54.678253],[-8.693816,54.678323],[-8.693625,54.678373],[-8.693293,54.678447],[-8.693093,54.678466],[-8.692742,54.678558],[-8.692203,54.678701],[-8.691488,54.678924],[-8.691166,54.67903],[-8.690907,54.679127],[-8.690677,54.679195],[-8.690218,54.679321],[-8.689491,54.679592],[-8.689202,54.679754],[-8.689085,54.679837],[-8.688843,54.679972],[-8.688567,54.680125],[-8.687982,54.680425],[-8.687572,54.680624],[-8.687401,54.680727],[-8.687075,54.680897],[-8.686611,54.681277],[-8.686114,54.681706],[-8.685896,54.681917],[-8.685545,54.682178],[-8.685426,54.682286],[-8.685363,54.682341],[-8.685327,54.682382],[-8.685326,54.682384],[-8.685255,54.682457],[-8.685027,54.682662],[-8.684918,54.68277],[-8.684881,54.682807],[-8.684733,54.68294],[-8.684545,54.683109],[-8.684495,54.68316],[-8.68448,54.683175],[-8.6844,54.683245],[-8.684365,54.683281],[-8.684456,54.683356],[-8.684488,54.683387],[-8.684516,54.683414],[-8.68461,54.683548],[-8.684655,54.683612],[-8.684721,54.683702],[-8.684831,54.683851],[-8.684868,54.683928],[-8.684975,54.68415],[-8.68507,54.684262],[-8.685224,54.684446],[-8.685322,54.684566],[-8.685448,54.68473],[-8.685642,54.684956],[-8.685817,54.685176],[-8.686066,54.685522],[-8.686088,54.685552],[-8.68614,54.685627],[-8.686167,54.685663],[-8.68638,54.685962],[-8.686611,54.68627],[-8.686869,54.686598],[-8.687142,54.686938],[-8.68739,54.687267],[-8.687657,54.687616],[-8.687961,54.687991],[-8.688148,54.688216],[-8.688382,54.688501],[-8.688535,54.688714],[-8.688538,54.688718],[-8.688595,54.688798],[-8.68879,54.689041],[-8.689082,54.68942],[-8.689294,54.689685],[-8.689577,54.690052],[-8.689714,54.690216],[-8.689972,54.690505],[-8.690184,54.690791],[-8.690315,54.690965],[-8.690432,54.691112],[-8.690436,54.691116],[-8.69044,54.691121],[-8.690456,54.691141],[-8.690466,54.691176],[-8.690461,54.691235],[-8.690462,54.691419],[-8.690462,54.691423],[-8.690462,54.691427],[-8.690462,54.691491],[-8.690446,54.691876],[-8.690355,54.692404],[-8.690478,54.692478],[-8.690631,54.692553],[-8.690801,54.692653],[-8.690999,54.692782],[-8.691319,54.692971],[-8.691428,54.693049],[-8.691574,54.693016],[-8.691745,54.692978],[-8.692135,54.692865],[-8.692456,54.692788],[-8.692898,54.692688],[-8.693279,54.692587],[-8.693651,54.692487],[-8.693924,54.692412],[-8.694196,54.692363],[-8.694373,54.692306],[-8.694484,54.692255],[-8.694763,54.692136],[-8.695002,54.692107],[-8.695251,54.692072],[-8.695392,54.69207],[-8.69581,54.69199],[-8.69594,54.691908],[-8.696077,54.691817],[-8.696241,54.691798],[-8.696498,54.691783],[-8.696657,54.691768],[-8.696717,54.691751],[-8.697307,54.689718],[-8.697427,54.689302],[-8.697894,54.688089],[-8.697917,54.68803],[-8.697927,54.688005],[-8.69798,54.687818],[-8.698063,54.687513],[-8.698122,54.687295],[-8.698242,54.686904],[-8.698292,54.686794],[-8.698301,54.686768],[-8.698307,54.68675],[-8.698314,54.686729],[-8.698372,54.68655],[-8.698418,54.686404],[-8.69848,54.686216],[-8.698521,54.686063],[-8.698582,54.685892],[-8.698586,54.685877],[-8.698589,54.685868],[-8.698596,54.68584],[-8.698641,54.685683],[-8.698699,54.685495],[-8.698708,54.685459],[-8.698338,54.685461],[-8.698334,54.68521],[-8.69819,54.685236],[-8.698109,54.685261],[-8.698063,54.685265],[-8.698034,54.685263],[-8.697876,54.685233],[-8.697869,54.685232],[-8.697668,54.685222],[-8.697614,54.685228],[-8.697581,54.685254],[-8.697548,54.685284],[-8.697523,54.685292],[-8.697442,54.685298],[-8.697372,54.685294],[-8.697308,54.685294],[-8.697249,54.6853],[-8.697187,54.685302],[-8.697134,54.685301],[-8.697097,54.6853],[-8.697019,54.685292],[-8.696878,54.685237],[-8.696776,54.685168],[-8.696667,54.685101],[-8.696645,54.685088],[-8.696609,54.685053],[-8.696589,54.68503],[-8.696589,54.68499],[-8.69655,54.684974],[-8.696526,54.68497],[-8.696518,54.684937],[-8.696529,54.684904],[-8.696543,54.684864],[-8.696589,54.684857],[-8.696645,54.684823],[-8.696691,54.68479],[-8.696705,54.684731],[-8.696683,54.684717],[-8.69647,54.684776],[-8.69633,54.684786],[-8.696239,54.684803],[-8.696167,54.684803],[-8.696075,54.684778],[-8.695996,54.684785],[-8.695931,54.684785],[-8.695829,54.684756],[-8.695783,54.68474],[-8.695762,54.684717],[-8.695725,54.684712],[-8.695446,54.684775],[-8.695406,54.684784],[-8.695274,54.684763],[-8.695152,54.684794],[-8.695086,54.684788],[-8.695013,54.684794],[-8.694826,54.685051],[-8.694925,54.685151],[-8.694704,54.685237],[-8.694674,54.685287],[-8.694675,54.685379],[-8.694632,54.685451],[-8.694582,54.685483],[-8.694617,54.685483],[-8.694621,54.685752],[-8.695087,54.68575],[-8.695091,54.686019],[-8.695096,54.686289],[-8.695561,54.686286],[-8.695566,54.686556],[-8.696031,54.686553],[-8.696035,54.686822],[-8.69604,54.687092],[-8.695575,54.687095],[-8.69557,54.686825],[-8.69464,54.68683],[-8.694635,54.686561],[-8.69417,54.686564],[-8.694165,54.686294],[-8.693235,54.686299],[-8.69323,54.68603],[-8.692765,54.686033],[-8.692762,54.685825],[-8.692618,54.685856],[-8.692502,54.685891],[-8.692334,54.685941],[-8.692225,54.685976],[-8.692159,54.685979],[-8.692105,54.685997],[-8.692023,54.686062],[-8.691953,54.68614],[-8.691776,54.686174],[-8.691613,54.686274],[-8.691498,54.686309],[-8.691374,54.686379],[-8.691348,54.686372],[-8.691491,54.686303],[-8.691604,54.686272],[-8.691781,54.686168],[-8.691949,54.686137],[-8.692019,54.686054],[-8.692101,54.685991],[-8.692181,54.685954],[-8.692309,54.685913],[-8.692481,54.685862],[-8.692596,54.685827],[-8.692761,54.685792],[-8.692761,54.685763],[-8.692295,54.685766],[-8.692293,54.685646],[-8.69215,54.685745],[-8.692114,54.685728],[-8.692292,54.685601],[-8.692291,54.685496],[-8.692287,54.685274],[-8.692234,54.685303],[-8.692206,54.68532],[-8.69201,54.685392],[-8.691766,54.685502],[-8.691751,54.685509],[-8.691499,54.685601],[-8.691447,54.685584],[-8.691721,54.685484],[-8.69173,54.68548],[-8.69198,54.685367],[-8.692173,54.685296],[-8.692227,54.685266],[-8.692286,54.685232],[-8.692286,54.685227],[-8.692296,54.685227],[-8.692342,54.685201],[-8.692486,54.685117],[-8.692593,54.68506],[-8.692691,54.685048],[-8.692809,54.685024],[-8.692728,54.684941],[-8.692786,54.684936],[-8.692872,54.685008],[-8.693016,54.685027],[-8.693086,54.685029],[-8.693213,54.684953],[-8.693366,54.684879],[-8.693456,54.684839],[-8.693222,54.684815],[-8.69302,54.684746],[-8.693065,54.684727],[-8.693292,54.684793],[-8.693489,54.684805],[-8.693568,54.684774],[-8.693727,54.684786],[-8.693774,54.684787],[-8.693599,54.684696],[-8.693439,54.684679],[-8.693398,54.684662],[-8.693414,54.684653],[-8.693426,54.684646],[-8.693454,54.684657],[-8.693625,54.684679],[-8.693805,54.684784],[-8.693991,54.684773],[-8.694125,54.684789],[-8.694287,54.684836],[-8.694442,54.684877],[-8.694474,54.684875],[-8.694527,54.684857],[-8.694559,54.684857],[-8.694619,54.684887],[-8.694633,54.684889],[-8.694668,54.684889],[-8.694788,54.684859],[-8.694911,54.684803],[-8.694985,54.684773],[-8.695087,54.684764],[-8.695147,54.68477],[-8.695263,54.68474],[-8.695399,54.684754],[-8.695445,54.684745],[-8.695709,54.684692],[-8.695736,54.68469],[-8.695788,54.684696],[-8.695813,54.684723],[-8.695848,54.684735],[-8.69594,54.684762],[-8.695993,54.684762],[-8.696081,54.684754],[-8.696176,54.68478],[-8.696233,54.68478],[-8.696321,54.684764],[-8.696458,54.684753],[-8.696654,54.6847],[-8.696553,54.68468],[-8.696521,54.684672],[-8.696502,54.684639],[-8.696497,54.684631],[-8.696483,54.684602],[-8.69643,54.684592],[-8.696359,54.684584],[-8.696299,54.684574],[-8.696295,54.684569],[-8.696263,54.684535],[-8.696253,54.684525],[-8.696183,54.684433],[-8.696133,54.684341],[-8.696066,54.684229],[-8.696045,54.684157],[-8.696061,54.684087],[-8.696086,54.684047],[-8.69609,54.684029],[-8.69609,54.684014],[-8.696104,54.683981],[-8.696111,54.683973],[-8.696136,54.683955],[-8.696152,54.683926],[-8.696172,54.683918],[-8.696183,54.683905],[-8.696207,54.683878],[-8.696229,54.683859],[-8.69625,54.683834],[-8.696296,54.683771],[-8.696314,54.683764],[-8.696343,54.683743],[-8.696357,54.683727],[-8.696408,54.683713],[-8.696458,54.68371],[-8.696525,54.683702],[-8.696585,54.683694],[-8.696646,54.68368],[-8.696703,54.683663],[-8.696748,54.683641],[-8.696788,54.683624],[-8.696817,54.683622],[-8.696831,54.683632],[-8.696878,54.683651],[-8.696926,54.683648],[-8.696979,54.683645],[-8.69701,54.683649],[-8.69709,54.683652],[-8.697136,54.68365],[-8.697156,54.68365],[-8.697256,54.683658],[-8.697351,54.683659],[-8.697403,54.683645],[-8.697492,54.683623],[-8.697565,54.683603],[-8.697694,54.683564],[-8.697747,54.683549],[-8.697723,54.683502],[-8.697726,54.683473],[-8.69773,54.683452],[-8.697722,54.683425],[-8.697702,54.683403],[-8.697668,54.683389],[-8.69762,54.683378],[-8.6976,54.683358],[-8.697604,54.683329],[-8.697597,54.683318],[-8.697607,54.683302],[-8.697593,54.683279],[-8.697586,54.683269],[-8.697576,54.683255],[-8.69758,54.68322],[-8.69759,54.683172],[-8.697598,54.683145],[-8.697594,54.683126],[-8.697594,54.683118],[-8.697602,54.683084],[-8.697617,54.683074],[-8.697649,54.683066],[-8.697686,54.683046],[-8.697703,54.683027],[-8.697731,54.68301],[-8.697778,54.683],[-8.697816,54.682986],[-8.697831,54.682981],[-8.69786,54.68297],[-8.69788,54.682975],[-8.697906,54.682966],[-8.697964,54.682983],[-8.69801,54.68299],[-8.698055,54.68299],[-8.698108,54.682987],[-8.698165,54.682967],[-8.698223,54.682955],[-8.69826,54.682951],[-8.698305,54.682924],[-8.698338,54.682908],[-8.698391,54.682868],[-8.698398,54.682857],[-8.69842,54.682853],[-8.698441,54.682838],[-8.698466,54.682835],[-8.698476,54.682808],[-8.698456,54.682764],[-8.69847,54.68275],[-8.698477,54.682721],[-8.698458,54.682697],[-8.698422,54.682667],[-8.698403,54.68265],[-8.698403,54.682638],[-8.6984,54.682617],[-8.6984,54.682591],[-8.698369,54.682544],[-8.69834,54.682524],[-8.69833,54.682503],[-8.698291,54.682479],[-8.698263,54.682466],[-8.698253,54.682455],[-8.698209,54.68244],[-8.698194,54.682427],[-8.698189,54.682418],[-8.698194,54.682409],[-8.698216,54.68239],[-8.698252,54.682374],[-8.698282,54.682364],[-8.698301,54.682349],[-8.69831,54.682328],[-8.698316,54.682318],[-8.698324,54.682305],[-8.698327,54.68229],[-8.698318,54.68228],[-8.698313,54.682265],[-8.698321,54.682266],[-8.698356,54.682234],[-8.698364,54.682188],[-8.698309,54.682159],[-8.698276,54.68214],[-8.698287,54.682121],[-8.698308,54.682106],[-8.698371,54.682097],[-8.698368,54.682077],[-8.698365,54.682036],[-8.698362,54.682019],[-8.698427,54.681995],[-8.698461,54.681978],[-8.698485,54.68195],[-8.698548,54.681914],[-8.698595,54.681891],[-8.69868,54.681877],[-8.698677,54.68185],[-8.698691,54.681821],[-8.698748,54.681805],[-8.69878,54.681782],[-8.698787,54.681761],[-8.698756,54.681736],[-8.698741,54.681727],[-8.698752,54.681706],[-8.698771,54.681697],[-8.698802,54.681693],[-8.69888,54.681673],[-8.698914,54.681635],[-8.698965,54.681611],[-8.698965,54.681564],[-8.698944,54.681525],[-8.698934,54.681498],[-8.698937,54.681481],[-8.698934,54.681468],[-8.698892,54.681442],[-8.698901,54.681421],[-8.698941,54.681396],[-8.698943,54.681374],[-8.698944,54.681359],[-8.698938,54.681316],[-8.698968,54.681278],[-8.699012,54.681283],[-8.699053,54.681275],[-8.699232,54.681214],[-8.699324,54.681186],[-8.699349,54.681173],[-8.699425,54.681176],[-8.69948,54.681175],[-8.699523,54.681173],[-8.699619,54.681183],[-8.699703,54.68119],[-8.699773,54.681189],[-8.699838,54.681195],[-8.699862,54.681185],[-8.699908,54.681178],[-8.699946,54.681212],[-8.699973,54.681205],[-8.699973,54.681205],[-8.699985,54.681201],[-8.699968,54.681173],[-8.699972,54.681148],[-8.699997,54.681117],[-8.700015,54.681095],[-8.700027,54.681082],[-8.700028,54.681081],[-8.700032,54.681077],[-8.70003,54.681049],[-8.700033,54.681046],[-8.700072,54.681011],[-8.700133,54.680969],[-8.700198,54.680938],[-8.700295,54.680909],[-8.700369,54.680898],[-8.700495,54.680864],[-8.700573,54.680835],[-8.700635,54.680817],[-8.700732,54.680815],[-8.700848,54.680811],[-8.70101,54.680781],[-8.701063,54.680748],[-8.701143,54.680733],[-8.701331,54.680675],[-8.70139,54.680654],[-8.70169,54.680456],[-8.701761,54.680443],[-8.701776,54.680366],[-8.702058,54.680273],[-8.702247,54.68021],[-8.702554,54.680229],[-8.703045,54.680241],[-8.703109,54.680233],[-8.703176,54.680164],[-8.703481,54.680006],[-8.703728,54.679907],[-8.703705,54.679856],[-8.703698,54.67984],[-8.703642,54.679729],[-8.703618,54.679674],[-8.703601,54.679583],[-8.703619,54.67948],[-8.703641,54.679417],[-8.703634,54.67929],[-8.7036,54.679181],[-8.703558,54.679134],[-8.703484,54.679084],[-8.703467,54.679014],[-8.703442,54.678903],[-8.7034,54.678858],[-8.703344,54.678822],[-8.703175,54.678753],[-8.703069,54.67873],[-8.702963,54.678674],[-8.702918,54.678646],[-8.702822,54.678642],[-8.702723,54.678621],[-8.702628,54.678576],[-8.702533,54.678517],[-8.702435,54.678443],[-8.702364,54.678393],[-8.702315,54.678346],[-8.702245,54.678236],[-8.702214,54.678197],[-8.702101,54.678139],[-8.701928,54.67806],[-8.701872,54.677991],[-8.701813,54.677901],[-8.701813,54.677843],[-8.701826,54.677794],[-8.701817,54.677794],[-8.701752,54.677798],[-8.701684,54.677802],[-8.701474,54.677818]],[[-8.696496,54.68655],[-8.696031,54.686553],[-8.696026,54.686283],[-8.696491,54.686281],[-8.696496,54.68655]],[[-8.699195,54.681144],[-8.69919,54.680874],[-8.699655,54.680871],[-8.69966,54.681141],[-8.699195,54.681144]],[[-8.69744,54.687353],[-8.697906,54.687351],[-8.69791,54.68762],[-8.697445,54.687623],[-8.69744,54.687353]],[[-8.688989,54.682819],[-8.688984,54.68255],[-8.69038,54.682542],[-8.690384,54.682811],[-8.688989,54.682819]]],[[[-8.692378,54.685222],[-8.692371,54.685226],[-8.692872,54.685223],[-8.692908,54.6852],[-8.692955,54.685155],[-8.692997,54.685108],[-8.693034,54.685069],[-8.693045,54.685061],[-8.69286,54.685044],[-8.692721,54.68507],[-8.692604,54.685083],[-8.692512,54.685135],[-8.692445,54.685183],[-8.692378,54.685222]]],[[[-8.692939,54.685219],[-8.692933,54.685223],[-8.693516,54.68522],[-8.693559,54.685204],[-8.69379,54.685191],[-8.693823,54.685187],[-8.69383,54.685184],[-8.693851,54.685153],[-8.693925,54.684994],[-8.694029,54.684801],[-8.693966,54.684803],[-8.693806,54.68481],[-8.693709,54.684812],[-8.69358,54.684819],[-8.693398,54.684902],[-8.693249,54.684975],[-8.693137,54.685042],[-8.693047,54.685097],[-8.693006,54.685146],[-8.692939,54.685219]]],[[[-8.693797,54.685216],[-8.693682,54.685222],[-8.693686,54.685488],[-8.694536,54.685483],[-8.694602,54.685441],[-8.694641,54.685375],[-8.69464,54.685283],[-8.694676,54.685224],[-8.69488,54.685144],[-8.694788,54.685053],[-8.694821,54.685008],[-8.694965,54.68481],[-8.694935,54.684822],[-8.694808,54.684878],[-8.694676,54.684912],[-8.694628,54.684912],[-8.6946,54.684908],[-8.694544,54.68488],[-8.694487,54.684897],[-8.694436,54.684901],[-8.69427,54.684857],[-8.694112,54.684811],[-8.694071,54.684807],[-8.693966,54.685],[-8.693892,54.685161],[-8.693865,54.685201],[-8.69384,54.68521],[-8.693797,54.685216]]],[[[-8.698535,54.685136],[-8.698399,54.685192],[-8.69878,54.685189],[-8.698789,54.685153],[-8.698799,54.685075],[-8.698799,54.685075],[-8.698799,54.685075],[-8.698781,54.685077],[-8.698697,54.685118],[-8.698535,54.685136]]],[[[-8.699906,54.682262],[-8.699977,54.682264],[-8.700062,54.682257],[-8.700172,54.682261],[-8.700277,54.682267],[-8.700373,54.682259],[-8.700459,54.682258],[-8.700523,54.682242],[-8.70059,54.682229],[-8.700693,54.682192],[-8.700753,54.682151],[-8.7008,54.682109],[-8.700817,54.682098],[-8.700832,54.682047],[-8.700839,54.682007],[-8.70085,54.681968],[-8.700826,54.681915],[-8.700801,54.681878],[-8.700766,54.681845],[-8.700717,54.68177],[-8.700685,54.681754],[-8.700633,54.681714],[-8.700593,54.68169],[-8.70053,54.681666],[-8.700468,54.681655],[-8.700374,54.681673],[-8.7003,54.68172],[-8.700279,54.681733],[-8.700199,54.681792],[-8.700105,54.681854],[-8.700006,54.681878],[-8.699935,54.681886],[-8.699836,54.681884],[-8.699645,54.681883],[-8.699572,54.681857],[-8.699495,54.681847],[-8.699401,54.681839],[-8.699306,54.681857],[-8.69922,54.68188],[-8.699181,54.681905],[-8.699147,54.681941],[-8.699107,54.681982],[-8.699121,54.681998],[-8.699185,54.682002],[-8.699231,54.682001],[-8.699284,54.68202],[-8.699337,54.68203],[-8.699386,54.682045],[-8.699407,54.682056],[-8.69947,54.682062],[-8.699503,54.682076],[-8.699587,54.68211],[-8.699619,54.682119],[-8.699654,54.682129],[-8.699696,54.682169],[-8.699731,54.682224],[-8.699758,54.68223],[-8.699803,54.682215],[-8.699855,54.68223],[-8.699877,54.682245],[-8.699906,54.682262]]]]}}]}
