{"type":"FeatureCollection","features":[{"type":"Feature","properties":{"source_fid":1751945,"county":"Sligo","bog_geom_ha":196.54884900962639,"low15_pct":52.569349704411096,"low15_ha":103.32445177586544,"overlay_ha":103.13170521998022,"area_delta":-0.19274655588522194},"geometry":{"type":"MultiPolygon","coordinates":[[[[-8.781041,54.177659],[-8.780993,54.177636],[-8.780946,54.177599],[-8.780865,54.177573],[-8.780812,54.177562],[-8.780798,54.177567],[-8.780755,54.177576],[-8.780729,54.177584],[-8.780678,54.177621],[-8.780615,54.177638],[-8.780586,54.17763],[-8.780527,54.177576],[-8.780498,54.177578],[-8.780443,54.177593],[-8.780348,54.177568],[-8.780124,54.177518],[-8.780014,54.177497],[-8.779822,54.177507],[-8.779621,54.177508],[-8.779468,54.177461],[-8.779446,54.177463],[-8.779376,54.177474],[-8.77931,54.177507],[-8.779157,54.177595],[-8.779109,54.177599],[-8.778984,54.177574],[-8.778856,54.177539],[-8.778804,54.177516],[-8.778677,54.177494],[-8.778609,54.177465],[-8.778479,54.177447],[-8.778468,54.177449],[-8.778468,54.177449],[-8.778152,54.178214],[-8.777978,54.178651],[-8.777847,54.178979],[-8.77784,54.179],[-8.778012,54.178999],[-8.778017,54.179269],[-8.777753,54.179271],[-8.777569,54.179845],[-8.77731,54.180511],[-8.777036,54.181215],[-8.776934,54.181432],[-8.777139,54.181431],[-8.777144,54.181701],[-8.776806,54.181703],[-8.776689,54.181951],[-8.776689,54.181973],[-8.776678,54.181973],[-8.776637,54.182061],[-8.776536,54.182321],[-8.776332,54.18284],[-8.776158,54.183325],[-8.776715,54.183321],[-8.77672,54.18359],[-8.777639,54.183585],[-8.777634,54.183315],[-8.780391,54.183297],[-8.780386,54.183028],[-8.780381,54.182758],[-8.780376,54.182489],[-8.781295,54.182483],[-8.78129,54.182213],[-8.782209,54.182207],[-8.782204,54.181938],[-8.78336,54.18193],[-8.783172,54.181662],[-8.783118,54.181662],[-8.783116,54.181582],[-8.783037,54.181468],[-8.782892,54.180964],[-8.782653,54.180302],[-8.782399,54.179634],[-8.782245,54.179241],[-8.782153,54.179242],[-8.782148,54.178994],[-8.78214,54.178973],[-8.781688,54.178976],[-8.781683,54.178706],[-8.782034,54.178704],[-8.781676,54.177789],[-8.781473,54.177745],[-8.78147,54.177745],[-8.781338,54.177732],[-8.781191,54.177704],[-8.78107,54.177687],[-8.781041,54.177659]],[[-8.777619,54.182506],[-8.777624,54.182776],[-8.777164,54.182779],[-8.777159,54.182509],[-8.777154,54.18224],[-8.778533,54.182231],[-8.778538,54.1825],[-8.777619,54.182506]]],[[[-8.783398,54.182796],[-8.783412,54.182738],[-8.783138,54.18274],[-8.783143,54.18301],[-8.783603,54.183007],[-8.783602,54.182957],[-8.783559,54.182936],[-8.783468,54.182889],[-8.783398,54.182796]]],[[[-8.783706,54.183009],[-8.783701,54.183006],[-8.783603,54.183007],[-8.783608,54.183276],[-8.784067,54.183273],[-8.784065,54.183175],[-8.78404,54.183155],[-8.783912,54.183101],[-8.783706,54.183009]]],[[[-8.775786,54.193288],[-8.775852,54.193031],[-8.775518,54.193033],[-8.775523,54.193303],[-8.775784,54.193301],[-8.775786,54.193288]]],[[[-8.775468,54.194959],[-8.775547,54.194582],[-8.775543,54.194381],[-8.775083,54.194384],[-8.775088,54.194654],[-8.774628,54.194657],[-8.774634,54.194926],[-8.774174,54.194929],[-8.774184,54.195468],[-8.774644,54.195465],[-8.774649,54.195735],[-8.775568,54.195729],[-8.775563,54.195459],[-8.77556,54.195283],[-8.775468,54.194959]]],[[[-8.775872,54.197035],[-8.775748,54.196267],[-8.775118,54.196271],[-8.775113,54.196001],[-8.774654,54.196004],[-8.774649,54.195735],[-8.773729,54.195741],[-8.773734,54.19601],[-8.772815,54.196016],[-8.77282,54.196286],[-8.771901,54.196292],[-8.771906,54.196561],[-8.770986,54.196567],[-8.770981,54.196297],[-8.770976,54.196028],[-8.771896,54.196022],[-8.771891,54.195753],[-8.771431,54.195755],[-8.771426,54.195486],[-8.771416,54.194947],[-8.771411,54.194677],[-8.77187,54.194674],[-8.771865,54.194405],[-8.772325,54.194402],[-8.77232,54.194132],[-8.77278,54.194129],[-8.772775,54.19386],[-8.773234,54.193857],[-8.773229,54.193587],[-8.773689,54.193584],[-8.773684,54.193315],[-8.773679,54.193045],[-8.774139,54.193042],[-8.774134,54.192773],[-8.773674,54.192776],[-8.773669,54.192506],[-8.773209,54.192509],[-8.773204,54.19224],[-8.772745,54.192243],[-8.772729,54.191434],[-8.773189,54.191431],[-8.773179,54.190892],[-8.773639,54.190889],[-8.773634,54.190619],[-8.774093,54.190616],[-8.774088,54.190347],[-8.774548,54.190344],[-8.774538,54.189805],[-8.774997,54.189802],[-8.774992,54.189532],[-8.775452,54.189529],[-8.775447,54.18926],[-8.775907,54.189257],[-8.775901,54.188987],[-8.776361,54.188984],[-8.776356,54.188715],[-8.776816,54.188712],[-8.776806,54.188173],[-8.777265,54.18817],[-8.77726,54.1879],[-8.777255,54.187631],[-8.776795,54.187634],[-8.77679,54.187364],[-8.776785,54.187095],[-8.776326,54.187098],[-8.776321,54.186828],[-8.775861,54.186831],[-8.775856,54.186561],[-8.776316,54.186558],[-8.776311,54.186289],[-8.775851,54.186292],[-8.775846,54.186022],[-8.775841,54.185753],[-8.775381,54.185756],[-8.775376,54.185486],[-8.775182,54.185487],[-8.774779,54.186225],[-8.773989,54.18719],[-8.773975,54.187208],[-8.773935,54.187271],[-8.773555,54.187883],[-8.773244,54.18811],[-8.773064,54.188242],[-8.771995,54.188973],[-8.771191,54.189455],[-8.77099,54.189576],[-8.769782,54.190355],[-8.769077,54.190869],[-8.769024,54.190918],[-8.769042,54.190918],[-8.769052,54.191457],[-8.769057,54.191727],[-8.768138,54.191733],[-8.768137,54.191659],[-8.768118,54.191673],[-8.767835,54.191837],[-8.767936,54.191978],[-8.768062,54.19219],[-8.768306,54.192588],[-8.768518,54.193003],[-8.76883,54.193628],[-8.768962,54.193925],[-8.769131,54.194463],[-8.769277,54.194917],[-8.769427,54.195335],[-8.769482,54.195498],[-8.769587,54.195498],[-8.769582,54.195228],[-8.770501,54.195222],[-8.770506,54.195492],[-8.770047,54.195495],[-8.770052,54.195764],[-8.769592,54.195767],[-8.769595,54.195925],[-8.769618,54.196041],[-8.769742,54.196531],[-8.76979,54.196785],[-8.769883,54.197106],[-8.769991,54.197487],[-8.770081,54.197873],[-8.770209,54.198205],[-8.77031,54.198522],[-8.770377,54.198728],[-8.770567,54.198726],[-8.770562,54.198457],[-8.77332,54.198439],[-8.773325,54.198709],[-8.775164,54.198697],[-8.775169,54.198966],[-8.776674,54.198957],[-8.776635,54.198884],[-8.776379,54.198483],[-8.775998,54.197911],[-8.775872,54.197035]]],[[[-8.778976,54.203732],[-8.778884,54.203256],[-8.778008,54.203261],[-8.778003,54.202992],[-8.776164,54.203004],[-8.776159,54.202734],[-8.775239,54.20274],[-8.775234,54.20247],[-8.774775,54.202473],[-8.77477,54.202204],[-8.77431,54.202207],[-8.7743,54.201668],[-8.77338,54.201674],[-8.773375,54.201404],[-8.772916,54.201407],[-8.7729,54.200598],[-8.772441,54.200601],[-8.772436,54.200332],[-8.771056,54.200341],[-8.771051,54.200071],[-8.770852,54.200072],[-8.770959,54.200371],[-8.771472,54.20189],[-8.771964,54.203201],[-8.772648,54.203692],[-8.773829,54.204781],[-8.773861,54.205015],[-8.773939,54.205482],[-8.773955,54.205619],[-8.774077,54.206231],[-8.774204,54.206942],[-8.774249,54.207329],[-8.774865,54.207325],[-8.77486,54.207056],[-8.77624,54.207047],[-8.776235,54.206777],[-8.776695,54.206774],[-8.77669,54.206505],[-8.779431,54.206487],[-8.779297,54.205823],[-8.779075,54.204986],[-8.779008,54.204373],[-8.778976,54.203732]]],[[[-8.780272,54.209752],[-8.780263,54.209717],[-8.779049,54.209724],[-8.779044,54.209455],[-8.778585,54.209458],[-8.77859,54.209727],[-8.77813,54.20973],[-8.778135,54.21],[-8.777675,54.210003],[-8.77767,54.209733],[-8.77675,54.209739],[-8.776755,54.210009],[-8.774456,54.210024],[-8.774451,54.209754],[-8.774446,54.209485],[-8.774237,54.209486],[-8.774188,54.209737],[-8.774113,54.210061],[-8.773935,54.21084],[-8.77386,54.211106],[-8.774016,54.211105],[-8.774021,54.211374],[-8.774481,54.211371],[-8.774491,54.21191],[-8.774951,54.211907],[-8.774956,54.212177],[-8.775416,54.212174],[-8.775421,54.212444],[-8.775881,54.212441],[-8.775886,54.21271],[-8.776346,54.212707],[-8.776351,54.212977],[-8.776811,54.212974],[-8.776816,54.213243],[-8.777276,54.21324],[-8.777281,54.21351],[-8.777741,54.213507],[-8.777746,54.213776],[-8.780045,54.213762],[-8.78004,54.213492],[-8.780712,54.213488],[-8.780707,54.213442],[-8.780687,54.213062],[-8.780602,54.212663],[-8.78051,54.211932],[-8.780487,54.211748],[-8.780409,54.2109],[-8.780381,54.210533],[-8.780272,54.209752]]],[[[-8.778033,54.218237],[-8.778045,54.218897],[-8.778302,54.218895],[-8.778297,54.218625],[-8.779677,54.218616],[-8.779667,54.218077],[-8.779207,54.21808],[-8.779212,54.21835],[-8.778292,54.218356],[-8.778287,54.218086],[-8.775987,54.218101],[-8.775982,54.217832],[-8.774602,54.21784],[-8.774597,54.217571],[-8.773218,54.21758],[-8.773214,54.21737],[-8.771885,54.217378],[-8.771879,54.217041],[-8.771842,54.217104],[-8.771761,54.217238],[-8.77162,54.217427],[-8.771498,54.217569],[-8.771383,54.217699],[-8.7713,54.217787],[-8.771238,54.217862],[-8.771383,54.217861],[-8.771388,54.218131],[-8.772308,54.218125],[-8.77231,54.218274],[-8.778033,54.218237]]],[[[-8.774302,54.207868],[-8.774312,54.208138],[-8.774421,54.208137],[-8.774416,54.207867],[-8.774302,54.207868]]],[[[-8.770574,54.199265],[-8.770577,54.199271],[-8.770577,54.199265],[-8.770574,54.199265]]],[[[-8.775952,54.183865],[-8.775717,54.184406],[-8.775816,54.184405],[-8.775821,54.184675],[-8.77674,54.184669],[-8.776745,54.184938],[-8.777204,54.184935],[-8.77721,54.185205],[-8.778129,54.185199],[-8.778124,54.184929],[-8.778583,54.184926],[-8.778588,54.185196],[-8.779507,54.18519],[-8.779502,54.18492],[-8.779962,54.184917],[-8.779936,54.18357],[-8.779017,54.183576],[-8.779022,54.183845],[-8.775952,54.183865]]],[[[-8.785211,54.185527],[-8.785136,54.185423],[-8.784568,54.185427],[-8.784573,54.185696],[-8.784578,54.185966],[-8.784118,54.185969],[-8.784123,54.186238],[-8.784129,54.186508],[-8.784134,54.186777],[-8.784139,54.187047],[-8.783679,54.18705],[-8.783684,54.187319],[-8.784144,54.187316],[-8.784149,54.187586],[-8.784609,54.187583],[-8.784614,54.187853],[-8.785073,54.18785],[-8.785078,54.188119],[-8.785255,54.188118],[-8.785826,54.187993],[-8.78582,54.187976],[-8.785801,54.187919],[-8.785785,54.187856],[-8.785784,54.187813],[-8.785784,54.187783],[-8.785785,54.187661],[-8.785784,54.187452],[-8.785782,54.187435],[-8.785764,54.18732],[-8.785754,54.187224],[-8.785747,54.187158],[-8.785735,54.187074],[-8.785735,54.187073],[-8.785721,54.187001],[-8.78572,54.186998],[-8.785631,54.186558],[-8.785547,54.186245],[-8.785473,54.185858],[-8.785434,54.185685],[-8.785406,54.185667],[-8.785211,54.185527]]],[[[-8.776568,54.200036],[-8.776563,54.199766],[-8.775644,54.199772],[-8.775649,54.200042],[-8.776568,54.200036]]],[[[-8.774724,54.199778],[-8.774719,54.199508],[-8.774259,54.199511],[-8.774265,54.199781],[-8.774724,54.199778]]],[[[-8.7738,54.199514],[-8.773795,54.199245],[-8.772875,54.199251],[-8.77288,54.19952],[-8.7738,54.199514]]],[[[-8.771956,54.199257],[-8.771951,54.198987],[-8.771031,54.198993],[-8.771036,54.199262],[-8.771956,54.199257]]]]}}]}
