{"type":"FeatureCollection","features":[{"type":"Feature","properties":{"source_fid":1752061,"county":"Mayo","bog_geom_ha":213.61475143944247,"low15_pct":88.292068820814094,"low15_ha":188.60488335232353,"overlay_ha":188.9739998928078,"area_delta":0.36911654048427067},"geometry":{"type":"MultiPolygon","coordinates":[[[[-8.959586,54.094427],[-8.959698,54.094457],[-8.959747,54.094469],[-8.959898,54.094513],[-8.960032,54.094544],[-8.959965,54.094509],[-8.959819,54.09446],[-8.959575,54.094394],[-8.959415,54.09435],[-8.959235,54.094289],[-8.959099,54.09424],[-8.958924,54.094174],[-8.958753,54.094106],[-8.958609,54.094046],[-8.958503,54.094],[-8.958402,54.093956],[-8.958352,54.093935],[-8.958332,54.093926],[-8.958256,54.093892],[-8.958173,54.093846],[-8.958029,54.093761],[-8.957917,54.093691],[-8.957801,54.093612],[-8.957651,54.093513],[-8.957528,54.093438],[-8.957415,54.093357],[-8.957334,54.093303],[-8.957287,54.093272],[-8.957286,54.093309],[-8.957338,54.093339],[-8.957423,54.093398],[-8.957521,54.093468],[-8.957662,54.093552],[-8.957751,54.093612],[-8.957879,54.093697],[-8.957969,54.093754],[-8.958103,54.093837],[-8.958205,54.093896],[-8.958346,54.093954],[-8.958356,54.093958],[-8.958456,54.094002],[-8.958616,54.094078],[-8.95883,54.094165],[-8.95905,54.094255],[-8.959219,54.094316],[-8.959386,54.094371],[-8.959586,54.094427]]],[[[-8.976827,54.09383],[-8.976674,54.093719],[-8.97664,54.093693],[-8.976436,54.093534],[-8.976255,54.093403],[-8.974801,54.095883],[-8.975047,54.095881],[-8.975053,54.096151],[-8.97506,54.09642],[-8.974601,54.096424],[-8.974607,54.096694],[-8.974614,54.096963],[-8.97462,54.097233],[-8.974161,54.097237],[-8.974177,54.097896],[-8.974461,54.098159],[-8.974183,54.098134],[-8.974187,54.098315],[-8.974193,54.098584],[-8.973734,54.098588],[-8.973741,54.098857],[-8.973478,54.09886],[-8.973433,54.098923],[-8.973288,54.099112],[-8.973288,54.099131],[-8.973274,54.099131],[-8.973213,54.09921],[-8.973006,54.099206],[-8.972621,54.099204],[-8.972373,54.099217],[-8.972378,54.099408],[-8.971919,54.099411],[-8.971916,54.099268],[-8.971774,54.099288],[-8.971457,54.099275],[-8.97146,54.099415],[-8.971002,54.099419],[-8.971008,54.099688],[-8.969632,54.099699],[-8.969639,54.099969],[-8.968721,54.099976],[-8.968728,54.100246],[-8.969186,54.100242],[-8.969199,54.100781],[-8.969205,54.101051],[-8.969664,54.101047],[-8.96967,54.101317],[-8.968753,54.101324],[-8.968759,54.101594],[-8.9683,54.101597],[-8.968294,54.101328],[-8.967836,54.101331],[-8.967829,54.101062],[-8.967371,54.101066],[-8.967377,54.101335],[-8.966918,54.101339],[-8.966931,54.101878],[-8.966472,54.101881],[-8.966485,54.102421],[-8.966943,54.102417],[-8.966956,54.102956],[-8.966987,54.104304],[-8.966529,54.104307],[-8.966535,54.104577],[-8.966547,54.105116],[-8.967006,54.105112],[-8.967012,54.105382],[-8.967019,54.105651],[-8.967477,54.105648],[-8.967484,54.105917],[-8.968401,54.10591],[-8.968407,54.106179],[-8.968866,54.106176],[-8.968872,54.106445],[-8.969331,54.106441],[-8.969337,54.106711],[-8.969796,54.106707],[-8.969802,54.106977],[-8.970261,54.106973],[-8.970267,54.107243],[-8.971184,54.107235],[-8.971191,54.107505],[-8.971197,54.107774],[-8.971203,54.108044],[-8.971662,54.10804],[-8.971668,54.10831],[-8.971675,54.108579],[-8.972133,54.108576],[-8.97214,54.108845],[-8.972146,54.109115],[-8.971696,54.109118],[-8.971708,54.109657],[-8.972617,54.10965],[-8.972624,54.109919],[-8.973541,54.109912],[-8.973547,54.110182],[-8.974006,54.110178],[-8.974012,54.110447],[-8.974471,54.110444],[-8.974477,54.110713],[-8.974936,54.11071],[-8.974942,54.110979],[-8.975401,54.110975],[-8.975407,54.111245],[-8.975414,54.111514],[-8.976331,54.111507],[-8.976344,54.112046],[-8.976195,54.112047],[-8.976277,54.112096],[-8.97633,54.112133],[-8.976412,54.112207],[-8.976515,54.112292],[-8.976574,54.112343],[-8.976615,54.11237],[-8.976786,54.112478],[-8.976957,54.112594],[-8.977226,54.112774],[-8.977429,54.112911],[-8.977548,54.112994],[-8.977604,54.113032],[-8.977637,54.11305],[-8.977851,54.113165],[-8.978063,54.113265],[-8.978358,54.113414],[-8.978607,54.11353],[-8.978773,54.113618],[-8.979148,54.113806],[-8.979337,54.113872],[-8.97937,54.113886],[-8.979781,54.114088],[-8.980381,54.114383],[-8.981083,54.114708],[-8.981815,54.115058],[-8.981843,54.115071],[-8.981865,54.115082],[-8.981974,54.115134],[-8.982163,54.115226],[-8.982205,54.115246],[-8.982242,54.115264],[-8.982336,54.115308],[-8.982526,54.115397],[-8.983194,54.115729],[-8.983212,54.115738],[-8.983515,54.115894],[-8.983658,54.115967],[-8.983929,54.11611],[-8.984721,54.116449],[-8.985343,54.11647],[-8.989004,54.116594],[-8.98913,54.116516],[-8.989798,54.116062],[-8.990089,54.115877],[-8.990089,54.115877],[-8.990272,54.115761],[-8.99046,54.115642],[-8.990875,54.115379],[-8.991028,54.115275],[-8.989375,54.114449],[-8.990774,54.113368],[-8.991463,54.112836],[-8.991514,54.112799],[-8.992134,54.112348],[-8.99238,54.112126],[-8.992667,54.111903],[-8.993135,54.111538],[-8.993284,54.111404],[-8.993333,54.111363],[-8.993381,54.111256],[-8.992547,54.111111],[-8.991919,54.110988],[-8.991922,54.11111],[-8.991463,54.111114],[-8.991476,54.111653],[-8.991017,54.111657],[-8.991023,54.111926],[-8.990106,54.111934],[-8.9901,54.111664],[-8.990558,54.11166],[-8.990545,54.111121],[-8.991004,54.111117],[-8.990997,54.11081],[-8.990133,54.110652],[-8.990093,54.110645],[-8.990044,54.110637],[-8.989596,54.110604],[-8.989131,54.110568],[-8.988539,54.110494],[-8.986891,54.110118],[-8.987396,54.109427],[-8.985973,54.109038],[-8.984816,54.108722],[-8.984733,54.108699],[-8.9838,54.108441],[-8.982269,54.108025],[-8.98166,54.107864],[-8.98157,54.107841],[-8.981848,54.107483],[-8.982172,54.107037],[-8.982401,54.10672],[-8.982534,54.10666],[-8.98261,54.106406],[-8.982621,54.106346],[-8.982578,54.106334],[-8.982174,54.106337],[-8.982171,54.106224],[-8.981922,54.106156],[-8.981407,54.105981],[-8.980939,54.105819],[-8.980657,54.105708],[-8.979929,54.10541],[-8.979161,54.105039],[-8.979094,54.105005],[-8.978838,54.104883],[-8.978668,54.10481],[-8.978609,54.104782],[-8.978482,54.104715],[-8.97825,54.104614],[-8.977838,54.104438],[-8.977821,54.10443],[-8.977731,54.104389],[-8.977473,54.104302],[-8.977341,54.104263],[-8.977165,54.104201],[-8.976932,54.104106],[-8.976806,54.104038],[-8.976352,54.103914],[-8.975642,54.103722],[-8.975156,54.103601],[-8.975273,54.10336],[-8.975453,54.102952],[-8.975699,54.102407],[-8.975884,54.102013],[-8.976177,54.101413],[-8.976403,54.100972],[-8.976547,54.100663],[-8.976462,54.100586],[-8.976401,54.100566],[-8.97628,54.100503],[-8.97611,54.100389],[-8.976048,54.100345],[-8.975984,54.10029],[-8.975957,54.100243],[-8.97596,54.100218],[-8.975978,54.100187],[-8.975607,54.10019],[-8.975613,54.10046],[-8.974237,54.100471],[-8.974244,54.10074],[-8.973326,54.100748],[-8.97332,54.100478],[-8.973779,54.100475],[-8.973772,54.100205],[-8.973766,54.099936],[-8.974225,54.099932],[-8.974218,54.099662],[-8.974677,54.099659],[-8.974671,54.099389],[-8.975129,54.099385],[-8.975123,54.099116],[-8.975581,54.099112],[-8.975575,54.098843],[-8.976034,54.098839],[-8.976027,54.098569],[-8.97711,54.098561],[-8.977173,54.098494],[-8.977212,54.098466],[-8.977281,54.098434],[-8.97752,54.098389],[-8.97772,54.098344],[-8.977792,54.098323],[-8.977856,54.098311],[-8.977855,54.098285],[-8.978055,54.098283],[-8.978174,54.098269],[-8.978435,54.098253],[-8.978493,54.09825],[-8.978771,54.098226],[-8.979,54.098205],[-8.979429,54.098146],[-8.979658,54.098116],[-8.97973,54.098106],[-8.979951,54.098069],[-8.980122,54.098045],[-8.980318,54.098017],[-8.980225,54.097874],[-8.980211,54.097853],[-8.980141,54.097744],[-8.979973,54.097571],[-8.979797,54.097442],[-8.979808,54.097393],[-8.979862,54.097141],[-8.979868,54.097114],[-8.979869,54.097106],[-8.97992,54.096771],[-8.979922,54.096755],[-8.979953,54.096552],[-8.979965,54.096446],[-8.979968,54.096423],[-8.980005,54.096106],[-8.980014,54.096028],[-8.979999,54.096016],[-8.979241,54.095544],[-8.979063,54.095433],[-8.979021,54.095407],[-8.978933,54.095352],[-8.978839,54.095281],[-8.978738,54.095206],[-8.978605,54.095105],[-8.978493,54.095024],[-8.978448,54.094991],[-8.978417,54.094968],[-8.978125,54.094753],[-8.978121,54.094749],[-8.978075,54.094716],[-8.978047,54.094695],[-8.978047,54.094695],[-8.978001,54.094666],[-8.977884,54.094593],[-8.97782,54.094554],[-8.977615,54.094413],[-8.977513,54.094343],[-8.977291,54.094182],[-8.977111,54.094033],[-8.976937,54.093909],[-8.976827,54.09383]],[[-8.989647,54.111937],[-8.990106,54.111934],[-8.990112,54.112203],[-8.989654,54.112207],[-8.989647,54.111937]],[[-8.974759,54.103163],[-8.9743,54.103166],[-8.974288,54.102627],[-8.974281,54.102358],[-8.974275,54.102088],[-8.975192,54.102081],[-8.975186,54.101811],[-8.975645,54.101807],[-8.975651,54.102077],[-8.975657,54.102347],[-8.975199,54.10235],[-8.975205,54.10262],[-8.974746,54.102624],[-8.974759,54.103163]],[[-8.973842,54.10317],[-8.9743,54.103166],[-8.974307,54.103436],[-8.973848,54.10344],[-8.973842,54.10317]],[[-8.979581,54.113098],[-8.978663,54.113106],[-8.978657,54.112836],[-8.979574,54.112829],[-8.979581,54.113098]],[[-8.971473,54.099954],[-8.971467,54.099685],[-8.972384,54.099677],[-8.97239,54.099947],[-8.971473,54.099954]],[[-8.973867,54.104248],[-8.97295,54.104256],[-8.972943,54.103986],[-8.973402,54.103982],[-8.973396,54.103713],[-8.973854,54.103709],[-8.973861,54.103979],[-8.973867,54.104248]],[[-8.972491,54.104259],[-8.97295,54.104256],[-8.972956,54.104525],[-8.972497,54.104529],[-8.972491,54.104259]],[[-8.971115,54.10427],[-8.970657,54.104274],[-8.97065,54.104005],[-8.971109,54.104001],[-8.971115,54.10427]],[[-8.968816,54.104019],[-8.968809,54.10375],[-8.970185,54.103739],[-8.970192,54.104008],[-8.968816,54.104019]]],[[[-8.976088,54.099998],[-8.976133,54.099916],[-8.976059,54.099917],[-8.976062,54.100041],[-8.976088,54.099998]]],[[[-8.973285,54.111704],[-8.973583,54.111702],[-8.973579,54.111529],[-8.973573,54.11126],[-8.973275,54.111262],[-8.973285,54.111704]]],[[[-8.971736,54.110818],[-8.972644,54.110811],[-8.972643,54.110728],[-8.972184,54.110732],[-8.972177,54.110462],[-8.972171,54.110193],[-8.971721,54.110196],[-8.971736,54.110818]]],[[[-8.970378,54.108851],[-8.970435,54.108859],[-8.970764,54.108856],[-8.970757,54.108587],[-8.970751,54.108317],[-8.970292,54.108321],[-8.970286,54.108051],[-8.969369,54.108059],[-8.969362,54.107789],[-8.968904,54.107793],[-8.968897,54.107523],[-8.969356,54.10752],[-8.96935,54.10725],[-8.968891,54.107254],[-8.968885,54.106984],[-8.967967,54.106992],[-8.967961,54.106722],[-8.967502,54.106726],[-8.967496,54.106456],[-8.967038,54.10646],[-8.967031,54.10619],[-8.966573,54.106194],[-8.966566,54.105925],[-8.966108,54.105928],[-8.966101,54.105659],[-8.966095,54.105389],[-8.965636,54.105393],[-8.96563,54.105123],[-8.965618,54.104584],[-8.966076,54.104581],[-8.96607,54.104311],[-8.966039,54.102963],[-8.96558,54.102967],[-8.965568,54.102428],[-8.965555,54.101889],[-8.965542,54.10135],[-8.965536,54.10108],[-8.965078,54.101084],[-8.965071,54.100814],[-8.965065,54.100545],[-8.964606,54.100549],[-8.9646,54.100279],[-8.962766,54.100294],[-8.96276,54.100024],[-8.961842,54.100031],[-8.961836,54.099762],[-8.960919,54.099769],[-8.960913,54.0995],[-8.960454,54.099503],[-8.960448,54.099234],[-8.960442,54.098964],[-8.9609,54.098961],[-8.960906,54.09923],[-8.961824,54.099223],[-8.96183,54.099492],[-8.962747,54.099485],[-8.962753,54.099755],[-8.963212,54.099751],[-8.963218,54.10002],[-8.964135,54.100013],[-8.964129,54.099744],[-8.964588,54.09974],[-8.964594,54.100009],[-8.965511,54.100002],[-8.965517,54.100272],[-8.965524,54.100541],[-8.965982,54.100537],[-8.965989,54.100807],[-8.966447,54.100803],[-8.966435,54.100264],[-8.966428,54.099995],[-8.96597,54.099998],[-8.965964,54.099729],[-8.965957,54.099459],[-8.965951,54.09919],[-8.965492,54.099193],[-8.965486,54.098924],[-8.96548,54.098654],[-8.965021,54.098658],[-8.965006,54.097996],[-8.964925,54.097917],[-8.96481,54.097814],[-8.964666,54.097686],[-8.964561,54.097606],[-8.964447,54.097515],[-8.964319,54.097431],[-8.964164,54.097339],[-8.964064,54.097289],[-8.963987,54.097249],[-8.963578,54.097046],[-8.963282,54.096911],[-8.963128,54.096833],[-8.963,54.096774],[-8.96296,54.096757],[-8.961912,54.097971],[-8.961779,54.097845],[-8.961654,54.097722],[-8.961427,54.097494],[-8.961298,54.09737],[-8.961144,54.097219],[-8.960975,54.097062],[-8.96085,54.096943],[-8.960732,54.096839],[-8.960604,54.096726],[-8.960475,54.096616],[-8.960376,54.096536],[-8.960289,54.096468],[-8.960191,54.096389],[-8.960078,54.096309],[-8.959972,54.096229],[-8.959873,54.096159],[-8.959811,54.096118],[-8.959699,54.096044],[-8.959515,54.095922],[-8.959278,54.095767],[-8.959037,54.095612],[-8.958902,54.095679],[-8.958707,54.09577],[-8.958506,54.095895],[-8.958222,54.09605],[-8.957882,54.096235],[-8.957646,54.096347],[-8.95755,54.096424],[-8.957389,54.096486],[-8.957276,54.096543],[-8.957154,54.096621],[-8.957038,54.09668],[-8.956844,54.096766],[-8.95682,54.096777],[-8.956931,54.096895],[-8.957051,54.096937],[-8.957151,54.096962],[-8.957254,54.09702],[-8.957274,54.097062],[-8.957279,54.097074],[-8.957287,54.097104],[-8.957273,54.09715],[-8.957265,54.097177],[-8.957168,54.097283],[-8.957164,54.097292],[-8.957171,54.097348],[-8.957261,54.097358],[-8.957357,54.097371],[-8.957501,54.09737],[-8.957549,54.097342],[-8.95758,54.097342],[-8.957782,54.0974],[-8.95781,54.097412],[-8.957833,54.097422],[-8.957835,54.09746],[-8.95803,54.097591],[-8.958073,54.097635],[-8.958118,54.097635],[-8.958118,54.097673],[-8.958179,54.097723],[-8.958179,54.097723],[-8.958179,54.097723],[-8.958182,54.097732],[-8.958195,54.097769],[-8.958228,54.097827],[-8.958228,54.097827],[-8.958228,54.097827],[-8.958217,54.097847],[-8.958202,54.097874],[-8.95816,54.097893],[-8.958124,54.097895],[-8.958126,54.097999],[-8.958126,54.097999],[-8.958157,54.098047],[-8.958155,54.098063],[-8.958128,54.098072],[-8.958135,54.09841],[-8.958182,54.09846],[-8.958244,54.098512],[-8.958295,54.098554],[-8.958319,54.098587],[-8.958394,54.098688],[-8.958432,54.098715],[-8.958449,54.098719],[-8.958537,54.098743],[-8.958519,54.098821],[-8.958368,54.098883],[-8.95832,54.09892],[-8.958255,54.098971],[-8.958227,54.099019],[-8.958217,54.099037],[-8.958231,54.099052],[-8.958259,54.099083],[-8.958264,54.099126],[-8.958377,54.09922],[-8.958446,54.099255],[-8.958506,54.099265],[-8.958842,54.09927],[-8.958984,54.099281],[-8.959051,54.099336],[-8.959108,54.099384],[-8.959206,54.09943],[-8.959226,54.099538],[-8.959194,54.099577],[-8.959191,54.099724],[-8.959258,54.099799],[-8.959289,54.099831],[-8.959289,54.099934],[-8.959325,54.100349],[-8.95936,54.100421],[-8.959455,54.100496],[-8.959578,54.100554],[-8.959761,54.100594],[-8.95981,54.100574],[-8.959869,54.100596],[-8.959963,54.100645],[-8.960018,54.100713],[-8.960037,54.100783],[-8.959995,54.10083],[-8.959913,54.100895],[-8.959903,54.100975],[-8.959994,54.101133],[-8.959998,54.101139],[-8.96011,54.101223],[-8.960173,54.101573],[-8.960163,54.10172],[-8.960054,54.101928],[-8.960827,54.101922],[-8.960847,54.10282],[-8.960744,54.102821],[-8.960799,54.102871],[-8.960973,54.102966],[-8.961162,54.103048],[-8.961309,54.103132],[-8.961437,54.103195],[-8.961519,54.103263],[-8.961535,54.103288],[-8.961383,54.103404],[-8.961279,54.103503],[-8.961269,54.103541],[-8.961465,54.103539],[-8.96147,54.103757],[-8.961644,54.103843],[-8.961813,54.103915],[-8.961849,54.103959],[-8.961898,54.104068],[-8.961899,54.104075],[-8.961936,54.104075],[-8.961938,54.104185],[-8.961967,54.104215],[-8.962203,54.104333],[-8.962253,54.104359],[-8.962318,54.104502],[-8.962373,54.10461],[-8.962407,54.10461],[-8.962408,54.10467],[-8.962462,54.104721],[-8.962594,54.104789],[-8.962731,54.104819],[-8.962898,54.104872],[-8.96304,54.10496],[-8.963134,54.104937],[-8.963164,54.104947],[-8.963303,54.104994],[-8.963488,54.105059],[-8.963618,54.105077],[-8.963732,54.105095],[-8.963784,54.10514],[-8.964038,54.105153],[-8.964047,54.105163],[-8.964117,54.105237],[-8.964145,54.105286],[-8.964131,54.10534],[-8.964065,54.105396],[-8.963957,54.105465],[-8.963901,54.105514],[-8.963884,54.105568],[-8.963942,54.105704],[-8.964012,54.10577],[-8.964092,54.105774],[-8.964145,54.105749],[-8.964212,54.105717],[-8.964249,54.105685],[-8.964302,54.105686],[-8.964352,54.105713],[-8.964432,54.105815],[-8.964537,54.106024],[-8.964582,54.106112],[-8.964683,54.10619],[-8.964885,54.10631],[-8.965009,54.106409],[-8.965107,54.106475],[-8.965306,54.106527],[-8.965511,54.106627],[-8.965522,54.106636],[-8.965647,54.106722],[-8.965752,54.106815],[-8.965874,54.106932],[-8.965961,54.107038],[-8.965991,54.10714],[-8.966059,54.107265],[-8.966054,54.107325],[-8.966123,54.107365],[-8.9663,54.107412],[-8.966473,54.107495],[-8.966666,54.107578],[-8.966873,54.107636],[-8.967053,54.107672],[-8.96718,54.107679],[-8.967217,54.107681],[-8.96734,54.107727],[-8.967418,54.107786],[-8.96754,54.107816],[-8.967603,54.107851],[-8.968026,54.108052],[-8.968115,54.108096],[-8.968355,54.108203],[-8.968524,54.108278],[-8.968653,54.10834],[-8.968917,54.108451],[-8.969537,54.10874],[-8.969532,54.108748],[-8.969541,54.108785],[-8.969558,54.1088],[-8.969588,54.108807],[-8.969618,54.108807],[-8.969666,54.108803],[-8.969676,54.108863],[-8.969723,54.108916],[-8.969761,54.108929],[-8.96989,54.108907],[-8.970079,54.108883],[-8.970161,54.108872],[-8.970287,54.108856],[-8.970378,54.108851]],[[-8.964688,54.104052],[-8.964694,54.104322],[-8.964235,54.104326],[-8.964229,54.104056],[-8.964688,54.104052]],[[-8.9647,54.104592],[-8.964694,54.104322],[-8.965153,54.104318],[-8.965159,54.104588],[-8.9647,54.104592]]],[[[-8.969286,54.098823],[-8.969156,54.098894],[-8.969447,54.098892],[-8.969286,54.098823]]],[[[-8.969827,54.109654],[-8.969923,54.109709],[-8.970024,54.10978],[-8.970107,54.109868],[-8.970133,54.109912],[-8.970145,54.109933],[-8.970186,54.109932],[-8.970173,54.109365],[-8.970163,54.109371],[-8.970044,54.109429],[-8.969894,54.109508],[-8.969839,54.109583],[-8.969806,54.109619],[-8.969827,54.109654]]],[[[-8.969815,54.107516],[-8.969356,54.10752],[-8.969362,54.107789],[-8.969821,54.107785],[-8.969815,54.107516]]],[[[-8.96646,54.101342],[-8.966918,54.101339],[-8.966912,54.101069],[-8.966453,54.101073],[-8.96646,54.101342]]]]}}]}
