{"type":"FeatureCollection","features":[{"type":"Feature","properties":{"source_fid":1754901,"county":"Mayo","bog_geom_ha":153.46162822635969,"low15_pct":68.965517241379317,"low15_ha":105.83560567335152,"overlay_ha":105.55305831145223,"area_delta":-0.28254736189929019},"geometry":{"type":"MultiPolygon","coordinates":[[[[-9.407294,54.240675],[-9.407315,54.240689],[-9.40972,54.240661],[-9.409711,54.240391],[-9.411091,54.240375],[-9.411082,54.240105],[-9.411542,54.2401],[-9.411551,54.24037],[-9.412011,54.240364],[-9.412002,54.240095],[-9.414303,54.240068],[-9.414293,54.239798],[-9.414284,54.239529],[-9.415204,54.239518],[-9.415214,54.239787],[-9.416134,54.239777],[-9.416143,54.240046],[-9.418903,54.240014],[-9.418913,54.240283],[-9.418922,54.240553],[-9.418931,54.240822],[-9.418471,54.240827],[-9.41848,54.241097],[-9.419861,54.241081],[-9.41987,54.24135],[-9.42033,54.241345],[-9.420321,54.241075],[-9.421241,54.241064],[-9.42125,54.241334],[-9.42171,54.241328],[-9.421701,54.241059],[-9.423081,54.241043],[-9.423091,54.241312],[-9.42263,54.241318],[-9.42264,54.241587],[-9.422649,54.241857],[-9.424029,54.24184],[-9.424039,54.24211],[-9.424959,54.242099],[-9.424968,54.242368],[-9.427269,54.242341],[-9.427259,54.242072],[-9.427719,54.242066],[-9.42771,54.241797],[-9.42817,54.241791],[-9.428179,54.242061],[-9.42864,54.242055],[-9.428649,54.242325],[-9.429109,54.242319],[-9.4291,54.24205],[-9.43002,54.242039],[-9.430011,54.241769],[-9.430001,54.2415],[-9.430461,54.241495],[-9.430454,54.241297],[-9.430365,54.241056],[-9.430328,54.240957],[-9.429983,54.240961],[-9.429973,54.240692],[-9.430225,54.240689],[-9.430159,54.240516],[-9.429978,54.239957],[-9.429806,54.239461],[-9.429806,54.239461],[-9.429962,54.239286],[-9.42973,54.238994],[-9.429608,54.238833],[-9.429449,54.238625],[-9.429303,54.238212],[-9.429224,54.237986],[-9.429169,54.237782],[-9.429102,54.237535],[-9.429077,54.23731],[-9.429053,54.237227],[-9.429024,54.23713],[-9.428402,54.237179],[-9.427632,54.237239],[-9.425885,54.237396],[-9.425885,54.237396],[-9.425885,54.237396],[-9.425307,54.237448],[-9.424959,54.23748],[-9.424478,54.237525],[-9.424006,54.237569],[-9.42353,54.237614],[-9.422971,54.237666],[-9.422867,54.237675],[-9.421614,54.237784],[-9.420495,54.237912],[-9.420114,54.237956],[-9.420028,54.237965],[-9.419514,54.238024],[-9.419052,54.238076],[-9.418395,54.23817],[-9.417774,54.238258],[-9.417441,54.238293],[-9.416589,54.238385],[-9.415635,54.23851],[-9.415421,54.238538],[-9.414947,54.2386],[-9.413878,54.238778],[-9.413092,54.238844],[-9.411792,54.23892],[-9.410961,54.238934],[-9.410462,54.238967],[-9.408947,54.239067],[-9.407774,54.239172],[-9.407033,54.239019],[-9.406681,54.23895],[-9.406597,54.238934],[-9.406509,54.238917],[-9.406308,54.238878],[-9.405536,54.238718],[-9.405093,54.238647],[-9.405198,54.238686],[-9.405379,54.238767],[-9.405539,54.238853],[-9.405618,54.238923],[-9.405711,54.239029],[-9.405729,54.239052],[-9.405467,54.239093],[-9.405524,54.239092],[-9.405526,54.239137],[-9.405825,54.239227],[-9.405907,54.23928],[-9.406031,54.239459],[-9.40613,54.239516],[-9.406324,54.239626],[-9.406406,54.239678],[-9.406466,54.239713],[-9.406463,54.23962],[-9.406923,54.239615],[-9.406932,54.239884],[-9.406702,54.239887],[-9.406726,54.239901],[-9.406771,54.239981],[-9.406895,54.240109],[-9.407025,54.240309],[-9.407105,54.240433],[-9.407113,54.240469],[-9.40708,54.240537],[-9.407294,54.240675]]],[[[-9.432598,54.246068],[-9.43149,54.243909],[-9.431465,54.243909],[-9.431475,54.244178],[-9.430555,54.244189],[-9.430564,54.244459],[-9.430104,54.244464],[-9.430113,54.244734],[-9.425972,54.244783],[-9.425963,54.244513],[-9.424582,54.24453],[-9.424573,54.24426],[-9.423653,54.244271],[-9.423643,54.244002],[-9.423183,54.244007],[-9.423174,54.243738],[-9.421334,54.243759],[-9.421324,54.24349],[-9.420864,54.243495],[-9.420855,54.243226],[-9.418554,54.243253],[-9.418545,54.242983],[-9.417165,54.243],[-9.417174,54.243269],[-9.413493,54.243312],[-9.413484,54.243043],[-9.412104,54.243059],[-9.412094,54.24279],[-9.411174,54.2428],[-9.411183,54.24307],[-9.408883,54.243097],[-9.408892,54.243366],[-9.407512,54.243382],[-9.407521,54.243652],[-9.407061,54.243657],[-9.407063,54.243734],[-9.407569,54.244025],[-9.409657,54.245739],[-9.421445,54.245536],[-9.426214,54.250242],[-9.427388,54.249968],[-9.427881,54.249853],[-9.429495,54.249456],[-9.429627,54.249414],[-9.430555,54.249114],[-9.432598,54.248327],[-9.432647,54.248307],[-9.433557,54.24794],[-9.432598,54.246068]],[[-9.422282,54.244557],[-9.421361,54.244568],[-9.421352,54.244298],[-9.422272,54.244287],[-9.422282,54.244557]]],[[[-9.42217,54.241323],[-9.42171,54.241328],[-9.42172,54.241598],[-9.42218,54.241593],[-9.42217,54.241323]]]]}}]}
