{"type":"FeatureCollection","features":[{"type":"Feature","properties":{"source_fid":1789811,"county":"Offaly","bog_geom_ha":104.90395027158297,"low15_pct":100.0,"low15_ha":104.90395027158297,"overlay_ha":104.90395027158297,"area_delta":0.0},"geometry":{"type":"MultiPolygon","coordinates":[[[[-7.167082,53.320708],[-7.167362,53.3212],[-7.169484,53.321215],[-7.169467,53.32205],[-7.169861,53.322092],[-7.169859,53.322116],[-7.172011,53.322131],[-7.172219,53.322074],[-7.172064,53.321919],[-7.172423,53.321832],[-7.172832,53.321732],[-7.172957,53.321889],[-7.173276,53.32181],[-7.173186,53.321715],[-7.173184,53.321666],[-7.173184,53.321664],[-7.173184,53.321664],[-7.173222,53.321638],[-7.173256,53.321614],[-7.173256,53.321614],[-7.173256,53.321614],[-7.173992,53.321364],[-7.173898,53.32124],[-7.173844,53.321169],[-7.173844,53.321169],[-7.174491,53.320996],[-7.174604,53.320966],[-7.174658,53.320952],[-7.174658,53.320952],[-7.174658,53.320952],[-7.174755,53.321081],[-7.174852,53.32121],[-7.175302,53.321099],[-7.176434,53.320907],[-7.17675,53.320612],[-7.177434,53.319974],[-7.177651,53.319769],[-7.177635,53.31976],[-7.177635,53.31976],[-7.177611,53.319747],[-7.177598,53.31974],[-7.177411,53.319655],[-7.177054,53.319493],[-7.177439,53.319073],[-7.17742,53.319068],[-7.177403,53.319064],[-7.177472,53.319005],[-7.177524,53.318962],[-7.177755,53.318887],[-7.177964,53.318803],[-7.177702,53.31856],[-7.176919,53.317842],[-7.176487,53.317421],[-7.175483,53.316446],[-7.174595,53.315632],[-7.174583,53.315621],[-7.173747,53.314807],[-7.172274,53.31346],[-7.171544,53.312135],[-7.171169,53.311493],[-7.169975,53.309236],[-7.169666,53.308636],[-7.16845,53.306375],[-7.167515,53.304612],[-7.167425,53.304462],[-7.167351,53.304424],[-7.167312,53.304384],[-7.167218,53.30433],[-7.167193,53.304307],[-7.167181,53.304294],[-7.16718,53.304287],[-7.16717,53.304276],[-7.167133,53.304246],[-7.167098,53.304223],[-7.167065,53.304212],[-7.166965,53.304175],[-7.166826,53.304109],[-7.166824,53.304077],[-7.166802,53.304022],[-7.166121,53.303882],[-7.165851,53.303849],[-7.165595,53.303807],[-7.165458,53.303799],[-7.165358,53.303801],[-7.165297,53.303812],[-7.165244,53.303824],[-7.165195,53.303841],[-7.165028,53.304744],[-7.165849,53.304751],[-7.165742,53.30496],[-7.165718,53.305007],[-7.165627,53.30519],[-7.165353,53.305739],[-7.165341,53.305764],[-7.16533,53.30579],[-7.165298,53.305859],[-7.165236,53.305997],[-7.165186,53.30609],[-7.165012,53.306419],[-7.164798,53.306813],[-7.164756,53.306888],[-7.164561,53.307229],[-7.164478,53.307377],[-7.164405,53.30751],[-7.164442,53.307558],[-7.164416,53.3076],[-7.164403,53.30762],[-7.164392,53.307638],[-7.164351,53.307652],[-7.164069,53.308038],[-7.163891,53.308287],[-7.163797,53.30842],[-7.163672,53.308594],[-7.163502,53.308756],[-7.163252,53.309116],[-7.163217,53.309168],[-7.163216,53.309169],[-7.163208,53.309179],[-7.163462,53.309229],[-7.163852,53.309306],[-7.163923,53.309335],[-7.163923,53.309335],[-7.163936,53.309372],[-7.163945,53.309398],[-7.163926,53.309444],[-7.163906,53.30949],[-7.163846,53.309588],[-7.163795,53.309671],[-7.163565,53.30993],[-7.162987,53.31058],[-7.162339,53.311452],[-7.16218,53.311675],[-7.162111,53.311772],[-7.162105,53.311844],[-7.162099,53.311922],[-7.16206,53.312301],[-7.16206,53.312301],[-7.162449,53.312964],[-7.163119,53.314067],[-7.163328,53.314428],[-7.163655,53.31499],[-7.164247,53.315989],[-7.164819,53.316943],[-7.165047,53.317342],[-7.165534,53.318196],[-7.166292,53.319479],[-7.166862,53.320434],[-7.167082,53.320708]]]]}}]}
