{"type":"FeatureCollection","features":[{"type":"Feature","properties":{"source_fid":1794004,"county":"Offaly","bog_geom_ha":293.32708278339209,"low15_pct":99.907975460122699,"low15_ha":293.05714988512517,"overlay_ha":293.08022711823918,"area_delta":0.023077233114008777},"geometry":{"type":"MultiPolygon","coordinates":[[[[-7.249127,53.38666],[-7.249287,53.386727],[-7.252139,53.388075],[-7.254038,53.387884],[-7.254384,53.387849],[-7.254436,53.387847],[-7.254681,53.38784],[-7.256276,53.387596],[-7.256627,53.387642],[-7.257679,53.387782],[-7.257952,53.387796],[-7.25819,53.387839],[-7.258345,53.387889],[-7.25837,53.387897],[-7.258542,53.387979],[-7.258681,53.38807],[-7.258682,53.388071],[-7.258821,53.388192],[-7.258951,53.38835],[-7.259057,53.388532],[-7.259125,53.388738],[-7.259223,53.389059],[-7.259281,53.389275],[-7.259375,53.389626],[-7.259417,53.389781],[-7.259414,53.389935],[-7.259475,53.390365],[-7.259531,53.390757],[-7.259537,53.390818],[-7.259555,53.391013],[-7.259605,53.391274],[-7.25957,53.391384],[-7.25954,53.391477],[-7.259417,53.391602],[-7.259328,53.391692],[-7.259283,53.391722],[-7.25925,53.391744],[-7.259279,53.39176],[-7.259292,53.391767],[-7.259307,53.391775],[-7.259518,53.391885],[-7.259639,53.391949],[-7.259758,53.391973],[-7.260454,53.392337],[-7.264,53.394279],[-7.267528,53.396219],[-7.268105,53.396527],[-7.268629,53.396807],[-7.26944,53.39724],[-7.269498,53.397278],[-7.269693,53.397406],[-7.269744,53.39744],[-7.269749,53.397443],[-7.269759,53.39745],[-7.269771,53.397461],[-7.269826,53.397505],[-7.269901,53.397567],[-7.269988,53.397638],[-7.269995,53.397646],[-7.270045,53.397702],[-7.270052,53.397709],[-7.270069,53.397728],[-7.270074,53.397733],[-7.270092,53.397754],[-7.270172,53.397755],[-7.270388,53.39776],[-7.270388,53.39776],[-7.270496,53.397762],[-7.270781,53.397798],[-7.270887,53.39783],[-7.271091,53.397947],[-7.271225,53.398057],[-7.27126,53.398086],[-7.271514,53.398253],[-7.271923,53.398471],[-7.272063,53.398492],[-7.272172,53.398602],[-7.272285,53.398661],[-7.272468,53.398728],[-7.272602,53.398768],[-7.272774,53.398878],[-7.272961,53.399008],[-7.273058,53.399133],[-7.273121,53.39926],[-7.27316,53.399336],[-7.273289,53.399438],[-7.273377,53.399533],[-7.273479,53.399576],[-7.273614,53.399584],[-7.273685,53.399603],[-7.273757,53.399654],[-7.273858,53.39969],[-7.274057,53.399707],[-7.274112,53.399719],[-7.274146,53.399746],[-7.27422,53.399784],[-7.274332,53.39979],[-7.27434,53.39979],[-7.274485,53.399807],[-7.274594,53.399838],[-7.274631,53.399838],[-7.274816,53.399716],[-7.27495,53.399593],[-7.275163,53.399549],[-7.275317,53.399516],[-7.275472,53.399513],[-7.275601,53.399534],[-7.275694,53.399558],[-7.275881,53.399575],[-7.275919,53.399578],[-7.276015,53.399572],[-7.276131,53.399551],[-7.276339,53.399523],[-7.276486,53.399504],[-7.276732,53.399498],[-7.276819,53.399496],[-7.277072,53.39949],[-7.277184,53.399479],[-7.277308,53.399442],[-7.277394,53.399409],[-7.277332,53.399408],[-7.277336,53.399139],[-7.277787,53.399141],[-7.277786,53.399247],[-7.277812,53.399235],[-7.277893,53.399177],[-7.277997,53.399098],[-7.278063,53.399048],[-7.278119,53.399024],[-7.278183,53.398997],[-7.278267,53.398968],[-7.27833,53.398898],[-7.278351,53.398804],[-7.278341,53.398731],[-7.278305,53.398654],[-7.278213,53.398565],[-7.278168,53.398519],[-7.278156,53.398483],[-7.278152,53.398438],[-7.277838,53.398099],[-7.277776,53.398033],[-7.277671,53.397918],[-7.277653,53.397899],[-7.277642,53.397887],[-7.277635,53.397879],[-7.277619,53.397861],[-7.277203,53.397406],[-7.276813,53.396959],[-7.276573,53.396636],[-7.276289,53.396209],[-7.27612,53.395997],[-7.276615,53.395569],[-7.276962,53.395288],[-7.278544,53.393902],[-7.279052,53.393456],[-7.279176,53.393396],[-7.279234,53.393367],[-7.280119,53.392937],[-7.280683,53.392662],[-7.282521,53.391776],[-7.284113,53.391008],[-7.28442,53.390859],[-7.283275,53.39024],[-7.279322,53.388164],[-7.278724,53.387836],[-7.278371,53.387642],[-7.278154,53.387523],[-7.277457,53.38714],[-7.275854,53.38626],[-7.272794,53.384645],[-7.271133,53.38376],[-7.271127,53.383764],[-7.270801,53.38398],[-7.270376,53.384257],[-7.266117,53.381838],[-7.265254,53.381336],[-7.264917,53.381147],[-7.264552,53.381014],[-7.263525,53.380519],[-7.262333,53.380162],[-7.261439,53.379912],[-7.260585,53.379695],[-7.261987,53.378792],[-7.26219,53.378805],[-7.262201,53.378804],[-7.262199,53.378803],[-7.261893,53.378727],[-7.261607,53.378685],[-7.261418,53.378673],[-7.261277,53.378711],[-7.261163,53.37876],[-7.261134,53.378756],[-7.260894,53.378649],[-7.260592,53.378641],[-7.260235,53.378553],[-7.259832,53.378495],[-7.259742,53.378441],[-7.259678,53.378403],[-7.259581,53.378402],[-7.259409,53.378403],[-7.259389,53.378404],[-7.259095,53.378395],[-7.258821,53.378368],[-7.258359,53.378274],[-7.258277,53.378276],[-7.258034,53.378282],[-7.257606,53.378277],[-7.257418,53.378255],[-7.257274,53.378212],[-7.257208,53.378179],[-7.257138,53.378092],[-7.257102,53.378046],[-7.256925,53.377632],[-7.256822,53.377468],[-7.256746,53.37742],[-7.256618,53.37739],[-7.256414,53.377376],[-7.256379,53.377299],[-7.256324,53.377198],[-7.256292,53.377112],[-7.2562,53.377077],[-7.2561,53.377066],[-7.256058,53.377076],[-7.256036,53.377073],[-7.255994,53.377037],[-7.255861,53.376959],[-7.255646,53.376863],[-7.255558,53.376817],[-7.255539,53.376808],[-7.255486,53.376795],[-7.255476,53.376793],[-7.255465,53.376791],[-7.255339,53.376797],[-7.255285,53.376801],[-7.25525,53.376804],[-7.254972,53.37684],[-7.25497,53.37684],[-7.254929,53.376835],[-7.254835,53.376809],[-7.254773,53.376792],[-7.254601,53.37673],[-7.254477,53.376678],[-7.254106,53.37671],[-7.253302,53.376779],[-7.252634,53.376832],[-7.251886,53.376896],[-7.2515,53.376934],[-7.250913,53.376991],[-7.250524,53.377023],[-7.250383,53.377035],[-7.249685,53.377098],[-7.249532,53.377112],[-7.249532,53.377112],[-7.249531,53.377112],[-7.249167,53.377145],[-7.248551,53.377194],[-7.248244,53.377218],[-7.247971,53.37724],[-7.247525,53.377283],[-7.247142,53.377315],[-7.247052,53.377322],[-7.246572,53.377365],[-7.246093,53.377408],[-7.245947,53.377416],[-7.24595,53.377431],[-7.246101,53.378027],[-7.246363,53.379061],[-7.247562,53.383429],[-7.247683,53.38387],[-7.247756,53.384177],[-7.247869,53.38465],[-7.248286,53.386249],[-7.248289,53.386259],[-7.248309,53.386269],[-7.248391,53.386308],[-7.24871,53.386461],[-7.249127,53.38666]],[[-7.277341,53.398869],[-7.27689,53.398866],[-7.276894,53.398597],[-7.277345,53.398599],[-7.277341,53.398869]],[[-7.276439,53.398863],[-7.27689,53.398866],[-7.276885,53.399136],[-7.276434,53.399133],[-7.276439,53.398863]]]]}}]}
