{"type":"FeatureCollection","features":[{"type":"Feature","properties":{"source_fid":1858839,"county":"Mayo","bog_geom_ha":100.74983856527228,"low15_pct":100.0,"low15_ha":100.74983856527228,"overlay_ha":100.74983856527228,"area_delta":0.0},"geometry":{"type":"MultiPolygon","coordinates":[[[[-9.567784,54.14458],[-9.567882,54.14491],[-9.570093,54.144875],[-9.577269,54.144578],[-9.589991,54.14399],[-9.591986,54.143895],[-9.593595,54.143824],[-9.595622,54.143759],[-9.596467,54.142643],[-9.596751,54.142239],[-9.59012,54.140997],[-9.584797,54.139959],[-9.579581,54.138938],[-9.575962,54.138624],[-9.574099,54.138542],[-9.573995,54.138537],[-9.573851,54.138531],[-9.5726,54.138476],[-9.569702,54.138313],[-9.568784,54.138261],[-9.566711,54.13812],[-9.566632,54.13827],[-9.566477,54.138529],[-9.566292,54.138857],[-9.566121,54.139171],[-9.566053,54.139307],[-9.566055,54.13948],[-9.566131,54.140053],[-9.566198,54.140509],[-9.566239,54.140737],[-9.566371,54.141041],[-9.566549,54.141414],[-9.566773,54.141865],[-9.566913,54.142187],[-9.567123,54.142714],[-9.567277,54.143133],[-9.567419,54.143517],[-9.567458,54.143631],[-9.567556,54.143916],[-9.567597,54.144038],[-9.567604,54.144058],[-9.567613,54.144083],[-9.567676,54.14425],[-9.567784,54.14458]]]]}}]}
