{"type":"FeatureCollection","features":[{"type":"Feature","properties":{"source_fid":1859143,"county":"Mayo","bog_geom_ha":267.08477513664809,"low15_pct":97.237196765498652,"low15_ha":259.70574833031213,"overlay_ha":259.59754442502759,"area_delta":-0.10820390528454027},"geometry":{"type":"MultiPolygon","coordinates":[[[[-9.685006,54.158224],[-9.685638,54.158964],[-9.687609,54.160099],[-9.688579,54.160612],[-9.688674,54.160559],[-9.688692,54.160568],[-9.688955,54.160551],[-9.689494,54.160531],[-9.689713,54.160655],[-9.689897,54.160795],[-9.690137,54.160936],[-9.689987,54.161354],[-9.689997,54.161764],[-9.690301,54.162004],[-9.690417,54.162099],[-9.69025,54.162174],[-9.689997,54.162311],[-9.689924,54.162291],[-9.689818,54.162311],[-9.689837,54.162338],[-9.689859,54.162349],[-9.689863,54.162351],[-9.689863,54.162351],[-9.689927,54.162383],[-9.689928,54.162383],[-9.689928,54.162383],[-9.690015,54.162465],[-9.690054,54.162501],[-9.69047,54.162758],[-9.691008,54.163077],[-9.691232,54.16321],[-9.691908,54.16366],[-9.692148,54.163801],[-9.692163,54.163815],[-9.692196,54.163845],[-9.692196,54.163845],[-9.692462,54.163765],[-9.692827,54.163655],[-9.692952,54.163616],[-9.693139,54.163883],[-9.693227,54.164042],[-9.693329,54.164094],[-9.693394,54.16413],[-9.693528,54.164241],[-9.693665,54.164317],[-9.693782,54.164459],[-9.693954,54.164528],[-9.694199,54.16465],[-9.69462,54.164995],[-9.695479,54.165246],[-9.695731,54.165335],[-9.695863,54.165456],[-9.696065,54.165578],[-9.696551,54.165795],[-9.697087,54.16623],[-9.697293,54.16653],[-9.697452,54.16701],[-9.697352,54.167725],[-9.697469,54.168432],[-9.697797,54.169334],[-9.698166,54.17022],[-9.698261,54.170527],[-9.698453,54.171026],[-9.698688,54.17125],[-9.698684,54.17115],[-9.699143,54.171143],[-9.699132,54.170874],[-9.70005,54.170861],[-9.700061,54.171131],[-9.699602,54.171137],[-9.699624,54.171676],[-9.699201,54.171682],[-9.699262,54.171732],[-9.69991,54.172204],[-9.700314,54.172719],[-9.700457,54.173097],[-9.700457,54.173097],[-9.700466,54.173105],[-9.700587,54.17321],[-9.700641,54.17329],[-9.700642,54.173493],[-9.700778,54.173624],[-9.701088,54.173847],[-9.701162,54.173928],[-9.701346,54.174057],[-9.701458,54.174158],[-9.701601,54.174276],[-9.701673,54.174371],[-9.701722,54.174463],[-9.701754,54.174515],[-9.701837,54.174567],[-9.701942,54.174597],[-9.702013,54.174609],[-9.702077,54.174638],[-9.7021,54.174648],[-9.702109,54.174653],[-9.702137,54.174665],[-9.702197,54.174721],[-9.702253,54.174764],[-9.702316,54.174805],[-9.702397,54.174837],[-9.702454,54.174861],[-9.702509,54.174878],[-9.702552,54.174889],[-9.702605,54.174899],[-9.702639,54.174907],[-9.702676,54.174933],[-9.702721,54.174981],[-9.702758,54.175004],[-9.702836,54.175048],[-9.702876,54.175075],[-9.702903,54.175107],[-9.702924,54.175142],[-9.703129,54.175302],[-9.70316,54.17539],[-9.703201,54.175463],[-9.703268,54.175504],[-9.703342,54.175552],[-9.703439,54.175623],[-9.703463,54.175656],[-9.703497,54.175702],[-9.703562,54.175721],[-9.703598,54.175804],[-9.703602,54.175861],[-9.703579,54.175906],[-9.703569,54.175919],[-9.703509,54.175998],[-9.703478,54.17607],[-9.703499,54.176152],[-9.703382,54.176263],[-9.703428,54.176348],[-9.703487,54.176401],[-9.703485,54.176452],[-9.703474,54.176499],[-9.703436,54.176548],[-9.703403,54.176583],[-9.703439,54.176604],[-9.703492,54.176658],[-9.703503,54.176728],[-9.703508,54.176733],[-9.703498,54.176474],[-9.705753,54.176442],[-9.705823,54.176197],[-9.706015,54.175646],[-9.706027,54.175618],[-9.706031,54.175609],[-9.706039,54.175592],[-9.706064,54.175554],[-9.706143,54.174837],[-9.706752,54.172219],[-9.707057,54.170582],[-9.707108,54.170222],[-9.706458,54.170231],[-9.706447,54.169962],[-9.705987,54.169968],[-9.705976,54.169699],[-9.705517,54.169705],[-9.705506,54.169436],[-9.705047,54.169442],[-9.705036,54.169173],[-9.704576,54.169179],[-9.704565,54.16891],[-9.706402,54.168884],[-9.706413,54.169153],[-9.707332,54.16914],[-9.707339,54.169315],[-9.707408,54.169007],[-9.707477,54.168753],[-9.707733,54.168544],[-9.708093,54.168321],[-9.707758,54.168326],[-9.707747,54.168056],[-9.708206,54.16805],[-9.708195,54.16778],[-9.708983,54.167769],[-9.70911,54.16769],[-9.709102,54.167498],[-9.708643,54.167504],[-9.708632,54.167235],[-9.707713,54.167248],[-9.707702,54.166978],[-9.707691,54.166709],[-9.70815,54.166702],[-9.708128,54.166163],[-9.707669,54.16617],[-9.707658,54.1659],[-9.707199,54.165907],[-9.707176,54.165368],[-9.708095,54.165355],[-9.708117,54.165894],[-9.708576,54.165887],[-9.708587,54.166157],[-9.708609,54.166696],[-9.710446,54.16667],[-9.710435,54.1664],[-9.711062,54.166391],[-9.711346,54.166202],[-9.711342,54.166118],[-9.711474,54.166116],[-9.711726,54.165947],[-9.712292,54.165578],[-9.713784,54.164562],[-9.714197,54.164273],[-9.714197,54.164273],[-9.714423,54.164081],[-9.714404,54.164056],[-9.714382,54.164042],[-9.714336,54.164016],[-9.714301,54.16398],[-9.714289,54.163939],[-9.714281,54.163915],[-9.714281,54.163899],[-9.714273,54.163883],[-9.714256,54.163857],[-9.714242,54.163839],[-9.714255,54.16381],[-9.714252,54.163784],[-9.714237,54.163761],[-9.714224,54.163728],[-9.714207,54.1637],[-9.714207,54.163615],[-9.714199,54.163569],[-9.714203,54.163535],[-9.714205,54.163497],[-9.714221,54.163453],[-9.714236,54.163434],[-9.714234,54.163426],[-9.714215,54.163384],[-9.714199,54.163349],[-9.714162,54.163321],[-9.714118,54.163287],[-9.714098,54.16326],[-9.714056,54.16325],[-9.714039,54.16325],[-9.714022,54.163249],[-9.713989,54.163265],[-9.713971,54.163214],[-9.713994,54.163065],[-9.713999,54.162626],[-9.714,54.162428],[-9.714004,54.162089],[-9.713993,54.162036],[-9.71393,54.162037],[-9.713908,54.161498],[-9.713933,54.161498],[-9.71392,54.160917],[-9.713741,54.160548],[-9.713232,54.159825],[-9.712784,54.159192],[-9.712358,54.158512],[-9.711867,54.157848],[-9.711812,54.157782],[-9.71118,54.157029],[-9.711021,54.156856],[-9.711019,54.15683],[-9.71032,54.156555],[-9.708392,54.155775],[-9.706112,54.15484],[-9.705752,54.154687],[-9.704453,54.154135],[-9.702862,54.153589],[-9.702502,54.153448],[-9.701937,54.153228],[-9.70106,54.153132],[-9.700253,54.152953],[-9.698597,54.152566],[-9.698262,54.152617],[-9.697772,54.152809],[-9.697675,54.152824],[-9.697528,54.152899],[-9.695557,54.152943],[-9.69445,54.153099],[-9.693437,54.153312],[-9.692259,54.153647],[-9.691008,54.154056],[-9.689324,54.154608],[-9.687993,54.154992],[-9.687624,54.155144],[-9.687623,54.155145],[-9.686927,54.155567],[-9.685165,54.156472],[-9.683852,54.157158],[-9.684189,54.15747],[-9.684988,54.158208],[-9.685006,54.158224]],[[-9.713471,54.162043],[-9.71393,54.162037],[-9.713942,54.162306],[-9.713023,54.162319],[-9.713012,54.16205],[-9.712553,54.162056],[-9.712542,54.161787],[-9.712531,54.161518],[-9.712072,54.161524],[-9.71206,54.161255],[-9.711601,54.161261],[-9.71159,54.160992],[-9.711579,54.160722],[-9.712497,54.160709],[-9.712508,54.160979],[-9.713427,54.160966],[-9.713438,54.161235],[-9.713449,54.161504],[-9.71299,54.161511],[-9.713001,54.16178],[-9.71346,54.161774],[-9.713471,54.162043]],[[-9.710683,54.161274],[-9.711601,54.161261],[-9.711612,54.161531],[-9.710694,54.161544],[-9.710683,54.161274]],[[-9.709506,54.166144],[-9.709494,54.165874],[-9.709954,54.165868],[-9.709965,54.166137],[-9.709506,54.166144]],[[-9.709483,54.165605],[-9.709494,54.165874],[-9.709035,54.165881],[-9.709024,54.165611],[-9.709483,54.165605]],[[-9.700969,54.170848],[-9.70098,54.171118],[-9.703735,54.171079],[-9.703746,54.171348],[-9.703758,54.171617],[-9.701461,54.17165],[-9.70145,54.171381],[-9.700532,54.171393],[-9.700521,54.171124],[-9.70051,54.170855],[-9.700969,54.170848]]],[[[-9.705638,54.176841],[-9.705675,54.176713],[-9.704427,54.176731],[-9.70443,54.176799],[-9.704526,54.176786],[-9.704708,54.176765],[-9.704834,54.176729],[-9.704961,54.176726],[-9.705079,54.176743],[-9.70523,54.176788],[-9.705348,54.17683],[-9.705584,54.176879],[-9.705612,54.17686],[-9.705638,54.176841]]],[[[-9.703648,54.176926],[-9.703973,54.176867],[-9.703968,54.176737],[-9.703521,54.176743],[-9.703549,54.176765],[-9.703593,54.1768],[-9.703611,54.176828],[-9.703619,54.176859],[-9.703633,54.1769],[-9.703648,54.176926]]]]}}]}
