{"type":"FeatureCollection","features":[{"type":"Feature","properties":{"source_fid":1859292,"county":"Mayo","bog_geom_ha":124.86532219763924,"low15_pct":100.0,"low15_ha":124.86532219763924,"overlay_ha":124.86532219763924,"area_delta":0.0},"geometry":{"type":"MultiPolygon","coordinates":[[[[-9.938786,54.101805],[-9.938809,54.101821],[-9.93925,54.101814],[-9.93925,54.101827],[-9.939396,54.101639],[-9.940343,54.102202],[-9.940712,54.102393],[-9.940865,54.102488],[-9.941077,54.102616],[-9.941278,54.10272],[-9.94124,54.102803],[-9.941062,54.102968],[-9.940842,54.103173],[-9.940842,54.103176],[-9.940934,54.103225],[-9.941216,54.102974],[-9.941348,54.102853],[-9.941405,54.102791],[-9.941446,54.102812],[-9.941636,54.102931],[-9.941827,54.103041],[-9.941834,54.103046],[-9.941927,54.103108],[-9.941934,54.103113],[-9.942103,54.103235],[-9.942179,54.103276],[-9.942487,54.103442],[-9.942567,54.103485],[-9.942628,54.103515],[-9.942999,54.103693],[-9.942998,54.103694],[-9.943148,54.103774],[-9.943349,54.103887],[-9.94338,54.103942],[-9.943402,54.103948],[-9.943833,54.104188],[-9.943961,54.10426],[-9.944245,54.104428],[-9.944247,54.104429],[-9.945487,54.104409],[-9.94549,54.104407],[-9.945905,54.104226],[-9.946142,54.104397],[-9.946144,54.104398],[-9.946594,54.104391],[-9.946604,54.104389],[-9.946907,54.104335],[-9.947187,54.104269],[-9.947469,54.104208],[-9.946955,54.103843],[-9.946878,54.103844],[-9.946431,54.103564],[-9.94673,54.103417],[-9.947794,54.104139],[-9.94837,54.104028],[-9.948514,54.103994],[-9.948837,54.103925],[-9.949174,54.103849],[-9.949678,54.103753],[-9.949463,54.103647],[-9.949141,54.103486],[-9.948291,54.102967],[-9.947237,54.102636],[-9.946217,54.102341],[-9.94543,54.1021],[-9.944927,54.101951],[-9.944243,54.101741],[-9.943519,54.101531],[-9.943234,54.101443],[-9.943026,54.101367],[-9.941979,54.102528],[-9.94032,54.101941],[-9.939075,54.101249],[-9.940181,54.100309],[-9.93946,54.100043],[-9.93864,54.099747],[-9.938041,54.099594],[-9.937926,54.099565],[-9.937554,54.099404],[-9.936742,54.099089],[-9.93554,54.09865],[-9.934832,54.098371],[-9.934042,54.098037],[-9.933138,54.09768],[-9.932763,54.097509],[-9.93232,54.097334],[-9.931953,54.097229],[-9.931909,54.097212],[-9.931467,54.09702],[-9.930958,54.096767],[-9.929849,54.096179],[-9.929758,54.096129],[-9.929564,54.096022],[-9.929265,54.095856],[-9.929183,54.095815],[-9.928556,54.095498],[-9.928335,54.095386],[-9.927935,54.095172],[-9.927267,54.094814],[-9.926648,54.094468],[-9.926596,54.094439],[-9.926044,54.094189],[-9.925467,54.093928],[-9.924992,54.093713],[-9.924863,54.093662],[-9.924315,54.093443],[-9.924226,54.093408],[-9.923817,54.093245],[-9.923713,54.093202],[-9.923341,54.093047],[-9.922836,54.09282],[-9.922812,54.092814],[-9.922633,54.092929],[-9.922266,54.093164],[-9.921989,54.093349],[-9.921649,54.093572],[-9.921416,54.093732],[-9.921049,54.093961],[-9.920763,54.094138],[-9.920628,54.094222],[-9.919954,54.094632],[-9.919406,54.09499],[-9.918955,54.095276],[-9.918755,54.095406],[-9.917996,54.095899],[-9.917804,54.096022],[-9.917612,54.096144],[-9.917255,54.096371],[-9.916755,54.096682],[-9.916296,54.096969],[-9.915927,54.097205],[-9.915684,54.097365],[-9.915438,54.097523],[-9.915312,54.097605],[-9.914473,54.098131],[-9.914121,54.098351],[-9.913834,54.09853],[-9.913444,54.098771],[-9.912742,54.099203],[-9.912384,54.099423],[-9.912282,54.099485],[-9.911909,54.099734],[-9.911418,54.100061],[-9.911312,54.100131],[-9.911237,54.100176],[-9.911065,54.100277],[-9.910307,54.100724],[-9.909746,54.101068],[-9.909448,54.101251],[-9.908365,54.101852],[-9.908271,54.101905],[-9.907505,54.102358],[-9.907501,54.10236],[-9.90625,54.103098],[-9.905222,54.103733],[-9.903958,54.104482],[-9.90386,54.104539],[-9.904862,54.104987],[-9.905007,54.105055],[-9.905231,54.105183],[-9.905296,54.105213],[-9.905633,54.105367],[-9.905799,54.105444],[-9.90583,54.105458],[-9.906906,54.10595],[-9.907274,54.106142],[-9.907498,54.106259],[-9.907811,54.106449],[-9.90807,54.106524],[-9.908548,54.106661],[-9.909516,54.106939],[-9.910806,54.10735],[-9.911578,54.107587],[-9.911748,54.10764],[-9.911629,54.106692],[-9.912674,54.106622],[-9.91393,54.106536],[-9.915007,54.106464],[-9.915036,54.106462],[-9.915072,54.106459],[-9.916132,54.106396],[-9.917299,54.106303],[-9.918342,54.106219],[-9.919287,54.106142],[-9.920256,54.106068],[-9.921253,54.106009],[-9.92114,54.105383],[-9.921261,54.105259],[-9.921624,54.104838],[-9.922037,54.104359],[-9.92221,54.104161],[-9.92235,54.104003],[-9.922438,54.103902],[-9.922361,54.103898],[-9.921895,54.103878],[-9.921546,54.103863],[-9.921343,54.103814],[-9.921214,54.103767],[-9.921105,54.103691],[-9.920869,54.103558],[-9.920827,54.103491],[-9.920838,54.103425],[-9.920979,54.103174],[-9.920998,54.103105],[-9.920974,54.103069],[-9.920699,54.102956],[-9.920683,54.102837],[-9.920749,54.102685],[-9.920965,54.10238],[-9.921162,54.102088],[-9.921333,54.101784],[-9.921358,54.10165],[-9.920923,54.101267],[-9.920668,54.101042],[-9.920262,54.100609],[-9.921196,54.099685],[-9.922112,54.098679],[-9.925041,54.095394],[-9.925074,54.095336],[-9.925511,54.09552],[-9.925676,54.095589],[-9.926333,54.095865],[-9.926669,54.096007],[-9.927065,54.096186],[-9.927577,54.096417],[-9.927681,54.096469],[-9.9278,54.096529],[-9.928322,54.096761],[-9.928447,54.096816],[-9.929017,54.097057],[-9.929078,54.097083],[-9.929184,54.097127],[-9.930434,54.097665],[-9.931186,54.097989],[-9.931892,54.098311],[-9.933461,54.09897],[-9.934067,54.099234],[-9.934955,54.099611],[-9.935024,54.09964],[-9.935906,54.100037],[-9.936295,54.100255],[-9.936563,54.100391],[-9.936908,54.100561],[-9.937253,54.100759],[-9.937397,54.100907],[-9.937708,54.101139],[-9.938028,54.101322],[-9.93842,54.101567],[-9.938786,54.101805]]]]}}]}
