{"type":"FeatureCollection","features":[{"type":"Feature","properties":{"source_fid":1859582,"county":"Mayo","bog_geom_ha":115.36896852202834,"low15_pct":100.0,"low15_ha":115.36896852202834,"overlay_ha":115.36896852202834,"area_delta":0.0},"geometry":{"type":"MultiPolygon","coordinates":[[[[-9.80909,54.136138],[-9.809145,54.136187],[-9.809262,54.136185],[-9.809267,54.136298],[-9.809388,54.136409],[-9.809575,54.136579],[-9.809746,54.136674],[-9.809895,54.136754],[-9.810335,54.136992],[-9.810439,54.137056],[-9.811223,54.136346],[-9.81167,54.136497],[-9.811971,54.136603],[-9.812066,54.136634],[-9.812461,54.136094],[-9.811802,54.135898],[-9.812113,54.135508],[-9.810978,54.133955],[-9.811754,54.133802],[-9.812218,54.133711],[-9.813744,54.133699],[-9.813732,54.133422],[-9.814992,54.133403],[-9.815255,54.133268],[-9.815182,54.131603],[-9.816578,54.131582],[-9.816702,54.131357],[-9.816672,54.130682],[-9.817324,54.130672],[-9.81781,54.130354],[-9.818012,54.130271],[-9.818179,54.13015],[-9.818162,54.129761],[-9.819005,54.129749],[-9.819678,54.129461],[-9.819651,54.12884],[-9.82118,54.128817],[-9.821523,54.128812],[-9.821999,54.128661],[-9.825078,54.127415],[-9.827227,54.126614],[-9.827038,54.126094],[-9.826752,54.125825],[-9.826239,54.125519],[-9.826377,54.124472],[-9.821256,54.122811],[-9.820509,54.123021],[-9.819287,54.123364],[-9.817997,54.123746],[-9.816645,54.124141],[-9.81509,54.124595],[-9.813391,54.125099],[-9.81254,54.125347],[-9.811998,54.125635],[-9.810599,54.126418],[-9.809351,54.127122],[-9.808475,54.127577],[-9.808344,54.127632],[-9.807951,54.127357],[-9.807546,54.126868],[-9.807059,54.126268],[-9.80675,54.12587],[-9.806204,54.125508],[-9.805788,54.125155],[-9.805769,54.125138],[-9.805684,54.125199],[-9.805649,54.125215],[-9.805629,54.125218],[-9.805581,54.125227],[-9.805537,54.125232],[-9.805486,54.125241],[-9.805442,54.125248],[-9.80542,54.125253],[-9.805403,54.12526],[-9.805334,54.125315],[-9.805285,54.125362],[-9.805229,54.125418],[-9.80517,54.125449],[-9.805107,54.125463],[-9.805009,54.125479],[-9.804918,54.125511],[-9.80481,54.125557],[-9.804718,54.125598],[-9.8046,54.125624],[-9.804498,54.125658],[-9.804402,54.125689],[-9.804318,54.125728],[-9.804228,54.125784],[-9.804109,54.125843],[-9.804072,54.125864],[-9.804019,54.125881],[-9.803993,54.125885],[-9.803971,54.125887],[-9.803949,54.125885],[-9.803937,54.125883],[-9.803786,54.125854],[-9.803619,54.125838],[-9.803455,54.125811],[-9.8033,54.12581],[-9.803186,54.125811],[-9.80312,54.12582],[-9.803087,54.12583],[-9.803065,54.125839],[-9.803055,54.125844],[-9.803041,54.125848],[-9.802949,54.125872],[-9.802832,54.125898],[-9.802732,54.125928],[-9.802641,54.125978],[-9.80253,54.126038],[-9.802399,54.12611],[-9.802296,54.126165],[-9.802191,54.126225],[-9.802081,54.126256],[-9.801936,54.126272],[-9.80174,54.126285],[-9.80163,54.126284],[-9.801466,54.126258],[-9.801355,54.126281],[-9.801257,54.126322],[-9.801164,54.126359],[-9.801108,54.126377],[-9.801081,54.126383],[-9.801058,54.126385],[-9.800979,54.126386],[-9.800882,54.126387],[-9.800769,54.12639],[-9.800669,54.126393],[-9.800571,54.126411],[-9.800483,54.126435],[-9.800375,54.126454],[-9.800866,54.126953],[-9.805606,54.13138],[-9.806215,54.132154],[-9.80809,54.134542],[-9.80813,54.1349],[-9.808449,54.135456],[-9.808442,54.135526],[-9.808531,54.135621],[-9.808947,54.135996],[-9.80909,54.136138]]]]}}]}
