{"type":"FeatureCollection","features":[{"type":"Feature","properties":{"source_fid":1860576,"county":"Mayo","bog_geom_ha":282.31582844344166,"low15_pct":46.146496815286625,"low15_ha":130.27886478170285,"overlay_ha":130.19251794347855,"area_delta":-0.086346838224301337},"geometry":{"type":"MultiPolygon","coordinates":[[[[-9.484118,53.997961],[-9.484128,53.997935],[-9.483872,53.997938],[-9.483882,53.998208],[-9.483991,53.998206],[-9.484003,53.998187],[-9.484118,53.997961]]],[[[-9.483822,53.998488],[-9.483888,53.998378],[-9.483882,53.998208],[-9.483424,53.998213],[-9.483434,53.998483],[-9.482976,53.998488],[-9.482986,53.998758],[-9.482996,53.999027],[-9.483004,53.999269],[-9.483005,53.999269],[-9.483164,53.99928],[-9.483524,53.998907],[-9.483822,53.998488]]],[[[-9.482906,53.99933],[-9.482908,53.999298],[-9.482548,53.999303],[-9.482557,53.999572],[-9.482567,53.999842],[-9.482574,54.000027],[-9.482618,54.000012],[-9.482601,53.999954],[-9.482694,53.999901],[-9.482726,53.999821],[-9.482786,53.999708],[-9.482868,53.999684],[-9.482848,53.999584],[-9.482894,53.999467],[-9.482977,53.999452],[-9.483002,53.999373],[-9.482906,53.99933]]],[[[-9.482375,54.000132],[-9.482398,54.000113],[-9.482119,54.000117],[-9.482129,54.000386],[-9.482148,54.000925],[-9.482157,54.001195],[-9.482177,54.001734],[-9.482186,54.002003],[-9.482205,54.002542],[-9.482215,54.002812],[-9.482224,54.003081],[-9.482266,54.004257],[-9.482267,54.004257],[-9.482298,54.004249],[-9.482338,54.00424],[-9.482384,54.004225],[-9.482398,54.004215],[-9.482399,54.004197],[-9.4824,54.004164],[-9.48239,54.004131],[-9.482363,54.004109],[-9.482344,54.004105],[-9.482298,54.004092],[-9.482289,54.00405],[-9.482276,54.004026],[-9.482278,54.004011],[-9.482287,54.003996],[-9.482305,54.003969],[-9.482348,54.003952],[-9.482371,54.003933],[-9.482398,54.003912],[-9.482407,54.003871],[-9.482395,54.003852],[-9.482386,54.003833],[-9.48235,54.003819],[-9.482336,54.003791],[-9.482337,54.003755],[-9.482352,54.003703],[-9.482368,54.003687],[-9.482374,54.003666],[-9.482363,54.003644],[-9.482358,54.003618],[-9.482348,54.003598],[-9.482348,54.003579],[-9.482345,54.00356],[-9.482336,54.003537],[-9.482326,54.003519],[-9.482326,54.003507],[-9.482332,54.003476],[-9.482354,54.003459],[-9.482396,54.003448],[-9.482427,54.003439],[-9.482441,54.003416],[-9.482435,54.0034],[-9.482406,54.003393],[-9.482385,54.003376],[-9.482401,54.003347],[-9.482431,54.003315],[-9.482432,54.003287],[-9.482421,54.003266],[-9.482402,54.003261],[-9.482359,54.003253],[-9.482332,54.003226],[-9.482335,54.00321],[-9.482337,54.003186],[-9.482334,54.003179],[-9.482442,54.003114],[-9.482431,54.003071],[-9.482377,54.003033],[-9.482446,54.002941],[-9.482506,54.002878],[-9.482557,54.002827],[-9.482512,54.002796],[-9.482349,54.002778],[-9.482322,54.002748],[-9.482443,54.002651],[-9.48239,54.002569],[-9.482337,54.002427],[-9.482413,54.002385],[-9.482456,54.002351],[-9.482421,54.002278],[-9.482313,54.002232],[-9.482295,54.002185],[-9.482402,54.002161],[-9.482473,54.00213],[-9.48248,54.002103],[-9.482387,54.002057],[-9.482443,54.001954],[-9.482242,54.001908],[-9.482193,54.001858],[-9.48221,54.001773],[-9.482247,54.001731],[-9.482243,54.001697],[-9.482286,54.001671],[-9.482263,54.001575],[-9.482268,54.001403],[-9.482307,54.001348],[-9.482462,54.001339],[-9.482505,54.001311],[-9.482387,54.001236],[-9.48235,54.001172],[-9.482344,54.001138],[-9.482453,54.001091],[-9.482456,54.001057],[-9.482339,54.001013],[-9.482349,54.000953],[-9.482468,54.000913],[-9.482366,54.000812],[-9.482464,54.000654],[-9.482433,54.000603],[-9.482479,54.000519],[-9.482493,54.000442],[-9.482422,54.000338],[-9.482342,54.00027],[-9.482389,54.000196],[-9.482375,54.000132]]],[[[-9.482306,54.004354],[-9.482269,54.004348],[-9.482282,54.004698],[-9.482301,54.005237],[-9.482311,54.005506],[-9.48232,54.005776],[-9.48233,54.006045],[-9.482339,54.006315],[-9.482797,54.006309],[-9.482797,54.006323],[-9.482805,54.006319],[-9.482839,54.006308],[-9.482857,54.006293],[-9.482864,54.006277],[-9.482852,54.00626],[-9.482821,54.006238],[-9.482791,54.006201],[-9.482793,54.006176],[-9.482791,54.006147],[-9.482794,54.006129],[-9.482794,54.006109],[-9.482786,54.006089],[-9.482773,54.006061],[-9.482765,54.006038],[-9.482774,54.006016],[-9.482785,54.006001],[-9.482792,54.005985],[-9.482794,54.005965],[-9.482772,54.005949],[-9.482753,54.005943],[-9.482717,54.005939],[-9.482642,54.005935],[-9.482586,54.005929],[-9.482563,54.005917],[-9.482553,54.005895],[-9.482548,54.005879],[-9.482561,54.005861],[-9.482579,54.005849],[-9.482602,54.005838],[-9.482621,54.005829],[-9.482684,54.005821],[-9.482704,54.00581],[-9.482706,54.00579],[-9.482702,54.005765],[-9.482698,54.005734],[-9.482695,54.005708],[-9.482689,54.00568],[-9.482672,54.005648],[-9.482655,54.00562],[-9.482644,54.005586],[-9.482649,54.005552],[-9.482651,54.005529],[-9.482665,54.005502],[-9.482684,54.005464],[-9.482681,54.005427],[-9.482693,54.00541],[-9.482722,54.005378],[-9.482742,54.005356],[-9.482768,54.005339],[-9.482779,54.005329],[-9.482787,54.005309],[-9.482788,54.005294],[-9.482775,54.005265],[-9.482763,54.005245],[-9.482767,54.00523],[-9.482768,54.005203],[-9.482767,54.005166],[-9.482758,54.005145],[-9.482731,54.005125],[-9.482732,54.005098],[-9.48273,54.005078],[-9.482713,54.005068],[-9.482674,54.005048],[-9.482635,54.005037],[-9.482605,54.005028],[-9.482584,54.005012],[-9.482581,54.004988],[-9.482601,54.004963],[-9.482619,54.004948],[-9.482649,54.004935],[-9.482668,54.00492],[-9.482669,54.004879],[-9.482659,54.004857],[-9.482649,54.004843],[-9.482633,54.004827],[-9.482626,54.00481],[-9.482612,54.004778],[-9.482619,54.004756],[-9.482631,54.004732],[-9.482651,54.004704],[-9.482664,54.00467],[-9.482654,54.004639],[-9.482619,54.004594],[-9.482568,54.004554],[-9.482541,54.004529],[-9.482496,54.004498],[-9.482479,54.004449],[-9.482465,54.004438],[-9.482408,54.004416],[-9.482366,54.004378],[-9.482344,54.004359],[-9.482306,54.004354]]],[[[-9.482801,54.006399],[-9.4828,54.006399],[-9.482806,54.006579],[-9.482816,54.006848],[-9.482359,54.006854],[-9.482368,54.007123],[-9.482378,54.007393],[-9.481005,54.00741],[-9.480996,54.00714],[-9.480538,54.007146],[-9.480529,54.006876],[-9.480071,54.006882],[-9.480081,54.007152],[-9.479166,54.007163],[-9.479156,54.006893],[-9.478241,54.006905],[-9.478232,54.006635],[-9.480976,54.006601],[-9.480986,54.006871],[-9.481444,54.006865],[-9.481434,54.006596],[-9.481891,54.00659],[-9.481882,54.006321],[-9.481424,54.006326],[-9.481415,54.006057],[-9.480042,54.006074],[-9.480052,54.006343],[-9.479594,54.006349],[-9.479585,54.006079],[-9.479127,54.006085],[-9.479118,54.005815],[-9.480033,54.005804],[-9.480023,54.005535],[-9.480481,54.005529],[-9.480471,54.00526],[-9.480929,54.005254],[-9.48091,54.004715],[-9.480452,54.004721],[-9.480395,54.003104],[-9.479022,54.003121],[-9.479013,54.002851],[-9.478555,54.002857],[-9.478565,54.003126],[-9.478107,54.003132],[-9.478117,54.003401],[-9.477659,54.003407],[-9.47765,54.003137],[-9.47764,54.002868],[-9.477631,54.002598],[-9.477612,54.002059],[-9.477154,54.002065],[-9.477164,54.002335],[-9.476249,54.002346],[-9.476239,54.002076],[-9.475782,54.002082],[-9.475772,54.001812],[-9.475315,54.001818],[-9.475296,54.001279],[-9.475286,54.00101],[-9.475277,54.00074],[-9.475267,54.000471],[-9.475725,54.000465],[-9.475715,54.000196],[-9.475258,54.000201],[-9.475248,53.999932],[-9.475239,53.99968],[-9.47392,53.999696],[-9.473891,53.99887],[-9.473838,53.998871],[-9.473835,53.998798],[-9.472921,53.998809],[-9.472923,53.998882],[-9.472933,53.999151],[-9.47339,53.999146],[-9.473419,53.999954],[-9.473876,53.999948],[-9.473886,54.000218],[-9.473428,54.000224],[-9.473438,54.000493],[-9.473895,54.000487],[-9.473905,54.000757],[-9.473447,54.000763],[-9.473466,54.001302],[-9.473476,54.001571],[-9.473933,54.001565],[-9.473952,54.002104],[-9.473495,54.00211],[-9.473504,54.002379],[-9.474419,54.002368],[-9.474429,54.002638],[-9.474886,54.002632],[-9.474896,54.002902],[-9.474915,54.003441],[-9.475372,54.003435],[-9.475391,54.003974],[-9.475849,54.003968],[-9.475858,54.004238],[-9.475868,54.004507],[-9.474953,54.004519],[-9.474943,54.004249],[-9.474486,54.004255],[-9.474476,54.003985],[-9.474457,54.003446],[-9.474438,54.002907],[-9.473981,54.002913],[-9.474,54.003452],[-9.473085,54.003463],[-9.473066,54.002924],[-9.473056,54.002655],[-9.472599,54.00266],[-9.472589,54.002391],[-9.471217,54.002407],[-9.471227,54.002677],[-9.471684,54.002671],[-9.471703,54.00321],[-9.471713,54.00348],[-9.471722,54.003749],[-9.47218,54.003744],[-9.472189,54.004013],[-9.472647,54.004008],[-9.472656,54.004277],[-9.471741,54.004288],[-9.471751,54.004558],[-9.471293,54.004563],[-9.471303,54.004833],[-9.471312,54.005102],[-9.47177,54.005097],[-9.471789,54.005636],[-9.472246,54.00563],[-9.472256,54.0059],[-9.472265,54.006169],[-9.472723,54.006164],[-9.472742,54.006703],[-9.472751,54.006972],[-9.473209,54.006966],[-9.473218,54.007236],[-9.473228,54.007505],[-9.473237,54.007775],[-9.473695,54.007769],[-9.473714,54.008308],[-9.474027,54.008304],[-9.474112,54.008212],[-9.474357,54.007917],[-9.474533,54.007769],[-9.474867,54.007519],[-9.475284,54.007293],[-9.475558,54.007105],[-9.475814,54.00691],[-9.475895,54.006827],[-9.476023,54.006734],[-9.476208,54.006642],[-9.476266,54.00673],[-9.476347,54.006812],[-9.47652,54.006949],[-9.476728,54.00706],[-9.476875,54.00716],[-9.476907,54.007213],[-9.47701,54.007237],[-9.477102,54.007248],[-9.477171,54.007303],[-9.477167,54.007328],[-9.477165,54.007371],[-9.477218,54.007412],[-9.477304,54.007467],[-9.477381,54.007515],[-9.477453,54.007562],[-9.477539,54.007604],[-9.47764,54.007632],[-9.477741,54.007654],[-9.477846,54.007675],[-9.477917,54.00769],[-9.47798,54.007704],[-9.47807,54.007743],[-9.478222,54.007822],[-9.47849,54.007981],[-9.478579,54.00804],[-9.478716,54.008114],[-9.478883,54.00822],[-9.478961,54.008247],[-9.479105,54.00824],[-9.479304,54.008288],[-9.479471,54.008337],[-9.479634,54.008385],[-9.479741,54.008412],[-9.479794,54.008414],[-9.479937,54.0084],[-9.480048,54.008394],[-9.480166,54.008393],[-9.480348,54.008405],[-9.480417,54.008414],[-9.480497,54.008422],[-9.480599,54.008432],[-9.48069,54.008429],[-9.48078,54.008433],[-9.48095,54.008443],[-9.481054,54.00846],[-9.481185,54.008485],[-9.481302,54.008508],[-9.481384,54.008523],[-9.481436,54.008545],[-9.481497,54.008586],[-9.481553,54.008613],[-9.481599,54.008652],[-9.481657,54.008682],[-9.481708,54.008706],[-9.481778,54.008736],[-9.481825,54.008748],[-9.481968,54.008746],[-9.481971,54.008825],[-9.481991,54.008838],[-9.482035,54.008867],[-9.482083,54.008917],[-9.482102,54.008965],[-9.482133,54.008954],[-9.482146,54.008941],[-9.482178,54.008918],[-9.482193,54.0089],[-9.4822,54.008881],[-9.482244,54.008853],[-9.482304,54.008829],[-9.482359,54.008824],[-9.482406,54.008833],[-9.482436,54.008838],[-9.482477,54.008842],[-9.48252,54.008856],[-9.482555,54.008861],[-9.482601,54.008851],[-9.482627,54.008832],[-9.48264,54.008814],[-9.482648,54.0088],[-9.482684,54.008776],[-9.482727,54.008768],[-9.482805,54.00874],[-9.482798,54.008722],[-9.482786,54.008715],[-9.482761,54.008708],[-9.48274,54.008704],[-9.482705,54.008697],[-9.482685,54.008697],[-9.482642,54.00869],[-9.482632,54.008667],[-9.482637,54.008619],[-9.482653,54.008595],[-9.482675,54.008571],[-9.482691,54.008547],[-9.482717,54.008514],[-9.482739,54.008494],[-9.482768,54.008478],[-9.482802,54.008472],[-9.482863,54.008479],[-9.482893,54.008487],[-9.482951,54.008495],[-9.483006,54.008493],[-9.483087,54.008471],[-9.483142,54.008452],[-9.483175,54.008436],[-9.483222,54.008408],[-9.483237,54.008382],[-9.483241,54.008357],[-9.483242,54.008338],[-9.483253,54.008324],[-9.483277,54.008294],[-9.48328,54.008262],[-9.483258,54.008237],[-9.483242,54.008223],[-9.483212,54.008209],[-9.483172,54.00819],[-9.483155,54.008169],[-9.483152,54.008138],[-9.483164,54.008116],[-9.483195,54.008089],[-9.483219,54.008069],[-9.483234,54.008041],[-9.483239,54.008013],[-9.483214,54.007996],[-9.48319,54.007984],[-9.483159,54.007977],[-9.483118,54.007965],[-9.483095,54.00795],[-9.483077,54.007927],[-9.483069,54.007902],[-9.483073,54.007873],[-9.483083,54.007852],[-9.483104,54.007819],[-9.483126,54.007801],[-9.483177,54.007765],[-9.483197,54.007734],[-9.483194,54.007703],[-9.483211,54.007677],[-9.483238,54.007652],[-9.483282,54.007629],[-9.483289,54.00761],[-9.483288,54.007581],[-9.483289,54.007534],[-9.483285,54.007503],[-9.48328,54.007484],[-9.483265,54.007447],[-9.483254,54.007438],[-9.483231,54.007422],[-9.483206,54.007411],[-9.483172,54.007405],[-9.483129,54.007389],[-9.483107,54.007368],[-9.483092,54.007336],[-9.483077,54.007303],[-9.483056,54.007288],[-9.483032,54.007285],[-9.483005,54.007276],[-9.482973,54.007265],[-9.482952,54.007248],[-9.482953,54.007226],[-9.482963,54.00721],[-9.482984,54.007188],[-9.483008,54.007163],[-9.483033,54.007132],[-9.483031,54.0071],[-9.483023,54.007085],[-9.483003,54.007077],[-9.482974,54.007072],[-9.482948,54.007067],[-9.482937,54.007059],[-9.482921,54.007039],[-9.482924,54.007019],[-9.482943,54.007003],[-9.48298,54.006993],[-9.483043,54.006978],[-9.48308,54.006959],[-9.4831,54.006944],[-9.483104,54.006922],[-9.483103,54.006894],[-9.483092,54.006872],[-9.483075,54.006852],[-9.483045,54.006826],[-9.48303,54.006789],[-9.483017,54.006761],[-9.483017,54.006742],[-9.483019,54.006689],[-9.483004,54.006659],[-9.482983,54.006624],[-9.48297,54.006582],[-9.48293,54.006553],[-9.482926,54.00652],[-9.482935,54.006483],[-9.482949,54.006441],[-9.482945,54.006426],[-9.482925,54.006412],[-9.482895,54.0064],[-9.482842,54.006399],[-9.482801,54.006399]],[[-9.477202,54.003413],[-9.477659,54.003407],[-9.477669,54.003676],[-9.477212,54.003682],[-9.477202,54.003413]],[[-9.47683,54.005844],[-9.476373,54.005849],[-9.476383,54.006119],[-9.47684,54.006113],[-9.47685,54.006383],[-9.475935,54.006394],[-9.475925,54.006124],[-9.475468,54.00613],[-9.475458,54.00586],[-9.475001,54.005866],[-9.474991,54.005597],[-9.474534,54.005602],[-9.474524,54.005333],[-9.474067,54.005338],[-9.474057,54.005069],[-9.474972,54.005058],[-9.474981,54.005327],[-9.476354,54.00531],[-9.476363,54.00558],[-9.476821,54.005574],[-9.47683,54.005844]]],[[[-9.472292,54.008892],[-9.47236,54.008859],[-9.472341,54.008325],[-9.471884,54.008331],[-9.471865,54.007792],[-9.47095,54.007803],[-9.47094,54.007533],[-9.469568,54.00755],[-9.469577,54.00782],[-9.469596,54.008359],[-9.469139,54.008364],[-9.46912,54.007825],[-9.468662,54.007831],[-9.468653,54.007561],[-9.468195,54.007567],[-9.468186,54.007297],[-9.467728,54.007303],[-9.467719,54.007034],[-9.466804,54.007045],[-9.466794,54.006775],[-9.467252,54.00677],[-9.467233,54.006231],[-9.467223,54.005961],[-9.466766,54.005967],[-9.466756,54.005697],[-9.466747,54.005428],[-9.466289,54.005433],[-9.46628,54.005164],[-9.46627,54.004894],[-9.466261,54.004625],[-9.465804,54.00463],[-9.465794,54.004361],[-9.465785,54.004092],[-9.466242,54.004086],[-9.466233,54.003816],[-9.466223,54.003547],[-9.465766,54.003553],[-9.465756,54.003283],[-9.465299,54.003289],[-9.465308,54.003558],[-9.464851,54.003564],[-9.464841,54.003294],[-9.464822,54.002755],[-9.464813,54.002486],[-9.464803,54.002216],[-9.464784,54.001677],[-9.464327,54.001683],[-9.464318,54.001413],[-9.464299,54.000874],[-9.464289,54.000605],[-9.46428,54.000335],[-9.464261,53.999796],[-9.463803,53.999802],[-9.463813,54.000071],[-9.463355,54.000077],[-9.463365,54.000347],[-9.463374,54.000616],[-9.462917,54.000622],[-9.462926,54.000891],[-9.462469,54.000897],[-9.462478,54.001166],[-9.461564,54.001177],[-9.461573,54.001447],[-9.459743,54.001469],[-9.459753,54.001738],[-9.458838,54.00175],[-9.458847,54.002019],[-9.457932,54.00203],[-9.457942,54.0023],[-9.457961,54.002839],[-9.458418,54.002833],[-9.458427,54.003103],[-9.458885,54.003097],[-9.458904,54.003636],[-9.459361,54.00363],[-9.459371,54.0039],[-9.459828,54.003894],[-9.459838,54.004164],[-9.459847,54.004433],[-9.460304,54.004428],[-9.460314,54.004697],[-9.458941,54.004714],[-9.458932,54.004444],[-9.458923,54.004175],[-9.458465,54.004181],[-9.458456,54.003911],[-9.457998,54.003917],[-9.457989,54.003647],[-9.457531,54.003653],[-9.457513,54.003114],[-9.457055,54.003119],[-9.457046,54.00285],[-9.455673,54.002866],[-9.455655,54.002327],[-9.456569,54.002316],[-9.45656,54.002047],[-9.456551,54.001777],[-9.457008,54.001772],[-9.456999,54.001502],[-9.456541,54.001508],[-9.456532,54.001238],[-9.456522,54.000969],[-9.456065,54.000974],[-9.456056,54.000705],[-9.456046,54.000435],[-9.455589,54.000441],[-9.455579,54.000171],[-9.45557,53.999902],[-9.45556,53.999632],[-9.456933,53.999616],[-9.456942,53.999885],[-9.4574,53.99988],[-9.457409,54.000149],[-9.457866,54.000144],[-9.457876,54.000413],[-9.457885,54.000683],[-9.458343,54.000677],[-9.458352,54.000947],[-9.45881,54.000941],[-9.458819,54.001211],[-9.460191,54.001194],[-9.460182,54.000924],[-9.460639,54.000919],[-9.46063,54.000649],[-9.46062,54.00038],[-9.460163,54.000385],[-9.460154,54.000116],[-9.461068,54.000105],[-9.461059,53.999835],[-9.461516,53.99983],[-9.461507,53.99956],[-9.461964,53.999555],[-9.461936,53.998746],[-9.461917,53.998207],[-9.462374,53.998202],[-9.462356,53.997663],[-9.46327,53.997652],[-9.463261,53.997382],[-9.462804,53.997388],[-9.462794,53.997118],[-9.463251,53.997113],[-9.463233,53.996574],[-9.46369,53.996568],[-9.46368,53.996299],[-9.463223,53.996304],[-9.463214,53.996035],[-9.462756,53.99604],[-9.462766,53.99631],[-9.462308,53.996315],[-9.462337,53.997124],[-9.461879,53.997129],[-9.461889,53.997399],[-9.461431,53.997404],[-9.461422,53.997135],[-9.461394,53.996326],[-9.460479,53.996338],[-9.460469,53.996068],[-9.460068,53.996073],[-9.460075,53.996271],[-9.459486,53.996278],[-9.459057,53.996492],[-9.458621,53.996697],[-9.458185,53.996901],[-9.457848,53.997016],[-9.457758,53.997048],[-9.457763,53.997179],[-9.45822,53.997174],[-9.45823,53.997443],[-9.458687,53.997438],[-9.458696,53.997707],[-9.459154,53.997702],[-9.459173,53.998241],[-9.459201,53.999049],[-9.459658,53.999044],[-9.459668,53.999313],[-9.458753,53.999324],[-9.458744,53.999055],[-9.457829,53.999066],[-9.4578,53.998257],[-9.457343,53.998263],[-9.457324,53.997724],[-9.456867,53.997729],[-9.456857,53.99746],[-9.456625,53.997463],[-9.456398,53.997552],[-9.4561,53.997676],[-9.455785,53.997811],[-9.455507,53.997952],[-9.455241,53.998103],[-9.45494,53.998256],[-9.454528,53.998474],[-9.453845,53.998843],[-9.453842,53.998844],[-9.454617,53.998835],[-9.454608,53.998566],[-9.455065,53.99856],[-9.455056,53.998291],[-9.456428,53.998274],[-9.456438,53.998543],[-9.456895,53.998538],[-9.456904,53.998807],[-9.456914,53.999077],[-9.454627,53.999105],[-9.454636,53.999374],[-9.454646,53.999644],[-9.454188,53.999649],[-9.454207,54.000188],[-9.454216,54.000458],[-9.454674,54.000452],[-9.454683,54.000722],[-9.454693,54.000991],[-9.45515,54.000985],[-9.455159,54.001255],[-9.455617,54.001249],[-9.455626,54.001519],[-9.455636,54.001788],[-9.454721,54.001799],[-9.454711,54.00153],[-9.454254,54.001536],[-9.454245,54.001266],[-9.453787,54.001272],[-9.453778,54.001002],[-9.453768,54.000733],[-9.453311,54.000738],[-9.453302,54.000469],[-9.453292,54.000199],[-9.452377,54.00021],[-9.452387,54.00048],[-9.451982,54.000485],[-9.451991,54.000523],[-9.452015,54.000721],[-9.452012,54.000772],[-9.451966,54.000824],[-9.451942,54.000845],[-9.451948,54.001024],[-9.451957,54.001294],[-9.451967,54.001563],[-9.452424,54.001558],[-9.452434,54.001827],[-9.452891,54.001822],[-9.4529,54.002091],[-9.451986,54.002102],[-9.451976,54.001833],[-9.451519,54.001838],[-9.451509,54.001569],[-9.451179,54.001573],[-9.450903,54.001847],[-9.450597,54.002119],[-9.451071,54.002113],[-9.45108,54.002383],[-9.451995,54.002372],[-9.452004,54.002641],[-9.452462,54.002636],[-9.452471,54.002905],[-9.45249,54.003444],[-9.452947,54.003439],[-9.452966,54.003978],[-9.453424,54.003972],[-9.453414,54.003703],[-9.453872,54.003697],[-9.453844,54.002889],[-9.454758,54.002877],[-9.454787,54.003686],[-9.455244,54.00368],[-9.455253,54.00395],[-9.455711,54.003944],[-9.45572,54.004214],[-9.455749,54.005022],[-9.455758,54.005292],[-9.455301,54.005297],[-9.455301,54.005313],[-9.455816,54.005307],[-9.455834,54.00583],[-9.457607,54.005809],[-9.457597,54.005539],[-9.457588,54.00527],[-9.458503,54.005259],[-9.458512,54.005528],[-9.462172,54.005484],[-9.462182,54.005753],[-9.460352,54.005775],[-9.460361,54.006045],[-9.462648,54.006017],[-9.462658,54.006286],[-9.461743,54.006298],[-9.461752,54.006567],[-9.460837,54.006578],[-9.460847,54.006848],[-9.460856,54.007117],[-9.460399,54.007123],[-9.460408,54.007392],[-9.459493,54.007403],[-9.459503,54.007673],[-9.459045,54.007678],[-9.459055,54.007948],[-9.460427,54.007931],[-9.460437,54.008201],[-9.461809,54.008184],[-9.4618,54.007915],[-9.462715,54.007903],[-9.462705,54.007634],[-9.463163,54.007628],[-9.463153,54.007359],[-9.465898,54.007325],[-9.465908,54.007595],[-9.465917,54.007864],[-9.465927,54.008134],[-9.463182,54.008167],[-9.463191,54.008437],[-9.462734,54.008442],[-9.462752,54.008981],[-9.462762,54.009251],[-9.463219,54.009245],[-9.463238,54.009784],[-9.463696,54.009779],[-9.463714,54.010293],[-9.463744,54.010287],[-9.464013,54.010232],[-9.464376,54.010187],[-9.464624,54.010137],[-9.46462,54.010037],[-9.465113,54.010031],[-9.465308,54.009984],[-9.465532,54.009941],[-9.465526,54.009756],[-9.466555,54.009744],[-9.466718,54.009713],[-9.467095,54.009664],[-9.46781,54.009568],[-9.468056,54.009541],[-9.468234,54.009515],[-9.4683,54.009503],[-9.468609,54.009465],[-9.468976,54.009412],[-9.469368,54.009359],[-9.469764,54.009318],[-9.470013,54.009277],[-9.470405,54.009211],[-9.470737,54.009155],[-9.471167,54.009104],[-9.471398,54.009081],[-9.471586,54.009066],[-9.471698,54.009058],[-9.471839,54.009056],[-9.472028,54.009067],[-9.472137,54.008976],[-9.472292,54.008892]],[[-9.463106,54.006011],[-9.462648,54.006017],[-9.462639,54.005747],[-9.463097,54.005742],[-9.463106,54.006011]],[[-9.453825,54.00235],[-9.453844,54.002889],[-9.453386,54.002894],[-9.453367,54.002355],[-9.453825,54.00235]],[[-9.455645,54.002058],[-9.455636,54.001788],[-9.456093,54.001783],[-9.456103,54.002052],[-9.455645,54.002058]]],[[[-9.462342,54.010405],[-9.462802,54.010403],[-9.462781,54.00979],[-9.461866,54.009801],[-9.461875,54.01007],[-9.460503,54.010087],[-9.460512,54.010357],[-9.459043,54.010374],[-9.459053,54.010659],[-9.457529,54.010677],[-9.457528,54.010662],[-9.456861,54.010671],[-9.456871,54.01094],[-9.458243,54.010923],[-9.458247,54.011045],[-9.458589,54.010992],[-9.458911,54.010936],[-9.459392,54.010816],[-9.460039,54.010707],[-9.460592,54.010629],[-9.461127,54.010545],[-9.461505,54.010501],[-9.461892,54.010449],[-9.462342,54.010405]]],[[[-9.456087,54.011298],[-9.456425,54.011296],[-9.456423,54.011215],[-9.455965,54.011221],[-9.455967,54.011293],[-9.456087,54.011298]]],[[[-9.451371,54.010752],[-9.452286,54.010741],[-9.452286,54.010726],[-9.451828,54.010731],[-9.451819,54.010462],[-9.451361,54.010467],[-9.451371,54.010737],[-9.451371,54.010752]]],[[[-9.449999,54.010768],[-9.450456,54.010763],[-9.450456,54.010748],[-9.449998,54.010754],[-9.449999,54.010768]]],[[[-9.449923,54.007504],[-9.449935,54.007519],[-9.450343,54.007514],[-9.450334,54.007245],[-9.452621,54.007217],[-9.452612,54.006947],[-9.451697,54.006959],[-9.451688,54.006689],[-9.452145,54.006684],[-9.452136,54.006414],[-9.453051,54.006403],[-9.453045,54.006239],[-9.452798,54.006242],[-9.452794,54.006136],[-9.451669,54.00615],[-9.45165,54.005611],[-9.451641,54.005342],[-9.451631,54.005072],[-9.451174,54.005078],[-9.451164,54.004808],[-9.450249,54.004819],[-9.45024,54.00455],[-9.450231,54.00428],[-9.449773,54.004286],[-9.449764,54.004016],[-9.449306,54.004022],[-9.449297,54.003752],[-9.449288,54.003483],[-9.450203,54.003472],[-9.450212,54.003741],[-9.451127,54.00373],[-9.451136,54.004],[-9.451594,54.003994],[-9.451575,54.003455],[-9.451556,54.002916],[-9.451099,54.002922],[-9.451118,54.003461],[-9.45066,54.003466],[-9.450641,54.002927],[-9.450184,54.002933],[-9.450175,54.002663],[-9.449992,54.002665],[-9.449917,54.002736],[-9.449724,54.002867],[-9.449736,54.003208],[-9.449223,54.003214],[-9.449128,54.003283],[-9.449051,54.003338],[-9.448833,54.003562],[-9.44884,54.003758],[-9.448607,54.003761],[-9.448605,54.003762],[-9.4485,54.003962],[-9.448308,54.00418],[-9.448205,54.004266],[-9.44806,54.004382],[-9.447956,54.004431],[-9.447772,54.004506],[-9.447734,54.004521],[-9.447558,54.004631],[-9.447498,54.004661],[-9.447505,54.004852],[-9.447194,54.004856],[-9.447051,54.004977],[-9.447057,54.005127],[-9.446927,54.005129],[-9.446909,54.005154],[-9.446891,54.005305],[-9.446899,54.00536],[-9.446893,54.005415],[-9.4469,54.005447],[-9.446905,54.005463],[-9.446935,54.00555],[-9.446918,54.005584],[-9.446867,54.005686],[-9.446792,54.00579],[-9.446736,54.005863],[-9.446712,54.005964],[-9.446655,54.006041],[-9.446608,54.006118],[-9.446557,54.006194],[-9.446498,54.006238],[-9.446434,54.006303],[-9.446387,54.006375],[-9.446356,54.006403],[-9.446301,54.006497],[-9.446284,54.006531],[-9.446278,54.00659],[-9.446271,54.006634],[-9.446245,54.006683],[-9.446195,54.006718],[-9.446214,54.006726],[-9.446469,54.006842],[-9.446518,54.006867],[-9.4467,54.006933],[-9.44675,54.00696],[-9.446835,54.007011],[-9.446876,54.007043],[-9.446936,54.00708],[-9.446978,54.007103],[-9.447,54.007111],[-9.447113,54.007152],[-9.447181,54.007208],[-9.448255,54.007196],[-9.448274,54.007752],[-9.448326,54.007746],[-9.448523,54.00781],[-9.448523,54.007806],[-9.44898,54.0078],[-9.448971,54.007531],[-9.449442,54.007525],[-9.449546,54.007446],[-9.449557,54.007444],[-9.449655,54.007423],[-9.44985,54.00738],[-9.449868,54.00741],[-9.449923,54.007504]],[[-9.448961,54.007261],[-9.448971,54.007531],[-9.448513,54.007536],[-9.448504,54.007267],[-9.448961,54.007261]]],[[[-9.451853,53.999997],[-9.451917,54.000216],[-9.45192,54.000216],[-9.451911,53.999964],[-9.4519,53.999964],[-9.451853,53.999997]]],[[[-9.453471,54.005336],[-9.454386,54.005325],[-9.454386,54.005308],[-9.454843,54.005303],[-9.454834,54.005033],[-9.455291,54.005028],[-9.455263,54.004219],[-9.454805,54.004225],[-9.454796,54.003955],[-9.453424,54.003972],[-9.453433,54.004242],[-9.453452,54.00478],[-9.453461,54.00505],[-9.453004,54.005056],[-9.453013,54.005325],[-9.453471,54.005319],[-9.453471,54.005336]],[[-9.454824,54.004764],[-9.454834,54.005033],[-9.454376,54.005039],[-9.454367,54.004769],[-9.454824,54.004764]]],[[[-9.455332,54.006212],[-9.454417,54.006223],[-9.454423,54.006386],[-9.455338,54.006375],[-9.455332,54.006212]]],[[[-9.451104,54.01274],[-9.451227,54.01267],[-9.451306,54.012631],[-9.451361,54.012607],[-9.451419,54.012548],[-9.449967,54.012566],[-9.44997,54.012641],[-9.450064,54.01264],[-9.450082,54.013179],[-9.45054,54.013173],[-9.450542,54.01324],[-9.450585,54.013224],[-9.450621,54.013204],[-9.450672,54.013149],[-9.450714,54.013034],[-9.450747,54.012994],[-9.450811,54.012952],[-9.450872,54.012925],[-9.450963,54.01285],[-9.451104,54.01274]]],[[[-9.463728,53.997646],[-9.46327,53.997652],[-9.463289,53.998191],[-9.462832,53.998196],[-9.462851,53.998735],[-9.463308,53.99873],[-9.463337,53.999538],[-9.463346,53.999808],[-9.463803,53.999802],[-9.463794,53.999532],[-9.463785,53.999263],[-9.464242,53.999257],[-9.464232,53.998988],[-9.463775,53.998993],[-9.463756,53.998455],[-9.463747,53.998185],[-9.463728,53.997646]]],[[[-9.473523,54.002918],[-9.473981,54.002913],[-9.473971,54.002643],[-9.473514,54.002649],[-9.473523,54.002918]]],[[[-9.470274,54.00161],[-9.470731,54.001605],[-9.470722,54.001335],[-9.470264,54.001341],[-9.470274,54.00161]]],[[[-9.471132,53.999982],[-9.471103,53.999174],[-9.47156,53.999168],[-9.471551,53.998899],[-9.470179,53.998915],[-9.470188,53.999185],[-9.470198,53.999454],[-9.470655,53.999449],[-9.470665,53.999718],[-9.470207,53.999724],[-9.470226,54.000263],[-9.471141,54.000252],[-9.471132,53.999982]]],[[[-9.464643,53.997635],[-9.464633,53.997365],[-9.464176,53.997371],[-9.464185,53.99764],[-9.464643,53.997635]]],[[[-9.479384,54.00042],[-9.478927,54.000426],[-9.478946,54.000965],[-9.479403,54.000959],[-9.479384,54.00042]]],[[[-9.478469,54.000431],[-9.478927,54.000426],[-9.478917,54.000156],[-9.478908,53.999887],[-9.47845,53.999892],[-9.478469,54.000431]]],[[[-9.478488,54.00097],[-9.478031,54.000976],[-9.478041,54.001245],[-9.478498,54.00124],[-9.478488,54.00097]]],[[[-9.477574,54.000981],[-9.478031,54.000976],[-9.478012,54.000437],[-9.477554,54.000443],[-9.477535,53.999904],[-9.477078,53.999909],[-9.477088,54.000179],[-9.477097,54.000448],[-9.477107,54.000718],[-9.477564,54.000712],[-9.477574,54.000981]]],[[[-9.479899,54.002031],[-9.479442,54.002037],[-9.479461,54.002576],[-9.479918,54.00257],[-9.479899,54.002031]]],[[[-9.469482,54.005125],[-9.46994,54.005119],[-9.46993,54.00485],[-9.469473,54.004855],[-9.469482,54.005125]]],[[[-9.470397,54.005114],[-9.46994,54.005119],[-9.469949,54.005389],[-9.469959,54.005658],[-9.470416,54.005653],[-9.470397,54.005114]]],[[[-9.454451,54.007195],[-9.452621,54.007217],[-9.452631,54.007486],[-9.454461,54.007464],[-9.454451,54.007195]]],[[[-9.451155,54.004539],[-9.451164,54.004808],[-9.452079,54.004797],[-9.452061,54.004258],[-9.451603,54.004264],[-9.451613,54.004533],[-9.451155,54.004539]]],[[[-9.455796,54.00637],[-9.455805,54.006639],[-9.457177,54.006623],[-9.457187,54.006892],[-9.456729,54.006898],[-9.456739,54.007167],[-9.456748,54.007437],[-9.456291,54.007442],[-9.4563,54.007712],[-9.457215,54.007701],[-9.457225,54.00797],[-9.457682,54.007965],[-9.457673,54.007695],[-9.457663,54.007426],[-9.458121,54.00742],[-9.458111,54.00715],[-9.458102,54.006881],[-9.459017,54.00687],[-9.459007,54.0066],[-9.459465,54.006595],[-9.459456,54.006325],[-9.459446,54.006056],[-9.456701,54.006089],[-9.456711,54.006359],[-9.455796,54.00637]]],[[[-9.455348,54.006645],[-9.455357,54.006914],[-9.455814,54.006909],[-9.455805,54.006639],[-9.455348,54.006645]]],[[[-9.455366,54.007184],[-9.455357,54.006914],[-9.454899,54.00692],[-9.454909,54.007189],[-9.455366,54.007184]]],[[[-9.45631,54.007981],[-9.4563,54.007712],[-9.455843,54.007717],[-9.455852,54.007987],[-9.45631,54.007981]]]]}}]}
