{"type":"FeatureCollection","features":[{"type":"Feature","properties":{"source_fid":1860627,"county":"Mayo","bog_geom_ha":154.60046288021206,"low15_pct":76.013904982618769,"low15_ha":117.51784895645321,"overlay_ha":117.47862445238799,"area_delta":-0.039224504065217047},"geometry":{"type":"MultiPolygon","coordinates":[[[[-9.519189,54.025029],[-9.519178,54.025009],[-9.51918,54.025073],[-9.519189,54.025029]]],[[[-9.514728,54.028558],[-9.514718,54.028289],[-9.51426,54.028294],[-9.51427,54.028564],[-9.513812,54.02857],[-9.513822,54.028839],[-9.513832,54.029109],[-9.51429,54.029103],[-9.51428,54.028833],[-9.514737,54.028828],[-9.514728,54.028558]]],[[[-9.516111,54.02881],[-9.514737,54.028828],[-9.514747,54.029097],[-9.51429,54.029103],[-9.514299,54.029372],[-9.514309,54.029642],[-9.514767,54.029636],[-9.514777,54.029905],[-9.515692,54.029894],[-9.515702,54.030163],[-9.515722,54.030702],[-9.514806,54.030714],[-9.514786,54.030175],[-9.513413,54.030192],[-9.513403,54.029923],[-9.512946,54.029929],[-9.51294,54.02976],[-9.511611,54.029776],[-9.511598,54.029406],[-9.51018,54.029424],[-9.510199,54.029963],[-9.510209,54.030233],[-9.509751,54.030238],[-9.509742,54.029969],[-9.509426,54.029973],[-9.509438,54.029995],[-9.509452,54.030042],[-9.509464,54.030087],[-9.509488,54.030122],[-9.50953,54.030173],[-9.509553,54.030254],[-9.509602,54.030325],[-9.509647,54.03039],[-9.509675,54.030427],[-9.509758,54.030535],[-9.50985,54.030622],[-9.50991,54.03068],[-9.510032,54.0308],[-9.51008,54.030842],[-9.510152,54.030883],[-9.51025,54.030923],[-9.510295,54.03095],[-9.510315,54.03098],[-9.510335,54.03101],[-9.510358,54.031041],[-9.510389,54.031109],[-9.510456,54.031168],[-9.510609,54.031252],[-9.510735,54.031328],[-9.510845,54.031425],[-9.510931,54.03148],[-9.510967,54.03151],[-9.511028,54.031519],[-9.511154,54.031532],[-9.511173,54.031548],[-9.511164,54.031299],[-9.511154,54.031029],[-9.510696,54.031035],[-9.510686,54.030766],[-9.510229,54.030771],[-9.510219,54.030502],[-9.511134,54.030491],[-9.511144,54.03076],[-9.511602,54.030754],[-9.511612,54.031024],[-9.511621,54.031293],[-9.512079,54.031287],[-9.512099,54.031826],[-9.513014,54.031815],[-9.513004,54.031545],[-9.513462,54.03154],[-9.513452,54.03127],[-9.51391,54.031264],[-9.51392,54.031534],[-9.51393,54.031803],[-9.514387,54.031798],[-9.514397,54.032067],[-9.514407,54.032337],[-9.514865,54.032331],[-9.514875,54.0326],[-9.515332,54.032595],[-9.515342,54.032864],[-9.5158,54.032858],[-9.51581,54.033128],[-9.516268,54.033122],[-9.516277,54.033391],[-9.516735,54.033386],[-9.516745,54.033655],[-9.516755,54.033925],[-9.517213,54.033919],[-9.517222,54.034188],[-9.517232,54.034458],[-9.516774,54.034464],[-9.516765,54.034194],[-9.516307,54.0342],[-9.516297,54.03393],[-9.515839,54.033936],[-9.515829,54.033667],[-9.515372,54.033672],[-9.515362,54.033403],[-9.514904,54.033409],[-9.514894,54.033139],[-9.514436,54.033145],[-9.514427,54.032876],[-9.513969,54.032881],[-9.513959,54.032612],[-9.513501,54.032618],[-9.513492,54.032348],[-9.512118,54.032365],[-9.512108,54.032096],[-9.511773,54.0321],[-9.511815,54.032174],[-9.511853,54.03224],[-9.512112,54.032424],[-9.512054,54.032453],[-9.512075,54.032466],[-9.512423,54.032684],[-9.51268,54.032846],[-9.512781,54.032887],[-9.512898,54.032937],[-9.513538,54.032902],[-9.51362,54.032936],[-9.513704,54.03297],[-9.513746,54.032997],[-9.513792,54.033016],[-9.513849,54.03303],[-9.513892,54.033042],[-9.513904,54.033054],[-9.513912,54.033071],[-9.513911,54.033095],[-9.51391,54.033107],[-9.513931,54.033117],[-9.513977,54.033131],[-9.514025,54.033155],[-9.514048,54.033182],[-9.514053,54.033208],[-9.514043,54.033224],[-9.514025,54.033258],[-9.51401,54.033278],[-9.514001,54.033296],[-9.514011,54.033325],[-9.514054,54.033345],[-9.514222,54.033389],[-9.514319,54.033446],[-9.514349,54.033464],[-9.514406,54.033514],[-9.514491,54.033578],[-9.514506,54.033656],[-9.514582,54.033708],[-9.514752,54.033805],[-9.514869,54.033869],[-9.514941,54.033913],[-9.514947,54.033917],[-9.515016,54.033942],[-9.515114,54.033976],[-9.515231,54.033992],[-9.515295,54.034004],[-9.515488,54.034039],[-9.515656,54.034082],[-9.515759,54.034153],[-9.515974,54.034368],[-9.515994,54.034405],[-9.516027,54.034433],[-9.516096,54.034483],[-9.516144,54.034543],[-9.516178,54.03461],[-9.516198,54.034648],[-9.516225,54.034668],[-9.516294,54.034716],[-9.51638,54.034745],[-9.516465,54.034814],[-9.516517,54.03485],[-9.516559,54.034882],[-9.516598,54.034909],[-9.516648,54.034941],[-9.516662,54.034959],[-9.516669,54.034991],[-9.516674,54.035008],[-9.516707,54.035034],[-9.516703,54.035055],[-9.516734,54.035099],[-9.51675,54.035127],[-9.516754,54.035151],[-9.516751,54.035186],[-9.516752,54.035221],[-9.516809,54.035254],[-9.51685,54.035264],[-9.516891,54.035264],[-9.516918,54.035252],[-9.516939,54.035236],[-9.51696,54.035232],[-9.517015,54.035233],[-9.517054,54.035243],[-9.517057,54.035244],[-9.517078,54.035272],[-9.517086,54.035317],[-9.517121,54.035332],[-9.517177,54.035328],[-9.517211,54.035346],[-9.517235,54.035391],[-9.517248,54.035416],[-9.517308,54.035465],[-9.517338,54.035495],[-9.51738,54.035511],[-9.51743,54.035511],[-9.517513,54.035539],[-9.517536,54.035559],[-9.51758,54.035583],[-9.517596,54.035604],[-9.517585,54.035632],[-9.517599,54.035662],[-9.517663,54.035688],[-9.517813,54.035727],[-9.517917,54.035753],[-9.518016,54.03575],[-9.518059,54.035759],[-9.518099,54.035791],[-9.518134,54.035809],[-9.518175,54.035804],[-9.518208,54.035795],[-9.518256,54.035818],[-9.518273,54.035835],[-9.518388,54.035921],[-9.51845,54.035946],[-9.518506,54.035978],[-9.518523,54.035982],[-9.518567,54.035989],[-9.518607,54.03599],[-9.518641,54.036002],[-9.518682,54.036023],[-9.518714,54.036038],[-9.518742,54.036048],[-9.518771,54.036052],[-9.518768,54.036108],[-9.518759,54.036129],[-9.518721,54.036158],[-9.518681,54.03619],[-9.518657,54.036219],[-9.518609,54.036269],[-9.518606,54.036314],[-9.518624,54.03638],[-9.51865,54.036483],[-9.518659,54.036563],[-9.518654,54.036591],[-9.518602,54.036646],[-9.518563,54.03668],[-9.518544,54.0367],[-9.518535,54.036715],[-9.518545,54.036762],[-9.518587,54.036853],[-9.518587,54.036885],[-9.518619,54.036944],[-9.518653,54.037002],[-9.518696,54.037044],[-9.518704,54.037067],[-9.518725,54.037162],[-9.518742,54.037225],[-9.518716,54.037264],[-9.518693,54.037306],[-9.518731,54.037331],[-9.518778,54.037366],[-9.518798,54.037389],[-9.51883,54.037432],[-9.518856,54.037487],[-9.518886,54.037507],[-9.518931,54.037536],[-9.518937,54.037542],[-9.518944,54.037549],[-9.518959,54.037576],[-9.518972,54.037646],[-9.51899,54.037701],[-9.51902,54.037757],[-9.519059,54.037811],[-9.519109,54.037839],[-9.519135,54.037848],[-9.519202,54.037877],[-9.519272,54.037944],[-9.51934,54.03802],[-9.519377,54.038081],[-9.519408,54.038153],[-9.519479,54.038188],[-9.519608,54.038192],[-9.519722,54.038226],[-9.520026,54.038351],[-9.520578,54.038601],[-9.520645,54.038632],[-9.521061,54.038837],[-9.521425,54.03901],[-9.521778,54.039152],[-9.522108,54.039266],[-9.522205,54.039318],[-9.522461,54.039517],[-9.522579,54.039613],[-9.522765,54.039765],[-9.523081,54.039994],[-9.523531,54.040079],[-9.523791,54.040142],[-9.523998,54.040354],[-9.524029,54.040381],[-9.524382,54.040698],[-9.524671,54.04095],[-9.525443,54.041619],[-9.525889,54.04181],[-9.526801,54.041462],[-9.528245,54.040912],[-9.528581,54.040785],[-9.528456,54.040786],[-9.528446,54.040517],[-9.528904,54.040511],[-9.52891,54.040659],[-9.5291,54.040587],[-9.529429,54.040458],[-9.52949,54.040407],[-9.529434,54.040351],[-9.529529,54.040369],[-9.529645,54.040381],[-9.529757,54.040385],[-9.529775,54.040383],[-9.529573,54.040286],[-9.529324,54.040195],[-9.52901,54.04009],[-9.528931,54.040063],[-9.528815,54.04001],[-9.528635,54.039933],[-9.5285,54.039889],[-9.528423,54.039878],[-9.528333,54.039857],[-9.528201,54.039824],[-9.528001,54.039755],[-9.527856,54.039737],[-9.527479,54.039725],[-9.527416,54.039704],[-9.527348,54.039681],[-9.527151,54.039606],[-9.52683,54.039425],[-9.526725,54.039379],[-9.526498,54.039279],[-9.526216,54.039137],[-9.526083,54.039082],[-9.525695,54.038906],[-9.525652,54.038879],[-9.525542,54.038802],[-9.525474,54.038823],[-9.525276,54.038882],[-9.525002,54.038705],[-9.52501,54.038493],[-9.525115,54.038336],[-9.525073,54.038324],[-9.525044,54.038317],[-9.524709,54.038237],[-9.52467,54.038225],[-9.524555,54.038189],[-9.524434,54.038135],[-9.524174,54.037983],[-9.524047,54.037916],[-9.52383,54.037816],[-9.523652,54.037731],[-9.523429,54.037614],[-9.523155,54.037491],[-9.522862,54.037349],[-9.522694,54.03726],[-9.52253,54.037179],[-9.522446,54.03713],[-9.522235,54.036976],[-9.522224,54.036957],[-9.522451,54.03678],[-9.522494,54.036744],[-9.522647,54.036627],[-9.523148,54.036193],[-9.523202,54.036197],[-9.523286,54.036229],[-9.523396,54.036265],[-9.523648,54.036373],[-9.523672,54.036383],[-9.523746,54.036448],[-9.523889,54.036465],[-9.52429,54.036603],[-9.524413,54.036656],[-9.524544,54.036704],[-9.524601,54.036739],[-9.524671,54.036789],[-9.524755,54.036863],[-9.524818,54.036913],[-9.524919,54.036962],[-9.525024,54.037025],[-9.525135,54.037117],[-9.525252,54.037195],[-9.525344,54.037266],[-9.525366,54.037295],[-9.525403,54.037343],[-9.525478,54.037376],[-9.525631,54.037446],[-9.525687,54.037472],[-9.525712,54.037518],[-9.525741,54.037552],[-9.52578,54.037587],[-9.525833,54.037617],[-9.525931,54.037701],[-9.526068,54.037776],[-9.526177,54.03782],[-9.526343,54.037897],[-9.526375,54.037906],[-9.526674,54.037994],[-9.526684,54.037996],[-9.527031,54.038114],[-9.527373,54.03823],[-9.527467,54.038057],[-9.527679,54.037948],[-9.527893,54.038039],[-9.528144,54.037725],[-9.528451,54.037659],[-9.529138,54.0376],[-9.529162,54.037846],[-9.529041,54.037855],[-9.528996,54.038001],[-9.529145,54.038003],[-9.529032,54.038458],[-9.528804,54.038446],[-9.528336,54.039251],[-9.52849,54.039301],[-9.528769,54.039355],[-9.52923,54.039472],[-9.529651,54.039582],[-9.529681,54.039594],[-9.529745,54.03955],[-9.530247,54.039652],[-9.530238,54.039398],[-9.530171,54.039368],[-9.530045,54.039313],[-9.530017,54.039047],[-9.530005,54.038486],[-9.530003,54.03838],[-9.529994,54.038127],[-9.529977,54.037616],[-9.529978,54.037542],[-9.529984,54.037313],[-9.52999,54.037242],[-9.529993,54.037196],[-9.53,54.037134],[-9.530006,54.037082],[-9.530003,54.037051],[-9.529999,54.037013],[-9.529988,54.036948],[-9.529983,54.036919],[-9.529924,54.036856],[-9.529905,54.03649],[-9.529901,54.036454],[-9.529671,54.036457],[-9.529662,54.036188],[-9.529204,54.036193],[-9.529199,54.036072],[-9.528302,54.036134],[-9.526713,54.036201],[-9.52655,54.036208],[-9.526398,54.036195],[-9.525358,54.036111],[-9.52526,54.036103],[-9.523834,54.035884],[-9.52386,54.0358],[-9.523888,54.035713],[-9.523953,54.035542],[-9.524107,54.03516],[-9.52419,54.034928],[-9.52428,54.034617],[-9.52438,54.034315],[-9.524476,54.034107],[-9.524515,54.03402],[-9.524598,54.033808],[-9.524648,54.033643],[-9.52472,54.033382],[-9.524724,54.033367],[-9.524751,54.033283],[-9.524871,54.033032],[-9.524997,54.032706],[-9.525093,54.032433],[-9.525242,54.032028],[-9.525447,54.031515],[-9.525576,54.031149],[-9.525719,54.030787],[-9.525849,54.030402],[-9.525946,54.030111],[-9.526025,54.029904],[-9.526142,54.029593],[-9.526267,54.029273],[-9.52636,54.029055],[-9.526405,54.028949],[-9.526475,54.028781],[-9.526638,54.028346],[-9.526729,54.028137],[-9.526619,54.028138],[-9.526599,54.027599],[-9.526953,54.027595],[-9.52701,54.027463],[-9.527049,54.027376],[-9.527037,54.027054],[-9.527189,54.027052],[-9.527293,54.026793],[-9.526682,54.026809],[-9.526265,54.026828],[-9.525639,54.026857],[-9.524814,54.026899],[-9.523571,54.026958],[-9.522803,54.027004],[-9.522238,54.027024],[-9.521968,54.026989],[-9.521858,54.026971],[-9.521786,54.026959],[-9.521718,54.026947],[-9.521596,54.026928],[-9.521525,54.026922],[-9.5215,54.026903],[-9.521506,54.026882],[-9.521481,54.026859],[-9.521446,54.026847],[-9.521369,54.026784],[-9.521327,54.026743],[-9.521274,54.026693],[-9.521237,54.026683],[-9.521189,54.02668],[-9.521096,54.026675],[-9.521009,54.026676],[-9.520973,54.026677],[-9.52089,54.026662],[-9.52084,54.026625],[-9.520806,54.02656],[-9.520785,54.026526],[-9.520707,54.026497],[-9.52061,54.026493],[-9.520566,54.026476],[-9.520555,54.026459],[-9.520535,54.026417],[-9.520488,54.026406],[-9.52046,54.026387],[-9.520473,54.026331],[-9.52051,54.026314],[-9.520524,54.026307],[-9.520534,54.026297],[-9.520523,54.026259],[-9.520523,54.026238],[-9.520527,54.026204],[-9.520506,54.026168],[-9.520406,54.026137],[-9.520366,54.026135],[-9.520302,54.026118],[-9.520244,54.026091],[-9.520196,54.026072],[-9.520131,54.026037],[-9.520089,54.026018],[-9.52003,54.025984],[-9.520008,54.025971],[-9.519978,54.025961],[-9.519948,54.02595],[-9.519923,54.025928],[-9.519918,54.02589],[-9.519916,54.025852],[-9.519718,54.02573],[-9.51969,54.025656],[-9.519644,54.025616],[-9.519598,54.025602],[-9.519535,54.025594],[-9.519489,54.025583],[-9.519409,54.025523],[-9.519302,54.025398],[-9.519244,54.025373],[-9.519235,54.02537],[-9.519205,54.025335],[-9.519188,54.025287],[-9.519197,54.025536],[-9.518739,54.025542],[-9.518749,54.025811],[-9.518759,54.026081],[-9.518301,54.026087],[-9.518311,54.026356],[-9.518321,54.026625],[-9.517863,54.026631],[-9.517873,54.026901],[-9.5165,54.026918],[-9.51651,54.027188],[-9.516052,54.027193],[-9.516062,54.027463],[-9.516071,54.027732],[-9.515614,54.027738],[-9.515624,54.028008],[-9.515633,54.028277],[-9.516091,54.028271],[-9.516101,54.028541],[-9.516559,54.028535],[-9.516549,54.028265],[-9.517464,54.028254],[-9.517474,54.028523],[-9.517016,54.028529],[-9.517026,54.028799],[-9.516568,54.028804],[-9.516578,54.029074],[-9.51612,54.02908],[-9.516111,54.02881]],[[-9.528436,54.040247],[-9.528446,54.040517],[-9.527989,54.040523],[-9.527979,54.040253],[-9.528436,54.040247]],[[-9.527969,54.039984],[-9.527979,54.040253],[-9.527521,54.040259],[-9.527511,54.039989],[-9.527969,54.039984]],[[-9.514348,54.03072],[-9.514806,54.030714],[-9.514816,54.030983],[-9.514358,54.030989],[-9.514348,54.03072]],[[-9.52026,54.029567],[-9.520717,54.029561],[-9.520727,54.02983],[-9.520269,54.029836],[-9.52026,54.029567]],[[-9.519812,54.029842],[-9.520269,54.029836],[-9.520279,54.030106],[-9.520289,54.030375],[-9.519831,54.030381],[-9.519851,54.03092],[-9.519393,54.030926],[-9.519374,54.030387],[-9.519364,54.030117],[-9.519822,54.030111],[-9.519812,54.029842]],[[-9.518936,54.030931],[-9.519393,54.030926],[-9.519413,54.031465],[-9.518955,54.03147],[-9.518936,54.030931]],[[-9.521175,54.029555],[-9.521633,54.029549],[-9.521653,54.030088],[-9.521195,54.030094],[-9.521175,54.029555]],[[-9.520737,54.0301],[-9.521195,54.030094],[-9.521205,54.030364],[-9.520747,54.030369],[-9.520737,54.0301]],[[-9.520378,54.0328],[-9.520835,54.032795],[-9.520855,54.033334],[-9.520397,54.033339],[-9.520378,54.0328]],[[-9.513881,54.030456],[-9.513891,54.030725],[-9.513433,54.030731],[-9.513423,54.030462],[-9.513881,54.030456]]],[[[-9.529866,54.03458],[-9.529868,54.034287],[-9.529869,54.034138],[-9.529866,54.03458]]],[[[-9.529866,54.03458],[-9.529834,54.034629],[-9.5298,54.034682],[-9.529866,54.03458]]],[[[-9.5298,54.034682],[-9.52982,54.034701],[-9.529827,54.034707],[-9.5298,54.034682]]],[[[-9.529864,54.034937],[-9.529817,54.035158],[-9.52982,54.035144],[-9.529864,54.034937]]],[[[-9.530652,54.039697],[-9.53065,54.039686],[-9.530641,54.03968],[-9.530398,54.039683],[-9.530661,54.039736],[-9.530652,54.039697]]],[[[-9.507826,54.021524],[-9.507892,54.021627],[-9.507935,54.021744],[-9.507954,54.021808],[-9.508032,54.021933],[-9.508093,54.022067],[-9.508161,54.022291],[-9.508214,54.022439],[-9.509011,54.022429],[-9.509001,54.02216],[-9.509458,54.022154],[-9.509449,54.021884],[-9.509906,54.021879],[-9.509897,54.021609],[-9.510354,54.021603],[-9.510344,54.021334],[-9.510325,54.020795],[-9.510783,54.020789],[-9.510773,54.02052],[-9.51123,54.020514],[-9.511221,54.020244],[-9.511678,54.020239],[-9.511642,54.019247],[-9.511253,54.019455],[-9.510536,54.019824],[-9.509804,54.020189],[-9.509008,54.020603],[-9.508447,54.020898],[-9.507666,54.02128],[-9.507594,54.021327],[-9.507628,54.021349],[-9.507759,54.021458],[-9.507826,54.021524]]],[[[-9.515329,54.022975],[-9.515024,54.02274],[-9.514853,54.02254],[-9.514778,54.022412],[-9.514697,54.022276],[-9.514652,54.022204],[-9.514596,54.022116],[-9.51459,54.022089],[-9.514493,54.02209],[-9.514502,54.02236],[-9.514045,54.022366],[-9.514055,54.022635],[-9.513597,54.022641],[-9.513607,54.02291],[-9.512234,54.022928],[-9.512243,54.023197],[-9.51087,54.023214],[-9.5109,54.024023],[-9.511357,54.024017],[-9.511367,54.024287],[-9.510452,54.024298],[-9.510462,54.024568],[-9.510004,54.024573],[-9.510014,54.024843],[-9.510024,54.025112],[-9.508252,54.025135],[-9.508209,54.025261],[-9.508096,54.025392],[-9.507968,54.025554],[-9.507835,54.025709],[-9.507773,54.025808],[-9.507761,54.025848],[-9.507764,54.02595],[-9.508222,54.025944],[-9.508232,54.026213],[-9.509605,54.026196],[-9.509615,54.026466],[-9.510988,54.026448],[-9.510998,54.026718],[-9.511455,54.026712],[-9.511465,54.026981],[-9.513296,54.026958],[-9.513286,54.026689],[-9.514201,54.026677],[-9.514192,54.026408],[-9.514541,54.026404],[-9.514532,54.026146],[-9.51464,54.026144],[-9.51464,54.026133],[-9.51463,54.025863],[-9.515087,54.025857],[-9.515078,54.025588],[-9.515993,54.025576],[-9.51598,54.025229],[-9.514499,54.025248],[-9.514467,54.02435],[-9.515032,54.024342],[-9.515029,54.024241],[-9.515019,54.023971],[-9.515477,54.023965],[-9.515486,54.024235],[-9.516402,54.024223],[-9.516411,54.024493],[-9.51804,54.024472],[-9.518025,54.024469],[-9.517915,54.024404],[-9.517609,54.02423],[-9.517396,54.024133],[-9.517174,54.024006],[-9.516913,54.023881],[-9.516733,54.0238],[-9.516538,54.023731],[-9.516386,54.023669],[-9.516206,54.023589],[-9.516034,54.023493],[-9.515924,54.02343],[-9.5158,54.023352],[-9.51553,54.023138],[-9.515329,54.022975]]],[[[-9.507656,54.02735],[-9.507631,54.027369],[-9.507629,54.027388],[-9.507637,54.027418],[-9.507645,54.027444],[-9.507657,54.027476],[-9.507697,54.02754],[-9.507737,54.027568],[-9.507823,54.027566],[-9.507813,54.027297],[-9.508271,54.027291],[-9.508261,54.027022],[-9.507803,54.027027],[-9.507794,54.026758],[-9.507647,54.02676],[-9.507642,54.026805],[-9.507655,54.026852],[-9.507649,54.026886],[-9.507654,54.026908],[-9.507637,54.026964],[-9.507636,54.027059],[-9.507616,54.027152],[-9.507633,54.027229],[-9.507652,54.027331],[-9.507656,54.02735]]],[[[-9.508729,54.027285],[-9.509186,54.02728],[-9.509196,54.027549],[-9.509654,54.027543],[-9.509663,54.027813],[-9.510121,54.027807],[-9.510128,54.027998],[-9.510586,54.027992],[-9.510579,54.027801],[-9.510569,54.027532],[-9.510111,54.027538],[-9.510102,54.027268],[-9.510092,54.026999],[-9.508719,54.027016],[-9.508729,54.027285]]],[[[-9.507318,54.028516],[-9.507367,54.028539],[-9.507446,54.028536],[-9.507521,54.028549],[-9.507607,54.02855],[-9.507712,54.028574],[-9.507837,54.028604],[-9.507861,54.028609],[-9.507852,54.028375],[-9.507342,54.028381],[-9.507335,54.028392],[-9.507307,54.028423],[-9.507295,54.028442],[-9.5073,54.028485],[-9.507318,54.028516]]],[[[-9.508276,54.028706],[-9.508323,54.028722],[-9.50832,54.028639],[-9.508016,54.028642],[-9.50802,54.028643],[-9.508174,54.028675],[-9.508276,54.028706]]],[[[-9.508787,54.028913],[-9.508787,54.028902],[-9.508688,54.028904],[-9.508706,54.028914],[-9.508787,54.028913]]],[[[-9.511646,54.031973],[-9.511641,54.031832],[-9.511498,54.031834],[-9.511552,54.03189],[-9.511646,54.031973]]]]}}]}
