{"type":"FeatureCollection","features":[{"type":"Feature","properties":{"source_fid":1860575,"county":"Mayo","bog_geom_ha":150.05671558051745,"low15_pct":76.21914509331728,"low15_ha":114.37194577058102,"overlay_ha":113.83584024604978,"area_delta":-0.53610552453123717},"geometry":{"type":"MultiPolygon","coordinates":[[[[-9.406589,54.026558],[-9.406463,54.02656],[-9.406405,54.026608],[-9.406231,54.026759],[-9.406207,54.026785],[-9.40626,54.028359],[-9.404734,54.028377],[-9.404795,54.030173],[-9.403743,54.030186],[-9.403732,54.030233],[-9.403671,54.030461],[-9.403628,54.030584],[-9.403535,54.030782],[-9.403511,54.03083],[-9.403408,54.030939],[-9.403375,54.030988],[-9.403299,54.031097],[-9.403175,54.031252],[-9.403039,54.031354],[-9.402915,54.031537],[-9.402793,54.031661],[-9.40268,54.031751],[-9.402573,54.031805],[-9.402568,54.031808],[-9.402489,54.031852],[-9.402423,54.031927],[-9.402394,54.032022],[-9.402269,54.032077],[-9.402216,54.032155],[-9.402136,54.03224],[-9.402063,54.032325],[-9.402069,54.032345],[-9.402097,54.032549],[-9.402114,54.03265],[-9.402099,54.032709],[-9.402047,54.032758],[-9.401998,54.032834],[-9.401908,54.033068],[-9.401886,54.03312],[-9.401929,54.033202],[-9.402133,54.033436],[-9.402267,54.033379],[-9.402657,54.033874],[-9.402883,54.034153],[-9.402877,54.034201],[-9.402898,54.034251],[-9.402932,54.03431],[-9.403046,54.034427],[-9.403137,54.034471],[-9.403259,54.034573],[-9.40356,54.03507],[-9.403633,54.035177],[-9.403764,54.035459],[-9.403877,54.035704],[-9.403907,54.035766],[-9.403979,54.035859],[-9.404142,54.036191],[-9.40421,54.036328],[-9.404284,54.036469],[-9.405007,54.03646],[-9.405031,54.037169],[-9.405115,54.037168],[-9.405124,54.037438],[-9.405582,54.037433],[-9.405591,54.037702],[-9.405049,54.037708],[-9.405067,54.038256],[-9.404686,54.038261],[-9.404687,54.038355],[-9.404681,54.038509],[-9.404682,54.03863],[-9.404728,54.038742],[-9.404722,54.03888],[-9.40475,54.038907],[-9.404785,54.038941],[-9.404676,54.039003],[-9.404688,54.039017],[-9.404676,54.039084],[-9.404661,54.039142],[-9.404681,54.039237],[-9.404673,54.039276],[-9.404648,54.039345],[-9.404561,54.039476],[-9.404542,54.039498],[-9.40447,54.039545],[-9.40442,54.039584],[-9.404355,54.039673],[-9.404335,54.039718],[-9.404339,54.03979],[-9.404327,54.039854],[-9.404245,54.039869],[-9.404116,54.039883],[-9.403937,54.039903],[-9.403797,54.039938],[-9.403645,54.039977],[-9.403579,54.039994],[-9.403526,54.039986],[-9.403673,54.040231],[-9.403706,54.040284],[-9.404037,54.040971],[-9.404406,54.04176],[-9.404518,54.041996],[-9.404738,54.042514],[-9.404751,54.042541],[-9.404755,54.042545],[-9.404774,54.042566],[-9.404786,54.042579],[-9.405017,54.042703],[-9.405126,54.042762],[-9.405137,54.042768],[-9.405323,54.042871],[-9.405398,54.042912],[-9.405519,54.042979],[-9.405699,54.043079],[-9.405712,54.043086],[-9.405733,54.043098],[-9.405904,54.043194],[-9.406097,54.043303],[-9.406149,54.043332],[-9.406233,54.04338],[-9.406314,54.043425],[-9.406529,54.043546],[-9.406555,54.043561],[-9.406632,54.043602],[-9.406666,54.043621],[-9.406729,54.043654],[-9.40684,54.043714],[-9.40685,54.043719],[-9.40698,54.043788],[-9.407,54.043799],[-9.407002,54.0438],[-9.407152,54.04388],[-9.407231,54.043922],[-9.407296,54.043957],[-9.407393,54.044009],[-9.407502,54.044067],[-9.407544,54.044089],[-9.407585,54.044111],[-9.40775,54.044205],[-9.407843,54.044257],[-9.408045,54.04437],[-9.408134,54.04442],[-9.408275,54.0445],[-9.408289,54.044508],[-9.408397,54.04457],[-9.408593,54.044683],[-9.408666,54.044725],[-9.408708,54.044749],[-9.408857,54.044833],[-9.408965,54.044894],[-9.409199,54.045026],[-9.409225,54.04504],[-9.409402,54.04514],[-9.409456,54.045177],[-9.409545,54.045239],[-9.409643,54.045383],[-9.409664,54.045415],[-9.409777,54.045581],[-9.409838,54.045671],[-9.409884,54.045758],[-9.409964,54.045908],[-9.41005,54.046068],[-9.410066,54.046103],[-9.410039,54.046109],[-9.409036,54.046332],[-9.408015,54.046568],[-9.407657,54.046645],[-9.407688,54.046669],[-9.407979,54.046896],[-9.407992,54.046905],[-9.408367,54.04717],[-9.408529,54.047283],[-9.4086,54.047334],[-9.408618,54.047346],[-9.408801,54.04747],[-9.40883,54.04749],[-9.409002,54.047607],[-9.409059,54.047646],[-9.409147,54.047706],[-9.40916,54.047714],[-9.40919,54.047733],[-9.409332,54.047825],[-9.409392,54.047863],[-9.40952,54.047945],[-9.409584,54.047986],[-9.409703,54.048062],[-9.409721,54.048074],[-9.409822,54.048138],[-9.409882,54.048177],[-9.41005,54.048284],[-9.410111,54.048324],[-9.410122,54.04833],[-9.410321,54.04845],[-9.410356,54.048471],[-9.410482,54.048547],[-9.410526,54.048573],[-9.410667,54.048658],[-9.410685,54.048669],[-9.4109,54.048798],[-9.410919,54.04881],[-9.411043,54.048885],[-9.411079,54.048906],[-9.411192,54.048974],[-9.411236,54.049001],[-9.411247,54.049008],[-9.411389,54.049102],[-9.411444,54.049138],[-9.411592,54.049236],[-9.41161,54.049248],[-9.411747,54.049338],[-9.411749,54.049339],[-9.411882,54.049427],[-9.411894,54.049435],[-9.412072,54.049552],[-9.412127,54.049598],[-9.412157,54.049623],[-9.412374,54.049802],[-9.412737,54.050193],[-9.412839,54.050237],[-9.413558,54.050244],[-9.413992,54.050451],[-9.414155,54.050512],[-9.414155,54.050512],[-9.414155,54.050512],[-9.414299,54.050566],[-9.414511,54.050628],[-9.414583,54.050649],[-9.414686,54.05068],[-9.414687,54.05068],[-9.414792,54.050706],[-9.415074,54.050775],[-9.41513,54.050789],[-9.415362,54.050837],[-9.41574,54.050915],[-9.416488,54.05107],[-9.416775,54.050948],[-9.417142,54.050792],[-9.417554,54.050632],[-9.417863,54.050512],[-9.418385,54.050326],[-9.418366,54.050287],[-9.418362,54.05028],[-9.418341,54.050242],[-9.418201,54.04998],[-9.418147,54.04988],[-9.41811,54.049812],[-9.418026,54.049676],[-9.417978,54.049597],[-9.417939,54.049534],[-9.417803,54.049315],[-9.417789,54.049294],[-9.417779,54.049281],[-9.417658,54.049109],[-9.417556,54.048965],[-9.417553,54.048961],[-9.417545,54.048949],[-9.417504,54.04889],[-9.417464,54.048833],[-9.417287,54.048578],[-9.417239,54.048509],[-9.417184,54.04843],[-9.417161,54.048393],[-9.417148,54.048373],[-9.417036,54.048195],[-9.416886,54.047957],[-9.416884,54.047954],[-9.416832,54.047879],[-9.416756,54.04777],[-9.416712,54.047707],[-9.416634,54.047594],[-9.416599,54.047543],[-9.416559,54.047493],[-9.416514,54.047435],[-9.416473,54.047383],[-9.416412,54.047284],[-9.416236,54.047],[-9.416206,54.046951],[-9.416174,54.046899],[-9.416111,54.046794],[-9.41608,54.046742],[-9.415992,54.046597],[-9.415917,54.046471],[-9.415909,54.046458],[-9.415884,54.04642],[-9.415756,54.04622],[-9.415728,54.046177],[-9.415626,54.046018],[-9.415524,54.045857],[-9.415517,54.045846],[-9.415433,54.045722],[-9.415386,54.045654],[-9.415246,54.045448],[-9.415235,54.045431],[-9.415129,54.045275],[-9.415061,54.045175],[-9.415061,54.045175],[-9.415347,54.045105],[-9.41548,54.045072],[-9.415836,54.044995],[-9.415925,54.044976],[-9.416171,54.044923],[-9.415975,54.044625],[-9.415906,54.044549],[-9.41579,54.04442],[-9.415648,54.044244],[-9.415631,54.044223],[-9.415626,54.044217],[-9.415564,54.044139],[-9.415474,54.044024],[-9.415338,54.043851],[-9.415251,54.04374],[-9.415241,54.043727],[-9.415238,54.043724],[-9.415056,54.043492],[-9.414853,54.043235],[-9.414786,54.043149],[-9.414781,54.043142],[-9.414605,54.042922],[-9.414557,54.042862],[-9.414541,54.04284],[-9.414513,54.042805],[-9.414436,54.042707],[-9.414408,54.042662],[-9.414384,54.042623],[-9.414392,54.042371],[-9.41434,54.042195],[-9.414338,54.042017],[-9.414406,54.041502],[-9.414464,54.041224],[-9.414535,54.04085],[-9.41466,54.040285],[-9.414917,54.039385],[-9.415109,54.038802],[-9.41533,54.038071],[-9.415563,54.037284],[-9.415579,54.037235],[-9.414192,54.037251],[-9.414161,54.036353],[-9.415687,54.036335],[-9.415829,54.036333],[-9.415975,54.035844],[-9.415967,54.035693],[-9.413769,54.035719],[-9.413778,54.035988],[-9.411946,54.03601],[-9.411937,54.03574],[-9.411479,54.035746],[-9.411489,54.036015],[-9.410115,54.036031],[-9.410124,54.036301],[-9.409666,54.036306],[-9.409675,54.036576],[-9.406928,54.036608],[-9.406919,54.036338],[-9.40691,54.036069],[-9.407368,54.036064],[-9.407359,54.035794],[-9.40735,54.035525],[-9.407808,54.035519],[-9.407799,54.03525],[-9.40779,54.03498],[-9.407332,54.034986],[-9.407323,54.034716],[-9.406865,54.034721],[-9.406856,54.034452],[-9.406398,54.034457],[-9.40638,54.033918],[-9.406361,54.033379],[-9.406352,54.03311],[-9.40681,54.033105],[-9.406756,54.031488],[-9.406719,54.03041],[-9.40671,54.03014],[-9.407168,54.030135],[-9.407177,54.030404],[-9.407635,54.030399],[-9.407626,54.030129],[-9.407617,54.02986],[-9.407607,54.02959],[-9.407589,54.029051],[-9.40758,54.028782],[-9.407122,54.028787],[-9.407113,54.028518],[-9.407104,54.028248],[-9.407077,54.02744],[-9.407068,54.02717],[-9.407059,54.026901],[-9.406601,54.026906],[-9.406592,54.026637],[-9.406589,54.026558]],[[-9.406471,54.036613],[-9.406928,54.036608],[-9.406938,54.036877],[-9.40648,54.036883],[-9.406471,54.036613]]],[[[-9.414112,54.034906],[-9.414103,54.034637],[-9.412816,54.034652],[-9.412807,54.034382],[-9.411892,54.034393],[-9.411901,54.034662],[-9.411443,54.034668],[-9.411452,54.034937],[-9.412368,54.034927],[-9.412377,54.035196],[-9.412835,54.035191],[-9.412844,54.03546],[-9.412853,54.03573],[-9.413311,54.035724],[-9.413302,54.035455],[-9.413759,54.035449],[-9.41375,54.03518],[-9.413741,54.03491],[-9.414112,54.034906]]],[[[-9.40778,54.034711],[-9.40779,54.03498],[-9.408705,54.03497],[-9.408696,54.0347],[-9.40778,54.034711]]],[[[-9.408669,54.033892],[-9.40866,54.033622],[-9.408202,54.033627],[-9.408193,54.033358],[-9.407735,54.033363],[-9.407753,54.033902],[-9.408669,54.033892]]],[[[-9.410876,54.031439],[-9.411791,54.031429],[-9.411782,54.031159],[-9.411773,54.03089],[-9.411764,54.03062],[-9.411755,54.030351],[-9.411297,54.030356],[-9.411288,54.030086],[-9.41083,54.030092],[-9.410839,54.030361],[-9.410876,54.031439]]],[[[-9.410546,54.035218],[-9.410536,54.034948],[-9.410079,54.034953],[-9.410088,54.035223],[-9.410546,54.035218]]]]}}]}
