{"type":"FeatureCollection","features":[{"type":"Feature","properties":{"source_fid":1865707,"county":"Galway","bog_geom_ha":203.97254467390007,"low15_pct":66.225749559082885,"low15_ha":135.08234660502552,"overlay_ha":135.12171277275695,"area_delta":0.039366167731429869},"geometry":{"type":"MultiPolygon","coordinates":[[[[-9.777504,53.330305],[-9.777147,53.330374],[-9.777032,53.330396],[-9.777249,53.330393],[-9.77726,53.330645],[-9.779498,53.330611],[-9.779471,53.329951],[-9.779256,53.329991],[-9.778412,53.330132],[-9.778232,53.330168],[-9.778063,53.330192],[-9.777808,53.330246],[-9.777504,53.330305]]],[[[-9.77568,53.330668],[-9.77681,53.330651],[-9.776801,53.33044],[-9.776435,53.33051],[-9.775748,53.330654],[-9.77568,53.330668]]],[[[-9.7709,53.331638],[-9.770995,53.331636],[-9.770994,53.33162],[-9.7709,53.331638]]],[[[-9.771889,53.331464],[-9.771338,53.33156],[-9.771892,53.331551],[-9.771889,53.331464]]],[[[-9.767608,53.333484],[-9.767597,53.333233],[-9.767007,53.333242],[-9.767018,53.333511],[-9.765578,53.333532],[-9.765462,53.333604],[-9.764938,53.333993],[-9.764493,53.334326],[-9.764448,53.334358],[-9.764801,53.334353],[-9.764812,53.334622],[-9.764362,53.334629],[-9.764373,53.334899],[-9.763782,53.334907],[-9.763624,53.33506],[-9.763353,53.335358],[-9.76321,53.335526],[-9.762982,53.335807],[-9.762794,53.336141],[-9.762588,53.336633],[-9.762403,53.336968],[-9.762276,53.337188],[-9.762128,53.337365],[-9.762019,53.33757],[-9.76199,53.337685],[-9.761828,53.337904],[-9.761715,53.33813],[-9.761693,53.338174],[-9.761805,53.338172],[-9.761816,53.338442],[-9.761838,53.338981],[-9.76186,53.33952],[-9.760921,53.339533],[-9.760849,53.339636],[-9.760704,53.339831],[-9.760689,53.339876],[-9.760662,53.339964],[-9.760662,53.339964],[-9.760709,53.340129],[-9.760713,53.340144],[-9.760798,53.340211],[-9.760927,53.340313],[-9.761072,53.340299],[-9.761447,53.340284],[-9.761447,53.340284],[-9.761447,53.340284],[-9.761572,53.340328],[-9.761682,53.340383],[-9.761824,53.340478],[-9.761826,53.340479],[-9.761893,53.340521],[-9.761922,53.34054],[-9.762057,53.340513],[-9.762408,53.340403],[-9.762462,53.340375],[-9.762521,53.340345],[-9.762579,53.34014],[-9.762676,53.340011],[-9.762676,53.340011],[-9.762676,53.340011],[-9.762952,53.339967],[-9.763405,53.340092],[-9.76378,53.340073],[-9.763789,53.340074],[-9.763956,53.340097],[-9.763995,53.340109],[-9.764087,53.340136],[-9.76451,53.340203],[-9.764608,53.340193],[-9.764756,53.340178],[-9.764843,53.340165],[-9.764888,53.340159],[-9.764935,53.340153],[-9.76495,53.34015],[-9.765202,53.340115],[-9.765222,53.340113],[-9.765816,53.340156],[-9.766582,53.340231],[-9.766696,53.340234],[-9.766811,53.340237],[-9.767016,53.340281],[-9.767016,53.340281],[-9.767016,53.340281],[-9.767576,53.340609],[-9.767945,53.340859],[-9.768231,53.341079],[-9.768232,53.34108],[-9.768231,53.341043],[-9.76822,53.340774],[-9.768197,53.340235],[-9.769098,53.340221],[-9.769087,53.339952],[-9.769537,53.339945],[-9.769526,53.339676],[-9.769976,53.339669],[-9.769965,53.3394],[-9.769064,53.339413],[-9.769076,53.339682],[-9.768175,53.339696],[-9.768186,53.339965],[-9.767736,53.339972],[-9.767725,53.339703],[-9.767714,53.339433],[-9.768164,53.339426],[-9.768153,53.339157],[-9.768603,53.33915],[-9.768592,53.338881],[-9.769042,53.338874],[-9.769041,53.338854],[-9.767831,53.338872],[-9.767794,53.337974],[-9.769294,53.337952],[-9.76931,53.338331],[-9.76947,53.338328],[-9.769459,53.338059],[-9.770359,53.338046],[-9.770371,53.338315],[-9.770393,53.338854],[-9.770404,53.339123],[-9.770854,53.339117],[-9.770832,53.338578],[-9.771282,53.338571],[-9.77126,53.338032],[-9.77081,53.338039],[-9.770787,53.3375],[-9.770337,53.337507],[-9.770326,53.337237],[-9.769425,53.33725],[-9.769437,53.33752],[-9.768536,53.337533],[-9.768525,53.337264],[-9.768514,53.336994],[-9.768964,53.336988],[-9.768953,53.336718],[-9.769853,53.336705],[-9.769842,53.336435],[-9.770292,53.336429],[-9.77027,53.33589],[-9.77117,53.335876],[-9.771159,53.335607],[-9.77206,53.335594],[-9.772049,53.335324],[-9.772949,53.335311],[-9.772938,53.335041],[-9.773838,53.335028],[-9.773849,53.335297],[-9.773861,53.335567],[-9.774311,53.33556],[-9.7743,53.335291],[-9.77475,53.335284],[-9.774739,53.335014],[-9.774716,53.334475],[-9.775166,53.334469],[-9.775155,53.334199],[-9.775144,53.33393],[-9.775133,53.33366],[-9.776033,53.333647],[-9.776044,53.333916],[-9.776495,53.33391],[-9.776506,53.334179],[-9.776644,53.334177],[-9.776599,53.333099],[-9.776461,53.333101],[-9.776439,53.332562],[-9.775988,53.332569],[-9.775984,53.332461],[-9.773572,53.332497],[-9.773554,53.332066],[-9.772815,53.332077],[-9.772804,53.331807],[-9.772353,53.331814],[-9.772365,53.332084],[-9.772376,53.332353],[-9.772065,53.332358],[-9.772072,53.332519],[-9.771482,53.332528],[-9.771487,53.332636],[-9.771498,53.332905],[-9.772848,53.332885],[-9.77286,53.333155],[-9.77331,53.333148],[-9.773321,53.333418],[-9.773771,53.333411],[-9.773782,53.33368],[-9.774232,53.333674],[-9.774255,53.334213],[-9.773805,53.334219],[-9.773816,53.334489],[-9.773366,53.334496],[-9.773354,53.334226],[-9.772904,53.334233],[-9.772882,53.333694],[-9.772871,53.333424],[-9.77152,53.333444],[-9.771509,53.333175],[-9.770609,53.333188],[-9.77062,53.333458],[-9.77107,53.333451],[-9.771092,53.33399],[-9.771103,53.334259],[-9.770653,53.334266],[-9.770642,53.333997],[-9.770192,53.334003],[-9.77017,53.333464],[-9.769269,53.333478],[-9.769258,53.333208],[-9.769098,53.333211],[-9.769108,53.333462],[-9.767608,53.333484]],[[-9.768495,53.334086],[-9.768601,53.334096],[-9.768708,53.334124],[-9.768851,53.334164],[-9.76888,53.334169],[-9.769044,53.334175],[-9.769118,53.334179],[-9.769219,53.334232],[-9.769245,53.334239],[-9.769336,53.334242],[-9.769435,53.334272],[-9.769463,53.334276],[-9.769514,53.334275],[-9.769537,53.334283],[-9.769632,53.334378],[-9.769654,53.334383],[-9.769773,53.334362],[-9.76983,53.334358],[-9.769772,53.334435],[-9.769765,53.334452],[-9.769884,53.33456],[-9.769931,53.334623],[-9.769915,53.33463],[-9.769776,53.334623],[-9.769601,53.334616],[-9.769474,53.33461],[-9.769325,53.334595],[-9.769297,53.334589],[-9.769191,53.334558],[-9.769099,53.334547],[-9.76907,53.334548],[-9.768991,53.334561],[-9.768882,53.334568],[-9.768751,53.334568],[-9.768619,53.334513],[-9.768555,53.334458],[-9.768495,53.334388],[-9.768453,53.334355],[-9.768431,53.334344],[-9.768313,53.334311],[-9.768215,53.334215],[-9.768234,53.334183],[-9.76833,53.334137],[-9.768495,53.334086]],[[-9.767838,53.335916],[-9.767784,53.335956],[-9.767759,53.335961],[-9.767741,53.335966],[-9.767735,53.335969],[-9.76771,53.335964],[-9.767719,53.336178],[-9.766219,53.3362],[-9.766182,53.335302],[-9.767322,53.335285],[-9.767334,53.335253],[-9.767349,53.33523],[-9.767431,53.335197],[-9.767497,53.335072],[-9.767515,53.335008],[-9.767514,53.334981],[-9.767533,53.334952],[-9.767581,53.334929],[-9.767605,53.334921],[-9.767674,53.334908],[-9.767716,53.334908],[-9.767783,53.334919],[-9.767804,53.334924],[-9.767834,53.334934],[-9.767848,53.334979],[-9.76784,53.335022],[-9.767842,53.335084],[-9.767839,53.335157],[-9.767852,53.3352],[-9.767849,53.335221],[-9.767847,53.335285],[-9.767863,53.335349],[-9.767854,53.335385],[-9.76786,53.335415],[-9.767882,53.335447],[-9.767876,53.335485],[-9.767866,53.335521],[-9.767836,53.33554],[-9.767832,53.335582],[-9.767811,53.335658],[-9.7678,53.335677],[-9.767784,53.33568],[-9.76776,53.33571],[-9.767754,53.335758],[-9.76781,53.335814],[-9.767823,53.335833],[-9.767832,53.335867],[-9.767838,53.335916]]],[[[-9.778147,53.334226],[-9.777409,53.334237],[-9.777417,53.334435],[-9.777868,53.334429],[-9.77789,53.334967],[-9.77834,53.334961],[-9.778351,53.33523],[-9.778802,53.335224],[-9.77879,53.334954],[-9.779241,53.334947],[-9.779229,53.334678],[-9.77968,53.334671],[-9.779668,53.334402],[-9.780119,53.334395],[-9.78011,53.334197],[-9.779648,53.334203],[-9.779535,53.331509],[-9.778035,53.331532],[-9.778147,53.334226]]],[[[-9.780961,53.329702],[-9.781123,53.333571],[-9.781886,53.33356],[-9.781874,53.33329],[-9.782325,53.333283],[-9.782336,53.333553],[-9.783236,53.333539],[-9.783191,53.332462],[-9.783641,53.332455],[-9.783686,53.333533],[-9.783709,53.334072],[-9.783259,53.334078],[-9.78327,53.334348],[-9.78372,53.334341],[-9.783731,53.334611],[-9.783281,53.334617],[-9.783292,53.334887],[-9.783304,53.335156],[-9.782854,53.335163],[-9.782865,53.335433],[-9.783315,53.335426],[-9.783326,53.335695],[-9.783349,53.336234],[-9.781548,53.336261],[-9.781559,53.336531],[-9.781109,53.336537],[-9.78112,53.336807],[-9.78067,53.336814],[-9.780681,53.337083],[-9.779781,53.337096],[-9.779792,53.337366],[-9.779342,53.337373],[-9.779364,53.337912],[-9.779386,53.338451],[-9.779409,53.33899],[-9.778959,53.338996],[-9.778992,53.339805],[-9.778542,53.339811],[-9.778553,53.340081],[-9.779004,53.340074],[-9.779013,53.340293],[-9.779017,53.340294],[-9.779042,53.340307],[-9.77907,53.340337],[-9.779098,53.340385],[-9.779121,53.34044],[-9.779147,53.340485],[-9.779184,53.340509],[-9.779234,53.340526],[-9.779288,53.340547],[-9.779332,53.340579],[-9.779367,53.340603],[-9.779395,53.340613],[-9.779414,53.340614],[-9.779432,53.340602],[-9.779452,53.340572],[-9.779465,53.340525],[-9.77947,53.340464],[-9.779472,53.340395],[-9.779468,53.34032],[-9.779461,53.34025],[-9.779458,53.340199],[-9.779466,53.340162],[-9.779485,53.340129],[-9.779499,53.340107],[-9.779508,53.340092],[-9.779545,53.340057],[-9.779614,53.340034],[-9.7797,53.340023],[-9.779791,53.340019],[-9.779883,53.34002],[-9.77989,53.34002],[-9.779872,53.339592],[-9.780175,53.339587],[-9.78018,53.339569],[-9.780189,53.339546],[-9.780198,53.339527],[-9.780207,53.33951],[-9.780214,53.339494],[-9.780219,53.339479],[-9.780223,53.339463],[-9.780224,53.339445],[-9.780223,53.339424],[-9.78022,53.339401],[-9.780215,53.339377],[-9.780208,53.339354],[-9.780201,53.339334],[-9.780192,53.339317],[-9.780183,53.339305],[-9.780175,53.339296],[-9.780166,53.339288],[-9.780158,53.339283],[-9.780152,53.339278],[-9.780145,53.339272],[-9.780138,53.339265],[-9.78013,53.339254],[-9.78012,53.339239],[-9.780108,53.33922],[-9.780095,53.339197],[-9.780082,53.339172],[-9.78007,53.339147],[-9.78006,53.339124],[-9.780053,53.339102],[-9.780048,53.339083],[-9.780046,53.339065],[-9.780047,53.339048],[-9.78005,53.339032],[-9.780054,53.339016],[-9.78006,53.339],[-9.780067,53.338984],[-9.780073,53.338968],[-9.78008,53.338951],[-9.780086,53.338934],[-9.780093,53.338917],[-9.7801,53.338899],[-9.780108,53.338882],[-9.780118,53.338864],[-9.780129,53.338847],[-9.780141,53.338831],[-9.780153,53.338816],[-9.780165,53.338802],[-9.780178,53.338789],[-9.780207,53.338765],[-9.780235,53.338747],[-9.780266,53.338731],[-9.780299,53.338718],[-9.780335,53.338707],[-9.780375,53.3387],[-9.78042,53.338696],[-9.780469,53.338697],[-9.780519,53.338702],[-9.780547,53.338706],[-9.780555,53.338707],[-9.780569,53.33871],[-9.780614,53.33872],[-9.780653,53.338731],[-9.780697,53.33875],[-9.780756,53.338785],[-9.780831,53.338834],[-9.780908,53.338888],[-9.780979,53.338936],[-9.781041,53.338975],[-9.781093,53.339002],[-9.781138,53.33902],[-9.781179,53.339035],[-9.781216,53.339049],[-9.78125,53.339058],[-9.781281,53.339058],[-9.781309,53.339051],[-9.781336,53.339037],[-9.78135,53.339026],[-9.781341,53.338824],[-9.781338,53.338813],[-9.781341,53.338808],[-9.781335,53.338671],[-9.781514,53.338669],[-9.781528,53.338647],[-9.781538,53.338622],[-9.781538,53.338599],[-9.781533,53.338578],[-9.78153,53.338558],[-9.781532,53.338539],[-9.781538,53.33852],[-9.781548,53.3385],[-9.781568,53.33848],[-9.781602,53.338459],[-9.781647,53.33844],[-9.781694,53.338425],[-9.781738,53.338413],[-9.781767,53.338404],[-9.781784,53.338395],[-9.781792,53.33838],[-9.781794,53.338356],[-9.781793,53.338326],[-9.781792,53.338297],[-9.781794,53.338279],[-9.781798,53.338268],[-9.781805,53.338264],[-9.781815,53.338262],[-9.781831,53.338264],[-9.781853,53.338269],[-9.781878,53.338277],[-9.781902,53.338289],[-9.781923,53.338304],[-9.781939,53.33832],[-9.78195,53.338338],[-9.781955,53.338357],[-9.781954,53.33838],[-9.78195,53.338403],[-9.78195,53.338423],[-9.781957,53.338438],[-9.781971,53.33845],[-9.781992,53.338459],[-9.78202,53.338469],[-9.782054,53.338477],[-9.782094,53.338484],[-9.782138,53.33849],[-9.782185,53.338495],[-9.782232,53.338502],[-9.782277,53.338513],[-9.782322,53.33853],[-9.78237,53.338559],[-9.782425,53.338603],[-9.78248,53.338651],[-9.782484,53.338654],[-9.782649,53.338652],[-9.782635,53.338601],[-9.782617,53.338539],[-9.782604,53.338488],[-9.782601,53.338454],[-9.782604,53.338431],[-9.782611,53.338411],[-9.782628,53.338393],[-9.78266,53.338377],[-9.782705,53.338357],[-9.782745,53.338326],[-9.782827,53.338251],[-9.782865,53.338233],[-9.782888,53.338231],[-9.78291,53.33824],[-9.782921,53.338259],[-9.782915,53.338288],[-9.782904,53.338316],[-9.782902,53.338336],[-9.78292,53.338345],[-9.782961,53.338345],[-9.783015,53.33834],[-9.783058,53.338325],[-9.783077,53.338305],[-9.783079,53.338283],[-9.783087,53.338266],[-9.783104,53.338257],[-9.783124,53.338258],[-9.783142,53.338266],[-9.783159,53.33828],[-9.78318,53.338296],[-9.783209,53.33831],[-9.783248,53.338316],[-9.783295,53.338318],[-9.78334,53.338313],[-9.783373,53.338299],[-9.783397,53.338277],[-9.783418,53.33825],[-9.783435,53.338223],[-9.783453,53.3382],[-9.783477,53.338179],[-9.783524,53.338145],[-9.783586,53.338097],[-9.783644,53.338045],[-9.783674,53.338012],[-9.783676,53.337994],[-9.78367,53.33797],[-9.783681,53.337943],[-9.783713,53.337918],[-9.783749,53.33789],[-9.783781,53.337867],[-9.78381,53.337856],[-9.783832,53.337856],[-9.783847,53.337864],[-9.783856,53.337878],[-9.783866,53.337893],[-9.783881,53.3379],[-9.783892,53.337893],[-9.7839,53.337879],[-9.783911,53.33787],[-9.783928,53.337869],[-9.783952,53.337871],[-9.783979,53.337864],[-9.783997,53.337848],[-9.784006,53.337829],[-9.784016,53.337818],[-9.784035,53.337811],[-9.784047,53.337809],[-9.784071,53.337808],[-9.784099,53.337807],[-9.784129,53.337805],[-9.784157,53.337803],[-9.784178,53.337802],[-9.784189,53.337805],[-9.784194,53.337817],[-9.784196,53.337838],[-9.784198,53.337864],[-9.7842,53.337888],[-9.784202,53.337906],[-9.784207,53.337919],[-9.784214,53.337929],[-9.784222,53.337938],[-9.784227,53.337945],[-9.784226,53.337952],[-9.784218,53.337962],[-9.784206,53.337979],[-9.784191,53.338004],[-9.784177,53.338029],[-9.784168,53.338047],[-9.784164,53.338061],[-9.784165,53.338073],[-9.784171,53.338087],[-9.784176,53.338102],[-9.784178,53.338118],[-9.784174,53.338133],[-9.784167,53.338147],[-9.784157,53.338157],[-9.784143,53.338165],[-9.784126,53.338175],[-9.784107,53.338189],[-9.784094,53.338202],[-9.784084,53.338212],[-9.784058,53.338244],[-9.784031,53.33828],[-9.784004,53.338313],[-9.78398,53.33834],[-9.783959,53.338362],[-9.783943,53.33838],[-9.783931,53.3384],[-9.783924,53.338425],[-9.783921,53.338454],[-9.783917,53.338482],[-9.783907,53.338503],[-9.783891,53.338519],[-9.783869,53.338536],[-9.783842,53.338559],[-9.783813,53.338588],[-9.783782,53.338622],[-9.783773,53.338635],[-9.784336,53.338627],[-9.784342,53.33878],[-9.784367,53.338768],[-9.784437,53.33873],[-9.784527,53.338676],[-9.784625,53.338612],[-9.784715,53.338551],[-9.784787,53.3385],[-9.784843,53.338463],[-9.784885,53.338441],[-9.784917,53.33843],[-9.784945,53.338426],[-9.784982,53.338425],[-9.785044,53.338429],[-9.785127,53.338434],[-9.785205,53.338439],[-9.785259,53.338443],[-9.785292,53.338447],[-9.785311,53.338452],[-9.78532,53.338459],[-9.785324,53.338467],[-9.785325,53.338478],[-9.785321,53.338497],[-9.785312,53.338526],[-9.785302,53.338561],[-9.785296,53.338595],[-9.785294,53.338625],[-9.785294,53.338647],[-9.785297,53.338662],[-9.785304,53.338671],[-9.785315,53.338676],[-9.785327,53.338681],[-9.78534,53.338692],[-9.785354,53.338711],[-9.785377,53.338739],[-9.78541,53.338779],[-9.785452,53.338832],[-9.78547,53.338914],[-9.785469,53.338962],[-9.785426,53.339007],[-9.785366,53.339045],[-9.785298,53.339064],[-9.785213,53.339074],[-9.785136,53.339082],[-9.785097,53.3391],[-9.785068,53.339134],[-9.785053,53.339161],[-9.78503,53.339174],[-9.784993,53.339174],[-9.784951,53.339162],[-9.784899,53.339152],[-9.784836,53.339165],[-9.784782,53.339197],[-9.784741,53.339238],[-9.784704,53.33931],[-9.784678,53.339377],[-9.784661,53.339438],[-9.784664,53.33951],[-9.784699,53.339587],[-9.784736,53.339669],[-9.784761,53.339735],[-9.78478,53.339799],[-9.784806,53.339866],[-9.784853,53.339916],[-9.784907,53.339942],[-9.784963,53.339953],[-9.785044,53.339964],[-9.785125,53.339996],[-9.785187,53.340046],[-9.785233,53.340097],[-9.785305,53.340145],[-9.785344,53.340181],[-9.78532,53.340193],[-9.785267,53.340192],[-9.785203,53.340202],[-9.785179,53.340238],[-9.785191,53.34028],[-9.785248,53.340318],[-9.785343,53.34037],[-9.785428,53.340427],[-9.785475,53.340474],[-9.785494,53.34051],[-9.78549,53.340529],[-9.785445,53.340534],[-9.785356,53.340514],[-9.785297,53.340534],[-9.785178,53.340571],[-9.78522,53.340595],[-9.78525,53.340629],[-9.785307,53.340692],[-9.785351,53.340764],[-9.785332,53.34081],[-9.785298,53.340817],[-9.785258,53.34081],[-9.785186,53.340807],[-9.785143,53.340842],[-9.785123,53.340844],[-9.785063,53.340854],[-9.785038,53.340854],[-9.784988,53.340841],[-9.784932,53.340807],[-9.784853,53.34076],[-9.784752,53.340698],[-9.784659,53.340647],[-9.784571,53.340614],[-9.784471,53.340593],[-9.784418,53.34059],[-9.784427,53.340814],[-9.784449,53.340835],[-9.784589,53.340919],[-9.784695,53.340966],[-9.784754,53.340984],[-9.784813,53.340987],[-9.784887,53.340994],[-9.784954,53.341021],[-9.784985,53.34107],[-9.784974,53.341125],[-9.784961,53.341168],[-9.784964,53.341199],[-9.784974,53.341226],[-9.784985,53.341253],[-9.785,53.341275],[-9.785015,53.341292],[-9.785018,53.341317],[-9.785007,53.341354],[-9.784999,53.341406],[-9.785016,53.341469],[-9.785051,53.341523],[-9.785092,53.341572],[-9.785148,53.341634],[-9.785235,53.341714],[-9.785303,53.34177],[-9.785346,53.341798],[-9.785386,53.341817],[-9.785439,53.341839],[-9.785506,53.341872],[-9.785578,53.341915],[-9.785645,53.341961],[-9.785707,53.342],[-9.785801,53.342042],[-9.78598,53.342129],[-9.786118,53.342151],[-9.786191,53.342155],[-9.786267,53.342139],[-9.786327,53.342119],[-9.786357,53.342119],[-9.786393,53.342138],[-9.786459,53.342162],[-9.786506,53.342195],[-9.786523,53.342254],[-9.786539,53.342341],[-9.786583,53.342451],[-9.786626,53.342571],[-9.786667,53.342636],[-9.786709,53.342646],[-9.78675,53.342687],[-9.78691,53.342701],[-9.787052,53.342695],[-9.787097,53.342654],[-9.78715,53.342631],[-9.787163,53.342651],[-9.787171,53.342681],[-9.787228,53.342695],[-9.787256,53.342677],[-9.787302,53.342695],[-9.787425,53.342791],[-9.787503,53.342843],[-9.787557,53.342844],[-9.787593,53.342817],[-9.787639,53.342829],[-9.787711,53.342851],[-9.787754,53.342818],[-9.787785,53.342795],[-9.787799,53.34279],[-9.787886,53.342759],[-9.787921,53.34271],[-9.788028,53.342681],[-9.788123,53.342686],[-9.788216,53.34268],[-9.788271,53.342649],[-9.788384,53.342652],[-9.788478,53.342704],[-9.788525,53.34266],[-9.788561,53.342614],[-9.788607,53.34261],[-9.78867,53.342635],[-9.788716,53.342604],[-9.788761,53.342587],[-9.788841,53.342608],[-9.788954,53.342588],[-9.788986,53.342551],[-9.789077,53.342496],[-9.789109,53.342463],[-9.78913,53.342401],[-9.78922,53.342385],[-9.78934,53.34249],[-9.789483,53.342548],[-9.789589,53.342561],[-9.789642,53.342512],[-9.789621,53.342423],[-9.789671,53.342384],[-9.789692,53.342343],[-9.789755,53.342304],[-9.789843,53.342291],[-9.789905,53.342309],[-9.789918,53.342347],[-9.789988,53.342368],[-9.790095,53.34244],[-9.790203,53.342498],[-9.790226,53.342523],[-9.790228,53.342577],[-9.790254,53.342618],[-9.790296,53.342615],[-9.790339,53.342616],[-9.790403,53.342649],[-9.790447,53.342669],[-9.790473,53.342651],[-9.790492,53.342637],[-9.790568,53.342652],[-9.790624,53.342667],[-9.790624,53.342667],[-9.790628,53.342659],[-9.790663,53.342634],[-9.790713,53.342609],[-9.790777,53.342591],[-9.790822,53.342579],[-9.790839,53.342567],[-9.790857,53.342547],[-9.790867,53.342515],[-9.790877,53.342475],[-9.790919,53.342425],[-9.791123,53.342207],[-9.791284,53.342023],[-9.79135,53.341948],[-9.79138,53.341911],[-9.791401,53.341879],[-9.791421,53.341848],[-9.791443,53.341816],[-9.791461,53.341787],[-9.791474,53.341758],[-9.791485,53.341728],[-9.791497,53.341692],[-9.791511,53.341651],[-9.791527,53.341612],[-9.791543,53.341576],[-9.79156,53.341543],[-9.791576,53.341512],[-9.791593,53.341483],[-9.791609,53.341458],[-9.791624,53.341437],[-9.791633,53.341421],[-9.791636,53.341408],[-9.791633,53.341395],[-9.791624,53.341379],[-9.791611,53.341363],[-9.791599,53.341349],[-9.79159,53.341339],[-9.791584,53.341328],[-9.791583,53.341316],[-9.791587,53.341305],[-9.791593,53.341295],[-9.7916,53.341284],[-9.791604,53.341273],[-9.791606,53.341258],[-9.791602,53.341229],[-9.791593,53.341182],[-9.791582,53.341132],[-9.791576,53.341091],[-9.791575,53.341062],[-9.791576,53.341038],[-9.791569,53.341007],[-9.79158,53.340969],[-9.791602,53.340914],[-9.791625,53.340856],[-9.791643,53.340811],[-9.791657,53.340778],[-9.791672,53.340748],[-9.79169,53.340719],[-9.791705,53.340693],[-9.791714,53.340671],[-9.791722,53.340651],[-9.79173,53.340629],[-9.791741,53.340606],[-9.791755,53.34058],[-9.791778,53.34055],[-9.791823,53.340515],[-9.791861,53.340477],[-9.791862,53.340458],[-9.79184,53.340419],[-9.791835,53.340385],[-9.791868,53.340361],[-9.791924,53.340359],[-9.792,53.340368],[-9.792065,53.340387],[-9.792094,53.340397],[-9.792115,53.340397],[-9.792149,53.340378],[-9.792229,53.340302],[-9.792255,53.340259],[-9.792269,53.340208],[-9.792266,53.340171],[-9.792251,53.340143],[-9.79224,53.340116],[-9.79225,53.340082],[-9.792291,53.340041],[-9.792352,53.340002],[-9.792458,53.339954],[-9.792524,53.339936],[-9.792541,53.339929],[-9.792544,53.339924],[-9.792529,53.339882],[-9.792489,53.339814],[-9.792449,53.339784],[-9.792402,53.339762],[-9.792379,53.339725],[-9.792383,53.339676],[-9.792381,53.339629],[-9.792368,53.339607],[-9.792343,53.339585],[-9.792323,53.33953],[-9.792284,53.339404],[-9.79226,53.339341],[-9.792281,53.339255],[-9.79235,53.339045],[-9.792385,53.338899],[-9.792399,53.338775],[-9.792407,53.338696],[-9.792423,53.338642],[-9.792442,53.3386],[-9.79244,53.33856],[-9.792416,53.338465],[-9.792387,53.338387],[-9.792335,53.338297],[-9.792319,53.338228],[-9.792349,53.338143],[-9.792409,53.338012],[-9.792435,53.337932],[-9.792441,53.337866],[-9.792429,53.337767],[-9.792356,53.337701],[-9.79236,53.33767],[-9.792394,53.337604],[-9.792388,53.33749],[-9.792326,53.337437],[-9.792274,53.337418],[-9.792123,53.337441],[-9.792037,53.337481],[-9.791966,53.3375],[-9.791936,53.337469],[-9.791934,53.337378],[-9.791925,53.337241],[-9.791921,53.337095],[-9.791898,53.337025],[-9.791916,53.336961],[-9.791866,53.336921],[-9.791876,53.336874],[-9.791878,53.336832],[-9.791788,53.336785],[-9.791716,53.336786],[-9.791641,53.336855],[-9.791641,53.336855],[-9.791641,53.336855],[-9.79155,53.33688],[-9.791441,53.33692],[-9.791363,53.336918],[-9.791281,53.336935],[-9.791201,53.337005],[-9.791118,53.337048],[-9.791065,53.337057],[-9.79103,53.336993],[-9.790896,53.337037],[-9.790896,53.337037],[-9.790896,53.337037],[-9.790726,53.337102],[-9.79052,53.337193],[-9.79034,53.337283],[-9.790357,53.337321],[-9.790365,53.337336],[-9.790407,53.337376],[-9.790407,53.337376],[-9.790407,53.337376],[-9.790306,53.337404],[-9.790209,53.3374],[-9.790186,53.337472],[-9.790113,53.337555],[-9.790113,53.337555],[-9.790113,53.337555],[-9.789956,53.337599],[-9.789832,53.337621],[-9.789754,53.337609],[-9.789812,53.337523],[-9.789811,53.337412],[-9.789877,53.337349],[-9.789877,53.337349],[-9.789877,53.337349],[-9.789888,53.337343],[-9.789937,53.337314],[-9.789943,53.337311],[-9.789958,53.337237],[-9.789898,53.337115],[-9.789878,53.33702],[-9.789848,53.336909],[-9.789859,53.336815],[-9.789876,53.336735],[-9.78989,53.33666],[-9.789871,53.336573],[-9.789915,53.336474],[-9.789981,53.336413],[-9.790012,53.336319],[-9.789962,53.336234],[-9.789941,53.336172],[-9.789937,53.336132],[-9.789967,53.336084],[-9.789891,53.335974],[-9.789821,53.335852],[-9.789795,53.335802],[-9.789798,53.335752],[-9.7898,53.335679],[-9.789777,53.335626],[-9.789756,53.3356],[-9.789732,53.335591],[-9.789701,53.335598],[-9.789698,53.335613],[-9.789717,53.33563],[-9.789723,53.335646],[-9.789718,53.335671],[-9.789677,53.335688],[-9.78959,53.335677],[-9.789571,53.335636],[-9.789478,53.33559],[-9.789293,53.335552],[-9.789168,53.335522],[-9.789078,53.335527],[-9.788997,53.335525],[-9.788933,53.335454],[-9.788899,53.335417],[-9.788963,53.335376],[-9.788979,53.335341],[-9.788717,53.335345],[-9.788729,53.335614],[-9.78874,53.335884],[-9.78829,53.335891],[-9.788301,53.33616],[-9.787851,53.336167],[-9.787862,53.336436],[-9.787412,53.336443],[-9.787423,53.336713],[-9.786523,53.336726],[-9.786511,53.336457],[-9.7865,53.336187],[-9.78695,53.33618],[-9.786939,53.335911],[-9.787389,53.335904],[-9.787378,53.335635],[-9.787828,53.335628],[-9.787817,53.335358],[-9.787806,53.335089],[-9.788256,53.335082],[-9.788245,53.334813],[-9.788233,53.334543],[-9.789584,53.334523],[-9.789591,53.334696],[-9.78969,53.334692],[-9.78987,53.334729],[-9.790012,53.334802],[-9.790175,53.334804],[-9.790267,53.334746],[-9.790384,53.334725],[-9.7905,53.334719],[-9.79057,53.334766],[-9.790762,53.334885],[-9.790884,53.334983],[-9.791082,53.335164],[-9.791096,53.335226],[-9.791189,53.335327],[-9.791287,53.335345],[-9.791397,53.335347],[-9.791422,53.335389],[-9.791568,53.335398],[-9.791631,53.335393],[-9.791692,53.335432],[-9.791706,53.335477],[-9.791795,53.335475],[-9.791874,53.335393],[-9.791874,53.335393],[-9.791874,53.335393],[-9.791911,53.335399],[-9.791907,53.335495],[-9.791933,53.335616],[-9.791926,53.33568],[-9.79199,53.335676],[-9.792082,53.335596],[-9.792123,53.335531],[-9.792123,53.335531],[-9.792123,53.335531],[-9.792152,53.335522],[-9.792222,53.335438],[-9.792212,53.335329],[-9.792231,53.335214],[-9.792295,53.335148],[-9.792288,53.335075],[-9.792343,53.335028],[-9.792378,53.334987],[-9.792367,53.334902],[-9.792372,53.334846],[-9.792439,53.334791],[-9.792474,53.334724],[-9.792468,53.334686],[-9.792431,53.334604],[-9.792449,53.334527],[-9.792447,53.334504],[-9.7924,53.334467],[-9.792382,53.33444],[-9.792369,53.334376],[-9.792368,53.334345],[-9.792396,53.334324],[-9.792411,53.334273],[-9.79241,53.334239],[-9.792392,53.334208],[-9.792338,53.334138],[-9.792308,53.334087],[-9.792296,53.334043],[-9.792265,53.333989],[-9.792219,53.333952],[-9.792161,53.333922],[-9.792114,53.333896],[-9.792029,53.333887],[-9.791921,53.333878],[-9.791841,53.333893],[-9.791762,53.333904],[-9.791694,53.333915],[-9.791666,53.333909],[-9.791625,53.333896],[-9.791613,53.333852],[-9.79161,53.333784],[-9.791614,53.333732],[-9.791641,53.333684],[-9.791696,53.333622],[-9.791696,53.333609],[-9.791655,53.333568],[-9.791642,53.333528],[-9.791656,53.333449],[-9.791677,53.33337],[-9.79167,53.33335],[-9.791642,53.333344],[-9.79159,53.333338],[-9.791522,53.333325],[-9.791476,53.333309],[-9.791446,53.333268],[-9.791421,53.333221],[-9.791443,53.333183],[-9.791453,53.333156],[-9.791446,53.333098],[-9.791437,53.332999],[-9.791396,53.332955],[-9.791389,53.332908],[-9.791369,53.332843],[-9.791342,53.33281],[-9.791358,53.332788],[-9.79141,53.332772],[-9.791415,53.332754],[-9.79145,53.332709],[-9.791433,53.332688],[-9.791446,53.332643],[-9.791518,53.332618],[-9.791702,53.332585],[-9.791817,53.332556],[-9.791952,53.332576],[-9.791958,53.332586],[-9.791979,53.332582],[-9.791998,53.332568],[-9.792008,53.332562],[-9.792032,53.332542],[-9.792024,53.332514],[-9.79199,53.332491],[-9.792033,53.332457],[-9.792041,53.332436],[-9.792038,53.332425],[-9.792019,53.3324],[-9.792088,53.332301],[-9.792088,53.332301],[-9.792128,53.33225],[-9.792165,53.332269],[-9.792214,53.332252],[-9.7922,53.33221],[-9.792162,53.332182],[-9.792124,53.33211],[-9.792106,53.332063],[-9.792087,53.332019],[-9.792075,53.331988],[-9.792021,53.33189],[-9.792013,53.331829],[-9.791983,53.331799],[-9.791948,53.331762],[-9.791907,53.331729],[-9.791867,53.331702],[-9.791794,53.331624],[-9.791782,53.331581],[-9.791764,53.331509],[-9.791751,53.331468],[-9.791739,53.331448],[-9.791692,53.331418],[-9.79168,53.331388],[-9.791684,53.331347],[-9.791695,53.331309],[-9.791716,53.331282],[-9.791743,53.331269],[-9.791761,53.331261],[-9.791783,53.331247],[-9.791796,53.331258],[-9.791812,53.331262],[-9.791874,53.331231],[-9.791896,53.331175],[-9.79195,53.331119],[-9.791903,53.331003],[-9.791914,53.330986],[-9.791916,53.330957],[-9.791915,53.330922],[-9.791904,53.330881],[-9.791867,53.330832],[-9.791808,53.330776],[-9.791747,53.330691],[-9.791719,53.330635],[-9.791698,53.33059],[-9.791675,53.330575],[-9.791645,53.330567],[-9.791615,53.330557],[-9.791546,53.330505],[-9.791427,53.330399],[-9.791353,53.330328],[-9.791311,53.330292],[-9.791269,53.330267],[-9.791228,53.330239],[-9.791203,53.330199],[-9.791177,53.330121],[-9.791146,53.330031],[-9.79112,53.329983],[-9.791095,53.32995],[-9.791069,53.329927],[-9.791039,53.329915],[-9.791003,53.329904],[-9.790975,53.329878],[-9.790943,53.329831],[-9.790898,53.329782],[-9.790849,53.329755],[-9.790798,53.32974],[-9.790752,53.329727],[-9.790721,53.329711],[-9.790707,53.329682],[-9.790701,53.329645],[-9.790685,53.329588],[-9.790653,53.329514],[-9.790623,53.32946],[-9.79056,53.329386],[-9.790489,53.329313],[-9.79045,53.329285],[-9.790407,53.329272],[-9.790373,53.329268],[-9.790351,53.329277],[-9.790339,53.329297],[-9.79036,53.329322],[-9.790391,53.329348],[-9.790411,53.329374],[-9.790413,53.329401],[-9.790398,53.329417],[-9.790372,53.329423],[-9.790339,53.329421],[-9.790306,53.32941],[-9.790281,53.329389],[-9.79027,53.329357],[-9.79027,53.32932],[-9.790264,53.32929],[-9.790229,53.329266],[-9.790167,53.329235],[-9.790022,53.32918],[-9.789849,53.329209],[-9.789795,53.329214],[-9.789755,53.329213],[-9.789715,53.329208],[-9.789682,53.329198],[-9.789649,53.329187],[-9.789592,53.32918],[-9.789502,53.329173],[-9.789403,53.329167],[-9.789336,53.329164],[-9.789291,53.329172],[-9.789252,53.329191],[-9.789216,53.32921],[-9.789164,53.329225],[-9.7891,53.329235],[-9.789048,53.329237],[-9.788997,53.32923],[-9.788947,53.329212],[-9.788913,53.329182],[-9.788862,53.329142],[-9.788793,53.329102],[-9.788732,53.329072],[-9.788657,53.329048],[-9.788566,53.329029],[-9.788459,53.329015],[-9.788453,53.329014],[-9.788458,53.329147],[-9.788469,53.329416],[-9.788019,53.329423],[-9.788008,53.329154],[-9.787108,53.329167],[-9.787096,53.328898],[-9.78709,53.328746],[-9.786949,53.328774],[-9.786687,53.328815],[-9.786133,53.328896],[-9.785165,53.329043],[-9.784489,53.329136],[-9.783988,53.329213],[-9.783554,53.329291],[-9.783062,53.329357],[-9.783068,53.329497],[-9.782617,53.329504],[-9.782614,53.329422],[-9.782554,53.329431],[-9.781831,53.329557],[-9.78138,53.329631],[-9.780985,53.329698],[-9.780961,53.329702]],[[-9.783079,53.329767],[-9.783068,53.329497],[-9.784418,53.329477],[-9.784429,53.329747],[-9.783529,53.32976],[-9.78354,53.33003],[-9.783552,53.330299],[-9.783563,53.330568],[-9.783113,53.330575],[-9.783101,53.330306],[-9.782651,53.330312],[-9.78264,53.330043],[-9.78219,53.33005],[-9.782179,53.32978],[-9.783079,53.329767]],[[-9.784441,53.330016],[-9.784429,53.329747],[-9.784879,53.32974],[-9.784891,53.330009],[-9.784441,53.330016]],[[-9.784902,53.330279],[-9.784891,53.330009],[-9.785341,53.330003],[-9.785352,53.330272],[-9.784902,53.330279]],[[-9.788222,53.334274],[-9.788233,53.334543],[-9.787783,53.33455],[-9.787772,53.334281],[-9.788222,53.334274]],[[-9.785498,53.333775],[-9.785048,53.333782],[-9.785071,53.334321],[-9.784621,53.334328],[-9.784598,53.333789],[-9.784148,53.333795],[-9.784137,53.333526],[-9.784587,53.333519],[-9.784576,53.33325],[-9.785476,53.333236],[-9.785487,53.333506],[-9.785498,53.333775]],[[-9.781154,53.337615],[-9.781165,53.337885],[-9.780715,53.337891],[-9.780726,53.338161],[-9.780276,53.338168],[-9.780265,53.337898],[-9.780253,53.337629],[-9.780704,53.337622],[-9.780692,53.337352],[-9.781593,53.337339],[-9.781604,53.337609],[-9.781154,53.337615]]],[[[-9.789147,53.334849],[-9.789198,53.334798],[-9.789145,53.334799],[-9.789147,53.334849]]],[[[-9.778695,53.340626],[-9.7787,53.340618],[-9.778576,53.34062],[-9.778586,53.340875],[-9.778599,53.340861],[-9.778646,53.340796],[-9.778673,53.34073],[-9.778685,53.340668],[-9.778695,53.340626]]],[[[-9.778638,53.341487],[-9.77861,53.341435],[-9.778618,53.341646],[-9.778622,53.341635],[-9.77863,53.341606],[-9.778638,53.341578],[-9.778644,53.341552],[-9.778647,53.341525],[-9.778638,53.341487]]],[[[-9.778278,53.343388],[-9.778303,53.34332],[-9.778238,53.343321],[-9.778249,53.343591],[-9.778252,53.343678],[-9.778254,53.343674],[-9.778272,53.343629],[-9.778272,53.343582],[-9.778265,53.343539],[-9.77827,53.3435],[-9.778266,53.343454],[-9.778278,53.343388]]],[[[-9.778283,53.343753],[-9.778255,53.343733],[-9.778257,53.343782],[-9.778283,53.343753]]],[[[-9.775408,53.342539],[-9.77543,53.342554],[-9.775502,53.342553],[-9.775491,53.342284],[-9.775041,53.34229],[-9.775048,53.34247],[-9.775058,53.342471],[-9.775128,53.34248],[-9.775161,53.34248],[-9.775195,53.342471],[-9.775235,53.34246],[-9.775268,53.342457],[-9.775299,53.342466],[-9.77534,53.342491],[-9.775408,53.342539]]],[[[-9.773313,53.342128],[-9.773686,53.342212],[-9.773668,53.341771],[-9.773656,53.341502],[-9.772756,53.341515],[-9.772767,53.341785],[-9.772777,53.342014],[-9.773313,53.342128]]],[[[-9.767431,53.332595],[-9.767198,53.3327],[-9.767435,53.332696],[-9.767431,53.332595]]],[[[-9.773645,53.341233],[-9.773656,53.341502],[-9.774107,53.341495],[-9.774095,53.341226],[-9.773645,53.341233]]],[[[-9.774839,53.33744],[-9.774828,53.33717],[-9.774378,53.337177],[-9.774389,53.337446],[-9.774839,53.33744]]],[[[-9.775919,53.341738],[-9.775908,53.341468],[-9.775457,53.341475],[-9.775469,53.341745],[-9.775919,53.341738]]],[[[-9.775897,53.341199],[-9.775908,53.341468],[-9.776808,53.341455],[-9.776775,53.340647],[-9.776763,53.340377],[-9.776313,53.340384],[-9.776302,53.340114],[-9.775852,53.340121],[-9.775874,53.34066],[-9.775885,53.34093],[-9.775435,53.340936],[-9.775446,53.341206],[-9.775897,53.341199]]],[[[-9.774951,53.340135],[-9.77494,53.339865],[-9.77449,53.339872],[-9.774501,53.340141],[-9.774523,53.34068],[-9.774974,53.340673],[-9.774951,53.340135]]],[[[-9.776741,53.339838],[-9.777642,53.339825],[-9.777608,53.339016],[-9.776707,53.33903],[-9.776719,53.339299],[-9.776268,53.339306],[-9.77628,53.339575],[-9.77673,53.339569],[-9.776741,53.339838]]]]}}]}
