{"type":"FeatureCollection","features":[{"type":"Feature","properties":{"source_fid":1871141,"county":"Galway","bog_geom_ha":161.0555774226321,"low15_pct":95.393258426966284,"low15_ha":153.6361631818142,"overlay_ha":153.21969470878969,"area_delta":-0.41646847302450851},"geometry":{"type":"MultiPolygon","coordinates":[[[[-8.658358,53.064374],[-8.658358,53.064373],[-8.658358,53.064369],[-8.658362,53.064313],[-8.658372,53.064144],[-8.658373,53.064136],[-8.658397,53.063599],[-8.658419,53.063251],[-8.658433,53.06296],[-8.658433,53.06291],[-8.658434,53.062713],[-8.658442,53.062422],[-8.658457,53.062098],[-8.658464,53.061928],[-8.65848,53.061585],[-8.658505,53.061362],[-8.658516,53.061268],[-8.658521,53.061219],[-8.658283,53.061155],[-8.658116,53.06111],[-8.657681,53.061008],[-8.657013,53.060833],[-8.657013,53.060833],[-8.657013,53.060833],[-8.656981,53.060827],[-8.655605,53.060834],[-8.655601,53.060616],[-8.655222,53.060618],[-8.655226,53.060887],[-8.653884,53.060895],[-8.65388,53.060625],[-8.654327,53.060623],[-8.654326,53.060527],[-8.654312,53.060527],[-8.654106,53.060518],[-8.654022,53.060511],[-8.653682,53.060483],[-8.653193,53.060406],[-8.652992,53.060366],[-8.652791,53.060327],[-8.652613,53.060291],[-8.652404,53.060249],[-8.651819,53.060136],[-8.650908,53.059829],[-8.650329,53.059633],[-8.650104,53.059555],[-8.649728,53.059426],[-8.649379,53.059331],[-8.649285,53.059308],[-8.649058,53.059252],[-8.648806,53.059213],[-8.648806,53.059213],[-8.648806,53.059213],[-8.648751,53.059219],[-8.648402,53.059182],[-8.64794,53.059118],[-8.647521,53.059069],[-8.647457,53.05904],[-8.647183,53.059013],[-8.647108,53.058994],[-8.646914,53.059009],[-8.646721,53.058966],[-8.646689,53.058959],[-8.646627,53.058955],[-8.646645,53.06017],[-8.646646,53.060171],[-8.646709,53.060194],[-8.646783,53.060234],[-8.646823,53.060268],[-8.646868,53.060321],[-8.646885,53.060353],[-8.64688,53.060391],[-8.64681,53.060466],[-8.646785,53.060515],[-8.646794,53.060564],[-8.646836,53.060637],[-8.64687,53.060697],[-8.646916,53.060808],[-8.646945,53.060914],[-8.646929,53.061016],[-8.646774,53.061049],[-8.64679,53.06106],[-8.646888,53.061152],[-8.646841,53.061225],[-8.646806,53.06127],[-8.646788,53.061279],[-8.646663,53.061335],[-8.64667,53.061782],[-8.649652,53.061766],[-8.649657,53.062077],[-8.649807,53.062015],[-8.649968,53.061942],[-8.650166,53.061871],[-8.650323,53.061779],[-8.650286,53.061754],[-8.6504,53.061661],[-8.650461,53.06163],[-8.650599,53.061435],[-8.65063,53.061379],[-8.650707,53.06124],[-8.650761,53.061163],[-8.650823,53.061093],[-8.650869,53.061042],[-8.650942,53.060961],[-8.651037,53.060884],[-8.651122,53.060811],[-8.651233,53.060741],[-8.651298,53.060687],[-8.65152,53.06051],[-8.651631,53.060414],[-8.651841,53.060276],[-8.651883,53.060266],[-8.652138,53.060292],[-8.652525,53.060362],[-8.652783,53.060425],[-8.652965,53.060476],[-8.653105,53.060512],[-8.653154,53.060519],[-8.653166,53.060537],[-8.65315,53.060597],[-8.653131,53.060637],[-8.653108,53.060662],[-8.653054,53.060704],[-8.652981,53.06076],[-8.652924,53.060823],[-8.652874,53.060895],[-8.65286,53.060924],[-8.65282,53.061004],[-8.652766,53.061044],[-8.652728,53.061088],[-8.65259,53.061301],[-8.65259,53.061302],[-8.652573,53.061353],[-8.652513,53.061459],[-8.652488,53.061499],[-8.652456,53.061548],[-8.652369,53.06169],[-8.652208,53.061862],[-8.652122,53.061953],[-8.652031,53.062049],[-8.652024,53.062083],[-8.651977,53.062258],[-8.651911,53.062381],[-8.651854,53.062452],[-8.651816,53.062499],[-8.651705,53.062651],[-8.651612,53.062758],[-8.651545,53.062822],[-8.651493,53.06287],[-8.651477,53.062898],[-8.651476,53.062996],[-8.651459,53.063084],[-8.651284,53.063183],[-8.651249,53.063222],[-8.651165,53.063271],[-8.651081,53.063316],[-8.650986,53.063377],[-8.650974,53.063385],[-8.650921,53.063419],[-8.650859,53.063487],[-8.650768,53.063531],[-8.650584,53.063632],[-8.650531,53.063667],[-8.650538,53.063683],[-8.650328,53.063801],[-8.65029,53.063806],[-8.650168,53.063797],[-8.650098,53.063785],[-8.64999,53.063767],[-8.649899,53.063733],[-8.649748,53.063662],[-8.649642,53.063587],[-8.649619,53.063563],[-8.649174,53.063565],[-8.649098,53.06358],[-8.648877,53.063589],[-8.648661,53.063579],[-8.648581,53.063576],[-8.648532,53.063569],[-8.648277,53.06357],[-8.648188,53.063586],[-8.648201,53.064469],[-8.647416,53.064473],[-8.647429,53.064614],[-8.64733,53.064773],[-8.647232,53.06484],[-8.646996,53.064887],[-8.646847,53.064945],[-8.646725,53.064945],[-8.646717,53.064947],[-8.646723,53.065376],[-8.645189,53.065384],[-8.645014,53.065468],[-8.644913,53.065499],[-8.644777,53.065539],[-8.644707,53.065556],[-8.644582,53.065681],[-8.644113,53.065787],[-8.643833,53.065851],[-8.643709,53.065882],[-8.643429,53.065913],[-8.64297,53.066017],[-8.642933,53.066025],[-8.642772,53.066069],[-8.642772,53.066078],[-8.644562,53.066068],[-8.644558,53.065799],[-8.645453,53.065794],[-8.645457,53.066064],[-8.645461,53.066333],[-8.644566,53.066338],[-8.64457,53.066608],[-8.644123,53.06661],[-8.644127,53.06688],[-8.644574,53.066877],[-8.644578,53.067147],[-8.642788,53.067157],[-8.642792,53.067426],[-8.642344,53.067429],[-8.64234,53.067159],[-8.641445,53.067164],[-8.641441,53.066894],[-8.639203,53.066906],[-8.639207,53.067176],[-8.638312,53.067181],[-8.638316,53.06745],[-8.63832,53.06772],[-8.637425,53.067725],[-8.637421,53.067455],[-8.635909,53.067463],[-8.635903,53.067606],[-8.635889,53.067766],[-8.63589,53.067947],[-8.635876,53.068093],[-8.635873,53.068212],[-8.635888,53.068272],[-8.636537,53.068269],[-8.636541,53.068538],[-8.637884,53.068531],[-8.637888,53.068801],[-8.637892,53.06907],[-8.637445,53.069073],[-8.637447,53.069237],[-8.637903,53.069202],[-8.638463,53.069191],[-8.638718,53.069137],[-8.638821,53.069115],[-8.638939,53.069093],[-8.639276,53.069037],[-8.639581,53.068979],[-8.639699,53.068939],[-8.639882,53.068876],[-8.639955,53.068854],[-8.63932,53.070116],[-8.639485,53.070151],[-8.639753,53.070209],[-8.640001,53.070263],[-8.640254,53.070317],[-8.640555,53.070382],[-8.640765,53.070428],[-8.641025,53.070484],[-8.641293,53.071161],[-8.640953,53.071152],[-8.640623,53.071144],[-8.640266,53.071134],[-8.639882,53.071124],[-8.63947,53.071113],[-8.639129,53.071104],[-8.638856,53.071097],[-8.638786,53.071245],[-8.637981,53.071363],[-8.63712,53.071489],[-8.636623,53.071561],[-8.635856,53.071674],[-8.635701,53.074469],[-8.635701,53.074469],[-8.635701,53.074469],[-8.635719,53.07452],[-8.635753,53.074688],[-8.635734,53.075326],[-8.635761,53.075804],[-8.635779,53.076123],[-8.635779,53.076123],[-8.635779,53.076123],[-8.635766,53.076515],[-8.635772,53.07704],[-8.635777,53.077348],[-8.635773,53.07756],[-8.635769,53.077766],[-8.635773,53.077832],[-8.63578,53.077955],[-8.63578,53.077979],[-8.635785,53.077979],[-8.635789,53.078249],[-8.635784,53.078249],[-8.635804,53.078374],[-8.635815,53.078368],[-8.63585,53.078351],[-8.635911,53.078341],[-8.635985,53.078343],[-8.636001,53.078344],[-8.636001,53.078344],[-8.636001,53.078344],[-8.636011,53.078357],[-8.636021,53.07837],[-8.636034,53.078385],[-8.636036,53.078387],[-8.636074,53.078391],[-8.636124,53.07838],[-8.636158,53.07836],[-8.636175,53.07835],[-8.636202,53.078344],[-8.636226,53.078339],[-8.636249,53.078359],[-8.636258,53.078362],[-8.636315,53.078386],[-8.636358,53.078419],[-8.636363,53.078423],[-8.636433,53.078435],[-8.636456,53.078436],[-8.636504,53.078437],[-8.636627,53.078422],[-8.636716,53.078391],[-8.636919,53.078368],[-8.637053,53.078347],[-8.63708,53.078342],[-8.637157,53.078334],[-8.637187,53.078332],[-8.637294,53.078271],[-8.637356,53.078227],[-8.637388,53.078203],[-8.637478,53.078213],[-8.637508,53.078217],[-8.637538,53.078216],[-8.63761,53.078213],[-8.637706,53.078218],[-8.63784,53.078255],[-8.637886,53.078256],[-8.637927,53.078258],[-8.63796,53.078266],[-8.638027,53.078281],[-8.638029,53.078287],[-8.638033,53.0783],[-8.638018,53.078317],[-8.638012,53.078324],[-8.638086,53.078357],[-8.638137,53.078377],[-8.638175,53.0784],[-8.638188,53.078439],[-8.638219,53.078465],[-8.63823,53.078474],[-8.638323,53.07848],[-8.638403,53.078475],[-8.638465,53.078465],[-8.638497,53.078443],[-8.638503,53.078439],[-8.638503,53.078439],[-8.638511,53.078443],[-8.638562,53.078468],[-8.638588,53.078491],[-8.638598,53.078499],[-8.638636,53.078531],[-8.63864,53.078534],[-8.63866,53.078552],[-8.63866,53.078562],[-8.63866,53.078568],[-8.638665,53.078573],[-8.638682,53.07859],[-8.638784,53.078592],[-8.638864,53.078603],[-8.638903,53.078612],[-8.638947,53.078621],[-8.639047,53.078622],[-8.639048,53.078622],[-8.639129,53.078618],[-8.639159,53.078642],[-8.639237,53.078686],[-8.639304,53.078689],[-8.639385,53.078685],[-8.639427,53.07867],[-8.639462,53.078658],[-8.63948,53.078606],[-8.639493,53.078595],[-8.639534,53.078601],[-8.639564,53.078615],[-8.639598,53.07863],[-8.63965,53.07862],[-8.639696,53.078621],[-8.639737,53.078612],[-8.63975,53.078596],[-8.639761,53.078583],[-8.639815,53.078528],[-8.639858,53.078513],[-8.639881,53.078504],[-8.639933,53.078509],[-8.639964,53.078514],[-8.640004,53.07852],[-8.64004,53.078502],[-8.640047,53.078494],[-8.640064,53.078473],[-8.640097,53.078461],[-8.640195,53.078471],[-8.640211,53.078474],[-8.640309,53.078491],[-8.640355,53.078489],[-8.640404,53.078473],[-8.640429,53.078474],[-8.640449,53.078476],[-8.64052,53.07849],[-8.640555,53.078486],[-8.640567,53.078485],[-8.640575,53.078481],[-8.640594,53.078473],[-8.640609,53.078453],[-8.640608,53.078451],[-8.640593,53.078419],[-8.640599,53.078408],[-8.640608,53.078393],[-8.640656,53.078352],[-8.640661,53.078348],[-8.640715,53.078313],[-8.640746,53.078285],[-8.640747,53.078251],[-8.640761,53.078227],[-8.640765,53.078222],[-8.640786,53.078207],[-8.640801,53.078196],[-8.640866,53.078166],[-8.640897,53.07815],[-8.640923,53.078137],[-8.64101,53.078126],[-8.641065,53.078123],[-8.641092,53.078107],[-8.6411,53.078102],[-8.641144,53.078074],[-8.641191,53.078066],[-8.641199,53.078064],[-8.641272,53.078061],[-8.641292,53.078059],[-8.641321,53.078056],[-8.641332,53.07805],[-8.641376,53.078025],[-8.641421,53.077969],[-8.641425,53.077953],[-8.641428,53.077942],[-8.641441,53.077932],[-8.64145,53.077925],[-8.64145,53.077925],[-8.64145,53.077925],[-8.641466,53.07792],[-8.641496,53.077926],[-8.641503,53.077927],[-8.641503,53.077927],[-8.641522,53.077946],[-8.641525,53.077973],[-8.641526,53.077974],[-8.641539,53.077983],[-8.641606,53.077979],[-8.641605,53.077948],[-8.641725,53.077947],[-8.641742,53.077938],[-8.641788,53.077905],[-8.641831,53.077895],[-8.641851,53.077897],[-8.641911,53.077902],[-8.641919,53.077901],[-8.641943,53.077897],[-8.642008,53.077866],[-8.642016,53.077863],[-8.642058,53.077836],[-8.642078,53.077809],[-8.642089,53.077778],[-8.642132,53.077757],[-8.642159,53.077757],[-8.642167,53.077757],[-8.642196,53.077771],[-8.642198,53.077772],[-8.64228,53.077772],[-8.642301,53.077768],[-8.642328,53.077762],[-8.642327,53.077753],[-8.642326,53.077743],[-8.64231,53.077725],[-8.642295,53.077705],[-8.642306,53.07767],[-8.642329,53.07765],[-8.642399,53.07763],[-8.642414,53.077625],[-8.642455,53.07762],[-8.642523,53.07761],[-8.642624,53.077574],[-8.642649,53.077565],[-8.642695,53.077557],[-8.642736,53.077549],[-8.642788,53.077509],[-8.642798,53.077502],[-8.642868,53.077449],[-8.642868,53.077449],[-8.642871,53.077448],[-8.642944,53.077427],[-8.642944,53.077427],[-8.642949,53.077427],[-8.643025,53.077431],[-8.643124,53.077425],[-8.643263,53.077422],[-8.643313,53.077429],[-8.643342,53.077431],[-8.643389,53.077433],[-8.643384,53.077129],[-8.643536,53.077129],[-8.643547,53.077108],[-8.643564,53.077078],[-8.643602,53.077046],[-8.643614,53.07704],[-8.643651,53.077019],[-8.64368,53.076974],[-8.643683,53.076964],[-8.64369,53.076942],[-8.643713,53.076914],[-8.643733,53.07689],[-8.643771,53.076867],[-8.643771,53.076867],[-8.643771,53.076867],[-8.643828,53.076848],[-8.643824,53.076588],[-8.64382,53.076318],[-8.644226,53.076316],[-8.644231,53.076308],[-8.644254,53.076285],[-8.644258,53.076281],[-8.644244,53.076253],[-8.644254,53.076236],[-8.644266,53.07623],[-8.644263,53.076046],[-8.644468,53.076045],[-8.644472,53.076034],[-8.644536,53.075985],[-8.644555,53.075969],[-8.644581,53.075947],[-8.644589,53.075914],[-8.644613,53.075886],[-8.644629,53.075866],[-8.644646,53.075852],[-8.644672,53.075829],[-8.64469,53.075806],[-8.644699,53.075793],[-8.644681,53.075753],[-8.64468,53.075716],[-8.644697,53.075693],[-8.644706,53.075681],[-8.644703,53.075505],[-8.644846,53.075504],[-8.64482,53.075468],[-8.644815,53.075459],[-8.644808,53.075449],[-8.644818,53.075426],[-8.644819,53.075423],[-8.644819,53.075423],[-8.644852,53.075414],[-8.644865,53.075411],[-8.644888,53.075394],[-8.644891,53.075384],[-8.644894,53.075375],[-8.644899,53.075357],[-8.644913,53.075352],[-8.644923,53.075349],[-8.644959,53.075339],[-8.644986,53.075315],[-8.644996,53.075285],[-8.645004,53.075276],[-8.64502,53.075259],[-8.645066,53.075251],[-8.645083,53.075248],[-8.645134,53.075218],[-8.645152,53.075216],[-8.645175,53.075213],[-8.645203,53.075219],[-8.645248,53.075216],[-8.645263,53.075215],[-8.645296,53.075195],[-8.645347,53.075179],[-8.645405,53.075168],[-8.645539,53.075157],[-8.645593,53.075148],[-8.64559,53.074961],[-8.646424,53.074956],[-8.64645,53.074935],[-8.646485,53.074921],[-8.646482,53.074686],[-8.646929,53.074684],[-8.646925,53.074414],[-8.647373,53.074412],[-8.647369,53.074142],[-8.647806,53.07414],[-8.647808,53.074127],[-8.647809,53.07412],[-8.647805,53.074114],[-8.647786,53.074092],[-8.647803,53.074072],[-8.647812,53.074062],[-8.647812,53.074062],[-8.647812,53.074062],[-8.647815,53.074061],[-8.647813,53.07387],[-8.648542,53.073866],[-8.64859,53.073841],[-8.648631,53.073828],[-8.648641,53.073825],[-8.648653,53.073825],[-8.648672,53.073827],[-8.648685,53.073842],[-8.648693,53.073865],[-8.648924,53.073864],[-8.648936,53.07386],[-8.64899,53.073785],[-8.649016,53.073747],[-8.649077,53.073696],[-8.649078,53.073692],[-8.649088,53.073656],[-8.64909,53.073622],[-8.649109,53.0736],[-8.649119,53.073588],[-8.649148,53.073578],[-8.649176,53.073568],[-8.6492,53.073555],[-8.649212,53.073548],[-8.649216,53.07354],[-8.649224,53.073521],[-8.649165,53.073492],[-8.64915,53.073479],[-8.64914,53.073469],[-8.649144,53.073457],[-8.649146,53.073448],[-8.649146,53.073448],[-8.649146,53.073448],[-8.649202,53.073426],[-8.649223,53.073423],[-8.649244,53.073421],[-8.649285,53.073429],[-8.649316,53.073436],[-8.649329,53.073446],[-8.649349,53.073462],[-8.649381,53.07351],[-8.649414,53.073523],[-8.649472,53.073528],[-8.649521,53.073522],[-8.649529,53.073521],[-8.649561,53.073508],[-8.649598,53.073493],[-8.649595,53.073321],[-8.651501,53.073311],[-8.651502,53.07331],[-8.651502,53.07331],[-8.651503,53.07331],[-8.651504,53.073311],[-8.652381,53.073306],[-8.652428,53.073285],[-8.65257,53.07323],[-8.652638,53.073218],[-8.652695,53.073207],[-8.652844,53.073185],[-8.652942,53.073157],[-8.652969,53.073141],[-8.652964,53.073109],[-8.652962,53.0731],[-8.652927,53.073023],[-8.65291,53.07298],[-8.652928,53.072944],[-8.652938,53.072923],[-8.652956,53.072875],[-8.652966,53.072848],[-8.652974,53.072828],[-8.653003,53.07276],[-8.653026,53.072727],[-8.653039,53.072707],[-8.653056,53.072603],[-8.653061,53.072588],[-8.653079,53.072537],[-8.653089,53.072478],[-8.653101,53.072421],[-8.653119,53.072369],[-8.653144,53.0723],[-8.653194,53.072159],[-8.653245,53.072031],[-8.653282,53.071913],[-8.653291,53.071884],[-8.653294,53.071871],[-8.65331,53.071809],[-8.653323,53.071747],[-8.653334,53.0717],[-8.653341,53.071666],[-8.653357,53.071628],[-8.653361,53.071617],[-8.653396,53.071562],[-8.653436,53.071525],[-8.653441,53.071521],[-8.653494,53.071475],[-8.653501,53.071436],[-8.653502,53.071426],[-8.653515,53.071398],[-8.653538,53.071392],[-8.653561,53.071386],[-8.653572,53.071376],[-8.653566,53.071343],[-8.653566,53.071343],[-8.653542,53.071315],[-8.65354,53.071304],[-8.653537,53.071284],[-8.653553,53.071261],[-8.653558,53.071254],[-8.653591,53.071229],[-8.653611,53.071214],[-8.653663,53.071164],[-8.653676,53.071139],[-8.653681,53.071119],[-8.653686,53.071092],[-8.65371,53.071046],[-8.653711,53.071046],[-8.653711,53.071046],[-8.653756,53.07101],[-8.653781,53.070989],[-8.653801,53.070969],[-8.653836,53.070934],[-8.653858,53.070876],[-8.653878,53.070834],[-8.653889,53.070811],[-8.653919,53.070787],[-8.653982,53.070761],[-8.654003,53.07073],[-8.654019,53.070704],[-8.653986,53.070684],[-8.653967,53.07067],[-8.653924,53.07064],[-8.653894,53.070622],[-8.653882,53.070595],[-8.653898,53.07057],[-8.653932,53.070532],[-8.653926,53.0705],[-8.653907,53.070474],[-8.653894,53.070457],[-8.653886,53.070429],[-8.653904,53.0704],[-8.653909,53.070365],[-8.653889,53.070339],[-8.653864,53.070323],[-8.65383,53.070301],[-8.653787,53.07027],[-8.653775,53.070262],[-8.653772,53.070255],[-8.653756,53.070229],[-8.653734,53.070174],[-8.653713,53.070119],[-8.653681,53.070023],[-8.653677,53.070017],[-8.653643,53.069976],[-8.653598,53.069952],[-8.653595,53.069948],[-8.653581,53.069925],[-8.653594,53.069872],[-8.653591,53.069784],[-8.653573,53.069685],[-8.653574,53.069593],[-8.653575,53.069564],[-8.653577,53.069553],[-8.653583,53.069516],[-8.653579,53.069473],[-8.653575,53.06943],[-8.653556,53.069373],[-8.653521,53.069288],[-8.653535,53.069201],[-8.653536,53.069194],[-8.653549,53.069151],[-8.653546,53.069137],[-8.653536,53.069093],[-8.65356,53.069048],[-8.653559,53.068985],[-8.653555,53.068716],[-8.653641,53.068715],[-8.653631,53.068666],[-8.653715,53.068604],[-8.653828,53.06852],[-8.65443,53.068559],[-8.654966,53.068589],[-8.655292,53.068609],[-8.655594,53.068627],[-8.655837,53.068639],[-8.655949,53.068644],[-8.656277,53.068673],[-8.656698,53.068727],[-8.656714,53.068729],[-8.656714,53.068729],[-8.657017,53.068815],[-8.657054,53.068834],[-8.657136,53.068878],[-8.657208,53.068911],[-8.657426,53.068983],[-8.657603,53.06902],[-8.65784,53.06907],[-8.658033,53.069099],[-8.658276,53.069135],[-8.658449,53.06917],[-8.658654,53.069211],[-8.658743,53.069238],[-8.658848,53.069271],[-8.658905,53.069288],[-8.658952,53.069301],[-8.65916,53.069304],[-8.65916,53.069304],[-8.65916,53.069304],[-8.659228,53.069331],[-8.659292,53.069357],[-8.659468,53.069451],[-8.659495,53.069468],[-8.659564,53.069513],[-8.659576,53.069511],[-8.659816,53.069465],[-8.660029,53.06943],[-8.660115,53.069416],[-8.660182,53.069402],[-8.660188,53.069401],[-8.660212,53.069398],[-8.660271,53.069363],[-8.660294,53.06935],[-8.660379,53.069334],[-8.660468,53.069317],[-8.660495,53.069307],[-8.660541,53.06929],[-8.660552,53.069268],[-8.660582,53.069191],[-8.660582,53.069191],[-8.660582,53.069191],[-8.660585,53.069188],[-8.660617,53.069158],[-8.660617,53.069158],[-8.660617,53.069158],[-8.660697,53.069135],[-8.66072,53.069124],[-8.660744,53.069117],[-8.660802,53.069093],[-8.660893,53.069043],[-8.660959,53.068986],[-8.661099,53.068903],[-8.661167,53.068882],[-8.661164,53.068674],[-8.661565,53.068671],[-8.661573,53.06865],[-8.661603,53.06857],[-8.66161,53.068565],[-8.661607,53.068402],[-8.661603,53.068132],[-8.662051,53.068129],[-8.662043,53.06759],[-8.662259,53.067589],[-8.662285,53.06753],[-8.662328,53.067436],[-8.662328,53.067433],[-8.662328,53.067433],[-8.662342,53.067312],[-8.662364,53.067252],[-8.662409,53.067213],[-8.662558,53.067151],[-8.662757,53.067083],[-8.662835,53.067041],[-8.662898,53.066972],[-8.662939,53.066929],[-8.662957,53.066804],[-8.663001,53.066658],[-8.663038,53.066592],[-8.663044,53.066476],[-8.663081,53.066372],[-8.663114,53.066291],[-8.663147,53.066184],[-8.662916,53.066185],[-8.662917,53.066237],[-8.662921,53.066507],[-8.662026,53.066512],[-8.662022,53.066242],[-8.661574,53.066245],[-8.661573,53.066169],[-8.661466,53.06622],[-8.661397,53.066253],[-8.661374,53.066264],[-8.661282,53.06631],[-8.660883,53.06649],[-8.660803,53.066517],[-8.660668,53.066563],[-8.660609,53.066576],[-8.660521,53.066595],[-8.660352,53.066638],[-8.660047,53.06668],[-8.659862,53.066693],[-8.659582,53.066713],[-8.659283,53.066725],[-8.659122,53.066731],[-8.659025,53.066729],[-8.658943,53.066711],[-8.658872,53.066681],[-8.658601,53.066669],[-8.657837,53.066635],[-8.657101,53.066596],[-8.657036,53.066591],[-8.657023,53.06659],[-8.656572,53.066568],[-8.656136,53.066542],[-8.655826,53.066516],[-8.655464,53.066486],[-8.654825,53.066449],[-8.654586,53.06643],[-8.654411,53.066417],[-8.654205,53.066399],[-8.654099,53.06639],[-8.653943,53.066394],[-8.653733,53.066368],[-8.653627,53.066355],[-8.653627,53.066355],[-8.653627,53.066355],[-8.653647,53.066345],[-8.65366,53.066337],[-8.653681,53.06632],[-8.653707,53.066322],[-8.653749,53.066325],[-8.653847,53.066315],[-8.653918,53.06631],[-8.653946,53.066307],[-8.653972,53.066301],[-8.654037,53.066285],[-8.654052,53.06627],[-8.654062,53.066232],[-8.654049,53.066179],[-8.653969,53.06611],[-8.653955,53.066098],[-8.653898,53.066046],[-8.653893,53.065952],[-8.653912,53.065918],[-8.653916,53.065911],[-8.653974,53.065892],[-8.653988,53.065887],[-8.654027,53.065859],[-8.654024,53.065817],[-8.653995,53.065795],[-8.65394,53.065754],[-8.65389,53.065683],[-8.653882,53.065672],[-8.653893,53.065602],[-8.653893,53.065599],[-8.65388,53.065476],[-8.65387,53.065423],[-8.653868,53.065414],[-8.653868,53.065414],[-8.653868,53.065414],[-8.653877,53.065391],[-8.65389,53.065359],[-8.653973,53.065323],[-8.654077,53.065299],[-8.654135,53.065291],[-8.654174,53.065296],[-8.654247,53.065306],[-8.65431,53.0653],[-8.654413,53.065229],[-8.654459,53.065156],[-8.654459,53.065156],[-8.654459,53.065156],[-8.654501,53.065143],[-8.654528,53.065135],[-8.654595,53.065113],[-8.654649,53.065096],[-8.654675,53.065088],[-8.654675,53.065088],[-8.654675,53.065088],[-8.654762,53.065101],[-8.654819,53.065089],[-8.654877,53.065066],[-8.654894,53.065059],[-8.65491,53.065056],[-8.65495,53.065046],[-8.655052,53.065065],[-8.655115,53.065044],[-8.655126,53.065041],[-8.655209,53.065036],[-8.655333,53.065085],[-8.655341,53.065088],[-8.655341,53.065088],[-8.655377,53.065108],[-8.655428,53.065121],[-8.655462,53.065115],[-8.655476,53.0651],[-8.655497,53.065079],[-8.655525,53.06504],[-8.655599,53.065025],[-8.655606,53.065024],[-8.655742,53.064956],[-8.655815,53.064943],[-8.655932,53.064951],[-8.655966,53.064953],[-8.65608,53.064958],[-8.656151,53.064952],[-8.656216,53.064946],[-8.656312,53.064914],[-8.656335,53.064906],[-8.656431,53.06489],[-8.656543,53.064888],[-8.656617,53.064871],[-8.65668,53.064857],[-8.656797,53.064828],[-8.656872,53.06481],[-8.656914,53.064786],[-8.657021,53.064725],[-8.657051,53.064706],[-8.65711,53.064669],[-8.657161,53.064668],[-8.657185,53.064668],[-8.657283,53.06468],[-8.657342,53.064688],[-8.657381,53.064694],[-8.657422,53.064688],[-8.657447,53.064684],[-8.657469,53.064668],[-8.657555,53.064603],[-8.657616,53.064584],[-8.657667,53.06459],[-8.657741,53.064582],[-8.657918,53.064509],[-8.658028,53.06448],[-8.658097,53.06444],[-8.658177,53.064427],[-8.658271,53.064412],[-8.658356,53.06439],[-8.658358,53.064374]],[[-8.644303,53.072553],[-8.645019,53.072286],[-8.64557,53.072081],[-8.646142,53.071869],[-8.648131,53.073102],[-8.647178,53.073583],[-8.64611,53.074122],[-8.645104,53.074629],[-8.644057,53.075158],[-8.643079,53.075651],[-8.642104,53.076143],[-8.642541,53.073207],[-8.643234,53.07295],[-8.643825,53.07273],[-8.644303,53.072553]],[[-8.641999,53.068878],[-8.644955,53.068907],[-8.64494,53.069581],[-8.644927,53.070145],[-8.644868,53.070226],[-8.644804,53.070318],[-8.644753,53.070454],[-8.644747,53.07047],[-8.644404,53.070454],[-8.644407,53.06978],[-8.643912,53.06996],[-8.643967,53.070433],[-8.643324,53.070403],[-8.642632,53.070302],[-8.641999,53.068878]],[[-8.641659,53.068877],[-8.642362,53.070284],[-8.641844,53.070248],[-8.640817,53.070177],[-8.640118,53.06887],[-8.641235,53.068875],[-8.641659,53.068877]],[[-8.64524,53.071266],[-8.645373,53.071478],[-8.645498,53.071678],[-8.645648,53.071917],[-8.645677,53.071964],[-8.644824,53.072313],[-8.642598,53.073097],[-8.64427,53.072129],[-8.644294,53.071814],[-8.644309,53.071621],[-8.644326,53.071399],[-8.644502,53.071365],[-8.644534,53.070977],[-8.644404,53.070715],[-8.644404,53.070683],[-8.644843,53.07063],[-8.64524,53.071266]],[[-8.645772,53.070509],[-8.646118,53.071783],[-8.645772,53.071925],[-8.644969,53.070631],[-8.645772,53.070509]],[[-8.649921,53.06523],[-8.649473,53.065233],[-8.649469,53.064963],[-8.649917,53.064961],[-8.649921,53.06523]],[[-8.648131,53.06524],[-8.649473,53.065233],[-8.649477,53.065503],[-8.64903,53.065505],[-8.649034,53.065775],[-8.648139,53.065779],[-8.648135,53.06551],[-8.648131,53.06524]],[[-8.652195,53.067645],[-8.6522,53.067914],[-8.651752,53.067917],[-8.651748,53.067647],[-8.652195,53.067645]],[[-8.653107,53.068718],[-8.653115,53.069257],[-8.653119,53.069527],[-8.652672,53.069529],[-8.652668,53.06926],[-8.65222,53.069262],[-8.652212,53.068723],[-8.653107,53.068718]]],[[[-8.635948,53.068811],[-8.635934,53.069081],[-8.636549,53.069077],[-8.636545,53.068808],[-8.635948,53.068811]]],[[[-8.641995,53.066298],[-8.641819,53.066353],[-8.642328,53.06635],[-8.642326,53.066177],[-8.641995,53.066298]]]]}}]}
