{"type":"FeatureCollection","features":[{"type":"Feature","properties":{"source_fid":1884905,"county":"Limerick","bog_geom_ha":120.14041404546099,"low15_pct":99.699248120300751,"low15_ha":119.77908949194081,"overlay_ha":119.69875886261217,"area_delta":-0.080330629328642544},"geometry":{"type":"MultiPolygon","coordinates":[[[[-9.206615,52.442618],[-9.206328,52.442752],[-9.206252,52.442782],[-9.206099,52.442843],[-9.20608,52.442851],[-9.206016,52.442879],[-9.20611,52.442925],[-9.206127,52.442918],[-9.206338,52.443047],[-9.206541,52.443154],[-9.206631,52.443207],[-9.206901,52.443369],[-9.206642,52.443614],[-9.206624,52.443632],[-9.206642,52.443635],[-9.206675,52.443641],[-9.207011,52.443828],[-9.207086,52.443869],[-9.207389,52.444062],[-9.207742,52.444299],[-9.208353,52.44483],[-9.208915,52.445283],[-9.209186,52.44494],[-9.209592,52.445275],[-9.209987,52.445566],[-9.209828,52.445771],[-9.210003,52.445916],[-9.209952,52.445945],[-9.209963,52.445965],[-9.209826,52.446034],[-9.209908,52.446073],[-9.210242,52.446252],[-9.210633,52.446446],[-9.21113,52.446637],[-9.211956,52.446971],[-9.212948,52.447387],[-9.212985,52.447402],[-9.213032,52.447425],[-9.213045,52.447431],[-9.213779,52.447718],[-9.214839,52.44812],[-9.215255,52.448295],[-9.215567,52.448462],[-9.215923,52.448635],[-9.216036,52.448689],[-9.216045,52.448694],[-9.21627,52.448797],[-9.216452,52.448881],[-9.21664,52.44893],[-9.216674,52.448939],[-9.217221,52.448933],[-9.21755,52.44882],[-9.21817,52.448626],[-9.219193,52.44827],[-9.219265,52.448254],[-9.219337,52.448247],[-9.219682,52.448161],[-9.219822,52.448149],[-9.220242,52.448113],[-9.220288,52.448099],[-9.220861,52.448076],[-9.221028,52.448063],[-9.221235,52.448055],[-9.22135,52.448055],[-9.221592,52.448065],[-9.221941,52.448027],[-9.222112,52.447972],[-9.222327,52.447847],[-9.222383,52.447821],[-9.222414,52.447798],[-9.222435,52.447794],[-9.222743,52.447506],[-9.22286,52.447418],[-9.22333,52.447129],[-9.223361,52.447099],[-9.223461,52.447038],[-9.223492,52.44701],[-9.223646,52.446909],[-9.223703,52.446867],[-9.223707,52.446867],[-9.223731,52.446846],[-9.22375,52.446826],[-9.223787,52.446787],[-9.223799,52.446775],[-9.223884,52.44669],[-9.223972,52.446603],[-9.224191,52.446385],[-9.224474,52.446137],[-9.224597,52.445989],[-9.224749,52.44586],[-9.225426,52.445287],[-9.225471,52.445249],[-9.226215,52.444614],[-9.22578,52.444472],[-9.22512,52.444252],[-9.224565,52.444037],[-9.224119,52.443851],[-9.224046,52.44379],[-9.22398,52.443736],[-9.223871,52.443723],[-9.2234,52.443457],[-9.223128,52.443142],[-9.223024,52.442751],[-9.222986,52.442581],[-9.222978,52.442565],[-9.222932,52.442422],[-9.223034,52.442014],[-9.223048,52.441961],[-9.22324,52.441448],[-9.223393,52.441148],[-9.223432,52.441072],[-9.22351,52.440919],[-9.22384,52.440414],[-9.224006,52.440164],[-9.224095,52.440077],[-9.224266,52.439906],[-9.224399,52.439768],[-9.224433,52.439732],[-9.224696,52.439819],[-9.224743,52.439793],[-9.226761,52.438669],[-9.227306,52.438367],[-9.227548,52.438267],[-9.227803,52.438181],[-9.228543,52.438008],[-9.228582,52.437951],[-9.228724,52.437903],[-9.228898,52.437775],[-9.229076,52.437654],[-9.229124,52.437594],[-9.229179,52.437502],[-9.229266,52.437451],[-9.229373,52.437389],[-9.229492,52.437335],[-9.229666,52.437297],[-9.229844,52.43727],[-9.229979,52.437203],[-9.230093,52.43714],[-9.230169,52.437111],[-9.230066,52.437094],[-9.229944,52.437084],[-9.22986,52.437092],[-9.229734,52.437089],[-9.22959,52.437073],[-9.229445,52.437104],[-9.229441,52.437105],[-9.229315,52.437135],[-9.229231,52.437121],[-9.229158,52.437128],[-9.229048,52.437154],[-9.228971,52.437159],[-9.22888,52.437131],[-9.2288,52.437133],[-9.22864,52.437164],[-9.228536,52.437197],[-9.228445,52.437208],[-9.228308,52.437192],[-9.22813,52.437155],[-9.22789,52.437146],[-9.227876,52.437147],[-9.227692,52.437154],[-9.227505,52.437159],[-9.227276,52.437171],[-9.227078,52.437192],[-9.226952,52.437216],[-9.226883,52.437225],[-9.2268,52.437206],[-9.226663,52.437181],[-9.226583,52.437179],[-9.226419,52.437207],[-9.22626,52.43722],[-9.226239,52.437221],[-9.226189,52.437221],[-9.226026,52.437222],[-9.226003,52.437221],[-9.225927,52.437219],[-9.225854,52.437248],[-9.225824,52.437261],[-9.225747,52.437295],[-9.225651,52.437318],[-9.225571,52.437332],[-9.225451,52.437331],[-9.225361,52.43733],[-9.224951,52.437303],[-9.224741,52.437291],[-9.224675,52.437289],[-9.224635,52.437287],[-9.224395,52.437301],[-9.224204,52.437313],[-9.224143,52.437316],[-9.224007,52.437274],[-9.223991,52.437269],[-9.223832,52.437246],[-9.223726,52.437239],[-9.22363,52.437232],[-9.223364,52.437219],[-9.223233,52.43721],[-9.223182,52.437207],[-9.223155,52.437205],[-9.222885,52.437185],[-9.222668,52.437161],[-9.222465,52.43714],[-9.222356,52.437129],[-9.222057,52.437071],[-9.221802,52.437027],[-9.22172,52.437012],[-9.221468,52.436965],[-9.221244,52.436935],[-9.221191,52.436937],[-9.221008,52.436911],[-9.220846,52.436892],[-9.22059,52.436861],[-9.220226,52.436798],[-9.220011,52.436749],[-9.220002,52.436747],[-9.219794,52.436696],[-9.219673,52.436629],[-9.219498,52.436512],[-9.219323,52.436409],[-9.219305,52.436397],[-9.219186,52.436316],[-9.219092,52.436233],[-9.21902,52.436167],[-9.218947,52.43615],[-9.21877,52.436146],[-9.218678,52.436133],[-9.218489,52.436139],[-9.218435,52.436129],[-9.218347,52.436091],[-9.217558,52.43647],[-9.217446,52.436538],[-9.217441,52.436567],[-9.217335,52.436609],[-9.217317,52.436654],[-9.216902,52.436876],[-9.216645,52.437021],[-9.216363,52.437135],[-9.216287,52.437165],[-9.216287,52.437165],[-9.215949,52.437359],[-9.216005,52.437358],[-9.216012,52.437628],[-9.215571,52.437632],[-9.215578,52.437902],[-9.215137,52.437906],[-9.215145,52.438176],[-9.214703,52.438181],[-9.214711,52.43845],[-9.214047,52.438457],[-9.213946,52.438515],[-9.213832,52.438583],[-9.213836,52.438729],[-9.21358,52.438731],[-9.213398,52.438839],[-9.213402,52.439003],[-9.213139,52.439006],[-9.213063,52.439058],[-9.212965,52.439127],[-9.212969,52.439277],[-9.212736,52.439279],[-9.21245,52.439469],[-9.212244,52.43963],[-9.212228,52.439639],[-9.21198,52.439784],[-9.211972,52.43979],[-9.21196,52.439799],[-9.211843,52.43988],[-9.211739,52.439949],[-9.211684,52.439991],[-9.211615,52.440034],[-9.211546,52.440078],[-9.211483,52.440114],[-9.211402,52.440161],[-9.211242,52.44025],[-9.211078,52.44035],[-9.2109,52.44046],[-9.210898,52.440461],[-9.210797,52.440523],[-9.2108,52.440648],[-9.210599,52.44065],[-9.21057,52.440668],[-9.210362,52.440788],[-9.210366,52.440922],[-9.210121,52.440924],[-9.209958,52.441016],[-9.209928,52.441035],[-9.209932,52.441196],[-9.209655,52.441199],[-9.209583,52.441238],[-9.209494,52.441289],[-9.209499,52.44147],[-9.209177,52.441473],[-9.208847,52.441665],[-9.208632,52.441804],[-9.208632,52.441804],[-9.208632,52.441804],[-9.208625,52.441808],[-9.208631,52.442018],[-9.20821,52.442022],[-9.208058,52.442088],[-9.207753,52.442195],[-9.207756,52.442297],[-9.207469,52.4423],[-9.20744,52.442311],[-9.207017,52.442471],[-9.206921,52.442506],[-9.206615,52.442618]]]]}}]}
