{"type":"FeatureCollection","features":[{"type":"Feature","properties":{"source_fid":1911314,"county":"Offaly","bog_geom_ha":129.13800285498027,"low15_pct":99.86149584487535,"low15_ha":128.95914135518115,"overlay_ha":128.98567842361592,"area_delta":0.026537068434777211},"geometry":{"type":"MultiPolygon","coordinates":[[[[-7.14971,53.280639],[-7.149345,53.280236],[-7.149345,53.280236],[-7.149345,53.280236],[-7.14932,53.280237],[-7.149067,53.280238],[-7.148499,53.280229],[-7.147932,53.280227],[-7.147365,53.280222],[-7.147225,53.280221],[-7.14681,53.280217],[-7.146248,53.280214],[-7.145927,53.280212],[-7.145686,53.28021],[-7.14512,53.280207],[-7.144553,53.280203],[-7.143988,53.280199],[-7.143763,53.2802],[-7.14343,53.2802],[-7.143028,53.280196],[-7.142894,53.280194],[-7.142305,53.280192],[-7.141743,53.280185],[-7.141178,53.280183],[-7.140611,53.280183],[-7.140042,53.28018],[-7.139475,53.280181],[-7.139249,53.280179],[-7.138911,53.280177],[-7.138669,53.280179],[-7.138351,53.280182],[-7.137975,53.280182],[-7.137783,53.280182],[-7.137554,53.280182],[-7.137216,53.280183],[-7.136876,53.280181],[-7.136649,53.28018],[-7.136086,53.280181],[-7.135515,53.280182],[-7.134944,53.280182],[-7.134566,53.280182],[-7.134375,53.280181],[-7.133805,53.280181],[-7.133234,53.280184],[-7.132668,53.280184],[-7.132101,53.280186],[-7.131531,53.280187],[-7.131221,53.280177],[-7.131161,53.280178],[-7.130971,53.280179],[-7.13095,53.280177],[-7.130944,53.280177],[-7.130512,53.280179],[-7.129564,53.280183],[-7.128586,53.280181],[-7.128013,53.280176],[-7.126855,53.280528],[-7.12641,53.28067],[-7.126045,53.280787],[-7.125999,53.280801],[-7.125251,53.281034],[-7.125062,53.281093],[-7.124831,53.281167],[-7.124269,53.281305],[-7.124072,53.281354],[-7.121864,53.282055],[-7.119987,53.282627],[-7.121213,53.282993],[-7.123396,53.283644],[-7.124337,53.283923],[-7.125169,53.284169],[-7.125934,53.284388],[-7.126699,53.284607],[-7.127846,53.284922],[-7.127879,53.284931],[-7.127932,53.284947],[-7.129089,53.285278],[-7.131106,53.285846],[-7.134629,53.286857],[-7.135839,53.287205],[-7.142969,53.28691],[-7.155236,53.286402],[-7.154137,53.285497],[-7.153385,53.285423],[-7.15281,53.285377],[-7.152781,53.285375],[-7.152758,53.285373],[-7.152131,53.285328],[-7.15164,53.285285],[-7.15222,53.285119],[-7.152466,53.285034],[-7.152505,53.285021],[-7.152552,53.28501],[-7.152878,53.284933],[-7.153131,53.284859],[-7.15329,53.284824],[-7.153527,53.284765],[-7.15336,53.284546],[-7.152889,53.283941],[-7.152556,53.283555],[-7.152303,53.283642],[-7.151956,53.283247],[-7.151883,53.28317],[-7.15166,53.282911],[-7.151641,53.282917],[-7.151531,53.282957],[-7.151521,53.283454],[-7.151071,53.283451],[-7.151082,53.282912],[-7.15111,53.282912],[-7.151031,53.282822],[-7.151024,53.282814],[-7.151245,53.282737],[-7.151632,53.282604],[-7.15104,53.282012],[-7.151433,53.281862],[-7.151141,53.28155],[-7.150923,53.281351],[-7.150483,53.281509],[-7.150266,53.28127],[-7.149985,53.280946],[-7.149871,53.280824],[-7.14971,53.280639]]]]}}]}
