{"type":"FeatureCollection","features":[{"type":"Feature","properties":{"source_fid":1914779,"county":"Offaly","bog_geom_ha":157.05163826062258,"low15_pct":97.651775486827034,"low15_ha":153.36371319264691,"overlay_ha":153.2103069751937,"area_delta":-0.15340621745320959},"geometry":{"type":"MultiPolygon","coordinates":[[[[-7.193275,53.227358],[-7.192422,53.227136],[-7.192502,53.227027],[-7.192271,53.227025],[-7.192276,53.226759],[-7.192136,53.226733],[-7.191623,53.226612],[-7.19151,53.226463],[-7.191423,53.22632],[-7.191354,53.226173],[-7.191333,53.226121],[-7.190791,53.226117],[-7.190808,53.225218],[-7.191204,53.225221],[-7.191205,53.225211],[-7.191238,53.224908],[-7.191272,53.224587],[-7.191308,53.224261],[-7.191346,53.22397],[-7.191378,53.223896],[-7.191692,53.223672],[-7.192021,53.223409],[-7.192475,53.223039],[-7.192628,53.222906],[-7.192817,53.222781],[-7.193473,53.222531],[-7.193608,53.222479],[-7.193612,53.222273],[-7.194061,53.222276],[-7.194061,53.222307],[-7.194513,53.222146],[-7.194516,53.222009],[-7.194965,53.222012],[-7.194964,53.222074],[-7.19499,53.222093],[-7.195186,53.221995],[-7.195303,53.221968],[-7.195416,53.221928],[-7.195419,53.221746],[-7.195842,53.221749],[-7.195873,53.221505],[-7.195873,53.221479],[-7.195876,53.221479],[-7.195882,53.221432],[-7.195885,53.22141],[-7.196015,53.220373],[-7.196125,53.219406],[-7.196201,53.218556],[-7.196456,53.216308],[-7.196672,53.2147],[-7.196372,53.214689],[-7.196372,53.214689],[-7.196372,53.214689],[-7.196094,53.21468],[-7.193971,53.214596],[-7.192426,53.21454],[-7.190932,53.214498],[-7.190919,53.214497],[-7.189588,53.214458],[-7.188739,53.214434],[-7.188089,53.214417],[-7.186209,53.214358],[-7.184695,53.214317],[-7.184531,53.214313],[-7.184245,53.214301],[-7.182578,53.214236],[-7.182506,53.214234],[-7.182293,53.214228],[-7.182282,53.214377],[-7.182278,53.214548],[-7.182309,53.214559],[-7.184012,53.214638],[-7.184017,53.214639],[-7.184135,53.214644],[-7.184078,53.215044],[-7.184023,53.215576],[-7.183969,53.216003],[-7.185618,53.216122],[-7.187258,53.216222],[-7.187599,53.216229],[-7.187786,53.216068],[-7.188138,53.216065],[-7.189066,53.216122],[-7.190781,53.216202],[-7.190837,53.216236],[-7.190813,53.216499],[-7.191549,53.216575],[-7.192165,53.216779],[-7.192276,53.216877],[-7.192251,53.217292],[-7.192142,53.218446],[-7.192089,53.218969],[-7.192032,53.21953],[-7.191933,53.220293],[-7.191777,53.220859],[-7.190622,53.220907],[-7.190512,53.221468],[-7.190609,53.221604],[-7.189817,53.221898],[-7.189693,53.221947],[-7.18957,53.22195],[-7.188802,53.221972],[-7.188089,53.221993],[-7.187559,53.222],[-7.187185,53.222009],[-7.186768,53.222012],[-7.186702,53.222012],[-7.1866,53.222017],[-7.186435,53.22392],[-7.186347,53.224655],[-7.186245,53.225744],[-7.186211,53.226377],[-7.186157,53.226387],[-7.183581,53.226325],[-7.182814,53.22631],[-7.182826,53.226244],[-7.182755,53.226243],[-7.182749,53.226513],[-7.181851,53.226507],[-7.181856,53.226237],[-7.182305,53.22624],[-7.182321,53.225431],[-7.18277,53.225435],[-7.18278,53.224895],[-7.182331,53.224892],[-7.182336,53.224623],[-7.183108,53.224628],[-7.183243,53.223367],[-7.183383,53.222417],[-7.183411,53.22193],[-7.181669,53.221704],[-7.179871,53.221476],[-7.179737,53.22221],[-7.1797,53.222383],[-7.179567,53.222404],[-7.178244,53.22237],[-7.176415,53.222373],[-7.176386,53.222509],[-7.17628,53.223013],[-7.176248,53.223103],[-7.175842,53.223112],[-7.174725,53.223064],[-7.17463,53.223061],[-7.174725,53.22229],[-7.174796,53.221427],[-7.174824,53.221228],[-7.174828,53.221197],[-7.17487,53.220843],[-7.174242,53.220847],[-7.173496,53.220886],[-7.173239,53.220897],[-7.173052,53.222057],[-7.172273,53.222066],[-7.172191,53.222207],[-7.171631,53.223158],[-7.170763,53.22465],[-7.170715,53.224733],[-7.170155,53.225744],[-7.169494,53.226799],[-7.169103,53.227497],[-7.168955,53.227763],[-7.168413,53.228577],[-7.167898,53.229397],[-7.1679,53.229401],[-7.167909,53.229403],[-7.168512,53.229417],[-7.169633,53.22944],[-7.170257,53.229456],[-7.170796,53.229476],[-7.17149,53.22951],[-7.171933,53.229525],[-7.172614,53.229556],[-7.173066,53.229574],[-7.173688,53.229597],[-7.174136,53.229611],[-7.174749,53.229631],[-7.175287,53.229652],[-7.175999,53.229674],[-7.176248,53.229685],[-7.17643,53.229694],[-7.176973,53.229708],[-7.177465,53.229731],[-7.178061,53.229752],[-7.178592,53.229769],[-7.179205,53.22979],[-7.179658,53.229803],[-7.180266,53.229825],[-7.180756,53.229843],[-7.181436,53.229869],[-7.181872,53.229881],[-7.182322,53.229884],[-7.182914,53.229894],[-7.18353,53.229902],[-7.183983,53.229908],[-7.184594,53.229916],[-7.185042,53.229923],[-7.185591,53.229936],[-7.186128,53.229947],[-7.186743,53.229966],[-7.1872,53.229982],[-7.187709,53.229999],[-7.188263,53.230022],[-7.188794,53.230041],[-7.189367,53.230068],[-7.189921,53.230091],[-7.190426,53.230105],[-7.190595,53.23011],[-7.190943,53.230112],[-7.191456,53.23011],[-7.191915,53.230116],[-7.192035,53.230117],[-7.192133,53.230118],[-7.192225,53.230119],[-7.192977,53.230146],[-7.193713,53.23018],[-7.194051,53.230182],[-7.194592,53.230178],[-7.194712,53.23018],[-7.194967,53.227967],[-7.194903,53.227944],[-7.194894,53.227941],[-7.194716,53.227862],[-7.194581,53.227805],[-7.194573,53.227784],[-7.194483,53.227747],[-7.19446,53.227738],[-7.194443,53.227731],[-7.194487,53.227671],[-7.194495,53.227662],[-7.193823,53.227501],[-7.193275,53.227358]],[[-7.192285,53.221185],[-7.192734,53.221189],[-7.192729,53.221458],[-7.19228,53.221455],[-7.192285,53.221185]],[[-7.191826,53.221722],[-7.191376,53.221719],[-7.191381,53.221449],[-7.191831,53.221452],[-7.191826,53.221722]],[[-7.190927,53.221715],[-7.191376,53.221719],[-7.191371,53.221988],[-7.190922,53.221985],[-7.190927,53.221715]],[[-7.192173,53.227116],[-7.192168,53.227386],[-7.19127,53.22738],[-7.191275,53.22711],[-7.192173,53.227116]],[[-7.194409,53.227671],[-7.194404,53.22794],[-7.193955,53.227937],[-7.19396,53.227668],[-7.194409,53.227671]],[[-7.182714,53.2284],[-7.182703,53.228939],[-7.182698,53.229209],[-7.182249,53.229206],[-7.182244,53.229475],[-7.180896,53.229466],[-7.180901,53.229196],[-7.1818,53.229203],[-7.181805,53.228933],[-7.182254,53.228936],[-7.182264,53.228397],[-7.181815,53.228394],[-7.18181,53.228663],[-7.181361,53.22866],[-7.181366,53.228391],[-7.181371,53.228121],[-7.18182,53.228124],[-7.181825,53.227855],[-7.182724,53.227861],[-7.182719,53.22813],[-7.182714,53.2284]],[[-7.180488,53.227306],[-7.180483,53.227576],[-7.180932,53.227579],[-7.180927,53.227848],[-7.180922,53.228118],[-7.180472,53.228115],[-7.180467,53.228385],[-7.179119,53.228375],[-7.179125,53.228106],[-7.17913,53.227836],[-7.179135,53.227567],[-7.17914,53.227297],[-7.179589,53.2273],[-7.179595,53.22703],[-7.180493,53.227037],[-7.180488,53.227306]]],[[[-7.180033,53.227573],[-7.180028,53.227842],[-7.180478,53.227845],[-7.180483,53.227576],[-7.180033,53.227573]]],[[[-7.180023,53.228112],[-7.180028,53.227842],[-7.179579,53.227839],[-7.179574,53.228109],[-7.180023,53.228112]]]]}}]}
