{"type":"FeatureCollection","features":[{"type":"Feature","properties":{"source_fid":1926378,"county":"Mayo","bog_geom_ha":115.045060274034,"low15_pct":94.765625,"low15_ha":109.02317040031502,"overlay_ha":108.99254632322527,"area_delta":-0.030624077089754564},"geometry":{"type":"MultiPolygon","coordinates":[[[[-9.442884,54.249319],[-9.441623,54.250589],[-9.441533,54.250903],[-9.441538,54.250908],[-9.441724,54.251092],[-9.441748,54.251197],[-9.441765,54.251229],[-9.441913,54.251325],[-9.4419,54.251428],[-9.441891,54.251507],[-9.44193,54.251527],[-9.441936,54.251568],[-9.441945,54.251631],[-9.441935,54.251646],[-9.441921,54.251667],[-9.441911,54.251682],[-9.441908,54.251686],[-9.44204,54.251966],[-9.44204,54.251966],[-9.442059,54.252082],[-9.442065,54.252119],[-9.442066,54.252127],[-9.442091,54.252279],[-9.442026,54.252384],[-9.442009,54.25241],[-9.442349,54.252406],[-9.44234,54.252137],[-9.4428,54.252131],[-9.442809,54.252401],[-9.442819,54.25267],[-9.442828,54.25294],[-9.442025,54.252949],[-9.441972,54.253044],[-9.441956,54.253091],[-9.441917,54.2532],[-9.441916,54.2532],[-9.441917,54.25322],[-9.441895,54.25322],[-9.441736,54.253366],[-9.4417,54.253399],[-9.441565,54.253594],[-9.441532,54.253631],[-9.441473,54.253698],[-9.441476,54.253765],[-9.441413,54.253765],[-9.441409,54.253771],[-9.441332,54.253892],[-9.441306,54.253933],[-9.441263,54.254054],[-9.441219,54.254176],[-9.441205,54.254214],[-9.441181,54.254283],[-9.441127,54.254382],[-9.441042,54.254526],[-9.441044,54.254579],[-9.44101,54.254579],[-9.440997,54.254601],[-9.441007,54.254637],[-9.441044,54.254768],[-9.441088,54.254977],[-9.441038,54.25506],[-9.440971,54.255172],[-9.440942,54.255201],[-9.440933,54.255209],[-9.440753,54.255388],[-9.440557,54.255552],[-9.440446,54.255699],[-9.440379,54.255791],[-9.440372,54.255801],[-9.440188,54.255885],[-9.44013,54.255911],[-9.439802,54.256075],[-9.439716,54.256127],[-9.439719,54.256212],[-9.439576,54.256214],[-9.439408,54.256317],[-9.439312,54.256355],[-9.439264,54.256374],[-9.439268,54.256487],[-9.43909,54.256489],[-9.438963,54.256604],[-9.438926,54.256657],[-9.438892,54.256705],[-9.438817,54.256735],[-9.438817,54.256762],[-9.438743,54.256763],[-9.438732,54.256767],[-9.438725,54.256771],[-9.438428,54.256919],[-9.438414,54.256968],[-9.438382,54.256988],[-9.438365,54.256999],[-9.438367,54.257037],[-9.438202,54.257039],[-9.43817,54.257051],[-9.438111,54.257074],[-9.438106,54.257084],[-9.438092,54.257109],[-9.438076,54.257213],[-9.438028,54.257282],[-9.437945,54.257307],[-9.437877,54.257328],[-9.437472,54.257469],[-9.437394,54.257505],[-9.437188,54.257599],[-9.437161,54.25762],[-9.437112,54.25766],[-9.4371,54.257747],[-9.437071,54.25782],[-9.437063,54.257828],[-9.437057,54.257835],[-9.43705,54.257842],[-9.437507,54.257841],[-9.437836,54.257845],[-9.437958,54.257873],[-9.43809,54.257871],[-9.438134,54.257871],[-9.438333,54.257835],[-9.438453,54.257835],[-9.438578,54.257835],[-9.438937,54.257926],[-9.439222,54.257991],[-9.439378,54.258041],[-9.439417,54.258081],[-9.439423,54.258087],[-9.439442,54.258127],[-9.440386,54.257865],[-9.441312,54.257564],[-9.442834,54.257089],[-9.444194,54.257876],[-9.44373,54.258135],[-9.442904,54.258598],[-9.441146,54.259592],[-9.44114,54.259595],[-9.43968,54.260417],[-9.439548,54.260526],[-9.439548,54.260526],[-9.439565,54.260594],[-9.439569,54.260607],[-9.439574,54.260633],[-9.439583,54.260673],[-9.439587,54.260685],[-9.43959,54.260696],[-9.439639,54.26089],[-9.439638,54.260902],[-9.439636,54.260935],[-9.439641,54.260935],[-9.439659,54.260936],[-9.439698,54.260937],[-9.439727,54.260938],[-9.439942,54.260922],[-9.440194,54.2609],[-9.440267,54.260904],[-9.440309,54.260906],[-9.440435,54.260963],[-9.440496,54.261001],[-9.440604,54.261068],[-9.441024,54.261311],[-9.441149,54.261367],[-9.441299,54.261444],[-9.441338,54.261451],[-9.441463,54.261475],[-9.441823,54.261507],[-9.442062,54.261525],[-9.44209,54.261527],[-9.442093,54.261545],[-9.442104,54.261624],[-9.442108,54.261663],[-9.442095,54.261832],[-9.442091,54.261889],[-9.44375,54.261564],[-9.444586,54.261401],[-9.445507,54.261211],[-9.447574,54.260787],[-9.448412,54.260611],[-9.449107,54.260465],[-9.449543,54.260354],[-9.449873,54.26027],[-9.451317,54.259929],[-9.451575,54.259867],[-9.452149,54.259692],[-9.452908,54.25946],[-9.453512,54.259286],[-9.454696,54.258945],[-9.456504,54.258436],[-9.456659,54.258392],[-9.456877,54.258331],[-9.458047,54.258004],[-9.458625,54.257843],[-9.461286,54.256605],[-9.460387,54.256099],[-9.459764,54.255749],[-9.458288,54.255],[-9.458252,54.254982],[-9.457935,54.254821],[-9.455577,54.253625],[-9.454289,54.252855],[-9.454115,54.252751],[-9.454016,54.252691],[-9.453764,54.252539],[-9.453404,54.252543],[-9.453413,54.252812],[-9.452953,54.252818],[-9.452962,54.253088],[-9.452042,54.253099],[-9.452032,54.252829],[-9.452493,54.252824],[-9.452483,54.252554],[-9.452943,54.252549],[-9.452934,54.252279],[-9.453325,54.252274],[-9.452921,54.252031],[-9.452609,54.251744],[-9.452455,54.251746],[-9.452464,54.252015],[-9.452004,54.252021],[-9.452013,54.25229],[-9.451553,54.252296],[-9.451563,54.252565],[-9.451572,54.252835],[-9.451112,54.25284],[-9.451121,54.25311],[-9.450661,54.253115],[-9.450671,54.253385],[-9.45021,54.25339],[-9.450201,54.253121],[-9.450192,54.252851],[-9.450182,54.252582],[-9.450642,54.252576],[-9.450633,54.252307],[-9.450623,54.252037],[-9.451084,54.252032],[-9.451074,54.251762],[-9.451534,54.251757],[-9.451525,54.251487],[-9.451515,54.251218],[-9.451506,54.250948],[-9.451046,54.250954],[-9.451036,54.250684],[-9.450116,54.250695],[-9.450106,54.250426],[-9.450097,54.250156],[-9.450088,54.249887],[-9.450453,54.249883],[-9.449588,54.249037],[-9.449517,54.249103],[-9.449493,54.249128],[-9.448685,54.249943],[-9.446507,54.251325],[-9.445894,54.251264],[-9.445672,54.25001],[-9.444466,54.2488],[-9.442884,54.249319]],[[-9.451582,54.253104],[-9.452042,54.253099],[-9.452061,54.253638],[-9.451601,54.253643],[-9.451582,54.253104]],[[-9.450258,54.254738],[-9.450267,54.255007],[-9.450277,54.255277],[-9.449816,54.255282],[-9.449826,54.255552],[-9.449366,54.255557],[-9.449375,54.255827],[-9.448455,54.255838],[-9.448464,54.256107],[-9.448004,54.256113],[-9.448013,54.256382],[-9.448023,54.256652],[-9.447562,54.256657],[-9.447553,54.256388],[-9.447093,54.256393],[-9.447102,54.256663],[-9.445721,54.256679],[-9.445712,54.25641],[-9.446172,54.256404],[-9.446163,54.256135],[-9.446623,54.256129],[-9.446614,54.25586],[-9.447534,54.255849],[-9.447525,54.255579],[-9.448445,54.255568],[-9.448436,54.255299],[-9.449356,54.255288],[-9.449347,54.255018],[-9.449807,54.255013],[-9.449798,54.254743],[-9.449788,54.254474],[-9.450709,54.254463],[-9.450718,54.254732],[-9.450258,54.254738]],[[-9.446472,54.251818],[-9.446491,54.252357],[-9.446031,54.252362],[-9.44604,54.252632],[-9.44558,54.252637],[-9.445571,54.252368],[-9.445552,54.251829],[-9.446472,54.251818]],[[-9.4465,54.252626],[-9.446491,54.252357],[-9.446951,54.252351],[-9.446961,54.252621],[-9.4465,54.252626]],[[-9.44667,54.257477],[-9.44621,54.257482],[-9.4462,54.257213],[-9.446661,54.257207],[-9.44667,54.257477]]],[[[-9.450725,54.250149],[-9.450551,54.249979],[-9.450557,54.250151],[-9.450725,54.250149]]]]}}]}
