{"type":"FeatureCollection","features":[{"type":"Feature","properties":{"source_fid":1933691,"county":"Donegal","bog_geom_ha":286.76245837631524,"low15_pct":62.256442489000626,"low15_ha":178.52810497909508,"overlay_ha":178.01558629797111,"area_delta":-0.51251868112396437},"geometry":{"type":"MultiPolygon","coordinates":[[[[-7.939504,54.778861],[-7.939606,54.778877],[-7.939671,54.778869],[-7.93973,54.778852],[-7.939756,54.778858],[-7.939773,54.778861],[-7.939792,54.778884],[-7.939812,54.778906],[-7.939836,54.778919],[-7.939887,54.778945],[-7.939939,54.778958],[-7.940036,54.778983],[-7.940184,54.779011],[-7.940234,54.779017],[-7.940302,54.779024],[-7.940328,54.779024],[-7.940404,54.779021],[-7.940788,54.778947],[-7.940869,54.778941],[-7.940928,54.778937],[-7.940993,54.778919],[-7.941019,54.778912],[-7.941054,54.778894],[-7.941076,54.778882],[-7.941077,54.77888],[-7.941103,54.778841],[-7.941115,54.778831],[-7.941124,54.778824],[-7.941169,54.778805],[-7.941198,54.778793],[-7.941244,54.778773],[-7.941284,54.778764],[-7.94145,54.778728],[-7.941556,54.778726],[-7.941664,54.778756],[-7.941688,54.778783],[-7.941708,54.778805],[-7.941725,54.778827],[-7.941733,54.778838],[-7.941784,54.778895],[-7.941817,54.778927],[-7.941818,54.77897],[-7.941823,54.778982],[-7.941842,54.779039],[-7.941874,54.779077],[-7.941897,54.779104],[-7.941981,54.779151],[-7.942048,54.779227],[-7.942159,54.779283],[-7.94223,54.779318],[-7.94241,54.779386],[-7.942614,54.779481],[-7.942641,54.779487],[-7.942663,54.779492],[-7.942708,54.779483],[-7.94275,54.779475],[-7.942768,54.779465],[-7.94285,54.779422],[-7.942918,54.779386],[-7.943034,54.779357],[-7.943225,54.779372],[-7.943336,54.779376],[-7.943337,54.778593],[-7.944891,54.778594],[-7.944893,54.777695],[-7.946447,54.777696],[-7.946446,54.778298],[-7.946841,54.778299],[-7.94684,54.778568],[-7.946446,54.778568],[-7.946446,54.778594],[-7.948,54.778595],[-7.948001,54.777697],[-7.948707,54.777697],[-7.948707,54.777491],[-7.947774,54.77749],[-7.947775,54.777221],[-7.947775,54.776951],[-7.947309,54.776951],[-7.947309,54.776412],[-7.946843,54.776412],[-7.946844,54.776142],[-7.946377,54.776142],[-7.946378,54.775872],[-7.946844,54.775873],[-7.946844,54.775603],[-7.946845,54.775334],[-7.945912,54.775333],[-7.945912,54.775603],[-7.944047,54.775602],[-7.944046,54.775898],[-7.944895,54.775899],[-7.944894,54.776797],[-7.94334,54.776796],[-7.943341,54.776141],[-7.942647,54.77614],[-7.942647,54.77641],[-7.94218,54.77641],[-7.942181,54.77614],[-7.941714,54.77614],[-7.941715,54.775601],[-7.941716,54.775331],[-7.941249,54.775331],[-7.94125,54.775061],[-7.94125,54.774999],[-7.940235,54.774998],[-7.940237,54.773713],[-7.939853,54.773713],[-7.939854,54.773174],[-7.939854,54.772904],[-7.939855,54.772365],[-7.938922,54.772365],[-7.938922,54.772303],[-7.938685,54.772303],[-7.938685,54.772095],[-7.938457,54.772095],[-7.938457,54.771826],[-7.937524,54.771825],[-7.937525,54.771556],[-7.937525,54.771286],[-7.937141,54.771286],[-7.937086,54.771319],[-7.937044,54.77139],[-7.937045,54.771441],[-7.937107,54.771472],[-7.937105,54.771503],[-7.937093,54.771522],[-7.937048,54.771544],[-7.937043,54.771568],[-7.937038,54.771583],[-7.937063,54.771681],[-7.937021,54.771696],[-7.936983,54.771722],[-7.93698,54.771743],[-7.936975,54.771764],[-7.936912,54.771773],[-7.936787,54.771805],[-7.936639,54.771862],[-7.936593,54.771882],[-7.936554,54.771876],[-7.936534,54.77185],[-7.936523,54.771814],[-7.93649,54.771806],[-7.936366,54.771797],[-7.936247,54.771802],[-7.936176,54.771827],[-7.936052,54.771855],[-7.935971,54.771888],[-7.935903,54.77189],[-7.935746,54.771962],[-7.935622,54.77202],[-7.935593,54.772065],[-7.935503,54.772127],[-7.935413,54.772149],[-7.935412,54.77219],[-7.935382,54.772232],[-7.935343,54.772252],[-7.935298,54.772262],[-7.935207,54.772274],[-7.935007,54.772331],[-7.93499,54.772352],[-7.934953,54.772421],[-7.934923,54.77253],[-7.934886,54.772617],[-7.934852,54.772665],[-7.934853,54.772688],[-7.934898,54.77273],[-7.934882,54.772746],[-7.934865,54.772754],[-7.93482,54.772757],[-7.934728,54.772798],[-7.93469,54.772837],[-7.934679,54.772877],[-7.934617,54.772913],[-7.934567,54.772958],[-7.934529,54.77298],[-7.934503,54.772998],[-7.934467,54.77302],[-7.934435,54.773056],[-7.934421,54.773096],[-7.934415,54.773104],[-7.934377,54.773151],[-7.934199,54.773243],[-7.933917,54.773406],[-7.933674,54.773515],[-7.933317,54.773665],[-7.933283,54.773665],[-7.93324,54.773671],[-7.933202,54.773681],[-7.933091,54.773746],[-7.932959,54.773832],[-7.932887,54.773902],[-7.932711,54.774034],[-7.93256,54.774128],[-7.932369,54.774268],[-7.932304,54.774318],[-7.932289,54.774351],[-7.932294,54.774366],[-7.932302,54.774388],[-7.932292,54.774403],[-7.932271,54.774417],[-7.932214,54.774429],[-7.932166,54.774438],[-7.93212,54.774475],[-7.932044,54.774537],[-7.931946,54.77458],[-7.931877,54.774631],[-7.931729,54.774777],[-7.93173,54.774793],[-7.931748,54.774816],[-7.931799,54.774844],[-7.931825,54.774871],[-7.931957,54.774928],[-7.932095,54.775017],[-7.932106,54.775102],[-7.932065,54.775213],[-7.932071,54.775292],[-7.932106,54.775333],[-7.932157,54.775366],[-7.932164,54.775382],[-7.932161,54.775402],[-7.932141,54.775438],[-7.932117,54.775461],[-7.932108,54.77549],[-7.932122,54.77551],[-7.932122,54.77551],[-7.932204,54.775524],[-7.932271,54.775535],[-7.932321,54.775534],[-7.93242,54.775535],[-7.932421,54.775535],[-7.932424,54.775535],[-7.932521,54.775531],[-7.932587,54.775538],[-7.932656,54.77556],[-7.932679,54.775567],[-7.9327,54.775571],[-7.932724,54.775575],[-7.932778,54.775579],[-7.932835,54.775583],[-7.9329,54.775585],[-7.932902,54.775586],[-7.932962,54.7756],[-7.932994,54.775604],[-7.933041,54.775605],[-7.933067,54.775599],[-7.933073,54.775597],[-7.933144,54.775576],[-7.93319,54.775575],[-7.933235,54.775575],[-7.933258,54.775575],[-7.933303,54.775576],[-7.933372,54.77556],[-7.933405,54.775546],[-7.933459,54.775521],[-7.933523,54.775523],[-7.93361,54.775524],[-7.933633,54.775528],[-7.933651,54.775531],[-7.933661,54.775539],[-7.933679,54.775555],[-7.933703,54.775586],[-7.933705,54.775587],[-7.933776,54.775652],[-7.933798,54.775661],[-7.93383,54.775675],[-7.934072,54.775748],[-7.93416,54.77578],[-7.934216,54.775806],[-7.934246,54.775821],[-7.934346,54.775898],[-7.934466,54.775989],[-7.934485,54.776003],[-7.934519,54.776027],[-7.934524,54.776031],[-7.934529,54.776034],[-7.934634,54.776106],[-7.934671,54.776132],[-7.934789,54.776217],[-7.934967,54.776347],[-7.934978,54.776347],[-7.935021,54.776347],[-7.935101,54.776349],[-7.935182,54.776343],[-7.935325,54.776331],[-7.935469,54.776321],[-7.935595,54.776299],[-7.935629,54.776293],[-7.935687,54.776287],[-7.935781,54.776277],[-7.935847,54.776297],[-7.935854,54.776299],[-7.935988,54.776341],[-7.936185,54.776416],[-7.936225,54.776419],[-7.936319,54.776428],[-7.93637,54.776428],[-7.936422,54.776429],[-7.936457,54.776461],[-7.936487,54.776501],[-7.936517,54.77654],[-7.936581,54.77659],[-7.936625,54.776626],[-7.936785,54.776749],[-7.936799,54.77677],[-7.9368,54.776772],[-7.936795,54.776833],[-7.936796,54.776841],[-7.936807,54.776946],[-7.93705,54.776946],[-7.93705,54.777217],[-7.937098,54.777245],[-7.937148,54.777262],[-7.937205,54.777282],[-7.937288,54.777312],[-7.937335,54.77733],[-7.937375,54.777355],[-7.937395,54.777374],[-7.93741,54.777388],[-7.937461,54.777462],[-7.937472,54.777485],[-7.937516,54.777485],[-7.937515,54.777674],[-7.937533,54.777694],[-7.937552,54.777715],[-7.937597,54.77774],[-7.937621,54.77775],[-7.937631,54.777755],[-7.937982,54.777755],[-7.937981,54.777862],[-7.937992,54.777865],[-7.9381,54.777935],[-7.938204,54.777989],[-7.938251,54.778003],[-7.938321,54.778025],[-7.938448,54.778025],[-7.938447,54.778064],[-7.938587,54.778106],[-7.938628,54.778118],[-7.938655,54.778126],[-7.938748,54.778227],[-7.938925,54.778292],[-7.939052,54.778364],[-7.939112,54.778416],[-7.939173,54.778469],[-7.939173,54.778469],[-7.939167,54.778519],[-7.939184,54.778564],[-7.939379,54.778565],[-7.939379,54.778813],[-7.939504,54.778861]],[[-7.938682,54.774099],[-7.937128,54.774098],[-7.93713,54.7732],[-7.938684,54.773201],[-7.938682,54.774099]],[[-7.939385,54.774791],[-7.939386,54.774252],[-7.939852,54.774252],[-7.939851,54.774791],[-7.939385,54.774791]],[[-7.944043,54.778297],[-7.944043,54.778028],[-7.94451,54.778028],[-7.944509,54.778297],[-7.944043,54.778297]]],[[[-7.9386,54.770196],[-7.93859,54.770208],[-7.938926,54.770208],[-7.938926,54.769939],[-7.939392,54.769939],[-7.939393,54.76967],[-7.939037,54.769669],[-7.938944,54.769786],[-7.938824,54.769889],[-7.938693,54.770088],[-7.9386,54.770196]]],[[[-7.94035,54.768976],[-7.940326,54.768989],[-7.940326,54.769131],[-7.940792,54.769131],[-7.940793,54.768779],[-7.940702,54.768825],[-7.94058,54.768858],[-7.940455,54.768931],[-7.94035,54.768976]]],[[[-7.943543,54.768029],[-7.943479,54.768054],[-7.943591,54.768054],[-7.94359,54.768324],[-7.94359,54.768593],[-7.944056,54.768594],[-7.944056,54.768712],[-7.944905,54.768712],[-7.944904,54.769133],[-7.944988,54.769133],[-7.944988,54.769403],[-7.945454,54.769403],[-7.945453,54.769673],[-7.94592,54.769673],[-7.945919,54.769942],[-7.945919,54.770212],[-7.945918,54.770481],[-7.946385,54.770482],[-7.946385,54.77051],[-7.946456,54.77051],[-7.946456,54.771021],[-7.94685,54.771021],[-7.94685,54.77129],[-7.947782,54.771291],[-7.947782,54.77156],[-7.949181,54.771561],[-7.94918,54.77183],[-7.949647,54.771831],[-7.949647,54.771561],[-7.950113,54.771561],[-7.950113,54.771292],[-7.95058,54.771292],[-7.95058,54.770753],[-7.950114,54.770753],[-7.950114,54.771022],[-7.949648,54.771022],[-7.949648,54.770753],[-7.949182,54.770752],[-7.949182,54.770213],[-7.948716,54.770213],[-7.948716,54.769943],[-7.948717,54.769674],[-7.948251,54.769674],[-7.948251,54.769404],[-7.948252,54.768865],[-7.948718,54.768865],[-7.948717,54.769404],[-7.949183,54.769405],[-7.949183,54.769674],[-7.949649,54.769674],[-7.949649,54.769944],[-7.950581,54.769944],[-7.950582,54.769405],[-7.951048,54.769405],[-7.951049,54.768866],[-7.951515,54.768866],[-7.951514,54.769406],[-7.951514,54.769945],[-7.951513,54.770214],[-7.951513,54.770753],[-7.951512,54.771292],[-7.951512,54.771562],[-7.951046,54.771562],[-7.951045,54.771831],[-7.950579,54.771831],[-7.950579,54.772101],[-7.951511,54.772101],[-7.951511,54.772308],[-7.952669,54.772309],[-7.952668,54.773207],[-7.951114,54.773207],[-7.951115,54.77237],[-7.951045,54.77237],[-7.951044,54.772909],[-7.950111,54.772909],[-7.950111,54.773179],[-7.949645,54.773178],[-7.949644,54.773717],[-7.949644,54.773987],[-7.95011,54.773987],[-7.95011,54.774104],[-7.951043,54.774105],[-7.951043,54.773988],[-7.951509,54.773988],[-7.951509,54.774257],[-7.952441,54.774258],[-7.952441,54.773988],[-7.952908,54.773988],[-7.952907,54.774258],[-7.952907,54.774527],[-7.952907,54.774797],[-7.952906,54.775067],[-7.953839,54.775067],[-7.953839,54.774797],[-7.95384,54.774528],[-7.954306,54.774528],[-7.954306,54.774258],[-7.954772,54.774259],[-7.954773,54.77372],[-7.955239,54.77372],[-7.95524,54.77345],[-7.95524,54.773181],[-7.954774,54.77318],[-7.954774,54.772911],[-7.954308,54.772911],[-7.954309,54.772102],[-7.953842,54.772102],[-7.953843,54.771563],[-7.953377,54.771563],[-7.953377,54.771024],[-7.952911,54.771023],[-7.952911,54.770754],[-7.952912,54.770484],[-7.952446,54.770484],[-7.952446,54.770215],[-7.952912,54.770215],[-7.952912,54.769945],[-7.952446,54.769945],[-7.952447,54.769406],[-7.952447,54.769136],[-7.951981,54.769136],[-7.951981,54.768867],[-7.951982,54.768597],[-7.951982,54.768328],[-7.95338,54.768328],[-7.95338,54.768598],[-7.953846,54.768598],[-7.953846,54.768867],[-7.954778,54.768868],[-7.954779,54.768598],[-7.954313,54.768598],[-7.954313,54.768328],[-7.954313,54.768059],[-7.954779,54.768059],[-7.95478,54.76779],[-7.955246,54.76779],[-7.955246,54.76752],[-7.955246,54.767251],[-7.95478,54.76725],[-7.954781,54.766981],[-7.954314,54.766981],[-7.954314,54.76725],[-7.953848,54.76725],[-7.953848,54.76752],[-7.953381,54.767519],[-7.953381,54.767789],[-7.952915,54.767789],[-7.952915,54.768058],[-7.952448,54.768058],[-7.952449,54.767789],[-7.951516,54.767788],[-7.951517,54.767519],[-7.951983,54.767519],[-7.951983,54.767249],[-7.952449,54.76725],[-7.95245,54.76698],[-7.953848,54.766981],[-7.953849,54.766711],[-7.954315,54.766711],[-7.954315,54.766442],[-7.955247,54.766442],[-7.955248,54.765903],[-7.955714,54.765903],[-7.955714,54.765634],[-7.955715,54.765364],[-7.956647,54.765364],[-7.956647,54.765634],[-7.957113,54.765634],[-7.957113,54.765365],[-7.958046,54.765365],[-7.958045,54.765634],[-7.958511,54.765635],[-7.958512,54.765365],[-7.958512,54.765095],[-7.958512,54.764826],[-7.958978,54.764826],[-7.958979,54.764557],[-7.959445,54.764557],[-7.959445,54.764826],[-7.959911,54.764826],[-7.95991,54.765096],[-7.960377,54.765096],[-7.960377,54.764827],[-7.960377,54.764557],[-7.960377,54.764418],[-7.960214,54.764227],[-7.958893,54.764227],[-7.958894,54.762773],[-7.958852,54.762718],[-7.958793,54.762619],[-7.958782,54.762564],[-7.958742,54.762523],[-7.95872,54.762451],[-7.958705,54.76243],[-7.957341,54.762429],[-7.957342,54.761531],[-7.954235,54.76153],[-7.954234,54.762428],[-7.952681,54.762428],[-7.952679,54.764224],[-7.951521,54.764224],[-7.95152,54.764554],[-7.95152,54.764823],[-7.951986,54.764823],[-7.951986,54.764554],[-7.954317,54.764555],[-7.954317,54.764824],[-7.954783,54.764825],[-7.954783,54.765094],[-7.954317,54.765094],[-7.954316,54.765363],[-7.953384,54.765363],[-7.953384,54.765633],[-7.952917,54.765632],[-7.952917,54.765902],[-7.951985,54.765902],[-7.951984,54.766171],[-7.950586,54.766171],[-7.950586,54.76644],[-7.949187,54.76644],[-7.949187,54.766709],[-7.948254,54.766709],[-7.948255,54.766439],[-7.948255,54.76617],[-7.948721,54.76617],[-7.948722,54.7659],[-7.948722,54.765631],[-7.949188,54.765631],[-7.949188,54.765361],[-7.948722,54.765361],[-7.948723,54.765121],[-7.948017,54.765121],[-7.948018,54.764552],[-7.945987,54.764551],[-7.945926,54.764638],[-7.945926,54.764821],[-7.945798,54.764821],[-7.945751,54.764889],[-7.945702,54.764994],[-7.945706,54.765111],[-7.94571,54.765452],[-7.94577,54.765891],[-7.945847,54.766213],[-7.945996,54.766427],[-7.946206,54.766619],[-7.946427,54.766806],[-7.946581,54.766917],[-7.94665,54.767031],[-7.946706,54.767094],[-7.946703,54.767136],[-7.946692,54.767166],[-7.946617,54.767209],[-7.94643,54.767282],[-7.946365,54.767316],[-7.946177,54.767407],[-7.945976,54.767476],[-7.945839,54.767533],[-7.945734,54.767549],[-7.945626,54.76758],[-7.94552,54.767598],[-7.945326,54.767612],[-7.945133,54.767625],[-7.944909,54.767649],[-7.944746,54.767699],[-7.944605,54.767738],[-7.944513,54.767785],[-7.944365,54.767823],[-7.944244,54.767824],[-7.944122,54.767841],[-7.944045,54.76789],[-7.943935,54.767939],[-7.94376,54.767979],[-7.943543,54.768029]],[[-7.94801,54.77051],[-7.946456,54.77051],[-7.946457,54.769611],[-7.948011,54.769612],[-7.94801,54.77051]],[[-7.946459,54.768713],[-7.944905,54.768712],[-7.944906,54.767814],[-7.94646,54.767815],[-7.946459,54.768713]],[[-7.952919,54.764015],[-7.95292,54.763746],[-7.953386,54.763746],[-7.953385,54.764015],[-7.952919,54.764015]],[[-7.947323,54.766169],[-7.946857,54.766169],[-7.946857,54.7659],[-7.946391,54.765899],[-7.946391,54.76563],[-7.94779,54.76563],[-7.947789,54.7659],[-7.947323,54.7659],[-7.947323,54.766169]]],[[[-7.949572,54.764223],[-7.949571,54.764553],[-7.950122,54.764553],[-7.950122,54.764223],[-7.949572,54.764223]]],[[[-7.964828,54.770277],[-7.964754,54.770219],[-7.964101,54.770219],[-7.964101,54.770488],[-7.964567,54.770488],[-7.964567,54.771027],[-7.964566,54.771836],[-7.964566,54.772375],[-7.964099,54.772375],[-7.964099,54.772644],[-7.964099,54.773184],[-7.963166,54.773183],[-7.963167,54.772644],[-7.9627,54.772644],[-7.962701,54.772374],[-7.962701,54.771835],[-7.963167,54.771836],[-7.963168,54.771027],[-7.963634,54.771027],[-7.963635,54.770488],[-7.963169,54.770488],[-7.963169,54.770218],[-7.962703,54.770218],[-7.962703,54.769679],[-7.963169,54.769679],[-7.96317,54.76941],[-7.96317,54.76914],[-7.96317,54.768871],[-7.962704,54.76887],[-7.962704,54.768601],[-7.962238,54.768601],[-7.962238,54.768331],[-7.961306,54.768331],[-7.961306,54.768061],[-7.958509,54.76806],[-7.958509,54.767791],[-7.957577,54.767791],[-7.957577,54.76806],[-7.956178,54.76806],[-7.956178,54.768329],[-7.955711,54.768329],[-7.955711,54.768599],[-7.955245,54.768598],[-7.955245,54.768868],[-7.955244,54.769137],[-7.955244,54.769407],[-7.95571,54.769407],[-7.95571,54.769946],[-7.955709,54.770216],[-7.955709,54.770485],[-7.956175,54.770485],[-7.956175,54.770755],[-7.956641,54.770755],[-7.956641,54.771025],[-7.955709,54.771024],[-7.955708,54.771564],[-7.956174,54.771564],[-7.956174,54.772103],[-7.956173,54.772911],[-7.956639,54.772912],[-7.956639,54.773181],[-7.956638,54.773451],[-7.957105,54.773451],[-7.957105,54.773181],[-7.957105,54.772642],[-7.957106,54.771834],[-7.95664,54.771833],[-7.95664,54.771564],[-7.956641,54.771294],[-7.957573,54.771295],[-7.957573,54.771564],[-7.958039,54.771564],[-7.95804,54.771025],[-7.958506,54.771025],[-7.958506,54.770486],[-7.959439,54.770487],[-7.959438,54.771026],[-7.959438,54.771565],[-7.959438,54.771834],[-7.959437,54.772643],[-7.960369,54.772643],[-7.960369,54.773182],[-7.960835,54.773183],[-7.960834,54.773722],[-7.961301,54.773722],[-7.9613,54.77453],[-7.9613,54.7748],[-7.961766,54.7748],[-7.961766,54.77507],[-7.961765,54.775339],[-7.961765,54.775609],[-7.961299,54.775609],[-7.961299,54.775878],[-7.960832,54.775878],[-7.960832,54.776148],[-7.960366,54.776147],[-7.960366,54.776417],[-7.959899,54.776417],[-7.959899,54.776686],[-7.959433,54.776686],[-7.959432,54.776956],[-7.958966,54.776956],[-7.958966,54.777225],[-7.9585,54.777225],[-7.958499,54.777494],[-7.958033,54.777494],[-7.958033,54.777764],[-7.957566,54.777764],[-7.957566,54.778033],[-7.957566,54.778303],[-7.957099,54.778303],[-7.957099,54.778572],[-7.957099,54.778842],[-7.955234,54.778841],[-7.955233,54.779111],[-7.952435,54.779109],[-7.952435,54.779379],[-7.951969,54.779379],[-7.951969,54.779109],[-7.951036,54.779109],[-7.951037,54.778839],[-7.949638,54.778839],[-7.949638,54.778596],[-7.948,54.778595],[-7.947998,54.779493],[-7.946444,54.779493],[-7.946446,54.778594],[-7.946374,54.778594],[-7.946374,54.778837],[-7.945441,54.778837],[-7.945441,54.778594],[-7.944891,54.778594],[-7.94489,54.779465],[-7.944953,54.779475],[-7.945099,54.779496],[-7.945153,54.779512],[-7.945207,54.779527],[-7.945281,54.779581],[-7.945355,54.779635],[-7.945355,54.779635],[-7.945355,54.779635],[-7.945356,54.779674],[-7.945514,54.779751],[-7.945685,54.779802],[-7.945719,54.779817],[-7.945768,54.77984],[-7.945802,54.779837],[-7.945865,54.779831],[-7.945887,54.779829],[-7.945945,54.779823],[-7.946097,54.779809],[-7.946281,54.779752],[-7.946429,54.779706],[-7.946573,54.779694],[-7.946805,54.779677],[-7.946908,54.779669],[-7.946998,54.779664],[-7.947148,54.779655],[-7.947198,54.779678],[-7.947229,54.779685],[-7.94727,54.779695],[-7.947365,54.779803],[-7.94738,54.779819],[-7.94752,54.779873],[-7.947608,54.77991],[-7.947696,54.779948],[-7.947825,54.780025],[-7.947948,54.780104],[-7.948023,54.780147],[-7.948071,54.780166],[-7.948175,54.780206],[-7.948211,54.780216],[-7.948229,54.780221],[-7.948258,54.780221],[-7.948316,54.78022],[-7.948337,54.78021],[-7.948393,54.780184],[-7.948406,54.780115],[-7.948414,54.780089],[-7.948428,54.780044],[-7.948611,54.779915],[-7.94866,54.779833],[-7.948722,54.779729],[-7.948778,54.779677],[-7.948801,54.779656],[-7.94882,54.779647],[-7.948905,54.779607],[-7.948986,54.779593],[-7.949045,54.779605],[-7.949123,54.77962],[-7.94916,54.779625],[-7.949223,54.779634],[-7.949286,54.779623],[-7.949347,54.779613],[-7.949473,54.779606],[-7.949541,54.779603],[-7.949756,54.779621],[-7.949834,54.779619],[-7.949864,54.779618],[-7.949864,54.779618],[-7.949864,54.779618],[-7.94987,54.77962],[-7.949899,54.779628],[-7.949897,54.779636],[-7.949892,54.779651],[-7.949902,54.779675],[-7.949911,54.77969],[-7.949922,54.779707],[-7.949939,54.779726],[-7.949957,54.779749],[-7.949987,54.779787],[-7.949994,54.779826],[-7.949996,54.779838],[-7.950013,54.77989],[-7.950007,54.779907],[-7.950015,54.779919],[-7.950029,54.779941],[-7.950049,54.779969],[-7.950074,54.78],[-7.950117,54.780052],[-7.950118,54.780073],[-7.950119,54.78009],[-7.950118,54.780091],[-7.950103,54.780098],[-7.950081,54.780118],[-7.950058,54.78014],[-7.950031,54.780171],[-7.95002,54.780183],[-7.950017,54.780201],[-7.950012,54.780227],[-7.950012,54.780255],[-7.950018,54.780261],[-7.950032,54.780274],[-7.950096,54.780315],[-7.950103,54.78032],[-7.950146,54.780338],[-7.950196,54.78036],[-7.950216,54.780415],[-7.950223,54.780433],[-7.950276,54.780546],[-7.950354,54.780602],[-7.950438,54.780641],[-7.95045,54.780646],[-7.950531,54.780663],[-7.950665,54.780679],[-7.950677,54.78068],[-7.950771,54.780689],[-7.950828,54.780668],[-7.951017,54.780626],[-7.951103,54.780618],[-7.951142,54.780628],[-7.951181,54.780638],[-7.951322,54.780723],[-7.951391,54.780765],[-7.951545,54.780833],[-7.951648,54.780851],[-7.951758,54.78087],[-7.951884,54.780824],[-7.951972,54.780802],[-7.952132,54.780826],[-7.952241,54.780871],[-7.952432,54.780913],[-7.952668,54.780948],[-7.952828,54.78097],[-7.952894,54.780996],[-7.952956,54.780999],[-7.953136,54.780938],[-7.953257,54.780895],[-7.953353,54.780871],[-7.953619,54.780959],[-7.95376,54.780986],[-7.953928,54.781003],[-7.954012,54.78105],[-7.954089,54.781089],[-7.954129,54.781114],[-7.954204,54.781139],[-7.954318,54.781164],[-7.954422,54.781162],[-7.954526,54.781176],[-7.954578,54.781182],[-7.954694,54.781194],[-7.954879,54.781199],[-7.955095,54.781187],[-7.955294,54.781176],[-7.955531,54.781123],[-7.955654,54.781093],[-7.955795,54.781087],[-7.955973,54.781016],[-7.956076,54.780972],[-7.956208,54.780946],[-7.956326,54.780929],[-7.956434,54.780924],[-7.956543,54.78095],[-7.956634,54.780954],[-7.956666,54.780963],[-7.956727,54.780991],[-7.956808,54.781014],[-7.956868,54.781038],[-7.956935,54.781055],[-7.956995,54.781082],[-7.956988,54.781109],[-7.956996,54.781132],[-7.957033,54.781157],[-7.957142,54.78119],[-7.95726,54.781209],[-7.957445,54.781255],[-7.95766,54.78129],[-7.957811,54.781412],[-7.957862,54.781513],[-7.957842,54.78158],[-7.957821,54.781638],[-7.957857,54.781705],[-7.957975,54.781739],[-7.958089,54.781837],[-7.958177,54.781905],[-7.958434,54.781983],[-7.958739,54.781985],[-7.958841,54.782028],[-7.958834,54.782192],[-7.958874,54.782192],[-7.958875,54.781294],[-7.961983,54.781295],[-7.961983,54.782193],[-7.968199,54.782195],[-7.968199,54.783093],[-7.969753,54.783094],[-7.969752,54.783992],[-7.967066,54.783991],[-7.967061,54.784027],[-7.967037,54.784055],[-7.967007,54.784119],[-7.967011,54.784151],[-7.967002,54.784193],[-7.967022,54.784241],[-7.96707,54.784263],[-7.967165,54.784303],[-7.967357,54.784369],[-7.967379,54.784367],[-7.967465,54.784365],[-7.967602,54.784377],[-7.967711,54.784401],[-7.967866,54.784446],[-7.967866,54.784487],[-7.967899,54.784512],[-7.96795,54.784551],[-7.967985,54.784572],[-7.968044,54.784574],[-7.968115,54.784592],[-7.968191,54.784598],[-7.968439,54.784658],[-7.968612,54.784679],[-7.968673,54.784684],[-7.968727,54.784735],[-7.968698,54.784777],[-7.968714,54.78479],[-7.968793,54.784821],[-7.96885,54.784861],[-7.968905,54.78493],[-7.968867,54.784944],[-7.968882,54.784993],[-7.968877,54.785079],[-7.968942,54.785112],[-7.969018,54.785154],[-7.969151,54.785169],[-7.969202,54.785171],[-7.969268,54.785154],[-7.969273,54.785108],[-7.969304,54.785079],[-7.969412,54.785044],[-7.969503,54.785007],[-7.969574,54.784977],[-7.969671,54.784994],[-7.969695,54.784991],[-7.969706,54.784631],[-7.969794,54.784368],[-7.969952,54.784221],[-7.970022,54.784084],[-7.970165,54.784129],[-7.97028,54.784159],[-7.970461,54.784101],[-7.970601,54.78411],[-7.970693,54.784072],[-7.970605,54.78398],[-7.970536,54.783898],[-7.970464,54.783779],[-7.970461,54.783692],[-7.970444,54.783606],[-7.970422,54.783473],[-7.970537,54.783404],[-7.970648,54.783355],[-7.970583,54.783295],[-7.970552,54.783275],[-7.970551,54.783273],[-7.970549,54.783272],[-7.970547,54.783271],[-7.970545,54.78327],[-7.970543,54.783268],[-7.970541,54.783267],[-7.97054,54.783266],[-7.970538,54.783265],[-7.970536,54.783263],[-7.970535,54.783262],[-7.970533,54.783261],[-7.970531,54.783259],[-7.970529,54.783258],[-7.970528,54.783257],[-7.970526,54.783255],[-7.970524,54.783254],[-7.970523,54.783253],[-7.970521,54.783251],[-7.97052,54.78325],[-7.970518,54.783249],[-7.970516,54.783247],[-7.970515,54.783246],[-7.970513,54.783244],[-7.970512,54.783243],[-7.97051,54.783242],[-7.970509,54.78324],[-7.970429,54.783166],[-7.970428,54.783164],[-7.970426,54.783163],[-7.970425,54.783162],[-7.970423,54.78316],[-7.970422,54.783159],[-7.970421,54.783157],[-7.970419,54.783156],[-7.970418,54.783155],[-7.970417,54.783153],[-7.970415,54.783152],[-7.970414,54.783151],[-7.970413,54.783149],[-7.970411,54.783148],[-7.97041,54.783146],[-7.970409,54.783145],[-7.970371,54.783101],[-7.970341,54.783071],[-7.970316,54.783054],[-7.970314,54.783052],[-7.970312,54.783051],[-7.97031,54.78305],[-7.970308,54.783049],[-7.970307,54.783047],[-7.970305,54.783046],[-7.970303,54.783045],[-7.970301,54.783043],[-7.9703,54.783042],[-7.970298,54.783041],[-7.970296,54.783039],[-7.970295,54.783038],[-7.970293,54.783037],[-7.970291,54.783035],[-7.97029,54.783034],[-7.970288,54.783032],[-7.970286,54.783031],[-7.970285,54.78303],[-7.970283,54.783028],[-7.970282,54.783027],[-7.97028,54.783026],[-7.970279,54.783024],[-7.970277,54.783023],[-7.970276,54.783021],[-7.970274,54.78302],[-7.970273,54.783019],[-7.970271,54.783017],[-7.97027,54.783016],[-7.970241,54.782987],[-7.970204,54.782965],[-7.97017,54.782953],[-7.970168,54.782952],[-7.970166,54.782951],[-7.970163,54.78295],[-7.970161,54.782949],[-7.970159,54.782948],[-7.970156,54.782948],[-7.970154,54.782947],[-7.970152,54.782946],[-7.970149,54.782945],[-7.970147,54.782944],[-7.970145,54.782943],[-7.970143,54.782942],[-7.97014,54.782941],[-7.970138,54.78294],[-7.970136,54.782939],[-7.970134,54.782938],[-7.970132,54.782937],[-7.970129,54.782936],[-7.970127,54.782935],[-7.970125,54.782934],[-7.970123,54.782933],[-7.970121,54.782932],[-7.970119,54.782931],[-7.970116,54.78293],[-7.970114,54.782929],[-7.970112,54.782927],[-7.97011,54.782926],[-7.970108,54.782925],[-7.970106,54.782924],[-7.970104,54.782923],[-7.970102,54.782922],[-7.9701,54.782921],[-7.96999,54.78286],[-7.969988,54.782859],[-7.969986,54.782858],[-7.969984,54.782857],[-7.969982,54.782856],[-7.96998,54.782855],[-7.969978,54.782853],[-7.969976,54.782852],[-7.969974,54.782851],[-7.969972,54.78285],[-7.96997,54.782849],[-7.969968,54.782848],[-7.969966,54.782846],[-7.969964,54.782845],[-7.969962,54.782844],[-7.969961,54.782843],[-7.969959,54.782842],[-7.969957,54.78284],[-7.969955,54.782839],[-7.969953,54.782838],[-7.969952,54.782837],[-7.96995,54.782836],[-7.969948,54.782834],[-7.969946,54.782833],[-7.969945,54.782832],[-7.969943,54.78283],[-7.969941,54.782829],[-7.969855,54.782764],[-7.969854,54.782763],[-7.969852,54.782762],[-7.96985,54.782761],[-7.969849,54.782759],[-7.969847,54.782758],[-7.969845,54.782757],[-7.969844,54.782755],[-7.969842,54.782754],[-7.96984,54.782753],[-7.969839,54.782751],[-7.969837,54.78275],[-7.969836,54.782749],[-7.969834,54.782747],[-7.969833,54.782746],[-7.969831,54.782745],[-7.96983,54.782743],[-7.969828,54.782742],[-7.969773,54.782691],[-7.969772,54.782689],[-7.969771,54.782688],[-7.969769,54.782686],[-7.969768,54.782685],[-7.969766,54.782684],[-7.969765,54.782682],[-7.969764,54.782681],[-7.969762,54.782679],[-7.969761,54.782678],[-7.96976,54.782676],[-7.969758,54.782675],[-7.969757,54.782674],[-7.969699,54.78261],[-7.969698,54.782609],[-7.969697,54.782608],[-7.969696,54.782606],[-7.969695,54.782605],[-7.969578,54.782468],[-7.969515,54.782408],[-7.969427,54.782338],[-7.969264,54.782247],[-7.969262,54.782246],[-7.96926,54.782245],[-7.969258,54.782244],[-7.969256,54.782243],[-7.969254,54.782242],[-7.969252,54.78224],[-7.96925,54.782239],[-7.969248,54.782238],[-7.969246,54.782237],[-7.969244,54.782236],[-7.969242,54.782234],[-7.96924,54.782233],[-7.969239,54.782232],[-7.969237,54.782231],[-7.969235,54.78223],[-7.969233,54.782228],[-7.969231,54.782227],[-7.969229,54.782226],[-7.969228,54.782225],[-7.969226,54.782223],[-7.969224,54.782222],[-7.969017,54.782074],[-7.969015,54.782072],[-7.969014,54.782071],[-7.969012,54.78207],[-7.96901,54.782069],[-7.969009,54.782067],[-7.969007,54.782066],[-7.969005,54.782065],[-7.969004,54.782063],[-7.969002,54.782062],[-7.969,54.782061],[-7.968999,54.782059],[-7.968997,54.782058],[-7.968995,54.782057],[-7.968994,54.782055],[-7.968992,54.782054],[-7.968991,54.782053],[-7.968989,54.782051],[-7.968988,54.78205],[-7.968986,54.782049],[-7.968985,54.782047],[-7.968983,54.782046],[-7.968982,54.782044],[-7.96898,54.782043],[-7.968979,54.782042],[-7.968977,54.78204],[-7.968976,54.782039],[-7.968975,54.782037],[-7.968973,54.782036],[-7.968972,54.782035],[-7.96897,54.782033],[-7.968969,54.782032],[-7.968968,54.78203],[-7.968966,54.782029],[-7.968965,54.782027],[-7.968964,54.782026],[-7.968817,54.781857],[-7.968815,54.781856],[-7.968814,54.781854],[-7.968813,54.781853],[-7.968812,54.781851],[-7.968811,54.78185],[-7.968809,54.781848],[-7.968808,54.781847],[-7.968807,54.781845],[-7.968717,54.781728],[-7.968717,54.781728],[-7.968715,54.781727],[-7.968713,54.781726],[-7.968711,54.781724],[-7.968709,54.781723],[-7.968707,54.781722],[-7.968705,54.781721],[-7.968703,54.78172],[-7.968701,54.781718],[-7.968699,54.781717],[-7.968697,54.781716],[-7.968696,54.781714],[-7.968694,54.781713],[-7.968692,54.781712],[-7.96869,54.781711],[-7.968688,54.781709],[-7.968687,54.781708],[-7.968685,54.781707],[-7.968683,54.781706],[-7.968681,54.781704],[-7.96868,54.781703],[-7.968678,54.781702],[-7.968676,54.7817],[-7.968641,54.781672],[-7.96864,54.781671],[-7.968638,54.78167],[-7.968636,54.781668],[-7.968635,54.781667],[-7.968633,54.781666],[-7.968632,54.781664],[-7.96863,54.781663],[-7.968628,54.781662],[-7.968627,54.78166],[-7.968625,54.781659],[-7.968624,54.781657],[-7.968622,54.781656],[-7.968621,54.781655],[-7.968619,54.781653],[-7.968618,54.781652],[-7.968616,54.78165],[-7.968615,54.781649],[-7.968613,54.781648],[-7.968612,54.781646],[-7.968611,54.781645],[-7.968609,54.781643],[-7.968608,54.781642],[-7.968607,54.78164],[-7.968605,54.781639],[-7.968604,54.781637],[-7.968603,54.781636],[-7.968601,54.781634],[-7.9686,54.781633],[-7.968599,54.781631],[-7.968598,54.78163],[-7.968596,54.781628],[-7.968595,54.781627],[-7.968594,54.781626],[-7.968593,54.781624],[-7.968592,54.781622],[-7.968591,54.781621],[-7.968589,54.781619],[-7.968588,54.781618],[-7.968587,54.781616],[-7.968586,54.781615],[-7.968585,54.781613],[-7.968584,54.781612],[-7.968583,54.78161],[-7.968582,54.781609],[-7.968581,54.781607],[-7.96858,54.781606],[-7.968579,54.781604],[-7.968578,54.781603],[-7.968577,54.781601],[-7.968576,54.781599],[-7.968575,54.781598],[-7.968574,54.781596],[-7.968574,54.781595],[-7.968573,54.781593],[-7.968572,54.781592],[-7.968571,54.78159],[-7.96857,54.781588],[-7.96857,54.781587],[-7.968569,54.781585],[-7.968568,54.781584],[-7.968567,54.781582],[-7.968567,54.78158],[-7.968566,54.781579],[-7.968565,54.781577],[-7.968565,54.781576],[-7.968564,54.781574],[-7.968563,54.781572],[-7.968563,54.781571],[-7.968562,54.781569],[-7.968561,54.781568],[-7.968561,54.781566],[-7.96856,54.781564],[-7.968526,54.78146],[-7.968505,54.781397],[-7.968493,54.781371],[-7.968492,54.781369],[-7.968491,54.781368],[-7.968491,54.781366],[-7.96849,54.781364],[-7.968489,54.781363],[-7.968489,54.781361],[-7.968488,54.78136],[-7.968487,54.781358],[-7.968487,54.781356],[-7.968486,54.781355],[-7.968486,54.781353],[-7.968485,54.781352],[-7.968485,54.78135],[-7.968484,54.781348],[-7.968484,54.781347],[-7.968483,54.781345],[-7.968483,54.781344],[-7.968482,54.781342],[-7.968482,54.78134],[-7.96847,54.781296],[-7.968469,54.781295],[-7.968468,54.781293],[-7.968466,54.781292],[-7.968465,54.781291],[-7.968463,54.781289],[-7.968462,54.781288],[-7.968461,54.781286],[-7.968459,54.781285],[-7.968458,54.781283],[-7.968457,54.781282],[-7.968455,54.78128],[-7.968454,54.781279],[-7.968453,54.781277],[-7.968452,54.781276],[-7.96845,54.781275],[-7.968449,54.781273],[-7.968448,54.781272],[-7.968447,54.78127],[-7.968446,54.781269],[-7.968358,54.781155],[-7.968357,54.781153],[-7.968356,54.781152],[-7.968355,54.78115],[-7.968354,54.781149],[-7.968353,54.781147],[-7.968352,54.781146],[-7.96835,54.781144],[-7.968349,54.781143],[-7.968348,54.781141],[-7.968347,54.78114],[-7.968346,54.781138],[-7.968345,54.781137],[-7.968344,54.781135],[-7.968344,54.781134],[-7.968343,54.781132],[-7.968342,54.78113],[-7.968341,54.781129],[-7.96834,54.781127],[-7.968339,54.781126],[-7.968338,54.781124],[-7.968337,54.781123],[-7.968337,54.781121],[-7.968336,54.78112],[-7.968335,54.781118],[-7.968334,54.781116],[-7.968334,54.781115],[-7.968333,54.781113],[-7.968332,54.781112],[-7.968332,54.78111],[-7.968331,54.781109],[-7.96833,54.781107],[-7.96833,54.781105],[-7.968329,54.781104],[-7.968328,54.781102],[-7.968328,54.781101],[-7.968327,54.781099],[-7.968327,54.781097],[-7.968326,54.781096],[-7.968326,54.781094],[-7.968285,54.780969],[-7.968285,54.780967],[-7.968284,54.780965],[-7.968284,54.780964],[-7.968283,54.780962],[-7.968283,54.780961],[-7.968283,54.780959],[-7.968282,54.780957],[-7.968282,54.780956],[-7.968281,54.780954],[-7.968281,54.780952],[-7.968281,54.780951],[-7.96828,54.780949],[-7.96828,54.780948],[-7.96828,54.780946],[-7.96828,54.780944],[-7.968279,54.780943],[-7.968279,54.780941],[-7.968279,54.780939],[-7.968279,54.780938],[-7.968278,54.780936],[-7.968264,54.780798],[-7.968225,54.78063],[-7.968225,54.780628],[-7.968224,54.780627],[-7.968224,54.780625],[-7.968224,54.780624],[-7.968224,54.780622],[-7.968223,54.780621],[-7.968214,54.780568],[-7.968214,54.780566],[-7.968214,54.780565],[-7.968214,54.780563],[-7.968213,54.780562],[-7.968213,54.78056],[-7.968213,54.780558],[-7.968213,54.780557],[-7.968213,54.780555],[-7.968212,54.780553],[-7.968212,54.780552],[-7.968212,54.78055],[-7.968212,54.780548],[-7.968212,54.780547],[-7.968212,54.780545],[-7.968212,54.780544],[-7.968212,54.780542],[-7.968212,54.78054],[-7.968212,54.780539],[-7.968212,54.780537],[-7.968212,54.780535],[-7.968212,54.780534],[-7.968212,54.780532],[-7.968213,54.780531],[-7.968213,54.780529],[-7.968213,54.780527],[-7.968213,54.780526],[-7.968213,54.780524],[-7.968213,54.780522],[-7.968214,54.780521],[-7.968214,54.780519],[-7.968214,54.780517],[-7.968214,54.780516],[-7.968215,54.780514],[-7.968215,54.780513],[-7.968215,54.780511],[-7.968215,54.780509],[-7.968216,54.780508],[-7.968216,54.780506],[-7.968217,54.780504],[-7.968217,54.780503],[-7.968217,54.780501],[-7.968218,54.7805],[-7.968218,54.780498],[-7.968219,54.780496],[-7.968219,54.780495],[-7.96822,54.780493],[-7.96822,54.780492],[-7.968221,54.78049],[-7.968221,54.780488],[-7.968222,54.780487],[-7.968222,54.780485],[-7.968223,54.780484],[-7.968243,54.780432],[-7.968242,54.780427],[-7.968201,54.780386],[-7.968201,54.780399],[-7.966647,54.780398],[-7.966647,54.7795],[-7.968087,54.7795],[-7.968087,54.7795],[-7.968089,54.779498],[-7.968091,54.779497],[-7.968091,54.779497],[-7.968003,54.779467],[-7.968001,54.779466],[-7.967998,54.779466],[-7.967996,54.779465],[-7.967993,54.779464],[-7.967991,54.779463],[-7.967988,54.779462],[-7.967986,54.779461],[-7.967984,54.77946],[-7.967981,54.77946],[-7.967979,54.779459],[-7.967977,54.779458],[-7.967974,54.779457],[-7.967972,54.779456],[-7.96797,54.779455],[-7.967967,54.779454],[-7.967965,54.779453],[-7.967963,54.779452],[-7.96796,54.779451],[-7.967958,54.77945],[-7.967956,54.779449],[-7.967954,54.779448],[-7.9678,54.779381],[-7.967797,54.77938],[-7.967795,54.779379],[-7.967793,54.779378],[-7.967791,54.779377],[-7.967789,54.779376],[-7.967787,54.779375],[-7.967785,54.779374],[-7.967783,54.779373],[-7.96778,54.779372],[-7.967778,54.779371],[-7.967776,54.77937],[-7.967774,54.779369],[-7.967772,54.779368],[-7.96777,54.779367],[-7.967768,54.779366],[-7.967654,54.779306],[-7.967652,54.779305],[-7.96765,54.779304],[-7.967648,54.779303],[-7.967646,54.779302],[-7.967643,54.779301],[-7.967641,54.779299],[-7.967639,54.779298],[-7.967637,54.779297],[-7.967635,54.779296],[-7.967633,54.779295],[-7.967631,54.779294],[-7.967629,54.779292],[-7.967627,54.779291],[-7.967625,54.77929],[-7.967623,54.779289],[-7.967622,54.779288],[-7.96762,54.779286],[-7.967543,54.779237],[-7.967541,54.779236],[-7.967539,54.779235],[-7.967537,54.779233],[-7.967535,54.779232],[-7.967534,54.779231],[-7.967532,54.77923],[-7.96753,54.779228],[-7.967528,54.779227],[-7.967527,54.779226],[-7.967525,54.779224],[-7.967523,54.779223],[-7.967521,54.779222],[-7.96752,54.779221],[-7.967518,54.779219],[-7.967516,54.779218],[-7.967514,54.779217],[-7.967513,54.779215],[-7.967511,54.779214],[-7.967509,54.779213],[-7.967508,54.779211],[-7.967506,54.77921],[-7.967505,54.779209],[-7.967503,54.779207],[-7.967502,54.779206],[-7.9675,54.779205],[-7.967498,54.779203],[-7.967497,54.779202],[-7.967495,54.7792],[-7.967494,54.779199],[-7.967492,54.779198],[-7.967491,54.779196],[-7.967489,54.779195],[-7.967488,54.779193],[-7.967487,54.779192],[-7.967485,54.779191],[-7.967484,54.779189],[-7.967482,54.779188],[-7.967481,54.779186],[-7.96748,54.779185],[-7.967478,54.779183],[-7.967477,54.779182],[-7.967476,54.779181],[-7.967474,54.779179],[-7.967421,54.779119],[-7.967382,54.779088],[-7.967381,54.779087],[-7.967379,54.779086],[-7.967377,54.779084],[-7.967376,54.779083],[-7.967374,54.779081],[-7.967372,54.77908],[-7.967371,54.779079],[-7.967369,54.779077],[-7.967368,54.779076],[-7.967366,54.779075],[-7.967365,54.779073],[-7.967363,54.779072],[-7.967362,54.779071],[-7.96736,54.779069],[-7.967359,54.779068],[-7.967357,54.779066],[-7.967356,54.779065],[-7.967354,54.779063],[-7.967353,54.779062],[-7.967351,54.779061],[-7.96735,54.779059],[-7.967349,54.779058],[-7.967347,54.779056],[-7.967346,54.779055],[-7.967344,54.779053],[-7.967343,54.779052],[-7.967342,54.77905],[-7.967341,54.779049],[-7.967339,54.779047],[-7.967338,54.779046],[-7.967337,54.779044],[-7.967336,54.779043],[-7.967334,54.779041],[-7.967333,54.77904],[-7.967332,54.779038],[-7.967331,54.779037],[-7.96733,54.779035],[-7.967329,54.779034],[-7.967328,54.779032],[-7.967326,54.779031],[-7.967325,54.779029],[-7.967276,54.778958],[-7.967275,54.778957],[-7.967274,54.778955],[-7.967272,54.778954],[-7.967218,54.778871],[-7.967217,54.77887],[-7.967216,54.778868],[-7.967215,54.778867],[-7.967214,54.778865],[-7.967213,54.778864],[-7.967212,54.778862],[-7.967211,54.778861],[-7.967211,54.77886],[-7.96721,54.778858],[-7.967209,54.778857],[-7.967208,54.778855],[-7.967207,54.778854],[-7.967108,54.778668],[-7.966976,54.778495],[-7.966975,54.778495],[-7.966876,54.778366],[-7.966875,54.778364],[-7.966874,54.778363],[-7.966873,54.778361],[-7.966871,54.77836],[-7.96687,54.778358],[-7.966869,54.778357],[-7.966868,54.778355],[-7.966867,54.778354],[-7.966866,54.778352],[-7.966865,54.778351],[-7.966864,54.778349],[-7.966863,54.778347],[-7.966862,54.778346],[-7.966861,54.778344],[-7.966861,54.778343],[-7.96686,54.778341],[-7.966859,54.77834],[-7.966858,54.778338],[-7.966857,54.778337],[-7.966856,54.778335],[-7.966855,54.778334],[-7.966855,54.778332],[-7.966854,54.77833],[-7.966853,54.778329],[-7.966852,54.778327],[-7.966851,54.778326],[-7.966851,54.778324],[-7.96685,54.778322],[-7.966849,54.778321],[-7.966849,54.778319],[-7.966848,54.778318],[-7.966848,54.778316],[-7.966847,54.778315],[-7.966846,54.778313],[-7.966846,54.778311],[-7.966845,54.77831],[-7.966845,54.778308],[-7.966844,54.778307],[-7.966843,54.778305],[-7.966843,54.778303],[-7.966843,54.778302],[-7.966842,54.7783],[-7.966842,54.778299],[-7.966841,54.778297],[-7.966841,54.778295],[-7.96684,54.778294],[-7.96684,54.778292],[-7.96684,54.77829],[-7.966839,54.778289],[-7.966839,54.778287],[-7.966839,54.778286],[-7.966837,54.778285],[-7.966835,54.778283],[-7.966834,54.778282],[-7.966832,54.778281],[-7.96683,54.77828],[-7.966828,54.778278],[-7.966827,54.778277],[-7.966825,54.778276],[-7.966823,54.778274],[-7.966822,54.778273],[-7.96682,54.778272],[-7.966818,54.77827],[-7.966817,54.778269],[-7.966815,54.778268],[-7.966814,54.778266],[-7.966812,54.778265],[-7.966811,54.778264],[-7.966809,54.778262],[-7.966807,54.778261],[-7.966806,54.778259],[-7.966804,54.778258],[-7.966803,54.778257],[-7.966801,54.778255],[-7.9668,54.778254],[-7.966798,54.778253],[-7.966797,54.778251],[-7.966796,54.77825],[-7.966794,54.778248],[-7.966793,54.778247],[-7.966791,54.778245],[-7.96679,54.778244],[-7.966789,54.778243],[-7.966787,54.778241],[-7.966786,54.77824],[-7.966785,54.778238],[-7.966783,54.778237],[-7.966782,54.778235],[-7.966781,54.778234],[-7.96678,54.778232],[-7.966778,54.778231],[-7.966777,54.778229],[-7.966776,54.778228],[-7.966775,54.778226],[-7.966774,54.778225],[-7.966773,54.778223],[-7.966771,54.778222],[-7.96677,54.77822],[-7.966769,54.778219],[-7.966768,54.778217],[-7.966767,54.778216],[-7.966766,54.778214],[-7.966765,54.778213],[-7.966764,54.778211],[-7.966763,54.77821],[-7.966762,54.778208],[-7.966761,54.778207],[-7.96676,54.778205],[-7.966759,54.778204],[-7.966758,54.778202],[-7.966707,54.778116],[-7.966649,54.778065],[-7.966626,54.778045],[-7.966552,54.777989],[-7.96655,54.777988],[-7.966548,54.777986],[-7.966547,54.777985],[-7.966545,54.777984],[-7.966543,54.777982],[-7.966542,54.777981],[-7.96654,54.77798],[-7.966538,54.777978],[-7.966537,54.777977],[-7.966535,54.777975],[-7.966533,54.777974],[-7.966532,54.777973],[-7.96653,54.777971],[-7.966529,54.77797],[-7.966527,54.777969],[-7.966526,54.777967],[-7.966524,54.777966],[-7.966523,54.777964],[-7.966521,54.777963],[-7.96652,54.777961],[-7.966414,54.777857],[-7.966413,54.777856],[-7.966411,54.777854],[-7.96641,54.777853],[-7.966409,54.777852],[-7.966407,54.77785],[-7.966406,54.777849],[-7.966405,54.777847],[-7.966403,54.777846],[-7.966402,54.777844],[-7.966401,54.777843],[-7.9664,54.777842],[-7.966398,54.77784],[-7.966397,54.777839],[-7.966396,54.777837],[-7.966278,54.777694],[-7.966277,54.777693],[-7.966275,54.777691],[-7.966274,54.77769],[-7.966273,54.777688],[-7.966272,54.777687],[-7.966271,54.777685],[-7.966269,54.777684],[-7.966268,54.777682],[-7.966267,54.777681],[-7.966266,54.777679],[-7.966265,54.777678],[-7.966264,54.777676],[-7.966263,54.777675],[-7.966262,54.777673],[-7.966261,54.777672],[-7.96626,54.77767],[-7.966259,54.777669],[-7.966258,54.777667],[-7.966257,54.777666],[-7.966256,54.777664],[-7.966256,54.777663],[-7.966255,54.777661],[-7.966254,54.777659],[-7.966253,54.777658],[-7.966252,54.777656],[-7.966251,54.777655],[-7.966251,54.777653],[-7.96625,54.777652],[-7.966249,54.77765],[-7.966248,54.777648],[-7.966248,54.777647],[-7.966247,54.777645],[-7.966246,54.777644],[-7.966245,54.777642],[-7.966245,54.777641],[-7.966244,54.777639],[-7.966243,54.777637],[-7.966243,54.777636],[-7.966242,54.777634],[-7.966242,54.777633],[-7.966241,54.777631],[-7.966241,54.777629],[-7.96624,54.777628],[-7.96624,54.777626],[-7.966239,54.777625],[-7.966239,54.777623],[-7.966238,54.777621],[-7.966238,54.77762],[-7.966206,54.777504],[-7.966109,54.777379],[-7.966108,54.777378],[-7.966107,54.777376],[-7.966106,54.777375],[-7.966105,54.777373],[-7.966104,54.777372],[-7.966103,54.77737],[-7.966102,54.777369],[-7.966101,54.777367],[-7.9661,54.777366],[-7.966099,54.777364],[-7.966098,54.777363],[-7.966097,54.777361],[-7.966096,54.77736],[-7.966095,54.777358],[-7.966094,54.777357],[-7.966093,54.777355],[-7.966092,54.777354],[-7.966091,54.777352],[-7.966091,54.777351],[-7.96609,54.777349],[-7.966089,54.777347],[-7.966088,54.777346],[-7.966087,54.777344],[-7.966086,54.777343],[-7.966086,54.777341],[-7.966085,54.77734],[-7.966084,54.777338],[-7.966084,54.777337],[-7.966083,54.777335],[-7.966082,54.777333],[-7.966081,54.777332],[-7.966081,54.77733],[-7.96608,54.777329],[-7.96608,54.777327],[-7.966079,54.777326],[-7.966078,54.777324],[-7.966078,54.777322],[-7.966041,54.777216],[-7.96604,54.777214],[-7.96604,54.777213],[-7.966039,54.777211],[-7.966038,54.77721],[-7.966038,54.777208],[-7.966038,54.777207],[-7.966037,54.777205],[-7.966037,54.777204],[-7.966036,54.777202],[-7.966036,54.777201],[-7.966036,54.777199],[-7.966035,54.777197],[-7.966035,54.777196],[-7.966035,54.777194],[-7.965996,54.777008],[-7.965979,54.776928],[-7.965957,54.7769],[-7.965925,54.776859],[-7.965864,54.776823],[-7.965862,54.776822],[-7.96586,54.776821],[-7.965858,54.77682],[-7.965856,54.776818],[-7.965854,54.776817],[-7.965852,54.776816],[-7.96585,54.776815],[-7.965848,54.776813],[-7.965846,54.776812],[-7.965844,54.776811],[-7.965843,54.77681],[-7.965841,54.776808],[-7.965839,54.776807],[-7.965837,54.776806],[-7.965835,54.776805],[-7.965834,54.776803],[-7.965832,54.776802],[-7.96583,54.776801],[-7.965828,54.7768],[-7.965827,54.776798],[-7.965825,54.776797],[-7.965823,54.776796],[-7.965822,54.776794],[-7.96582,54.776793],[-7.965818,54.776792],[-7.965817,54.77679],[-7.965815,54.776789],[-7.965813,54.776787],[-7.965812,54.776786],[-7.96581,54.776785],[-7.965808,54.776783],[-7.965807,54.776782],[-7.965805,54.776781],[-7.965804,54.776779],[-7.965802,54.776778],[-7.965801,54.776776],[-7.965799,54.776775],[-7.965798,54.776774],[-7.965796,54.776772],[-7.965795,54.776771],[-7.965794,54.776769],[-7.965792,54.776768],[-7.965791,54.776767],[-7.965789,54.776765],[-7.965788,54.776764],[-7.965787,54.776762],[-7.965785,54.776761],[-7.965784,54.776759],[-7.965783,54.776758],[-7.965781,54.776756],[-7.96578,54.776755],[-7.965779,54.776753],[-7.965778,54.776752],[-7.965776,54.77675],[-7.965775,54.776749],[-7.965774,54.776747],[-7.965773,54.776746],[-7.965772,54.776744],[-7.965771,54.776743],[-7.965769,54.776741],[-7.965768,54.77674],[-7.965767,54.776738],[-7.965766,54.776737],[-7.965765,54.776735],[-7.965764,54.776734],[-7.965763,54.776732],[-7.965762,54.776731],[-7.965761,54.776729],[-7.96576,54.776728],[-7.965759,54.776726],[-7.965758,54.776725],[-7.965757,54.776723],[-7.965756,54.776721],[-7.965755,54.77672],[-7.965754,54.776718],[-7.965754,54.776717],[-7.965753,54.776715],[-7.965752,54.776714],[-7.965751,54.776712],[-7.96575,54.77671],[-7.965749,54.776709],[-7.965749,54.776707],[-7.965748,54.776706],[-7.965747,54.776704],[-7.965746,54.776703],[-7.965746,54.776701],[-7.965745,54.776699],[-7.965744,54.776698],[-7.96573,54.776664],[-7.965717,54.776647],[-7.965716,54.776645],[-7.965715,54.776643],[-7.965714,54.776642],[-7.965713,54.776641],[-7.965712,54.776639],[-7.96571,54.776637],[-7.965709,54.776636],[-7.965708,54.776634],[-7.965707,54.776633],[-7.965706,54.776631],[-7.965705,54.77663],[-7.965704,54.776628],[-7.965703,54.776627],[-7.965703,54.776625],[-7.965702,54.776624],[-7.965701,54.776622],[-7.9657,54.77662],[-7.965699,54.776619],[-7.965698,54.776617],[-7.965697,54.776616],[-7.965696,54.776614],[-7.965696,54.776613],[-7.965695,54.776611],[-7.965694,54.77661],[-7.965693,54.776608],[-7.965693,54.776606],[-7.965692,54.776605],[-7.965691,54.776603],[-7.965691,54.776602],[-7.96569,54.7766],[-7.965689,54.776598],[-7.965689,54.776597],[-7.965688,54.776595],[-7.965687,54.776594],[-7.965687,54.776592],[-7.965686,54.77659],[-7.965686,54.776589],[-7.965685,54.776587],[-7.965685,54.776586],[-7.965684,54.776584],[-7.965684,54.776582],[-7.965683,54.776581],[-7.965683,54.776579],[-7.965682,54.776578],[-7.965682,54.776576],[-7.965682,54.776574],[-7.965681,54.776573],[-7.965681,54.776571],[-7.96567,54.77652],[-7.965669,54.776518],[-7.965669,54.776516],[-7.965669,54.776515],[-7.965668,54.776513],[-7.965668,54.776512],[-7.965668,54.77651],[-7.965668,54.776508],[-7.965667,54.776507],[-7.965667,54.776505],[-7.965667,54.776504],[-7.965667,54.776502],[-7.965667,54.7765],[-7.965667,54.776499],[-7.965666,54.776497],[-7.965666,54.776496],[-7.965666,54.776494],[-7.965666,54.776492],[-7.965666,54.776491],[-7.965666,54.776489],[-7.965666,54.776487],[-7.965666,54.776486],[-7.965666,54.776485],[-7.965666,54.776484],[-7.965665,54.776483],[-7.965665,54.776481],[-7.965664,54.77648],[-7.965664,54.776478],[-7.965663,54.776476],[-7.965663,54.776475],[-7.965663,54.776473],[-7.965662,54.776471],[-7.96563,54.776332],[-7.965629,54.77633],[-7.965629,54.776329],[-7.965629,54.776327],[-7.965628,54.776325],[-7.965628,54.776324],[-7.965628,54.776322],[-7.965628,54.77632],[-7.965627,54.776319],[-7.965627,54.776317],[-7.965627,54.776315],[-7.965627,54.776314],[-7.965626,54.776312],[-7.965626,54.77631],[-7.965626,54.776309],[-7.965626,54.776307],[-7.965626,54.776305],[-7.965626,54.776304],[-7.965626,54.776302],[-7.965626,54.776301],[-7.965626,54.776299],[-7.965626,54.776297],[-7.965626,54.776295],[-7.965626,54.776294],[-7.965626,54.776292],[-7.965626,54.776291],[-7.965626,54.776289],[-7.965626,54.776287],[-7.965626,54.776286],[-7.965626,54.776284],[-7.965626,54.776282],[-7.965626,54.776281],[-7.965627,54.776279],[-7.965627,54.776277],[-7.965627,54.776276],[-7.965627,54.776274],[-7.965627,54.776272],[-7.965628,54.776271],[-7.965628,54.776269],[-7.965628,54.776267],[-7.965629,54.776266],[-7.965629,54.776264],[-7.965629,54.776263],[-7.96563,54.776261],[-7.96563,54.776259],[-7.965659,54.776136],[-7.965627,54.776033],[-7.965555,54.775807],[-7.965508,54.775704],[-7.965507,54.775702],[-7.965506,54.775701],[-7.965506,54.775699],[-7.965505,54.775698],[-7.965505,54.775696],[-7.965504,54.775695],[-7.965503,54.775693],[-7.965503,54.775691],[-7.965502,54.77569],[-7.965502,54.775688],[-7.965501,54.775687],[-7.9655,54.775685],[-7.9655,54.775684],[-7.965499,54.775682],[-7.965499,54.775681],[-7.965499,54.775679],[-7.965498,54.775677],[-7.965498,54.775676],[-7.965497,54.775674],[-7.965497,54.775673],[-7.965497,54.775671],[-7.965496,54.775669],[-7.965496,54.775668],[-7.965495,54.775666],[-7.965495,54.775665],[-7.965495,54.775663],[-7.965494,54.775661],[-7.965494,54.77566],[-7.96547,54.775514],[-7.96547,54.775513],[-7.96547,54.775511],[-7.96547,54.775509],[-7.965469,54.775508],[-7.965469,54.775506],[-7.965469,54.775504],[-7.965469,54.775503],[-7.965469,54.775501],[-7.965469,54.775499],[-7.965469,54.775498],[-7.965468,54.775496],[-7.965468,54.775495],[-7.965468,54.775493],[-7.965468,54.775491],[-7.965468,54.77549],[-7.965468,54.775488],[-7.965468,54.775486],[-7.965468,54.775485],[-7.965468,54.775483],[-7.965468,54.775481],[-7.965468,54.77548],[-7.965469,54.775478],[-7.965469,54.775476],[-7.965469,54.775475],[-7.965469,54.775473],[-7.965469,54.775472],[-7.965469,54.77547],[-7.96547,54.775468],[-7.96547,54.775467],[-7.96547,54.775465],[-7.96547,54.775463],[-7.965471,54.775462],[-7.965471,54.77546],[-7.965471,54.775458],[-7.965472,54.775457],[-7.965472,54.775455],[-7.965502,54.775318],[-7.965559,54.775051],[-7.965598,54.774859],[-7.965597,54.774706],[-7.965585,54.774415],[-7.965575,54.774265],[-7.965575,54.774264],[-7.965575,54.774262],[-7.965575,54.77426],[-7.965575,54.774259],[-7.965575,54.774257],[-7.965575,54.774255],[-7.965575,54.774254],[-7.965575,54.774252],[-7.965575,54.77425],[-7.965575,54.774249],[-7.965575,54.774247],[-7.965575,54.774245],[-7.965575,54.774244],[-7.965576,54.774242],[-7.965576,54.774241],[-7.965576,54.774239],[-7.965576,54.774237],[-7.965576,54.774236],[-7.965576,54.774234],[-7.965577,54.774232],[-7.965577,54.774231],[-7.965577,54.774229],[-7.965577,54.774227],[-7.965578,54.774226],[-7.965578,54.774224],[-7.965578,54.774222],[-7.965579,54.774221],[-7.965579,54.774219],[-7.96558,54.774218],[-7.96558,54.774216],[-7.96558,54.774214],[-7.965581,54.774213],[-7.965581,54.774211],[-7.965582,54.774209],[-7.965582,54.774208],[-7.965583,54.774206],[-7.965583,54.774205],[-7.965584,54.774203],[-7.965584,54.774201],[-7.965585,54.7742],[-7.965586,54.774198],[-7.965586,54.774196],[-7.965587,54.774195],[-7.965587,54.774193],[-7.965588,54.774192],[-7.965589,54.77419],[-7.965589,54.774188],[-7.96559,54.774187],[-7.965591,54.774185],[-7.965592,54.774184],[-7.965592,54.774182],[-7.965593,54.77418],[-7.965594,54.774179],[-7.965595,54.774177],[-7.965596,54.774176],[-7.965596,54.774174],[-7.965597,54.774173],[-7.965598,54.774171],[-7.965599,54.774169],[-7.9656,54.774168],[-7.965601,54.774166],[-7.965602,54.774165],[-7.965603,54.774163],[-7.965604,54.774162],[-7.965605,54.77416],[-7.965606,54.774159],[-7.965607,54.774157],[-7.965608,54.774155],[-7.965609,54.774154],[-7.96561,54.774152],[-7.965611,54.774151],[-7.965612,54.774149],[-7.965613,54.774148],[-7.965615,54.774146],[-7.965616,54.774145],[-7.965617,54.774143],[-7.965618,54.774142],[-7.965619,54.77414],[-7.96562,54.774139],[-7.965622,54.774137],[-7.965623,54.774136],[-7.965624,54.774134],[-7.965626,54.774133],[-7.965627,54.774131],[-7.965628,54.77413],[-7.96563,54.774129],[-7.965631,54.774127],[-7.965632,54.774126],[-7.965634,54.774124],[-7.965635,54.774123],[-7.965636,54.774121],[-7.965638,54.77412],[-7.965639,54.774118],[-7.965641,54.774117],[-7.965642,54.774116],[-7.965644,54.774114],[-7.965645,54.774113],[-7.965647,54.774111],[-7.965648,54.77411],[-7.96565,54.774109],[-7.965652,54.774106],[-7.965659,54.774063],[-7.965659,54.774062],[-7.965659,54.77406],[-7.965659,54.774059],[-7.96566,54.774057],[-7.96566,54.774055],[-7.96566,54.774054],[-7.965661,54.774052],[-7.965661,54.77405],[-7.965661,54.774049],[-7.965662,54.774047],[-7.965662,54.774045],[-7.965663,54.774044],[-7.965663,54.774042],[-7.965664,54.774041],[-7.965664,54.774039],[-7.965665,54.774037],[-7.965665,54.774036],[-7.965666,54.774034],[-7.965666,54.774032],[-7.965667,54.774031],[-7.965668,54.774029],[-7.965668,54.774028],[-7.965669,54.774026],[-7.965669,54.774024],[-7.96567,54.774023],[-7.965671,54.774021],[-7.965671,54.77402],[-7.965672,54.774018],[-7.965673,54.774016],[-7.965674,54.774015],[-7.965675,54.774013],[-7.965675,54.774012],[-7.965676,54.77401],[-7.965677,54.774008],[-7.965678,54.774007],[-7.965688,54.773988],[-7.965689,54.773962],[-7.965689,54.773961],[-7.965689,54.773959],[-7.965689,54.773958],[-7.965689,54.773956],[-7.965692,54.773931],[-7.96569,54.773929],[-7.965689,54.773927],[-7.965688,54.773926],[-7.965687,54.773924],[-7.965686,54.773923],[-7.965684,54.773921],[-7.965683,54.77392],[-7.965682,54.773918],[-7.965681,54.773917],[-7.96568,54.773915],[-7.965679,54.773914],[-7.965678,54.773912],[-7.965677,54.773911],[-7.965676,54.773909],[-7.965675,54.773908],[-7.965674,54.773906],[-7.965673,54.773905],[-7.965672,54.773903],[-7.965671,54.773902],[-7.965671,54.7739],[-7.96567,54.773899],[-7.965669,54.773897],[-7.965665,54.773891],[-7.965633,54.773848],[-7.965587,54.773801],[-7.965418,54.773685],[-7.965416,54.773684],[-7.965414,54.773682],[-7.965413,54.773681],[-7.965411,54.77368],[-7.965409,54.773678],[-7.965407,54.773677],[-7.965406,54.773676],[-7.965404,54.773675],[-7.965402,54.773673],[-7.965401,54.773672],[-7.965399,54.773671],[-7.965397,54.773669],[-7.965396,54.773668],[-7.965394,54.773667],[-7.965392,54.773665],[-7.965391,54.773664],[-7.965389,54.773663],[-7.965388,54.773661],[-7.965386,54.77366],[-7.965385,54.773659],[-7.965383,54.773657],[-7.965381,54.773656],[-7.96538,54.773654],[-7.965378,54.773653],[-7.965377,54.773652],[-7.965376,54.77365],[-7.965374,54.773649],[-7.965373,54.773647],[-7.965279,54.773555],[-7.965278,54.773553],[-7.965276,54.773552],[-7.965275,54.77355],[-7.965274,54.773549],[-7.965272,54.773548],[-7.965271,54.773546],[-7.96527,54.773545],[-7.965268,54.773543],[-7.965267,54.773542],[-7.965266,54.77354],[-7.965265,54.773539],[-7.965263,54.773537],[-7.965262,54.773536],[-7.965261,54.773534],[-7.96526,54.773533],[-7.965258,54.773531],[-7.965257,54.77353],[-7.965256,54.773528],[-7.965255,54.773527],[-7.965254,54.773526],[-7.965253,54.773524],[-7.965252,54.773523],[-7.965251,54.773521],[-7.965249,54.773519],[-7.965248,54.773518],[-7.965247,54.773516],[-7.965246,54.773515],[-7.965245,54.773513],[-7.965244,54.773512],[-7.965243,54.77351],[-7.965242,54.773509],[-7.965241,54.773507],[-7.965241,54.773506],[-7.96524,54.773504],[-7.965239,54.773503],[-7.965238,54.773501],[-7.965237,54.773499],[-7.965236,54.773498],[-7.965235,54.773496],[-7.965235,54.773495],[-7.965234,54.773493],[-7.965233,54.773492],[-7.965232,54.77349],[-7.965232,54.773488],[-7.965231,54.773487],[-7.96523,54.773485],[-7.965229,54.773484],[-7.965216,54.773453],[-7.965031,54.773453],[-7.965031,54.773184],[-7.965099,54.773184],[-7.9651,54.772313],[-7.965605,54.772313],[-7.965561,54.772242],[-7.965524,54.772185],[-7.965445,54.772132],[-7.965471,54.772109],[-7.965678,54.772024],[-7.965452,54.771663],[-7.965155,54.77162],[-7.965186,54.771496],[-7.965203,54.771372],[-7.965173,54.771355],[-7.965109,54.771244],[-7.96516,54.771191],[-7.965166,54.771082],[-7.965119,54.771061],[-7.965131,54.770923],[-7.965097,54.77086],[-7.965032,54.770804],[-7.964986,54.770747],[-7.964974,54.770685],[-7.964891,54.770537],[-7.964859,54.770429],[-7.964877,54.770365],[-7.964866,54.770311],[-7.964828,54.770277]],[[-7.96037,54.771565],[-7.960371,54.771026],[-7.960837,54.771026],[-7.960838,54.770487],[-7.961304,54.770487],[-7.961303,54.771026],[-7.961303,54.771565],[-7.96037,54.771565]],[[-7.964097,54.774801],[-7.964098,54.774262],[-7.963631,54.774262],[-7.963632,54.773722],[-7.964098,54.773723],[-7.964098,54.773453],[-7.964565,54.773453],[-7.964564,54.773723],[-7.964564,54.774262],[-7.964564,54.774801],[-7.964097,54.774801]]],[[[-7.945451,54.771408],[-7.944985,54.771407],[-7.944985,54.771559],[-7.945451,54.771559],[-7.945451,54.771408]]],[[[-7.947776,54.776412],[-7.947775,54.776951],[-7.948241,54.776951],[-7.948242,54.776682],[-7.948242,54.776412],[-7.947776,54.776412]]],[[[-7.954771,54.775876],[-7.954771,54.775606],[-7.954305,54.775606],[-7.954304,54.775876],[-7.954304,54.776145],[-7.95477,54.776145],[-7.954771,54.775876]]],[[[-7.954771,54.775337],[-7.954771,54.775606],[-7.955237,54.775606],[-7.955238,54.775337],[-7.955704,54.775337],[-7.955704,54.775068],[-7.955704,54.774798],[-7.955705,54.774528],[-7.954772,54.774528],[-7.954772,54.774798],[-7.954306,54.774798],[-7.954305,54.775067],[-7.954305,54.775337],[-7.954771,54.775337]]],[[[-7.958503,54.773721],[-7.958504,54.773182],[-7.957571,54.773181],[-7.957571,54.773451],[-7.957571,54.773721],[-7.95757,54.77426],[-7.95757,54.774529],[-7.957569,54.774799],[-7.958036,54.774799],[-7.958036,54.774529],[-7.958502,54.774529],[-7.958503,54.773721]]],[[[-7.959434,54.775338],[-7.9599,54.775339],[-7.959901,54.775069],[-7.958968,54.775069],[-7.958968,54.775338],[-7.958501,54.775338],[-7.958501,54.775608],[-7.959434,54.775608],[-7.959434,54.775338]]],[[[-7.954303,54.777493],[-7.954303,54.777223],[-7.952438,54.777223],[-7.952437,54.777492],[-7.951971,54.777492],[-7.951971,54.777762],[-7.952903,54.777762],[-7.952903,54.778031],[-7.953836,54.778032],[-7.953836,54.777762],[-7.954302,54.777762],[-7.954303,54.777493]]],[[[-7.954303,54.776954],[-7.954303,54.777223],[-7.954769,54.777224],[-7.954769,54.776954],[-7.954303,54.776954]]],[[[-7.951505,54.777492],[-7.951971,54.777492],[-7.951971,54.777222],[-7.951972,54.776953],[-7.951039,54.776953],[-7.951039,54.777222],[-7.951505,54.777222],[-7.951505,54.777492]]],[[[-7.956168,54.777494],[-7.956167,54.777763],[-7.956634,54.777763],[-7.956634,54.777494],[-7.956168,54.777494]]],[[[-7.943115,54.774793],[-7.943116,54.774523],[-7.942649,54.774523],[-7.942649,54.774793],[-7.943115,54.774793]]],[[[-7.942655,54.77021],[-7.942655,54.77048],[-7.943121,54.77048],[-7.943122,54.770211],[-7.942655,54.77021]]]]}}]}
