{"type":"FeatureCollection","features":[{"type":"Feature","properties":{"source_fid":1935433,"county":"Donegal","bog_geom_ha":220.37258586917761,"low15_pct":68.287699223539022,"low15_ha":150.48736860947926,"overlay_ha":150.73790960855456,"area_delta":0.25054099907529803},"geometry":{"type":"MultiPolygon","coordinates":[[[[-7.998715,55.115068],[-7.999214,55.11496],[-7.998589,55.11496],[-7.998589,55.115106],[-7.998715,55.115068]]],[[[-7.998119,55.115248],[-7.99818,55.11523],[-7.998119,55.11523],[-7.998119,55.115248]]],[[[-7.982036,55.115452],[-7.982036,55.115498],[-7.982131,55.115498],[-7.982131,55.115452],[-7.982036,55.115452]]],[[[-8.003976,55.123822],[-8.003976,55.123585],[-8.001881,55.123585],[-8.001881,55.123855],[-8.001411,55.123855],[-8.001411,55.124124],[-8.000941,55.124124],[-8.000941,55.124394],[-8.00047,55.124394],[-8.00047,55.124436],[-8.000841,55.124436],[-8.000841,55.124716],[-8.001035,55.124637],[-8.001183,55.124581],[-8.001312,55.124533],[-8.00169,55.124411],[-8.002125,55.124279],[-8.002678,55.124129],[-8.003243,55.123991],[-8.003645,55.123906],[-8.003976,55.123822]]],[[[-7.999274,55.125334],[-7.999274,55.124933],[-7.998589,55.124933],[-7.998589,55.125202],[-7.998119,55.125202],[-7.998119,55.125334],[-7.999274,55.125334]]],[[[-7.997706,55.126232],[-7.997706,55.125472],[-7.997648,55.125472],[-7.997648,55.125741],[-7.995767,55.125741],[-7.995767,55.125472],[-7.995297,55.125472],[-7.995297,55.125202],[-7.993415,55.125202],[-7.993415,55.125472],[-7.993415,55.126011],[-7.992945,55.126011],[-7.992945,55.125472],[-7.992474,55.125472],[-7.992474,55.125741],[-7.991534,55.125741],[-7.991534,55.126011],[-7.991063,55.126011],[-7.991063,55.12628],[-7.990593,55.12628],[-7.990593,55.12655],[-7.990122,55.12655],[-7.990122,55.126819],[-7.989652,55.126819],[-7.989652,55.127089],[-7.989351,55.127089],[-7.989428,55.127105],[-7.990153,55.127462],[-7.991183,55.128078],[-7.992053,55.128399],[-7.992676,55.128516],[-7.992697,55.12852],[-7.993313,55.128611],[-7.993733,55.128616],[-7.993812,55.128606],[-7.994146,55.128561],[-7.994932,55.128457],[-7.995062,55.128437],[-7.994355,55.128437],[-7.994355,55.128167],[-7.994826,55.128167],[-7.994826,55.127897],[-7.995296,55.127898],[-7.995296,55.128167],[-7.995296,55.1284],[-7.995626,55.128349],[-7.995894,55.128237],[-7.996041,55.128163],[-7.996251,55.128062],[-7.996301,55.128028],[-7.996365,55.127986],[-7.996549,55.127846],[-7.996712,55.127716],[-7.996851,55.127591],[-7.996963,55.127468],[-7.997125,55.127282],[-7.997248,55.127103],[-7.997333,55.126971],[-7.997549,55.126736],[-7.997638,55.126629],[-7.997706,55.126558],[-7.997706,55.126232]]],[[[-7.986662,55.125935],[-7.986826,55.12601],[-7.98683,55.12601],[-7.98683,55.125741],[-7.98683,55.125471],[-7.987301,55.125471],[-7.987301,55.125741],[-7.988241,55.125741],[-7.988241,55.12601],[-7.988241,55.12628],[-7.989652,55.12628],[-7.989652,55.12601],[-7.990123,55.126011],[-7.990123,55.125741],[-7.990593,55.125741],[-7.990593,55.125471],[-7.991063,55.125472],[-7.991063,55.125202],[-7.991436,55.125202],[-7.991436,55.124663],[-7.991064,55.124663],[-7.991064,55.124393],[-7.991534,55.124393],[-7.991534,55.124124],[-7.991534,55.123854],[-7.992004,55.123854],[-7.992004,55.123585],[-7.992475,55.123585],[-7.992475,55.123315],[-7.992945,55.123315],[-7.992945,55.123046],[-7.992945,55.122776],[-7.993416,55.122776],[-7.993416,55.121968],[-7.993886,55.121968],[-7.993886,55.121698],[-7.993886,55.121429],[-7.994827,55.121429],[-7.994827,55.121159],[-7.995767,55.121159],[-7.995767,55.12089],[-7.996708,55.12089],[-7.996708,55.12062],[-7.997178,55.12062],[-7.997178,55.120351],[-7.998119,55.120351],[-7.998119,55.120081],[-7.99953,55.120081],[-7.99953,55.120351],[-8.00047,55.120351],[-8.00047,55.12062],[-7.998589,55.12062],[-7.998589,55.12089],[-7.997178,55.12089],[-7.997178,55.121159],[-7.996238,55.121159],[-7.996238,55.121429],[-7.996238,55.121698],[-7.995767,55.121698],[-7.995767,55.121968],[-7.995297,55.121968],[-7.995297,55.122776],[-7.995297,55.123046],[-7.995767,55.123046],[-7.995767,55.123316],[-7.996708,55.123316],[-7.996708,55.123537],[-7.997706,55.123537],[-7.997706,55.123585],[-7.999059,55.123585],[-7.999059,55.123316],[-8.0,55.123316],[-8.0,55.123046],[-8.00047,55.123046],[-8.00047,55.122777],[-8.000941,55.122777],[-8.000941,55.122507],[-8.000941,55.122238],[-8.000941,55.121968],[-8.000941,55.121698],[-8.001411,55.121698],[-8.001411,55.121968],[-8.001881,55.121968],[-8.001881,55.122238],[-8.003976,55.122237],[-8.003976,55.121741],[-8.004703,55.121741],[-8.004703,55.121698],[-8.004703,55.121429],[-8.004703,55.121159],[-8.004703,55.12089],[-8.005173,55.12089],[-8.005173,55.12062],[-8.005643,55.12062],[-8.005643,55.120351],[-8.006584,55.120351],[-8.006584,55.12062],[-8.006114,55.12062],[-8.006114,55.12089],[-8.006114,55.121159],[-8.005644,55.121159],[-8.005644,55.121429],[-8.006584,55.121429],[-8.006584,55.121159],[-8.007525,55.121159],[-8.007525,55.12089],[-8.007995,55.12089],[-8.007995,55.12062],[-8.008935,55.12062],[-8.008936,55.12089],[-8.008936,55.121159],[-8.009876,55.121159],[-8.009876,55.121429],[-8.009876,55.121698],[-8.008465,55.121698],[-8.008465,55.121968],[-8.007995,55.121968],[-8.007995,55.122237],[-8.007525,55.122237],[-8.007525,55.122475],[-8.007762,55.122401],[-8.00806,55.122312],[-8.008475,55.12222],[-8.008795,55.122159],[-8.009236,55.122071],[-8.009801,55.121982],[-8.0101,55.121932],[-8.010376,55.121887],[-8.010858,55.121796],[-8.011219,55.121741],[-8.011441,55.121707],[-8.011856,55.121636],[-8.0122,55.121576],[-8.012249,55.12157],[-8.012175,55.121449],[-8.011996,55.121159],[-8.010817,55.121159],[-8.010817,55.120889],[-8.010346,55.120889],[-8.010346,55.12062],[-8.009876,55.12062],[-8.009876,55.12035],[-8.008465,55.120351],[-8.008465,55.120081],[-8.007995,55.120081],[-8.007995,55.119812],[-8.008465,55.119811],[-8.008465,55.119542],[-8.009876,55.119542],[-8.009876,55.119811],[-8.009876,55.120081],[-8.010817,55.120081],[-8.010817,55.12035],[-8.011499,55.12035],[-8.010504,55.118733],[-8.010346,55.118733],[-8.010346,55.118477],[-8.010271,55.118355],[-8.010243,55.11831],[-8.010127,55.118122],[-8.010006,55.117925],[-8.009875,55.117925],[-8.009875,55.117712],[-8.009674,55.117386],[-8.009591,55.117251],[-8.009536,55.117172],[-8.009501,55.117116],[-8.009405,55.117116],[-8.009405,55.116963],[-8.009321,55.116839],[-8.009262,55.116715],[-8.009181,55.11658],[-8.009067,55.116368],[-8.008845,55.116026],[-8.008635,55.115736],[-8.008466,55.115499],[-8.007053,55.115499],[-8.007053,55.115769],[-8.005173,55.115769],[-8.005173,55.116038],[-8.004232,55.116038],[-8.004232,55.116308],[-8.003975,55.116308],[-8.003975,55.116351],[-8.002821,55.116351],[-8.002821,55.116577],[-8.001411,55.116577],[-8.001411,55.116847],[-8.0,55.116847],[-8.0,55.117116],[-7.99906,55.117116],[-7.999059,55.117386],[-7.997178,55.117386],[-7.997179,55.117116],[-7.996238,55.117116],[-7.996238,55.116956],[-7.994876,55.117232],[-7.9947,55.11726],[-7.993947,55.117382],[-7.993947,55.117381],[-7.991535,55.117934],[-7.991535,55.118194],[-7.991535,55.118464],[-7.992006,55.118464],[-7.992005,55.118733],[-7.992946,55.118733],[-7.992946,55.119003],[-7.994357,55.119003],[-7.994357,55.118734],[-7.994827,55.118734],[-7.994827,55.118464],[-7.995768,55.118464],[-7.995768,55.118734],[-7.996238,55.118734],[-7.996238,55.119003],[-7.995768,55.119003],[-7.995768,55.119273],[-7.994827,55.119273],[-7.994827,55.119542],[-7.994357,55.119542],[-7.994357,55.119812],[-7.993886,55.119812],[-7.993886,55.120081],[-7.992946,55.120081],[-7.992946,55.119812],[-7.992005,55.119812],[-7.992005,55.119542],[-7.991535,55.119542],[-7.991535,55.119272],[-7.991535,55.119003],[-7.991065,55.119003],[-7.991065,55.118733],[-7.991065,55.118464],[-7.991065,55.118194],[-7.990595,55.118194],[-7.990595,55.11815],[-7.990125,55.118258],[-7.990124,55.118464],[-7.989227,55.118464],[-7.988714,55.118582],[-7.988714,55.118733],[-7.988053,55.118733],[-7.987666,55.118822],[-7.987446,55.119046],[-7.986564,55.119944],[-7.985874,55.120646],[-7.985421,55.120525],[-7.985421,55.120619],[-7.985421,55.120889],[-7.984951,55.120889],[-7.984951,55.120619],[-7.984072,55.120619],[-7.984035,55.120625],[-7.98354,55.12076],[-7.98354,55.120889],[-7.983134,55.120889],[-7.983069,55.120915],[-7.983069,55.121158],[-7.982129,55.121158],[-7.982129,55.120972],[-7.98211,55.120971],[-7.9818,55.120934],[-7.98118,55.120859],[-7.980466,55.120771],[-7.980119,55.120728],[-7.97872,55.120478],[-7.978422,55.120415],[-7.97842,55.120323],[-7.978427,55.120213],[-7.978444,55.120125],[-7.978462,55.12006],[-7.978493,55.120026],[-7.978493,55.119651],[-7.97851,55.119446],[-7.978673,55.119277],[-7.9789,55.119166],[-7.9789,55.119044],[-7.979355,55.119044],[-7.979517,55.119001],[-7.978368,55.119001],[-7.978368,55.118732],[-7.977427,55.118732],[-7.977427,55.118462],[-7.976957,55.118462],[-7.976957,55.118192],[-7.976487,55.118192],[-7.976487,55.117923],[-7.976487,55.117653],[-7.976958,55.117653],[-7.976957,55.117923],[-7.977428,55.117923],[-7.977428,55.117653],[-7.977898,55.117654],[-7.977898,55.117384],[-7.978368,55.117384],[-7.978369,55.117248],[-7.975766,55.117247],[-7.975766,55.117402],[-7.975787,55.117419],[-7.975785,55.117504],[-7.975766,55.117517],[-7.975766,55.118145],[-7.974199,55.118145],[-7.974199,55.118192],[-7.975076,55.118192],[-7.975076,55.118462],[-7.975546,55.118462],[-7.975546,55.118731],[-7.976016,55.118731],[-7.976016,55.11927],[-7.975546,55.11927],[-7.975545,55.119809],[-7.976016,55.119809],[-7.976016,55.120079],[-7.976486,55.120079],[-7.976486,55.120349],[-7.976956,55.120349],[-7.976956,55.120618],[-7.976956,55.120888],[-7.976485,55.120888],[-7.976485,55.121696],[-7.976485,55.121966],[-7.976485,55.122235],[-7.976014,55.122235],[-7.976014,55.122774],[-7.975544,55.122774],[-7.975543,55.123044],[-7.975073,55.123044],[-7.975073,55.123313],[-7.974603,55.123313],[-7.974602,55.123581],[-7.974673,55.123614],[-7.974772,55.123638],[-7.974917,55.12373],[-7.975013,55.123821],[-7.975116,55.12394],[-7.975187,55.123973],[-7.975291,55.123975],[-7.975477,55.123951],[-7.975762,55.123908],[-7.975763,55.123535],[-7.97733,55.123535],[-7.977329,55.124433],[-7.97717,55.124433],[-7.977208,55.124493],[-7.97722,55.12462],[-7.977222,55.1247],[-7.977172,55.124788],[-7.977118,55.124916],[-7.977122,55.124993],[-7.977176,55.12509],[-7.977301,55.125175],[-7.977298,55.12528],[-7.977222,55.12547],[-7.977423,55.12547],[-7.977424,55.1252],[-7.978364,55.1252],[-7.978364,55.12547],[-7.978364,55.125739],[-7.979305,55.12574],[-7.979305,55.12547],[-7.979775,55.12547],[-7.979775,55.124931],[-7.980246,55.124931],[-7.980246,55.124662],[-7.980716,55.124662],[-7.980716,55.124392],[-7.981657,55.124392],[-7.981657,55.124662],[-7.982127,55.124662],[-7.982127,55.124931],[-7.981657,55.124931],[-7.981657,55.125178],[-7.982764,55.124975],[-7.983856,55.125072],[-7.983945,55.12508],[-7.985026,55.125251],[-7.985145,55.12527],[-7.985526,55.12538],[-7.985593,55.125393],[-7.985761,55.125403],[-7.985822,55.125413],[-7.985895,55.125445],[-7.986012,55.1255],[-7.986183,55.125587],[-7.986413,55.125664],[-7.986637,55.125734],[-7.986594,55.125773],[-7.986479,55.125874],[-7.986582,55.125894],[-7.986662,55.125935]],[[-7.979776,55.124392],[-7.979775,55.124931],[-7.978835,55.124931],[-7.978835,55.124392],[-7.979305,55.124392],[-7.979305,55.124122],[-7.979306,55.123853],[-7.980246,55.123853],[-7.980246,55.124123],[-7.979776,55.124123],[-7.979776,55.124392]],[[-7.998589,55.121159],[-7.998589,55.12089],[-7.99953,55.12089],[-7.99953,55.121159],[-7.998589,55.121159]],[[-8.006584,55.117386],[-8.006113,55.117386],[-8.006113,55.117116],[-8.007054,55.117116],[-8.007054,55.117386],[-8.007054,55.117655],[-8.006584,55.117655],[-8.006584,55.117386]],[[-8.00047,55.118734],[-8.00047,55.119003],[-8.00047,55.119273],[-8.0,55.119273],[-8.0,55.119003],[-7.99953,55.119003],[-7.99953,55.118734],[-7.999059,55.118734],[-7.999059,55.118464],[-7.999059,55.117925],[-7.99953,55.117925],[-7.99953,55.118464],[-8.0,55.118464],[-8.0,55.118734],[-8.00047,55.118734]],[[-8.0,55.121159],[-8.00047,55.121159],[-8.00047,55.121429],[-8.0,55.121429],[-8.0,55.121159]],[[-7.989184,55.119272],[-7.989184,55.118733],[-7.989654,55.118733],[-7.989654,55.119272],[-7.989184,55.119272]],[[-7.989654,55.120081],[-7.989183,55.120081],[-7.989184,55.119811],[-7.988713,55.119811],[-7.988713,55.119542],[-7.989654,55.119542],[-7.989654,55.119811],[-7.989654,55.120081]],[[-7.98448,55.123045],[-7.979306,55.123044],[-7.979306,55.122505],[-7.979777,55.122505],[-7.979777,55.122236],[-7.980247,55.122236],[-7.980247,55.122505],[-7.982128,55.122506],[-7.982128,55.122236],[-7.983539,55.122236],[-7.983539,55.122506],[-7.98448,55.122506],[-7.98448,55.123045]]],[[[-7.971529,55.122573],[-7.971781,55.122622],[-7.971782,55.122234],[-7.971311,55.122234],[-7.971311,55.121965],[-7.970841,55.121965],[-7.970841,55.122019],[-7.970974,55.122138],[-7.971007,55.122266],[-7.97104,55.122401],[-7.971069,55.122466],[-7.971119,55.122499],[-7.97126,55.122535],[-7.971529,55.122573]]],[[[-7.970667,55.121886],[-7.970774,55.121964],[-7.970841,55.121965],[-7.970841,55.121737],[-7.970388,55.121737],[-7.970371,55.121748],[-7.970371,55.121809],[-7.97046,55.121819],[-7.970572,55.121836],[-7.970667,55.121886]]],[[[-7.971799,55.120839],[-7.971301,55.121156],[-7.971312,55.121156],[-7.971312,55.121426],[-7.971782,55.121426],[-7.971782,55.121156],[-7.971782,55.120887],[-7.972253,55.120887],[-7.972253,55.120839],[-7.971799,55.120839]]],[[[-7.97263,55.120348],[-7.97263,55.120617],[-7.972723,55.120617],[-7.972723,55.120348],[-7.97263,55.120348]]],[[[-7.978901,55.11635],[-7.978901,55.117115],[-7.98025,55.117115],[-7.98025,55.116845],[-7.98025,55.116576],[-7.98072,55.116576],[-7.98072,55.11635],[-7.978901,55.11635]]],[[[-7.980468,55.117248],[-7.98072,55.117248],[-7.98072,55.117115],[-7.98025,55.117115],[-7.980249,55.117384],[-7.980249,55.117654],[-7.980468,55.117654],[-7.980468,55.117248]]],[[[-7.980249,55.118784],[-7.980332,55.118732],[-7.980249,55.118732],[-7.980249,55.118784]]],[[[-7.999274,55.114089],[-7.999274,55.114152],[-8.0,55.114152],[-8.0,55.113882],[-8.00094,55.113882],[-8.00094,55.113613],[-8.001411,55.113613],[-8.001411,55.113343],[-8.003291,55.113343],[-8.003291,55.113613],[-8.004232,55.113613],[-8.004232,55.113882],[-8.005172,55.113882],[-8.005172,55.113613],[-8.005642,55.113612],[-8.005642,55.113343],[-8.006113,55.113343],[-8.006113,55.113073],[-8.005642,55.113073],[-8.005642,55.112804],[-8.006583,55.112804],[-8.006583,55.113073],[-8.006785,55.113073],[-8.006778,55.113063],[-8.006423,55.112585],[-8.006235,55.11239],[-8.006186,55.112335],[-8.006118,55.112306],[-8.006026,55.11228],[-8.005982,55.112203],[-8.005931,55.112178],[-8.0059,55.112173],[-8.005867,55.112151],[-8.005849,55.112136],[-8.005793,55.112141],[-8.005751,55.112158],[-8.005721,55.112152],[-8.005706,55.112134],[-8.005758,55.112034],[-8.005684,55.111984],[-8.005678,55.11197],[-8.00565,55.11196],[-8.005545,55.11188],[-8.005532,55.111867],[-8.005497,55.111859],[-8.005475,55.111851],[-8.005453,55.111841],[-8.005453,55.111816],[-8.005446,55.111792],[-8.005427,55.111763],[-8.005336,55.1117],[-8.005316,55.111687],[-8.005251,55.111689],[-8.005243,55.111651],[-8.005292,55.111633],[-8.005296,55.111618],[-8.005248,55.111584],[-8.005086,55.11152],[-8.005063,55.111456],[-8.004232,55.111456],[-8.004232,55.111726],[-8.002821,55.111726],[-8.002821,55.111456],[-8.002351,55.111456],[-8.002351,55.111726],[-8.002351,55.111995],[-8.001881,55.111995],[-8.001881,55.112265],[-8.001104,55.112265],[-8.001102,55.112269],[-8.001205,55.112553],[-8.001151,55.112841],[-8.000774,55.113182],[-8.000414,55.113439],[-7.999875,55.1138],[-7.999407,55.114016],[-7.999274,55.114089]]],[[[-8.007111,55.122625],[-8.007426,55.122507],[-8.007055,55.122507],[-8.007055,55.122639],[-8.007073,55.122639],[-8.007111,55.122625]]],[[[-7.994571,55.123537],[-7.995297,55.123537],[-7.995297,55.123316],[-7.995297,55.123046],[-7.993886,55.123046],[-7.993886,55.123315],[-7.993416,55.123315],[-7.993415,55.123585],[-7.993415,55.123855],[-7.992945,55.123854],[-7.992945,55.124124],[-7.992475,55.124124],[-7.992475,55.124394],[-7.992004,55.124393],[-7.992004,55.124435],[-7.992945,55.124435],[-7.992945,55.124394],[-7.994571,55.124394],[-7.994571,55.123537]]],[[[-8.001881,55.115499],[-8.001411,55.115499],[-8.001411,55.115769],[-8.001881,55.115769],[-8.001881,55.115499]]],[[[-7.979309,55.117923],[-7.979779,55.117923],[-7.979779,55.117654],[-7.978839,55.117654],[-7.978838,55.117923],[-7.978368,55.117923],[-7.978368,55.118193],[-7.979309,55.118193],[-7.979309,55.117923]]],[[[-7.972723,55.121426],[-7.972252,55.121426],[-7.972252,55.121695],[-7.973663,55.121696],[-7.973664,55.120887],[-7.973193,55.120887],[-7.973193,55.121156],[-7.972723,55.121156],[-7.972723,55.121426]]]]}}]}
