{"type":"FeatureCollection","features":[{"type":"Feature","properties":{"source_fid":1937953,"county":"Donegal","bog_geom_ha":187.92431807254545,"low15_pct":82.567049808429118,"low15_ha":155.16356530510936,"overlay_ha":155.19758510637573,"area_delta":0.034019801266367722},"geometry":{"type":"MultiPolygon","coordinates":[[[[-8.127078,55.060722],[-8.126788,55.060715],[-8.126789,55.060879],[-8.126841,55.060864],[-8.126989,55.060844],[-8.127025,55.060826],[-8.127054,55.060759],[-8.127078,55.060722]]],[[[-8.126692,55.061048],[-8.126739,55.060988],[-8.12632,55.060989],[-8.126321,55.061258],[-8.125851,55.061259],[-8.125853,55.061798],[-8.125383,55.061798],[-8.125384,55.062068],[-8.124445,55.062069],[-8.124444,55.061799],[-8.124913,55.061799],[-8.124912,55.06126],[-8.124911,55.06099],[-8.125381,55.06099],[-8.12538,55.060673],[-8.12444,55.060626],[-8.124441,55.060721],[-8.124441,55.060991],[-8.123972,55.060991],[-8.123973,55.061261],[-8.123973,55.06153],[-8.123504,55.061531],[-8.123505,55.0618],[-8.123035,55.061801],[-8.123036,55.06207],[-8.122566,55.062071],[-8.122567,55.06234],[-8.121628,55.062341],[-8.121627,55.062072],[-8.121158,55.062072],[-8.121159,55.062611],[-8.12069,55.062612],[-8.12069,55.062881],[-8.120691,55.063151],[-8.119752,55.063152],[-8.119751,55.062882],[-8.119282,55.062883],[-8.119282,55.063152],[-8.118813,55.063153],[-8.118813,55.063422],[-8.118344,55.063423],[-8.118343,55.063153],[-8.117873,55.063154],[-8.117873,55.062884],[-8.118342,55.062884],[-8.118341,55.062614],[-8.11834,55.062075],[-8.11881,55.062075],[-8.118809,55.061805],[-8.118808,55.061535],[-8.119278,55.061535],[-8.119277,55.061266],[-8.119746,55.061265],[-8.119745,55.060996],[-8.120215,55.060995],[-8.120214,55.060726],[-8.120213,55.060456],[-8.120683,55.060456],[-8.120682,55.060186],[-8.120681,55.059916],[-8.12068,55.059377],[-8.120678,55.058838],[-8.121148,55.058838],[-8.121147,55.058568],[-8.121146,55.058299],[-8.121616,55.058298],[-8.121615,55.058029],[-8.122084,55.058028],[-8.122085,55.058298],[-8.122086,55.058567],[-8.121616,55.058568],[-8.121617,55.058837],[-8.121619,55.059376],[-8.121149,55.059377],[-8.121151,55.059916],[-8.121621,55.059916],[-8.12162,55.059646],[-8.122089,55.059646],[-8.122089,55.059376],[-8.122558,55.059376],[-8.122557,55.059106],[-8.12293,55.059106],[-8.123025,55.058622],[-8.123024,55.058297],[-8.122555,55.058297],[-8.122554,55.058028],[-8.122553,55.057758],[-8.12255,55.05668],[-8.123019,55.05668],[-8.123017,55.055871],[-8.122547,55.055872],[-8.122547,55.055753],[-8.122367,55.055756],[-8.122212,55.055756],[-8.122126,55.05574],[-8.122078,55.05576],[-8.122078,55.055872],[-8.121608,55.055873],[-8.121609,55.056142],[-8.12114,55.056143],[-8.12114,55.056412],[-8.121142,55.056951],[-8.120673,55.056952],[-8.120674,55.057491],[-8.120675,55.05776],[-8.120205,55.057761],[-8.120207,55.0583],[-8.120208,55.058569],[-8.119738,55.05857],[-8.119739,55.058839],[-8.11974,55.059109],[-8.11927,55.059109],[-8.119271,55.059379],[-8.119272,55.059648],[-8.118802,55.059649],[-8.118803,55.059918],[-8.118804,55.060188],[-8.118334,55.060188],[-8.118335,55.060458],[-8.117866,55.060458],[-8.117866,55.060728],[-8.117397,55.060728],[-8.117398,55.060998],[-8.116928,55.060998],[-8.116927,55.060729],[-8.116458,55.060729],[-8.116457,55.06046],[-8.116456,55.06019],[-8.116455,55.059921],[-8.116925,55.05992],[-8.116924,55.059651],[-8.116923,55.059381],[-8.117393,55.059381],[-8.117392,55.059111],[-8.117391,55.058842],[-8.117861,55.058841],[-8.11786,55.058572],[-8.117859,55.058302],[-8.118329,55.058302],[-8.118328,55.057909],[-8.118203,55.057909],[-8.118201,55.057011],[-8.118795,55.05701],[-8.118794,55.056953],[-8.118793,55.056414],[-8.119262,55.056414],[-8.119261,55.056144],[-8.119261,55.055875],[-8.11973,55.055874],[-8.11973,55.05566],[-8.117916,55.056286],[-8.117847,55.05629],[-8.117658,55.056293],[-8.117604,55.056301],[-8.117587,55.056333],[-8.117591,55.056353],[-8.117518,55.056381],[-8.117434,55.056401],[-8.117392,55.056417],[-8.117342,55.056435],[-8.117295,55.05649],[-8.11731,55.056522],[-8.117241,55.056563],[-8.117066,55.056643],[-8.116971,55.056695],[-8.116906,55.056681],[-8.116842,55.056628],[-8.116803,55.056587],[-8.116759,55.056558],[-8.116714,55.056543],[-8.116704,55.056537],[-8.116665,55.05651],[-8.11661,55.056506],[-8.116372,55.056555],[-8.116291,55.056526],[-8.116158,55.056451],[-8.116029,55.056422],[-8.115943,55.056391],[-8.116019,55.056336],[-8.116048,55.056289],[-8.116044,55.056252],[-8.116,55.056251],[-8.115951,55.056251],[-8.115956,55.056303],[-8.115914,55.056339],[-8.115845,55.05636],[-8.115783,55.056357],[-8.115671,55.0564],[-8.115558,55.056458],[-8.115533,55.056484],[-8.115533,55.056484],[-8.1156,55.0567],[-8.115638,55.056811],[-8.115689,55.057022],[-8.115834,55.057477],[-8.11587,55.057711],[-8.115912,55.058153],[-8.115928,55.058606],[-8.115927,55.059068],[-8.115904,55.059181],[-8.115953,55.059277],[-8.115935,55.059388],[-8.115867,55.059731],[-8.115786,55.060071],[-8.115611,55.060629],[-8.115442,55.061063],[-8.115247,55.061258],[-8.114865,55.061675],[-8.114595,55.061966],[-8.11446,55.062187],[-8.114193,55.062633],[-8.113924,55.063062],[-8.113721,55.063304],[-8.11371,55.063334],[-8.113659,55.063447],[-8.113522,55.063664],[-8.113458,55.063769],[-8.113404,55.063881],[-8.11336,55.06399],[-8.113337,55.064089],[-8.113279,55.06432],[-8.113227,55.064541],[-8.113168,55.06477],[-8.113103,55.064991],[-8.113012,55.065223],[-8.112925,55.065441],[-8.11284,55.065661],[-8.112799,55.065771],[-8.112712,55.065984],[-8.112548,55.066306],[-8.112497,55.066421],[-8.112457,55.066532],[-8.112367,55.06675],[-8.112327,55.066867],[-8.112254,55.067096],[-8.112217,55.0672],[-8.11212,55.067421],[-8.112064,55.067525],[-8.112015,55.067645],[-8.111922,55.067864],[-8.111854,55.068087],[-8.111803,55.068204],[-8.111702,55.068426],[-8.111629,55.068654],[-8.111586,55.068759],[-8.111541,55.068873],[-8.111503,55.068989],[-8.111492,55.069101],[-8.111488,55.069215],[-8.11149,55.069331],[-8.111464,55.069561],[-8.111423,55.069784],[-8.111371,55.070008],[-8.111315,55.070235],[-8.111257,55.070467],[-8.111211,55.070708],[-8.111161,55.070938],[-8.111096,55.071149],[-8.111046,55.071376],[-8.110992,55.071616],[-8.110943,55.07184],[-8.110922,55.07196],[-8.110878,55.07208],[-8.11079,55.072295],[-8.110736,55.072414],[-8.110639,55.072634],[-8.110611,55.072694],[-8.110588,55.072745],[-8.11051,55.072957],[-8.110427,55.073193],[-8.110358,55.073408],[-8.110288,55.073636],[-8.110206,55.073859],[-8.110166,55.073972],[-8.110134,55.07408],[-8.110098,55.074188],[-8.110106,55.074294],[-8.110166,55.074402],[-8.110202,55.074515],[-8.110286,55.074737],[-8.110362,55.07494],[-8.110365,55.074951],[-8.11045,55.075179],[-8.110526,55.07537],[-8.11054,55.075408],[-8.110578,55.075512],[-8.110559,55.075615],[-8.110546,55.075733],[-8.110525,55.075844],[-8.110501,55.076074],[-8.110492,55.076167],[-8.11048,55.076298],[-8.110439,55.076533],[-8.110413,55.076705],[-8.110405,55.076757],[-8.110401,55.076781],[-8.110363,55.076993],[-8.110345,55.077103],[-8.110331,55.077217],[-8.110312,55.077448],[-8.110308,55.077507],[-8.110307,55.077529],[-8.110304,55.077566],[-8.110279,55.077657],[-8.110253,55.077873],[-8.11022,55.078052],[-8.110214,55.078121],[-8.110207,55.07826],[-8.110165,55.078344],[-8.110124,55.07842],[-8.110024,55.078648],[-8.109962,55.078732],[-8.109925,55.078782],[-8.109878,55.078857],[-8.109854,55.078896],[-8.109822,55.078951],[-8.109777,55.07904],[-8.109713,55.079145],[-8.109657,55.079244],[-8.109642,55.079272],[-8.109574,55.079401],[-8.109516,55.079501],[-8.109434,55.079645],[-8.10943,55.079653],[-8.109372,55.079754],[-8.109313,55.079858],[-8.109287,55.079906],[-8.109308,55.080011],[-8.109344,55.080171],[-8.109365,55.080281],[-8.109396,55.080439],[-8.109399,55.080452],[-8.109416,55.080551],[-8.109449,55.080712],[-8.109474,55.080819],[-8.109507,55.08096],[-8.109511,55.08098],[-8.109544,55.081087],[-8.109568,55.081196],[-8.109595,55.081304],[-8.1096,55.081357],[-8.109601,55.081406],[-8.109581,55.08146],[-8.109576,55.081474],[-8.109543,55.081564],[-8.109534,55.081617],[-8.109533,55.08167],[-8.109575,55.081718],[-8.109591,55.081769],[-8.109594,55.081829],[-8.109675,55.081862],[-8.109693,55.081913],[-8.109706,55.081967],[-8.109714,55.082019],[-8.109744,55.082056],[-8.109838,55.082058],[-8.109936,55.082067],[-8.11002,55.082083],[-8.110109,55.082102],[-8.110188,55.082131],[-8.110256,55.08217],[-8.110318,55.082211],[-8.110405,55.082234],[-8.110446,55.082244],[-8.110486,55.082254],[-8.110665,55.082228],[-8.110844,55.082199],[-8.11094,55.08219],[-8.111119,55.082171],[-8.111155,55.082168],[-8.111213,55.082163],[-8.111305,55.082153],[-8.111391,55.082135],[-8.11147,55.08211],[-8.111566,55.082119],[-8.111651,55.082117],[-8.111744,55.082098],[-8.111823,55.082073],[-8.111984,55.082017],[-8.112011,55.082009],[-8.11207,55.081991],[-8.112162,55.081979],[-8.11226,55.081968],[-8.112436,55.081934],[-8.112528,55.081923],[-8.112622,55.081915],[-8.112715,55.081907],[-8.112807,55.081906],[-8.112839,55.081905],[-8.112901,55.081903],[-8.113095,55.081898],[-8.113191,55.081896],[-8.113272,55.081931],[-8.113362,55.081944],[-8.113447,55.081958],[-8.113525,55.081979],[-8.113705,55.08203],[-8.113876,55.082069],[-8.113965,55.082085],[-8.114134,55.082127],[-8.114228,55.082154],[-8.114313,55.082176],[-8.114398,55.0822],[-8.114482,55.082223],[-8.114569,55.082245],[-8.11465,55.082266],[-8.114729,55.082294],[-8.114904,55.082338],[-8.114993,55.082359],[-8.115075,55.082378],[-8.115252,55.082429],[-8.115511,55.082499],[-8.115684,55.082552],[-8.115765,55.082575],[-8.11585,55.082595],[-8.116276,55.082715],[-8.116429,55.082754],[-8.116589,55.082796],[-8.116634,55.082816],[-8.116758,55.082869],[-8.116792,55.082885],[-8.116892,55.08293],[-8.116924,55.082591],[-8.116948,55.082465],[-8.117048,55.082348],[-8.117381,55.082015],[-8.117824,55.081572],[-8.118175,55.081254],[-8.118326,55.081117],[-8.118356,55.081089],[-8.118656,55.080806],[-8.118753,55.080678],[-8.118849,55.080549],[-8.119059,55.080286],[-8.11915,55.080172],[-8.119197,55.080113],[-8.119388,55.079863],[-8.119332,55.079863],[-8.119331,55.079643],[-8.119227,55.079629],[-8.117957,55.079302],[-8.118168,55.078954],[-8.118242,55.07883],[-8.118451,55.078585],[-8.118956,55.07799],[-8.119379,55.07742],[-8.119429,55.077353],[-8.119846,55.07679],[-8.119965,55.076623],[-8.120698,55.075595],[-8.120781,55.075473],[-8.120801,55.075444],[-8.121391,55.074577],[-8.121458,55.074534],[-8.121566,55.07447],[-8.121757,55.074335],[-8.121803,55.074307],[-8.121683,55.074304],[-8.121631,55.074293],[-8.121599,55.074257],[-8.121909,55.073949],[-8.122246,55.073387],[-8.122357,55.073193],[-8.122805,55.072403],[-8.123003,55.072054],[-8.123041,55.071988],[-8.122965,55.072031],[-8.122872,55.072047],[-8.122748,55.072027],[-8.12256,55.07201],[-8.122392,55.071982],[-8.122155,55.071968],[-8.121987,55.071918],[-8.121883,55.071837],[-8.121679,55.071773],[-8.121523,55.071717],[-8.121423,55.071639],[-8.121415,55.071512],[-8.121431,55.071473],[-8.12112,55.071224],[-8.121036,55.071194],[-8.120922,55.071188],[-8.120787,55.071208],[-8.120431,55.071073],[-8.12035,55.070992],[-8.120271,55.070971],[-8.120057,55.070993],[-8.119842,55.070973],[-8.119764,55.070988],[-8.119693,55.071],[-8.119537,55.071007],[-8.119445,55.070977],[-8.119397,55.070876],[-8.119233,55.070712],[-8.119221,55.070593],[-8.11927,55.070476],[-8.119266,55.070432],[-8.119319,55.07028],[-8.119351,55.070213],[-8.119335,55.07011],[-8.119344,55.070076],[-8.119347,55.070064],[-8.119404,55.069878],[-8.119469,55.069671],[-8.119533,55.069609],[-8.119674,55.069533],[-8.119768,55.06949],[-8.119902,55.06943],[-8.120115,55.069311],[-8.120147,55.069278],[-8.120131,55.069253],[-8.120159,55.069237],[-8.120256,55.069214],[-8.1193,55.069002],[-8.1193,55.069082],[-8.11883,55.069082],[-8.118831,55.069352],[-8.118833,55.07016],[-8.118835,55.0707],[-8.118365,55.0707],[-8.118368,55.071509],[-8.117898,55.071509],[-8.1179,55.072048],[-8.11743,55.072049],[-8.117428,55.071509],[-8.116959,55.07151],[-8.116956,55.070701],[-8.116955,55.070162],[-8.116485,55.070163],[-8.116483,55.069354],[-8.116952,55.069354],[-8.116952,55.069084],[-8.116951,55.068815],[-8.11742,55.068814],[-8.11742,55.068545],[-8.117889,55.068544],[-8.117889,55.068275],[-8.117888,55.068005],[-8.118357,55.068005],[-8.118357,55.067735],[-8.118356,55.067466],[-8.117886,55.067466],[-8.117885,55.067197],[-8.117885,55.066927],[-8.117884,55.066657],[-8.118353,55.066657],[-8.118354,55.066927],[-8.120233,55.066925],[-8.120232,55.066655],[-8.121641,55.066654],[-8.12164,55.066384],[-8.12211,55.066384],[-8.122109,55.066114],[-8.123048,55.066113],[-8.123047,55.065844],[-8.123517,55.065843],[-8.123518,55.066075],[-8.123636,55.065991],[-8.123732,55.065934],[-8.123865,55.06592],[-8.124081,55.065886],[-8.124338,55.065806],[-8.124616,55.065643],[-8.12465,55.065613],[-8.124745,55.0655],[-8.124784,55.065459],[-8.124797,55.065467],[-8.124804,55.065471],[-8.124836,55.06551],[-8.124911,55.06571],[-8.124923,55.06588],[-8.124926,55.065887],[-8.124926,55.065842],[-8.125396,55.065841],[-8.125396,55.066024],[-8.126352,55.06611],[-8.126982,55.066167],[-8.127274,55.066179],[-8.127459,55.066209],[-8.127503,55.066219],[-8.127743,55.066271],[-8.127947,55.066308],[-8.128144,55.066304],[-8.128308,55.066293],[-8.128472,55.066307],[-8.128628,55.066323],[-8.128745,55.066346],[-8.128941,55.066385],[-8.129113,55.066388],[-8.129394,55.066404],[-8.129638,55.066427],[-8.12964,55.066387],[-8.129657,55.06605],[-8.129669,55.065915],[-8.129672,55.065813],[-8.129691,55.065542],[-8.129699,55.065397],[-8.129702,55.065348],[-8.12971,55.065209],[-8.129719,55.065033],[-8.129737,55.064708],[-8.12975,55.064583],[-8.129764,55.064443],[-8.129757,55.064199],[-8.129785,55.063916],[-8.129794,55.063811],[-8.129823,55.063468],[-8.129798,55.063288],[-8.129824,55.063008],[-8.129653,55.062935],[-8.129471,55.062882],[-8.129381,55.062871],[-8.12929,55.062874],[-8.129204,55.062892],[-8.129192,55.062894],[-8.129118,55.062918],[-8.129057,55.062953],[-8.129038,55.062963],[-8.128987,55.062997],[-8.128907,55.063035],[-8.128829,55.063063],[-8.12874,55.063082],[-8.128614,55.063101],[-8.128468,55.063119],[-8.128363,55.063143],[-8.128263,55.063179],[-8.128169,55.063215],[-8.128073,55.063261],[-8.128056,55.06329],[-8.128,55.063319],[-8.127987,55.063321],[-8.127904,55.063326],[-8.127856,55.063324],[-8.127776,55.063305],[-8.127753,55.06329],[-8.127735,55.063259],[-8.127718,55.063217],[-8.127713,55.063177],[-8.127715,55.063068],[-8.127721,55.062968],[-8.127711,55.062901],[-8.12769,55.062849],[-8.127633,55.062775],[-8.127501,55.062661],[-8.12735,55.062541],[-8.127246,55.062473],[-8.127156,55.062421],[-8.127045,55.062381],[-8.126826,55.062318],[-8.126636,55.062275],[-8.126512,55.062238],[-8.126461,55.062215],[-8.1261,55.062142],[-8.126096,55.062099],[-8.126056,55.062057],[-8.125972,55.062046],[-8.125964,55.062034],[-8.125964,55.061977],[-8.125949,55.061947],[-8.125912,55.061926],[-8.125907,55.06191],[-8.125918,55.061897],[-8.125928,55.061881],[-8.125937,55.061865],[-8.125948,55.061841],[-8.125964,55.061823],[-8.126013,55.061765],[-8.126041,55.06171],[-8.126097,55.061687],[-8.126157,55.061687],[-8.126178,55.061579],[-8.126206,55.061505],[-8.126286,55.06146],[-8.12635,55.061402],[-8.126387,55.061347],[-8.126431,55.061303],[-8.126459,55.061255],[-8.126507,55.0612],[-8.126535,55.061152],[-8.126612,55.061124],[-8.126692,55.061048]],[[-8.123983,55.064495],[-8.123513,55.064496],[-8.123515,55.065304],[-8.123046,55.065305],[-8.123043,55.064496],[-8.123041,55.063688],[-8.12351,55.063687],[-8.12351,55.063418],[-8.124449,55.063417],[-8.12445,55.063686],[-8.12398,55.063687],[-8.123983,55.064495]],[[-8.118821,55.065848],[-8.118351,55.065848],[-8.118353,55.066387],[-8.117883,55.066388],[-8.117881,55.065849],[-8.117877,55.064232],[-8.117876,55.063962],[-8.118345,55.063962],[-8.118346,55.064231],[-8.118816,55.064231],[-8.118821,55.065848]],[[-8.11693,55.061807],[-8.116461,55.061807],[-8.116462,55.062346],[-8.115523,55.062347],[-8.115522,55.061808],[-8.115991,55.061808],[-8.11599,55.061538],[-8.11646,55.061538],[-8.116459,55.061268],[-8.116929,55.061268],[-8.11693,55.061537],[-8.11693,55.061807]],[[-8.116466,55.063694],[-8.116468,55.064233],[-8.115998,55.064234],[-8.115997,55.063694],[-8.115995,55.063155],[-8.116934,55.063154],[-8.116936,55.063694],[-8.116466,55.063694]],[[-8.115064,55.065852],[-8.115063,55.065582],[-8.115062,55.065313],[-8.116001,55.065312],[-8.116002,55.065581],[-8.115532,55.065582],[-8.115533,55.065851],[-8.115064,55.065852]],[[-8.114603,55.069086],[-8.114133,55.069087],[-8.114136,55.069895],[-8.113666,55.069896],[-8.113664,55.069087],[-8.113194,55.069088],[-8.113193,55.068818],[-8.113663,55.068818],[-8.113658,55.066931],[-8.114127,55.066931],[-8.114125,55.066122],[-8.114595,55.066122],[-8.114597,55.06693],[-8.114602,55.068817],[-8.114603,55.069086]],[[-8.116478,55.067737],[-8.11648,55.068546],[-8.116011,55.068546],[-8.116008,55.067737],[-8.116004,55.06639],[-8.116944,55.066389],[-8.116948,55.067736],[-8.116478,55.067737]],[[-8.112261,55.071245],[-8.11226,55.070975],[-8.11273,55.070975],[-8.11273,55.071244],[-8.112261,55.071245]],[[-8.111795,55.072593],[-8.111793,55.072054],[-8.111792,55.071515],[-8.112731,55.071514],[-8.112733,55.072053],[-8.112263,55.072053],[-8.112264,55.072592],[-8.111795,55.072593]]],[[[-8.123097,55.066511],[-8.123238,55.066383],[-8.123049,55.066383],[-8.12305,55.06655],[-8.123097,55.066511]]],[[[-8.122913,55.066664],[-8.122927,55.066652],[-8.12258,55.066653],[-8.122581,55.066765],[-8.122608,55.066779],[-8.12264,55.066786],[-8.122732,55.066765],[-8.122913,55.066664]]],[[[-8.122112,55.067127],[-8.122341,55.066923],[-8.122111,55.066923],[-8.122112,55.067127]]],[[[-8.121736,55.067463],[-8.122039,55.067192],[-8.121643,55.067193],[-8.121643,55.067462],[-8.120234,55.067464],[-8.120235,55.067505],[-8.1216,55.067746],[-8.121659,55.067647],[-8.121736,55.067463]]],[[[-8.120097,55.055533],[-8.11989,55.055605],[-8.120199,55.055604],[-8.120199,55.055552],[-8.120187,55.05555],[-8.120097,55.055533]]],[[[-8.123501,55.06058],[-8.123031,55.060556],[-8.123032,55.060723],[-8.123501,55.060722],[-8.123501,55.06058]]],[[[-8.122562,55.060723],[-8.122563,55.060993],[-8.123033,55.060992],[-8.123032,55.060723],[-8.122562,55.060723]]],[[[-8.122564,55.061262],[-8.122563,55.060993],[-8.122093,55.060993],[-8.122094,55.061263],[-8.122564,55.061262]]]]}}]}
