{"type":"FeatureCollection","features":[{"type":"Feature","properties":{"source_fid":1938193,"county":"Donegal","bog_geom_ha":375.99147604344137,"low15_pct":72.550898203592823,"low15_ha":272.78519303846321,"overlay_ha":272.6772547921492,"area_delta":-0.10793824631400639},"geometry":{"type":"MultiPolygon","coordinates":[[[[-8.186713,55.05383],[-8.186694,55.053898],[-8.18671,55.054068],[-8.186641,55.054231],[-8.186624,55.054269],[-8.186605,55.054401],[-8.186597,55.054462],[-8.186653,55.054537],[-8.186708,55.0546],[-8.186748,55.054686],[-8.1868,55.05484],[-8.186875,55.054935],[-8.186911,55.055051],[-8.18694,55.05518],[-8.186881,55.055268],[-8.186877,55.055368],[-8.186826,55.055468],[-8.186819,55.055531],[-8.186878,55.055583],[-8.187052,55.055667],[-8.187108,55.055701],[-8.187143,55.055784],[-8.187132,55.055864],[-8.187239,55.056045],[-8.187295,55.056197],[-8.187276,55.056242],[-8.187232,55.056267],[-8.187114,55.056367],[-8.187107,55.056421],[-8.187146,55.056491],[-8.18732,55.056584],[-8.187346,55.056603],[-8.187346,55.056598],[-8.187341,55.05552],[-8.18781,55.055519],[-8.187816,55.056597],[-8.188285,55.056596],[-8.188286,55.056866],[-8.18829,55.057674],[-8.18876,55.057674],[-8.188761,55.057943],[-8.188291,55.057944],[-8.188293,55.058213],[-8.188762,55.058213],[-8.188765,55.058752],[-8.190173,55.05875],[-8.190175,55.059019],[-8.189705,55.05902],[-8.189706,55.059289],[-8.189237,55.05929],[-8.189243,55.060638],[-8.188774,55.060639],[-8.188775,55.060908],[-8.189244,55.060907],[-8.189246,55.061177],[-8.188776,55.061178],[-8.188777,55.061447],[-8.189247,55.061446],[-8.18925,55.061985],[-8.189251,55.062255],[-8.18972,55.062254],[-8.189719,55.061985],[-8.191598,55.061982],[-8.191599,55.062251],[-8.1916,55.062521],[-8.191131,55.062522],[-8.191132,55.062791],[-8.191601,55.06279],[-8.191603,55.06306],[-8.191133,55.063061],[-8.191137,55.063869],[-8.192546,55.063867],[-8.192547,55.064137],[-8.192077,55.064137],[-8.192079,55.064407],[-8.19114,55.064408],[-8.191142,55.064947],[-8.190672,55.064948],[-8.190676,55.065757],[-8.191146,55.065756],[-8.191151,55.066834],[-8.191621,55.066833],[-8.191622,55.067103],[-8.192561,55.067101],[-8.192563,55.067371],[-8.193032,55.06737],[-8.193031,55.067101],[-8.193501,55.0671],[-8.193499,55.06683],[-8.193969,55.06683],[-8.193968,55.06656],[-8.194907,55.066559],[-8.194906,55.066289],[-8.195845,55.066288],[-8.195844,55.066018],[-8.198192,55.066014],[-8.198193,55.066284],[-8.197254,55.066285],[-8.197255,55.066555],[-8.197725,55.066554],[-8.197726,55.066824],[-8.198196,55.066823],[-8.198197,55.067092],[-8.198199,55.067362],[-8.197729,55.067363],[-8.197732,55.067902],[-8.196792,55.067903],[-8.196794,55.068173],[-8.196324,55.068173],[-8.196323,55.067904],[-8.194914,55.067906],[-8.194915,55.068176],[-8.194445,55.068176],[-8.194447,55.068446],[-8.194916,55.068445],[-8.194918,55.068715],[-8.194448,55.068716],[-8.194449,55.068985],[-8.19445,55.069255],[-8.194452,55.069524],[-8.193982,55.069525],[-8.193983,55.069794],[-8.193514,55.069795],[-8.193515,55.070065],[-8.193985,55.070064],[-8.193989,55.070873],[-8.193519,55.070873],[-8.193521,55.071412],[-8.193523,55.071682],[-8.193053,55.071683],[-8.193056,55.072222],[-8.192586,55.072222],[-8.192587,55.072492],[-8.193057,55.072491],[-8.193058,55.072761],[-8.193528,55.07276],[-8.193529,55.073029],[-8.19306,55.07303],[-8.193061,55.0733],[-8.193062,55.073569],[-8.192592,55.07357],[-8.192595,55.074109],[-8.193065,55.074108],[-8.193066,55.074378],[-8.194006,55.074376],[-8.194007,55.074646],[-8.193537,55.074647],[-8.19354,55.075186],[-8.193541,55.075455],[-8.193071,55.075456],[-8.193074,55.075995],[-8.192604,55.075996],[-8.192607,55.076535],[-8.192608,55.076804],[-8.192138,55.076805],[-8.192141,55.077344],[-8.192142,55.077614],[-8.191672,55.077614],[-8.191675,55.078154],[-8.189788,55.078156],[-8.189821,55.078543],[-8.189874,55.079129],[-8.189944,55.079573],[-8.190008,55.079946],[-8.190114,55.080312],[-8.190168,55.080543],[-8.1902,55.080777],[-8.190238,55.080887],[-8.190543,55.080759],[-8.191199,55.080533],[-8.191467,55.080429],[-8.191872,55.080302],[-8.192419,55.080069],[-8.192771,55.079941],[-8.193374,55.079733],[-8.193985,55.079511],[-8.194088,55.079257],[-8.194214,55.078768],[-8.19432,55.07846],[-8.194456,55.078085],[-8.194538,55.077813],[-8.194538,55.077812],[-8.194554,55.07776],[-8.194652,55.077382],[-8.194772,55.076781],[-8.194967,55.076196],[-8.195039,55.075789],[-8.195059,55.075639],[-8.195062,55.075613],[-8.195204,55.075519],[-8.195646,55.075172],[-8.19608,55.074792],[-8.196459,55.07454],[-8.197324,55.073955],[-8.197855,55.073621],[-8.198323,55.073333],[-8.198336,55.073325],[-8.198534,55.073203],[-8.199006,55.072911],[-8.199276,55.07274],[-8.199606,55.072538],[-8.199812,55.072395],[-8.199962,55.0723],[-8.200127,55.072196],[-8.200326,55.072079],[-8.200384,55.072033],[-8.200905,55.071708],[-8.201361,55.071446],[-8.201612,55.071299],[-8.20169,55.071253],[-8.201863,55.071151],[-8.202674,55.070661],[-8.203327,55.070206],[-8.203763,55.070002],[-8.203928,55.069892],[-8.204189,55.069761],[-8.204333,55.069685],[-8.204821,55.069436],[-8.205316,55.06919],[-8.205585,55.069077],[-8.206266,55.068754],[-8.206943,55.068433],[-8.207519,55.068173],[-8.208122,55.067909],[-8.208575,55.067704],[-8.208961,55.067531],[-8.20925,55.067414],[-8.209633,55.067249],[-8.210038,55.067063],[-8.21055,55.06686],[-8.21054,55.066802],[-8.208998,55.066805],[-8.208997,55.066535],[-8.208527,55.066536],[-8.208528,55.066806],[-8.20618,55.06681],[-8.206181,55.067079],[-8.205712,55.06708],[-8.20571,55.06681],[-8.204771,55.066812],[-8.204772,55.067081],[-8.203833,55.067083],[-8.203832,55.066813],[-8.201953,55.066817],[-8.201952,55.066547],[-8.202421,55.066546],[-8.20242,55.066277],[-8.203829,55.066274],[-8.203828,55.066005],[-8.204297,55.066004],[-8.204296,55.065735],[-8.204295,55.065465],[-8.204764,55.065464],[-8.204761,55.064925],[-8.203353,55.064928],[-8.203351,55.064658],[-8.201942,55.06466],[-8.201941,55.064391],[-8.202411,55.06439],[-8.202409,55.064121],[-8.202408,55.063851],[-8.201938,55.063852],[-8.20194,55.064121],[-8.201,55.064123],[-8.200999,55.063853],[-8.201469,55.063853],[-8.201466,55.063314],[-8.200527,55.063315],[-8.200524,55.062776],[-8.200054,55.062777],[-8.200053,55.062507],[-8.200992,55.062506],[-8.20099,55.061967],[-8.199581,55.061969],[-8.199579,55.061699],[-8.19911,55.0617],[-8.199108,55.061431],[-8.200048,55.061429],[-8.200046,55.06116],[-8.200516,55.061159],[-8.200515,55.060889],[-8.200984,55.060889],[-8.200985,55.061158],[-8.201455,55.061157],[-8.201456,55.061427],[-8.205213,55.061421],[-8.205215,55.06169],[-8.206154,55.061688],[-8.206155,55.061958],[-8.206625,55.061957],[-8.206623,55.061688],[-8.207093,55.061687],[-8.207092,55.061417],[-8.207561,55.061417],[-8.20756,55.061147],[-8.208969,55.061145],[-8.20897,55.061414],[-8.209439,55.061413],[-8.209441,55.061683],[-8.209858,55.061682],[-8.20983,55.061497],[-8.209796,55.061264],[-8.209786,55.061148],[-8.209786,55.061145],[-8.209777,55.061043],[-8.209731,55.060827],[-8.209698,55.060606],[-8.209669,55.060487],[-8.209634,55.060277],[-8.209552,55.05994],[-8.20948,55.059622],[-8.209425,55.059408],[-8.209381,55.059178],[-8.209325,55.058846],[-8.209285,55.058616],[-8.209233,55.058306],[-8.209207,55.05806],[-8.20914,55.057743],[-8.209066,55.057402],[-8.209042,55.057291],[-8.20899,55.057078],[-8.208961,55.056962],[-8.208872,55.056382],[-8.208786,55.056058],[-8.208664,55.055734],[-8.208553,55.055417],[-8.208434,55.05509],[-8.208354,55.054869],[-8.208231,55.054539],[-8.2081,55.054218],[-8.207996,55.053875],[-8.207828,55.053427],[-8.207713,55.053107],[-8.207639,55.052875],[-8.207526,55.052541],[-8.207394,55.052203],[-8.207319,55.051983],[-8.207043,55.051984],[-8.207041,55.051714],[-8.206572,55.051715],[-8.206571,55.051446],[-8.205632,55.051447],[-8.205633,55.051717],[-8.204694,55.051718],[-8.204693,55.051449],[-8.20469,55.05091],[-8.203282,55.050912],[-8.20328,55.050643],[-8.202811,55.050643],[-8.202809,55.050374],[-8.20187,55.050375],[-8.201869,55.050106],[-8.20093,55.050107],[-8.200929,55.049838],[-8.19952,55.04984],[-8.199519,55.049571],[-8.19905,55.049571],[-8.199048,55.049302],[-8.198109,55.049303],[-8.198107,55.048764],[-8.199046,55.048763],[-8.199045,55.048732],[-8.198125,55.048614],[-8.194755,55.048441],[-8.194101,55.048417],[-8.191775,55.048361],[-8.191772,55.048361],[-8.186835,55.048246],[-8.186759,55.048279],[-8.186609,55.04833],[-8.186578,55.048388],[-8.18657,55.048475],[-8.186602,55.048574],[-8.186595,55.04871],[-8.186635,55.048855],[-8.186556,55.048946],[-8.186565,55.049064],[-8.186652,55.049154],[-8.186747,55.049267],[-8.18685,55.049381],[-8.18685,55.049448],[-8.18678,55.049571],[-8.186711,55.049741],[-8.186791,55.049944],[-8.186819,55.050007],[-8.18678,55.050084],[-8.186765,55.050195],[-8.186773,55.050277],[-8.186856,55.050315],[-8.18688,55.050358],[-8.186908,55.050431],[-8.186916,55.050548],[-8.186905,55.050601],[-8.186929,55.050666],[-8.187008,55.050818],[-8.187119,55.050954],[-8.187222,55.051094],[-8.187211,55.051167],[-8.187117,55.051319],[-8.187109,55.051382],[-8.187114,55.051593],[-8.187075,55.05174],[-8.187075,55.051824],[-8.187075,55.051831],[-8.187115,55.05193],[-8.187139,55.051998],[-8.187136,55.052041],[-8.187104,55.052116],[-8.187089,55.052175],[-8.187113,55.052216],[-8.187168,55.052306],[-8.187184,55.052388],[-8.187189,55.052451],[-8.187252,55.052567],[-8.187288,55.052696],[-8.187305,55.052816],[-8.187297,55.052943],[-8.187262,55.053006],[-8.187256,55.053016],[-8.187215,55.053074],[-8.187113,55.053249],[-8.187035,55.053365],[-8.186909,55.053494],[-8.18674,55.053678],[-8.186673,55.053759],[-8.186677,55.053775],[-8.186713,55.05383]],[[-8.201003,55.064662],[-8.201942,55.06466],[-8.201944,55.06493],[-8.201004,55.064931],[-8.201003,55.064662]],[[-8.201014,55.066818],[-8.201953,55.066817],[-8.201955,55.067086],[-8.201956,55.067356],[-8.200547,55.067358],[-8.200546,55.067088],[-8.201015,55.067088],[-8.201014,55.066818]],[[-8.207529,55.055217],[-8.20753,55.055487],[-8.207061,55.055488],[-8.20706,55.055218],[-8.207058,55.054949],[-8.207997,55.054947],[-8.207999,55.055217],[-8.207529,55.055217]],[[-8.203758,55.052259],[-8.203756,55.051989],[-8.204226,55.051989],[-8.204227,55.052258],[-8.203758,55.052259]],[[-8.204231,55.053067],[-8.203762,55.053067],[-8.203761,55.052798],[-8.20423,55.052797],[-8.204231,55.053067]],[[-8.203292,55.053068],[-8.203762,55.053067],[-8.203763,55.053337],[-8.203294,55.053338],[-8.203292,55.053068]],[[-8.202355,55.053339],[-8.203294,55.053338],[-8.203295,55.053607],[-8.202356,55.053609],[-8.202355,55.053339]],[[-8.201895,55.055227],[-8.201425,55.055228],[-8.201424,55.054958],[-8.200954,55.054959],[-8.200953,55.054689],[-8.201423,55.054689],[-8.201419,55.05388],[-8.201417,55.05361],[-8.201887,55.05361],[-8.201888,55.053879],[-8.202358,55.053878],[-8.202362,55.054687],[-8.202363,55.054957],[-8.201893,55.054957],[-8.201895,55.055227]],[[-8.200956,55.055228],[-8.201425,55.055228],[-8.201427,55.055497],[-8.200957,55.055498],[-8.200956,55.055228]],[[-8.200488,55.055499],[-8.200957,55.055498],[-8.200958,55.055767],[-8.200489,55.055768],[-8.200488,55.055499]],[[-8.200019,55.055769],[-8.200489,55.055768],[-8.20049,55.056038],[-8.200492,55.056307],[-8.200022,55.056308],[-8.200023,55.056578],[-8.199084,55.056579],[-8.199086,55.056849],[-8.196738,55.056852],[-8.196737,55.056583],[-8.196267,55.056584],[-8.196266,55.056314],[-8.196735,55.056313],[-8.196734,55.056044],[-8.199082,55.05604],[-8.199083,55.05631],[-8.199553,55.056309],[-8.199551,55.056039],[-8.200021,55.056039],[-8.200019,55.055769]],[[-8.204242,55.055223],[-8.204249,55.056571],[-8.204719,55.05657],[-8.20472,55.056839],[-8.204722,55.057109],[-8.204252,55.05711],[-8.204253,55.057379],[-8.200497,55.057385],[-8.200496,55.057116],[-8.202843,55.057112],[-8.202842,55.056842],[-8.203312,55.056842],[-8.20331,55.056572],[-8.202841,55.056573],[-8.202834,55.055225],[-8.203303,55.055225],[-8.203302,55.054955],[-8.203301,55.054685],[-8.20424,55.054684],[-8.204241,55.054953],[-8.203772,55.054954],[-8.203773,55.055224],[-8.204242,55.055223]],[[-8.20332,55.058459],[-8.202381,55.05846],[-8.202382,55.05873],[-8.201912,55.058731],[-8.201911,55.058461],[-8.20191,55.058192],[-8.202379,55.058191],[-8.202378,55.057921],[-8.203317,55.05792],[-8.203318,55.058189],[-8.20332,55.058459]],[[-8.199565,55.058735],[-8.199563,55.058465],[-8.200033,55.058464],[-8.200034,55.058734],[-8.199565,55.058735]],[[-8.199102,55.060083],[-8.1991,55.059813],[-8.198161,55.059815],[-8.19816,55.059545],[-8.198157,55.059006],[-8.197688,55.059007],[-8.197689,55.059277],[-8.19722,55.059277],[-8.197218,55.059008],[-8.196749,55.059009],[-8.196747,55.058739],[-8.198626,55.058736],[-8.198627,55.059006],[-8.199096,55.059005],[-8.199099,55.059544],[-8.199569,55.059543],[-8.19957,55.059813],[-8.199571,55.060082],[-8.199102,55.060083]],[[-8.195779,55.052811],[-8.19531,55.052812],[-8.195308,55.052542],[-8.19343,55.052545],[-8.193432,55.052815],[-8.192962,55.052816],[-8.192961,55.052546],[-8.192958,55.052007],[-8.192957,55.051737],[-8.195304,55.051734],[-8.195306,55.052003],[-8.195775,55.052002],[-8.195778,55.052542],[-8.195779,55.052811]],[[-8.192971,55.054702],[-8.192966,55.053624],[-8.193436,55.053623],[-8.193441,55.054702],[-8.192971,55.054702]],[[-8.197225,55.060356],[-8.197694,55.060355],[-8.197696,55.060624],[-8.197226,55.060625],[-8.197225,55.060356]],[[-8.189196,55.050665],[-8.189195,55.050396],[-8.191542,55.050392],[-8.191544,55.050662],[-8.189196,55.050665]]],[[[-8.189747,55.077348],[-8.189764,55.077617],[-8.189793,55.077617],[-8.189792,55.077348],[-8.189747,55.077348]]],[[[-8.189616,55.076413],[-8.189638,55.07654],[-8.189788,55.076539],[-8.189785,55.076],[-8.189387,55.076001],[-8.189436,55.076064],[-8.189616,55.076413]]],[[[-8.189133,55.075672],[-8.189315,55.075908],[-8.189313,55.075462],[-8.189312,55.075192],[-8.188842,55.075193],[-8.188842,55.075263],[-8.188846,55.07527],[-8.188925,55.075336],[-8.189078,55.075462],[-8.189107,55.075555],[-8.189133,55.075672]]],[[[-8.188806,55.075191],[-8.188807,55.075193],[-8.188842,55.075193],[-8.18884,55.074654],[-8.188838,55.074385],[-8.188837,55.074115],[-8.188835,55.073576],[-8.188833,55.073306],[-8.189303,55.073306],[-8.189302,55.073036],[-8.1893,55.072767],[-8.189299,55.072497],[-8.189298,55.072228],[-8.188828,55.072228],[-8.188826,55.071689],[-8.188824,55.07142],[-8.189294,55.071419],[-8.189292,55.07088],[-8.189288,55.070071],[-8.189286,55.069802],[-8.189285,55.069532],[-8.189284,55.069263],[-8.189754,55.069262],[-8.189752,55.068992],[-8.189751,55.068723],[-8.188812,55.068724],[-8.18881,55.068455],[-8.188809,55.068185],[-8.188808,55.067916],[-8.188805,55.067377],[-8.188804,55.067107],[-8.188803,55.066838],[-8.188367,55.066838],[-8.188364,55.066878],[-8.188433,55.066982],[-8.18848,55.067044],[-8.188465,55.06708],[-8.188486,55.067115],[-8.18843,55.067208],[-8.188456,55.067251],[-8.188505,55.067265],[-8.188524,55.067291],[-8.188549,55.067379],[-8.188547,55.067431],[-8.188511,55.067449],[-8.188435,55.067441],[-8.188368,55.067436],[-8.188286,55.067436],[-8.188204,55.067466],[-8.188231,55.067573],[-8.188273,55.067637],[-8.188232,55.067703],[-8.188214,55.067768],[-8.188257,55.067812],[-8.188315,55.067854],[-8.188389,55.067897],[-8.188402,55.067989],[-8.188435,55.068029],[-8.188408,55.068062],[-8.188332,55.068064],[-8.188266,55.068086],[-8.188261,55.068136],[-8.188304,55.068205],[-8.188344,55.068254],[-8.188421,55.068262],[-8.188422,55.068316],[-8.188392,55.068374],[-8.18836,55.068404],[-8.188241,55.068425],[-8.188167,55.06849],[-8.188211,55.068519],[-8.188294,55.068524],[-8.188435,55.068498],[-8.18849,55.068468],[-8.188522,55.068472],[-8.188532,55.068503],[-8.188499,55.068581],[-8.18842,55.068653],[-8.188334,55.068687],[-8.188219,55.068689],[-8.188201,55.068705],[-8.188167,55.068745],[-8.18817,55.068787],[-8.188182,55.068805],[-8.188292,55.068879],[-8.188371,55.06893],[-8.188367,55.068971],[-8.188331,55.069],[-8.188308,55.069032],[-8.188336,55.069125],[-8.188344,55.069187],[-8.188279,55.069266],[-8.188269,55.069322],[-8.188316,55.069376],[-8.188314,55.069395],[-8.188274,55.069474],[-8.188269,55.069551],[-8.188259,55.069571],[-8.188211,55.069651],[-8.188168,55.069712],[-8.188169,55.069735],[-8.18816,55.069746],[-8.188132,55.069754],[-8.188022,55.069745],[-8.18797,55.069767],[-8.187989,55.069799],[-8.187983,55.069819],[-8.187979,55.069851],[-8.187986,55.069876],[-8.188001,55.069937],[-8.187997,55.069979],[-8.18798,55.070021],[-8.188002,55.070063],[-8.188033,55.070072],[-8.18808,55.07009],[-8.188098,55.070104],[-8.188133,55.070115],[-8.188184,55.070123],[-8.188213,55.070113],[-8.18827,55.070101],[-8.188343,55.070099],[-8.188378,55.070114],[-8.188413,55.070134],[-8.188418,55.070149],[-8.188403,55.070192],[-8.188339,55.070219],[-8.188249,55.070275],[-8.18824,55.070289],[-8.188241,55.070351],[-8.188244,55.070417],[-8.188226,55.070502],[-8.188217,55.070561],[-8.188287,55.070679],[-8.188278,55.070716],[-8.188315,55.070788],[-8.188337,55.070862],[-8.18836,55.070893],[-8.188358,55.070925],[-8.188432,55.070984],[-8.188527,55.071037],[-8.188568,55.071098],[-8.188562,55.071134],[-8.188495,55.071161],[-8.188429,55.071173],[-8.188444,55.071256],[-8.188474,55.071313],[-8.188447,55.071353],[-8.188365,55.071396],[-8.188354,55.071408],[-8.188357,55.071435],[-8.188396,55.071482],[-8.188405,55.071498],[-8.188446,55.071569],[-8.188422,55.071591],[-8.188413,55.071626],[-8.188425,55.07165],[-8.188407,55.071674],[-8.188376,55.071687],[-8.188399,55.071708],[-8.188413,55.071735],[-8.188402,55.071775],[-8.188384,55.071803],[-8.188388,55.071831],[-8.188402,55.071869],[-8.188419,55.071888],[-8.188473,55.071886],[-8.18849,55.071894],[-8.188479,55.071947],[-8.188436,55.071994],[-8.188382,55.072028],[-8.188383,55.072082],[-8.188418,55.072108],[-8.188465,55.07214],[-8.188506,55.072169],[-8.188494,55.072233],[-8.188417,55.072276],[-8.188384,55.072318],[-8.188381,55.072319],[-8.188297,55.072332],[-8.188306,55.072371],[-8.188366,55.072393],[-8.188465,55.072404],[-8.18857,55.07244],[-8.188573,55.072496],[-8.188556,55.072554],[-8.188516,55.072621],[-8.188461,55.072652],[-8.188473,55.072673],[-8.188503,55.072698],[-8.188555,55.072759],[-8.188538,55.072816],[-8.188516,55.072881],[-8.188481,55.07294],[-8.188479,55.07303],[-8.188601,55.073095],[-8.18863,55.073128],[-8.188628,55.073157],[-8.18865,55.073179],[-8.188639,55.07323],[-8.188676,55.073253],[-8.188689,55.073273],[-8.188636,55.073347],[-8.188602,55.073384],[-8.18857,55.073407],[-8.18856,55.073441],[-8.188603,55.073449],[-8.188635,55.073465],[-8.18865,55.073495],[-8.188655,55.073532],[-8.188647,55.073558],[-8.188603,55.073618],[-8.18856,55.073658],[-8.188548,55.073686],[-8.188565,55.073712],[-8.188572,55.073744],[-8.188544,55.073775],[-8.188574,55.073828],[-8.188563,55.073844],[-8.188577,55.073873],[-8.188599,55.073911],[-8.188587,55.073919],[-8.188588,55.073952],[-8.188605,55.073985],[-8.18864,55.074009],[-8.188641,55.074033],[-8.188606,55.074064],[-8.188575,55.074083],[-8.188516,55.074113],[-8.188534,55.074138],[-8.188514,55.07417],[-8.188492,55.074192],[-8.188493,55.074224],[-8.188482,55.07426],[-8.188525,55.074264],[-8.188536,55.074299],[-8.188545,55.074336],[-8.18851,55.074392],[-8.188479,55.074437],[-8.188513,55.074465],[-8.188523,55.074479],[-8.188492,55.074514],[-8.188488,55.074535],[-8.188506,55.07456],[-8.188553,55.07463],[-8.188547,55.074645],[-8.188538,55.074664],[-8.188609,55.074716],[-8.18865,55.074833],[-8.188639,55.074937],[-8.188682,55.075049],[-8.188717,55.075126],[-8.188806,55.075191]]],[[[-8.18819,55.066554],[-8.188332,55.066605],[-8.188328,55.06576],[-8.188324,55.064952],[-8.188322,55.064413],[-8.188321,55.064285],[-8.188274,55.064334],[-8.188218,55.064379],[-8.188108,55.064433],[-8.188034,55.064471],[-8.188007,55.06452],[-8.188044,55.06456],[-8.188066,55.064584],[-8.188046,55.064643],[-8.188002,55.064711],[-8.188004,55.064738],[-8.18801,55.064813],[-8.187991,55.064859],[-8.187951,55.064921],[-8.18791,55.064972],[-8.187935,55.065052],[-8.187934,55.065098],[-8.188108,55.0652],[-8.188138,55.065232],[-8.188211,55.065336],[-8.188246,55.06545],[-8.188246,55.065588],[-8.188235,55.065615],[-8.188172,55.065681],[-8.188064,55.065747],[-8.188024,55.065805],[-8.187941,55.065813],[-8.187834,55.065819],[-8.187759,55.065874],[-8.187766,55.065923],[-8.187832,55.065951],[-8.188038,55.065959],[-8.188105,55.065963],[-8.188103,55.065985],[-8.188054,55.066037],[-8.187993,55.06609],[-8.187926,55.066166],[-8.187922,55.066196],[-8.187914,55.066228],[-8.188036,55.066312],[-8.188165,55.066329],[-8.188259,55.066358],[-8.188309,55.066439],[-8.188291,55.066454],[-8.188238,55.06645],[-8.188169,55.066506],[-8.188173,55.066525],[-8.18819,55.066554]]],[[[-8.18827,55.064167],[-8.188321,55.064206],[-8.18832,55.064143],[-8.188319,55.063874],[-8.188315,55.063065],[-8.188314,55.062795],[-8.188313,55.062526],[-8.188312,55.062256],[-8.18831,55.061987],[-8.187957,55.061987],[-8.18794,55.062137],[-8.187913,55.062221],[-8.187921,55.062286],[-8.187937,55.062354],[-8.187985,55.06242],[-8.188088,55.062513],[-8.188139,55.06258],[-8.188147,55.062626],[-8.188128,55.062678],[-8.188077,55.062787],[-8.188065,55.062859],[-8.188093,55.062966],[-8.188074,55.063086],[-8.188035,55.063124],[-8.188003,55.063213],[-8.188017,55.063287],[-8.187994,55.063408],[-8.187969,55.063461],[-8.187962,55.063534],[-8.188041,55.063558],[-8.188039,55.063576],[-8.188026,55.06367],[-8.18801,55.063787],[-8.187971,55.063852],[-8.188047,55.06391],[-8.188149,55.063922],[-8.188186,55.063941],[-8.188266,55.064021],[-8.188296,55.064056],[-8.188283,55.064098],[-8.18827,55.064167]]],[[[-8.187714,55.061822],[-8.18784,55.061865],[-8.187838,55.061449],[-8.187838,55.06135],[-8.187818,55.061357],[-8.187783,55.061394],[-8.187732,55.061414],[-8.187657,55.06143],[-8.187606,55.061478],[-8.187594,55.061516],[-8.187602,55.061598],[-8.187674,55.061799],[-8.187714,55.061822]]],[[[-8.187825,55.061104],[-8.187837,55.061107],[-8.187836,55.06091],[-8.187834,55.06064],[-8.187828,55.059292],[-8.187827,55.059023],[-8.187826,55.058753],[-8.187823,55.058214],[-8.187822,55.057945],[-8.187821,55.057675],[-8.187817,55.056867],[-8.187347,55.056867],[-8.187347,55.056864],[-8.187334,55.056881],[-8.187342,55.05691],[-8.187452,55.056958],[-8.187504,55.056998],[-8.187551,55.05706],[-8.187556,55.057125],[-8.187588,55.057293],[-8.187671,55.057381],[-8.187707,55.057465],[-8.187719,55.057562],[-8.187731,55.05763],[-8.187772,55.057836],[-8.187768,55.057855],[-8.187681,55.057873],[-8.187571,55.057936],[-8.187429,55.058002],[-8.187413,55.058045],[-8.187477,55.058115],[-8.187623,55.058195],[-8.18771,55.058271],[-8.18773,55.058335],[-8.187735,55.058421],[-8.187617,55.058582],[-8.18757,55.058702],[-8.1875,55.058831],[-8.187516,55.058886],[-8.187528,55.058931],[-8.18754,55.05899],[-8.187552,55.059094],[-8.187576,55.059194],[-8.187593,55.059314],[-8.187636,55.05935],[-8.187715,55.059468],[-8.187759,55.059527],[-8.187755,55.059586],[-8.18772,55.059669],[-8.187665,55.059699],[-8.187389,55.059733],[-8.187361,55.059737],[-8.187362,55.059961],[-8.187385,55.059972],[-8.187473,55.060039],[-8.187531,55.06009],[-8.187549,55.060115],[-8.187555,55.060142],[-8.18756,55.060199],[-8.187451,55.060404],[-8.187372,55.060481],[-8.187392,55.060508],[-8.187432,55.060515],[-8.187534,55.060515],[-8.187582,55.060528],[-8.187618,55.060576],[-8.187626,55.060624],[-8.187599,55.060753],[-8.187642,55.060841],[-8.187637,55.060908],[-8.187663,55.060934],[-8.187726,55.06102],[-8.187825,55.061104]]],[[[-8.209454,55.064109],[-8.208984,55.064109],[-8.208985,55.064379],[-8.209455,55.064378],[-8.209454,55.064109]]],[[[-8.208514,55.06411],[-8.208984,55.064109],[-8.208983,55.06384],[-8.208513,55.063841],[-8.208514,55.06411]]],[[[-8.206644,55.065731],[-8.206646,55.066],[-8.206176,55.066001],[-8.206177,55.06627],[-8.207586,55.066268],[-8.207585,55.065999],[-8.208054,55.065998],[-8.208053,55.065728],[-8.206644,55.065731]]],[[[-8.19304,55.068987],[-8.193041,55.069257],[-8.193043,55.069526],[-8.193512,55.069526],[-8.193511,55.069256],[-8.193981,55.069255],[-8.193979,55.068986],[-8.19304,55.068987]]]]}}]}
