{"type":"FeatureCollection","features":[{"type":"Feature","properties":{"source_fid":1939255,"county":"Donegal","bog_geom_ha":276.70033013188356,"low15_pct":98.474521259331382,"low15_ha":272.47932542036182,"overlay_ha":272.46047225123959,"area_delta":-0.01885316912222379},"geometry":{"type":"MultiPolygon","coordinates":[[[[-8.29435,54.890396],[-8.293987,54.890397],[-8.293133,54.890517],[-8.293082,54.890417],[-8.292721,54.89045],[-8.292722,54.890626],[-8.294125,54.890622],[-8.294127,54.890892],[-8.295062,54.890889],[-8.295064,54.891159],[-8.295777,54.891157],[-8.295765,54.891136],[-8.295772,54.891122],[-8.295782,54.891089],[-8.29579,54.891017],[-8.295764,54.890986],[-8.295757,54.890959],[-8.295749,54.890936],[-8.295745,54.890914],[-8.295763,54.890893],[-8.295785,54.890884],[-8.295836,54.890888],[-8.295897,54.890896],[-8.295938,54.890914],[-8.295981,54.890932],[-8.295988,54.890947],[-8.296018,54.890964],[-8.296056,54.89098],[-8.296094,54.89099],[-8.296124,54.891017],[-8.296166,54.891033],[-8.296209,54.891078],[-8.296229,54.89111],[-8.29626,54.891146],[-8.296302,54.891196],[-8.29634,54.891241],[-8.296375,54.891285],[-8.29639,54.891327],[-8.296393,54.891364],[-8.297055,54.891196],[-8.297805,54.891019],[-8.298609,54.890833],[-8.298176,54.890518],[-8.298094,54.89034],[-8.298098,54.890317],[-8.298078,54.890294],[-8.298074,54.890289],[-8.29809,54.890268],[-8.298106,54.890252],[-8.298098,54.890245],[-8.298085,54.890229],[-8.298026,54.890211],[-8.298002,54.890202],[-8.297986,54.890188],[-8.297985,54.89014],[-8.298025,54.890105],[-8.298021,54.890096],[-8.298001,54.890085],[-8.297949,54.890078],[-8.297889,54.890046],[-8.297833,54.89003],[-8.297789,54.890019],[-8.297753,54.890001],[-8.297549,54.889951],[-8.297379,54.889909],[-8.296943,54.890111],[-8.296599,54.890171],[-8.296428,54.890179],[-8.296006,54.89023],[-8.295899,54.890243],[-8.295641,54.890273],[-8.295614,54.890403],[-8.295402,54.890487],[-8.295014,54.89041],[-8.29486,54.890461],[-8.29435,54.890396]]],[[[-8.296001,54.891382],[-8.296001,54.891388],[-8.29601,54.891386],[-8.296007,54.891384],[-8.296001,54.891382]]],[[[-8.272272,54.89469],[-8.272272,54.894757],[-8.273103,54.894812],[-8.272859,54.894776],[-8.272272,54.89469]]],[[[-8.308506,54.900869],[-8.30854,54.900711],[-8.308531,54.900561],[-8.308535,54.900522],[-8.308594,54.900398],[-8.308621,54.90032],[-8.308631,54.900159],[-8.308613,54.900066],[-8.308602,54.900011],[-8.308598,54.899994],[-8.308545,54.899856],[-8.308412,54.899635],[-8.308379,54.899581],[-8.308331,54.899528],[-8.308307,54.899499],[-8.308294,54.899432],[-8.308258,54.899315],[-8.308189,54.899207],[-8.308176,54.899136],[-8.308124,54.899056],[-8.30804,54.899022],[-8.307932,54.89899],[-8.307808,54.898901],[-8.307803,54.898832],[-8.30781,54.898719],[-8.307854,54.898573],[-8.30788,54.898492],[-8.307975,54.898376],[-8.308006,54.89825],[-8.308033,54.898183],[-8.308032,54.898128],[-8.30808,54.898082],[-8.308079,54.897937],[-8.308201,54.897763],[-8.308292,54.897673],[-8.308406,54.897548],[-8.30856,54.897399],[-8.308611,54.897291],[-8.308702,54.897152],[-8.308804,54.897059],[-8.308817,54.896851],[-8.308607,54.896846],[-8.308609,54.896812],[-8.307474,54.896796],[-8.305843,54.896748],[-8.304448,54.896697],[-8.303183,54.896652],[-8.303335,54.896087],[-8.303348,54.89604],[-8.303423,54.895774],[-8.308798,54.896006],[-8.308798,54.896003],[-8.308757,54.895677],[-8.308726,54.895558],[-8.308685,54.895303],[-8.308665,54.89519],[-8.308591,54.894574],[-8.308566,54.894444],[-8.308489,54.894057],[-8.308466,54.893945],[-8.308311,54.893506],[-8.308146,54.893197],[-8.30757,54.892476],[-8.307504,54.892421],[-8.307498,54.892424],[-8.30739,54.892386],[-8.307246,54.892335],[-8.306779,54.892194],[-8.306679,54.892153],[-8.306627,54.892073],[-8.30659,54.891981],[-8.306625,54.891931],[-8.306784,54.891783],[-8.306873,54.89173],[-8.306897,54.891715],[-8.306586,54.891344],[-8.306768,54.891255],[-8.306768,54.891254],[-8.30676,54.891244],[-8.30675,54.891231],[-8.306616,54.891268],[-8.306478,54.891307],[-8.306477,54.891308],[-8.306462,54.891324],[-8.306044,54.891758],[-8.305938,54.892272],[-8.305953,54.89239],[-8.306038,54.893056],[-8.303594,54.892899],[-8.303354,54.892879],[-8.302996,54.892846],[-8.302564,54.892826],[-8.302614,54.892991],[-8.302595,54.893065],[-8.302474,54.893397],[-8.302455,54.893451],[-8.302329,54.893782],[-8.302181,54.893774],[-8.301848,54.893768],[-8.301831,54.893922],[-8.301813,54.893924],[-8.301647,54.893903],[-8.301666,54.893936],[-8.30171,54.893986],[-8.301746,54.89403],[-8.301747,54.894067],[-8.301708,54.89411],[-8.303185,54.894106],[-8.303192,54.895005],[-8.301687,54.895008],[-8.301659,54.895075],[-8.301604,54.895144],[-8.301525,54.895234],[-8.301077,54.895476],[-8.300137,54.895959],[-8.29987,54.895926],[-8.2996,54.895839],[-8.299296,54.895734],[-8.29925,54.895699],[-8.29872,54.895366],[-8.298516,54.895217],[-8.298138,54.895018],[-8.298049,54.894954],[-8.298126,54.894839],[-8.298246,54.894733],[-8.298594,54.894475],[-8.298895,54.894242],[-8.299204,54.893936],[-8.29942,54.89372],[-8.299337,54.893451],[-8.299417,54.893168],[-8.299406,54.893005],[-8.299459,54.892875],[-8.299592,54.892619],[-8.299579,54.892616],[-8.299594,54.892472],[-8.299547,54.892463],[-8.29947,54.892406],[-8.299454,54.892394],[-8.29941,54.892346],[-8.29929,54.892305],[-8.299218,54.892261],[-8.299189,54.892121],[-8.298986,54.892136],[-8.298812,54.892081],[-8.298151,54.892379],[-8.298081,54.892409],[-8.297758,54.89255],[-8.297285,54.892749],[-8.29698,54.892897],[-8.296694,54.893033],[-8.296654,54.893051],[-8.296421,54.893153],[-8.296162,54.893262],[-8.296165,54.893129],[-8.296156,54.892932],[-8.29619,54.892758],[-8.296204,54.892667],[-8.296203,54.89255],[-8.296168,54.892518],[-8.296167,54.892451],[-8.296176,54.892414],[-8.296191,54.892357],[-8.296202,54.892286],[-8.29611,54.892221],[-8.296109,54.892173],[-8.296133,54.89209],[-8.296187,54.891978],[-8.295873,54.891696],[-8.295535,54.891697],[-8.295533,54.891427],[-8.295066,54.891429],[-8.295064,54.891159],[-8.291323,54.891168],[-8.291325,54.891438],[-8.289455,54.891442],[-8.289456,54.891712],[-8.288989,54.891713],[-8.288987,54.891443],[-8.287584,54.891446],[-8.287586,54.891716],[-8.287118,54.891717],[-8.287122,54.892256],[-8.286655,54.892257],[-8.286651,54.891718],[-8.286649,54.891449],[-8.286647,54.891179],[-8.286645,54.89091],[-8.288048,54.890906],[-8.288046,54.890637],[-8.288514,54.890636],[-8.288515,54.890905],[-8.289918,54.890902],[-8.289916,54.890632],[-8.292254,54.890627],[-8.292252,54.890357],[-8.292446,54.890357],[-8.292213,54.889939],[-8.292501,54.889913],[-8.29254,54.889898],[-8.293099,54.889848],[-8.293836,54.889778],[-8.293918,54.889694],[-8.294051,54.88969],[-8.293981,54.889549],[-8.293956,54.889432],[-8.293951,54.889382],[-8.293958,54.889248],[-8.293988,54.889172],[-8.293996,54.888922],[-8.293977,54.888475],[-8.293974,54.888435],[-8.29377,54.888372],[-8.293442,54.888241],[-8.293255,54.888177],[-8.292938,54.888068],[-8.292329,54.887867],[-8.291991,54.887703],[-8.291861,54.887711],[-8.291695,54.887698],[-8.291544,54.887711],[-8.291362,54.887737],[-8.291294,54.887738],[-8.29103,54.887775],[-8.290944,54.887771],[-8.290823,54.887796],[-8.290755,54.887797],[-8.290537,54.887795],[-8.290481,54.887803],[-8.290373,54.887837],[-8.290336,54.887835],[-8.29013,54.887894],[-8.289864,54.887961],[-8.289813,54.887974],[-8.289747,54.888021],[-8.289639,54.888073],[-8.289586,54.888142],[-8.289598,54.888228],[-8.289617,54.88834],[-8.289639,54.88844],[-8.289585,54.888508],[-8.289508,54.888558],[-8.289424,54.888574],[-8.289315,54.888575],[-8.28915,54.888575],[-8.289113,54.888555],[-8.289075,54.888531],[-8.289007,54.888539],[-8.288985,54.888566],[-8.288972,54.888605],[-8.288877,54.888637],[-8.2888,54.888628],[-8.288696,54.888602],[-8.288706,54.888622],[-8.288483,54.888686],[-8.288384,54.888685],[-8.288337,54.888736],[-8.288305,54.888745],[-8.288051,54.888774],[-8.288024,54.888835],[-8.288,54.888846],[-8.287836,54.888869],[-8.287754,54.888889],[-8.287718,54.888945],[-8.287607,54.888951],[-8.287577,54.888958],[-8.287524,54.888982],[-8.287332,54.889065],[-8.287072,54.889124],[-8.286921,54.889166],[-8.286705,54.889157],[-8.286623,54.889173],[-8.286528,54.889206],[-8.286469,54.889245],[-8.286378,54.889307],[-8.286244,54.889336],[-8.286115,54.889336],[-8.285944,54.889328],[-8.28578,54.889349],[-8.285669,54.889383],[-8.285603,54.889428],[-8.285521,54.88946],[-8.285374,54.889487],[-8.285264,54.889537],[-8.284977,54.889661],[-8.284743,54.889775],[-8.284612,54.889857],[-8.284574,54.889918],[-8.284566,54.889988],[-8.284566,54.890011],[-8.28495,54.890161],[-8.284978,54.890228],[-8.285031,54.89031],[-8.285107,54.890361],[-8.285175,54.890363],[-8.285334,54.890358],[-8.285482,54.890387],[-8.285607,54.890573],[-8.285724,54.890793],[-8.285848,54.89082],[-8.285884,54.890866],[-8.286016,54.890909],[-8.286017,54.890911],[-8.286177,54.890911],[-8.286179,54.891177],[-8.286286,54.891283],[-8.286254,54.891391],[-8.286338,54.89143],[-8.28634,54.891582],[-8.28638,54.891618],[-8.286329,54.891752],[-8.286345,54.891786],[-8.286357,54.891813],[-8.286382,54.891841],[-8.286362,54.891931],[-8.2864,54.892167],[-8.286488,54.892243],[-8.286493,54.892339],[-8.286498,54.892399],[-8.286486,54.892484],[-8.286542,54.892541],[-8.286636,54.892764],[-8.286688,54.892775],[-8.286799,54.892759],[-8.286867,54.89282],[-8.286904,54.892905],[-8.286917,54.892986],[-8.286949,54.893087],[-8.286974,54.893222],[-8.286967,54.893291],[-8.286837,54.893555],[-8.286838,54.89359],[-8.286878,54.893659],[-8.287038,54.893771],[-8.287142,54.893835],[-8.287203,54.893878],[-8.287207,54.893908],[-8.287207,54.893945],[-8.287195,54.893975],[-8.287199,54.89402],[-8.287248,54.894064],[-8.28736,54.894147],[-8.287472,54.894153],[-8.287563,54.894169],[-8.2876,54.894238],[-8.287596,54.894305],[-8.287648,54.894341],[-8.287756,54.894396],[-8.288178,54.894749],[-8.288182,54.894781],[-8.28817,54.894806],[-8.288194,54.894827],[-8.288302,54.894845],[-8.288338,54.894845],[-8.288342,54.894861],[-8.288346,54.894914],[-8.288351,54.894946],[-8.288327,54.894987],[-8.288319,54.895031],[-8.288363,54.895051],[-8.288427,54.89509],[-8.288519,54.89512],[-8.288623,54.895152],[-8.288679,54.895197],[-8.288679,54.895227],[-8.288712,54.895248],[-8.288799,54.895266],[-8.288819,54.895289],[-8.288816,54.895333],[-8.28876,54.895367],[-8.288665,54.895427],[-8.288629,54.895441],[-8.288666,54.89548],[-8.288837,54.895509],[-8.288949,54.895544],[-8.288981,54.895564],[-8.288941,54.89559],[-8.288822,54.895627],[-8.288818,54.89565],[-8.288839,54.895734],[-8.288907,54.895792],[-8.288995,54.895867],[-8.288944,54.895893],[-8.288884,54.895923],[-8.288881,54.895971],[-8.288933,54.896051],[-8.288974,54.896164],[-8.28901,54.896219],[-8.288979,54.896331],[-8.288853,54.896488],[-8.288747,54.896702],[-8.288732,54.89681],[-8.288749,54.89689],[-8.288853,54.897018],[-8.288778,54.89714],[-8.288715,54.897168],[-8.288607,54.897178],[-8.288524,54.897212],[-8.288504,54.897238],[-8.288421,54.897256],[-8.288325,54.897275],[-8.28821,54.897326],[-8.288163,54.897356],[-8.288172,54.897496],[-8.2881,54.89753],[-8.288061,54.897675],[-8.287803,54.897772],[-8.28768,54.897777],[-8.287515,54.89779],[-8.289413,54.901214],[-8.289587,54.901538],[-8.290538,54.904509],[-8.291515,54.906044],[-8.291762,54.906373],[-8.292005,54.906466],[-8.292246,54.906645],[-8.292339,54.906814],[-8.292426,54.906938],[-8.292472,54.907005],[-8.292629,54.907195],[-8.292678,54.907314],[-8.292683,54.907461],[-8.292637,54.907645],[-8.29267,54.907803],[-8.292934,54.908],[-8.293214,54.908121],[-8.293531,54.908277],[-8.293695,54.908437],[-8.293717,54.908719],[-8.293815,54.90894],[-8.29394,54.909093],[-8.294064,54.909198],[-8.294216,54.909242],[-8.294332,54.909285],[-8.294394,54.909307],[-8.2944,54.909303],[-8.294444,54.909296],[-8.294493,54.909296],[-8.294558,54.909289],[-8.294559,54.909289],[-8.294575,54.909261],[-8.294559,54.909241],[-8.294551,54.909232],[-8.294574,54.909213],[-8.294606,54.909185],[-8.294614,54.909165],[-8.294638,54.909153],[-8.294697,54.909146],[-8.294737,54.909125],[-8.294773,54.909091],[-8.294816,54.909063],[-8.294872,54.909045],[-8.294904,54.90904],[-8.294964,54.90904],[-8.295047,54.909051],[-8.295127,54.909062],[-8.295183,54.909067],[-8.295227,54.909071],[-8.295232,54.909068],[-8.295235,54.909071],[-8.295323,54.909062],[-8.295358,54.909041],[-8.295398,54.909022],[-8.295457,54.90899],[-8.295506,54.908936],[-8.295572,54.908861],[-8.295568,54.90883],[-8.295568,54.908829],[-8.295568,54.908806],[-8.295567,54.908781],[-8.295589,54.908762],[-8.295603,54.908749],[-8.295631,54.908739],[-8.295687,54.908739],[-8.295722,54.908743],[-8.29579,54.908705],[-8.296018,54.908745],[-8.296215,54.908838],[-8.296352,54.90893],[-8.296484,54.909035],[-8.296571,54.909151],[-8.296612,54.909218],[-8.296805,54.909307],[-8.29683,54.909302],[-8.297179,54.909481],[-8.297231,54.909592],[-8.297292,54.909641],[-8.297403,54.909734],[-8.297454,54.909812],[-8.297738,54.909872],[-8.297895,54.909965],[-8.297981,54.910038],[-8.297987,54.910116],[-8.297989,54.91012],[-8.29801,54.910153],[-8.298033,54.910189],[-8.298043,54.910266],[-8.298049,54.91027],[-8.298155,54.910372],[-8.298111,54.910485],[-8.29802,54.910555],[-8.297905,54.91066],[-8.297906,54.910756],[-8.297851,54.910838],[-8.297846,54.910899],[-8.297857,54.910948],[-8.297958,54.910998],[-8.297989,54.911062],[-8.297964,54.911105],[-8.297952,54.911105],[-8.297953,54.911106],[-8.297878,54.911135],[-8.297752,54.911178],[-8.29757,54.911164],[-8.29748,54.911249],[-8.297385,54.911342],[-8.297391,54.911459],[-8.297412,54.911534],[-8.297377,54.911639],[-8.297307,54.911721],[-8.297268,54.911763],[-8.297212,54.911753],[-8.297146,54.911751],[-8.297114,54.911751],[-8.297074,54.911728],[-8.296703,54.911676],[-8.296668,54.911681],[-8.296663,54.911679],[-8.296609,54.91162],[-8.296529,54.911606],[-8.296514,54.911656],[-8.296509,54.911661],[-8.296517,54.911738],[-8.296524,54.911744],[-8.29662,54.911769],[-8.296741,54.911844],[-8.296854,54.911882],[-8.296895,54.911892],[-8.29696,54.911934],[-8.297245,54.912154],[-8.29726,54.912195],[-8.297278,54.91227],[-8.297381,54.912305],[-8.297498,54.912333],[-8.297684,54.912358],[-8.297813,54.912348],[-8.298004,54.912382],[-8.298156,54.912471],[-8.298324,54.912521],[-8.298516,54.912536],[-8.298745,54.912558],[-8.29892,54.912546],[-8.299066,54.912545],[-8.299108,54.912545],[-8.29917,54.912507],[-8.299193,54.912448],[-8.299342,54.91242],[-8.29947,54.912388],[-8.299627,54.912423],[-8.29993,54.91254],[-8.300182,54.912618],[-8.300447,54.912661],[-8.300935,54.912824],[-8.301401,54.912965],[-8.301653,54.913037],[-8.301744,54.913055],[-8.301833,54.913076],[-8.302021,54.913144],[-8.302071,54.913146],[-8.302111,54.913139],[-8.302091,54.913101],[-8.30211,54.913034],[-8.302159,54.912989],[-8.302276,54.912989],[-8.302403,54.912993],[-8.302518,54.912971],[-8.30267,54.912943],[-8.303094,54.912911],[-8.303296,54.912903],[-8.303361,54.912927],[-8.303393,54.912933],[-8.303396,54.912889],[-8.303584,54.912835],[-8.303718,54.912869],[-8.303879,54.912935],[-8.304087,54.912899],[-8.304428,54.912938],[-8.304538,54.912897],[-8.305016,54.912848],[-8.305444,54.912961],[-8.305893,54.913045],[-8.30595,54.91306],[-8.306248,54.913138],[-8.306696,54.913217],[-8.306908,54.913252],[-8.307173,54.913296],[-8.307578,54.91335],[-8.307817,54.913427],[-8.308008,54.91347],[-8.308389,54.913501],[-8.308673,54.913526],[-8.308747,54.913548],[-8.308909,54.913552],[-8.309248,54.913514],[-8.309541,54.913508],[-8.309599,54.913514],[-8.309604,54.913537],[-8.309609,54.913516],[-8.309608,54.913492],[-8.309609,54.913405],[-8.309639,54.913281],[-8.309671,54.913191],[-8.309765,54.912986],[-8.309815,54.912885],[-8.309906,54.912743],[-8.309853,54.912731],[-8.30996,54.912459],[-8.310093,54.912295],[-8.310251,54.912106],[-8.310401,54.91192],[-8.310506,54.911799],[-8.310537,54.911741],[-8.310541,54.911734],[-8.310564,54.911672],[-8.310599,54.911547],[-8.310622,54.911462],[-8.310637,54.911405],[-8.310643,54.911376],[-8.310643,54.911366],[-8.310578,54.91122],[-8.310543,54.911141],[-8.310491,54.911055],[-8.310473,54.911019],[-8.310402,54.910704],[-8.31039,54.910592],[-8.310365,54.910327],[-8.310352,54.910171],[-8.310333,54.910009],[-8.310297,54.909698],[-8.310278,54.909569],[-8.310277,54.909436],[-8.310283,54.909393],[-8.310277,54.909353],[-8.310255,54.909249],[-8.310249,54.909243],[-8.30978,54.908716],[-8.30949,54.908324],[-8.309249,54.908024],[-8.309161,54.907683],[-8.309111,54.907547],[-8.309,54.907245],[-8.308833,54.906787],[-8.30882,54.906667],[-8.308792,54.906599],[-8.308793,54.906491],[-8.308796,54.906427],[-8.308783,54.906261],[-8.308783,54.90617],[-8.308799,54.906118],[-8.308841,54.906046],[-8.308876,54.905995],[-8.30894,54.90591],[-8.308965,54.905864],[-8.309019,54.905559],[-8.309099,54.905353],[-8.30899,54.905322],[-8.309003,54.905016],[-8.308994,54.904855],[-8.309148,54.904738],[-8.309198,54.904533],[-8.309189,54.904329],[-8.309055,54.904086],[-8.308943,54.904029],[-8.308902,54.903891],[-8.308869,54.903762],[-8.308712,54.903563],[-8.308504,54.903257],[-8.308586,54.902789],[-8.308617,54.902672],[-8.308779,54.902534],[-8.308874,54.902419],[-8.308853,54.902299],[-8.308831,54.902065],[-8.308685,54.901829],[-8.308487,54.901492],[-8.30839,54.90135],[-8.308358,54.901281],[-8.308297,54.901185],[-8.308305,54.9011],[-8.308368,54.901028],[-8.308491,54.900989],[-8.308531,54.900961],[-8.308506,54.900869]],[[-8.302562,54.893297],[-8.303029,54.893296],[-8.303031,54.893565],[-8.302564,54.893566],[-8.302562,54.893297]]]]}}]}
