{"type":"FeatureCollection","features":[{"type":"Feature","properties":{"source_fid":1943615,"county":"Donegal","bog_geom_ha":250.20052448997367,"low15_pct":76.743350107836093,"low15_ha":192.01226448098268,"overlay_ha":191.31170566883415,"area_delta":-0.70055881214852889},"geometry":{"type":"MultiPolygon","coordinates":[[[[-8.654379,54.68382],[-8.653728,54.684071],[-8.653088,54.684325],[-8.653086,54.684326],[-8.652141,54.684707],[-8.652133,54.68471],[-8.652032,54.684751],[-8.651945,54.684786],[-8.65188,54.684812],[-8.651478,54.684968],[-8.650968,54.685162],[-8.650786,54.685235],[-8.650491,54.685355],[-8.650291,54.685436],[-8.65015,54.68549],[-8.65015,54.68549],[-8.65015,54.68549],[-8.650147,54.685491],[-8.650145,54.685492],[-8.649792,54.685627],[-8.649472,54.685754],[-8.649046,54.685739],[-8.649037,54.685739],[-8.648133,54.685707],[-8.647522,54.685718],[-8.646922,54.68574],[-8.646115,54.685773],[-8.645506,54.685809],[-8.644907,54.685838],[-8.644516,54.685862],[-8.644134,54.685874],[-8.643595,54.685918],[-8.642987,54.685957],[-8.64219,54.686022],[-8.641587,54.686083],[-8.641591,54.686314],[-8.641125,54.686317],[-8.641134,54.686856],[-8.641599,54.686853],[-8.641603,54.687123],[-8.642069,54.68712],[-8.642073,54.68739],[-8.642538,54.687387],[-8.642542,54.687657],[-8.643008,54.687655],[-8.643012,54.687922],[-8.643025,54.687916],[-8.643069,54.687895],[-8.643112,54.68787],[-8.64316,54.687809],[-8.643182,54.687757],[-8.643245,54.687744],[-8.643364,54.687739],[-8.643457,54.687722],[-8.6435,54.687706],[-8.643531,54.687649],[-8.643611,54.687522],[-8.643653,54.687461],[-8.643741,54.687372],[-8.643824,54.687333],[-8.64389,54.687328],[-8.643934,54.687342],[-8.644014,54.687355],[-8.64408,54.687351],[-8.644122,54.687329],[-8.644168,54.687278],[-8.644273,54.687178],[-8.644344,54.687022],[-8.644383,54.686971],[-8.644451,54.686944],[-8.644651,54.68689],[-8.644808,54.686842],[-8.644957,54.686795],[-8.645146,54.686752],[-8.645348,54.686708],[-8.645463,54.686675],[-8.645476,54.686667],[-8.645529,54.686628],[-8.645618,54.686573],[-8.645808,54.68647],[-8.645867,54.686453],[-8.645986,54.686453],[-8.64607,54.686444],[-8.64612,54.686445],[-8.64636,54.686487],[-8.646536,54.686504],[-8.646732,54.686536],[-8.646819,54.686555],[-8.64689,54.68657],[-8.647078,54.686572],[-8.647152,54.686564],[-8.647225,54.686546],[-8.647303,54.686544],[-8.647386,54.686568],[-8.647463,54.686601],[-8.647525,54.686614],[-8.647617,54.686604],[-8.647741,54.686583],[-8.64775,54.686588],[-8.647622,54.686609],[-8.64752,54.686621],[-8.647459,54.686607],[-8.647375,54.68657],[-8.647298,54.68655],[-8.64723,54.686551],[-8.647154,54.686568],[-8.64707,54.686577],[-8.646887,54.686576],[-8.646712,54.686538],[-8.646533,54.68651],[-8.646346,54.686491],[-8.646117,54.686451],[-8.646076,54.686449],[-8.645988,54.686458],[-8.64587,54.686459],[-8.645813,54.686474],[-8.645752,54.686507],[-8.64562,54.68658],[-8.645464,54.68668],[-8.645346,54.686713],[-8.645225,54.686738],[-8.644951,54.6868],[-8.644818,54.686842],[-8.644685,54.686882],[-8.644464,54.686945],[-8.644392,54.686973],[-8.644351,54.687022],[-8.644317,54.687104],[-8.644279,54.687183],[-8.644181,54.687276],[-8.644461,54.68724],[-8.644575,54.687227],[-8.644637,54.687201],[-8.644661,54.687169],[-8.644732,54.6871],[-8.644796,54.687078],[-8.64488,54.687066],[-8.644957,54.687061],[-8.645107,54.687071],[-8.645294,54.687156],[-8.645333,54.687208],[-8.645404,54.687248],[-8.645473,54.687275],[-8.645502,54.68728],[-8.645651,54.687308],[-8.645796,54.687322],[-8.645826,54.68735],[-8.645838,54.687368],[-8.645854,54.687372],[-8.645916,54.687371],[-8.646023,54.687376],[-8.64617,54.687393],[-8.646527,54.687467],[-8.646612,54.687492],[-8.646818,54.687576],[-8.646872,54.68758],[-8.646894,54.687582],[-8.646955,54.687581],[-8.64703,54.68757],[-8.647122,54.68756],[-8.647185,54.687548],[-8.647298,54.687532],[-8.647362,54.687551],[-8.647392,54.687561],[-8.647425,54.687572],[-8.647511,54.687601],[-8.647615,54.687618],[-8.647685,54.68766],[-8.647685,54.687665],[-8.647672,54.687711],[-8.647686,54.687719],[-8.647846,54.687672],[-8.6479,54.687687],[-8.647926,54.687715],[-8.647913,54.687776],[-8.647943,54.687791],[-8.648014,54.687796],[-8.648069,54.687829],[-8.648129,54.68786],[-8.648124,54.687865],[-8.648057,54.687829],[-8.648008,54.687799],[-8.647941,54.687796],[-8.647906,54.687778],[-8.647916,54.687714],[-8.647892,54.687691],[-8.647843,54.687677],[-8.647685,54.687725],[-8.647663,54.687711],[-8.647676,54.687663],[-8.647614,54.687626],[-8.647506,54.687605],[-8.647425,54.687577],[-8.647422,54.687576],[-8.647342,54.687548],[-8.647301,54.687537],[-8.647226,54.687547],[-8.647134,54.687563],[-8.646976,54.687583],[-8.647073,54.687594],[-8.647126,54.687611],[-8.647136,54.687617],[-8.647159,54.68767],[-8.64723,54.687736],[-8.647429,54.687826],[-8.64743,54.687827],[-8.647647,54.687903],[-8.648112,54.68804],[-8.648343,54.688091],[-8.648466,54.688119],[-8.648559,54.688127],[-8.648624,54.688105],[-8.648738,54.688078],[-8.648827,54.688069],[-8.648918,54.688073],[-8.649066,54.688109],[-8.649166,54.688153],[-8.649249,54.688191],[-8.649342,54.688208],[-8.649437,54.688211],[-8.649501,54.68822],[-8.649531,54.688227],[-8.64953,54.688159],[-8.649995,54.688156],[-8.649991,54.687887],[-8.650456,54.687884],[-8.650452,54.687615],[-8.651382,54.68761],[-8.651386,54.687879],[-8.650921,54.687882],[-8.650925,54.688151],[-8.65046,54.688154],[-8.650464,54.688423],[-8.649999,54.688426],[-8.650004,54.688695],[-8.650008,54.688965],[-8.649543,54.688967],[-8.649547,54.689237],[-8.649082,54.689239],[-8.64909,54.689779],[-8.649099,54.690318],[-8.648634,54.69032],[-8.648638,54.69059],[-8.649103,54.690587],[-8.649107,54.690827],[-8.649108,54.690827],[-8.649229,54.690834],[-8.649293,54.690813],[-8.649396,54.690803],[-8.649612,54.690799],[-8.649731,54.690812],[-8.649765,54.690819],[-8.649845,54.690836],[-8.649967,54.690878],[-8.650018,54.690885],[-8.650085,54.690878],[-8.650153,54.690895],[-8.650256,54.690892],[-8.650376,54.690856],[-8.650417,54.690827],[-8.650637,54.690723],[-8.650679,54.690688],[-8.650679,54.690679],[-8.650729,54.690674],[-8.650797,54.690676],[-8.650877,54.690667],[-8.650926,54.690652],[-8.651029,54.690607],[-8.651066,54.690608],[-8.651158,54.690609],[-8.651222,54.690628],[-8.651364,54.690671],[-8.651654,54.690732],[-8.651853,54.690778],[-8.651952,54.6908],[-8.651967,54.690817],[-8.651967,54.690842],[-8.65191,54.690848],[-8.651822,54.69084],[-8.651758,54.690829],[-8.651643,54.690813],[-8.651541,54.690823],[-8.651484,54.69084],[-8.651476,54.690907],[-8.651415,54.690874],[-8.651362,54.690845],[-8.65132,54.690814],[-8.651335,54.690783],[-8.651319,54.690775],[-8.651243,54.690764],[-8.651213,54.690768],[-8.651213,54.690792],[-8.651164,54.690815],[-8.651122,54.690819],[-8.651061,54.690808],[-8.651053,54.690793],[-8.651019,54.690777],[-8.650958,54.690778],[-8.650832,54.690793],[-8.650707,54.690824],[-8.650593,54.690853],[-8.650456,54.690865],[-8.650395,54.690867],[-8.650255,54.690897],[-8.650149,54.690901],[-8.650086,54.690883],[-8.650018,54.69089],[-8.649965,54.690882],[-8.649839,54.690839],[-8.649725,54.690814],[-8.649605,54.690804],[-8.649393,54.690806],[-8.649296,54.690817],[-8.649232,54.690838],[-8.649107,54.690832],[-8.649107,54.690857],[-8.649573,54.690854],[-8.649577,54.691124],[-8.649582,54.691438],[-8.64961,54.691446],[-8.649724,54.691487],[-8.649772,54.691505],[-8.649842,54.691518],[-8.649918,54.691536],[-8.649977,54.691555],[-8.650085,54.69157],[-8.650214,54.691595],[-8.650306,54.69161],[-8.650441,54.691647],[-8.650619,54.691691],[-8.650765,54.691731],[-8.650926,54.69178],[-8.651078,54.691824],[-8.651185,54.691861],[-8.651342,54.691914],[-8.651326,54.691914],[-8.651181,54.692054],[-8.651074,54.692139],[-8.650978,54.692192],[-8.650975,54.692194],[-8.65099,54.692194],[-8.650994,54.692464],[-8.650547,54.692466],[-8.650532,54.692477],[-8.650529,54.692478],[-8.650533,54.692736],[-8.650068,54.692738],[-8.650068,54.692699],[-8.64987,54.692779],[-8.649284,54.69298],[-8.648681,54.693284],[-8.648681,54.693285],[-8.648679,54.693285],[-8.648361,54.693445],[-8.648592,54.693532],[-8.649216,54.693742],[-8.649156,54.693821],[-8.650085,54.693816],[-8.650081,54.693547],[-8.650546,54.693544],[-8.650542,54.693275],[-8.651007,54.693272],[-8.651003,54.693003],[-8.651468,54.693],[-8.651464,54.692731],[-8.651929,54.692728],[-8.651925,54.692459],[-8.65239,54.692456],[-8.652395,54.692726],[-8.652399,54.692995],[-8.651934,54.692998],[-8.651938,54.693267],[-8.651473,54.69327],[-8.651477,54.693539],[-8.651481,54.693809],[-8.651016,54.693811],[-8.65102,54.694081],[-8.650555,54.694084],[-8.650559,54.694353],[-8.649629,54.694358],[-8.649633,54.694628],[-8.648568,54.694633],[-8.648499,54.69471],[-8.648301,54.694948],[-8.648077,54.695149],[-8.647993,54.695208],[-8.647719,54.695298],[-8.647317,54.695322],[-8.647319,54.695449],[-8.646854,54.695451],[-8.646853,54.695395],[-8.646614,54.695467],[-8.646555,54.695489],[-8.646442,54.695508],[-8.646286,54.695549],[-8.64619,54.695584],[-8.645937,54.695622],[-8.645802,54.695644],[-8.645646,54.69565],[-8.645237,54.695685],[-8.644995,54.69572],[-8.644726,54.695761],[-8.644376,54.695828],[-8.644043,54.695894],[-8.643854,54.695922],[-8.643585,54.695966],[-8.643472,54.695976],[-8.643392,54.695989],[-8.643289,54.695983],[-8.643209,54.696002],[-8.643139,54.695966],[-8.64314,54.69601],[-8.641744,54.696017],[-8.64174,54.695748],[-8.64267,54.695743],[-8.642669,54.695656],[-8.642625,54.695625],[-8.642295,54.695401],[-8.641949,54.695162],[-8.641803,54.695075],[-8.641408,54.69487],[-8.641057,54.694693],[-8.640811,54.694566],[-8.640798,54.694559],[-8.64049,54.694404],[-8.640285,54.694308],[-8.639884,54.694106],[-8.639827,54.694076],[-8.639718,54.694008],[-8.639641,54.693969],[-8.63953,54.693861],[-8.639446,54.693846],[-8.639278,54.693742],[-8.639221,54.693738],[-8.639014,54.693606],[-8.638994,54.693606],[-8.639014,54.693626],[-8.639063,54.693641],[-8.639138,54.693692],[-8.63925,54.693761],[-8.639405,54.693851],[-8.63952,54.693887],[-8.639583,54.693929],[-8.639593,54.693974],[-8.639575,54.694039],[-8.639553,54.694078],[-8.63955,54.694126],[-8.639583,54.694148],[-8.639726,54.694185],[-8.639652,54.694169],[-8.639581,54.694154],[-8.639543,54.69413],[-8.639542,54.694121],[-8.639542,54.694116],[-8.639539,54.694088],[-8.639569,54.694037],[-8.639588,54.693971],[-8.639576,54.693931],[-8.639519,54.693894],[-8.639397,54.693854],[-8.639252,54.693769],[-8.639217,54.693747],[-8.639141,54.693701],[-8.63906,54.693646],[-8.639007,54.693628],[-8.638985,54.693606],[-8.638914,54.693606],[-8.638913,54.693559],[-8.638885,54.693549],[-8.638839,54.693516],[-8.638841,54.693515],[-8.638841,54.693515],[-8.638598,54.693428],[-8.638511,54.693385],[-8.638442,54.693351],[-8.638285,54.693248],[-8.63821,54.693206],[-8.638075,54.693129],[-8.637502,54.692837],[-8.637442,54.692805],[-8.63704,54.692808],[-8.637036,54.692538],[-8.63657,54.69254],[-8.636566,54.692271],[-8.636101,54.692273],[-8.636097,54.692004],[-8.635631,54.692006],[-8.635627,54.691737],[-8.635623,54.691467],[-8.635619,54.691198],[-8.63748,54.691188],[-8.637484,54.691457],[-8.637949,54.691455],[-8.637953,54.691725],[-8.638065,54.691724],[-8.638192,54.69159],[-8.6383,54.691474],[-8.638324,54.691454],[-8.638324,54.691454],[-8.638285,54.691417],[-8.638296,54.691355],[-8.638269,54.691245],[-8.638254,54.691217],[-8.638265,54.691142],[-8.638306,54.691078],[-8.638366,54.690938],[-8.6384,54.690846],[-8.638373,54.690815],[-8.638342,54.690771],[-8.638353,54.690722],[-8.638319,54.690687],[-8.638269,54.690665],[-8.638246,54.690625],[-8.638189,54.690566],[-8.638116,54.690513],[-8.638101,54.690469],[-8.638089,54.690454],[-8.638107,54.690366],[-8.638191,54.690262],[-8.638304,54.690189],[-8.638308,54.690127],[-8.638296,54.690087],[-8.638349,54.690047],[-8.638391,54.690014],[-8.638448,54.68995],[-8.638523,54.689884],[-8.63855,54.689842],[-8.638635,54.68979],[-8.638679,54.689764],[-8.63869,54.689727],[-8.638648,54.6897],[-8.638583,54.689698],[-8.638556,54.689679],[-8.63856,54.689608],[-8.638586,54.689531],[-8.63854,54.689474],[-8.638498,54.689447],[-8.638509,54.689405],[-8.638543,54.689352],[-8.638501,54.689284],[-8.638439,54.689222],[-8.638428,54.689158],[-8.638401,54.68911],[-8.638347,54.689075],[-8.63829,54.689057],[-8.63824,54.688998],[-8.638087,54.688886],[-8.637991,54.688815],[-8.637838,54.688685],[-8.637785,54.688659],[-8.637615,54.688624],[-8.637599,54.688598],[-8.637583,54.688563],[-8.637469,54.688553],[-8.637443,54.688549],[-8.637604,54.688683],[-8.637725,54.688764],[-8.637736,54.68881],[-8.637549,54.68902],[-8.637243,54.689251],[-8.636943,54.689402],[-8.636556,54.689618],[-8.636326,54.689783],[-8.636272,54.689855],[-8.636262,54.689915],[-8.636311,54.690042],[-8.636355,54.690145],[-8.636281,54.690332],[-8.636115,54.690476],[-8.635889,54.690605],[-8.635588,54.690721],[-8.635443,54.690793],[-8.635293,54.690843],[-8.635036,54.69108],[-8.634934,54.691143],[-8.634778,54.691187],[-8.634676,54.691243],[-8.634531,54.6913],[-8.634499,54.691359],[-8.634478,54.69144],[-8.6345,54.691518],[-8.634495,54.691593],[-8.634425,54.691678],[-8.634367,54.69179],[-8.634357,54.691899],[-8.63432,54.692052],[-8.634288,54.692164],[-8.634321,54.692217],[-8.634278,54.692277],[-8.634257,54.692327],[-8.634263,54.692364],[-8.634317,54.69243],[-8.634333,54.692492],[-8.634286,54.692592],[-8.6342,54.692661],[-8.634033,54.692742],[-8.633813,54.692798],[-8.633808,54.692797],[-8.633812,54.692794],[-8.634034,54.692737],[-8.634193,54.692659],[-8.63428,54.692589],[-8.634323,54.692491],[-8.634308,54.692431],[-8.634257,54.692367],[-8.634249,54.692327],[-8.634275,54.692273],[-8.634283,54.692262],[-8.634313,54.692216],[-8.634281,54.692164],[-8.63435,54.691895],[-8.634358,54.691787],[-8.634418,54.691673],[-8.634448,54.691639],[-8.634486,54.691593],[-8.634494,54.691524],[-8.634468,54.691437],[-8.634492,54.691353],[-8.634527,54.691293],[-8.634672,54.691239],[-8.634773,54.691183],[-8.634934,54.691137],[-8.635033,54.691073],[-8.635099,54.691014],[-8.635289,54.690835],[-8.635442,54.690788],[-8.635583,54.690718],[-8.635887,54.690601],[-8.636112,54.690471],[-8.636208,54.690388],[-8.636271,54.690334],[-8.636347,54.690146],[-8.636257,54.689917],[-8.636267,54.689853],[-8.636318,54.689781],[-8.636341,54.689766],[-8.63655,54.689613],[-8.63696,54.689387],[-8.63724,54.68925],[-8.637383,54.689138],[-8.637546,54.689017],[-8.637728,54.688809],[-8.637718,54.688764],[-8.637592,54.688682],[-8.63743,54.688546],[-8.637405,54.68854],[-8.637345,54.688492],[-8.637323,54.688469],[-8.637366,54.688416],[-8.637382,54.688391],[-8.637358,54.688358],[-8.637271,54.688332],[-8.637233,54.688241],[-8.637225,54.688095],[-8.637172,54.688103],[-8.636952,54.688185],[-8.636747,54.688254],[-8.636608,54.688326],[-8.636388,54.688548],[-8.636265,54.688645],[-8.636104,54.688701],[-8.635959,54.688805],[-8.635798,54.688895],[-8.635654,54.68903],[-8.635541,54.689164],[-8.635343,54.689333],[-8.635204,54.689414],[-8.635102,54.689483],[-8.635102,54.689539],[-8.635124,54.689614],[-8.634974,54.689764],[-8.634819,54.689942],[-8.634739,54.690033],[-8.634534,54.690096],[-8.634444,54.690126],[-8.635602,54.69012],[-8.635606,54.690389],[-8.63421,54.690396],[-8.634209,54.690318],[-8.634207,54.690349],[-8.634176,54.690415],[-8.634004,54.690477],[-8.633767,54.690578],[-8.633654,54.690612],[-8.633599,54.690635],[-8.633529,54.69082],[-8.633538,54.690872],[-8.633537,54.690951],[-8.633494,54.691009],[-8.633441,54.691066],[-8.633358,54.691153],[-8.633328,54.691192],[-8.633284,54.691246],[-8.633158,54.691378],[-8.633129,54.691484],[-8.633156,54.691598],[-8.633212,54.691739],[-8.633279,54.691855],[-8.633247,54.691952],[-8.633167,54.692085],[-8.633169,54.692111],[-8.633173,54.692233],[-8.633122,54.692407],[-8.633158,54.692502],[-8.633254,54.692637],[-8.633304,54.692732],[-8.633324,54.692771],[-8.633317,54.692771],[-8.633246,54.692637],[-8.633149,54.692504],[-8.633116,54.692407],[-8.633163,54.692232],[-8.633162,54.692085],[-8.633237,54.691957],[-8.633269,54.691858],[-8.633209,54.691745],[-8.633154,54.691611],[-8.633121,54.691484],[-8.633153,54.691374],[-8.633281,54.69124],[-8.633345,54.691159],[-8.633479,54.691018],[-8.633527,54.690949],[-8.633532,54.690884],[-8.633521,54.690818],[-8.633589,54.690639],[-8.633547,54.690656],[-8.633359,54.690781],[-8.633107,54.690944],[-8.632957,54.69101],[-8.632688,54.691129],[-8.632307,54.691276],[-8.632086,54.691336],[-8.632065,54.691395],[-8.632033,54.691501],[-8.631872,54.691605],[-8.631571,54.691668],[-8.631281,54.69178],[-8.630921,54.691906],[-8.630733,54.691981],[-8.630497,54.692085],[-8.630287,54.692154],[-8.629808,54.692317],[-8.629807,54.692311],[-8.630494,54.692081],[-8.630685,54.691998],[-8.630913,54.691903],[-8.631278,54.691776],[-8.631576,54.691661],[-8.631872,54.6916],[-8.632026,54.6915],[-8.632028,54.691496],[-8.632083,54.691333],[-8.632302,54.691272],[-8.632674,54.691129],[-8.632922,54.69102],[-8.633101,54.690941],[-8.633218,54.690866],[-8.633541,54.690654],[-8.633649,54.690609],[-8.633763,54.690575],[-8.633914,54.690512],[-8.633996,54.690476],[-8.634168,54.690412],[-8.634199,54.690347],[-8.634204,54.690279],[-8.634207,54.690245],[-8.634208,54.690244],[-8.634206,54.690127],[-8.634429,54.690126],[-8.634563,54.690082],[-8.634736,54.69003],[-8.634965,54.689765],[-8.63504,54.689691],[-8.635117,54.689612],[-8.635092,54.68954],[-8.635095,54.68948],[-8.635194,54.689415],[-8.635339,54.68933],[-8.635534,54.689164],[-8.635583,54.689104],[-8.635651,54.689024],[-8.635794,54.688891],[-8.63595,54.688804],[-8.636102,54.688698],[-8.636266,54.688641],[-8.636381,54.688547],[-8.63641,54.688519],[-8.6366,54.688325],[-8.636747,54.688248],[-8.63717,54.6881],[-8.637226,54.688084],[-8.637309,54.687992],[-8.637415,54.68791],[-8.637551,54.687775],[-8.637577,54.68772],[-8.637584,54.687685],[-8.637596,54.687625],[-8.637625,54.68761],[-8.637611,54.687605],[-8.637573,54.687556],[-8.637519,54.687457],[-8.637484,54.687398],[-8.637472,54.687338],[-8.637464,54.687283],[-8.637491,54.687215],[-8.637559,54.687168],[-8.63757,54.687129],[-8.637648,54.686798],[-8.637651,54.686727],[-8.637632,54.686685],[-8.637605,54.686672],[-8.637533,54.686663],[-8.637449,54.68665],[-8.637424,54.686634],[-8.637402,54.686641],[-8.637382,54.686627],[-8.637319,54.686537],[-8.637269,54.68647],[-8.637231,54.686398],[-8.637266,54.686355],[-8.637342,54.686281],[-8.637443,54.686189],[-8.637493,54.686113],[-8.637486,54.686091],[-8.63748,54.686076],[-8.637467,54.686066],[-8.637399,54.686067],[-8.637399,54.686015],[-8.637382,54.686002],[-8.637317,54.685903],[-8.63726,54.685875],[-8.637197,54.685858],[-8.63715,54.685864],[-8.637098,54.685888],[-8.637,54.685933],[-8.636945,54.685947],[-8.636894,54.685941],[-8.636843,54.685902],[-8.636779,54.685863],[-8.636791,54.685771],[-8.636836,54.685681],[-8.636843,54.685616],[-8.636822,54.685568],[-8.636801,54.685553],[-8.636764,54.68555],[-8.636664,54.685598],[-8.63663,54.685609],[-8.636561,54.685595],[-8.63654,54.685582],[-8.63655,54.686209],[-8.634999,54.686217],[-8.634985,54.685319],[-8.635527,54.685316],[-8.635526,54.685268],[-8.635061,54.68527],[-8.635057,54.685001],[-8.633196,54.685011],[-8.633191,54.684741],[-8.631796,54.684748],[-8.631792,54.684479],[-8.631326,54.684481],[-8.631322,54.684212],[-8.630392,54.684217],[-8.630388,54.683947],[-8.630313,54.683947],[-8.63032,54.684445],[-8.62877,54.684453],[-8.628756,54.683555],[-8.630306,54.683547],[-8.630296,54.682894],[-8.629953,54.682921],[-8.629838,54.682842],[-8.629762,54.682788],[-8.629642,54.682705],[-8.629562,54.682652],[-8.628742,54.682657],[-8.628738,54.682371],[-8.628466,54.682526],[-8.628361,54.682583],[-8.628072,54.682736],[-8.627456,54.68309],[-8.627121,54.683285],[-8.627123,54.683425],[-8.626851,54.683426],[-8.626482,54.683613],[-8.625293,54.684214],[-8.62513,54.684337],[-8.624947,54.684474],[-8.62477,54.68458],[-8.624477,54.684786],[-8.625748,54.68478],[-8.625752,54.685049],[-8.626683,54.685045],[-8.626679,54.684775],[-8.627144,54.684773],[-8.62714,54.684503],[-8.627605,54.684501],[-8.627609,54.68477],[-8.628074,54.684768],[-8.628078,54.685037],[-8.628083,54.685307],[-8.628548,54.685304],[-8.628552,54.685574],[-8.628556,54.685843],[-8.62856,54.686113],[-8.628095,54.686115],[-8.628099,54.686385],[-8.627634,54.686387],[-8.627638,54.686657],[-8.627642,54.686926],[-8.628573,54.686922],[-8.628577,54.687191],[-8.629042,54.687189],[-8.629046,54.687458],[-8.629512,54.687456],[-8.629507,54.687186],[-8.629503,54.686917],[-8.630434,54.686912],[-8.630438,54.687181],[-8.630903,54.687179],[-8.630907,54.687449],[-8.631838,54.687444],[-8.631834,54.687174],[-8.632764,54.687169],[-8.632768,54.687439],[-8.632772,54.687708],[-8.633238,54.687706],[-8.633242,54.687975],[-8.633246,54.688245],[-8.63325,54.688515],[-8.633254,54.688784],[-8.633259,54.689054],[-8.632328,54.689058],[-8.632336,54.689598],[-8.632802,54.689595],[-8.632806,54.689865],[-8.633736,54.68986],[-8.633741,54.690129],[-8.633745,54.690399],[-8.63328,54.690401],[-8.633275,54.690132],[-8.632345,54.690137],[-8.632341,54.689867],[-8.631875,54.689869],[-8.631871,54.6896],[-8.630941,54.689605],[-8.630932,54.689066],[-8.628606,54.689078],[-8.628602,54.688808],[-8.629998,54.688801],[-8.629993,54.688532],[-8.628598,54.688539],[-8.628594,54.688269],[-8.627663,54.688274],[-8.627659,54.688005],[-8.626728,54.688009],[-8.626724,54.68774],[-8.625794,54.687745],[-8.62579,54.687475],[-8.624859,54.68748],[-8.624855,54.68721],[-8.623459,54.687218],[-8.623463,54.687487],[-8.623929,54.687485],[-8.623941,54.688293],[-8.624406,54.688291],[-8.624415,54.68883],[-8.623949,54.688832],[-8.623963,54.689733],[-8.6242,54.689776],[-8.624322,54.689798],[-8.624672,54.689864],[-8.624831,54.689894],[-8.625044,54.689946],[-8.625219,54.690004],[-8.625499,54.690149],[-8.625759,54.690294],[-8.625785,54.690308],[-8.626067,54.69046],[-8.626368,54.690609],[-8.626651,54.690752],[-8.626919,54.690887],[-8.627322,54.691103],[-8.627505,54.691201],[-8.627886,54.691428],[-8.62826,54.691642],[-8.628464,54.691759],[-8.628877,54.692019],[-8.629328,54.692296],[-8.62967,54.692522],[-8.630463,54.693004],[-8.631026,54.693365],[-8.631116,54.693424],[-8.631509,54.69368],[-8.631994,54.693979],[-8.632264,54.694147],[-8.632451,54.694202],[-8.632572,54.694205],[-8.632595,54.694206],[-8.632754,54.694259],[-8.632998,54.694312],[-8.63338,54.69441],[-8.634068,54.694591],[-8.634351,54.694661],[-8.634357,54.694663],[-8.634374,54.694667],[-8.634608,54.694725],[-8.634971,54.694814],[-8.635165,54.694849],[-8.639244,54.695705],[-8.639615,54.695791],[-8.63987,54.695819],[-8.640037,54.69588],[-8.640175,54.695935],[-8.640247,54.695968],[-8.640381,54.696038],[-8.640477,54.696058],[-8.640568,54.696086],[-8.640656,54.69613],[-8.640736,54.696207],[-8.640817,54.696298],[-8.640878,54.696328],[-8.640916,54.696366],[-8.640951,54.696386],[-8.640963,54.696443],[-8.640993,54.696489],[-8.641047,54.696518],[-8.641207,54.696553],[-8.641386,54.696594],[-8.641451,54.696607],[-8.641485,54.696625],[-8.641501,54.69668],[-8.641558,54.696733],[-8.641646,54.696781],[-8.641746,54.696845],[-8.641773,54.696869],[-8.641811,54.696944],[-8.641938,54.697065],[-8.642075,54.697131],[-8.642285,54.697208],[-8.642583,54.69732],[-8.642709,54.697372],[-8.642846,54.697414],[-8.642952,54.697438],[-8.643178,54.69749],[-8.64367,54.69762],[-8.643998,54.697711],[-8.644315,54.697773],[-8.644528,54.697849],[-8.644689,54.697939],[-8.644807,54.697979],[-8.644876,54.698005],[-8.644929,54.698012],[-8.644986,54.698023],[-8.645093,54.69804],[-8.645204,54.698084],[-8.645349,54.698139],[-8.645467,54.698196],[-8.645532,54.698218],[-8.645647,54.698231],[-8.645757,54.698253],[-8.645864,54.69827],[-8.64604,54.698369],[-8.646105,54.698417],[-8.646208,54.698446],[-8.646265,54.698488],[-8.646445,54.698564],[-8.646601,54.698639],[-8.646685,54.698665],[-8.646796,54.698678],[-8.646933,54.698698],[-8.647013,54.698718],[-8.647057,54.698785],[-8.647254,54.698851],[-8.647741,54.699021],[-8.648097,54.699144],[-8.648598,54.699305],[-8.649092,54.699482],[-8.649422,54.699592],[-8.649781,54.699715],[-8.650121,54.699815],[-8.650463,54.699928],[-8.650649,54.699987],[-8.650646,54.699744],[-8.65018,54.699746],[-8.650176,54.699477],[-8.649245,54.699482],[-8.649241,54.699212],[-8.648775,54.699215],[-8.648771,54.698945],[-8.648306,54.698948],[-8.648301,54.698678],[-8.647836,54.69868],[-8.647832,54.698411],[-8.647366,54.698413],[-8.647362,54.698144],[-8.646897,54.698146],[-8.646888,54.697607],[-8.646884,54.697338],[-8.64688,54.697068],[-8.646875,54.696799],[-8.647341,54.696796],[-8.647336,54.696527],[-8.647802,54.696524],[-8.647797,54.696255],[-8.648263,54.696252],[-8.648259,54.695983],[-8.647328,54.695988],[-8.647324,54.695718],[-8.647789,54.695716],[-8.647785,54.695446],[-8.64825,54.695444],[-8.648246,54.695174],[-8.648711,54.695172],[-8.648707,54.694902],[-8.649637,54.694897],[-8.649642,54.695167],[-8.650107,54.695164],[-8.650103,54.694895],[-8.650568,54.694892],[-8.650572,54.695162],[-8.650577,54.695431],[-8.649646,54.695436],[-8.64965,54.695706],[-8.652442,54.695691],[-8.652447,54.69596],[-8.652912,54.695958],[-8.652916,54.696227],[-8.652921,54.696497],[-8.651059,54.696507],[-8.651063,54.696776],[-8.651068,54.697046],[-8.650137,54.697051],[-8.650141,54.69732],[-8.649676,54.697323],[-8.64968,54.697592],[-8.64875,54.697597],[-8.648758,54.698136],[-8.649224,54.698134],[-8.649228,54.698403],[-8.649693,54.698401],[-8.649698,54.698671],[-8.650163,54.698668],[-8.650167,54.698938],[-8.650633,54.698935],[-8.650637,54.699205],[-8.651568,54.6992],[-8.651563,54.69893],[-8.652029,54.698928],[-8.652024,54.698658],[-8.652955,54.698653],[-8.652959,54.698923],[-8.652494,54.698925],[-8.652498,54.699195],[-8.652503,54.699464],[-8.652968,54.699462],[-8.652972,54.699731],[-8.653438,54.699729],[-8.653434,54.699459],[-8.65483,54.699452],[-8.654825,54.699182],[-8.655291,54.699179],[-8.655295,54.699449],[-8.65576,54.699447],[-8.655765,54.699716],[-8.656695,54.699711],[-8.656687,54.699172],[-8.656682,54.698902],[-8.656678,54.698633],[-8.657143,54.69863],[-8.657135,54.698091],[-8.6576,54.698089],[-8.657596,54.697819],[-8.657591,54.69755],[-8.658057,54.697547],[-8.658052,54.697278],[-8.658048,54.697008],[-8.658513,54.697006],[-8.658496,54.695927],[-8.658492,54.695658],[-8.658957,54.695655],[-8.658961,54.695925],[-8.659419,54.695922],[-8.659354,54.695643],[-8.659263,54.695267],[-8.659246,54.695206],[-8.659188,54.695047],[-8.659087,54.694731],[-8.658959,54.694331],[-8.658876,54.694003],[-8.658635,54.693205],[-8.658565,54.692962],[-8.657517,54.692968],[-8.657513,54.692698],[-8.658444,54.692693],[-8.658441,54.692511],[-8.658307,54.691995],[-8.658204,54.691634],[-8.658136,54.691362],[-8.658051,54.691064],[-8.657851,54.690337],[-8.65775,54.689984],[-8.657558,54.68928],[-8.657381,54.688698],[-8.657203,54.688055],[-8.657046,54.687443],[-8.656894,54.686868],[-8.656723,54.686289],[-8.656615,54.685814],[-8.656427,54.685202],[-8.656281,54.684663],[-8.656188,54.684309],[-8.656148,54.684221],[-8.656024,54.683861],[-8.655943,54.683637],[-8.655886,54.683412],[-8.655846,54.683235],[-8.655569,54.683361],[-8.655232,54.683467],[-8.655113,54.683521],[-8.654879,54.683625],[-8.654379,54.68382]],[[-8.633263,54.689323],[-8.633259,54.689054],[-8.633724,54.689051],[-8.633728,54.689321],[-8.633263,54.689323]],[[-8.653308,54.691643],[-8.652377,54.691648],[-8.652373,54.691378],[-8.653304,54.691373],[-8.653308,54.691643]],[[-8.651912,54.69165],[-8.652377,54.691648],[-8.652382,54.691917],[-8.651916,54.69192],[-8.651912,54.69165]],[[-8.654325,54.697028],[-8.654321,54.696759],[-8.653856,54.696761],[-8.653851,54.696492],[-8.654317,54.696489],[-8.654312,54.69622],[-8.656639,54.696207],[-8.656643,54.696477],[-8.655247,54.696484],[-8.655252,54.696754],[-8.654786,54.696756],[-8.654791,54.697026],[-8.654325,54.697028]],[[-8.65186,54.688416],[-8.651856,54.688146],[-8.652321,54.688144],[-8.652325,54.688413],[-8.65186,54.688416]],[[-8.651873,54.689224],[-8.651408,54.689227],[-8.651399,54.688688],[-8.651865,54.688685],[-8.651873,54.689224]],[[-8.650943,54.689229],[-8.651408,54.689227],[-8.651412,54.689497],[-8.650947,54.689499],[-8.650943,54.689229]],[[-8.636981,54.689034],[-8.636515,54.689037],[-8.636511,54.688767],[-8.636976,54.688765],[-8.636981,54.689034]],[[-8.63605,54.689039],[-8.636515,54.689037],[-8.63652,54.689306],[-8.636054,54.689309],[-8.63605,54.689039]],[[-8.636989,54.689573],[-8.637454,54.689571],[-8.63745,54.689301],[-8.638381,54.689296],[-8.638385,54.689566],[-8.638389,54.689835],[-8.636993,54.689843],[-8.636989,54.689573]],[[-8.63087,54.685023],[-8.629939,54.685028],[-8.629935,54.684758],[-8.630865,54.684753],[-8.63087,54.685023]],[[-8.629474,54.68503],[-8.629939,54.685028],[-8.629943,54.685297],[-8.629013,54.685302],[-8.629009,54.685032],[-8.629005,54.684763],[-8.62947,54.684761],[-8.629474,54.68503]],[[-8.628569,54.686652],[-8.628564,54.686383],[-8.62903,54.68638],[-8.629034,54.68665],[-8.628569,54.686652]]],[[[-8.65995,54.697673],[-8.659908,54.697537],[-8.659453,54.69754],[-8.659457,54.697809],[-8.658992,54.697812],[-8.658996,54.698081],[-8.658531,54.698084],[-8.65854,54.698623],[-8.658074,54.698625],[-8.658079,54.698895],[-8.657613,54.698897],[-8.657618,54.699167],[-8.657152,54.699169],[-8.657161,54.699708],[-8.657165,54.699978],[-8.65717,54.700248],[-8.657916,54.700243],[-8.658039,54.700184],[-8.658099,54.700154],[-8.658096,54.699973],[-8.65847,54.699971],[-8.65848,54.699966],[-8.658474,54.699567],[-8.65902,54.699564],[-8.659018,54.699429],[-8.659125,54.699428],[-8.659172,54.699354],[-8.659257,54.699152],[-8.659359,54.6989],[-8.659731,54.698078],[-8.65995,54.697673]]],[[[-8.652558,54.700605],[-8.653719,54.701075],[-8.653925,54.701074],[-8.653921,54.700804],[-8.654851,54.700799],[-8.654843,54.70026],[-8.654838,54.699991],[-8.653908,54.699996],[-8.653912,54.700265],[-8.65205,54.700275],[-8.652053,54.700437],[-8.652196,54.700482],[-8.652376,54.700543],[-8.65252,54.700542],[-8.652521,54.700592],[-8.652558,54.700605]]],[[[-8.624133,54.685014],[-8.624068,54.685058],[-8.624357,54.685057],[-8.624354,54.684872],[-8.624133,54.685014]]],[[[-8.630381,54.683546],[-8.630306,54.683547],[-8.630308,54.683678],[-8.630384,54.683678],[-8.630381,54.683546]]],[[[-8.633414,54.683998],[-8.633417,54.684201],[-8.633648,54.6842],[-8.633652,54.684469],[-8.634583,54.684464],[-8.634587,54.684734],[-8.635518,54.684729],[-8.635522,54.684998],[-8.635526,54.685268],[-8.635991,54.685266],[-8.635992,54.685314],[-8.636094,54.685313],[-8.636073,54.685301],[-8.636044,54.685273],[-8.636056,54.685239],[-8.636016,54.685149],[-8.635914,54.685017],[-8.63578,54.684894],[-8.635651,54.684761],[-8.635507,54.684663],[-8.635388,54.684588],[-8.635234,54.684514],[-8.635112,54.684464],[-8.635103,54.684461],[-8.63502,54.684436],[-8.634983,54.684422],[-8.634787,54.684387],[-8.63469,54.684362],[-8.634541,54.684367],[-8.634379,54.684315],[-8.634242,54.684306],[-8.634077,54.684256],[-8.634023,54.684244],[-8.633773,54.684191],[-8.633543,54.684103],[-8.633416,54.684002],[-8.633414,54.683998]]],[[[-8.637424,54.686634],[-8.637424,54.686634],[-8.637444,54.686631],[-8.637447,54.686635],[-8.637459,54.686646],[-8.637607,54.686668],[-8.637639,54.686683],[-8.637657,54.686726],[-8.637655,54.686799],[-8.637574,54.687141],[-8.637571,54.687168],[-8.637497,54.687216],[-8.637473,54.687281],[-8.637494,54.687399],[-8.637579,54.687551],[-8.637619,54.687602],[-8.637654,54.687611],[-8.637728,54.687617],[-8.637802,54.687639],[-8.637867,54.687674],[-8.637913,54.68773],[-8.63797,54.687759],[-8.637998,54.687774],[-8.638043,54.687785],[-8.638074,54.687784],[-8.63815,54.68777],[-8.638276,54.687724],[-8.638382,54.687689],[-8.638429,54.687685],[-8.638562,54.687701],[-8.638719,54.687742],[-8.63877,54.687764],[-8.638797,54.687907],[-8.638779,54.687978],[-8.638784,54.688045],[-8.638827,54.688088],[-8.638861,54.688134],[-8.638909,54.688185],[-8.638955,54.688265],[-8.638988,54.688288],[-8.639016,54.688298],[-8.639072,54.688294],[-8.639096,54.688287],[-8.639168,54.688266],[-8.63925,54.688232],[-8.63933,54.688204],[-8.639426,54.688195],[-8.63949,54.688186],[-8.639548,54.688191],[-8.639588,54.688206],[-8.639638,54.688188],[-8.639709,54.688155],[-8.639754,54.688142],[-8.639821,54.688148],[-8.639861,54.688175],[-8.639984,54.688213],[-8.6401,54.688234],[-8.640237,54.688292],[-8.640356,54.688352],[-8.64043,54.688378],[-8.640443,54.688383],[-8.64049,54.688382],[-8.640551,54.688374],[-8.64067,54.688368],[-8.64108,54.688388],[-8.641228,54.688371],[-8.641402,54.688371],[-8.641472,54.688376],[-8.641564,54.688393],[-8.641632,54.688391],[-8.641718,54.688338],[-8.64176,54.688326],[-8.641933,54.688281],[-8.642118,54.688216],[-8.642222,54.688163],[-8.642337,54.68814],[-8.642458,54.688139],[-8.64255,54.688134],[-8.642547,54.687927],[-8.642081,54.687929],[-8.642077,54.687659],[-8.641147,54.687664],[-8.641151,54.687934],[-8.640686,54.687936],[-8.640681,54.687667],[-8.640216,54.687669],[-8.640212,54.6874],[-8.639747,54.687402],[-8.639743,54.687133],[-8.638812,54.687138],[-8.638808,54.686868],[-8.638343,54.686871],[-8.638337,54.686494],[-8.638248,54.686508],[-8.637843,54.686567],[-8.637455,54.686629],[-8.637424,54.686634]]],[[[-8.639845,54.686267],[-8.63941,54.686326],[-8.63973,54.686324],[-8.639738,54.686863],[-8.640204,54.686861],[-8.640195,54.686322],[-8.64066,54.686319],[-8.640658,54.686167],[-8.640238,54.686214],[-8.639845,54.686267]]],[[[-8.638889,54.693545],[-8.638913,54.693553],[-8.638913,54.693546],[-8.638869,54.693525],[-8.638863,54.693523],[-8.638863,54.693523],[-8.638889,54.693545]]],[[[-8.647615,54.690858],[-8.647601,54.690865],[-8.647712,54.690864],[-8.647711,54.690844],[-8.647695,54.690846],[-8.647615,54.690858]]],[[[-8.6477,54.69084],[-8.647711,54.69084],[-8.647707,54.690595],[-8.647242,54.690597],[-8.647238,54.690328],[-8.647703,54.690325],[-8.647694,54.689786],[-8.64816,54.689783],[-8.648151,54.689244],[-8.648616,54.689242],[-8.648612,54.688972],[-8.648608,54.688703],[-8.649073,54.6887],[-8.649069,54.688431],[-8.649534,54.688428],[-8.649531,54.688232],[-8.649498,54.688224],[-8.64943,54.688213],[-8.649342,54.688211],[-8.649247,54.688194],[-8.64914,54.688146],[-8.649056,54.688113],[-8.648919,54.688075],[-8.648827,54.688074],[-8.64874,54.688083],[-8.648626,54.688109],[-8.648561,54.688131],[-8.648466,54.688123],[-8.648096,54.688042],[-8.647802,54.687957],[-8.647638,54.687906],[-8.647429,54.68783],[-8.647421,54.687827],[-8.647222,54.687739],[-8.647153,54.687676],[-8.647126,54.687616],[-8.647069,54.687599],[-8.646951,54.687586],[-8.646878,54.687586],[-8.64681,54.687579],[-8.64673,54.687546],[-8.646608,54.687496],[-8.646527,54.687472],[-8.646158,54.687395],[-8.646013,54.68738],[-8.64591,54.687376],[-8.645853,54.687376],[-8.645834,54.687372],[-8.645815,54.687345],[-8.645788,54.687326],[-8.645651,54.687313],[-8.645475,54.68728],[-8.645399,54.687251],[-8.64533,54.687212],[-8.645284,54.687157],[-8.645219,54.687128],[-8.645151,54.687095],[-8.645101,54.687076],[-8.645032,54.687069],[-8.644952,54.687065],[-8.644861,54.687072],[-8.644796,54.687081],[-8.644739,54.687103],[-8.644668,54.687174],[-8.644645,54.687202],[-8.64458,54.687229],[-8.644474,54.687242],[-8.64417,54.687287],[-8.644124,54.687336],[-8.644082,54.687356],[-8.644018,54.687362],[-8.643934,54.687349],[-8.643888,54.687334],[-8.643827,54.687339],[-8.643751,54.687374],[-8.643664,54.68746],[-8.64357,54.687599],[-8.643506,54.68771],[-8.64346,54.687728],[-8.643361,54.687743],[-8.643247,54.687748],[-8.643194,54.687761],[-8.643171,54.687808],[-8.643122,54.687874],[-8.643031,54.687922],[-8.643027,54.687924],[-8.644408,54.687917],[-8.644412,54.688186],[-8.643947,54.688189],[-8.643951,54.688458],[-8.644416,54.688456],[-8.644421,54.688725],[-8.644425,54.688995],[-8.64396,54.688997],[-8.643964,54.689267],[-8.643964,54.689304],[-8.644056,54.689321],[-8.644064,54.689323],[-8.644068,54.689324],[-8.644116,54.689336],[-8.644154,54.689345],[-8.644162,54.689347],[-8.644196,54.689355],[-8.644238,54.689367],[-8.644422,54.689413],[-8.644459,54.689419],[-8.64447,54.689421],[-8.644593,54.689441],[-8.644777,54.689535],[-8.64486,54.689559],[-8.644992,54.689569],[-8.645047,54.68958],[-8.645094,54.68963],[-8.645199,54.689727],[-8.64527,54.689767],[-8.645331,54.689776],[-8.645371,54.689774],[-8.645468,54.689781],[-8.645601,54.689805],[-8.645656,54.689838],[-8.645666,54.689855],[-8.645691,54.689886],[-8.645803,54.689956],[-8.645836,54.689975],[-8.645833,54.689796],[-8.645829,54.689526],[-8.645364,54.689529],[-8.64536,54.689259],[-8.64629,54.689254],[-8.646294,54.689524],[-8.646299,54.689793],[-8.646764,54.689791],[-8.646768,54.69006],[-8.646303,54.690063],[-8.646307,54.690332],[-8.646308,54.690379],[-8.646357,54.690405],[-8.646416,54.690439],[-8.64647,54.690474],[-8.646578,54.690533],[-8.64667,54.690573],[-8.646746,54.690604],[-8.646864,54.690647],[-8.646999,54.690697],[-8.647199,54.690762],[-8.647382,54.690815],[-8.647539,54.690858],[-8.647558,54.690865],[-8.647592,54.690865],[-8.647609,54.690855],[-8.6477,54.69084]],[[-8.644873,54.687914],[-8.644408,54.687917],[-8.644403,54.687647],[-8.644869,54.687645],[-8.644873,54.687914]]],[[[-8.645832,54.690104],[-8.645838,54.690107],[-8.645838,54.690065],[-8.645836,54.689988],[-8.645831,54.689986],[-8.645682,54.689889],[-8.645644,54.68984],[-8.64559,54.68981],[-8.645461,54.689786],[-8.645377,54.689779],[-8.645327,54.689784],[-8.645263,54.689771],[-8.64519,54.689733],[-8.645083,54.689632],[-8.645044,54.689588],[-8.645002,54.689577],[-8.644957,54.689573],[-8.644858,54.689566],[-8.644793,54.689544],[-8.644678,54.689487],[-8.644586,54.689448],[-8.64443,54.689422],[-8.644359,54.689403],[-8.644412,54.68942],[-8.644606,54.689473],[-8.644644,54.689482],[-8.644698,54.68951],[-8.644757,54.689545],[-8.644892,54.689625],[-8.645027,54.689691],[-8.645114,54.689731],[-8.645265,54.689805],[-8.645379,54.689871],[-8.645508,54.689936],[-8.645584,54.689976],[-8.645638,54.690001],[-8.645686,54.690032],[-8.645832,54.690104]]],[[[-8.642991,54.689153],[-8.643032,54.689164],[-8.643029,54.689002],[-8.643025,54.688733],[-8.642559,54.688735],[-8.642555,54.688466],[-8.642551,54.688196],[-8.64255,54.688139],[-8.642446,54.688144],[-8.642343,54.688144],[-8.642237,54.688167],[-8.642127,54.68822],[-8.641941,54.688284],[-8.641728,54.688342],[-8.64164,54.688397],[-8.64156,54.688398],[-8.641465,54.68838],[-8.641381,54.688376],[-8.641298,54.688378],[-8.641237,54.688376],[-8.641077,54.688392],[-8.640662,54.688373],[-8.640555,54.68838],[-8.640479,54.688389],[-8.640441,54.688387],[-8.640349,54.688354],[-8.640204,54.688281],[-8.640097,54.688237],[-8.639979,54.688216],[-8.639857,54.688178],[-8.639815,54.68815],[-8.639758,54.688145],[-8.639716,54.688157],[-8.639629,54.688196],[-8.639595,54.688208],[-8.639622,54.688228],[-8.639671,54.688283],[-8.639744,54.688337],[-8.639827,54.688383],[-8.639891,54.688392],[-8.639953,54.68842],[-8.640019,54.688457],[-8.64005,54.688504],[-8.640072,54.688596],[-8.640078,54.688752],[-8.64008,54.688758],[-8.640144,54.688906],[-8.640235,54.688982],[-8.640237,54.688984],[-8.640233,54.688747],[-8.640698,54.688745],[-8.640703,54.689014],[-8.64027,54.689017],[-8.640339,54.689085],[-8.640392,54.689157],[-8.640467,54.689279],[-8.640501,54.689362],[-8.640509,54.689374],[-8.640543,54.689373],[-8.640543,54.689373],[-8.64073,54.689259],[-8.6409,54.689237],[-8.641045,54.689209],[-8.641201,54.689199],[-8.641384,54.68918],[-8.641428,54.689179],[-8.641428,54.689179],[-8.641428,54.689179],[-8.641455,54.689158],[-8.64159,54.689115],[-8.641646,54.689109],[-8.641688,54.689109],[-8.641844,54.689113],[-8.641868,54.689113],[-8.642051,54.689129],[-8.64232,54.68913],[-8.642607,54.689131],[-8.642901,54.68914],[-8.642991,54.689153]],[[-8.641164,54.688742],[-8.640698,54.688745],[-8.640694,54.688475],[-8.641159,54.688473],[-8.641164,54.688742]]],[[[-8.642854,54.689174],[-8.642908,54.689165],[-8.642946,54.689168],[-8.642989,54.68918],[-8.643032,54.689186],[-8.643032,54.689169],[-8.642997,54.68916],[-8.642902,54.689145],[-8.642612,54.689136],[-8.642323,54.689137],[-8.642049,54.689133],[-8.641885,54.689118],[-8.641755,54.689114],[-8.641649,54.689114],[-8.641588,54.689121],[-8.641462,54.689159],[-8.641437,54.689179],[-8.641437,54.689179],[-8.641621,54.689174],[-8.641863,54.689158],[-8.6421,54.689157],[-8.642289,54.68916],[-8.642429,54.689163],[-8.642574,54.689169],[-8.642768,54.689168],[-8.642854,54.689174]]],[[[-8.640537,54.689377],[-8.640506,54.689377],[-8.640512,54.689392],[-8.640512,54.689392],[-8.640512,54.689392],[-8.640537,54.689377],[-8.640537,54.689377]]],[[[-8.639153,54.690787],[-8.639468,54.690262],[-8.639698,54.690075],[-8.639925,54.689848],[-8.640174,54.689598],[-8.640498,54.6894],[-8.640506,54.689395],[-8.640506,54.689395],[-8.640499,54.689377],[-8.640458,54.689277],[-8.64041,54.689201],[-8.640381,54.689153],[-8.640335,54.689091],[-8.640261,54.689017],[-8.640237,54.689017],[-8.640237,54.688993],[-8.640227,54.688982],[-8.640135,54.688907],[-8.640073,54.688756],[-8.640071,54.688705],[-8.640064,54.688591],[-8.640043,54.688503],[-8.640011,54.688459],[-8.639949,54.688423],[-8.639889,54.688397],[-8.639824,54.688386],[-8.639753,54.688349],[-8.639732,54.688336],[-8.639663,54.688283],[-8.639615,54.688232],[-8.639587,54.688211],[-8.639537,54.688192],[-8.639495,54.68819],[-8.639442,54.688197],[-8.639332,54.688208],[-8.639263,54.688232],[-8.639169,54.68827],[-8.639073,54.688299],[-8.639013,54.688301],[-8.63899,54.688295],[-8.638951,54.688268],[-8.638901,54.688185],[-8.638844,54.688125],[-8.638817,54.688088],[-8.638775,54.688046],[-8.638771,54.68798],[-8.638789,54.687909],[-8.638774,54.68783],[-8.638766,54.687768],[-8.63872,54.687748],[-8.638556,54.687704],[-8.638438,54.687689],[-8.638388,54.687692],[-8.638282,54.687727],[-8.638157,54.687774],[-8.638084,54.687787],[-8.638042,54.687792],[-8.638,54.687781],[-8.637905,54.68773],[-8.637859,54.687677],[-8.637802,54.687644],[-8.637725,54.687622],[-8.637645,54.687616],[-8.637633,54.687612],[-8.637605,54.687626],[-8.637592,54.687689],[-8.637584,54.687728],[-8.637559,54.687777],[-8.63745,54.687886],[-8.637431,54.687903],[-8.637317,54.687992],[-8.637232,54.688085],[-8.63724,54.688242],[-8.637278,54.688329],[-8.637361,54.688353],[-8.637393,54.688392],[-8.637332,54.688467],[-8.637352,54.688491],[-8.637381,54.688514],[-8.63741,54.688534],[-8.63745,54.688545],[-8.637586,54.688558],[-8.637602,54.68859],[-8.637618,54.68862],[-8.637789,54.688656],[-8.637836,54.688675],[-8.637877,54.68871],[-8.638009,54.68882],[-8.638246,54.688997],[-8.638298,54.689053],[-8.638354,54.689072],[-8.638412,54.68911],[-8.638422,54.689135],[-8.638434,54.689158],[-8.638446,54.689221],[-8.638506,54.689283],[-8.638549,54.689352],[-8.638516,54.689406],[-8.638505,54.689446],[-8.638545,54.689471],[-8.638596,54.68953],[-8.638567,54.689606],[-8.63856,54.689675],[-8.638587,54.689696],[-8.63865,54.689695],[-8.6387,54.689728],[-8.638692,54.689745],[-8.638685,54.689764],[-8.638549,54.689845],[-8.638527,54.68989],[-8.638454,54.689953],[-8.638396,54.690017],[-8.638304,54.690088],[-8.638314,54.690131],[-8.63831,54.69019],[-8.638197,54.690263],[-8.638113,54.690368],[-8.638097,54.690452],[-8.638111,54.69047],[-8.638119,54.69051],[-8.63819,54.690561],[-8.638254,54.690626],[-8.638275,54.690663],[-8.638325,54.690681],[-8.638364,54.690722],[-8.638347,54.690769],[-8.638367,54.690798],[-8.638407,54.690844],[-8.638384,54.690909],[-8.638352,54.690988],[-8.638312,54.691082],[-8.638271,54.691143],[-8.638261,54.691215],[-8.638279,54.691248],[-8.638307,54.691357],[-8.638293,54.691417],[-8.638327,54.691451],[-8.638327,54.691451],[-8.638419,54.691375],[-8.638621,54.691195],[-8.638734,54.691106],[-8.638847,54.69101],[-8.639153,54.690787]],[[-8.638863,54.690372],[-8.638859,54.690102],[-8.639324,54.6901],[-8.639328,54.69037],[-8.638863,54.690372]]],[[[-8.649655,54.695975],[-8.64965,54.695706],[-8.649185,54.695708],[-8.649189,54.695978],[-8.649655,54.695975]]],[[[-8.656261,54.7016],[-8.656256,54.701331],[-8.655791,54.701333],[-8.655795,54.701603],[-8.656261,54.7016]]]]}}]}
