{"type":"FeatureCollection","features":[{"type":"Feature","properties":{"source_fid":1944762,"county":"Mayo","bog_geom_ha":256.09319794554301,"low15_pct":98.908834917282647,"low15_ha":253.29879839034703,"overlay_ha":253.22521074157473,"area_delta":-0.073587648772303282},"geometry":{"type":"MultiPolygon","coordinates":[[[[-9.000166,54.08413],[-9.000118,54.084084],[-9.000095,54.084023],[-9.000073,54.084023],[-9.000069,54.084019],[-9.000035,54.083934],[-9.00001,54.08389],[-8.99992,54.083816],[-8.999878,54.083802],[-8.999846,54.083779],[-8.999766,54.083742],[-8.999697,54.083706],[-8.999693,54.083646],[-8.999692,54.083615],[-8.999726,54.083598],[-8.999717,54.083575],[-8.999691,54.083554],[-8.999641,54.083545],[-8.999608,54.083502],[-8.999599,54.083461],[-8.999597,54.083385],[-8.999611,54.083312],[-8.999589,54.08327],[-8.999552,54.083243],[-8.99951,54.083228],[-8.999415,54.083109],[-8.999393,54.083052],[-8.999399,54.083034],[-8.999206,54.082861],[-8.999176,54.082862],[-8.999142,54.082857],[-8.999101,54.082816],[-8.999062,54.082791],[-8.998938,54.082753],[-8.998806,54.082703],[-8.998753,54.082691],[-8.998633,54.082689],[-8.998596,54.082687],[-8.998549,54.082658],[-8.998514,54.08265],[-8.998462,54.082628],[-8.998346,54.082606],[-8.998252,54.082677],[-8.998146,54.082751],[-8.998123,54.08276],[-8.998129,54.083022],[-8.999046,54.083014],[-8.999052,54.083284],[-8.999059,54.083553],[-8.999517,54.083549],[-8.999537,54.084358],[-8.999995,54.084354],[-9.000002,54.084624],[-8.999085,54.084631],[-8.999078,54.084362],[-8.99862,54.084365],[-8.9986,54.083557],[-8.998142,54.083561],[-8.998136,54.083291],[-8.997677,54.083295],[-8.997672,54.083077],[-8.997625,54.083084],[-8.997558,54.083128],[-8.997488,54.083154],[-8.997466,54.083202],[-8.99744,54.083216],[-8.997367,54.083212],[-8.997292,54.083215],[-8.997232,54.083227],[-8.997175,54.083256],[-8.997157,54.083277],[-8.997132,54.08329],[-8.99708,54.083301],[-8.996989,54.083351],[-8.996881,54.083387],[-8.996775,54.083425],[-8.996689,54.083452],[-8.99664,54.083486],[-8.996526,54.083506],[-8.996437,54.083538],[-8.996205,54.083508],[-8.996158,54.083443],[-8.996127,54.083407],[-8.996062,54.083394],[-8.996014,54.083393],[-8.995864,54.083367],[-8.99579,54.083349],[-8.995685,54.083294],[-8.995619,54.083272],[-8.995583,54.083263],[-8.995521,54.083258],[-8.995482,54.083258],[-8.995423,54.083251],[-8.995365,54.083247],[-8.995315,54.083217],[-8.995291,54.083162],[-8.995282,54.083097],[-8.995281,54.083053],[-8.995281,54.083036],[-8.995264,54.083019],[-8.995247,54.082973],[-8.995236,54.082931],[-8.995215,54.082889],[-8.995181,54.082838],[-8.995131,54.082784],[-8.995122,54.082776],[-8.994001,54.082785],[-8.994022,54.083683],[-8.991549,54.083704],[-8.991106,54.084112],[-8.991318,54.084167],[-8.986847,54.088867],[-8.9867,54.088901],[-8.985514,54.088531],[-8.983996,54.088013],[-8.983152,54.087725],[-8.981675,54.088869],[-8.980667,54.088677],[-8.980592,54.088915],[-8.980468,54.089126],[-8.980375,54.089326],[-8.980233,54.08948],[-8.980156,54.089651],[-8.980078,54.089776],[-8.979935,54.089872],[-8.979809,54.090006],[-8.979537,54.090132],[-8.979312,54.0902],[-8.979134,54.090221],[-8.979059,54.090459],[-8.979112,54.09062],[-8.979229,54.090819],[-8.979151,54.090991],[-8.978926,54.09121],[-8.978838,54.091295],[-8.978721,54.091454],[-8.978448,54.091708],[-8.978394,54.091815],[-8.978356,54.092035],[-8.978178,54.092171],[-8.978093,54.092268],[-8.977992,54.092372],[-8.977921,54.092446],[-8.977766,54.092571],[-8.977769,54.092686],[-8.977772,54.092809],[-8.977612,54.092887],[-8.977548,54.092935],[-8.977616,54.093146],[-8.977597,54.093346],[-8.977552,54.093532],[-8.977457,54.093604],[-8.976771,54.0934],[-8.976333,54.093271],[-8.976255,54.093403],[-8.976436,54.093534],[-8.97664,54.093693],[-8.976674,54.093719],[-8.976827,54.09383],[-8.976937,54.093909],[-8.977111,54.094033],[-8.977291,54.094182],[-8.977513,54.094343],[-8.977615,54.094413],[-8.97782,54.094554],[-8.977884,54.094593],[-8.978001,54.094666],[-8.978047,54.094695],[-8.978047,54.094695],[-8.978075,54.094716],[-8.978121,54.094749],[-8.978125,54.094753],[-8.978417,54.094968],[-8.978448,54.094991],[-8.978493,54.095024],[-8.978605,54.095105],[-8.978738,54.095206],[-8.978839,54.095281],[-8.978933,54.095352],[-8.979021,54.095407],[-8.979063,54.095433],[-8.979241,54.095544],[-8.979999,54.096016],[-8.980014,54.096028],[-8.980005,54.096106],[-8.979968,54.096423],[-8.979965,54.096446],[-8.979953,54.096552],[-8.979922,54.096755],[-8.97992,54.096771],[-8.979869,54.097106],[-8.979868,54.097114],[-8.979862,54.097141],[-8.979808,54.097393],[-8.979797,54.097442],[-8.979973,54.097571],[-8.980141,54.097744],[-8.980211,54.097853],[-8.980225,54.097874],[-8.980856,54.097861],[-8.980932,54.098026],[-8.981425,54.099095],[-8.981062,54.099206],[-8.981268,54.099541],[-8.981645,54.100171],[-8.981736,54.100343],[-8.981713,54.100427],[-8.981666,54.100589],[-8.981641,54.100734],[-8.981633,54.100744],[-8.981451,54.100802],[-8.981219,54.100872],[-8.981169,54.100897],[-8.981126,54.100957],[-8.981085,54.101039],[-8.981369,54.101079],[-8.981473,54.101094],[-8.98293,54.101301],[-8.982849,54.101641],[-8.982763,54.10193],[-8.982667,54.102223],[-8.9825,54.102735],[-8.982436,54.102928],[-8.982438,54.103035],[-8.982454,54.10324],[-8.983225,54.103446],[-8.983761,54.103593],[-8.984602,54.10381],[-8.984683,54.103721],[-8.985321,54.102867],[-8.986493,54.103207],[-8.987924,54.103622],[-8.990429,54.104345],[-8.991624,54.104752],[-8.99166,54.104762],[-8.991665,54.104747],[-8.991726,54.1046],[-8.991761,54.104531],[-8.991774,54.104508],[-8.991858,54.104353],[-8.991994,54.104154],[-8.992192,54.103873],[-8.992274,54.103754],[-8.992368,54.103617],[-8.992521,54.103366],[-8.992623,54.103209],[-8.992759,54.103016],[-8.99288,54.102845],[-8.99308,54.102558],[-8.993116,54.102506],[-8.993265,54.10232],[-8.993329,54.102241],[-8.993396,54.102151],[-8.993491,54.101991],[-8.993553,54.101891],[-8.993655,54.101743],[-8.993755,54.101579],[-8.993832,54.10146],[-8.993882,54.101382],[-8.993945,54.101284],[-8.994007,54.101187],[-8.99413,54.101017],[-8.994136,54.10101],[-8.994309,54.100765],[-8.994342,54.100717],[-8.994471,54.100528],[-8.994565,54.100381],[-8.994796,54.100041],[-8.99483,54.09999],[-8.994885,54.099908],[-8.994893,54.099897],[-8.994995,54.099744],[-8.995149,54.099514],[-8.995187,54.099457],[-8.995195,54.099445],[-8.995274,54.099326],[-8.995319,54.099264],[-8.995327,54.099253],[-8.995342,54.099232],[-8.995346,54.099226],[-8.995493,54.099018],[-8.99557,54.098906],[-8.995643,54.098797],[-8.995741,54.098651],[-8.995907,54.098399],[-8.996079,54.098141],[-8.996194,54.097958],[-8.996337,54.097758],[-8.996411,54.097641],[-8.996488,54.097521],[-8.99656,54.097409],[-8.996585,54.097362],[-8.996611,54.097294],[-8.996653,54.097201],[-8.99669,54.097132],[-8.996726,54.097087],[-8.996775,54.097038],[-8.996847,54.09696],[-8.996905,54.096888],[-8.996958,54.096817],[-8.997057,54.096674],[-8.997085,54.096632],[-8.997089,54.096625],[-8.997135,54.096556],[-8.997197,54.096481],[-8.997295,54.096348],[-8.997351,54.09625],[-8.997426,54.096109],[-8.997492,54.095963],[-8.99757,54.095812],[-8.997642,54.095685],[-8.997736,54.095513],[-8.99785,54.095321],[-8.997867,54.095291],[-8.997962,54.095131],[-8.99811,54.094846],[-8.998255,54.094573],[-8.998402,54.094288],[-8.998564,54.093972],[-8.998569,54.093962],[-8.998704,54.093706],[-8.99884,54.093471],[-8.998995,54.093203],[-8.999105,54.093022],[-8.999225,54.0928],[-8.999235,54.092781],[-8.999377,54.092512],[-8.999465,54.092339],[-8.999485,54.092295],[-8.999536,54.092226],[-8.999567,54.09224],[-8.999611,54.092263],[-8.999652,54.092291],[-8.999683,54.092305],[-8.999697,54.092428],[-8.999586,54.092496],[-8.999638,54.092584],[-9.000081,54.092743],[-9.000161,54.092852],[-9.000173,54.092935],[-9.000628,54.093189],[-9.002399,54.092155],[-9.002506,54.092191],[-9.002587,54.092242],[-9.00258,54.09231],[-9.002573,54.092371],[-9.002689,54.09242],[-9.002789,54.092511],[-9.002798,54.092604],[-9.002803,54.092692],[-9.002829,54.092648],[-9.002865,54.092521],[-9.002798,54.092366],[-9.002996,54.092226],[-9.003215,54.092067],[-9.003389,54.091986],[-9.00338,54.091605],[-9.003746,54.091602],[-9.003835,54.091475],[-9.003832,54.091331],[-9.003937,54.09133],[-9.003971,54.091281],[-9.004251,54.090843],[-9.004277,54.0908],[-9.004271,54.090519],[-9.004264,54.090249],[-9.004723,54.090246],[-9.00469,54.088898],[-9.005149,54.088894],[-9.005142,54.088625],[-9.005601,54.088621],[-9.005607,54.08889],[-9.00564,54.090238],[-9.005644,54.090424],[-9.005702,54.090367],[-9.005721,54.090318],[-9.005728,54.090254],[-9.005758,54.090193],[-9.005777,54.090166],[-9.005772,54.09013],[-9.005733,54.090029],[-9.005728,54.089959],[-9.00567,54.089901],[-9.005682,54.089869],[-9.005696,54.089804],[-9.005684,54.089725],[-9.005679,54.089655],[-9.005725,54.089612],[-9.005701,54.089511],[-9.005719,54.089486],[-9.005761,54.089407],[-9.005718,54.089332],[-9.005736,54.089299],[-9.005888,54.08918],[-9.005934,54.089133],[-9.005898,54.089043],[-9.005912,54.088975],[-9.005961,54.088945],[-9.005991,54.088916],[-9.006062,54.088869],[-9.006063,54.088833],[-9.006037,54.088781],[-9.005987,54.088752],[-9.005902,54.088713],[-9.005844,54.088674],[-9.005781,54.088633],[-9.005756,54.088589],[-9.005749,54.088537],[-9.005745,54.088489],[-9.005721,54.088458],[-9.005638,54.088397],[-9.005617,54.08838],[-9.005629,54.088337],[-9.005643,54.088332],[-9.005673,54.088323],[-9.005788,54.088301],[-9.005859,54.088282],[-9.005862,54.088273],[-9.005862,54.088194],[-9.005864,54.088169],[-9.005832,54.088115],[-9.005745,54.088102],[-9.00569,54.088092],[-9.005561,54.088033],[-9.005547,54.088009],[-9.005533,54.08798],[-9.005561,54.087934],[-9.005591,54.087868],[-9.00562,54.087804],[-9.005616,54.087767],[-9.005586,54.087726],[-9.00558,54.087686],[-9.00559,54.087654],[-9.00562,54.087619],[-9.005646,54.087574],[-9.005686,54.087513],[-9.005736,54.087437],[-9.00574,54.087393],[-9.005738,54.087347],[-9.005716,54.087277],[-9.005693,54.087212],[-9.005699,54.087186],[-9.005732,54.087108],[-9.005722,54.087047],[-9.005661,54.086983],[-9.00561,54.08693],[-9.00561,54.086907],[-9.005638,54.086848],[-9.005639,54.086789],[-9.005587,54.086742],[-9.005533,54.086725],[-9.005454,54.086688],[-9.005363,54.086609],[-9.005254,54.086525],[-9.005181,54.086446],[-9.005077,54.086346],[-9.005026,54.086294],[-9.004959,54.086233],[-9.004845,54.086186],[-9.004742,54.086138],[-9.004633,54.086065],[-9.004536,54.08597],[-9.004469,54.085913],[-9.004425,54.085888],[-9.004374,54.085787],[-9.004317,54.085732],[-9.004265,54.085688],[-9.004251,54.085673],[-9.004211,54.085647],[-9.004172,54.085635],[-9.004026,54.085542],[-9.003952,54.085437],[-9.003882,54.085343],[-9.003884,54.085331],[-9.003854,54.085269],[-9.003805,54.085236],[-9.003718,54.085139],[-9.003659,54.085086],[-9.003529,54.085033],[-9.003489,54.085015],[-9.003447,54.08501],[-9.003386,54.085019],[-9.003306,54.085021],[-9.003211,54.085009],[-9.003037,54.085005],[-9.002916,54.084955],[-9.002741,54.084899],[-9.002652,54.084898],[-9.002553,54.084882],[-9.002521,54.084858],[-9.002489,54.084836],[-9.002418,54.084822],[-9.002279,54.084803],[-9.002243,54.084811],[-9.002198,54.084808],[-9.002109,54.084812],[-9.002052,54.084817],[-9.001928,54.084782],[-9.001702,54.084716],[-9.001615,54.084694],[-9.001531,54.084692],[-9.001411,54.084693],[-9.001328,54.084714],[-9.001281,54.084706],[-9.001249,54.084687],[-9.00114,54.084626],[-9.001012,54.084604],[-9.000972,54.084594],[-9.000956,54.084566],[-9.000963,54.084534],[-9.000952,54.084514],[-9.000883,54.084484],[-9.000788,54.084447],[-9.000738,54.084439],[-9.000689,54.084443],[-9.000632,54.08446],[-9.000611,54.084459],[-9.000587,54.084445],[-9.000568,54.084409],[-9.000499,54.084374],[-9.000388,54.084327],[-9.000329,54.084277],[-9.00027,54.084206],[-9.000166,54.08413]],[[-8.997277,54.085725],[-8.997735,54.085721],[-8.997748,54.08626],[-8.99729,54.086264],[-8.997277,54.085725]],[[-8.981027,54.096642],[-8.981486,54.096638],[-8.981492,54.096907],[-8.981034,54.096911],[-8.981027,54.096642]]],[[[-9.00536,54.090575],[-9.005413,54.090509],[-9.005188,54.090511],[-9.00519,54.090626],[-9.00533,54.090623],[-9.005356,54.090622],[-9.00536,54.090575]]]]}}]}
