{"type":"FeatureCollection","features":[{"type":"Feature","properties":{"source_fid":1947828,"county":"Mayo","bog_geom_ha":185.37123529219767,"low15_pct":88.553336580613745,"low15_ha":164.15241391194124,"overlay_ha":163.7529208146637,"area_delta":-0.39949309727754212},"geometry":{"type":"MultiPolygon","coordinates":[[[[-9.518145,54.295989],[-9.518159,54.295951],[-9.518149,54.295949],[-9.518133,54.295989],[-9.518145,54.295989]]],[[[-9.520832,54.310797],[-9.520926,54.310789],[-9.520924,54.310751],[-9.520778,54.310753],[-9.520832,54.310797]]],[[[-9.520292,54.309092],[-9.520294,54.309142],[-9.520865,54.309135],[-9.520875,54.309404],[-9.521336,54.309398],[-9.521355,54.309937],[-9.521816,54.309931],[-9.521826,54.310201],[-9.521869,54.3102],[-9.521861,54.309971],[-9.524583,54.309937],[-9.524581,54.309896],[-9.524571,54.309627],[-9.525032,54.309621],[-9.525022,54.309352],[-9.525483,54.309346],[-9.525493,54.309615],[-9.525954,54.309609],[-9.525944,54.30934],[-9.526405,54.309334],[-9.526415,54.309604],[-9.526425,54.309873],[-9.528729,54.309844],[-9.528719,54.309574],[-9.52918,54.309569],[-9.52917,54.309299],[-9.529631,54.309293],[-9.529621,54.309024],[-9.530081,54.309018],[-9.530071,54.308749],[-9.530993,54.308737],[-9.531003,54.309006],[-9.531464,54.309],[-9.531474,54.30927],[-9.531484,54.309539],[-9.531023,54.309545],[-9.531033,54.309815],[-9.531035,54.309855],[-9.531075,54.309855],[-9.531094,54.310353],[-9.531514,54.310348],[-9.531524,54.310617],[-9.531985,54.310611],[-9.531995,54.310881],[-9.532456,54.310875],[-9.532466,54.311145],[-9.532926,54.311139],[-9.532936,54.311408],[-9.535241,54.311379],[-9.535249,54.311598],[-9.53575,54.311592],[-9.535751,54.311642],[-9.536172,54.311637],[-9.536182,54.311906],[-9.536643,54.3119],[-9.536653,54.31217],[-9.537114,54.312164],[-9.537124,54.312433],[-9.536663,54.312439],[-9.536673,54.312709],[-9.536684,54.312978],[-9.536694,54.313247],[-9.536233,54.313253],[-9.536243,54.313523],[-9.535321,54.313535],[-9.535331,54.313804],[-9.53487,54.31381],[-9.53488,54.314079],[-9.534419,54.314085],[-9.534449,54.314894],[-9.534459,54.315163],[-9.534346,54.315165],[-9.534347,54.315204],[-9.534,54.315208],[-9.534009,54.315438],[-9.533548,54.315444],[-9.533558,54.315714],[-9.533097,54.31572],[-9.533107,54.315989],[-9.533117,54.316259],[-9.533127,54.316528],[-9.533588,54.316522],[-9.533598,54.316792],[-9.533606,54.31701],[-9.53595,54.31698],[-9.537486,54.316961],[-9.537754,54.316957],[-9.537746,54.316739],[-9.538668,54.316727],[-9.538658,54.316458],[-9.53958,54.316446],[-9.53959,54.316715],[-9.540511,54.316704],[-9.540501,54.316434],[-9.540962,54.316428],[-9.540952,54.316159],[-9.542066,54.316144],[-9.542061,54.316004],[-9.543251,54.315989],[-9.543247,54.31586],[-9.545128,54.315836],[-9.545099,54.315067],[-9.546635,54.315047],[-9.546534,54.312353],[-9.54807,54.312333],[-9.548044,54.311628],[-9.547712,54.311599],[-9.547614,54.31144],[-9.5465,54.311455],[-9.546433,54.309659],[-9.543362,54.309698],[-9.54331,54.30831],[-9.542503,54.308321],[-9.542493,54.308051],[-9.542954,54.308045],[-9.542949,54.307906],[-9.541759,54.307922],[-9.541725,54.307024],[-9.543285,54.307004],[-9.543299,54.306984],[-9.543424,54.306807],[-9.543484,54.306732],[-9.543821,54.306272],[-9.543995,54.306024],[-9.544051,54.305945],[-9.544249,54.30568],[-9.544231,54.305195],[-9.543194,54.305208],[-9.54316,54.30431],[-9.544658,54.304291],[-9.544656,54.304249],[-9.544694,54.304249],[-9.544628,54.302494],[-9.545973,54.302477],[-9.545958,54.302076],[-9.546418,54.30207],[-9.546408,54.3018],[-9.546869,54.301794],[-9.546849,54.301255],[-9.546829,54.300717],[-9.546368,54.300722],[-9.546358,54.300453],[-9.546338,54.299914],[-9.546739,54.299909],[-9.546674,54.299791],[-9.546921,54.299769],[-9.546063,54.29978],[-9.546033,54.29898],[-9.546025,54.298981],[-9.545922,54.298983],[-9.54583,54.29897],[-9.545753,54.298952],[-9.544956,54.29907],[-9.54495,54.298896],[-9.544577,54.298901],[-9.544145,54.299009],[-9.543796,54.299089],[-9.54367,54.299109],[-9.543281,54.29917],[-9.542541,54.299308],[-9.542446,54.29931],[-9.542143,54.299183],[-9.541802,54.299066],[-9.541252,54.298943],[-9.541099,54.298903],[-9.541081,54.298898],[-9.540896,54.298846],[-9.540547,54.298722],[-9.54025,54.29862],[-9.540045,54.298528],[-9.539963,54.298595],[-9.539793,54.298726],[-9.539238,54.29914],[-9.538826,54.299458],[-9.53836,54.299818],[-9.538067,54.300042],[-9.537674,54.300343],[-9.537541,54.300455],[-9.537292,54.300645],[-9.537163,54.300751],[-9.536943,54.300918],[-9.536536,54.301226],[-9.536197,54.301492],[-9.53579,54.301808],[-9.535586,54.301975],[-9.535396,54.302093],[-9.535142,54.302235],[-9.534803,54.302379],[-9.534262,54.302581],[-9.533767,54.302757],[-9.532918,54.303069],[-9.532264,54.303302],[-9.531924,54.303434],[-9.531575,54.303556],[-9.531226,54.303694],[-9.530921,54.303815],[-9.530665,54.303903],[-9.530651,54.303932],[-9.530282,54.304059],[-9.529686,54.304283],[-9.52933,54.304414],[-9.52904,54.304523],[-9.528626,54.304677],[-9.528194,54.304843],[-9.527578,54.305061],[-9.526864,54.305321],[-9.526263,54.30551],[-9.526265,54.305562],[-9.526109,54.305564],[-9.525766,54.305687],[-9.525416,54.30582],[-9.525018,54.305986],[-9.5249,54.306041],[-9.524903,54.306118],[-9.524727,54.30612],[-9.524446,54.306231],[-9.524452,54.306393],[-9.524032,54.306399],[-9.523992,54.306415],[-9.524001,54.306669],[-9.523399,54.306676],[-9.523084,54.306807],[-9.523089,54.30695],[-9.522742,54.306954],[-9.52263,54.307006],[-9.522639,54.307225],[-9.522138,54.307231],[-9.522029,54.307281],[-9.52171,54.307422],[-9.521351,54.30757],[-9.521047,54.307702],[-9.520703,54.307861],[-9.520346,54.308026],[-9.520017,54.308153],[-9.519746,54.308241],[-9.519445,54.308335],[-9.519178,54.3084],[-9.518961,54.308455],[-9.518821,54.308463],[-9.518676,54.308444],[-9.518435,54.308403],[-9.518209,54.308377],[-9.517939,54.308343],[-9.517699,54.308325],[-9.517404,54.308303],[-9.517189,54.308284],[-9.517212,54.308911],[-9.519472,54.308883],[-9.519481,54.309103],[-9.520292,54.309092]],[[-9.545632,54.311946],[-9.544448,54.311968],[-9.543766,54.311956],[-9.543458,54.311884],[-9.54347,54.311563],[-9.543465,54.311532],[-9.543467,54.311377],[-9.543906,54.311299],[-9.545559,54.311139],[-9.545632,54.311946]],[[-9.545538,54.312493],[-9.54503,54.312412],[-9.545116,54.312006],[-9.545441,54.312031],[-9.545695,54.312042],[-9.54572,54.312306],[-9.545538,54.312493]],[[-9.541557,54.302533],[-9.541591,54.303431],[-9.540938,54.30344],[-9.54094,54.303488],[-9.540479,54.303494],[-9.540489,54.303763],[-9.538646,54.303787],[-9.538676,54.304595],[-9.539137,54.304589],[-9.539167,54.305398],[-9.539628,54.305392],[-9.539648,54.305931],[-9.54103,54.305913],[-9.54102,54.305644],[-9.541481,54.305638],[-9.541471,54.305368],[-9.541932,54.305362],[-9.541922,54.305093],[-9.542382,54.305087],[-9.542372,54.304818],[-9.542833,54.304812],[-9.542843,54.305081],[-9.542853,54.305351],[-9.542393,54.305356],[-9.542403,54.305626],[-9.542413,54.305895],[-9.542423,54.306165],[-9.541962,54.306171],[-9.541972,54.30644],[-9.541511,54.306446],[-9.541521,54.306716],[-9.541061,54.306721],[-9.541071,54.306991],[-9.54061,54.306997],[-9.54062,54.307266],[-9.538777,54.30729],[-9.538767,54.30702],[-9.538306,54.307026],[-9.538296,54.306757],[-9.537835,54.306763],[-9.537825,54.306493],[-9.537364,54.306499],[-9.537354,54.30623],[-9.536893,54.306235],[-9.536883,54.305966],[-9.536863,54.305427],[-9.536833,54.304619],[-9.536803,54.30381],[-9.536793,54.303541],[-9.537254,54.303535],[-9.537234,54.302996],[-9.537694,54.30299],[-9.537684,54.302721],[-9.539988,54.302691],[-9.539978,54.302422],[-9.5409,54.30241],[-9.540904,54.302542],[-9.541557,54.302533]],[[-9.541658,54.305228],[-9.540122,54.305247],[-9.540089,54.304349],[-9.541624,54.304329],[-9.541658,54.305228]],[[-9.54133,54.301596],[-9.54134,54.301865],[-9.540879,54.301871],[-9.540869,54.301602],[-9.540859,54.301332],[-9.541781,54.30132],[-9.541771,54.301051],[-9.542692,54.301039],[-9.542702,54.301309],[-9.542241,54.301314],[-9.542252,54.301584],[-9.54133,54.301596]],[[-9.538986,54.300547],[-9.538525,54.300553],[-9.538505,54.300014],[-9.538966,54.300008],[-9.538986,54.300547]],[[-9.538065,54.300559],[-9.538525,54.300553],[-9.538546,54.301092],[-9.538085,54.301098],[-9.538065,54.300559]]],[[[-9.546851,54.300109],[-9.546803,54.300023],[-9.546818,54.300447],[-9.546987,54.300445],[-9.546851,54.300109]]],[[[-9.547432,54.300458],[-9.547281,54.300501],[-9.547289,54.300711],[-9.548211,54.300699],[-9.548231,54.301238],[-9.548571,54.301233],[-9.548567,54.301206],[-9.548484,54.300809],[-9.548467,54.300759],[-9.548456,54.300729],[-9.548414,54.300661],[-9.548411,54.300649],[-9.547632,54.300659],[-9.547623,54.300428],[-9.547432,54.300458]]],[[[-9.515615,54.308285],[-9.515617,54.308295],[-9.51562,54.308318],[-9.515646,54.308388],[-9.515657,54.308394],[-9.515653,54.308284],[-9.515615,54.308285]]],[[[-9.530562,54.309551],[-9.530552,54.309282],[-9.530091,54.309287],[-9.530101,54.309557],[-9.530562,54.309551]]]]}}]}
