{"type":"FeatureCollection","features":[{"type":"Feature","properties":{"source_fid":1948039,"county":"Mayo","bog_geom_ha":255.07715300100026,"low15_pct":83.257122757650365,"low15_ha":212.36989840076245,"overlay_ha":212.10703033489409,"area_delta":-0.26286806586836065},"geometry":{"type":"MultiPolygon","coordinates":[[[[-9.941365,54.265272],[-9.941242,54.265329],[-9.940959,54.265485],[-9.94079,54.26558],[-9.94082,54.26622],[-9.939946,54.266234],[-9.93983,54.266341],[-9.939376,54.266709],[-9.939245,54.266816],[-9.939071,54.266967],[-9.93927,54.267018],[-9.9393,54.267034],[-9.939336,54.267054],[-9.939366,54.26707],[-9.939755,54.267225],[-9.94065,54.26756],[-9.940927,54.267655],[-9.941131,54.267744],[-9.941217,54.267782],[-9.942168,54.267766],[-9.942179,54.267995],[-9.943972,54.267966],[-9.94402,54.267966],[-9.944009,54.267737],[-9.944585,54.267727],[-9.944599,54.267656],[-9.944618,54.267642],[-9.944618,54.267642],[-9.944618,54.267642],[-9.944655,54.267641],[-9.94468,54.267645],[-9.944759,54.267689],[-9.944794,54.267724],[-9.94493,54.267722],[-9.944917,54.267452],[-9.945838,54.267437],[-9.94585,54.267707],[-9.946311,54.267699],[-9.946323,54.267969],[-9.946336,54.268238],[-9.945876,54.268246],[-9.945888,54.268515],[-9.945903,54.268834],[-9.947082,54.268815],[-9.947105,54.269304],[-9.947307,54.269301],[-9.94732,54.26957],[-9.947118,54.269574],[-9.947124,54.269713],[-9.946866,54.269717],[-9.946873,54.269847],[-9.946885,54.270117],[-9.946909,54.270615],[-9.947167,54.27061],[-9.947207,54.27146],[-9.947409,54.271456],[-9.947422,54.271726],[-9.947882,54.271718],[-9.947895,54.271988],[-9.948355,54.27198],[-9.948342,54.271711],[-9.948753,54.271704],[-9.948701,54.270586],[-9.94967,54.27057],[-9.94966,54.270341],[-9.95012,54.270334],[-9.950107,54.270065],[-9.950211,54.270063],[-9.950192,54.269663],[-9.951666,54.269639],[-9.952269,54.268687],[-9.952275,54.268681],[-9.951885,54.268688],[-9.951859,54.268149],[-9.95232,54.268142],[-9.952342,54.268613],[-9.954175,54.266729],[-9.955648,54.26502],[-9.956346,54.264558],[-9.95755,54.263979],[-9.959607,54.263257],[-9.963988,54.261665],[-9.963979,54.261481],[-9.964439,54.261474],[-9.96444,54.2615],[-9.965246,54.261207],[-9.968239,54.260208],[-9.968219,54.260171],[-9.968142,54.260026],[-9.968045,54.259858],[-9.967993,54.259747],[-9.967952,54.25965],[-9.967898,54.259549],[-9.967836,54.259323],[-9.967795,54.259232],[-9.967708,54.259075],[-9.96767,54.259043],[-9.967569,54.258972],[-9.967313,54.258736],[-9.967206,54.258589],[-9.967129,54.25846],[-9.967092,54.258367],[-9.96702,54.258287],[-9.966972,54.258203],[-9.966857,54.258076],[-9.96677,54.257953],[-9.966672,54.257784],[-9.966641,54.257722],[-9.966565,54.257606],[-9.966459,54.25745],[-9.966361,54.257298],[-9.966302,54.257099],[-9.966279,54.256968],[-9.966246,54.256843],[-9.966214,54.256712],[-9.966182,54.256603],[-9.966169,54.256493],[-9.966157,54.256397],[-9.96614,54.256309],[-9.966123,54.256232],[-9.966089,54.25606],[-9.966044,54.255826],[-9.966036,54.255786],[-9.966011,54.255786],[-9.965985,54.255247],[-9.965997,54.255247],[-9.965976,54.255089],[-9.965958,54.254931],[-9.965959,54.254779],[-9.965963,54.254556],[-9.965974,54.25441],[-9.965975,54.254288],[-9.965974,54.25423],[-9.965897,54.254102],[-9.965806,54.253929],[-9.965663,54.253689],[-9.965564,54.253464],[-9.965467,54.253274],[-9.965365,54.253103],[-9.965287,54.252918],[-9.965188,54.252698],[-9.965173,54.252663],[-9.965129,54.252616],[-9.965015,54.252403],[-9.96496,54.252366],[-9.964861,54.252298],[-9.964675,54.252233],[-9.964632,54.252218],[-9.964241,54.251971],[-9.964046,54.251821],[-9.963885,54.251676],[-9.963874,54.251633],[-9.963709,54.251425],[-9.963679,54.251387],[-9.963599,54.251285],[-9.963511,54.251161],[-9.963376,54.250662],[-9.963293,54.250351],[-9.963282,54.250308],[-9.963182,54.249963],[-9.963095,54.249714],[-9.96309,54.2497],[-9.96307,54.249658],[-9.96283,54.249149],[-9.962642,54.248715],[-9.962633,54.248692],[-9.962623,54.248669],[-9.962416,54.248247],[-9.962196,54.24785],[-9.962135,54.247739],[-9.961676,54.246781],[-9.961659,54.246746],[-9.961384,54.246721],[-9.961398,54.247018],[-9.959865,54.247043],[-9.959846,54.246653],[-9.95978,54.246651],[-9.958981,54.246647],[-9.958964,54.246743],[-9.958888,54.246881],[-9.958763,54.247088],[-9.95812,54.247071],[-9.956799,54.247093],[-9.956774,54.246564],[-9.956481,54.246554],[-9.955866,54.246539],[-9.955623,54.246533],[-9.95555,54.246531],[-9.95464,54.246539],[-9.95482,54.246656],[-9.955027,54.246794],[-9.955225,54.246934],[-9.955488,54.247121],[-9.955569,54.247178],[-9.955608,54.2472],[-9.955559,54.247477],[-9.955474,54.247959],[-9.955422,54.248256],[-9.955417,54.248285],[-9.955245,54.248253],[-9.955152,54.248242],[-9.955083,54.24821],[-9.954989,54.24819],[-9.954858,54.24817],[-9.954814,54.248149],[-9.954786,54.248096],[-9.954775,54.248069],[-9.954684,54.248024],[-9.954584,54.247973],[-9.954484,54.247923],[-9.954375,54.247857],[-9.954289,54.247822],[-9.954152,54.247783],[-9.953987,54.247701],[-9.953857,54.247647],[-9.953744,54.247583],[-9.953596,54.247499],[-9.953508,54.247448],[-9.953282,54.247335],[-9.953183,54.247298],[-9.953104,54.247308],[-9.952971,54.247333],[-9.952925,54.247339],[-9.952822,54.247307],[-9.952736,54.247269],[-9.952696,54.247241],[-9.952681,54.247204],[-9.952684,54.247118],[-9.952707,54.247031],[-9.952694,54.247019],[-9.952596,54.247012],[-9.952765,54.246613],[-9.952802,54.246533],[-9.95234,54.246541],[-9.95183,54.246794],[-9.951342,54.24702],[-9.950803,54.246996],[-9.950129,54.246982],[-9.950088,54.247144],[-9.949909,54.247145],[-9.949559,54.247145],[-9.949555,54.247147],[-9.949449,54.247145],[-9.94938,54.247147],[-9.949228,54.24715],[-9.948924,54.24715],[-9.948885,54.247152],[-9.948884,54.247187],[-9.948824,54.247186],[-9.948744,54.247188],[-9.948598,54.247177],[-9.948443,54.247152],[-9.948251,54.247093],[-9.948052,54.247026],[-9.948039,54.247195],[-9.947729,54.246947],[-9.947729,54.246946],[-9.947778,54.24634],[-9.947335,54.246347],[-9.947262,54.246468],[-9.947219,54.246593],[-9.947551,54.246967],[-9.947597,54.247121],[-9.947637,54.247249],[-9.947685,54.247442],[-9.947721,54.247634],[-9.947737,54.247707],[-9.94772,54.247881],[-9.947686,54.248027],[-9.947649,54.248086],[-9.947629,54.248116],[-9.947593,54.248157],[-9.948037,54.248079],[-9.94837,54.248022],[-9.948887,54.248045],[-9.948887,54.248052],[-9.948885,54.248066],[-9.94887,54.248156],[-9.948849,54.248198],[-9.948706,54.248308],[-9.948449,54.248489],[-9.948347,54.248556],[-9.948308,54.248606],[-9.947344,54.248474],[-9.947243,54.248569],[-9.947202,54.248564],[-9.947174,54.24859],[-9.947053,54.248677],[-9.946639,54.248857],[-9.946224,54.249039],[-9.945795,54.249234],[-9.945546,54.249355],[-9.945231,54.249491],[-9.944824,54.249673],[-9.944171,54.249942],[-9.943747,54.250101],[-9.94353,54.250164],[-9.942509,54.250422],[-9.941231,54.250743],[-9.940386,54.250959],[-9.939248,54.251257],[-9.939097,54.251088],[-9.938768,54.25071],[-9.938309,54.250151],[-9.938004,54.249746],[-9.937896,54.249535],[-9.937886,54.249477],[-9.93787,54.249441],[-9.937856,54.249454],[-9.937824,54.249436],[-9.937765,54.249344],[-9.937777,54.249205],[-9.937775,54.249197],[-9.936569,54.249216],[-9.936143,54.249296],[-9.935879,54.249407],[-9.935763,54.249489],[-9.935885,54.249694],[-9.935974,54.249883],[-9.936008,54.249966],[-9.935996,54.249998],[-9.935972,54.249989],[-9.935939,54.249929],[-9.93584,54.249733],[-9.93573,54.249594],[-9.93565,54.249547],[-9.935435,54.249582],[-9.935514,54.251269],[-9.935548,54.251259],[-9.936184,54.251092],[-9.936355,54.251083],[-9.936374,54.251113],[-9.936342,54.251132],[-9.936324,54.251143],[-9.936362,54.251159],[-9.936441,54.251169],[-9.93651,54.251197],[-9.936507,54.251218],[-9.936473,54.251233],[-9.936396,54.251215],[-9.936174,54.251183],[-9.936011,54.251201],[-9.935794,54.251282],[-9.935706,54.251388],[-9.935611,54.251581],[-9.935597,54.251602],[-9.935578,54.25162],[-9.935568,54.25165],[-9.93555,54.251685],[-9.935572,54.251744],[-9.935675,54.251808],[-9.935744,54.25188],[-9.935768,54.25193],[-9.935806,54.251971],[-9.935753,54.252113],[-9.935718,54.252196],[-9.935685,54.252237],[-9.93566,54.252361],[-9.935721,54.252431],[-9.935749,54.252451],[-9.935809,54.252457],[-9.936013,54.252474],[-9.936725,54.252559],[-9.937323,54.252632],[-9.937976,54.252728],[-9.93842,54.252779],[-9.939575,54.252874],[-9.939942,54.252903],[-9.940982,54.252997],[-9.941708,54.253052],[-9.942606,54.253108],[-9.943525,54.253149],[-9.944318,54.253184],[-9.944509,54.253194],[-9.944483,54.253266],[-9.944295,54.253779],[-9.943353,54.253769],[-9.943303,54.254668],[-9.942774,54.254655],[-9.942429,54.25464],[-9.941962,54.254615],[-9.941557,54.254606],[-9.941648,54.255077],[-9.941666,54.255115],[-9.941698,54.255247],[-9.941698,54.255283],[-9.941701,54.255306],[-9.942271,54.255279],[-9.942263,54.255889],[-9.942255,54.25598],[-9.942251,54.256029],[-9.942202,54.256051],[-9.942175,54.256154],[-9.942095,54.256459],[-9.941959,54.25728],[-9.942102,54.257294],[-9.942356,54.25733],[-9.942528,54.257353],[-9.942557,54.257332],[-9.942692,54.257221],[-9.942893,54.257038],[-9.943069,54.256875],[-9.943392,54.256556],[-9.943414,54.256534],[-9.94367,54.25629],[-9.943696,54.256265],[-9.944695,54.255279],[-9.944393,54.2552],[-9.94499,54.254793],[-9.945772,54.2551],[-9.94637,54.254781],[-9.946658,54.254726],[-9.947325,54.254052],[-9.947922,54.253514],[-9.948726,54.25299],[-9.948784,54.253011],[-9.949782,54.25337],[-9.950234,54.253533],[-9.950788,54.253747],[-9.950951,54.253811],[-9.951004,54.253768],[-9.951014,54.253761],[-9.951296,54.253565],[-9.951454,54.253465],[-9.951834,54.253235],[-9.952204,54.252998],[-9.95274,54.252665],[-9.952928,54.252545],[-9.953585,54.252092],[-9.953585,54.252092],[-9.953705,54.252009],[-9.954334,54.251579],[-9.954407,54.251526],[-9.954408,54.251526],[-9.954529,54.25144],[-9.954704,54.251301],[-9.954844,54.25112],[-9.954895,54.250987],[-9.955023,54.251043],[-9.955053,54.251054],[-9.955232,54.251144],[-9.95558,54.251335],[-9.955825,54.251474],[-9.956117,54.251633],[-9.956365,54.25177],[-9.956687,54.251939],[-9.956949,54.252088],[-9.957184,54.252204],[-9.957354,54.252303],[-9.957619,54.252469],[-9.957787,54.252576],[-9.957727,54.252849],[-9.957687,54.252922],[-9.957687,54.253078],[-9.957653,54.253269],[-9.957644,54.25349],[-9.957658,54.253695],[-9.957689,54.253976],[-9.95764,54.254003],[-9.956991,54.254362],[-9.956572,54.254592],[-9.957664,54.254574],[-9.957652,54.254305],[-9.958112,54.254297],[-9.958099,54.254028],[-9.958559,54.25402],[-9.958546,54.253751],[-9.959006,54.253743],[-9.959019,54.254013],[-9.959939,54.253998],[-9.959952,54.254267],[-9.960872,54.254252],[-9.96086,54.253983],[-9.96224,54.25396],[-9.962253,54.25423],[-9.963173,54.254215],[-9.96316,54.253945],[-9.963147,54.253676],[-9.963608,54.253668],[-9.96362,54.253938],[-9.965001,54.253915],[-9.965013,54.254185],[-9.965474,54.254177],[-9.965486,54.254447],[-9.964106,54.254469],[-9.964119,54.254739],[-9.963659,54.254746],[-9.963672,54.255016],[-9.963684,54.255285],[-9.963697,54.255554],[-9.96371,54.255824],[-9.96463,54.255809],[-9.964592,54.255001],[-9.965052,54.254993],[-9.96509,54.255801],[-9.965103,54.256071],[-9.965563,54.256063],[-9.965576,54.256333],[-9.965589,54.256602],[-9.965602,54.256871],[-9.965615,54.257141],[-9.965627,54.25741],[-9.965653,54.257949],[-9.965691,54.258757],[-9.965231,54.258765],[-9.965244,54.259034],[-9.965257,54.259304],[-9.964797,54.259311],[-9.96481,54.25958],[-9.964822,54.25985],[-9.964835,54.260119],[-9.964375,54.260127],[-9.964388,54.260396],[-9.963928,54.260404],[-9.96394,54.260673],[-9.96302,54.260688],[-9.963033,54.260957],[-9.962573,54.260965],[-9.96256,54.260696],[-9.9621,54.260703],[-9.962087,54.260434],[-9.961627,54.260441],[-9.961614,54.260172],[-9.961154,54.260179],[-9.961141,54.25991],[-9.960221,54.259925],[-9.960208,54.259655],[-9.959288,54.25967],[-9.9593,54.25994],[-9.95792,54.259962],[-9.957907,54.259693],[-9.957447,54.2597],[-9.957434,54.259431],[-9.956974,54.259438],[-9.956961,54.259169],[-9.956041,54.259184],[-9.956054,54.259453],[-9.955593,54.259461],[-9.955581,54.259191],[-9.955121,54.259199],[-9.955108,54.258929],[-9.954648,54.258937],[-9.954635,54.258667],[-9.954622,54.258398],[-9.954162,54.258405],[-9.954149,54.258136],[-9.954609,54.258129],[-9.954597,54.257859],[-9.955057,54.257852],[-9.955031,54.257313],[-9.954571,54.25732],[-9.954546,54.256782],[-9.954533,54.256512],[-9.953613,54.256527],[-9.953638,54.257066],[-9.953178,54.257073],[-9.953191,54.257343],[-9.953203,54.257612],[-9.953207,54.257689],[-9.953209,54.257689],[-9.953504,54.257732],[-9.953503,54.257758],[-9.95349,54.258433],[-9.953495,54.258586],[-9.953501,54.259073],[-9.953499,54.259286],[-9.953466,54.259401],[-9.953448,54.259453],[-9.953422,54.25959],[-9.953383,54.25963],[-9.953371,54.259642],[-9.953355,54.259658],[-9.953188,54.259615],[-9.952885,54.259542],[-9.952447,54.259462],[-9.952298,54.259428],[-9.952134,54.259384],[-9.951996,54.259346],[-9.951985,54.259342],[-9.951858,54.259297],[-9.951624,54.259249],[-9.951543,54.259228],[-9.951278,54.259165],[-9.950006,54.260834],[-9.950419,54.260928],[-9.950533,54.260947],[-9.950598,54.26105],[-9.950041,54.261536],[-9.949705,54.261839],[-9.949293,54.262174],[-9.949084,54.262325],[-9.94906,54.262339],[-9.948093,54.262893],[-9.947129,54.262357],[-9.946922,54.262628],[-9.946573,54.26291],[-9.946414,54.263011],[-9.946263,54.263117],[-9.947015,54.263105],[-9.947028,54.263374],[-9.946589,54.263381],[-9.947095,54.263742],[-9.94683,54.263957],[-9.946523,54.264222],[-9.946385,54.264352],[-9.946175,54.264468],[-9.945927,54.264358],[-9.945675,54.264236],[-9.945472,54.264146],[-9.945236,54.264035],[-9.945216,54.264027],[-9.945225,54.264212],[-9.944305,54.264227],[-9.944292,54.263957],[-9.944288,54.26387],[-9.943776,54.264022],[-9.943808,54.26419],[-9.943626,54.264401],[-9.94318,54.264522],[-9.942941,54.264685],[-9.942712,54.264797],[-9.942354,54.264881],[-9.942431,54.264914],[-9.94257,54.264974],[-9.942554,54.265012],[-9.942472,54.265049],[-9.942337,54.265084],[-9.941983,54.265148],[-9.941677,54.265199],[-9.941398,54.265256],[-9.941365,54.265272]],[[-9.950349,54.247865],[-9.950019,54.248047],[-9.949721,54.248213],[-9.949443,54.248057],[-9.949305,54.247979],[-9.949839,54.24763],[-9.950349,54.247865]],[[-9.961665,54.261249],[-9.961704,54.262058],[-9.961716,54.262327],[-9.961256,54.262334],[-9.961243,54.262065],[-9.960783,54.262073],[-9.960745,54.261264],[-9.961205,54.261257],[-9.961192,54.260987],[-9.961652,54.26098],[-9.961665,54.261249]],[[-9.959786,54.260471],[-9.959326,54.260479],[-9.959313,54.260209],[-9.959773,54.260202],[-9.959786,54.260471]],[[-9.945997,54.251258],[-9.945076,54.251273],[-9.945064,54.251003],[-9.945051,54.250734],[-9.946891,54.250704],[-9.946904,54.250974],[-9.945984,54.250989],[-9.945997,54.251258]],[[-9.947282,54.268762],[-9.946822,54.26877],[-9.946796,54.268231],[-9.947257,54.268223],[-9.947282,54.268762]]],[[[-9.951586,54.257498],[-9.951818,54.257525],[-9.95181,54.257365],[-9.95135,54.257373],[-9.951337,54.257103],[-9.951312,54.256564],[-9.950852,54.256572],[-9.950843,54.256382],[-9.950722,54.256424],[-9.950437,54.256529],[-9.950256,54.2566],[-9.95014,54.256649],[-9.949994,54.256772],[-9.949969,54.256801],[-9.950032,54.256809],[-9.950074,54.256775],[-9.950267,54.256834],[-9.950754,54.256992],[-9.950625,54.257131],[-9.950511,54.257296],[-9.950418,54.257282],[-9.949907,54.257197],[-9.949596,54.257151],[-9.949153,54.257064],[-9.948582,54.256958],[-9.948375,54.256899],[-9.947881,54.256788],[-9.947832,54.256772],[-9.94781,54.256799],[-9.947775,54.256841],[-9.947829,54.25685],[-9.947889,54.256858],[-9.94838,54.256983],[-9.948905,54.257095],[-9.949358,54.257182],[-9.949715,54.257236],[-9.950786,54.257396],[-9.951054,54.25743],[-9.951586,54.257498]]],[[[-9.956173,54.254807],[-9.956025,54.25487],[-9.956297,54.254866],[-9.956291,54.254746],[-9.956239,54.254773],[-9.956173,54.254807]]],[[[-9.962956,54.259341],[-9.963416,54.259334],[-9.963403,54.259064],[-9.963864,54.259057],[-9.963851,54.258787],[-9.964311,54.25878],[-9.964273,54.257971],[-9.964733,54.257964],[-9.964707,54.257425],[-9.963327,54.257448],[-9.963314,54.257178],[-9.962854,54.257186],[-9.962841,54.256916],[-9.961921,54.256931],[-9.961908,54.256662],[-9.960988,54.256677],[-9.960975,54.256407],[-9.960515,54.256415],[-9.960502,54.256146],[-9.959582,54.256161],[-9.959594,54.25643],[-9.958214,54.256452],[-9.958227,54.256722],[-9.957767,54.256729],[-9.957792,54.257268],[-9.958252,54.257261],[-9.958278,54.257799],[-9.959658,54.257777],[-9.959671,54.258046],[-9.961051,54.258024],[-9.961064,54.258293],[-9.961524,54.258286],[-9.961537,54.258555],[-9.961997,54.258548],[-9.96201,54.258817],[-9.96247,54.25881],[-9.962483,54.259079],[-9.962943,54.259072],[-9.962956,54.259341]],[[-9.960588,54.257639],[-9.960296,54.257841],[-9.959641,54.257503],[-9.959955,54.257319],[-9.960588,54.257639]]]]}}]}
