{"type":"FeatureCollection","features":[{"type":"Feature","properties":{"source_fid":2051358,"county":"Mayo","bog_geom_ha":288.09581012694758,"low15_pct":99.937441351266813,"low15_ha":287.91558128107522,"overlay_ha":287.8894399423769,"area_delta":-0.02614133869832358},"geometry":{"type":"MultiPolygon","coordinates":[[[[-9.580013,54.17563],[-9.580055,54.175617],[-9.580177,54.175581],[-9.580593,54.175457],[-9.580629,54.175446],[-9.58066,54.175439],[-9.580844,54.175399],[-9.580914,54.175392],[-9.580968,54.175386],[-9.581119,54.17538],[-9.581261,54.175375],[-9.581499,54.175366],[-9.582051,54.175355],[-9.582094,54.175357],[-9.582216,54.175362],[-9.582297,54.175366],[-9.582388,54.17537],[-9.582608,54.175389],[-9.582703,54.175395],[-9.582805,54.175402],[-9.583107,54.175421],[-9.583754,54.175479],[-9.583904,54.175495],[-9.584101,54.175515],[-9.584381,54.175548],[-9.584408,54.17555],[-9.584477,54.175555],[-9.584749,54.175579],[-9.584893,54.175592],[-9.584969,54.175602],[-9.585001,54.175606],[-9.585157,54.175615],[-9.585209,54.175623],[-9.585287,54.175636],[-9.585375,54.175643],[-9.585452,54.175649],[-9.585593,54.175667],[-9.58572,54.175683],[-9.585927,54.175709],[-9.586103,54.175731],[-9.586157,54.175738],[-9.586253,54.17575],[-9.586341,54.175761],[-9.586407,54.175768],[-9.586576,54.175785],[-9.586891,54.17583],[-9.587311,54.175889],[-9.587824,54.175945],[-9.588793,54.176006],[-9.59011,54.175969],[-9.590289,54.175974],[-9.590289,54.175974],[-9.590289,54.175974],[-9.590657,54.175984],[-9.590657,54.175984],[-9.590657,54.175984],[-9.59089,54.175991],[-9.591078,54.175996],[-9.591394,54.175972],[-9.591923,54.175932],[-9.592126,54.175918],[-9.592259,54.175897],[-9.592256,54.17584],[-9.592672,54.175834],[-9.592706,54.175829],[-9.592715,54.175828],[-9.592705,54.175564],[-9.593624,54.175552],[-9.59363,54.175708],[-9.593699,54.175693],[-9.594447,54.1755],[-9.595257,54.175256],[-9.595728,54.175112],[-9.595996,54.17503],[-9.596041,54.175016],[-9.59605,54.175014],[-9.596074,54.175006],[-9.596156,54.174981],[-9.59621,54.174965],[-9.596236,54.174957],[-9.596479,54.17484],[-9.596482,54.174838],[-9.596612,54.174753],[-9.596842,54.174601],[-9.597047,54.174459],[-9.597062,54.174448],[-9.597307,54.174278],[-9.59776,54.173965],[-9.598135,54.173705],[-9.598973,54.173152],[-9.599189,54.172999],[-9.599189,54.172999],[-9.600159,54.172282],[-9.601356,54.171408],[-9.602142,54.170777],[-9.602641,54.17036],[-9.602676,54.170164],[-9.602752,54.169844],[-9.602798,54.169536],[-9.602744,54.169516],[-9.602061,54.169254],[-9.601135,54.168784],[-9.600694,54.168501],[-9.600576,54.168441],[-9.600052,54.168173],[-9.599939,54.16813],[-9.599913,54.16812],[-9.599805,54.168022],[-9.599714,54.16794],[-9.599707,54.167759],[-9.599609,54.167661],[-9.599609,54.167661],[-9.599609,54.167661],[-9.599644,54.167518],[-9.599674,54.1674],[-9.599857,54.167294],[-9.600175,54.167111],[-9.60012,54.166964],[-9.60012,54.166964],[-9.60012,54.166964],[-9.6003,54.166904],[-9.600346,54.166693],[-9.600738,54.166619],[-9.600888,54.166514],[-9.601082,54.166379],[-9.601273,54.166251],[-9.601588,54.165992],[-9.601829,54.16588],[-9.594994,54.164236],[-9.59403,54.163922],[-9.593257,54.163691],[-9.592424,54.163436],[-9.592192,54.163365],[-9.590762,54.162926],[-9.588519,54.16227],[-9.588519,54.16227],[-9.588519,54.16227],[-9.588303,54.160541],[-9.588303,54.160541],[-9.59218,54.161513],[-9.592509,54.1616],[-9.595923,54.162504],[-9.599218,54.163346],[-9.599233,54.163349],[-9.599258,54.163356],[-9.602563,54.164195],[-9.6026,54.164203],[-9.603039,54.164295],[-9.60323,54.164175],[-9.603372,54.164091],[-9.603446,54.164047],[-9.603434,54.163993],[-9.603421,54.163938],[-9.603482,54.163891],[-9.603544,54.163843],[-9.603682,54.163781],[-9.603775,54.163668],[-9.603681,54.16348],[-9.603663,54.163446],[-9.603663,54.163446],[-9.603663,54.163446],[-9.603668,54.163358],[-9.603671,54.163325],[-9.603675,54.163286],[-9.603677,54.163264],[-9.603678,54.163243],[-9.603746,54.163142],[-9.603782,54.163036],[-9.60379,54.163015],[-9.603709,54.163016],[-9.603688,54.162477],[-9.603797,54.162476],[-9.603808,54.162427],[-9.603898,54.162291],[-9.603947,54.162268],[-9.604023,54.162233],[-9.604137,54.162098],[-9.604137,54.162098],[-9.604137,54.162098],[-9.604279,54.162052],[-9.604306,54.162016],[-9.604337,54.161974],[-9.604313,54.161882],[-9.604313,54.161881],[-9.604187,54.161654],[-9.604187,54.161654],[-9.60419,54.161594],[-9.604201,54.161346],[-9.604265,54.161137],[-9.604273,54.161108],[-9.604531,54.160841],[-9.604606,54.160745],[-9.604652,54.160543],[-9.60473,54.16038],[-9.604742,54.160355],[-9.604806,54.16022],[-9.60503,54.159809],[-9.60528,54.159411],[-9.60538,54.159252],[-9.60523,54.159069],[-9.605308,54.158989],[-9.60547,54.158822],[-9.605517,54.158635],[-9.605536,54.158559],[-9.605751,54.158446],[-9.606257,54.158178],[-9.606667,54.157742],[-9.607187,54.157303],[-9.607374,54.157145],[-9.607437,54.157109],[-9.607611,54.157009],[-9.607913,54.156837],[-9.608345,54.15659],[-9.608593,54.156517],[-9.607588,54.156429],[-9.60636,54.156321],[-9.602372,54.156149],[-9.596981,54.155931],[-9.591806,54.155737],[-9.587889,54.15555],[-9.584563,54.155434],[-9.581194,54.155305],[-9.57996,54.15525],[-9.583201,54.15614],[-9.585942,54.15685],[-9.585942,54.15685],[-9.585942,54.15685],[-9.586031,54.157086],[-9.586206,54.157471],[-9.586233,54.15753],[-9.586233,54.15753],[-9.585748,54.158092],[-9.585573,54.158368],[-9.584523,54.159706],[-9.584923,54.159843],[-9.585809,54.160076],[-9.586515,54.160114],[-9.587039,54.160236],[-9.587195,54.160272],[-9.587227,54.160453],[-9.587349,54.16114],[-9.587489,54.16193],[-9.587489,54.16193],[-9.587489,54.16193],[-9.585064,54.16118],[-9.584862,54.161638],[-9.584345,54.16281],[-9.584345,54.16281],[-9.581248,54.162648],[-9.580569,54.162611],[-9.578835,54.162514],[-9.578191,54.162459],[-9.577982,54.162441],[-9.577982,54.162441],[-9.577982,54.162441],[-9.577833,54.161544],[-9.577791,54.161294],[-9.577579,54.159994],[-9.577444,54.159436],[-9.577444,54.159436],[-9.577444,54.159436],[-9.577246,54.159503],[-9.577372,54.160107],[-9.57767,54.161822],[-9.577831,54.162739],[-9.577955,54.16344],[-9.577966,54.163522],[-9.577981,54.163626],[-9.578084,54.164343],[-9.578189,54.165085],[-9.578373,54.166007],[-9.578498,54.166633],[-9.578734,54.168124],[-9.578741,54.168173],[-9.579013,54.168243],[-9.579188,54.168288],[-9.579188,54.168169],[-9.579183,54.168163],[-9.57918,54.16816],[-9.579171,54.168152],[-9.579165,54.168145],[-9.579165,54.168129],[-9.579179,54.168126],[-9.579199,54.168124],[-9.579208,54.168124],[-9.579205,54.168112],[-9.579188,54.168102],[-9.579176,54.1681],[-9.579166,54.168092],[-9.57916,54.168081],[-9.579147,54.16807],[-9.579141,54.16806],[-9.579132,54.16805],[-9.579128,54.168042],[-9.579127,54.168039],[-9.579121,54.168025],[-9.579123,54.168023],[-9.579124,54.16802],[-9.579136,54.168015],[-9.579138,54.168014],[-9.579147,54.16801],[-9.579165,54.168013],[-9.579181,54.168015],[-9.579181,54.168023],[-9.579184,54.16804],[-9.579194,54.168048],[-9.579205,54.168056],[-9.579213,54.168058],[-9.579229,54.16805],[-9.57924,54.168033],[-9.579245,54.168028],[-9.579251,54.168022],[-9.579376,54.168085],[-9.579388,54.168092],[-9.579389,54.168093],[-9.57939,54.168093],[-9.57939,54.168093],[-9.579415,54.168099],[-9.57942,54.168103],[-9.579437,54.168103],[-9.579452,54.168111],[-9.57946,54.168122],[-9.579454,54.168134],[-9.579447,54.168144],[-9.579461,54.168151],[-9.579475,54.168153],[-9.579498,54.168156],[-9.579566,54.168165],[-9.579689,54.168184],[-9.580177,54.168258],[-9.580142,54.168282],[-9.578898,54.169162],[-9.579077,54.170298],[-9.579144,54.171024],[-9.579156,54.171148],[-9.579668,54.174058],[-9.579767,54.174594],[-9.579963,54.175645],[-9.580013,54.17563]]],[[[-9.579963,54.175645],[-9.579963,54.175645],[-9.579963,54.175645],[-9.579963,54.175645]]]]}}]}
