{"type":"FeatureCollection","features":[{"type":"Feature","properties":{"source_fid":2051706,"county":"Mayo","bog_geom_ha":121.16921615444892,"low15_pct":99.925650557620813,"low15_ha":121.07912751790286,"overlay_ha":121.00816287211205,"area_delta":-0.0709646457908093},"geometry":{"type":"MultiPolygon","coordinates":[[[[-9.866074,54.154884],[-9.865856,54.155185],[-9.865796,54.155266],[-9.881835,54.15436],[-9.883467,54.15427],[-9.88455,54.15423],[-9.88549,54.154178],[-9.885849,54.154162],[-9.888208,54.154062],[-9.888241,54.154056],[-9.888434,54.154005],[-9.888535,54.154037],[-9.891265,54.153909],[-9.891426,54.153895],[-9.891779,54.153875],[-9.891976,54.153871],[-9.893323,54.153802],[-9.894665,54.15374],[-9.898723,54.153539],[-9.902399,54.153395],[-9.903258,54.153361],[-9.903083,54.152508],[-9.902663,54.15059],[-9.903441,54.150155],[-9.904746,54.149573],[-9.906052,54.148953],[-9.906102,54.148929],[-9.904901,54.148305],[-9.904774,54.148237],[-9.90301,54.14959],[-9.902068,54.150359],[-9.901883,54.15029],[-9.901666,54.150244],[-9.901395,54.150208],[-9.901192,54.150255],[-9.900474,54.150623],[-9.900367,54.150632],[-9.900182,54.15061],[-9.900048,54.15065],[-9.899942,54.150789],[-9.899946,54.150887],[-9.899821,54.150889],[-9.899605,54.150996],[-9.899498,54.151132],[-9.8995,54.151163],[-9.899473,54.151164],[-9.899343,54.151329],[-9.899088,54.151384],[-9.899051,54.151388],[-9.899053,54.15144],[-9.898547,54.151448],[-9.898466,54.151463],[-9.898082,54.151611],[-9.897861,54.151659],[-9.897539,54.151748],[-9.897425,54.151743],[-9.897044,54.151632],[-9.89661,54.151534],[-9.896148,54.151421],[-9.895905,54.151414],[-9.895738,54.151359],[-9.895299,54.151343],[-9.895052,54.151567],[-9.894654,54.151837],[-9.894567,54.151837],[-9.894376,54.151584],[-9.894064,54.151629],[-9.893562,54.151774],[-9.893309,54.151639],[-9.893143,54.151641],[-9.892973,54.151763],[-9.892198,54.15173],[-9.891417,54.151699],[-9.891375,54.151698],[-9.891307,54.151695],[-9.890374,54.151117],[-9.889514,54.15098],[-9.888796,54.150701],[-9.888425,54.150678],[-9.888243,54.150591],[-9.888223,54.15045],[-9.887992,54.150471],[-9.888032,54.150327],[-9.888031,54.150326],[-9.887978,54.150288],[-9.887492,54.150049],[-9.887383,54.149976],[-9.887107,54.149651],[-9.887056,54.149622],[-9.886981,54.149603],[-9.886777,54.149549],[-9.886635,54.149468],[-9.886527,54.149377],[-9.886493,54.149372],[-9.886326,54.149412],[-9.886205,54.149419],[-9.886057,54.149391],[-9.885954,54.149349],[-9.885876,54.149286],[-9.885864,54.149202],[-9.885812,54.149182],[-9.885502,54.149145],[-9.885276,54.149116],[-9.884972,54.14902],[-9.884822,54.14901],[-9.884547,54.149054],[-9.884245,54.149069],[-9.883999,54.149103],[-9.883834,54.149152],[-9.883635,54.14917],[-9.883413,54.149165],[-9.883334,54.149126],[-9.883184,54.148993],[-9.881948,54.149013],[-9.88194,54.14883],[-9.881789,54.148799],[-9.881688,54.148747],[-9.881477,54.14875],[-9.881473,54.148648],[-9.881309,54.148584],[-9.881272,54.148553],[-9.88127,54.148484],[-9.881006,54.148488],[-9.880994,54.148219],[-9.881134,54.148216],[-9.881131,54.148195],[-9.880974,54.14809],[-9.880948,54.14804],[-9.880882,54.148008],[-9.880779,54.147979],[-9.880732,54.147891],[-9.880755,54.147833],[-9.880742,54.147742],[-9.88068,54.147713],[-9.880366,54.147659],[-9.880101,54.147442],[-9.879905,54.147355],[-9.879737,54.14737],[-9.879343,54.147458],[-9.879252,54.147436],[-9.879115,54.14733],[-9.878962,54.147315],[-9.878827,54.147272],[-9.878662,54.147194],[-9.878561,54.14716],[-9.878383,54.147133],[-9.878209,54.147102],[-9.878132,54.147115],[-9.877981,54.147156],[-9.87779,54.147119],[-9.877708,54.147121],[-9.877538,54.147177],[-9.877392,54.14719],[-9.877214,54.147171],[-9.877094,54.14714],[-9.876973,54.147184],[-9.876835,54.147312],[-9.876382,54.147575],[-9.875977,54.147751],[-9.875837,54.147927],[-9.87567,54.148084],[-9.875679,54.14824],[-9.875658,54.148326],[-9.875509,54.148343],[-9.875313,54.148404],[-9.875053,54.148453],[-9.874877,54.148538],[-9.874592,54.148564],[-9.874363,54.14866],[-9.874271,54.148678],[-9.87416,54.148678],[-9.873954,54.148638],[-9.873678,54.14867],[-9.873656,54.148671],[-9.873655,54.148671],[-9.87334,54.148694],[-9.873218,54.148752],[-9.873124,54.148792],[-9.873086,54.14886],[-9.873008,54.148888],[-9.8727,54.148931],[-9.872457,54.148872],[-9.872246,54.148873],[-9.872024,54.148834],[-9.871772,54.148858],[-9.871367,54.148859],[-9.87112,54.14871],[-9.870984,54.148654],[-9.870857,54.148642],[-9.870672,54.148657],[-9.870281,54.148536],[-9.870107,54.148439],[-9.87005,54.148361],[-9.869965,54.14835],[-9.869695,54.148373],[-9.869279,54.148461],[-9.86912,54.148412],[-9.868767,54.148362],[-9.868643,54.148615],[-9.868511,54.148895],[-9.868367,54.149177],[-9.868181,54.149603],[-9.867984,54.150032],[-9.867836,54.1505],[-9.867727,54.150817],[-9.867492,54.151442],[-9.867326,54.15189],[-9.867149,54.152412],[-9.867031,54.152869],[-9.866962,54.153186],[-9.866808,54.153659],[-9.866665,54.154],[-9.866395,54.154448],[-9.866074,54.154884]]]]}}]}
