{"type":"FeatureCollection","features":[{"type":"Feature","properties":{"source_fid":2051635,"county":"Mayo","bog_geom_ha":114.72924003085085,"low15_pct":99.688473520249218,"low15_ha":114.37182806813792,"overlay_ha":114.42209333716202,"area_delta":0.050265269024109216},"geometry":{"type":"MultiPolygon","coordinates":[[[[-9.881634,54.182568],[-9.882031,54.182658],[-9.882177,54.182689],[-9.883289,54.182672],[-9.883647,54.182666],[-9.883706,54.182435],[-9.883766,54.182219],[-9.883821,54.182016],[-9.88389,54.181827],[-9.883899,54.181776],[-9.884011,54.181309],[-9.884036,54.181261],[-9.88413,54.18088],[-9.88417,54.180622],[-9.884221,54.180387],[-9.884227,54.180363],[-9.884372,54.180001],[-9.884457,54.179684],[-9.884617,54.179137],[-9.884817,54.178342],[-9.884968,54.178354],[-9.885231,54.178454],[-9.886626,54.178939],[-9.886836,54.179012],[-9.88754,54.179271],[-9.888144,54.179515],[-9.888459,54.179653],[-9.888464,54.179655],[-9.888561,54.179682],[-9.888835,54.179739],[-9.889051,54.179806],[-9.889519,54.180019],[-9.889761,54.180124],[-9.889895,54.180166],[-9.890103,54.18021],[-9.890352,54.180267],[-9.89037,54.180271],[-9.890524,54.179995],[-9.890794,54.179573],[-9.890862,54.179461],[-9.891163,54.178915],[-9.891518,54.17828],[-9.891751,54.178372],[-9.892685,54.178711],[-9.892916,54.178794],[-9.893599,54.178656],[-9.893669,54.17847],[-9.893795,54.178085],[-9.893891,54.177727],[-9.893946,54.177534],[-9.893974,54.177408],[-9.89407,54.177097],[-9.894127,54.176839],[-9.894113,54.176802],[-9.894101,54.176768],[-9.894092,54.176743],[-9.894136,54.176429],[-9.894139,54.176126],[-9.89414,54.176],[-9.894098,54.175517],[-9.894076,54.174988],[-9.894072,54.174882],[-9.894067,54.174761],[-9.89405,54.174286],[-9.894026,54.173758],[-9.894062,54.17324],[-9.894079,54.173094],[-9.894091,54.173035],[-9.894123,54.17289],[-9.894123,54.172875],[-9.894128,54.172637],[-9.894124,54.172478],[-9.894142,54.172255],[-9.894163,54.172083],[-9.894193,54.171912],[-9.894196,54.171621],[-9.894204,54.171227],[-9.89424,54.1708],[-9.894309,54.17041],[-9.894319,54.170347],[-9.893957,54.170325],[-9.893488,54.170304],[-9.892232,54.170245],[-9.889282,54.170091],[-9.888451,54.170034],[-9.88776,54.169987],[-9.887741,54.169987],[-9.887148,54.169964],[-9.886753,54.16995],[-9.886568,54.169943],[-9.886262,54.169923],[-9.885978,54.169904],[-9.885978,54.169904],[-9.885978,54.169904],[-9.88518,54.169868],[-9.884425,54.169836],[-9.883955,54.169824],[-9.883959,54.169868],[-9.883986,54.170263],[-9.884062,54.171147],[-9.884112,54.171981],[-9.88417,54.172928],[-9.884201,54.173233],[-9.88423,54.17362],[-9.884254,54.174012],[-9.884255,54.174715],[-9.88421,54.175132],[-9.884123,54.175558],[-9.883673,54.175389],[-9.882712,54.175074],[-9.88151,54.174363],[-9.881014,54.173668],[-9.880682,54.173187],[-9.880171,54.17241],[-9.879981,54.172426],[-9.879576,54.172454],[-9.879127,54.172506],[-9.878777,54.172581],[-9.878583,54.172654],[-9.878328,54.172736],[-9.878452,54.172954],[-9.878267,54.173078],[-9.878141,54.173148],[-9.877835,54.173291],[-9.877704,54.173362],[-9.877577,54.17341],[-9.877488,54.173447],[-9.877437,54.173456],[-9.877304,54.173417],[-9.877203,54.17345],[-9.876971,54.173394],[-9.876595,54.173302],[-9.876202,54.173146],[-9.875909,54.173028],[-9.875626,54.172954],[-9.875371,54.1729],[-9.875536,54.173222],[-9.87575,54.173658],[-9.875793,54.173768],[-9.875918,54.174087],[-9.87603,54.17431],[-9.876171,54.174591],[-9.876364,54.174886],[-9.876553,54.175221],[-9.876747,54.175464],[-9.876693,54.175622],[-9.876257,54.177623],[-9.875745,54.179428],[-9.875346,54.180748],[-9.875523,54.180886],[-9.875565,54.180927],[-9.875584,54.180927],[-9.875585,54.180945],[-9.875674,54.181032],[-9.875709,54.181046],[-9.875886,54.18108],[-9.875899,54.181131],[-9.876046,54.181159],[-9.876173,54.181187],[-9.876974,54.181175],[-9.876985,54.181414],[-9.877082,54.181443],[-9.877905,54.18143],[-9.877915,54.181664],[-9.878028,54.181697],[-9.878836,54.181685],[-9.878847,54.18193],[-9.878924,54.181953],[-9.879767,54.18194],[-9.879776,54.182156],[-9.879885,54.182161],[-9.880051,54.182195],[-9.880086,54.182205],[-9.880238,54.182202],[-9.88024,54.182245],[-9.88034,54.182271],[-9.880874,54.182394],[-9.88115,54.182457],[-9.881628,54.18245],[-9.881634,54.182568]]]]}}]}
