{"type":"FeatureCollection","features":[{"type":"Feature","properties":{"source_fid":2058179,"county":"Galway","bog_geom_ha":181.21755979489939,"low15_pct":92.10526315789474,"low15_ha":166.91091033740733,"overlay_ha":166.90763257355928,"area_delta":-0.0032777638480467886},"geometry":{"type":"MultiPolygon","coordinates":[[[[-9.875523,53.453534],[-9.875568,53.453589],[-9.875644,53.453681],[-9.875788,53.45383],[-9.87596,53.454006],[-9.876287,53.454316],[-9.876811,53.454756],[-9.876796,53.454793],[-9.87697,53.455405],[-9.877093,53.455935],[-9.877219,53.456459],[-9.877228,53.456472],[-9.877286,53.456556],[-9.877406,53.45671],[-9.87771,53.457165],[-9.877744,53.457216],[-9.877769,53.457255],[-9.878019,53.457646],[-9.878163,53.457861],[-9.878152,53.457603],[-9.879657,53.45758],[-9.879696,53.458478],[-9.878614,53.458495],[-9.87882,53.458883],[-9.879214,53.459609],[-9.879329,53.459607],[-9.879339,53.459839],[-9.879372,53.459899],[-9.879654,53.46032],[-9.880014,53.460805],[-9.880368,53.461205],[-9.880388,53.461204],[-9.88045,53.461215],[-9.880569,53.461235],[-9.880619,53.461221],[-9.880631,53.461221],[-9.880684,53.461221],[-9.880709,53.46122],[-9.880715,53.46122],[-9.880753,53.461188],[-9.88078,53.461188],[-9.880792,53.461199],[-9.880811,53.461218],[-9.880812,53.461252],[-9.880789,53.461282],[-9.880785,53.461291],[-9.880797,53.461307],[-9.880839,53.461318],[-9.880886,53.461327],[-9.880932,53.46132],[-9.880934,53.46132],[-9.880947,53.46132],[-9.881008,53.46132],[-9.88102,53.46132],[-9.881166,53.46134],[-9.88122,53.461351],[-9.881205,53.461369],[-9.881221,53.461385],[-9.881263,53.461394],[-9.881379,53.461392],[-9.881413,53.461378],[-9.881521,53.461375],[-9.881555,53.46137],[-9.881578,53.461379],[-9.881532,53.461395],[-9.881548,53.461416],[-9.88156,53.461425],[-9.88156,53.461439],[-9.881533,53.461453],[-9.881514,53.461462],[-9.881514,53.461492],[-9.881542,53.461503],[-9.88158,53.461512],[-9.881649,53.461514],[-9.881695,53.461507],[-9.881757,53.461507],[-9.881807,53.461497],[-9.881903,53.461488],[-9.88198,53.461501],[-9.881999,53.461528],[-9.882026,53.461549],[-9.882108,53.461581],[-9.8822,53.461594],[-9.882265,53.461603],[-9.882373,53.46163],[-9.882412,53.461659],[-9.882432,53.461666],[-9.882455,53.461673],[-9.882501,53.46168],[-9.882539,53.46168],[-9.882605,53.461684],[-9.882639,53.461681],[-9.882682,53.461688],[-9.882682,53.461697],[-9.882659,53.461709],[-9.882675,53.461734],[-9.882702,53.461745],[-9.882748,53.461756],[-9.882748,53.46177],[-9.882745,53.461807],[-9.882753,53.461832],[-9.882792,53.46185],[-9.882857,53.461855],[-9.882888,53.461848],[-9.882946,53.461866],[-9.883061,53.46187],[-9.883091,53.461849],[-9.883122,53.461837],[-9.883164,53.461821],[-9.883241,53.461823],[-9.88328,53.461837],[-9.883338,53.461861],[-9.8834,53.4619],[-9.883458,53.461923],[-9.883515,53.461936],[-9.883589,53.461945],[-9.883839,53.46196],[-9.883985,53.461964],[-9.884131,53.461991],[-9.884208,53.46199],[-9.884243,53.461997],[-9.884281,53.462011],[-9.884343,53.462047],[-9.884413,53.46206],[-9.884478,53.462049],[-9.884547,53.46206],[-9.884548,53.462083],[-9.884575,53.462092],[-9.884771,53.462102],[-9.884902,53.462134],[-9.88501,53.462154],[-9.885075,53.462144],[-9.885167,53.462162],[-9.885237,53.462178],[-9.885298,53.462175],[-9.885375,53.462157],[-9.885448,53.462149],[-9.885506,53.462161],[-9.885548,53.462202],[-9.885572,53.462227],[-9.885614,53.462231],[-9.885734,53.462249],[-9.885783,53.462228],[-9.885837,53.462232],[-9.885845,53.462253],[-9.885861,53.462278],[-9.885934,53.462282],[-9.885984,53.462273],[-9.886053,53.462273],[-9.886122,53.462286],[-9.886211,53.462297],[-9.886376,53.462296],[-9.886445,53.462301],[-9.886484,53.462303],[-9.886507,53.462303],[-9.886553,53.4623],[-9.886599,53.462295],[-9.886649,53.462322],[-9.886692,53.462329],[-9.886692,53.462345],[-9.8867,53.462366],[-9.886727,53.462363],[-9.886792,53.46237],[-9.886888,53.46237],[-9.886938,53.462365],[-9.887054,53.462366],[-9.887132,53.462372],[-9.887123,53.462181],[-9.886672,53.462188],[-9.88666,53.461919],[-9.888466,53.46189],[-9.888478,53.46216],[-9.889833,53.462138],[-9.889845,53.462408],[-9.887526,53.462444],[-9.887539,53.462453],[-9.887551,53.462469],[-9.887597,53.462483],[-9.887609,53.462488],[-9.887625,53.462487],[-9.887643,53.462487],[-9.887684,53.462487],[-9.88772,53.462487],[-9.887763,53.462489],[-9.887786,53.462482],[-9.887801,53.462461],[-9.887835,53.462454],[-9.887874,53.462454],[-9.88795,53.462456],[-9.88802,53.462465],[-9.888093,53.462478],[-9.888116,53.46249],[-9.888128,53.462517],[-9.888132,53.46254],[-9.888148,53.46257],[-9.88816,53.462584],[-9.888229,53.462599],[-9.888271,53.462583],[-9.888306,53.462599],[-9.888337,53.462635],[-9.888418,53.462658],[-9.888499,53.462674],[-9.888561,53.462671],[-9.888611,53.462691],[-9.888653,53.462696],[-9.888657,53.462712],[-9.888673,53.462719],[-9.888704,53.462721],[-9.888719,53.462716],[-9.88873,53.462705],[-9.888757,53.462698],[-9.888834,53.462699],[-9.888873,53.462711],[-9.888927,53.462724],[-9.889027,53.462742],[-9.889115,53.462737],[-9.889173,53.462744],[-9.889246,53.462773],[-9.889304,53.46278],[-9.889315,53.46278],[-9.889346,53.46278],[-9.889376,53.462779],[-9.889481,53.462779],[-9.889496,53.462772],[-9.889519,53.46276],[-9.889519,53.462737],[-9.889546,53.462735],[-9.889596,53.462746],[-9.8896,53.462758],[-9.889623,53.462762],[-9.88965,53.462762],[-9.889681,53.462766],[-9.889696,53.462762],[-9.889738,53.462757],[-9.889742,53.462778],[-9.889731,53.462789],[-9.889735,53.462801],[-9.889739,53.462805],[-9.889777,53.462812],[-9.889793,53.462823],[-9.88982,53.462825],[-9.889851,53.462832],[-9.889889,53.462841],[-9.890112,53.462849],[-9.890205,53.462851],[-9.890235,53.462862],[-9.890251,53.462878],[-9.890263,53.462899],[-9.890309,53.462924],[-9.890375,53.462928],[-9.890429,53.462939],[-9.890467,53.462928],[-9.890505,53.462921],[-9.890563,53.46292],[-9.890598,53.462923],[-9.890625,53.462943],[-9.890625,53.462957],[-9.890648,53.462975],[-9.890664,53.462986],[-9.890741,53.463002],[-9.890772,53.463004],[-9.890975,53.463003],[-9.891044,53.462985],[-9.89109,53.462982],[-9.89124,53.462958],[-9.891363,53.462953],[-9.891452,53.462969],[-9.891698,53.462981],[-9.89179,53.462972],[-9.892001,53.462989],[-9.89214,53.462993],[-9.892282,53.462988],[-9.892355,53.462996],[-9.892413,53.46301],[-9.892409,53.463026],[-9.892387,53.46304],[-9.892367,53.463051],[-9.892376,53.463077],[-9.892403,53.463093],[-9.89243,53.463097],[-9.892457,53.463097],[-9.89246,53.463085],[-9.892483,53.463081],[-9.892514,53.463085],[-9.89253,53.463094],[-9.892541,53.463106],[-9.892599,53.463105],[-9.892614,53.463117],[-9.892637,53.463119],[-9.892657,53.463119],[-9.892653,53.463094],[-9.892668,53.463082],[-9.892706,53.463086],[-9.892741,53.463114],[-9.892788,53.463137],[-9.892857,53.463157],[-9.892992,53.463165],[-9.893076,53.46317],[-9.893123,53.463204],[-9.893123,53.46322],[-9.89317,53.463242],[-9.89322,53.463265],[-9.893278,53.463272],[-9.893339,53.463265],[-9.893431,53.463255],[-9.893539,53.46325],[-9.893643,53.463268],[-9.89382,53.463317],[-9.893836,53.46334],[-9.893871,53.463354],[-9.893951,53.463353],[-9.894017,53.463353],[-9.894029,53.463378],[-9.894052,53.463385],[-9.894048,53.463413],[-9.89403,53.463465],[-9.894038,53.463478],[-9.894222,53.463432],[-9.894465,53.463381],[-9.894808,53.463376],[-9.895265,53.4634],[-9.895793,53.46344],[-9.896283,53.463489],[-9.896483,53.463507],[-9.896477,53.463381],[-9.895762,53.463392],[-9.89575,53.463123],[-9.896465,53.463112],[-9.896447,53.462706],[-9.899457,53.462658],[-9.899497,53.463556],[-9.89803,53.463579],[-9.898032,53.463626],[-9.897581,53.463633],[-9.897578,53.463587],[-9.897202,53.463593],[-9.897339,53.463636],[-9.897546,53.463678],[-9.897896,53.463767],[-9.897988,53.463793],[-9.898127,53.46386],[-9.898249,53.463891],[-9.898366,53.463912],[-9.89857,53.46396],[-9.898667,53.464005],[-9.898796,53.464025],[-9.898866,53.464035],[-9.89892,53.464092],[-9.899005,53.464122],[-9.899085,53.464123],[-9.899145,53.464137],[-9.899155,53.464131],[-9.899136,53.464115],[-9.899463,53.464087],[-9.899619,53.464103],[-9.899849,53.464123],[-9.899862,53.464124],[-9.89985,53.463867],[-9.900032,53.463864],[-9.900049,53.463846],[-9.900051,53.463843],[-9.900332,53.463568],[-9.900814,53.463155],[-9.901372,53.462648],[-9.901779,53.462516],[-9.902203,53.462369],[-9.90239,53.462289],[-9.902393,53.462287],[-9.902446,53.462259],[-9.902412,53.462243],[-9.902401,53.462238],[-9.902412,53.462145],[-9.902326,53.462118],[-9.902209,53.462047],[-9.902199,53.461973],[-9.902157,53.461971],[-9.902072,53.461932],[-9.902121,53.461904],[-9.9022,53.461886],[-9.902273,53.461854],[-9.902311,53.461768],[-9.902396,53.461741],[-9.902458,53.461722],[-9.902517,53.461713],[-9.902544,53.461651],[-9.902602,53.461573],[-9.902715,53.461542],[-9.902801,53.461523],[-9.902869,53.461496],[-9.902999,53.461526],[-9.903228,53.461631],[-9.903285,53.46166],[-9.903391,53.461677],[-9.90353,53.461701],[-9.903585,53.461684],[-9.903611,53.461648],[-9.903594,53.461619],[-9.903587,53.461505],[-9.90359,53.461457],[-9.903626,53.461452],[-9.903682,53.461449],[-9.90372,53.461479],[-9.903882,53.461562],[-9.903931,53.461619],[-9.904028,53.461682],[-9.904184,53.461735],[-9.904257,53.461723],[-9.904315,53.461716],[-9.904384,53.461722],[-9.904483,53.461667],[-9.90452,53.461663],[-9.904531,53.461652],[-9.90462,53.461613],[-9.904719,53.461623],[-9.904785,53.461632],[-9.904917,53.461622],[-9.905035,53.461607],[-9.905089,53.461607],[-9.905135,53.461605],[-9.905189,53.461577],[-9.905173,53.461545],[-9.905199,53.461496],[-9.905256,53.461466],[-9.905314,53.461445],[-9.905482,53.461412],[-9.905547,53.461391],[-9.905604,53.461348],[-9.90565,53.46129],[-9.905699,53.46126],[-9.905768,53.461191],[-9.905798,53.461149],[-9.90585,53.461057],[-9.90598,53.46096],[-9.906056,53.460916],[-9.906144,53.460877],[-9.90622,53.46086],[-9.90632,53.460835],[-9.906354,53.460828],[-9.906385,53.460798],[-9.906434,53.460758],[-9.906464,53.460726],[-9.906549,53.460723],[-9.906587,53.460721],[-9.906633,53.460709],[-9.906667,53.460686],[-9.906717,53.460665],[-9.906759,53.460644],[-9.906809,53.460644],[-9.90687,53.460625],[-9.906939,53.460602],[-9.906985,53.46059],[-9.907024,53.460611],[-9.907028,53.460634],[-9.907028,53.460648],[-9.90704,53.460675],[-9.907071,53.460684],[-9.90714,53.460684],[-9.90724,53.460681],[-9.907363,53.46068],[-9.907582,53.460677],[-9.907632,53.460681],[-9.907717,53.460681],[-9.907928,53.460668],[-9.908024,53.460665],[-9.908055,53.460661],[-9.908135,53.460653],[-9.908185,53.460644],[-9.908199,53.460647],[-9.908491,53.460453],[-9.907429,53.460009],[-9.907387,53.459972],[-9.907357,53.459972],[-9.907356,53.459944],[-9.907191,53.459797],[-9.907102,53.459707],[-9.906442,53.459717],[-9.90643,53.459448],[-9.906418,53.459178],[-9.906578,53.459176],[-9.906515,53.459112],[-9.904898,53.457568],[-9.904182,53.456962],[-9.903552,53.456456],[-9.90286,53.455844],[-9.902385,53.455429],[-9.90165,53.454834],[-9.900691,53.454132],[-9.900252,53.453795],[-9.899709,53.453472],[-9.898891,53.452921],[-9.898823,53.452887],[-9.898582,53.452766],[-9.898248,53.452598],[-9.897491,53.452299],[-9.897406,53.452264],[-9.896977,53.452077],[-9.896077,53.451774],[-9.895385,53.451626],[-9.895125,53.45157],[-9.894543,53.451412],[-9.893207,53.451249],[-9.892234,53.451176],[-9.891507,53.451145],[-9.890724,53.451172],[-9.889929,53.451236],[-9.889046,53.451304],[-9.88824,53.451368],[-9.887772,53.451407],[-9.887622,53.451412],[-9.887378,53.451428],[-9.886333,53.451461],[-9.885932,53.451485],[-9.885906,53.451519],[-9.885037,53.451505],[-9.884933,53.451446],[-9.884394,53.451552],[-9.8844,53.451708],[-9.883498,53.451722],[-9.88351,53.451992],[-9.882607,53.452006],[-9.8826,53.451864],[-9.882526,53.451878],[-9.882127,53.451948],[-9.882003,53.451971],[-9.881908,53.451988],[-9.881552,53.452052],[-9.881286,53.452092],[-9.881184,53.452164],[-9.882428,53.452144],[-9.882467,53.453042],[-9.877954,53.453113],[-9.877946,53.452926],[-9.877886,53.452933],[-9.877339,53.452947],[-9.87667,53.452978],[-9.876443,53.452982],[-9.87645,53.453137],[-9.875214,53.453156],[-9.875239,53.453188],[-9.875363,53.453339],[-9.875523,53.453534]],[[-9.881713,53.456556],[-9.881701,53.456543],[-9.881728,53.456529],[-9.881785,53.456515],[-9.881839,53.45651],[-9.881938,53.456384],[-9.881953,53.456369],[-9.882006,53.456353],[-9.882006,53.456367],[-9.882014,53.456378],[-9.882056,53.456378],[-9.882083,53.456373],[-9.882087,53.456362],[-9.88204,53.456351],[-9.882025,53.456323],[-9.882024,53.456291],[-9.881993,53.456245],[-9.881958,53.456204],[-9.881961,53.456174],[-9.881992,53.456165],[-9.882034,53.456167],[-9.882073,53.456183],[-9.882104,53.456199],[-9.882127,53.456206],[-9.882165,53.456215],[-9.882188,53.456215],[-9.88219,53.456213],[-9.882204,53.456201],[-9.882234,53.456175],[-9.882257,53.456173],[-9.882322,53.456173],[-9.882341,53.456163],[-9.882345,53.456143],[-9.88231,53.456143],[-9.882291,53.456136],[-9.882225,53.456104],[-9.882187,53.456095],[-9.882185,53.456095],[-9.882156,53.456082],[-9.882133,53.456063],[-9.882144,53.456043],[-9.882163,53.456024],[-9.882178,53.456027],[-9.882182,53.45603],[-9.882198,53.456043],[-9.882229,53.456056],[-9.882267,53.456056],[-9.882282,53.456049],[-9.882294,53.45604],[-9.882301,53.456024],[-9.882293,53.456019],[-9.882293,53.456005],[-9.882305,53.456001],[-9.882343,53.456001],[-9.882378,53.45601],[-9.882397,53.456014],[-9.882424,53.456025],[-9.882447,53.456037],[-9.882463,53.456039],[-9.882478,53.456032],[-9.882482,53.45602],[-9.882485,53.456004],[-9.882481,53.455988],[-9.882489,53.455984],[-9.882527,53.455997],[-9.882539,53.456006],[-9.88257,53.456009],[-9.88257,53.456038],[-9.882601,53.456059],[-9.882609,53.456075],[-9.882736,53.456104],[-9.882791,53.456122],[-9.882814,53.456131],[-9.882825,53.456131],[-9.88284,53.456113],[-9.882863,53.456087],[-9.882893,53.456046],[-9.882931,53.456014],[-9.88295,53.455968],[-9.882999,53.455931],[-9.883068,53.455919],[-9.883103,53.455919],[-9.883149,53.455925],[-9.883215,53.455939],[-9.883257,53.455955],[-9.8833,53.455973],[-9.883311,53.455989],[-9.883331,53.456],[-9.883358,53.456002],[-9.883388,53.455995],[-9.883427,53.455991],[-9.883469,53.455988],[-9.883507,53.455988],[-9.883519,53.455974],[-9.883519,53.455963],[-9.883534,53.455956],[-9.883561,53.455956],[-9.883565,53.455972],[-9.883577,53.45599],[-9.883611,53.455997],[-9.883623,53.455985],[-9.883638,53.455994],[-9.883669,53.456008],[-9.883696,53.456001],[-9.883727,53.456001],[-9.883777,53.456003],[-9.883811,53.456014],[-9.883873,53.456039],[-9.88402,53.456066],[-9.884201,53.456125],[-9.884251,53.456113],[-9.884266,53.45612],[-9.884297,53.456147],[-9.884336,53.456161],[-9.884359,53.456174],[-9.88439,53.456183],[-9.884502,53.456187],[-9.88459,53.456187],[-9.884598,53.456198],[-9.884598,53.45624],[-9.884614,53.456258],[-9.884641,53.456265],[-9.88466,53.456274],[-9.884661,53.456345],[-9.884685,53.456363],[-9.884708,53.45637],[-9.8848,53.456365],[-9.884842,53.456365],[-9.884861,53.456358],[-9.884873,53.456337],[-9.884888,53.456314],[-9.884918,53.456305],[-9.884926,53.4563],[-9.884922,53.456284],[-9.884929,53.456266],[-9.884933,53.456249],[-9.88496,53.456233],[-9.884994,53.456233],[-9.885044,53.456251],[-9.885103,53.456288],[-9.885149,53.45631],[-9.885172,53.456329],[-9.885173,53.456349],[-9.885192,53.45637],[-9.885227,53.456363],[-9.885253,53.456358],[-9.885326,53.456358],[-9.885361,53.456348],[-9.885384,53.456348],[-9.885415,53.456364],[-9.885457,53.456375],[-9.8855,53.456394],[-9.885531,53.456407],[-9.885608,53.456423],[-9.885627,53.45643],[-9.885639,53.45645],[-9.885755,53.456491],[-9.88584,53.456511],[-9.885959,53.456527],[-9.886078,53.456519],[-9.886105,53.456503],[-9.886112,53.456496],[-9.886185,53.456498],[-9.886212,53.456498],[-9.886223,53.456475],[-9.88625,53.456472],[-9.8863,53.456472],[-9.886435,53.45646],[-9.886488,53.456458],[-9.886565,53.456453],[-9.886623,53.456455],[-9.886677,53.456461],[-9.886723,53.45647],[-9.886765,53.456472],[-9.886769,53.456497],[-9.886793,53.456516],[-9.886866,53.456518],[-9.886872,53.456519],[-9.886861,53.456253],[-9.888666,53.456224],[-9.888678,53.456494],[-9.890033,53.456472],[-9.890045,53.456742],[-9.891399,53.456721],[-9.891411,53.45699],[-9.893217,53.456961],[-9.893229,53.457231],[-9.893241,53.4575],[-9.892338,53.457515],[-9.892326,53.457245],[-9.890069,53.457281],[-9.890057,53.457011],[-9.889154,53.457026],[-9.889142,53.456756],[-9.887787,53.456778],[-9.887775,53.456508],[-9.886993,53.456521],[-9.887,53.456524],[-9.887001,53.456535],[-9.887009,53.456551],[-9.887043,53.45656],[-9.887086,53.456562],[-9.88719,53.45658],[-9.887174,53.456594],[-9.88719,53.456608],[-9.887213,53.456621],[-9.887221,53.456637],[-9.887217,53.456654],[-9.887218,53.456679],[-9.887191,53.456677],[-9.887121,53.456654],[-9.887056,53.456654],[-9.88706,53.456666],[-9.887087,53.456673],[-9.887141,53.456684],[-9.887168,53.456693],[-9.887183,53.456695],[-9.88721,53.456697],[-9.887226,53.456709],[-9.887253,53.456722],[-9.887276,53.456722],[-9.887291,53.456715],[-9.887314,53.456722],[-9.887334,53.456719],[-9.887357,53.456719],[-9.887361,53.456731],[-9.887361,53.456749],[-9.887357,53.456761],[-9.887304,53.456779],[-9.887288,53.456784],[-9.887315,53.456793],[-9.887335,53.456811],[-9.887358,53.456818],[-9.887396,53.456809],[-9.887439,53.456808],[-9.887454,53.456827],[-9.887593,53.456854],[-9.887666,53.45686],[-9.887724,53.456862],[-9.887743,53.456862],[-9.887732,53.456896],[-9.887721,53.456919],[-9.887675,53.456952],[-9.88741,53.456944],[-9.887306,53.456924],[-9.887287,53.456942],[-9.887241,53.456949],[-9.887144,53.456936],[-9.887091,53.456948],[-9.88706,53.456957],[-9.887025,53.456934],[-9.886983,53.456935],[-9.886952,53.456944],[-9.88688,53.456958],[-9.886814,53.456958],[-9.886737,53.45694],[-9.886699,53.45695],[-9.886656,53.456945],[-9.886645,53.456938],[-9.886606,53.456936],[-9.886568,53.45696],[-9.886511,53.456976],[-9.886496,53.456992],[-9.886511,53.457019],[-9.886516,53.457047],[-9.886489,53.45707],[-9.886489,53.457093],[-9.886447,53.457102],[-9.886425,53.457135],[-9.886391,53.457171],[-9.886356,53.457174],[-9.886279,53.457154],[-9.886214,53.457154],[-9.886198,53.457175],[-9.886199,53.457218],[-9.886161,53.457221],[-9.88613,53.457251],[-9.886127,53.457271],[-9.886066,53.457295],[-9.886043,53.457302],[-9.88607,53.457327],[-9.88607,53.457366],[-9.886033,53.457419],[-9.886014,53.457437],[-9.885983,53.457446],[-9.88596,53.457426],[-9.885917,53.457417],[-9.885875,53.457417],[-9.885856,53.457436],[-9.885826,53.457447],[-9.885798,53.457434],[-9.885741,53.457434],[-9.885687,53.457429],[-9.88564,53.4574],[-9.88556,53.457391],[-9.885483,53.457405],[-9.885368,53.457463],[-9.8853,53.457505],[-9.885296,53.457523],[-9.885231,53.457528],[-9.885166,53.457531],[-9.885154,53.457512],[-9.885165,53.457466],[-9.885164,53.457446],[-9.885107,53.457444],[-9.885053,53.457458],[-9.88503,53.457472],[-9.884969,53.457483],[-9.884915,53.457497],[-9.884888,53.4575],[-9.884869,53.457491],[-9.884884,53.45747],[-9.884899,53.457456],[-9.88488,53.457452],[-9.884834,53.457452],[-9.884811,53.45745],[-9.884822,53.457425],[-9.884821,53.457376],[-9.884779,53.457358],[-9.88474,53.457354],[-9.88471,53.457356],[-9.88466,53.457354],[-9.88461,53.45735],[-9.884559,53.457313],[-9.884521,53.457298],[-9.88452,53.457279],[-9.884513,53.45727],[-9.884405,53.457243],[-9.884331,53.45722],[-9.884289,53.457216],[-9.884258,53.457182],[-9.884203,53.457145],[-9.884165,53.457143],[-9.884146,53.457141],[-9.884149,53.457125],[-9.884176,53.457111],[-9.884276,53.457111],[-9.884337,53.457097],[-9.884383,53.457096],[-9.884445,53.457112],[-9.88453,53.457132],[-9.884599,53.457141],[-9.884699,53.457154],[-9.884761,53.457172],[-9.884865,53.457186],[-9.884957,53.45719],[-9.885026,53.457187],[-9.885072,53.457173],[-9.885122,53.457141],[-9.885129,53.457109],[-9.885129,53.457079],[-9.885113,53.457054],[-9.885059,53.457029],[-9.884939,53.457],[-9.884878,53.456991],[-9.884877,53.456968],[-9.884847,53.456968],[-9.884812,53.456975],[-9.884712,53.456978],[-9.884654,53.456962],[-9.88457,53.456942],[-9.884477,53.45691],[-9.884454,53.456922],[-9.884412,53.456931],[-9.884381,53.456933],[-9.884285,53.456911],[-9.884189,53.456907],[-9.884146,53.456919],[-9.884073,53.45691],[-9.8838,53.456872],[-9.883677,53.456838],[-9.883653,53.456818],[-9.883638,53.456813],[-9.88363,53.456827],[-9.883553,53.456818],[-9.883503,53.456823],[-9.883446,53.456816],[-9.88343,53.456805],[-9.88338,53.456805],[-9.883334,53.456812],[-9.883192,53.456788],[-9.883149,53.45677],[-9.883061,53.456772],[-9.882996,53.456796],[-9.882988,53.456812],[-9.882938,53.456826],[-9.882893,53.456847],[-9.882808,53.456854],[-9.882766,53.45687],[-9.882766,53.456882],[-9.882755,53.456886],[-9.88272,53.456886],[-9.882685,53.456861],[-9.882685,53.456834],[-9.882631,53.456811],[-9.882511,53.456764],[-9.882488,53.456782],[-9.882442,53.456798],[-9.882415,53.456801],[-9.882342,53.456797],[-9.882292,53.456792],[-9.882242,53.456797],[-9.882216,53.456802],[-9.882139,53.456793],[-9.882104,53.456793],[-9.882073,53.456775],[-9.882057,53.456745],[-9.882049,53.456718],[-9.881976,53.456677],[-9.881952,53.456656],[-9.881937,53.456629],[-9.881852,53.456618],[-9.881786,53.456584],[-9.881713,53.456556]],[[-9.900289,53.455327],[-9.900324,53.455339],[-9.900358,53.455354],[-9.900397,53.45537],[-9.900432,53.455393],[-9.900475,53.455418],[-9.900494,53.455448],[-9.900521,53.455468],[-9.900661,53.45552],[-9.900745,53.455543],[-9.900773,53.455584],[-9.900793,53.455616],[-9.900797,53.455632],[-9.900774,53.455657],[-9.90074,53.455681],[-9.900729,53.455715],[-9.900725,53.455733],[-9.900652,53.455759],[-9.900553,53.455817],[-9.900424,53.455884],[-9.900443,53.455932],[-9.900402,53.45598],[-9.90036,53.455997],[-9.900176,53.456014],[-9.899984,53.456045],[-9.899827,53.456103],[-9.899724,53.456138],[-9.899609,53.45615],[-9.899493,53.456141],[-9.899365,53.456073],[-9.899207,53.456039],[-9.899126,53.456012],[-9.898992,53.455997],[-9.898815,53.455984],[-9.898683,53.455948],[-9.898599,53.455944],[-9.898495,53.455928],[-9.898383,53.455903],[-9.898299,53.455913],[-9.898245,53.455902],[-9.898164,53.4559],[-9.898145,53.455923],[-9.898061,53.455923],[-9.897945,53.455917],[-9.897825,53.455865],[-9.897806,53.455851],[-9.897852,53.455844],[-9.897875,53.455839],[-9.897917,53.455839],[-9.897917,53.455823],[-9.897921,53.455812],[-9.897855,53.455817],[-9.897755,53.455796],[-9.897697,53.455765],[-9.897642,53.455733],[-9.897596,53.455719],[-9.897442,53.455649],[-9.897369,53.45564],[-9.897337,53.455608],[-9.897276,53.455583],[-9.897179,53.455538],[-9.897148,53.455497],[-9.897109,53.455472],[-9.897027,53.455426],[-9.896992,53.455385],[-9.896942,53.455369],[-9.896902,53.455273],[-9.896859,53.455211],[-9.896782,53.455184],[-9.896701,53.455143],[-9.896669,53.455104],[-9.896676,53.455061],[-9.896699,53.455024],[-9.896691,53.45498],[-9.896616,53.454884],[-9.896593,53.454839],[-9.896596,53.454823],[-9.896604,53.45479],[-9.896622,53.454758],[-9.896664,53.454733],[-9.896756,53.454682],[-9.896897,53.454628],[-9.896943,53.454594],[-9.897014,53.454486],[-9.897041,53.45444],[-9.897067,53.454384],[-9.897128,53.454357],[-9.89722,53.454335],[-9.897297,53.45433],[-9.897427,53.454348],[-9.897499,53.454353],[-9.897524,53.454357],[-9.897589,53.454373],[-9.897659,53.454398],[-9.897755,53.454427],[-9.897806,53.454466],[-9.897906,53.454495],[-9.897972,53.454547],[-9.898015,53.454616],[-9.898066,53.454689],[-9.898086,53.454712],[-9.898144,53.454712],[-9.898229,53.454743],[-9.898302,53.454782],[-9.898356,53.454814],[-9.898439,53.454924],[-9.898505,53.455022],[-9.898587,53.45509],[-9.898691,53.455138],[-9.898904,53.455215],[-9.899058,53.45523],[-9.899154,53.455273],[-9.89922,53.455298],[-9.899263,53.455332],[-9.899298,53.455346],[-9.899386,53.455339],[-9.899531,53.455297],[-9.899616,53.455292],[-9.899689,53.455271],[-9.8997,53.455245],[-9.899746,53.455229],[-9.899788,53.455229],[-9.899819,53.455231],[-9.899861,53.455226],[-9.899888,53.45521],[-9.899918,53.45521],[-9.899953,53.45523],[-9.899965,53.455253],[-9.899996,53.455274],[-9.900031,53.455273],[-9.900053,53.455257],[-9.900111,53.455246],[-9.90013,53.455239],[-9.90018,53.455238],[-9.900196,53.455247],[-9.900211,53.455268],[-9.900223,53.455286],[-9.900242,53.455302],[-9.900262,53.455316],[-9.900289,53.455327]],[[-9.891959,53.452719],[-9.89169,53.452709],[-9.89159,53.452698],[-9.891498,53.452714],[-9.891486,53.452715],[-9.891494,53.4529],[-9.890778,53.452911],[-9.89078,53.452955],[-9.889877,53.45297],[-9.889875,53.452925],[-9.885476,53.452995],[-9.885436,53.452097],[-9.888956,53.452041],[-9.888941,53.452039],[-9.888887,53.452034],[-9.888833,53.452035],[-9.888837,53.452028],[-9.888875,53.452007],[-9.88891,53.452007],[-9.888972,53.45202],[-9.888999,53.452027],[-9.889014,53.452015],[-9.889014,53.451997],[-9.889044,53.45199],[-9.889071,53.451992],[-9.889102,53.451994],[-9.889144,53.451996],[-9.889175,53.451996],[-9.889148,53.45199],[-9.889121,53.451987],[-9.889136,53.451969],[-9.88914,53.451957],[-9.88917,53.451946],[-9.889224,53.451946],[-9.889274,53.451952],[-9.889328,53.451952],[-9.889355,53.451954],[-9.88939,53.451979],[-9.889447,53.451977],[-9.889486,53.451972],[-9.889536,53.451972],[-9.889574,53.451974],[-9.889605,53.451978],[-9.889536,53.451956],[-9.889528,53.451944],[-9.889527,53.451914],[-9.889554,53.45191],[-9.889562,53.451896],[-9.889561,53.45188],[-9.889542,53.451868],[-9.889546,53.45185],[-9.889534,53.451843],[-9.889507,53.451841],[-9.889449,53.451795],[-9.889452,53.451775],[-9.889417,53.451743],[-9.889394,53.451729],[-9.889398,53.451715],[-9.889424,53.451699],[-9.889466,53.451662],[-9.889482,53.451658],[-9.889501,53.451674],[-9.889551,53.451678],[-9.889593,53.451678],[-9.889636,53.451687],[-9.889686,53.451705],[-9.889728,53.451723],[-9.889755,53.45173],[-9.889798,53.451734],[-9.889855,53.451734],[-9.88992,53.451722],[-9.889928,53.451715],[-9.889843,53.451697],[-9.889858,53.451683],[-9.889877,53.451669],[-9.889839,53.451649],[-9.889854,53.451642],[-9.8899,53.451642],[-9.889927,53.451667],[-9.889966,53.451676],[-9.889997,53.451678],[-9.890035,53.451678],[-9.890066,53.451664],[-9.890096,53.451664],[-9.890116,53.451675],[-9.890116,53.451693],[-9.890113,53.451714],[-9.890109,53.451758],[-9.890129,53.451769],[-9.890171,53.451769],[-9.890214,53.451799],[-9.890252,53.451814],[-9.890298,53.451821],[-9.890325,53.451825],[-9.890372,53.451825],[-9.890402,53.451811],[-9.890409,53.451793],[-9.890394,53.451788],[-9.890363,53.451791],[-9.89034,53.451793],[-9.890336,53.451777],[-9.890359,53.451759],[-9.890397,53.451759],[-9.890428,53.451742],[-9.890451,53.451745],[-9.890451,53.451761],[-9.890475,53.451772],[-9.89049,53.451772],[-9.890489,53.451728],[-9.890508,53.451726],[-9.890512,53.451705],[-9.890523,53.451698],[-9.890496,53.451682],[-9.890485,53.451671],[-9.890531,53.451659],[-9.890581,53.451673],[-9.890608,53.451686],[-9.890639,53.451689],[-9.890666,53.451688],[-9.890631,53.451666],[-9.890615,53.451652],[-9.890584,53.451652],[-9.890573,53.451645],[-9.890538,53.451604],[-9.890511,53.451604],[-9.890472,53.451591],[-9.890456,53.451575],[-9.89046,53.451563],[-9.890495,53.451563],[-9.890552,53.451563],[-9.890595,53.451574],[-9.890633,53.45159],[-9.890657,53.451594],[-9.89071,53.451594],[-9.890722,53.451585],[-9.890725,53.451578],[-9.890702,53.451555],[-9.890668,53.451553],[-9.890648,53.451546],[-9.890621,53.451526],[-9.890594,53.451526],[-9.890598,53.45151],[-9.890605,53.451491],[-9.890632,53.451484],[-9.890651,53.451475],[-9.890686,53.45148],[-9.890732,53.451482],[-9.89077,53.451493],[-9.890824,53.451502],[-9.89084,53.451513],[-9.890886,53.451522],[-9.890913,53.451522],[-9.890932,53.451511],[-9.890963,53.451515],[-9.89096,53.451556],[-9.890952,53.451593],[-9.89096,53.451607],[-9.890987,53.451618],[-9.891007,53.451625],[-9.890911,53.45163],[-9.890876,53.451655],[-9.890892,53.451678],[-9.890935,53.451717],[-9.891001,53.451765],[-9.891036,53.451794],[-9.891055,53.45181],[-9.891113,53.45181],[-9.891155,53.451796],[-9.89117,53.451792],[-9.891178,53.451812],[-9.891232,53.45183],[-9.891225,53.451844],[-9.891221,53.451876],[-9.891245,53.451904],[-9.891264,53.451931],[-9.891303,53.451935],[-9.891334,53.451919],[-9.891368,53.451926],[-9.891419,53.451955],[-9.891484,53.451973],[-9.891515,53.451976],[-9.891542,53.451975],[-9.891561,53.451966],[-9.891592,53.451984],[-9.89163,53.451987],[-9.891649,53.451973],[-9.891661,53.451984],[-9.891684,53.451986],[-9.891726,53.451977],[-9.891784,53.451961],[-9.891818,53.451953],[-9.891884,53.451997],[-9.891942,53.452033],[-9.892004,53.452054],[-9.892123,53.452064],[-9.892166,53.452064],[-9.892196,53.452075],[-9.892254,53.452066],[-9.892277,53.452041],[-9.892311,53.452045],[-9.89235,53.452036],[-9.892346,53.452022],[-9.892288,53.452013],[-9.892311,53.452011],[-9.892341,53.451992],[-9.892364,53.451985],[-9.892383,53.451985],[-9.892418,53.45199],[-9.89248,53.451998],[-9.892522,53.452005],[-9.892595,53.452014],[-9.892676,53.452016],[-9.892749,53.452015],[-9.892787,53.452018],[-9.892768,53.452029],[-9.892745,53.452034],[-9.892719,53.452039],[-9.892734,53.452068],[-9.892735,53.452114],[-9.892731,53.452121],[-9.892697,53.452128],[-9.89267,53.452124],[-9.892635,53.452133],[-9.892616,53.452135],[-9.892589,53.452119],[-9.892543,53.452115],[-9.892489,53.452122],[-9.892458,53.452125],[-9.892416,53.452123],[-9.892413,53.452141],[-9.892397,53.452153],[-9.892348,53.452164],[-9.892294,53.452164],[-9.892302,53.452183],[-9.892325,53.452208],[-9.892337,53.45224],[-9.892342,53.4523],[-9.892342,53.452341],[-9.892366,53.452361],[-9.892443,53.452395],[-9.892536,53.452418],[-9.892543,53.452434],[-9.892555,53.452468],[-9.892625,53.45247],[-9.892659,53.452491],[-9.892706,53.452525],[-9.892737,53.452573],[-9.892742,53.4526],[-9.892734,53.452626],[-9.892677,53.452658],[-9.892643,53.45269],[-9.892624,53.452711],[-9.892624,53.452732],[-9.89259,53.452732],[-9.892559,53.452725],[-9.892528,53.45273],[-9.892475,53.45273],[-9.892428,53.452733],[-9.892409,53.452742],[-9.892367,53.452728],[-9.892363,53.452708],[-9.892355,53.452701],[-9.892301,53.452699],[-9.892274,53.452701],[-9.892278,53.452713],[-9.892278,53.452724],[-9.892244,53.452729],[-9.892198,53.452729],[-9.892175,53.452725],[-9.892148,53.452732],[-9.892113,53.452732],[-9.892102,53.452725],[-9.892094,53.452709],[-9.89204,53.452707],[-9.892002,53.452719],[-9.891991,53.452719],[-9.891959,53.452719]],[[-9.883972,53.453018],[-9.885476,53.452995],[-9.88549,53.453309],[-9.886278,53.453296],[-9.88629,53.453566],[-9.887193,53.453551],[-9.887204,53.453821],[-9.887656,53.453814],[-9.887668,53.454083],[-9.886765,53.454097],[-9.886753,53.453828],[-9.885514,53.453847],[-9.885516,53.453893],[-9.884949,53.453902],[-9.884959,53.454126],[-9.884021,53.454141],[-9.884051,53.454814],[-9.882547,53.454838],[-9.882507,53.45394],[-9.883595,53.453923],[-9.883593,53.453878],[-9.883581,53.453608],[-9.883997,53.453602],[-9.883972,53.453018]],[[-9.884091,53.455712],[-9.884051,53.454814],[-9.884538,53.454807],[-9.884532,53.454672],[-9.884983,53.454665],[-9.884989,53.4548],[-9.885556,53.454791],[-9.885574,53.455195],[-9.886361,53.455182],[-9.886373,53.455452],[-9.885585,53.455464],[-9.885595,53.455689],[-9.884091,53.455712]],[[-9.886385,53.455721],[-9.886373,53.455452],[-9.887728,53.45543],[-9.88774,53.4557],[-9.886385,53.455721]],[[-9.88452,53.454402],[-9.884532,53.454672],[-9.88408,53.454679],[-9.884068,53.45441],[-9.88452,53.454402]],[[-9.895649,53.452912],[-9.89552,53.452953],[-9.895351,53.452965],[-9.895137,53.452948],[-9.894751,53.452848],[-9.894503,53.452852],[-9.894499,53.452772],[-9.894368,53.45273],[-9.894029,53.452578],[-9.893833,53.452463],[-9.893458,53.452284],[-9.893403,53.45222],[-9.893448,53.452142],[-9.893537,53.452115],[-9.893895,53.452119],[-9.894236,53.452078],[-9.894468,53.452066],[-9.894463,53.451954],[-9.895967,53.45193],[-9.895975,53.452105],[-9.896198,53.45218],[-9.896557,53.452337],[-9.896658,53.45239],[-9.896794,53.452454],[-9.897025,53.452588],[-9.897169,53.452682],[-9.897307,53.45276],[-9.897429,53.452784],[-9.897729,53.452794],[-9.897878,53.452794],[-9.898246,53.452971],[-9.898584,53.453262],[-9.898231,53.453298],[-9.89823,53.453193],[-9.898144,53.453097],[-9.897847,53.45302],[-9.897439,53.452995],[-9.897398,53.452999],[-9.897121,53.452993],[-9.896927,53.453008],[-9.896788,53.45303],[-9.89662,53.453023],[-9.896377,53.452983],[-9.896111,53.452931],[-9.89583,53.452903],[-9.895649,53.452912]],[[-9.88205,53.457596],[-9.882092,53.457596],[-9.882158,53.457619],[-9.882204,53.457637],[-9.882254,53.45765],[-9.882262,53.457653],[-9.882308,53.457662],[-9.882392,53.45764],[-9.882446,53.457629],[-9.882473,53.457638],[-9.882473,53.457652],[-9.882543,53.457681],[-9.882612,53.457715],[-9.882655,53.457777],[-9.882637,53.457843],[-9.88263,53.457908],[-9.882616,53.457961],[-9.882593,53.458007],[-9.882532,53.458046],[-9.882414,53.458074],[-9.882337,53.4581],[-9.88231,53.458102],[-9.882274,53.458096],[-9.882198,53.458084],[-9.882102,53.458062],[-9.882002,53.458023],[-9.881936,53.457991],[-9.881905,53.457957],[-9.881919,53.457904],[-9.88193,53.457877],[-9.88193,53.457847],[-9.881949,53.457822],[-9.881972,53.457801],[-9.881975,53.457782],[-9.881975,53.457734],[-9.881977,53.457661],[-9.882019,53.457615],[-9.88205,53.457596]],[[-9.894782,53.459138],[-9.894742,53.45824],[-9.897752,53.458192],[-9.897792,53.45909],[-9.894782,53.459138]],[[-9.902878,53.460853],[-9.902866,53.460583],[-9.902376,53.460591],[-9.902386,53.460814],[-9.900881,53.460838],[-9.900841,53.45994],[-9.90103,53.459937],[-9.901024,53.459803],[-9.900573,53.459811],[-9.900561,53.459541],[-9.900549,53.459272],[-9.901,53.459265],[-9.901012,53.459534],[-9.901464,53.459527],[-9.901476,53.459796],[-9.901927,53.459789],[-9.901933,53.459923],[-9.902346,53.459916],[-9.902352,53.460052],[-9.904197,53.460023],[-9.904185,53.459753],[-9.903733,53.45976],[-9.903721,53.459491],[-9.90327,53.459498],[-9.903258,53.459229],[-9.903245,53.458959],[-9.903233,53.45869],[-9.902782,53.458697],[-9.90277,53.458427],[-9.901867,53.458442],[-9.901855,53.458172],[-9.9005,53.458194],[-9.900488,53.457924],[-9.90094,53.457917],[-9.900928,53.457648],[-9.901831,53.457633],[-9.901819,53.457364],[-9.902722,53.45735],[-9.902734,53.457619],[-9.903185,53.457612],[-9.903197,53.457881],[-9.903209,53.458151],[-9.903661,53.458144],[-9.903673,53.458413],[-9.903685,53.458682],[-9.904136,53.458675],[-9.904148,53.458945],[-9.9046,53.458938],[-9.904612,53.459207],[-9.905063,53.4592],[-9.905076,53.459469],[-9.905088,53.459739],[-9.9051,53.460008],[-9.905112,53.460278],[-9.90466,53.460285],[-9.904672,53.460554],[-9.904221,53.460561],[-9.904233,53.460831],[-9.902878,53.460853]],[[-9.906918,53.460249],[-9.907369,53.460242],[-9.907381,53.460511],[-9.90693,53.460518],[-9.906918,53.460249]],[[-9.891327,53.455104],[-9.891339,53.455373],[-9.892694,53.455352],[-9.892706,53.455621],[-9.893608,53.455607],[-9.89362,53.455876],[-9.894072,53.455869],[-9.894084,53.456139],[-9.893181,53.456153],[-9.893169,53.455884],[-9.892266,53.455898],[-9.892254,53.455628],[-9.889997,53.455664],[-9.889985,53.455395],[-9.889082,53.455409],[-9.88907,53.455139],[-9.891327,53.455104]],[[-9.896781,53.455826],[-9.897683,53.455812],[-9.897695,53.456081],[-9.898147,53.456074],[-9.898159,53.456344],[-9.89861,53.456336],[-9.898622,53.456606],[-9.899074,53.456599],[-9.899086,53.456868],[-9.899537,53.456861],[-9.899549,53.45713],[-9.899561,53.4574],[-9.898659,53.457414],[-9.898646,53.457145],[-9.898195,53.457152],[-9.898183,53.456883],[-9.897732,53.45689],[-9.89772,53.45662],[-9.896817,53.456635],[-9.896805,53.456365],[-9.896793,53.456096],[-9.896781,53.455826]],[[-9.894999,53.456394],[-9.89545,53.456387],[-9.895462,53.456656],[-9.895011,53.456663],[-9.894999,53.456394]],[[-9.893005,53.462358],[-9.893017,53.462627],[-9.89392,53.462613],[-9.893932,53.462882],[-9.895287,53.462861],[-9.895299,53.46313],[-9.893493,53.463159],[-9.893481,53.462889],[-9.892126,53.462911],[-9.892114,53.462641],[-9.891211,53.462656],[-9.891199,53.462386],[-9.893005,53.462358]],[[-9.881419,53.4558],[-9.881871,53.455792],[-9.881883,53.456062],[-9.881431,53.456069],[-9.881419,53.4558]],[[-9.879162,53.455835],[-9.880065,53.455821],[-9.880077,53.45609],[-9.879174,53.456105],[-9.879162,53.455835]],[[-9.882952,53.45982],[-9.883855,53.459806],[-9.883867,53.460075],[-9.882964,53.46009],[-9.882952,53.45982]]],[[[-9.887405,53.462466],[-9.887432,53.462465],[-9.887435,53.462452],[-9.887441,53.462446],[-9.887345,53.462447],[-9.887355,53.462454],[-9.887405,53.462466]]]]}}]}
