{"type":"FeatureCollection","features":[{"type":"Feature","properties":{"source_fid":2061018,"county":"Galway","bog_geom_ha":607.32087576120659,"low15_pct":99.362679709500526,"low15_ha":603.45029659154136,"overlay_ha":603.4472183418834,"area_delta":-0.0030782496579604413},"geometry":{"type":"MultiPolygon","coordinates":[[[[-9.555214,53.298188],[-9.555238,53.298186],[-9.555291,53.298084],[-9.55517,53.297924],[-9.554922,53.297782],[-9.554917,53.297752],[-9.554889,53.297753],[-9.554827,53.297739],[-9.554795,53.297713],[-9.554799,53.297691],[-9.554813,53.297681],[-9.55485,53.297672],[-9.554835,53.29765],[-9.55481,53.297623],[-9.554761,53.29764],[-9.554715,53.297666],[-9.554704,53.297688],[-9.554723,53.29772],[-9.554751,53.297756],[-9.554791,53.297789],[-9.55483,53.297812],[-9.554883,53.29781],[-9.554918,53.29782],[-9.554943,53.297857],[-9.554968,53.297902],[-9.555013,53.297915],[-9.555018,53.297936],[-9.555051,53.297952],[-9.555073,53.297956],[-9.555075,53.297973],[-9.555068,53.29801],[-9.555095,53.29803],[-9.555101,53.298043],[-9.555078,53.298066],[-9.555094,53.298095],[-9.555111,53.298106],[-9.555171,53.298103],[-9.555178,53.298128],[-9.555178,53.298157],[-9.55519,53.298177],[-9.555214,53.298188]]],[[[-9.535461,53.303259],[-9.535416,53.303283],[-9.535273,53.303358],[-9.535221,53.303378],[-9.535173,53.303396],[-9.535109,53.303414],[-9.534996,53.303424],[-9.534998,53.303425],[-9.535001,53.303426],[-9.535003,53.303427],[-9.535006,53.303428],[-9.535008,53.303429],[-9.53501,53.303431],[-9.535012,53.303432],[-9.535013,53.303434],[-9.535015,53.303436],[-9.535016,53.303437],[-9.535017,53.303439],[-9.535017,53.30344],[-9.535017,53.303441],[-9.535023,53.303462],[-9.535024,53.303464],[-9.535024,53.303466],[-9.535024,53.303468],[-9.535023,53.30347],[-9.535023,53.303472],[-9.535022,53.303474],[-9.535021,53.303475],[-9.535019,53.303477],[-9.535018,53.303479],[-9.535016,53.30348],[-9.535015,53.303481],[-9.534962,53.303519],[-9.53496,53.30352],[-9.534958,53.303521],[-9.534956,53.303522],[-9.534915,53.303541],[-9.534911,53.303564],[-9.53491,53.303566],[-9.534909,53.303567],[-9.534909,53.303569],[-9.534907,53.303571],[-9.534906,53.303572],[-9.534884,53.303596],[-9.534882,53.303597],[-9.53488,53.303599],[-9.534878,53.3036],[-9.534876,53.303602],[-9.534874,53.303603],[-9.534871,53.303604],[-9.534868,53.303605],[-9.534866,53.303605],[-9.534863,53.303606],[-9.53486,53.303607],[-9.534857,53.303607],[-9.534853,53.303607],[-9.534852,53.303607],[-9.534798,53.303608],[-9.534796,53.303608],[-9.534795,53.303608],[-9.534794,53.303608],[-9.534755,53.303606],[-9.534752,53.303606],[-9.534749,53.303606],[-9.534746,53.303605],[-9.534743,53.303604],[-9.53474,53.303604],[-9.534737,53.303603],[-9.534726,53.303606],[-9.534721,53.303608],[-9.534718,53.303609],[-9.534715,53.30361],[-9.534712,53.30361],[-9.53471,53.303611],[-9.534706,53.303611],[-9.534703,53.303612],[-9.5347,53.303612],[-9.534697,53.303612],[-9.534694,53.303611],[-9.534691,53.303611],[-9.534688,53.303611],[-9.534686,53.30361],[-9.534651,53.303602],[-9.534637,53.303604],[-9.534641,53.30362],[-9.534641,53.303622],[-9.534641,53.303623],[-9.534641,53.303625],[-9.534641,53.303627],[-9.53464,53.303629],[-9.534639,53.303631],[-9.534638,53.303633],[-9.534637,53.303634],[-9.534635,53.303636],[-9.534633,53.303637],[-9.534631,53.303639],[-9.534629,53.30364],[-9.534627,53.303641],[-9.534624,53.303642],[-9.534621,53.303643],[-9.534591,53.303653],[-9.534588,53.303654],[-9.534585,53.303654],[-9.534582,53.303655],[-9.534579,53.303655],[-9.534578,53.303655],[-9.534404,53.30367],[-9.534401,53.30367],[-9.534398,53.30367],[-9.534394,53.30367],[-9.534391,53.303669],[-9.534388,53.303669],[-9.534386,53.303668],[-9.534383,53.303668],[-9.53438,53.303667],[-9.534377,53.303666],[-9.534375,53.303664],[-9.534372,53.303663],[-9.534371,53.303662],[-9.534347,53.303646],[-9.534346,53.303646],[-9.534346,53.303645],[-9.534345,53.303645],[-9.534343,53.303643],[-9.534341,53.303644],[-9.534338,53.303645],[-9.534336,53.303645],[-9.534333,53.303646],[-9.53433,53.303647],[-9.534327,53.303647],[-9.534323,53.303647],[-9.534257,53.303651],[-9.534254,53.303651],[-9.534251,53.303651],[-9.534248,53.30365],[-9.534245,53.30365],[-9.534242,53.30365],[-9.534239,53.303649],[-9.534238,53.303649],[-9.534207,53.30364],[-9.534143,53.303641],[-9.53409,53.303658],[-9.534087,53.303659],[-9.534084,53.303659],[-9.534081,53.30366],[-9.534078,53.30366],[-9.534076,53.30366],[-9.534038,53.303663],[-9.533977,53.303669],[-9.533974,53.303669],[-9.533971,53.303669],[-9.533967,53.303669],[-9.533964,53.303668],[-9.533961,53.303668],[-9.533958,53.303667],[-9.533955,53.303667],[-9.533953,53.303666],[-9.53384,53.30363],[-9.533775,53.303622],[-9.533774,53.303622],[-9.533772,53.303622],[-9.533771,53.303621],[-9.533704,53.303608],[-9.533701,53.303608],[-9.533699,53.303607],[-9.533696,53.303606],[-9.533693,53.303605],[-9.533691,53.303604],[-9.533689,53.303602],[-9.533687,53.303601],[-9.533685,53.3036],[-9.533683,53.303598],[-9.533682,53.303596],[-9.533681,53.303595],[-9.53368,53.303593],[-9.533679,53.303591],[-9.533679,53.303589],[-9.533679,53.303588],[-9.533677,53.303553],[-9.533677,53.303551],[-9.533678,53.303549],[-9.533678,53.303547],[-9.533679,53.303545],[-9.53368,53.303544],[-9.533681,53.303542],[-9.533683,53.303541],[-9.533697,53.303526],[-9.533685,53.303513],[-9.533653,53.303486],[-9.533622,53.30348],[-9.53356,53.303483],[-9.533509,53.303504],[-9.533445,53.303535],[-9.533394,53.303571],[-9.533394,53.303572],[-9.533393,53.303572],[-9.533392,53.303573],[-9.533342,53.303604],[-9.533326,53.303621],[-9.533324,53.303622],[-9.533322,53.303624],[-9.53332,53.303625],[-9.533318,53.303627],[-9.533315,53.303628],[-9.533313,53.303629],[-9.53331,53.30363],[-9.533307,53.30363],[-9.533304,53.303631],[-9.533301,53.303631],[-9.533298,53.303632],[-9.533297,53.303632],[-9.533267,53.303633],[-9.533179,53.303715],[-9.533189,53.303728],[-9.53319,53.30373],[-9.533191,53.303731],[-9.533192,53.303733],[-9.533192,53.303735],[-9.533192,53.303737],[-9.533194,53.303788],[-9.533194,53.30379],[-9.533194,53.303792],[-9.533193,53.303794],[-9.533179,53.303831],[-9.533179,53.303833],[-9.533178,53.303835],[-9.533176,53.303836],[-9.533175,53.303838],[-9.533173,53.303839],[-9.533171,53.303841],[-9.533169,53.303842],[-9.533167,53.303843],[-9.533164,53.303845],[-9.533162,53.303846],[-9.533159,53.303846],[-9.533156,53.303847],[-9.533153,53.303848],[-9.53315,53.303848],[-9.533147,53.303848],[-9.533144,53.303849],[-9.533141,53.303849],[-9.533076,53.303847],[-9.53299,53.303846],[-9.532927,53.303852],[-9.532924,53.303852],[-9.53292,53.303852],[-9.532917,53.303852],[-9.532915,53.303852],[-9.532784,53.303838],[-9.532764,53.303842],[-9.532717,53.303873],[-9.532709,53.303908],[-9.532708,53.30391],[-9.532708,53.303912],[-9.532707,53.303914],[-9.532705,53.303915],[-9.532704,53.303917],[-9.532702,53.303919],[-9.5327,53.30392],[-9.532698,53.303921],[-9.532696,53.303923],[-9.532693,53.303924],[-9.53269,53.303925],[-9.532688,53.303926],[-9.532685,53.303926],[-9.532682,53.303927],[-9.532679,53.303927],[-9.532676,53.303927],[-9.532637,53.30393],[-9.532636,53.30393],[-9.532634,53.30393],[-9.532632,53.30393],[-9.532584,53.30393],[-9.532582,53.303933],[-9.532584,53.303967],[-9.532584,53.303969],[-9.532583,53.303971],[-9.532583,53.303972],[-9.532582,53.303974],[-9.532581,53.303976],[-9.53258,53.303978],[-9.532578,53.303979],[-9.532576,53.303981],[-9.532575,53.303982],[-9.532541,53.304006],[-9.532539,53.304007],[-9.532536,53.304009],[-9.532534,53.30401],[-9.532531,53.304011],[-9.532528,53.304012],[-9.532526,53.304012],[-9.532523,53.304013],[-9.532522,53.304013],[-9.532434,53.304028],[-9.532431,53.304029],[-9.532428,53.304029],[-9.532426,53.304029],[-9.532342,53.304032],[-9.532269,53.304059],[-9.532266,53.30406],[-9.532264,53.30406],[-9.532261,53.304061],[-9.532258,53.304061],[-9.532255,53.304062],[-9.532162,53.30407],[-9.53214,53.304075],[-9.532146,53.304101],[-9.532146,53.304103],[-9.532146,53.304104],[-9.532146,53.304105],[-9.532141,53.304182],[-9.532141,53.304183],[-9.532141,53.304184],[-9.532141,53.304185],[-9.532141,53.304186],[-9.53214,53.304187],[-9.53214,53.304188],[-9.532122,53.304225],[-9.532121,53.304227],[-9.53212,53.304229],[-9.532118,53.30423],[-9.532117,53.304232],[-9.532115,53.304233],[-9.532113,53.304235],[-9.53211,53.304236],[-9.532108,53.304237],[-9.53207,53.304254],[-9.532067,53.304255],[-9.532065,53.304256],[-9.532062,53.304257],[-9.531958,53.304281],[-9.531955,53.304282],[-9.531952,53.304283],[-9.531949,53.304283],[-9.531945,53.304283],[-9.531944,53.304283],[-9.531921,53.304283],[-9.531918,53.304283],[-9.531915,53.304283],[-9.531912,53.304283],[-9.531909,53.304282],[-9.531908,53.304282],[-9.531865,53.304274],[-9.531862,53.304273],[-9.53186,53.304272],[-9.531857,53.304271],[-9.531854,53.30427],[-9.531852,53.304269],[-9.53185,53.304268],[-9.531849,53.304267],[-9.531805,53.304237],[-9.531803,53.304236],[-9.531801,53.304235],[-9.5318,53.304233],[-9.531798,53.304231],[-9.531797,53.304229],[-9.531797,53.304228],[-9.531796,53.304226],[-9.531796,53.304224],[-9.531796,53.304222],[-9.531796,53.30422],[-9.531796,53.304218],[-9.531808,53.304175],[-9.531804,53.304176],[-9.531801,53.304176],[-9.531798,53.304175],[-9.531795,53.304175],[-9.531792,53.304175],[-9.531789,53.304174],[-9.531788,53.304174],[-9.531721,53.304156],[-9.531698,53.304156],[-9.531683,53.304201],[-9.53167,53.304259],[-9.531669,53.304261],[-9.531669,53.304262],[-9.531667,53.304264],[-9.531666,53.304266],[-9.531665,53.304268],[-9.531663,53.304269],[-9.531661,53.30427],[-9.531659,53.304272],[-9.531657,53.304273],[-9.531654,53.304274],[-9.531652,53.304275],[-9.531649,53.304276],[-9.531646,53.304277],[-9.531643,53.304277],[-9.53164,53.304278],[-9.531637,53.304278],[-9.531634,53.304278],[-9.531631,53.304278],[-9.531627,53.304278],[-9.531624,53.304278],[-9.531621,53.304277],[-9.531619,53.304277],[-9.531616,53.304276],[-9.531613,53.304275],[-9.531612,53.304275],[-9.53157,53.304258],[-9.531548,53.304259],[-9.531541,53.304273],[-9.53154,53.304275],[-9.531539,53.304277],[-9.531537,53.304278],[-9.531536,53.30428],[-9.531534,53.304281],[-9.531532,53.304283],[-9.53153,53.304284],[-9.531527,53.304285],[-9.531525,53.304286],[-9.531522,53.304287],[-9.531519,53.304288],[-9.531516,53.304288],[-9.531513,53.304289],[-9.53151,53.304289],[-9.531507,53.304289],[-9.531504,53.304289],[-9.531501,53.304289],[-9.531498,53.304289],[-9.531369,53.304275],[-9.531366,53.304274],[-9.531363,53.304274],[-9.53136,53.304273],[-9.531357,53.304272],[-9.531355,53.304271],[-9.531352,53.30427],[-9.53135,53.304269],[-9.531348,53.304267],[-9.531346,53.304266],[-9.531344,53.304264],[-9.531342,53.304263],[-9.531341,53.304261],[-9.53134,53.304259],[-9.531339,53.304258],[-9.531339,53.304256],[-9.531338,53.304254],[-9.531338,53.304252],[-9.531338,53.30425],[-9.531339,53.304248],[-9.531353,53.304207],[-9.531306,53.304198],[-9.531254,53.304244],[-9.531253,53.304245],[-9.531251,53.304247],[-9.531248,53.304248],[-9.531246,53.304249],[-9.531243,53.30425],[-9.531241,53.304251],[-9.531238,53.304252],[-9.531235,53.304253],[-9.531232,53.304253],[-9.531229,53.304254],[-9.531226,53.304254],[-9.531223,53.304254],[-9.53122,53.304254],[-9.531219,53.304254],[-9.531101,53.304245],[-9.531048,53.304269],[-9.531046,53.30427],[-9.531043,53.304271],[-9.53104,53.304271],[-9.531037,53.304272],[-9.531034,53.304272],[-9.531031,53.304273],[-9.531028,53.304273],[-9.531025,53.304273],[-9.531022,53.304273],[-9.53102,53.304273],[-9.530957,53.304267],[-9.530954,53.304266],[-9.530951,53.304266],[-9.530948,53.304265],[-9.530946,53.304264],[-9.530943,53.304263],[-9.53094,53.304262],[-9.530938,53.304261],[-9.530936,53.30426],[-9.530934,53.304258],[-9.530932,53.304257],[-9.53093,53.304255],[-9.530929,53.304254],[-9.530928,53.304252],[-9.530927,53.30425],[-9.530926,53.304248],[-9.530926,53.304246],[-9.530926,53.304245],[-9.530926,53.304243],[-9.530926,53.304241],[-9.530927,53.304239],[-9.530928,53.304237],[-9.530929,53.304236],[-9.530929,53.304235],[-9.530957,53.3042],[-9.530947,53.304181],[-9.530912,53.304189],[-9.530881,53.304197],[-9.530879,53.304197],[-9.530876,53.304198],[-9.530873,53.304198],[-9.530871,53.304198],[-9.530878,53.304406],[-9.529525,53.304424],[-9.529505,53.304429],[-9.529502,53.304429],[-9.529499,53.30443],[-9.529496,53.30443],[-9.529494,53.30443],[-9.529472,53.304432],[-9.529457,53.304458],[-9.529457,53.304467],[-9.529476,53.304463],[-9.529479,53.304463],[-9.529482,53.304462],[-9.529485,53.304462],[-9.529488,53.304462],[-9.529554,53.30446],[-9.529558,53.30446],[-9.529561,53.30446],[-9.529564,53.304461],[-9.529566,53.304461],[-9.529642,53.304473],[-9.529645,53.304474],[-9.529648,53.304475],[-9.529651,53.304475],[-9.529652,53.304476],[-9.529667,53.304481],[-9.52967,53.304482],[-9.529672,53.304483],[-9.529675,53.304485],[-9.529677,53.304486],[-9.529679,53.304488],[-9.52968,53.304489],[-9.529682,53.304491],[-9.529683,53.304493],[-9.529684,53.304494],[-9.529685,53.304496],[-9.529685,53.304498],[-9.529685,53.304499],[-9.529688,53.304532],[-9.529688,53.304534],[-9.529688,53.304536],[-9.529687,53.304538],[-9.529686,53.304539],[-9.529685,53.304541],[-9.529684,53.304543],[-9.529683,53.304544],[-9.529681,53.304546],[-9.529679,53.304547],[-9.529677,53.304549],[-9.529675,53.30455],[-9.529674,53.304551],[-9.529652,53.304561],[-9.52965,53.304562],[-9.529647,53.304563],[-9.529645,53.304564],[-9.529642,53.304565],[-9.529639,53.304565],[-9.529636,53.304566],[-9.529633,53.304566],[-9.529629,53.304566],[-9.529628,53.304566],[-9.529553,53.304566],[-9.529542,53.304568],[-9.529519,53.304577],[-9.529516,53.304592],[-9.529515,53.304594],[-9.529514,53.304596],[-9.529513,53.304598],[-9.529512,53.304599],[-9.52951,53.304601],[-9.529509,53.304603],[-9.529507,53.304604],[-9.529505,53.304605],[-9.529502,53.304607],[-9.5295,53.304608],[-9.529497,53.304609],[-9.529494,53.30461],[-9.529492,53.30461],[-9.529489,53.304611],[-9.529486,53.304611],[-9.529482,53.304612],[-9.529479,53.304612],[-9.529346,53.304613],[-9.529343,53.304612],[-9.52934,53.304612],[-9.529337,53.304612],[-9.529334,53.304611],[-9.529331,53.304611],[-9.529328,53.30461],[-9.529326,53.304609],[-9.529323,53.304608],[-9.529321,53.304607],[-9.529318,53.304605],[-9.529316,53.304604],[-9.529315,53.304602],[-9.529313,53.304601],[-9.529312,53.304599],[-9.52931,53.304598],[-9.529309,53.304596],[-9.529309,53.304594],[-9.529308,53.304592],[-9.529301,53.304592],[-9.529269,53.304608],[-9.529258,53.304631],[-9.529257,53.304633],[-9.529256,53.304635],[-9.529254,53.304636],[-9.529253,53.304638],[-9.529239,53.30465],[-9.529244,53.304669],[-9.529257,53.304688],[-9.529258,53.304689],[-9.529259,53.304691],[-9.52926,53.304693],[-9.52926,53.304695],[-9.52926,53.304697],[-9.52926,53.304699],[-9.529259,53.3047],[-9.529259,53.304702],[-9.529258,53.304704],[-9.529239,53.304737],[-9.529239,53.304738],[-9.529238,53.304739],[-9.529237,53.30474],[-9.529212,53.304769],[-9.529183,53.304804],[-9.529182,53.304805],[-9.52918,53.304807],[-9.529178,53.304808],[-9.529176,53.30481],[-9.529175,53.30481],[-9.529131,53.304834],[-9.529128,53.304836],[-9.529126,53.304837],[-9.529123,53.304838],[-9.52912,53.304839],[-9.529117,53.304839],[-9.529115,53.30484],[-9.529111,53.30484],[-9.529109,53.30484],[-9.529105,53.30484],[-9.529102,53.30484],[-9.529099,53.30484],[-9.529096,53.30484],[-9.529093,53.304839],[-9.52909,53.304839],[-9.529088,53.304838],[-9.529047,53.304826],[-9.529045,53.304825],[-9.529042,53.304824],[-9.529044,53.304826],[-9.529045,53.304828],[-9.529047,53.304829],[-9.529048,53.304831],[-9.529049,53.304833],[-9.529049,53.304834],[-9.52905,53.304836],[-9.52905,53.304838],[-9.529049,53.30484],[-9.529049,53.304842],[-9.529048,53.304844],[-9.529048,53.304845],[-9.529047,53.304846],[-9.529026,53.304878],[-9.529025,53.30488],[-9.529024,53.304882],[-9.529022,53.304883],[-9.52902,53.304885],[-9.529018,53.304886],[-9.529016,53.304887],[-9.529013,53.304888],[-9.529011,53.304889],[-9.528913,53.304925],[-9.528908,53.304928],[-9.528911,53.304937],[-9.528911,53.304938],[-9.528912,53.30494],[-9.528912,53.304942],[-9.528912,53.304944],[-9.528911,53.304946],[-9.52891,53.304948],[-9.528909,53.304949],[-9.528908,53.304951],[-9.528907,53.304953],[-9.528905,53.304954],[-9.528903,53.304956],[-9.528901,53.304957],[-9.528899,53.304958],[-9.528898,53.304959],[-9.52885,53.304983],[-9.528848,53.304984],[-9.528845,53.304985],[-9.528842,53.304986],[-9.528839,53.304987],[-9.528837,53.304988],[-9.528788,53.304997],[-9.528785,53.304997],[-9.528782,53.304998],[-9.528779,53.304998],[-9.528776,53.304998],[-9.528774,53.304998],[-9.528688,53.304993],[-9.528686,53.304993],[-9.528684,53.304993],[-9.528682,53.304992],[-9.528613,53.304981],[-9.528555,53.304994],[-9.528552,53.304994],[-9.528549,53.304994],[-9.528545,53.304995],[-9.528542,53.304995],[-9.528539,53.304995],[-9.528536,53.304995],[-9.528533,53.304994],[-9.52853,53.304994],[-9.528527,53.304993],[-9.528497,53.304986],[-9.528495,53.304985],[-9.528492,53.304984],[-9.528489,53.304983],[-9.528487,53.304982],[-9.528485,53.30498],[-9.528483,53.304979],[-9.528481,53.304978],[-9.528479,53.304976],[-9.528478,53.304974],[-9.528477,53.304973],[-9.528476,53.304971],[-9.528475,53.304969],[-9.528474,53.304967],[-9.528474,53.304965],[-9.528474,53.304963],[-9.528475,53.304962],[-9.528494,53.304868],[-9.528495,53.304866],[-9.528495,53.304864],[-9.528496,53.304862],[-9.528509,53.304843],[-9.528508,53.304836],[-9.528502,53.304834],[-9.528473,53.304834],[-9.528397,53.304837],[-9.528396,53.304837],[-9.528395,53.304837],[-9.528363,53.304838],[-9.528316,53.304844],[-9.52826,53.30486],[-9.528258,53.304861],[-9.528255,53.304862],[-9.528252,53.304862],[-9.528249,53.304862],[-9.528245,53.304863],[-9.528242,53.304863],[-9.528239,53.304862],[-9.528236,53.304862],[-9.528233,53.304862],[-9.52823,53.304861],[-9.528227,53.30486],[-9.528225,53.304859],[-9.528222,53.304858],[-9.52822,53.304857],[-9.528217,53.304856],[-9.528215,53.304855],[-9.528213,53.304853],[-9.528212,53.304852],[-9.528121,53.304887],[-9.528119,53.304898],[-9.528118,53.3049],[-9.528118,53.304902],[-9.528117,53.304903],[-9.528115,53.304905],[-9.528107,53.304915],[-9.528106,53.304917],[-9.528104,53.304919],[-9.528102,53.30492],[-9.5281,53.304921],[-9.528098,53.304923],[-9.528095,53.304924],[-9.528093,53.304925],[-9.52809,53.304926],[-9.528087,53.304926],[-9.528084,53.304927],[-9.528081,53.304928],[-9.528078,53.304928],[-9.528075,53.304928],[-9.528073,53.304928],[-9.528047,53.304928],[-9.528044,53.304928],[-9.528025,53.30503],[-9.528025,53.305053],[-9.528025,53.305117],[-9.527989,53.305189],[-9.527892,53.305298],[-9.52789,53.305303],[-9.527824,53.30543],[-9.527726,53.305606],[-9.52772,53.305706],[-9.527719,53.305725],[-9.527776,53.305787],[-9.527769,53.305904],[-9.527787,53.305978],[-9.527858,53.306103],[-9.527862,53.30613],[-9.527874,53.306214],[-9.527875,53.306216],[-9.527908,53.306468],[-9.527925,53.3066],[-9.527925,53.306601],[-9.527864,53.306723],[-9.527792,53.306861],[-9.52771,53.306996],[-9.527704,53.307005],[-9.527678,53.307131],[-9.527692,53.307187],[-9.527761,53.307351],[-9.527783,53.307446],[-9.527812,53.307574],[-9.527823,53.307655],[-9.527826,53.307677],[-9.527782,53.307687],[-9.527578,53.307741],[-9.527305,53.307822],[-9.527009,53.307908],[-9.52639,53.308075],[-9.525817,53.308235],[-9.525233,53.308399],[-9.524625,53.308557],[-9.524295,53.308655],[-9.524222,53.308689],[-9.524172,53.308686],[-9.524074,53.308679],[-9.523859,53.308769],[-9.522284,53.30922],[-9.521228,53.309496],[-9.520939,53.309564],[-9.520904,53.309572],[-9.520869,53.309581],[-9.520968,53.309635],[-9.521015,53.309655],[-9.521123,53.309694],[-9.521142,53.309701],[-9.521161,53.309708],[-9.521178,53.309716],[-9.521334,53.309783],[-9.521383,53.309807],[-9.521429,53.309832],[-9.52147,53.30986],[-9.521508,53.309889],[-9.521542,53.309921],[-9.521571,53.309954],[-9.521595,53.309988],[-9.521605,53.310005],[-9.521759,53.310279],[-9.521775,53.310312],[-9.521786,53.310345],[-9.521794,53.310379],[-9.521813,53.310498],[-9.521816,53.310526],[-9.521816,53.310554],[-9.521813,53.310581],[-9.521782,53.310784],[-9.521774,53.310821],[-9.521761,53.310857],[-9.521743,53.310892],[-9.521739,53.310899],[-9.521644,53.311053],[-9.52162,53.311087],[-9.521592,53.31112],[-9.521559,53.311152],[-9.521522,53.311182],[-9.52148,53.311209],[-9.521435,53.311235],[-9.521397,53.311254],[-9.521326,53.311287],[-9.521276,53.311308],[-9.521223,53.311327],[-9.521167,53.311343],[-9.521107,53.311404],[-9.521123,53.31144],[-9.521132,53.31147],[-9.52117,53.3115],[-9.521228,53.311514],[-9.521283,53.311531],[-9.521336,53.31155],[-9.521386,53.311572],[-9.521433,53.311597],[-9.521476,53.311623],[-9.521516,53.311652],[-9.521548,53.311667],[-9.521599,53.311689],[-9.521646,53.311713],[-9.52169,53.311739],[-9.52173,53.311768],[-9.521771,53.311789],[-9.521827,53.311806],[-9.521879,53.311826],[-9.521929,53.311848],[-9.521976,53.311873],[-9.522019,53.3119],[-9.522083,53.311935],[-9.522129,53.31196],[-9.522134,53.311963],[-9.522273,53.312047],[-9.522315,53.312075],[-9.522353,53.312105],[-9.522387,53.312136],[-9.522416,53.312169],[-9.522441,53.312203],[-9.52246,53.312238],[-9.522475,53.312274],[-9.522485,53.312311],[-9.522489,53.312348],[-9.522489,53.312385],[-9.522483,53.312422],[-9.522473,53.312459],[-9.522457,53.312495],[-9.522436,53.31253],[-9.522411,53.312564],[-9.522381,53.312596],[-9.522346,53.312627],[-9.522308,53.312657],[-9.522265,53.312684],[-9.52224,53.312698],[-9.522189,53.312729],[-9.522186,53.312779],[-9.522184,53.312816],[-9.522225,53.312837],[-9.522269,53.312864],[-9.52231,53.312892],[-9.522346,53.312922],[-9.522378,53.312954],[-9.522406,53.312987],[-9.522429,53.313022],[-9.522447,53.313057],[-9.52246,53.313093],[-9.522468,53.31313],[-9.522471,53.313147],[-9.522473,53.313184],[-9.522471,53.313221],[-9.522468,53.313239],[-9.522468,53.313241],[-9.522471,53.313278],[-9.52247,53.313315],[-9.522463,53.313352],[-9.522451,53.313388],[-9.522434,53.313424],[-9.522412,53.313459],[-9.522386,53.313493],[-9.522354,53.313525],[-9.522319,53.313555],[-9.522279,53.313584],[-9.522236,53.313611],[-9.522189,53.313635],[-9.522139,53.313657],[-9.522086,53.313677],[-9.522031,53.313693],[-9.521973,53.313707],[-9.521925,53.313717],[-9.521902,53.31372],[-9.521842,53.313729],[-9.52178,53.313735],[-9.521718,53.313738],[-9.521652,53.313747],[-9.521592,53.313757],[-9.521531,53.313763],[-9.521469,53.313767],[-9.521407,53.313767],[-9.521344,53.313765],[-9.521276,53.313779],[-9.521256,53.313793],[-9.521202,53.313831],[-9.52116,53.313858],[-9.521115,53.313884],[-9.521066,53.313906],[-9.521014,53.313927],[-9.520959,53.313945],[-9.520902,53.313959],[-9.520843,53.313972],[-9.520783,53.313981],[-9.520722,53.313987],[-9.52066,53.31399],[-9.520597,53.31399],[-9.520535,53.313987],[-9.520474,53.313981],[-9.520414,53.313972],[-9.520355,53.31396],[-9.520303,53.313946],[-9.520246,53.31393],[-9.52019,53.313913],[-9.520138,53.313892],[-9.520099,53.313876],[-9.520037,53.31387],[-9.519977,53.313861],[-9.519918,53.313849],[-9.519861,53.313834],[-9.519807,53.313816],[-9.519766,53.313802],[-9.519709,53.313817],[-9.519651,53.31383],[-9.519593,53.313839],[-9.519504,53.313851],[-9.519444,53.313857],[-9.519411,53.313859],[-9.519409,53.313891],[-9.519401,53.313928],[-9.519388,53.313964],[-9.51937,53.314],[-9.519347,53.314034],[-9.51932,53.314068],[-9.519288,53.3141],[-9.519252,53.31413],[-9.519211,53.314158],[-9.519167,53.314185],[-9.51912,53.314208],[-9.519069,53.31423],[-9.519015,53.314249],[-9.518981,53.314282],[-9.518951,53.314315],[-9.518918,53.314346],[-9.51888,53.314376],[-9.518876,53.314378],[-9.518834,53.314408],[-9.518792,53.314435],[-9.518747,53.31446],[-9.518749,53.314489],[-9.518753,53.314526],[-9.518751,53.314562],[-9.518748,53.314599],[-9.518742,53.314636],[-9.51873,53.314672],[-9.518714,53.314708],[-9.518693,53.314743],[-9.518667,53.314777],[-9.518646,53.314799],[-9.518634,53.314812],[-9.518624,53.314822],[-9.518613,53.314832],[-9.518601,53.314843],[-9.518569,53.314869],[-9.518532,53.314899],[-9.518491,53.314926],[-9.518467,53.314963],[-9.518445,53.314998],[-9.518418,53.315031],[-9.518387,53.315063],[-9.518351,53.315094],[-9.518311,53.315122],[-9.518306,53.315125],[-9.518283,53.315141],[-9.518239,53.315167],[-9.518192,53.315191],[-9.518141,53.315212],[-9.518087,53.315231],[-9.518032,53.315248],[-9.517973,53.315261],[-9.517914,53.315272],[-9.517901,53.315273],[-9.517825,53.315284],[-9.517764,53.315291],[-9.517702,53.315295],[-9.51764,53.315296],[-9.517613,53.315295],[-9.517545,53.315293],[-9.517504,53.315291],[-9.517464,53.315288],[-9.517424,53.315283],[-9.51735,53.315274],[-9.517289,53.315264],[-9.517231,53.315252],[-9.517174,53.315236],[-9.517148,53.315228],[-9.517079,53.315206],[-9.517026,53.315186],[-9.516975,53.315164],[-9.516928,53.31514],[-9.516874,53.315132],[-9.51685,53.315135],[-9.516789,53.315142],[-9.516727,53.315145],[-9.516665,53.315146],[-9.516603,53.315143],[-9.516541,53.315138],[-9.516481,53.315129],[-9.516422,53.315118],[-9.516364,53.315103],[-9.516309,53.315086],[-9.516302,53.315083],[-9.516281,53.315076],[-9.516277,53.315075],[-9.516273,53.315109],[-9.516272,53.315118],[-9.51627,53.315127],[-9.516268,53.315136],[-9.51626,53.315171],[-9.516249,53.315207],[-9.51623,53.315275],[-9.516219,53.315311],[-9.516204,53.315347],[-9.516187,53.315378],[-9.516178,53.315392],[-9.516153,53.315426],[-9.516124,53.315459],[-9.516091,53.31549],[-9.516053,53.31552],[-9.516012,53.315547],[-9.515979,53.315566],[-9.515955,53.315579],[-9.515909,53.315604],[-9.515869,53.315632],[-9.515824,53.315658],[-9.515776,53.315682],[-9.515725,53.315703],[-9.515672,53.315722],[-9.515624,53.315736],[-9.515595,53.315743],[-9.515509,53.315777],[-9.515464,53.315802],[-9.515415,53.315825],[-9.515382,53.315838],[-9.515348,53.315851],[-9.515272,53.315901],[-9.515241,53.315933],[-9.515206,53.315964],[-9.515167,53.315993],[-9.515124,53.31602],[-9.515078,53.316044],[-9.515028,53.316067],[-9.515002,53.316077],[-9.514937,53.316101],[-9.514883,53.31612],[-9.514827,53.316135],[-9.514769,53.316148],[-9.514709,53.316158],[-9.514648,53.316165],[-9.514586,53.316169],[-9.514523,53.31617],[-9.514508,53.31617],[-9.514447,53.316168],[-9.514403,53.316167],[-9.514341,53.316173],[-9.514279,53.316175],[-9.514217,53.316174],[-9.514153,53.316179],[-9.514093,53.316187],[-9.514031,53.316193],[-9.513969,53.316195],[-9.513948,53.316195],[-9.51381,53.316226],[-9.513779,53.316233],[-9.513745,53.316253],[-9.513697,53.316276],[-9.513646,53.316298],[-9.513592,53.316316],[-9.513547,53.316342],[-9.513515,53.316373],[-9.513479,53.316403],[-9.513438,53.316431],[-9.513394,53.316457],[-9.513346,53.316481],[-9.513316,53.316495],[-9.513273,53.316521],[-9.513225,53.316545],[-9.513194,53.316559],[-9.513179,53.316566],[-9.513164,53.316578],[-9.513088,53.316641],[-9.513051,53.31667],[-9.513009,53.316697],[-9.512963,53.316723],[-9.512914,53.316745],[-9.512862,53.316766],[-9.512807,53.316784],[-9.512751,53.316799],[-9.512739,53.316807],[-9.512728,53.31682],[-9.512659,53.316894],[-9.512627,53.316925],[-9.512591,53.316955],[-9.51255,53.316983],[-9.512506,53.317009],[-9.512458,53.317033],[-9.512407,53.317054],[-9.512349,53.317088],[-9.512319,53.317113],[-9.512285,53.317138],[-9.512249,53.317162],[-9.512206,53.317189],[-9.51217,53.317213],[-9.512147,53.317234],[-9.512125,53.317261],[-9.512106,53.317298],[-9.512105,53.317299],[-9.512105,53.3173],[-9.512104,53.317301],[-9.512092,53.317324],[-9.51207,53.317359],[-9.512044,53.317392],[-9.512013,53.317425],[-9.511978,53.317455],[-9.511939,53.317484],[-9.51191,53.317503],[-9.511659,53.317653],[-9.511642,53.317663],[-9.511624,53.317673],[-9.511604,53.317683],[-9.511396,53.317786],[-9.51138,53.317805],[-9.511367,53.31783],[-9.51134,53.317876],[-9.511334,53.317886],[-9.511327,53.317896],[-9.51132,53.317907],[-9.511268,53.317979],[-9.511241,53.318012],[-9.511209,53.318044],[-9.511208,53.318067],[-9.511207,53.318104],[-9.511201,53.318141],[-9.51119,53.318178],[-9.511174,53.318214],[-9.511158,53.318242],[-9.511151,53.318307],[-9.511156,53.318316],[-9.511169,53.31834],[-9.511186,53.318376],[-9.511198,53.318412],[-9.511205,53.318449],[-9.511206,53.318486],[-9.511202,53.318523],[-9.511194,53.31856],[-9.51118,53.318597],[-9.511161,53.318632],[-9.511138,53.318666],[-9.511136,53.318668],[-9.511114,53.318696],[-9.511086,53.318729],[-9.511053,53.318761],[-9.511016,53.31879],[-9.510975,53.318818],[-9.51093,53.318844],[-9.510928,53.318845],[-9.510906,53.318865],[-9.510874,53.318891],[-9.510836,53.318919],[-9.510787,53.318963],[-9.510784,53.318965],[-9.510782,53.318967],[-9.510778,53.31897],[-9.510728,53.319013],[-9.510709,53.319034],[-9.510704,53.31904],[-9.510698,53.319045],[-9.510692,53.319052],[-9.510592,53.319154],[-9.510549,53.319205],[-9.510547,53.319208],[-9.510544,53.319212],[-9.510541,53.319216],[-9.510406,53.31941],[-9.510437,53.319442],[-9.510463,53.319476],[-9.510485,53.319511],[-9.510501,53.319547],[-9.510513,53.319583],[-9.510517,53.319603],[-9.510521,53.319626],[-9.510524,53.319664],[-9.510523,53.319701],[-9.510516,53.319738],[-9.510515,53.319741],[-9.510505,53.319779],[-9.510493,53.319816],[-9.510476,53.319851],[-9.510454,53.319886],[-9.510427,53.31992],[-9.510422,53.319972],[-9.510427,53.320009],[-9.510428,53.320035],[-9.510427,53.320096],[-9.510427,53.320101],[-9.510427,53.320106],[-9.510426,53.320111],[-9.510419,53.320206],[-9.510416,53.320232],[-9.51041,53.320259],[-9.510401,53.320285],[-9.510377,53.32035],[-9.510361,53.320386],[-9.510339,53.320421],[-9.510314,53.320454],[-9.510283,53.320487],[-9.510248,53.320518],[-9.510209,53.320547],[-9.510196,53.320555],[-9.510127,53.3206],[-9.510083,53.320626],[-9.510036,53.32065],[-9.509973,53.320694],[-9.50994,53.320724],[-9.509903,53.320752],[-9.509862,53.320778],[-9.509844,53.320798],[-9.509818,53.320832],[-9.509813,53.320837],[-9.509788,53.320865],[-9.509757,53.320897],[-9.509722,53.320928],[-9.509682,53.320956],[-9.509661,53.32097],[-9.509602,53.321006],[-9.509563,53.321054],[-9.509548,53.32109],[-9.509529,53.321125],[-9.509505,53.321159],[-9.509476,53.321192],[-9.509443,53.321224],[-9.509405,53.321253],[-9.509364,53.321281],[-9.509334,53.321298],[-9.509339,53.321338],[-9.50934,53.321375],[-9.509337,53.321412],[-9.509341,53.32142],[-9.509388,53.321445],[-9.509431,53.321471],[-9.509471,53.3215],[-9.509506,53.321531],[-9.509537,53.321563],[-9.50956,53.321592],[-9.509598,53.321644],[-9.50962,53.321679],[-9.509638,53.321714],[-9.50965,53.321751],[-9.509658,53.321788],[-9.50966,53.321825],[-9.509657,53.321862],[-9.509649,53.321899],[-9.509636,53.321935],[-9.509618,53.321971],[-9.509595,53.322005],[-9.509632,53.322028],[-9.509693,53.322034],[-9.509753,53.322044],[-9.509812,53.322056],[-9.509868,53.322072],[-9.509923,53.32209],[-9.509974,53.32211],[-9.510023,53.322133],[-9.510055,53.322151],[-9.5101,53.322177],[-9.510191,53.322198],[-9.510209,53.322203],[-9.510226,53.322207],[-9.510242,53.322212],[-9.510407,53.322259],[-9.510462,53.322277],[-9.510514,53.322297],[-9.510564,53.32232],[-9.51061,53.322345],[-9.510652,53.322372],[-9.51069,53.322401],[-9.510725,53.322432],[-9.510754,53.322465],[-9.51078,53.322499],[-9.510796,53.322523],[-9.510816,53.322559],[-9.510832,53.322595],[-9.510842,53.322631],[-9.510847,53.322668],[-9.510848,53.322698],[-9.510846,53.322738],[-9.510843,53.322775],[-9.510833,53.322811],[-9.510819,53.322848],[-9.5108,53.322883],[-9.510777,53.322917],[-9.510765,53.322931],[-9.510804,53.322931],[-9.511283,53.322918],[-9.51131,53.322975],[-9.511372,53.323051],[-9.511475,53.323148],[-9.511765,53.323381],[-9.511983,53.323543],[-9.512239,53.323725],[-9.512527,53.323941],[-9.513065,53.324339],[-9.513304,53.324522],[-9.513713,53.324841],[-9.513722,53.324884],[-9.51372,53.32489],[-9.513663,53.324916],[-9.513548,53.324985],[-9.513277,53.325277],[-9.512894,53.32572],[-9.512715,53.325938],[-9.512677,53.325985],[-9.512594,53.325853],[-9.512571,53.325816],[-9.512126,53.325641],[-9.512088,53.325626],[-9.51201,53.325595],[-9.511975,53.325625],[-9.511854,53.325575],[-9.511796,53.325624],[-9.511776,53.325642],[-9.510583,53.325229],[-9.510083,53.325064],[-9.510054,53.325071],[-9.510018,53.325077],[-9.509981,53.325082],[-9.509972,53.325085],[-9.509945,53.3251],[-9.509915,53.325114],[-9.509884,53.325126],[-9.509851,53.325136],[-9.509816,53.325145],[-9.509781,53.325152],[-9.509745,53.325157],[-9.509708,53.325161],[-9.509671,53.325162],[-9.509647,53.325162],[-9.509615,53.325162],[-9.509597,53.325182],[-9.509581,53.325202],[-9.50958,53.325204],[-9.509534,53.325255],[-9.509532,53.325257],[-9.509529,53.32526],[-9.509526,53.325263],[-9.509519,53.32527],[-9.509503,53.325301],[-9.5095,53.325309],[-9.509495,53.325316],[-9.50949,53.325324],[-9.509469,53.325355],[-9.509454,53.325375],[-9.509436,53.325394],[-9.509415,53.325413],[-9.509392,53.32543],[-9.509366,53.325447],[-9.509339,53.325462],[-9.509309,53.325475],[-9.509285,53.325485],[-9.509264,53.325492],[-9.509256,53.325495],[-9.509226,53.325508],[-9.509194,53.325519],[-9.509177,53.325524],[-9.509086,53.32555],[-9.509052,53.325559],[-9.509016,53.325566],[-9.50898,53.325572],[-9.508943,53.325575],[-9.508906,53.325577],[-9.508869,53.325577],[-9.508832,53.325575],[-9.508795,53.325571],[-9.508759,53.325565],[-9.508723,53.325558],[-9.508716,53.325556],[-9.508656,53.325541],[-9.508622,53.325532],[-9.50861,53.325537],[-9.508586,53.325554],[-9.508567,53.325566],[-9.508577,53.32557],[-9.508604,53.325586],[-9.508628,53.325603],[-9.508651,53.325621],[-9.50867,53.32564],[-9.508687,53.32566],[-9.508701,53.32568],[-9.508712,53.325701],[-9.508736,53.325754],[-9.508745,53.325776],[-9.50875,53.325798],[-9.508752,53.32582],[-9.508751,53.325843],[-9.508747,53.325865],[-9.50874,53.325887],[-9.50873,53.325908],[-9.508717,53.325929],[-9.508708,53.325941],[-9.508621,53.32605],[-9.508604,53.326069],[-9.508584,53.326088],[-9.508582,53.326098],[-9.508587,53.326121],[-9.508588,53.326143],[-9.508587,53.326165],[-9.508582,53.326187],[-9.508579,53.326197],[-9.508559,53.326256],[-9.50855,53.326277],[-9.508538,53.326298],[-9.508523,53.326319],[-9.508505,53.326339],[-9.508485,53.326357],[-9.508462,53.326375],[-9.508437,53.326391],[-9.508409,53.326407],[-9.508398,53.326412],[-9.508327,53.326456],[-9.508342,53.326477],[-9.508354,53.326498],[-9.508363,53.32652],[-9.508369,53.326542],[-9.50837,53.326547],[-9.508376,53.32658],[-9.508403,53.326615],[-9.508414,53.326618],[-9.508448,53.326627],[-9.50848,53.326638],[-9.508511,53.326651],[-9.50854,53.326665],[-9.508567,53.32668],[-9.508592,53.326697],[-9.508614,53.326715],[-9.508634,53.326734],[-9.508651,53.326754],[-9.508665,53.326774],[-9.508677,53.326795],[-9.508684,53.326815],[-9.508704,53.326875],[-9.50871,53.326897],[-9.508713,53.32692],[-9.508712,53.326942],[-9.508709,53.326964],[-9.508702,53.326986],[-9.508693,53.327008],[-9.50868,53.327029],[-9.50867,53.327043],[-9.508638,53.327082],[-9.508621,53.327102],[-9.508601,53.327121],[-9.508579,53.327139],[-9.508554,53.327155],[-9.508527,53.32717],[-9.508353,53.327261],[-9.508324,53.327275],[-9.508293,53.327288],[-9.508261,53.327299],[-9.508227,53.327308],[-9.508192,53.327315],[-9.508169,53.327319],[-9.508118,53.327327],[-9.508109,53.327329],[-9.5081,53.32733],[-9.508091,53.327331],[-9.508046,53.327336],[-9.508033,53.327345],[-9.508007,53.327361],[-9.507978,53.327375],[-9.507948,53.327388],[-9.507916,53.327399],[-9.507882,53.327409],[-9.507847,53.327417],[-9.507812,53.327424],[-9.507775,53.327428],[-9.507738,53.327431],[-9.507705,53.327432],[-9.507601,53.327432],[-9.507564,53.327432],[-9.507526,53.327429],[-9.50749,53.327425],[-9.507454,53.327419],[-9.507419,53.327411],[-9.507385,53.327401],[-9.507353,53.32739],[-9.507344,53.327386],[-9.507285,53.327363],[-9.507255,53.327349],[-9.507226,53.327335],[-9.5072,53.327319],[-9.507177,53.327301],[-9.507152,53.327304],[-9.507116,53.32731],[-9.50708,53.327315],[-9.507043,53.327318],[-9.507006,53.327319],[-9.506968,53.327318],[-9.506931,53.327315],[-9.506823,53.327304],[-9.506786,53.3273],[-9.50675,53.327293],[-9.506715,53.327285],[-9.506682,53.327275],[-9.50665,53.327264],[-9.506619,53.327251],[-9.506591,53.327237],[-9.506564,53.327221],[-9.50654,53.327204],[-9.506518,53.327186],[-9.5065,53.327184],[-9.506465,53.327191],[-9.506429,53.327197],[-9.506393,53.3272],[-9.506355,53.327202],[-9.506318,53.327203],[-9.506281,53.327201],[-9.506244,53.327198],[-9.506208,53.327192],[-9.506172,53.327185],[-9.506138,53.327176],[-9.506105,53.327166],[-9.506087,53.327159],[-9.506068,53.327152],[-9.506037,53.327139],[-9.506008,53.327125],[-9.505982,53.327109],[-9.505958,53.327092],[-9.505936,53.327074],[-9.505917,53.327054],[-9.5059,53.327034],[-9.505887,53.327014],[-9.505876,53.326992],[-9.50585,53.326971],[-9.505813,53.326968],[-9.505776,53.326963],[-9.505741,53.326956],[-9.505706,53.326948],[-9.505673,53.326938],[-9.505664,53.326935],[-9.505625,53.326921],[-9.505588,53.326928],[-9.505572,53.326932],[-9.505555,53.326935],[-9.505554,53.326935],[-9.505553,53.326936],[-9.505536,53.326938],[-9.505519,53.326941],[-9.505518,53.326941],[-9.505517,53.326941],[-9.5055,53.326943],[-9.505482,53.326945],[-9.50537,53.326955],[-9.505333,53.326957],[-9.505296,53.326957],[-9.505258,53.326956],[-9.505221,53.326953],[-9.505176,53.326956],[-9.505164,53.326957],[-9.504839,53.32698],[-9.504802,53.326982],[-9.504765,53.326982],[-9.504728,53.32698],[-9.504691,53.326977],[-9.504583,53.327023],[-9.504554,53.327037],[-9.504523,53.327049],[-9.50449,53.327059],[-9.504456,53.327068],[-9.50442,53.327075],[-9.504417,53.327076],[-9.504233,53.327107],[-9.504197,53.327113],[-9.50416,53.327116],[-9.504123,53.327118],[-9.504085,53.327118],[-9.504071,53.327117],[-9.503836,53.327105],[-9.503799,53.327102],[-9.503762,53.327098],[-9.503735,53.327099],[-9.503706,53.327106],[-9.50371,53.327113],[-9.503721,53.327134],[-9.503728,53.327156],[-9.503733,53.327178],[-9.503734,53.32719],[-9.503736,53.32723],[-9.503737,53.327245],[-9.503736,53.327267],[-9.503733,53.327287],[-9.503735,53.327294],[-9.503727,53.327414],[-9.503719,53.327513],[-9.503765,53.327549],[-9.503811,53.327582],[-9.503866,53.327676],[-9.503881,53.327694],[-9.503972,53.327693],[-9.50401,53.327712],[-9.504043,53.327729],[-9.504086,53.32775],[-9.504132,53.327774],[-9.504163,53.327834],[-9.504173,53.327911],[-9.504251,53.328009],[-9.504288,53.328027],[-9.504319,53.328042],[-9.504372,53.328062],[-9.504419,53.32812],[-9.50444,53.328189],[-9.504489,53.328223],[-9.504552,53.328258],[-9.504592,53.32828],[-9.504723,53.328366],[-9.504822,53.32844],[-9.504857,53.328466],[-9.504994,53.328541],[-9.505067,53.328592],[-9.505084,53.328603],[-9.505124,53.328632],[-9.505213,53.3287],[-9.505373,53.328788],[-9.505438,53.328834],[-9.505511,53.328884],[-9.505553,53.328928],[-9.505572,53.328989],[-9.505583,53.329044],[-9.505607,53.329087],[-9.505642,53.329108],[-9.50567,53.329125],[-9.505697,53.329148],[-9.505741,53.329205],[-9.505774,53.329271],[-9.505772,53.329328],[-9.505803,53.32936],[-9.505893,53.329418],[-9.505896,53.329421],[-9.505909,53.329439],[-9.505906,53.329465],[-9.505876,53.329515],[-9.505885,53.329552],[-9.505913,53.329606],[-9.505914,53.329639],[-9.5059,53.329671],[-9.505834,53.32977],[-9.505839,53.329804],[-9.505859,53.329845],[-9.505884,53.329868],[-9.505902,53.329885],[-9.50591,53.329892],[-9.506116,53.33003],[-9.506143,53.330041],[-9.506212,53.330058],[-9.506326,53.330077],[-9.506347,53.33008],[-9.506582,53.330119],[-9.506651,53.330143],[-9.506759,53.330179],[-9.50678,53.330181],[-9.5068,53.330183],[-9.506853,53.330166],[-9.506861,53.330164],[-9.506929,53.330147],[-9.506983,53.330142],[-9.507057,53.330146],[-9.507122,53.330159],[-9.507188,53.330174],[-9.507338,53.330193],[-9.507378,53.330209],[-9.507384,53.330211],[-9.507405,53.330218],[-9.50743,53.330227],[-9.507475,53.330219],[-9.507505,53.330201],[-9.507544,53.330198],[-9.507667,53.330213],[-9.507885,53.33022],[-9.507976,53.330223],[-9.507981,53.330223],[-9.508036,53.330229],[-9.508042,53.330229],[-9.508106,53.33022],[-9.508209,53.330187],[-9.508259,53.330186],[-9.508313,53.33019],[-9.508366,53.330183],[-9.508633,53.330141],[-9.508679,53.330131],[-9.508687,53.330132],[-9.508726,53.330133],[-9.508796,53.330178],[-9.508861,53.330191],[-9.508874,53.330191],[-9.508964,53.33019],[-9.509014,53.330192],[-9.509097,53.330238],[-9.5091,53.330239],[-9.509171,53.330257],[-9.509266,53.330281],[-9.509393,53.330328],[-9.509628,53.330383],[-9.509687,53.330397],[-9.509829,53.330433],[-9.509949,53.330478],[-9.509984,53.330494],[-9.510026,53.3305],[-9.510047,53.3305],[-9.510065,53.3305],[-9.510103,53.330511],[-9.510116,53.330515],[-9.510146,53.330526],[-9.510188,53.33054],[-9.510599,53.33057],[-9.510605,53.330572],[-9.510668,53.330594],[-9.510719,53.330628],[-9.51072,53.330629],[-9.510798,53.330705],[-9.510825,53.330721],[-9.510891,53.330741],[-9.511045,53.330787],[-9.511134,53.3308],[-9.511187,53.330797],[-9.511275,53.330792],[-9.511324,53.330782],[-9.511382,53.33076],[-9.511453,53.330733],[-9.511483,53.330716],[-9.511517,53.330705],[-9.511535,53.330701],[-9.511531,53.330684],[-9.511584,53.330673],[-9.511836,53.33062],[-9.511873,53.330601],[-9.512145,53.330585],[-9.512194,53.330582],[-9.512291,53.330611],[-9.512333,53.33061],[-9.512337,53.3306],[-9.512344,53.330587],[-9.512347,53.330555],[-9.512365,53.330541],[-9.512411,53.330522],[-9.512441,53.330494],[-9.512451,53.330467],[-9.512582,53.330433],[-9.512637,53.330419],[-9.512699,53.330423],[-9.512773,53.330464],[-9.51285,53.330483],[-9.512979,53.330466],[-9.513017,53.330456],[-9.513248,53.330495],[-9.513297,53.330472],[-9.513304,53.330451],[-9.513288,53.330401],[-9.513329,53.330368],[-9.513409,53.330361],[-9.513443,53.330337],[-9.513418,53.330294],[-9.513417,53.330246],[-9.513451,53.330218],[-9.51349,53.330241],[-9.513541,53.330279],[-9.513567,53.330274],[-9.51357,53.330247],[-9.513604,53.330224],[-9.513661,53.330195],[-9.513691,53.330195],[-9.51379,53.330248],[-9.513774,53.329785],[-9.51437,53.329778],[-9.514383,53.329764],[-9.514367,53.329737],[-9.514235,53.329676],[-9.514181,53.32967],[-9.51418,53.32964],[-9.514283,53.329616],[-9.514329,53.329604],[-9.514343,53.329586],[-9.514316,53.329545],[-9.51416,53.329456],[-9.514148,53.329451],[-9.514122,53.329442],[-9.514093,53.329415],[-9.514107,53.329399],[-9.51412,53.329402],[-9.514163,53.329414],[-9.514202,53.329411],[-9.514203,53.329387],[-9.514254,53.329394],[-9.514262,53.329379],[-9.514296,53.329386],[-9.514346,53.329378],[-9.514328,53.32937],[-9.514362,53.329348],[-9.514368,53.329361],[-9.51447,53.32937],[-9.514519,53.329362],[-9.514539,53.329341],[-9.514839,53.329523],[-9.514893,53.329539],[-9.514955,53.329538],[-9.515136,53.329445],[-9.515146,53.329422],[-9.515145,53.329371],[-9.51516,53.329355],[-9.515206,53.329362],[-9.51526,53.329382],[-9.515261,53.329382],[-9.515242,53.328868],[-9.516287,53.328855],[-9.516286,53.328854],[-9.516362,53.328767],[-9.516428,53.328753],[-9.516511,53.328739],[-9.516594,53.328724],[-9.516621,53.328697],[-9.516635,53.32865],[-9.516745,53.328624],[-9.516826,53.328621],[-9.516864,53.328622],[-9.51688,53.3286],[-9.516861,53.328541],[-9.516735,53.328485],[-9.516722,53.328467],[-9.516802,53.328424],[-9.516746,53.328392],[-9.516695,53.328379],[-9.516702,53.328339],[-9.516725,53.328329],[-9.516799,53.328313],[-9.51695,53.328285],[-9.516991,53.328283],[-9.517014,53.328282],[-9.517109,53.328293],[-9.517124,53.328267],[-9.517113,53.328223],[-9.517101,53.328192],[-9.517075,53.328171],[-9.517173,53.328131],[-9.517231,53.328145],[-9.517241,53.328125],[-9.517229,53.328074],[-9.517314,53.328063],[-9.517405,53.328055],[-9.517406,53.32805],[-9.517431,53.327996],[-9.517462,53.327957],[-9.517517,53.327931],[-9.517682,53.327987],[-9.517715,53.328023],[-9.517756,53.328054],[-9.517839,53.328076],[-9.517964,53.328092],[-9.518118,53.328127],[-9.518139,53.328119],[-9.518151,53.32808],[-9.518159,53.328067],[-9.518216,53.328077],[-9.518211,53.327932],[-9.518465,53.327928],[-9.518474,53.327926],[-9.518458,53.327885],[-9.518426,53.327847],[-9.518421,53.327811],[-9.518334,53.327676],[-9.518258,53.327674],[-9.518221,53.32765],[-9.518204,53.327627],[-9.518212,53.327611],[-9.518321,53.327525],[-9.518347,53.327512],[-9.51846,53.327497],[-9.518556,53.327496],[-9.518582,53.327496],[-9.518746,53.3275],[-9.518801,53.327478],[-9.518917,53.327394],[-9.519018,53.327375],[-9.519033,53.327366],[-9.519075,53.327333],[-9.519104,53.327294],[-9.519195,53.327229],[-9.519289,53.327183],[-9.519346,53.327148],[-9.51941,53.327028],[-9.519442,53.327019],[-9.519515,53.326993],[-9.519593,53.326944],[-9.519673,53.326913],[-9.519777,53.32696],[-9.519768,53.327013],[-9.519812,53.327013],[-9.519815,53.327006],[-9.519872,53.326931],[-9.519904,53.326911],[-9.519927,53.326909],[-9.520029,53.326908],[-9.520041,53.326919],[-9.520052,53.326931],[-9.520079,53.326917],[-9.520117,53.326888],[-9.520176,53.326882],[-9.520246,53.326894],[-9.520361,53.326932],[-9.520368,53.326969],[-9.520379,53.326982],[-9.520466,53.326984],[-9.52055,53.326957],[-9.520617,53.32693],[-9.520744,53.326955],[-9.520849,53.32691],[-9.520889,53.326923],[-9.52098,53.326915],[-9.521036,53.326951],[-9.521064,53.326972],[-9.521053,53.326997],[-9.52118,53.326995],[-9.521189,53.327254],[-9.5212,53.327265],[-9.521234,53.327297],[-9.521203,53.327306],[-9.521192,53.327347],[-9.521195,53.327427],[-9.521273,53.327423],[-9.521347,53.327429],[-9.521442,53.327484],[-9.52148,53.327488],[-9.521538,53.32749],[-9.521602,53.327505],[-9.521707,53.327577],[-9.521732,53.32767],[-9.521751,53.327718],[-9.521805,53.327763],[-9.521883,53.327762],[-9.521919,53.327793],[-9.521917,53.327801],[-9.521869,53.327834],[-9.521842,53.327889],[-9.521832,53.327937],[-9.521835,53.327961],[-9.521846,53.327991],[-9.52185,53.328019],[-9.521883,53.328041],[-9.521868,53.328055],[-9.521796,53.328088],[-9.521688,53.328092],[-9.521661,53.328128],[-9.52164,53.328138],[-9.521538,53.32813],[-9.521536,53.328145],[-9.521463,53.328233],[-9.521477,53.328246],[-9.521475,53.328254],[-9.521439,53.328294],[-9.521404,53.328356],[-9.521413,53.328379],[-9.521454,53.328385],[-9.52146,53.328398],[-9.521474,53.328405],[-9.521493,53.328397],[-9.521499,53.328381],[-9.521594,53.328357],[-9.521621,53.328331],[-9.52164,53.328308],[-9.521683,53.328292],[-9.521705,53.328298],[-9.52174,53.328334],[-9.521737,53.328345],[-9.52172,53.328358],[-9.521713,53.328381],[-9.521819,53.328365],[-9.522106,53.328331],[-9.522102,53.328346],[-9.522097,53.32838],[-9.522107,53.328446],[-9.522118,53.328463],[-9.522125,53.328498],[-9.522175,53.328495],[-9.522279,53.328494],[-9.522354,53.328523],[-9.522524,53.328563],[-9.522605,53.328592],[-9.52263,53.328646],[-9.522591,53.328658],[-9.522567,53.328663],[-9.52264,53.328773],[-9.522482,53.328807],[-9.522382,53.32881],[-9.522356,53.328818],[-9.522334,53.328854],[-9.522249,53.328968],[-9.522235,53.329007],[-9.522259,53.329036],[-9.522348,53.32907],[-9.522476,53.329128],[-9.522484,53.329148],[-9.522481,53.329171],[-9.52241,53.329369],[-9.522411,53.329406],[-9.522404,53.329431],[-9.522287,53.329473],[-9.522245,53.329492],[-9.522196,53.329509],[-9.522023,53.329481],[-9.521954,53.329472],[-9.521916,53.329482],[-9.521867,53.329528],[-9.521822,53.329552],[-9.521723,53.329566],[-9.521655,53.329585],[-9.521578,53.329582],[-9.52146,53.32961],[-9.521365,53.329646],[-9.521308,53.329649],[-9.521296,53.32964],[-9.521296,53.329621],[-9.521314,53.329582],[-9.521305,53.329541],[-9.52127,53.32952],[-9.521276,53.32969],[-9.520879,53.329695],[-9.520908,53.329706],[-9.520916,53.329721],[-9.520893,53.329733],[-9.520802,53.329755],[-9.520519,53.329897],[-9.520437,53.329956],[-9.52043,53.330006],[-9.520462,53.330052],[-9.520517,53.330074],[-9.520612,53.330077],[-9.520745,53.33003],[-9.52081,53.330025],[-9.520849,53.330038],[-9.520853,53.33007],[-9.520835,53.330098],[-9.520747,53.33023],[-9.52076,53.330282],[-9.520818,53.330316],[-9.520887,53.330324],[-9.52104,53.330295],[-9.521078,53.330302],[-9.521145,53.330363],[-9.521142,53.330377],[-9.521027,53.33038],[-9.520928,53.330404],[-9.520822,53.330435],[-9.520743,53.330488],[-9.520695,53.330542],[-9.520623,53.330829],[-9.520597,53.330866],[-9.520563,53.330871],[-9.520321,53.330976],[-9.520266,53.331057],[-9.52026,53.331112],[-9.520173,53.331147],[-9.520097,53.331182],[-9.520026,53.331224],[-9.519962,53.331275],[-9.519837,53.331449],[-9.519839,53.331505],[-9.519797,53.331506],[-9.519697,53.331645],[-9.519694,53.331686],[-9.519799,53.331733],[-9.519815,53.331754],[-9.519754,53.331772],[-9.519698,53.33181],[-9.519515,53.331956],[-9.519497,53.331995],[-9.519436,53.332028],[-9.51941,53.332056],[-9.519326,53.332169],[-9.519284,53.33219],[-9.519212,53.332197],[-9.519139,53.332196],[-9.519039,53.332197],[-9.518986,53.332211],[-9.518964,53.332234],[-9.518964,53.332253],[-9.518985,53.332289],[-9.519125,53.332361],[-9.519121,53.332382],[-9.518994,53.33247],[-9.51896,53.332496],[-9.518903,53.332503],[-9.518833,53.332479],[-9.518801,53.332435],[-9.518762,53.332392],[-9.518727,53.332393],[-9.51872,53.332411],[-9.518706,53.332439],[-9.518688,53.33248],[-9.518709,53.332542],[-9.518771,53.332591],[-9.518979,53.332628],[-9.519022,53.332646],[-9.519022,53.332669],[-9.518914,53.332748],[-9.518904,53.332794],[-9.518931,53.33283],[-9.51899,53.332857],[-9.519287,53.332934],[-9.51931,53.332957],[-9.519284,53.33298],[-9.519216,53.332992],[-9.519174,53.333006],[-9.519087,53.333062],[-9.519081,53.333108],[-9.519059,53.333131],[-9.519013,53.333136],[-9.518952,53.33313],[-9.51889,53.333115],[-9.518825,53.333113],[-9.518753,53.333139],[-9.518696,53.333144],[-9.518662,53.333179],[-9.518421,53.333298],[-9.518402,53.333304],[-9.518403,53.333321],[-9.518328,53.333322],[-9.518326,53.333322],[-9.518272,53.333323],[-9.518272,53.333322],[-9.517745,53.333329],[-9.517733,53.333358],[-9.517684,53.333372],[-9.517638,53.333359],[-9.517534,53.333365],[-9.517459,53.333402],[-9.517382,53.333408],[-9.517353,53.333431],[-9.517312,53.333489],[-9.517305,53.333516],[-9.51723,53.333549],[-9.517203,53.333556],[-9.517153,53.333534],[-9.517107,53.333543],[-9.517031,53.333576],[-9.517006,53.333613],[-9.516999,53.333645],[-9.51695,53.333685],[-9.516905,53.333717],[-9.51686,53.333878],[-9.516861,53.333903],[-9.516838,53.333913],[-9.516633,53.333961],[-9.516587,53.333963],[-9.516533,53.333941],[-9.516501,53.333914],[-9.516493,53.333882],[-9.516488,53.333852],[-9.516442,53.333837],[-9.5164,53.333837],[-9.516365,53.333849],[-9.516351,53.333867],[-9.516344,53.333897],[-9.516341,53.333929],[-9.516311,53.33395],[-9.516267,53.33401],[-9.516247,53.334125],[-9.516245,53.334176],[-9.516223,53.334217],[-9.516088,53.334319],[-9.516062,53.334354],[-9.516023,53.334464],[-9.515982,53.334488],[-9.515917,53.334493],[-9.515852,53.334489],[-9.515794,53.334473],[-9.515744,53.334453],[-9.515695,53.334377],[-9.51568,53.33441],[-9.515629,53.334525],[-9.515466,53.334886],[-9.515307,53.335226],[-9.515141,53.335581],[-9.515103,53.335675],[-9.515079,53.335736],[-9.51511,53.335734],[-9.515218,53.335715],[-9.515377,53.335675],[-9.515874,53.33555],[-9.516634,53.33535],[-9.517308,53.335171],[-9.517617,53.335084],[-9.517883,53.335005],[-9.51807,53.334948],[-9.518289,53.334864],[-9.518597,53.334756],[-9.518727,53.334726],[-9.518807,53.33472],[-9.518899,53.33473],[-9.519024,53.334758],[-9.519511,53.334908],[-9.520474,53.335174],[-9.521182,53.335368],[-9.522263,53.335673],[-9.523063,53.335896],[-9.523333,53.335968],[-9.52358,53.336032],[-9.52362,53.336042],[-9.523889,53.336104],[-9.524058,53.336129],[-9.524174,53.336127],[-9.524197,53.336124],[-9.524286,53.33611],[-9.524416,53.336082],[-9.524666,53.336018],[-9.524888,53.335961],[-9.52533,53.335851],[-9.52541,53.335774],[-9.525552,53.335636],[-9.525849,53.335283],[-9.525873,53.335254],[-9.525887,53.335239],[-9.526174,53.334919],[-9.526308,53.334766],[-9.526353,53.334714],[-9.526503,53.334542],[-9.526654,53.33434],[-9.526676,53.334311],[-9.526835,53.334098],[-9.526958,53.333927],[-9.526977,53.333901],[-9.526996,53.333873],[-9.527065,53.333785],[-9.527185,53.333699],[-9.527286,53.333638],[-9.527376,53.333585],[-9.527732,53.333351],[-9.528152,53.333073],[-9.528579,53.33279],[-9.528711,53.332705],[-9.528856,53.33261],[-9.528916,53.33257],[-9.529309,53.332302],[-9.529928,53.331929],[-9.530147,53.331791],[-9.530367,53.331653],[-9.530575,53.331508],[-9.53066,53.331449],[-9.530955,53.331243],[-9.531282,53.331017],[-9.531387,53.331025],[-9.531491,53.331027],[-9.531524,53.330999],[-9.531701,53.330867],[-9.531742,53.330844],[-9.532118,53.330863],[-9.532248,53.330866],[-9.532486,53.33084],[-9.532582,53.330835],[-9.532631,53.330841],[-9.532686,53.330916],[-9.532721,53.330937],[-9.53275,53.330932],[-9.532768,53.330909],[-9.532994,53.330701],[-9.533034,53.330684],[-9.533082,53.330672],[-9.53312,53.33068],[-9.533243,53.33078],[-9.533356,53.330813],[-9.533464,53.330894],[-9.533494,53.330897],[-9.53371,53.330899],[-9.533936,53.330926],[-9.534088,53.331054],[-9.534164,53.331122],[-9.534217,53.331174],[-9.534269,53.331203],[-9.534296,53.33121],[-9.534386,53.33124],[-9.534547,53.331294],[-9.535091,53.331477],[-9.535516,53.331484],[-9.535993,53.331505],[-9.53618,53.331583],[-9.536318,53.331601],[-9.536861,53.331489],[-9.538064,53.331501],[-9.538224,53.331502],[-9.538438,53.331457],[-9.538632,53.331386],[-9.538776,53.331364],[-9.539141,53.331338],[-9.539628,53.331197],[-9.539824,53.331158],[-9.539996,53.331036],[-9.540116,53.330952],[-9.540219,53.330902],[-9.540373,53.330841],[-9.540508,53.330787],[-9.540623,53.330763],[-9.540692,53.330753],[-9.540804,53.330736],[-9.540895,53.330737],[-9.540953,53.330734],[-9.540981,53.330723],[-9.540991,53.330696],[-9.541047,53.330416],[-9.541003,53.330245],[-9.54105,53.330093],[-9.541067,53.330038],[-9.541096,53.329947],[-9.541108,53.329501],[-9.541057,53.329502],[-9.541015,53.329494],[-9.540929,53.329469],[-9.540901,53.329441],[-9.54087,53.329408],[-9.540842,53.329355],[-9.540836,53.329305],[-9.540849,53.329262],[-9.540892,53.329137],[-9.540912,53.329079],[-9.540911,53.329047],[-9.540883,53.329012],[-9.540831,53.328995],[-9.540797,53.328987],[-9.54073,53.328998],[-9.540672,53.329026],[-9.540627,53.329023],[-9.540596,53.328999],[-9.540595,53.328979],[-9.540639,53.328953],[-9.540672,53.328932],[-9.54065,53.328869],[-9.540623,53.328834],[-9.540542,53.328771],[-9.540533,53.328733],[-9.540483,53.328696],[-9.540407,53.328662],[-9.540361,53.328634],[-9.540323,53.328601],[-9.540332,53.328554],[-9.540304,53.328546],[-9.540278,53.328518],[-9.540242,53.328507],[-9.540113,53.32849],[-9.540082,53.328475],[-9.540077,53.328454],[-9.540075,53.328412],[-9.540128,53.328362],[-9.540165,53.328317],[-9.540205,53.328163],[-9.540205,53.328058],[-9.540158,53.327954],[-9.540112,53.327875],[-9.540107,53.327847],[-9.540062,53.327806],[-9.540006,53.327755],[-9.539938,53.327712],[-9.53984,53.327587],[-9.539768,53.327456],[-9.539726,53.327365],[-9.539731,53.3273],[-9.539811,53.327157],[-9.539886,53.32709],[-9.53992,53.32708],[-9.539975,53.327087],[-9.540031,53.327116],[-9.54016,53.327147],[-9.540212,53.327169],[-9.540251,53.327183],[-9.540317,53.327177],[-9.540371,53.327156],[-9.540488,53.327075],[-9.540607,53.327029],[-9.540655,53.326981],[-9.540688,53.326918],[-9.540771,53.326861],[-9.540808,53.326811],[-9.54081,53.326767],[-9.540909,53.326726],[-9.540966,53.326681],[-9.541042,53.326626],[-9.541083,53.326588],[-9.541119,53.326527],[-9.541118,53.326497],[-9.541132,53.326454],[-9.541162,53.32644],[-9.54119,53.326458],[-9.541237,53.326469],[-9.541259,53.326436],[-9.541262,53.326404],[-9.541261,53.326371],[-9.541279,53.32635],[-9.541318,53.326333],[-9.541328,53.326314],[-9.541367,53.326311],[-9.541399,53.326322],[-9.541449,53.326322],[-9.541496,53.326312],[-9.541565,53.326299],[-9.541607,53.326287],[-9.541653,53.326258],[-9.541699,53.326253],[-9.541762,53.326266],[-9.541801,53.326268],[-9.541857,53.32622],[-9.541917,53.326166],[-9.541938,53.326109],[-9.54198,53.326067],[-9.542009,53.326125],[-9.542035,53.326185],[-9.542049,53.326234],[-9.542102,53.326301],[-9.542116,53.326363],[-9.542137,53.326403],[-9.542177,53.326435],[-9.542204,53.326521],[-9.542246,53.326588],[-9.542236,53.326646],[-9.542253,53.326683],[-9.54232,53.326701],[-9.542386,53.326704],[-9.542517,53.326677],[-9.542586,53.326643],[-9.542686,53.326607],[-9.542786,53.326594],[-9.54281,53.326596],[-9.542837,53.32498],[-9.543032,53.323966],[-9.543028,53.323934],[-9.542296,53.324533],[-9.541601,53.324621],[-9.541003,53.324221],[-9.540767,53.32407],[-9.54015,53.323941],[-9.539689,53.323951],[-9.539266,53.323837],[-9.539316,53.323525],[-9.539382,53.323345],[-9.539353,53.323341],[-9.539187,53.323313],[-9.538721,53.32321],[-9.538421,53.323109],[-9.538284,53.323062],[-9.538235,53.323037],[-9.538195,53.322996],[-9.538097,53.322836],[-9.538024,53.322772],[-9.537998,53.322688],[-9.537979,53.322621],[-9.53798,53.322542],[-9.537985,53.32246],[-9.537961,53.32236],[-9.538018,53.322233],[-9.538074,53.322176],[-9.538242,53.322067],[-9.538298,53.322038],[-9.538361,53.321967],[-9.538449,53.321783],[-9.538565,53.321509],[-9.538367,53.321458],[-9.538204,53.321435],[-9.538072,53.321427],[-9.53809,53.321368],[-9.538101,53.321308],[-9.538192,53.321189],[-9.538187,53.321042],[-9.538177,53.320773],[-9.538228,53.320772],[-9.538214,53.32074],[-9.538267,53.320231],[-9.538287,53.320196],[-9.538314,53.32017],[-9.538242,53.319889],[-9.538204,53.319808],[-9.538201,53.319765],[-9.538223,53.319723],[-9.538134,53.31947],[-9.537911,53.319487],[-9.537876,53.319484],[-9.537801,53.319486],[-9.537583,53.319488],[-9.537566,53.319466],[-9.53756,53.319445],[-9.537578,53.319405],[-9.53764,53.319301],[-9.537573,53.319286],[-9.537522,53.319329],[-9.537425,53.319367],[-9.53732,53.319383],[-9.537227,53.319377],[-9.537215,53.319372],[-9.536967,53.319394],[-9.53682,53.319416],[-9.536481,53.319458],[-9.536343,53.319473],[-9.536173,53.319491],[-9.53604,53.319506],[-9.53583,53.319412],[-9.535786,53.319396],[-9.535303,53.319219],[-9.534524,53.3189],[-9.53465,53.318709],[-9.534954,53.318294],[-9.535104,53.318058],[-9.535091,53.317875],[-9.535089,53.31773],[-9.535112,53.317635],[-9.535193,53.317454],[-9.535317,53.317305],[-9.535374,53.317285],[-9.53544,53.31727],[-9.535512,53.317258],[-9.535605,53.317253],[-9.535743,53.317259],[-9.535824,53.317277],[-9.535885,53.317287],[-9.5359,53.317296],[-9.53594,53.317292],[-9.535986,53.317276],[-9.536018,53.317255],[-9.536159,53.317221],[-9.536258,53.317214],[-9.536372,53.31721],[-9.536478,53.317216],[-9.536679,53.317144],[-9.536779,53.317116],[-9.536861,53.317079],[-9.536899,53.317071],[-9.536957,53.317047],[-9.537071,53.317032],[-9.537223,53.316999],[-9.537264,53.316985],[-9.537292,53.316963],[-9.537333,53.31694],[-9.53737,53.316925],[-9.53751,53.316888],[-9.537645,53.316869],[-9.53771,53.316866],[-9.537803,53.316843],[-9.537915,53.316813],[-9.538067,53.316787],[-9.538156,53.316769],[-9.538326,53.316733],[-9.538414,53.316712],[-9.538513,53.316691],[-9.538664,53.316672],[-9.538812,53.316656],[-9.538879,53.316654],[-9.538949,53.316668],[-9.538984,53.316673],[-9.53901,53.316676],[-9.539052,53.316672],[-9.539176,53.316644],[-9.539212,53.316641],[-9.539256,53.316645],[-9.539278,53.316656],[-9.539447,53.316829],[-9.539452,53.316881],[-9.539457,53.316937],[-9.539508,53.317039],[-9.53948,53.317179],[-9.539486,53.317228],[-9.541522,53.317082],[-9.541674,53.316982],[-9.541937,53.317018],[-9.542112,53.317031],[-9.542222,53.317041],[-9.542309,53.317043],[-9.542415,53.317047],[-9.542502,53.317042],[-9.542684,53.317023],[-9.542868,53.316994],[-9.543073,53.316985],[-9.54319,53.31698],[-9.543231,53.316977],[-9.54333,53.31694],[-9.543466,53.316944],[-9.543883,53.316959],[-9.544062,53.316957],[-9.544183,53.316954],[-9.544334,53.317081],[-9.544522,53.31724],[-9.544622,53.317199],[-9.544979,53.317079],[-9.545194,53.317055],[-9.545561,53.317088],[-9.545618,53.317084],[-9.545615,53.317039],[-9.545603,53.316808],[-9.545632,53.316768],[-9.545762,53.316587],[-9.54611,53.31623],[-9.546097,53.316063],[-9.546297,53.315961],[-9.546339,53.315928],[-9.54653,53.315701],[-9.546652,53.315579],[-9.546724,53.315531],[-9.546808,53.315493],[-9.54687,53.315461],[-9.546936,53.315411],[-9.546956,53.315389],[-9.546989,53.31526],[-9.54701,53.315213],[-9.547072,53.315124],[-9.547199,53.314967],[-9.547434,53.314685],[-9.547527,53.314484],[-9.547644,53.314312],[-9.547903,53.313984],[-9.547722,53.313971],[-9.547135,53.313978],[-9.5472,53.313737],[-9.547275,53.313421],[-9.547328,53.313179],[-9.547456,53.312687],[-9.547516,53.3124],[-9.547583,53.312126],[-9.547634,53.311928],[-9.547637,53.311913],[-9.54764,53.311901],[-9.547724,53.31157],[-9.547764,53.311427],[-9.547865,53.311147],[-9.547985,53.310834],[-9.548081,53.310569],[-9.548197,53.310266],[-9.548218,53.310217],[-9.548375,53.309832],[-9.549137,53.309896],[-9.550148,53.309986],[-9.550787,53.310038],[-9.551068,53.310064],[-9.551561,53.31011],[-9.551525,53.310059],[-9.551451,53.309627],[-9.551402,53.309417],[-9.551371,53.309099],[-9.551288,53.308758],[-9.551241,53.308481],[-9.551148,53.307808],[-9.551042,53.307206],[-9.550932,53.306604],[-9.550891,53.306551],[-9.550901,53.306502],[-9.550852,53.30626],[-9.55087,53.306211],[-9.550791,53.305804],[-9.550665,53.305009],[-9.550654,53.304729],[-9.550657,53.304524],[-9.550657,53.30441],[-9.550673,53.304243],[-9.550247,53.302582],[-9.553733,53.302718],[-9.553725,53.302505],[-9.554625,53.302494],[-9.554635,53.302753],[-9.554839,53.302761],[-9.554926,53.302627],[-9.555026,53.302514],[-9.555135,53.302407],[-9.555212,53.302303],[-9.555296,53.302265],[-9.555433,53.302193],[-9.555473,53.302175],[-9.555582,53.302128],[-9.555684,53.302061],[-9.555755,53.301992],[-9.555799,53.301917],[-9.555854,53.30183],[-9.555968,53.301768],[-9.556016,53.301718],[-9.556009,53.301639],[-9.556022,53.301564],[-9.55607,53.301522],[-9.556126,53.301451],[-9.55614,53.301427],[-9.556139,53.301395],[-9.556128,53.301383],[-9.556112,53.301347],[-9.55603,53.301332],[-9.555958,53.301308],[-9.555914,53.301251],[-9.555927,53.301169],[-9.555893,53.301105],[-9.555936,53.301032],[-9.555949,53.30098],[-9.555889,53.300944],[-9.555958,53.30091],[-9.556013,53.300872],[-9.556032,53.300844],[-9.556025,53.300799],[-9.555983,53.30079],[-9.555913,53.300773],[-9.555885,53.300717],[-9.555875,53.300625],[-9.555819,53.300516],[-9.555897,53.300483],[-9.556061,53.30046],[-9.556227,53.300514],[-9.556368,53.300498],[-9.556456,53.300392],[-9.556481,53.30033],[-9.556445,53.300305],[-9.556414,53.300306],[-9.556384,53.300306],[-9.556357,53.300299],[-9.556356,53.300291],[-9.556395,53.300269],[-9.556422,53.300259],[-9.556449,53.300259],[-9.556465,53.30025],[-9.556475,53.300239],[-9.556475,53.300223],[-9.556452,53.300206],[-9.556439,53.300193],[-9.556429,53.300176],[-9.556424,53.300161],[-9.55641,53.300159],[-9.556386,53.300166],[-9.556358,53.300178],[-9.556338,53.30019],[-9.556328,53.300204],[-9.556335,53.300213],[-9.556351,53.300217],[-9.556366,53.300226],[-9.556373,53.300224],[-9.556379,53.300228],[-9.556353,53.30023],[-9.556341,53.300238],[-9.556324,53.300255],[-9.556306,53.300258],[-9.556258,53.30027],[-9.556209,53.300265],[-9.556186,53.300262],[-9.556178,53.30025],[-9.556186,53.300215],[-9.556177,53.300201],[-9.556162,53.300177],[-9.556129,53.3001],[-9.556084,53.300036],[-9.556022,53.299997],[-9.555956,53.299984],[-9.555867,53.299985],[-9.555806,53.299972],[-9.555691,53.299958],[-9.555593,53.299977],[-9.555539,53.299974],[-9.555497,53.29993],[-9.555468,53.299893],[-9.555397,53.299887],[-9.55529,53.299906],[-9.55513,53.299917],[-9.555015,53.299917],[-9.554935,53.299913],[-9.554834,53.299844],[-9.554779,53.299814],[-9.554773,53.299775],[-9.554723,53.299692],[-9.5547,53.299639],[-9.554619,53.29958],[-9.554514,53.299547],[-9.554424,53.299493],[-9.554441,53.299462],[-9.554489,53.299446],[-9.554597,53.29943],[-9.554627,53.29939],[-9.554658,53.29936],[-9.554715,53.299308],[-9.554857,53.299219],[-9.554902,53.299169],[-9.554867,53.299115],[-9.554803,53.29909],[-9.554792,53.299063],[-9.554836,53.299024],[-9.5549,53.29898],[-9.555048,53.29871],[-9.555093,53.298611],[-9.555113,53.298562],[-9.555134,53.298513],[-9.555103,53.298433],[-9.555149,53.298361],[-9.555125,53.298292],[-9.555048,53.298294],[-9.554917,53.298287],[-9.554836,53.298229],[-9.554783,53.298125],[-9.554782,53.29807],[-9.554756,53.298029],[-9.554677,53.298021],[-9.554559,53.297947],[-9.554551,53.297898],[-9.55463,53.297636],[-9.554619,53.297571],[-9.554814,53.297538],[-9.55488,53.297568],[-9.554941,53.297616],[-9.55497,53.297586],[-9.555038,53.297584],[-9.555285,53.297781],[-9.555461,53.29779],[-9.555464,53.297781],[-9.555538,53.297527],[-9.555551,53.297483],[-9.555567,53.29743],[-9.555529,53.297239],[-9.555442,53.297159],[-9.555278,53.297097],[-9.554813,53.296974],[-9.5546,53.29667],[-9.554165,53.296117],[-9.553867,53.295655],[-9.553849,53.295635],[-9.553748,53.295522],[-9.553614,53.295443],[-9.553543,53.295433],[-9.55338,53.295412],[-9.553355,53.295407],[-9.55328,53.295391],[-9.553255,53.295386],[-9.553222,53.295387],[-9.553193,53.295409],[-9.553151,53.295425],[-9.553083,53.295439],[-9.553065,53.295466],[-9.552957,53.295514],[-9.552898,53.295514],[-9.552841,53.295503],[-9.55279,53.295488],[-9.55271,53.295493],[-9.552674,53.2955],[-9.55265,53.295587],[-9.552581,53.295631],[-9.552565,53.295668],[-9.552645,53.295717],[-9.552699,53.295764],[-9.552707,53.295825],[-9.55265,53.295905],[-9.552592,53.295968],[-9.55258,53.296021],[-9.552627,53.296062],[-9.552605,53.296127],[-9.552551,53.296132],[-9.552551,53.296176],[-9.552581,53.296233],[-9.552596,53.296269],[-9.552577,53.296314],[-9.552543,53.29636],[-9.552509,53.296358],[-9.55247,53.296353],[-9.552443,53.296347],[-9.55242,53.296348],[-9.552366,53.296363],[-9.552357,53.296389],[-9.55236,53.296417],[-9.552382,53.296457],[-9.552384,53.296463],[-9.552403,53.296473],[-9.552279,53.296725],[-9.552109,53.296817],[-9.551976,53.296862],[-9.551723,53.296851],[-9.551624,53.296854],[-9.551607,53.296853],[-9.55161,53.29695],[-9.55125,53.296954],[-9.551219,53.297005],[-9.551189,53.297044],[-9.551117,53.297124],[-9.551101,53.297155],[-9.551109,53.297176],[-9.551126,53.297193],[-9.551143,53.297216],[-9.55115,53.297262],[-9.551149,53.297348],[-9.551167,53.297404],[-9.551174,53.297432],[-9.551195,53.297455],[-9.551245,53.297498],[-9.551268,53.297516],[-9.551286,53.29754],[-9.551286,53.297569],[-9.551274,53.2976],[-9.551242,53.297637],[-9.551212,53.297677],[-9.551134,53.297736],[-9.551113,53.297755],[-9.551083,53.297778],[-9.551073,53.297781],[-9.551035,53.297796],[-9.551016,53.297802],[-9.551009,53.297802],[-9.550975,53.297805],[-9.550941,53.297812],[-9.55093,53.297817],[-9.550885,53.297836],[-9.550881,53.297857],[-9.550881,53.297881],[-9.550876,53.297904],[-9.550861,53.297923],[-9.55085,53.297938],[-9.550854,53.297957],[-9.550855,53.297973],[-9.550852,53.297993],[-9.550841,53.298009],[-9.550829,53.298025],[-9.550821,53.298052],[-9.550838,53.298091],[-9.550863,53.298112],[-9.55091,53.298142],[-9.550911,53.298152],[-9.550903,53.29816],[-9.550882,53.298176],[-9.550835,53.2982],[-9.550822,53.298214],[-9.550793,53.298229],[-9.550764,53.298249],[-9.550719,53.298265],[-9.550686,53.298274],[-9.550658,53.298282],[-9.550647,53.298292],[-9.550629,53.298305],[-9.550612,53.298314],[-9.550588,53.298332],[-9.550579,53.298348],[-9.550572,53.298356],[-9.55056,53.298361],[-9.550547,53.298362],[-9.550532,53.29836],[-9.550512,53.298362],[-9.550499,53.298369],[-9.550489,53.29838],[-9.550482,53.298389],[-9.550468,53.298396],[-9.550452,53.298394],[-9.550433,53.298392],[-9.550417,53.298394],[-9.550405,53.298401],[-9.55039,53.298415],[-9.550379,53.298427],[-9.550368,53.298443],[-9.55036,53.298459],[-9.550351,53.298502],[-9.550363,53.298529],[-9.550368,53.298548],[-9.550371,53.298568],[-9.55037,53.298587],[-9.550378,53.298612],[-9.550386,53.298623],[-9.550395,53.298643],[-9.550389,53.298656],[-9.55038,53.298668],[-9.550371,53.298677],[-9.550354,53.298684],[-9.55033,53.298691],[-9.550308,53.298696],[-9.550277,53.2987],[-9.550212,53.298702],[-9.550196,53.298697],[-9.550176,53.298689],[-9.550162,53.298684],[-9.550118,53.298678],[-9.55008,53.298675],[-9.550029,53.298682],[-9.549947,53.298694],[-9.549918,53.298696],[-9.549879,53.298707],[-9.549861,53.298714],[-9.549845,53.298721],[-9.549826,53.298728],[-9.549803,53.298732],[-9.549773,53.298732],[-9.549754,53.298729],[-9.549739,53.298722],[-9.549714,53.298719],[-9.549683,53.298723],[-9.549659,53.29873],[-9.549609,53.298738],[-9.54957,53.298741],[-9.549504,53.298744],[-9.549469,53.298744],[-9.549427,53.298738],[-9.549396,53.298725],[-9.549361,53.298719],[-9.549341,53.298721],[-9.549316,53.298729],[-9.549284,53.298743],[-9.549261,53.29875],[-9.549238,53.298755],[-9.549209,53.298755],[-9.549153,53.298747],[-9.549097,53.298736],[-9.549074,53.298728],[-9.549055,53.298722],[-9.549022,53.298719],[-9.549002,53.298719],[-9.548979,53.298721],[-9.548956,53.298717],[-9.548939,53.298711],[-9.548917,53.298706],[-9.54883,53.298706],[-9.548778,53.298713],[-9.548733,53.298711],[-9.548667,53.298711],[-9.548646,53.298709],[-9.548617,53.298706],[-9.548573,53.298707],[-9.548539,53.298712],[-9.548513,53.298718],[-9.548486,53.298721],[-9.54848,53.298718],[-9.548459,53.298712],[-9.548432,53.298708],[-9.548404,53.298711],[-9.548392,53.29872],[-9.548387,53.298731],[-9.548391,53.298745],[-9.548393,53.298758],[-9.548392,53.298783],[-9.54839,53.298797],[-9.548375,53.298826],[-9.548359,53.298837],[-9.548331,53.298843],[-9.548312,53.298842],[-9.54829,53.298835],[-9.54823,53.29883],[-9.548148,53.298827],[-9.548125,53.298825],[-9.548108,53.298832],[-9.548087,53.298842],[-9.548013,53.298896],[-9.547994,53.298907],[-9.547978,53.29892],[-9.547954,53.298926],[-9.547941,53.298948],[-9.547917,53.298954],[-9.547901,53.29895],[-9.547887,53.298942],[-9.547875,53.298931],[-9.547871,53.298914],[-9.547862,53.298902],[-9.547835,53.298891],[-9.547804,53.29888],[-9.547778,53.298878],[-9.547766,53.29888],[-9.547753,53.298892],[-9.547731,53.298895],[-9.547718,53.2989],[-9.547701,53.298911],[-9.547688,53.298923],[-9.547666,53.298942],[-9.547652,53.29895],[-9.547632,53.29896],[-9.547621,53.29897],[-9.547614,53.298983],[-9.547608,53.298996],[-9.547594,53.299017],[-9.547584,53.299024],[-9.547544,53.299041],[-9.54752,53.299053],[-9.54749,53.299063],[-9.547468,53.299069],[-9.547449,53.299078],[-9.54743,53.299091],[-9.547425,53.299098],[-9.547433,53.29911],[-9.547439,53.299138],[-9.547436,53.299154],[-9.547413,53.299185],[-9.547413,53.299204],[-9.547421,53.299246],[-9.547411,53.299271],[-9.547392,53.299276],[-9.547371,53.299278],[-9.547349,53.299291],[-9.547311,53.299302],[-9.547306,53.299307],[-9.547293,53.299307],[-9.547268,53.299304],[-9.547237,53.299308],[-9.547201,53.299317],[-9.547185,53.299327],[-9.547167,53.29934],[-9.547141,53.299349],[-9.547046,53.299369],[-9.547015,53.299376],[-9.546926,53.299391],[-9.546896,53.299403],[-9.546861,53.299412],[-9.546763,53.299443],[-9.546732,53.299448],[-9.546706,53.299453],[-9.546646,53.299469],[-9.54659,53.299471],[-9.546557,53.299467],[-9.54653,53.299468],[-9.546485,53.299478],[-9.546457,53.299486],[-9.546436,53.299495],[-9.546412,53.299504],[-9.546385,53.299512],[-9.546357,53.299521],[-9.546333,53.299527],[-9.546309,53.299529],[-9.54625,53.299531],[-9.546223,53.299535],[-9.546184,53.299537],[-9.546163,53.299534],[-9.546142,53.299527],[-9.546127,53.29952],[-9.546108,53.299517],[-9.546092,53.29952],[-9.546075,53.299529],[-9.546028,53.299531],[-9.54601,53.299528],[-9.545999,53.299517],[-9.545996,53.299503],[-9.545996,53.299491],[-9.54599,53.299473],[-9.545984,53.299463],[-9.545977,53.299456],[-9.545966,53.299451],[-9.545943,53.299448],[-9.545916,53.299449],[-9.545889,53.299456],[-9.545869,53.299471],[-9.545837,53.299508],[-9.545822,53.299523],[-9.545801,53.299534],[-9.545784,53.299547],[-9.545765,53.299566],[-9.545727,53.299583],[-9.545699,53.299584],[-9.54566,53.299579],[-9.545608,53.299578],[-9.545574,53.299585],[-9.54553,53.299607],[-9.545501,53.29962],[-9.545431,53.299636],[-9.545403,53.299633],[-9.545381,53.299619],[-9.545329,53.299567],[-9.545289,53.299523],[-9.545276,53.299505],[-9.545291,53.299479],[-9.545294,53.299474],[-9.545294,53.299443],[-9.545294,53.299442],[-9.545294,53.299441],[-9.545294,53.299439],[-9.545286,53.299423],[-9.545263,53.299402],[-9.545244,53.299389],[-9.545241,53.299387],[-9.545215,53.299372],[-9.545176,53.299355],[-9.545155,53.29935],[-9.545126,53.299339],[-9.545065,53.299327],[-9.545012,53.299315],[-9.544964,53.299316],[-9.544939,53.299315],[-9.54489,53.299308],[-9.544855,53.299305],[-9.544823,53.299294],[-9.544798,53.299289],[-9.544776,53.299284],[-9.544754,53.299277],[-9.544736,53.29927],[-9.544711,53.299258],[-9.544688,53.299253],[-9.544664,53.299243],[-9.544646,53.299234],[-9.544597,53.299224],[-9.544579,53.299217],[-9.544576,53.299207],[-9.544586,53.299196],[-9.54459,53.299182],[-9.544589,53.299131],[-9.544588,53.299113],[-9.544585,53.299096],[-9.544586,53.299082],[-9.544592,53.299061],[-9.544592,53.299041],[-9.544589,53.29903],[-9.544584,53.299008],[-9.544583,53.298973],[-9.544594,53.298937],[-9.544605,53.298926],[-9.544642,53.298908],[-9.544648,53.298899],[-9.544645,53.298883],[-9.544626,53.298842],[-9.544616,53.29883],[-9.5446,53.298818],[-9.544587,53.29881],[-9.544566,53.298803],[-9.544552,53.2988],[-9.544531,53.298798],[-9.544512,53.298797],[-9.544502,53.298798],[-9.544482,53.298802],[-9.544466,53.298802],[-9.5444,53.298792],[-9.544374,53.298794],[-9.54435,53.298797],[-9.544335,53.2988],[-9.544312,53.298807],[-9.544285,53.298813],[-9.544238,53.298832],[-9.544218,53.29885],[-9.544206,53.298865],[-9.544187,53.298901],[-9.544171,53.298913],[-9.544153,53.298923],[-9.544119,53.298938],[-9.544086,53.29896],[-9.54407,53.298974],[-9.544056,53.298983],[-9.54405,53.298992],[-9.544045,53.298996],[-9.544032,53.298998],[-9.544023,53.298995],[-9.544013,53.298989],[-9.544004,53.298985],[-9.543987,53.298984],[-9.543966,53.298987],[-9.543947,53.298991],[-9.543928,53.298993],[-9.543915,53.299002],[-9.543892,53.299011],[-9.54386,53.29904],[-9.543836,53.299051],[-9.543808,53.299058],[-9.543788,53.299081],[-9.543766,53.299096],[-9.54374,53.299105],[-9.543717,53.299118],[-9.543691,53.299135],[-9.543673,53.299149],[-9.54366,53.299163],[-9.543657,53.29918],[-9.54365,53.299191],[-9.54364,53.299201],[-9.543622,53.299217],[-9.543599,53.299242],[-9.543566,53.299262],[-9.543514,53.299286],[-9.543494,53.299299],[-9.543475,53.299312],[-9.54345,53.299336],[-9.543429,53.299355],[-9.54343,53.299383],[-9.543442,53.29944],[-9.543442,53.299466],[-9.543434,53.299477],[-9.543413,53.2995],[-9.543376,53.299545],[-9.54335,53.299602],[-9.543334,53.299617],[-9.543299,53.299635],[-9.543262,53.299648],[-9.543243,53.299661],[-9.543197,53.29971],[-9.543183,53.29972],[-9.543175,53.299738],[-9.543171,53.299755],[-9.544211,53.299741],[-9.544244,53.30064],[-9.542744,53.300659],[-9.542712,53.29977],[-9.542686,53.299761],[-9.542642,53.29976],[-9.542594,53.299748],[-9.542557,53.299774],[-9.542538,53.299777],[-9.542528,53.2998],[-9.542499,53.299813],[-9.542451,53.299812],[-9.54244,53.299848],[-9.542424,53.299921],[-9.542435,53.299953],[-9.542453,53.299976],[-9.542531,53.299972],[-9.542561,53.29999],[-9.542588,53.300012],[-9.542619,53.300042],[-9.54261,53.300054],[-9.542596,53.300057],[-9.542497,53.300081],[-9.542491,53.300098],[-9.542431,53.300159],[-9.542379,53.300177],[-9.542374,53.300196],[-9.542399,53.300208],[-9.542382,53.300233],[-9.542365,53.300243],[-9.542329,53.300258],[-9.542296,53.300292],[-9.542255,53.300322],[-9.542257,53.300345],[-9.54222,53.300371],[-9.542184,53.300382],[-9.542162,53.300395],[-9.542138,53.3004],[-9.542113,53.300391],[-9.542094,53.300394],[-9.542076,53.300411],[-9.542037,53.300408],[-9.54202,53.300408],[-9.542001,53.300409],[-9.541977,53.300404],[-9.541935,53.300401],[-9.541894,53.30041],[-9.541871,53.300426],[-9.541826,53.300461],[-9.541832,53.300484],[-9.541856,53.300514],[-9.541875,53.300587],[-9.541889,53.30062],[-9.5419,53.300635],[-9.541914,53.300651],[-9.541886,53.30066],[-9.541848,53.300665],[-9.541815,53.300674],[-9.541793,53.300694],[-9.541765,53.30071],[-9.541727,53.30072],[-9.541699,53.300746],[-9.541687,53.300773],[-9.541712,53.300786],[-9.54173,53.30078],[-9.541783,53.300799],[-9.541808,53.300817],[-9.541816,53.300857],[-9.541806,53.30088],[-9.541783,53.300898],[-9.541743,53.300904],[-9.541702,53.300908],[-9.541659,53.300908],[-9.541583,53.300913],[-9.54152,53.300915],[-9.541416,53.300919],[-9.541409,53.300963],[-9.541412,53.300987],[-9.541387,53.301021],[-9.541347,53.301032],[-9.541284,53.301043],[-9.541233,53.30107],[-9.541181,53.301084],[-9.541145,53.301081],[-9.541113,53.301067],[-9.541115,53.301055],[-9.541135,53.301035],[-9.541134,53.301022],[-9.541108,53.301018],[-9.541087,53.301024],[-9.541068,53.301022],[-9.541043,53.301012],[-9.541015,53.301007],[-9.540996,53.301018],[-9.540968,53.301029],[-9.540964,53.301047],[-9.54098,53.301068],[-9.540961,53.301086],[-9.540924,53.301096],[-9.540879,53.301121],[-9.540812,53.301146],[-9.540748,53.301173],[-9.540718,53.301214],[-9.540707,53.301218],[-9.540671,53.30123],[-9.540665,53.301203],[-9.540639,53.301189],[-9.540595,53.301183],[-9.540538,53.301195],[-9.540523,53.301209],[-9.540517,53.301233],[-9.540498,53.301238],[-9.540473,53.301226],[-9.54045,53.30123],[-9.540443,53.301256],[-9.540445,53.301278],[-9.540458,53.301314],[-9.540413,53.301394],[-9.540403,53.301424],[-9.540372,53.301433],[-9.540295,53.301429],[-9.540277,53.301431],[-9.540254,53.301447],[-9.540259,53.301501],[-9.540253,53.301529],[-9.54026,53.301559],[-9.540256,53.301585],[-9.540249,53.301589],[-9.540243,53.301593],[-9.540236,53.301593],[-9.540229,53.301589],[-9.540219,53.301581],[-9.540195,53.301577],[-9.54018,53.301566],[-9.540136,53.301562],[-9.540121,53.301573],[-9.540122,53.301591],[-9.540151,53.301625],[-9.54012,53.301709],[-9.540098,53.301758],[-9.54002,53.301741],[-9.540015,53.30182],[-9.539922,53.301821],[-9.539887,53.301808],[-9.539832,53.301806],[-9.53983,53.301841],[-9.539808,53.30187],[-9.539761,53.30187],[-9.539735,53.301901],[-9.539693,53.30192],[-9.539646,53.301914],[-9.539584,53.301915],[-9.53955,53.30195],[-9.539512,53.301974],[-9.539474,53.301989],[-9.539418,53.301957],[-9.539388,53.30196],[-9.539375,53.301937],[-9.539376,53.301869],[-9.539389,53.301803],[-9.539368,53.301757],[-9.53929,53.301763],[-9.53924,53.301778],[-9.539188,53.301825],[-9.539123,53.301856],[-9.539116,53.301887],[-9.539099,53.30189],[-9.539073,53.301896],[-9.539105,53.30192],[-9.539141,53.301945],[-9.539164,53.301994],[-9.539183,53.302063],[-9.539218,53.30215],[-9.539249,53.302207],[-9.539215,53.302282],[-9.539191,53.302351],[-9.539142,53.302416],[-9.539144,53.302453],[-9.539121,53.302516],[-9.539056,53.302568],[-9.538942,53.302614],[-9.53884,53.302648],[-9.538692,53.302689],[-9.538634,53.302742],[-9.538637,53.302806],[-9.538651,53.302881],[-9.538638,53.302925],[-9.538607,53.303006],[-9.538554,53.303103],[-9.538505,53.303158],[-9.538398,53.303216],[-9.538299,53.303272],[-9.538226,53.303292],[-9.537816,53.303318],[-9.537671,53.303323],[-9.537564,53.303359],[-9.537556,53.303363],[-9.537515,53.30338],[-9.537447,53.303428],[-9.5374,53.303448],[-9.537362,53.303438],[-9.537303,53.303387],[-9.537212,53.303285],[-9.537082,53.303212],[-9.536972,53.303149],[-9.536883,53.303164],[-9.536784,53.303164],[-9.536722,53.303164],[-9.53658,53.303178],[-9.536477,53.30317],[-9.53647,53.303171],[-9.536385,53.303185],[-9.536335,53.303231],[-9.536263,53.303252],[-9.536198,53.303277],[-9.536151,53.303294],[-9.536048,53.303308],[-9.535994,53.303295],[-9.535972,53.30327],[-9.535921,53.303241],[-9.535851,53.303242],[-9.535767,53.303247],[-9.535714,53.303233],[-9.535667,53.303223],[-9.535647,53.303218],[-9.535547,53.303233],[-9.535461,53.303259]],[[-9.526531,53.310964],[-9.526534,53.310987],[-9.52653,53.311],[-9.526544,53.311033],[-9.52656,53.311094],[-9.526585,53.311129],[-9.526617,53.311128],[-9.526604,53.310751],[-9.527419,53.310741],[-9.527497,53.31069],[-9.527429,53.31065],[-9.527351,53.310624],[-9.527369,53.310549],[-9.527342,53.310489],[-9.527339,53.310486],[-9.527296,53.310422],[-9.527251,53.31041],[-9.527212,53.310413],[-9.527121,53.310362],[-9.527044,53.310333],[-9.527034,53.310315],[-9.526956,53.310098],[-9.527009,53.310093],[-9.527139,53.309963],[-9.527182,53.309971],[-9.527191,53.310042],[-9.527224,53.310038],[-9.52727,53.310022],[-9.527314,53.310047],[-9.527325,53.310064],[-9.527317,53.310089],[-9.527343,53.3101],[-9.527629,53.309959],[-9.527735,53.309927],[-9.527743,53.309953],[-9.52774,53.309977],[-9.527783,53.309997],[-9.527821,53.309997],[-9.52788,53.309968],[-9.527988,53.309923],[-9.528009,53.309877],[-9.52801,53.309873],[-9.528013,53.309841],[-9.527989,53.309793],[-9.527997,53.309763],[-9.528008,53.30975],[-9.527997,53.309718],[-9.527916,53.309623],[-9.527869,53.30957],[-9.527838,53.309578],[-9.527791,53.309601],[-9.527676,53.309502],[-9.527601,53.30945],[-9.527586,53.309431],[-9.527567,53.309374],[-9.527639,53.309332],[-9.527855,53.309205],[-9.527893,53.309165],[-9.527907,53.309106],[-9.527927,53.309019],[-9.527952,53.308827],[-9.527995,53.308847],[-9.528084,53.308935],[-9.529106,53.308922],[-9.529175,53.30889],[-9.529287,53.30887],[-9.529322,53.308919],[-9.529539,53.308916],[-9.52955,53.309214],[-9.529555,53.309214],[-9.529581,53.309197],[-9.529584,53.309175],[-9.52974,53.309209],[-9.529751,53.309233],[-9.529737,53.309295],[-9.529636,53.309372],[-9.52964,53.30938],[-9.529686,53.309413],[-9.529739,53.309428],[-9.529776,53.30947],[-9.529819,53.309508],[-9.529805,53.309556],[-9.529843,53.309563],[-9.529874,53.309555],[-9.529901,53.309607],[-9.529952,53.309636],[-9.529999,53.309638],[-9.530041,53.309625],[-9.530077,53.30962],[-9.53013,53.30962],[-9.530152,53.30964],[-9.530151,53.309684],[-9.53009,53.309743],[-9.530074,53.309785],[-9.530114,53.309815],[-9.530117,53.309857],[-9.5301,53.309885],[-9.530066,53.309896],[-9.530028,53.309899],[-9.529965,53.309888],[-9.529925,53.309861],[-9.529921,53.309833],[-9.529898,53.309818],[-9.529839,53.3098],[-9.52984,53.309811],[-9.529912,53.309887],[-9.52996,53.309967],[-9.53,53.309997],[-9.530056,53.310023],[-9.53011,53.310069],[-9.530138,53.310108],[-9.530177,53.310192],[-9.530216,53.31025],[-9.530238,53.310265],[-9.530277,53.310285],[-9.530341,53.310343],[-9.530376,53.310362],[-9.530433,53.310378],[-9.530483,53.310418],[-9.530499,53.310444],[-9.530509,53.310445],[-9.530528,53.310448],[-9.530533,53.310445],[-9.530551,53.310433],[-9.530573,53.310414],[-9.530603,53.310434],[-9.530616,53.310444],[-9.530634,53.310458],[-9.530686,53.310469],[-9.530752,53.310478],[-9.530793,53.310483],[-9.530813,53.310447],[-9.530846,53.310465],[-9.530861,53.310483],[-9.530851,53.31051],[-9.530792,53.31051],[-9.530794,53.310533],[-9.530815,53.310541],[-9.530866,53.310548],[-9.530865,53.310594],[-9.530855,53.310642],[-9.530896,53.310687],[-9.530931,53.310735],[-9.530924,53.310755],[-9.530858,53.310768],[-9.530801,53.310795],[-9.530794,53.310847],[-9.530805,53.310865],[-9.530837,53.310866],[-9.530876,53.310878],[-9.530903,53.310884],[-9.53099,53.310882],[-9.531027,53.310882],[-9.531047,53.310872],[-9.531082,53.310883],[-9.531095,53.310924],[-9.531102,53.311101],[-9.531076,53.311232],[-9.531095,53.311229],[-9.531131,53.311243],[-9.531083,53.311402],[-9.531137,53.311394],[-9.531156,53.311385],[-9.531193,53.311333],[-9.531235,53.311323],[-9.531256,53.311367],[-9.531243,53.311409],[-9.531213,53.311451],[-9.531259,53.311432],[-9.531299,53.311359],[-9.531317,53.311336],[-9.531307,53.311282],[-9.531318,53.311249],[-9.531363,53.311207],[-9.53138,53.311151],[-9.531375,53.311022],[-9.531393,53.310985],[-9.531443,53.310968],[-9.531471,53.310998],[-9.531478,53.311075],[-9.531553,53.311115],[-9.53159,53.311148],[-9.531639,53.311203],[-9.531678,53.311226],[-9.531788,53.311245],[-9.531867,53.311267],[-9.531944,53.311352],[-9.532025,53.311328],[-9.532043,53.311295],[-9.532049,53.311248],[-9.532083,53.311224],[-9.532114,53.31124],[-9.53214,53.311291],[-9.532149,53.311331],[-9.532196,53.311342],[-9.532211,53.311414],[-9.532262,53.311422],[-9.532324,53.311435],[-9.532398,53.31142],[-9.532449,53.311434],[-9.532525,53.311502],[-9.532582,53.311567],[-9.532608,53.311573],[-9.532635,53.311573],[-9.532635,53.311579],[-9.532704,53.311595],[-9.532814,53.311627],[-9.532863,53.311682],[-9.532892,53.311723],[-9.532889,53.311754],[-9.532867,53.311791],[-9.532846,53.311852],[-9.532828,53.312076],[-9.532798,53.312585],[-9.532827,53.312624],[-9.532899,53.312674],[-9.533026,53.312735],[-9.533136,53.312783],[-9.533206,53.312775],[-9.533285,53.312797],[-9.533306,53.312832],[-9.5333,53.312876],[-9.533298,53.31293],[-9.533334,53.312948],[-9.533368,53.312943],[-9.533412,53.312963],[-9.533467,53.312972],[-9.53346,53.313007],[-9.533421,53.313005],[-9.533386,53.313005],[-9.533376,53.313045],[-9.533413,53.31308],[-9.533479,53.31309],[-9.533522,53.313101],[-9.533563,53.313138],[-9.533572,53.313187],[-9.533578,53.313224],[-9.533599,53.313268],[-9.533621,53.313326],[-9.533653,53.313358],[-9.533655,53.3134],[-9.533637,53.313433],[-9.533587,53.313452],[-9.533528,53.313446],[-9.533479,53.313466],[-9.533426,53.313506],[-9.5334,53.313546],[-9.53334,53.313587],[-9.533291,53.313634],[-9.533293,53.313676],[-9.533326,53.313722],[-9.533436,53.313856],[-9.533414,53.313886],[-9.533372,53.313919],[-9.533261,53.313951],[-9.533247,53.313986],[-9.533202,53.314029],[-9.533204,53.314069],[-9.533193,53.314088],[-9.533162,53.31409],[-9.533126,53.314081],[-9.53312,53.31403],[-9.5331,53.314005],[-9.533038,53.314006],[-9.532987,53.314004],[-9.53294,53.314077],[-9.53298,53.314107],[-9.532989,53.31416],[-9.533048,53.314157],[-9.533105,53.314145],[-9.533134,53.314182],[-9.53311,53.314259],[-9.533115,53.314392],[-9.533036,53.314446],[-9.533018,53.314477],[-9.532966,53.31455],[-9.532945,53.314597],[-9.532974,53.314655],[-9.533012,53.314724],[-9.533022,53.314773],[-9.53307,53.314805],[-9.533132,53.314802],[-9.533149,53.314832],[-9.53315,53.314864],[-9.53307,53.314898],[-9.533072,53.314947],[-9.53305,53.314985],[-9.533067,53.315022],[-9.53311,53.315028],[-9.533135,53.315065],[-9.533197,53.315062],[-9.53326,53.315094],[-9.533315,53.315157],[-9.533317,53.315164],[-9.533365,53.315239],[-9.533411,53.315323],[-9.533466,53.315437],[-9.533471,53.315498],[-9.533507,53.315591],[-9.533486,53.315619],[-9.533453,53.315627],[-9.533418,53.315669],[-9.53335,53.315688],[-9.533259,53.3157],[-9.533194,53.315727],[-9.533042,53.315821],[-9.532939,53.315909],[-9.532906,53.315934],[-9.532872,53.315939],[-9.532829,53.315931],[-9.532803,53.315915],[-9.53279,53.315874],[-9.532929,53.315737],[-9.532883,53.315736],[-9.532814,53.315724],[-9.532783,53.315738],[-9.532742,53.315727],[-9.532667,53.315689],[-9.532571,53.315757],[-9.53256,53.315754],[-9.532531,53.315711],[-9.532508,53.315662],[-9.532484,53.315644],[-9.532482,53.31562],[-9.53249,53.315591],[-9.532498,53.315551],[-9.532486,53.315493],[-9.532468,53.31544],[-9.532442,53.315377],[-9.532345,53.315171],[-9.531932,53.315176],[-9.531894,53.315198],[-9.531857,53.315177],[-9.531643,53.31518],[-9.53162,53.315196],[-9.531597,53.315217],[-9.53159,53.31533],[-9.531654,53.315371],[-9.531798,53.315405],[-9.531858,53.315435],[-9.531889,53.315475],[-9.531905,53.315524],[-9.531882,53.315626],[-9.531778,53.315706],[-9.53187,53.315754],[-9.531975,53.315866],[-9.532061,53.315978],[-9.532148,53.316027],[-9.532162,53.316072],[-9.532148,53.316104],[-9.532125,53.31614],[-9.532105,53.316157],[-9.532066,53.316154],[-9.532022,53.316159],[-9.531967,53.316171],[-9.531953,53.316238],[-9.531923,53.316244],[-9.531881,53.316211],[-9.531845,53.316189],[-9.531765,53.316222],[-9.531714,53.316228],[-9.531616,53.316254],[-9.531554,53.316287],[-9.531496,53.316373],[-9.53141,53.316427],[-9.531219,53.31645],[-9.531086,53.316436],[-9.531052,53.316383],[-9.5312,53.316193],[-9.531249,53.316171],[-9.531289,53.316147],[-9.531306,53.316022],[-9.531318,53.31601],[-9.531276,53.315846],[-9.531124,53.315803],[-9.531047,53.315845],[-9.530999,53.315896],[-9.530956,53.316004],[-9.530907,53.316051],[-9.530917,53.316139],[-9.530906,53.316217],[-9.530879,53.316279],[-9.530846,53.31632],[-9.530849,53.316356],[-9.530822,53.316361],[-9.530804,53.31638],[-9.53083,53.316405],[-9.530844,53.316438],[-9.530796,53.31644],[-9.530692,53.316448],[-9.530618,53.316461],[-9.530549,53.316466],[-9.530557,53.31644],[-9.530594,53.316358],[-9.530537,53.316361],[-9.530466,53.316335],[-9.530449,53.316329],[-9.530427,53.316345],[-9.530413,53.316421],[-9.530389,53.316427],[-9.530364,53.316423],[-9.530267,53.316476],[-9.530231,53.316531],[-9.530119,53.316604],[-9.530105,53.316649],[-9.530092,53.316655],[-9.530069,53.31665],[-9.530033,53.316642],[-9.530025,53.316592],[-9.530071,53.316549],[-9.530077,53.316504],[-9.530052,53.316479],[-9.530002,53.316458],[-9.529996,53.316415],[-9.529943,53.316413],[-9.529916,53.316409],[-9.529872,53.316318],[-9.529809,53.316243],[-9.529752,53.316134],[-9.529684,53.316107],[-9.529676,53.316106],[-9.529518,53.316099],[-9.529443,53.31609],[-9.529383,53.31606],[-9.529283,53.315853],[-9.529179,53.315785],[-9.529168,53.31579],[-9.529126,53.315839],[-9.529039,53.315838],[-9.528936,53.315887],[-9.528854,53.315901],[-9.528778,53.315902],[-9.528733,53.3159],[-9.528728,53.315859],[-9.52869,53.31585],[-9.528627,53.315826],[-9.528667,53.315768],[-9.528637,53.315734],[-9.528624,53.315708],[-9.528601,53.315736],[-9.528579,53.315754],[-9.528539,53.315767],[-9.528491,53.31582],[-9.528359,53.315841],[-9.528302,53.31588],[-9.528282,53.315941],[-9.528284,53.315976],[-9.528246,53.315986],[-9.528133,53.31604],[-9.528064,53.316105],[-9.528035,53.316141],[-9.528008,53.316163],[-9.52791,53.316193],[-9.527725,53.316152],[-9.527614,53.3161],[-9.527556,53.31603],[-9.527553,53.315992],[-9.527566,53.315954],[-9.527658,53.315896],[-9.527694,53.315854],[-9.527752,53.315777],[-9.527772,53.315741],[-9.527712,53.315708],[-9.527603,53.315711],[-9.527559,53.315696],[-9.527506,53.315664],[-9.527498,53.315659],[-9.527394,53.315631],[-9.527348,53.315639],[-9.527332,53.315649],[-9.527333,53.315662],[-9.527398,53.315692],[-9.527406,53.315712],[-9.527356,53.315748],[-9.527325,53.315794],[-9.5273,53.315827],[-9.527188,53.315874],[-9.527154,53.315893],[-9.52705,53.31589],[-9.526997,53.315884],[-9.526874,53.315871],[-9.52686,53.315841],[-9.526912,53.315754],[-9.526973,53.315715],[-9.527069,53.315719],[-9.527121,53.315709],[-9.527129,53.315677],[-9.527054,53.315646],[-9.527058,53.315619],[-9.527077,53.315602],[-9.527063,53.315593],[-9.526862,53.315551],[-9.526837,53.315542],[-9.526807,53.31552],[-9.526792,53.315508],[-9.526769,53.315454],[-9.526785,53.31544],[-9.526773,53.31539],[-9.526744,53.31536],[-9.526728,53.31533],[-9.526741,53.315304],[-9.526804,53.315294],[-9.526865,53.315299],[-9.52685,53.315191],[-9.526789,53.315068],[-9.526764,53.315057],[-9.526757,53.315028],[-9.526678,53.314921],[-9.526577,53.314783],[-9.526328,53.314615],[-9.526241,53.314525],[-9.526133,53.314413],[-9.526122,53.314355],[-9.526104,53.314321],[-9.526095,53.314279],[-9.52611,53.314247],[-9.526113,53.314241],[-9.526145,53.314234],[-9.526179,53.314241],[-9.526194,53.314268],[-9.526219,53.314268],[-9.526264,53.314246],[-9.526312,53.314206],[-9.526315,53.314191],[-9.526271,53.314152],[-9.526263,53.314129],[-9.52626,53.314091],[-9.526052,53.314044],[-9.525812,53.313995],[-9.525681,53.313985],[-9.525679,53.313952],[-9.525627,53.313925],[-9.525732,53.313813],[-9.525759,53.313778],[-9.525793,53.313673],[-9.525805,53.313595],[-9.52579,53.313584],[-9.525758,53.313565],[-9.525728,53.313562],[-9.525656,53.313549],[-9.525508,53.313515],[-9.525408,53.313541],[-9.52537,53.313524],[-9.525339,53.313506],[-9.525367,53.313484],[-9.525396,53.313487],[-9.525399,53.313474],[-9.525391,53.313414],[-9.525408,53.313394],[-9.525444,53.313385],[-9.525454,53.313366],[-9.525441,53.313319],[-9.525438,53.313254],[-9.525399,53.313214],[-9.525344,53.313188],[-9.525303,53.313156],[-9.525447,53.312962],[-9.525518,53.312884],[-9.525436,53.312808],[-9.525407,53.312729],[-9.525393,53.312663],[-9.525401,53.312638],[-9.525369,53.312624],[-9.525326,53.312612],[-9.525273,53.312565],[-9.525212,53.312553],[-9.525187,53.31254],[-9.525207,53.312512],[-9.52518,53.312507],[-9.525159,53.3125],[-9.525057,53.312435],[-9.524987,53.312423],[-9.524933,53.312398],[-9.524916,53.312369],[-9.525051,53.312294],[-9.525124,53.312211],[-9.52514,53.312161],[-9.525162,53.31211],[-9.525192,53.31204],[-9.525243,53.312027],[-9.525255,53.312009],[-9.525259,53.31198],[-9.525271,53.311964],[-9.525294,53.311951],[-9.525377,53.311953],[-9.525446,53.311993],[-9.525488,53.312008],[-9.525555,53.31203],[-9.525581,53.312087],[-9.525611,53.312098],[-9.525621,53.312096],[-9.525657,53.312077],[-9.52588,53.312017],[-9.525898,53.311981],[-9.52594,53.311943],[-9.525993,53.311915],[-9.526017,53.311809],[-9.526015,53.311782],[-9.52597,53.311748],[-9.525922,53.311725],[-9.525958,53.311684],[-9.526046,53.311622],[-9.52606,53.31159],[-9.526042,53.31156],[-9.526014,53.311536],[-9.525971,53.311482],[-9.525871,53.311492],[-9.525718,53.311559],[-9.525596,53.311552],[-9.525563,53.311554],[-9.525442,53.311546],[-9.52542,53.311538],[-9.525375,53.311467],[-9.525325,53.311256],[-9.52531,53.31122],[-9.525079,53.311169],[-9.525017,53.311145],[-9.52499,53.311043],[-9.525002,53.311017],[-9.524992,53.310984],[-9.524971,53.310916],[-9.525019,53.31087],[-9.525093,53.310808],[-9.525082,53.310784],[-9.525003,53.310745],[-9.524982,53.310732],[-9.52493,53.310635],[-9.524962,53.310601],[-9.525012,53.310593],[-9.525031,53.31058],[-9.525031,53.310528],[-9.525083,53.310515],[-9.52516,53.310495],[-9.525235,53.310513],[-9.525409,53.310556],[-9.525628,53.310697],[-9.525794,53.310824],[-9.525799,53.31083],[-9.525912,53.310906],[-9.526175,53.310971],[-9.526323,53.310969],[-9.526459,53.310948],[-9.526491,53.310947],[-9.526531,53.310964]],[[-9.54743,53.306599],[-9.547438,53.306795],[-9.547426,53.30689],[-9.547357,53.307008],[-9.547307,53.307114],[-9.54729,53.307179],[-9.547313,53.30726],[-9.547327,53.307325],[-9.547392,53.30739],[-9.547393,53.307429],[-9.547377,53.3075],[-9.547378,53.307542],[-9.547362,53.307614],[-9.54738,53.307684],[-9.547441,53.307848],[-9.547456,53.30792],[-9.547423,53.307967],[-9.547278,53.308044],[-9.547272,53.308079],[-9.547288,53.308179],[-9.547262,53.308215],[-9.547208,53.308236],[-9.54718,53.308211],[-9.547159,53.30816],[-9.547086,53.308187],[-9.54706,53.308213],[-9.547033,53.308325],[-9.547001,53.308396],[-9.546957,53.30845],[-9.546919,53.308488],[-9.546877,53.308502],[-9.546846,53.308493],[-9.546827,53.308424],[-9.546815,53.308321],[-9.546822,53.308202],[-9.546826,53.308109],[-9.546799,53.308012],[-9.546804,53.307941],[-9.546771,53.307905],[-9.546708,53.307871],[-9.546714,53.307826],[-9.546774,53.307781],[-9.546749,53.307728],[-9.546682,53.307712],[-9.546617,53.307744],[-9.546537,53.307789],[-9.546445,53.307809],[-9.546416,53.307775],[-9.546372,53.307733],[-9.546391,53.30764],[-9.546442,53.307546],[-9.546524,53.307465],[-9.546525,53.307293],[-9.546582,53.307168],[-9.546602,53.307082],[-9.546603,53.307019],[-9.546672,53.306978],[-9.54676,53.306944],[-9.546813,53.306909],[-9.546862,53.306784],[-9.546937,53.306718],[-9.547049,53.306693],[-9.547137,53.306654],[-9.547216,53.306609],[-9.547269,53.306557],[-9.547342,53.306533],[-9.547389,53.306544],[-9.54743,53.306599]],[[-9.548951,53.308936],[-9.54908,53.308857],[-9.549217,53.308781],[-9.549258,53.30874],[-9.549373,53.308715],[-9.549498,53.308721],[-9.54956,53.30872],[-9.549683,53.308776],[-9.549731,53.308808],[-9.549825,53.308825],[-9.549905,53.308873],[-9.549979,53.308886],[-9.55007,53.308915],[-9.550117,53.30894],[-9.550181,53.308983],[-9.550182,53.309016],[-9.550173,53.309079],[-9.550175,53.309128],[-9.550192,53.309158],[-9.550275,53.309183],[-9.550299,53.309208],[-9.550316,53.30924],[-9.550275,53.309274],[-9.550235,53.309344],[-9.550263,53.309381],[-9.550284,53.309423],[-9.550243,53.309451],[-9.550194,53.309482],[-9.55017,53.30948],[-9.550083,53.309439],[-9.550037,53.309447],[-9.549984,53.309485],[-9.549969,53.309511],[-9.54997,53.309537],[-9.549948,53.309553],[-9.549908,53.309542],[-9.549886,53.309573],[-9.549884,53.309608],[-9.549842,53.309629],[-9.549815,53.309637],[-9.549689,53.309608],[-9.549626,53.30957],[-9.549538,53.309527],[-9.549446,53.309453],[-9.549398,53.309419],[-9.549344,53.309434],[-9.549207,53.309399],[-9.549104,53.309365],[-9.549018,53.30935],[-9.548929,53.309347],[-9.548847,53.309355],[-9.548745,53.309321],[-9.548675,53.309318],[-9.548643,53.30929],[-9.548656,53.309243],[-9.548649,53.30916],[-9.548655,53.309111],[-9.548688,53.309073],[-9.548792,53.309034],[-9.548887,53.308979],[-9.548951,53.308936]],[[-9.54856,53.309044],[-9.54857,53.309313],[-9.54812,53.309319],[-9.54811,53.30905],[-9.54856,53.309044]],[[-9.537427,53.312424],[-9.536977,53.312429],[-9.536967,53.31216],[-9.537417,53.312154],[-9.537427,53.312424]],[[-9.536077,53.312441],[-9.536977,53.312429],[-9.536987,53.312699],[-9.536537,53.312705],[-9.536546,53.312974],[-9.536096,53.31298],[-9.536087,53.31271],[-9.536077,53.312441]],[[-9.533865,53.313548],[-9.533846,53.313009],[-9.534296,53.313003],[-9.534316,53.313542],[-9.534325,53.313812],[-9.533425,53.313823],[-9.533415,53.313554],[-9.533865,53.313548]],[[-9.534354,53.31462],[-9.534364,53.31489],[-9.533914,53.314896],[-9.533904,53.314626],[-9.534354,53.31462]],[[-9.534374,53.315159],[-9.534364,53.31489],[-9.534814,53.314884],[-9.534824,53.315153],[-9.534374,53.315159]],[[-9.537335,53.322401],[-9.537345,53.322671],[-9.536895,53.322677],[-9.536885,53.322407],[-9.537335,53.322401]],[[-9.531561,53.324633],[-9.531551,53.324363],[-9.532001,53.324357],[-9.532011,53.324627],[-9.532461,53.324621],[-9.532471,53.324891],[-9.53112,53.324908],[-9.531111,53.324638],[-9.531561,53.324633]],[[-9.525249,53.324444],[-9.525699,53.324438],[-9.525709,53.324708],[-9.525259,53.324713],[-9.525249,53.324444]],[[-9.525757,53.326055],[-9.525307,53.326061],[-9.525297,53.325791],[-9.526198,53.32578],[-9.526207,53.326049],[-9.526217,53.326319],[-9.525767,53.326325],[-9.525757,53.326055]],[[-9.524004,53.327426],[-9.523554,53.327432],[-9.523545,53.327162],[-9.524445,53.327151],[-9.524455,53.32742],[-9.525355,53.327409],[-9.525365,53.327678],[-9.524014,53.327695],[-9.524004,53.327426]],[[-9.529895,53.328429],[-9.529905,53.328698],[-9.529005,53.32871],[-9.528995,53.328441],[-9.529895,53.328429]],[[-9.528545,53.328446],[-9.528554,53.328716],[-9.528104,53.328722],[-9.528095,53.328452],[-9.528545,53.328446]],[[-9.525126,53.333613],[-9.525116,53.333344],[-9.525107,53.333074],[-9.525557,53.333068],[-9.525567,53.333338],[-9.526017,53.333332],[-9.526026,53.333602],[-9.525576,53.333607],[-9.525586,53.333877],[-9.525595,53.334146],[-9.525145,53.334152],[-9.525155,53.334422],[-9.524704,53.334427],[-9.524695,53.334158],[-9.524685,53.333888],[-9.525136,53.333883],[-9.525126,53.333613]],[[-9.522894,53.334181],[-9.522875,53.333642],[-9.523325,53.333636],[-9.523306,53.333097],[-9.523756,53.333091],[-9.523775,53.33363],[-9.523794,53.334169],[-9.522894,53.334181]]],[[[-9.519646,53.327032],[-9.519635,53.327055],[-9.519681,53.327065],[-9.51968,53.327038],[-9.519646,53.327032]]],[[[-9.525077,53.336387],[-9.525141,53.336508],[-9.525147,53.33652],[-9.525176,53.336574],[-9.525077,53.336387]]],[[[-9.514656,53.336797],[-9.51467,53.336762],[-9.514672,53.336756],[-9.514656,53.336797]]],[[[-9.528731,53.343502],[-9.528691,53.343436],[-9.528715,53.343476],[-9.528731,53.343502]]]]}}]}
