{"type":"FeatureCollection","features":[{"type":"Feature","properties":{"source_fid":2063314,"county":"Galway","bog_geom_ha":175.14509157996957,"low15_pct":99.948427024239294,"low15_ha":175.05476404434296,"overlay_ha":175.05509158000098,"area_delta":0.00032753565801613149},"geometry":{"type":"MultiPolygon","coordinates":[[[[-9.573678,53.313391],[-9.573851,53.31341],[-9.575497,53.313579],[-9.575491,53.313574],[-9.575367,53.313482],[-9.575341,53.313448],[-9.575347,53.313424],[-9.575361,53.313398],[-9.575361,53.313398],[-9.575361,53.313398],[-9.575408,53.313376],[-9.575451,53.31336],[-9.575494,53.313347],[-9.57553,53.313321],[-9.575555,53.313294],[-9.575565,53.313275],[-9.575579,53.313216],[-9.575555,53.31313],[-9.575514,53.313063],[-9.575495,53.313013],[-9.575498,53.312972],[-9.575515,53.312952],[-9.575515,53.312952],[-9.575515,53.312952],[-9.575559,53.31295],[-9.575588,53.312969],[-9.575643,53.313019],[-9.575672,53.313023],[-9.575705,53.313016],[-9.575715,53.313008],[-9.575718,53.313006],[-9.575722,53.313003],[-9.575741,53.31299],[-9.575765,53.312937],[-9.575797,53.312913],[-9.575797,53.312913],[-9.575797,53.312913],[-9.575826,53.312896],[-9.575843,53.312876],[-9.575861,53.312841],[-9.575864,53.312833],[-9.575864,53.312833],[-9.575864,53.312833],[-9.575893,53.312824],[-9.575958,53.312826],[-9.57606,53.312834],[-9.576121,53.312844],[-9.57619,53.312856],[-9.57627,53.312854],[-9.576332,53.312862],[-9.576368,53.31289],[-9.576394,53.312898],[-9.576404,53.312885],[-9.576385,53.312842],[-9.576381,53.312816],[-9.576402,53.312781],[-9.576402,53.312781],[-9.576402,53.312781],[-9.576435,53.312762],[-9.576485,53.312753],[-9.576554,53.312756],[-9.576608,53.312762],[-9.576649,53.312795],[-9.576667,53.312825],[-9.576709,53.312857],[-9.57683,53.312919],[-9.576873,53.312925],[-9.576909,53.312899],[-9.576912,53.31286],[-9.576937,53.312838],[-9.576937,53.312838],[-9.576937,53.312838],[-9.577016,53.312803],[-9.577126,53.312735],[-9.577202,53.312691],[-9.57723,53.312687],[-9.57727,53.312688],[-9.577296,53.312697],[-9.57734,53.312712],[-9.577387,53.312714],[-9.577441,53.312715],[-9.577521,53.312719],[-9.577586,53.312734],[-9.577641,53.312755],[-9.577776,53.312815],[-9.577838,53.312854],[-9.57789,53.312894],[-9.577912,53.312929],[-9.577927,53.312963],[-9.57796,53.312981],[-9.578019,53.313017],[-9.578099,53.31306],[-9.57815,53.313064],[-9.578218,53.313055],[-9.578298,53.313037],[-9.578384,53.313004],[-9.578427,53.312971],[-9.578462,53.312942],[-9.578487,53.31291],[-9.578479,53.312862],[-9.578493,53.312832],[-9.578514,53.312805],[-9.578535,53.312773],[-9.578549,53.312738],[-9.578552,53.312708],[-9.578533,53.312686],[-9.578511,53.312673],[-9.578514,53.312645],[-9.57855,53.31261],[-9.5786,53.312588],[-9.578618,53.312577],[-9.578635,53.31254],[-9.578664,53.312529],[-9.578704,53.312524],[-9.578744,53.312531],[-9.578801,53.312513],[-9.578808,53.312487],[-9.578811,53.31247],[-9.578858,53.312471],[-9.578898,53.312484],[-9.57896,53.312477],[-9.578999,53.312466],[-9.579075,53.312442],[-9.579172,53.312395],[-9.579257,53.312339],[-9.579318,53.312286],[-9.579422,53.312253],[-9.579476,53.312229],[-9.579508,53.312198],[-9.579529,53.312174],[-9.579551,53.312172],[-9.579583,53.312178],[-9.579732,53.312194],[-9.57984,53.312191],[-9.579969,53.312189],[-9.580021,53.312188],[-9.580043,53.312201],[-9.580054,53.312216],[-9.580069,53.31224],[-9.58007,53.312255],[-9.580056,53.312274],[-9.580013,53.312299],[-9.579981,53.31232],[-9.579916,53.312334],[-9.57988,53.312354],[-9.579877,53.31238],[-9.579892,53.312427],[-9.579882,53.312458],[-9.579868,53.312503],[-9.579833,53.312547],[-9.57979,53.312584],[-9.57973,53.312623],[-9.579676,53.312659],[-9.579619,53.312707],[-9.57954,53.312748],[-9.57949,53.312762],[-9.579447,53.312788],[-9.579411,53.312821],[-9.579352,53.312872],[-9.579373,53.312901],[-9.579517,53.313053],[-9.579508,53.313151],[-9.579437,53.313191],[-9.579243,53.313302],[-9.579085,53.3134],[-9.578993,53.313457],[-9.578929,53.313488],[-9.578929,53.31349],[-9.578919,53.313529],[-9.578875,53.313542],[-9.578844,53.31354],[-9.5788,53.313577],[-9.578781,53.313629],[-9.578847,53.313681],[-9.578888,53.313713],[-9.57895,53.313822],[-9.578894,53.313867],[-9.578875,53.313883],[-9.578933,53.313916],[-9.578923,53.313938],[-9.578898,53.313964],[-9.578837,53.314002],[-9.578809,53.314039],[-9.578749,53.314106],[-9.578749,53.314113],[-9.578749,53.314113],[-9.578746,53.314154],[-9.578737,53.314221],[-9.578728,53.314242],[-9.579015,53.314341],[-9.579141,53.314367],[-9.579195,53.314562],[-9.57917,53.314616],[-9.579157,53.314644],[-9.579096,53.314692],[-9.578912,53.314673],[-9.578924,53.314699],[-9.578942,53.31471],[-9.578942,53.314731],[-9.578917,53.314753],[-9.578867,53.31479],[-9.578831,53.314801],[-9.578784,53.314791],[-9.578708,53.314787],[-9.578676,53.314809],[-9.578622,53.314829],[-9.578579,53.314827],[-9.578502,53.31481],[-9.578448,53.314815],[-9.578398,53.314831],[-9.578307,53.314829],[-9.578279,53.314857],[-9.578279,53.314857],[-9.578291,53.314903],[-9.578309,53.31492],[-9.578463,53.315027],[-9.578493,53.31507],[-9.578523,53.315116],[-9.578602,53.315267],[-9.578592,53.315319],[-9.578541,53.315471],[-9.578477,53.315552],[-9.578477,53.315552],[-9.578477,53.315552],[-9.578445,53.315567],[-9.578369,53.315555],[-9.578307,53.315572],[-9.578272,53.315625],[-9.578262,53.315668],[-9.578292,53.315731],[-9.578318,53.315767],[-9.578319,53.315802],[-9.578319,53.315802],[-9.578319,53.315802],[-9.578299,53.315813],[-9.57824,53.315813],[-9.57816,53.315794],[-9.578127,53.315808],[-9.57811,53.315849],[-9.578103,53.315866],[-9.578103,53.315866],[-9.578103,53.315866],[-9.578056,53.315875],[-9.57798,53.315874],[-9.577912,53.315896],[-9.577858,53.315929],[-9.577821,53.315961],[-9.57772,53.316075],[-9.577689,53.31613],[-9.577676,53.316164],[-9.57764,53.316175],[-9.57756,53.316189],[-9.577446,53.316248],[-9.577414,53.316288],[-9.577379,53.316338],[-9.577362,53.316411],[-9.577369,53.316591],[-9.57737,53.316654],[-9.577364,53.316691],[-9.577335,53.316717],[-9.577278,53.316733],[-9.577221,53.316768],[-9.577178,53.316814],[-9.577146,53.316868],[-9.57714,53.316901],[-9.577105,53.316953],[-9.577026,53.31701],[-9.576965,53.317032],[-9.576882,53.317061],[-9.576854,53.317087],[-9.576712,53.317218],[-9.576662,53.317266],[-9.57663,53.317281],[-9.576629,53.317289],[-9.577857,53.317273],[-9.577891,53.318171],[-9.57939,53.318152],[-9.579424,53.31905],[-9.579466,53.320187],[-9.579472,53.320199],[-9.57948,53.320242],[-9.579468,53.320255],[-9.579486,53.320726],[-9.579503,53.320725],[-9.579581,53.320796],[-9.579588,53.320805],[-9.579607,53.320829],[-9.579608,53.320844],[-9.58249,53.320806],[-9.583437,53.320794],[-9.583438,53.320792],[-9.583455,53.32074],[-9.583455,53.320739],[-9.583456,53.320737],[-9.583456,53.320736],[-9.583492,53.320665],[-9.583494,53.320625],[-9.583487,53.320596],[-9.583452,53.320554],[-9.58344,53.320545],[-9.583436,53.320542],[-9.583433,53.320539],[-9.58343,53.320536],[-9.583427,53.320533],[-9.583425,53.320529],[-9.583425,53.320528],[-9.583414,53.320505],[-9.583412,53.320501],[-9.583411,53.320497],[-9.583411,53.320494],[-9.583411,53.32049],[-9.583412,53.320486],[-9.583413,53.320483],[-9.583414,53.320479],[-9.583416,53.320476],[-9.583432,53.320452],[-9.583431,53.320416],[-9.583414,53.320376],[-9.583402,53.320365],[-9.5834,53.320364],[-9.583399,53.320363],[-9.583398,53.320361],[-9.583387,53.320349],[-9.583384,53.320345],[-9.583382,53.320342],[-9.583381,53.320338],[-9.583379,53.320334],[-9.583379,53.320331],[-9.583379,53.320328],[-9.583378,53.320313],[-9.583379,53.32031],[-9.583379,53.320306],[-9.583381,53.320302],[-9.583382,53.320299],[-9.583383,53.320298],[-9.583395,53.320277],[-9.583401,53.32026],[-9.583399,53.320259],[-9.583396,53.320256],[-9.583394,53.320252],[-9.583391,53.320249],[-9.58339,53.320245],[-9.58339,53.320245],[-9.583382,53.320225],[-9.583381,53.320222],[-9.58338,53.320218],[-9.58338,53.320214],[-9.583381,53.320211],[-9.583381,53.320207],[-9.583383,53.320203],[-9.583385,53.3202],[-9.583387,53.320196],[-9.58339,53.320193],[-9.583393,53.32019],[-9.583397,53.320187],[-9.583401,53.320184],[-9.583406,53.320182],[-9.583409,53.32018],[-9.583442,53.320165],[-9.583444,53.320158],[-9.583441,53.32013],[-9.58342,53.3201],[-9.583417,53.320097],[-9.583416,53.320093],[-9.583414,53.32009],[-9.583414,53.320086],[-9.583414,53.320082],[-9.583414,53.320079],[-9.583414,53.320076],[-9.583421,53.32005],[-9.583423,53.320046],[-9.583424,53.320043],[-9.583426,53.320039],[-9.583427,53.320038],[-9.583494,53.319949],[-9.583497,53.319946],[-9.5835,53.319942],[-9.583504,53.319939],[-9.583508,53.319937],[-9.583511,53.319934],[-9.58358,53.319897],[-9.583631,53.319848],[-9.583642,53.319832],[-9.583642,53.319829],[-9.583641,53.319827],[-9.583566,53.319751],[-9.583563,53.319749],[-9.583561,53.319746],[-9.58356,53.319744],[-9.58353,53.319694],[-9.583528,53.319691],[-9.583526,53.319687],[-9.583526,53.319683],[-9.583525,53.31968],[-9.583525,53.319677],[-9.583528,53.31963],[-9.583528,53.319626],[-9.583529,53.319622],[-9.583531,53.319619],[-9.583532,53.319617],[-9.583559,53.319567],[-9.583583,53.319521],[-9.583604,53.319472],[-9.583595,53.319375],[-9.583595,53.319375],[-9.583595,53.319374],[-9.583595,53.319373],[-9.583594,53.319332],[-9.583594,53.319306],[-9.583594,53.319302],[-9.583595,53.319299],[-9.583596,53.319295],[-9.583597,53.319294],[-9.583614,53.319257],[-9.583616,53.319253],[-9.583618,53.31925],[-9.58362,53.319247],[-9.583656,53.319208],[-9.583659,53.319205],[-9.583662,53.319202],[-9.583666,53.319199],[-9.58367,53.319197],[-9.58373,53.319162],[-9.583735,53.319159],[-9.58374,53.319157],[-9.583745,53.319155],[-9.583751,53.319153],[-9.583753,53.319153],[-9.58381,53.319139],[-9.583881,53.319113],[-9.583886,53.319112],[-9.583892,53.31911],[-9.583898,53.319109],[-9.583904,53.319108],[-9.583907,53.319108],[-9.584005,53.319098],[-9.584011,53.319098],[-9.584017,53.319098],[-9.584024,53.319098],[-9.58403,53.319098],[-9.584032,53.319099],[-9.584056,53.319102],[-9.584126,53.319079],[-9.584149,53.31907],[-9.584165,53.319055],[-9.5842,53.31902],[-9.584204,53.319017],[-9.584208,53.319014],[-9.584212,53.319011],[-9.584216,53.319009],[-9.584221,53.319007],[-9.584225,53.319005],[-9.584333,53.318965],[-9.584335,53.318965],[-9.584338,53.318964],[-9.584341,53.318963],[-9.584393,53.318949],[-9.584423,53.31893],[-9.584424,53.318929],[-9.58443,53.318898],[-9.58443,53.318895],[-9.584432,53.318891],[-9.584434,53.318887],[-9.584436,53.318884],[-9.584439,53.318881],[-9.584442,53.318878],[-9.584446,53.318875],[-9.58445,53.318872],[-9.584451,53.318872],[-9.584481,53.318853],[-9.584571,53.318791],[-9.584654,53.318704],[-9.584693,53.318652],[-9.584721,53.318584],[-9.584731,53.31855],[-9.58474,53.318505],[-9.584747,53.318473],[-9.584748,53.318469],[-9.584749,53.318465],[-9.584752,53.318462],[-9.584754,53.318459],[-9.584757,53.318455],[-9.584759,53.318454],[-9.584787,53.318428],[-9.584789,53.318426],[-9.584791,53.318424],[-9.584793,53.318422],[-9.584889,53.318357],[-9.584988,53.318282],[-9.585032,53.31824],[-9.585036,53.318237],[-9.58504,53.318234],[-9.585044,53.318231],[-9.585047,53.31823],[-9.585115,53.318195],[-9.58512,53.318192],[-9.585125,53.31819],[-9.58513,53.318188],[-9.585135,53.318187],[-9.585193,53.318173],[-9.585236,53.318132],[-9.585281,53.318053],[-9.585334,53.317955],[-9.585335,53.317952],[-9.585338,53.317949],[-9.58534,53.317946],[-9.585379,53.317907],[-9.585383,53.317904],[-9.585387,53.317901],[-9.585391,53.317898],[-9.585395,53.317896],[-9.585396,53.317895],[-9.585471,53.317858],[-9.585472,53.317857],[-9.585473,53.317857],[-9.585473,53.317857],[-9.58567,53.317766],[-9.585683,53.317756],[-9.585825,53.317642],[-9.585882,53.317596],[-9.585882,53.317596],[-9.585882,53.317596],[-9.585983,53.317537],[-9.586086,53.317464],[-9.586178,53.31737],[-9.58625,53.317309],[-9.586289,53.317281],[-9.586289,53.317281],[-9.586289,53.317281],[-9.586328,53.317265],[-9.586422,53.317245],[-9.586519,53.317199],[-9.586594,53.317144],[-9.586658,53.317087],[-9.586693,53.317035],[-9.586703,53.317005],[-9.586785,53.316937],[-9.586785,53.316937],[-9.586785,53.316937],[-9.586843,53.316921],[-9.586879,53.316912],[-9.586918,53.316882],[-9.586925,53.316858],[-9.586913,53.31683],[-9.586916,53.316808],[-9.586916,53.316808],[-9.586916,53.316808],[-9.586949,53.316801],[-9.586996,53.316797],[-9.587024,53.316773],[-9.58706,53.316744],[-9.58706,53.316744],[-9.58706,53.316744],[-9.587078,53.316733],[-9.587084,53.316701],[-9.587076,53.31666],[-9.58709,53.316631],[-9.587122,53.316597],[-9.587136,53.316568],[-9.587117,53.316542],[-9.587069,53.316484],[-9.587073,53.316471],[-9.587073,53.316471],[-9.587073,53.316471],[-9.587093,53.316462],[-9.587093,53.316462],[-9.587137,53.316443],[-9.587263,53.316398],[-9.587316,53.316352],[-9.587359,53.316326],[-9.587374,53.31633],[-9.587392,53.316352],[-9.587418,53.316395],[-9.587481,53.316431],[-9.587521,53.31647],[-9.587533,53.316511],[-9.587534,53.316544],[-9.587548,53.316561],[-9.587548,53.316561],[-9.587577,53.316559],[-9.58761,53.316539],[-9.587653,53.316517],[-9.587732,53.316497],[-9.587793,53.316488],[-9.587829,53.316468],[-9.587861,53.316437],[-9.587878,53.316411],[-9.587896,53.316387],[-9.587896,53.316387],[-9.587896,53.316387],[-9.587957,53.316361],[-9.588008,53.31635],[-9.588036,53.316345],[-9.588033,53.316334],[-9.587978,53.316313],[-9.587901,53.316292],[-9.587865,53.316264],[-9.587846,53.316242],[-9.587849,53.316219],[-9.587856,53.316201],[-9.587856,53.316201],[-9.587856,53.316201],[-9.587892,53.316179],[-9.58795,53.316164],[-9.588,53.31617],[-9.588048,53.316185],[-9.588077,53.31618],[-9.58813,53.316165],[-9.588174,53.31616],[-9.588232,53.316172],[-9.588283,53.316194],[-9.588316,53.316196],[-9.588334,53.316187],[-9.588355,53.316172],[-9.588355,53.316172],[-9.588355,53.316172],[-9.588384,53.316158],[-9.58842,53.316152],[-9.588453,53.31616],[-9.588518,53.316181],[-9.588591,53.316189],[-9.588656,53.316193],[-9.588728,53.316193],[-9.588765,53.316197],[-9.588801,53.316188],[-9.588844,53.316168],[-9.588872,53.316161],[-9.588901,53.316166],[-9.588945,53.316161],[-9.588988,53.316143],[-9.589038,53.316113],[-9.589077,53.316086],[-9.589102,53.31606],[-9.589102,53.31606],[-9.589102,53.31606],[-9.589134,53.316047],[-9.589178,53.316042],[-9.589228,53.316042],[-9.589308,53.316033],[-9.58934,53.316019],[-9.589361,53.315998],[-9.589382,53.315956],[-9.589411,53.315923],[-9.589446,53.31588],[-9.58947,53.315841],[-9.589481,53.315821],[-9.589509,53.315799],[-9.589509,53.315799],[-9.589509,53.315799],[-9.589546,53.315803],[-9.589603,53.315794],[-9.589664,53.31577],[-9.589711,53.315767],[-9.589759,53.315776],[-9.589824,53.315767],[-9.589881,53.315751],[-9.589974,53.315707],[-9.589996,53.315699],[-9.590147,53.315643],[-9.590236,53.315599],[-9.590265,53.315571],[-9.590265,53.315571],[-9.590265,53.315571],[-9.590286,53.315562],[-9.590312,53.315562],[-9.590359,53.315568],[-9.590385,53.315583],[-9.590417,53.315583],[-9.590471,53.315569],[-9.590687,53.315503],[-9.590831,53.315454],[-9.590906,53.315434],[-9.591058,53.315394],[-9.591209,53.315349],[-9.591221,53.315348],[-9.591273,53.31534],[-9.591327,53.315331],[-9.591367,53.315329],[-9.591409,53.315325],[-9.591453,53.315324],[-9.591501,53.315327],[-9.591585,53.315326],[-9.591627,53.315321],[-9.591663,53.315311],[-9.59171,53.315295],[-9.591773,53.315277],[-9.591823,53.315261],[-9.591836,53.315248],[-9.591855,53.315233],[-9.59188,53.315218],[-9.59188,53.315218],[-9.59188,53.315218],[-9.591912,53.3152],[-9.59192,53.315196],[-9.591956,53.315171],[-9.591984,53.31514],[-9.592009,53.315122],[-9.592025,53.315105],[-9.592025,53.315105],[-9.592025,53.315105],[-9.59205,53.315096],[-9.592087,53.315088],[-9.59212,53.315073],[-9.59214,53.315055],[-9.592156,53.315038],[-9.592156,53.315038],[-9.592156,53.315038],[-9.592171,53.315031],[-9.592187,53.315025],[-9.592205,53.315011],[-9.592225,53.314979],[-9.59224,53.31495],[-9.592251,53.314933],[-9.592251,53.314908],[-9.592233,53.314883],[-9.592212,53.314868],[-9.592191,53.31486],[-9.592161,53.314856],[-9.592126,53.314854],[-9.59207,53.314852],[-9.59204,53.314844],[-9.592004,53.314829],[-9.591969,53.314798],[-9.591962,53.314772],[-9.591963,53.31475],[-9.591978,53.314719],[-9.592001,53.314698],[-9.59202,53.314685],[-9.59202,53.314685],[-9.59202,53.314685],[-9.592049,53.31468],[-9.592049,53.31468],[-9.59209,53.314679],[-9.592123,53.314678],[-9.592123,53.314678],[-9.592152,53.314676],[-9.592186,53.314682],[-9.592219,53.31462],[-9.592237,53.314573],[-9.592236,53.314538],[-9.592258,53.314502],[-9.592257,53.314476],[-9.592265,53.314458],[-9.592265,53.314458],[-9.592265,53.314458],[-9.592294,53.314442],[-9.592327,53.314422],[-9.592336,53.314396],[-9.592334,53.314384],[-9.592331,53.314368],[-9.592302,53.314361],[-9.592273,53.314364],[-9.592246,53.314361],[-9.592187,53.314326],[-9.592181,53.314315],[-9.592188,53.314308],[-9.592209,53.314289],[-9.592212,53.314269],[-9.592216,53.314254],[-9.592231,53.31424],[-9.592242,53.3142],[-9.59225,53.31419],[-9.59225,53.31419],[-9.59225,53.31419],[-9.592273,53.314204],[-9.592319,53.314254],[-9.592387,53.314286],[-9.592445,53.314302],[-9.592505,53.314302],[-9.592556,53.31429],[-9.592626,53.314261],[-9.592644,53.314267],[-9.592669,53.314272],[-9.592694,53.314268],[-9.592704,53.314255],[-9.592701,53.314236],[-9.592669,53.314166],[-9.59266,53.314127],[-9.592679,53.314085],[-9.592696,53.314066],[-9.592696,53.314066],[-9.592696,53.314066],[-9.592709,53.314063],[-9.592742,53.314076],[-9.592775,53.314085],[-9.592812,53.314083],[-9.592832,53.31407],[-9.592857,53.314059],[-9.592898,53.314059],[-9.592962,53.314075],[-9.592987,53.314088],[-9.592991,53.314113],[-9.59298,53.314142],[-9.592976,53.314162],[-9.592989,53.314176],[-9.593036,53.314181],[-9.593078,53.314184],[-9.593169,53.314205],[-9.593237,53.314206],[-9.593299,53.314189],[-9.593426,53.314121],[-9.593518,53.31407],[-9.593586,53.31402],[-9.5936,53.313996],[-9.5936,53.313996],[-9.5936,53.313996],[-9.593624,53.313984],[-9.593665,53.313978],[-9.593703,53.313962],[-9.593706,53.313943],[-9.593656,53.313907],[-9.593625,53.313891],[-9.593619,53.313885],[-9.593619,53.313878],[-9.593619,53.313878],[-9.593619,53.313878],[-9.593646,53.313865],[-9.593696,53.313839],[-9.593724,53.313794],[-9.593747,53.313774],[-9.593761,53.313758],[-9.593762,53.313737],[-9.59376,53.313712],[-9.593761,53.313702],[-9.593764,53.313692],[-9.593764,53.313692],[-9.593764,53.313692],[-9.593784,53.313688],[-9.593818,53.313694],[-9.593877,53.31371],[-9.593973,53.313714],[-9.594039,53.31371],[-9.594176,53.313713],[-9.594252,53.313719],[-9.594297,53.313733],[-9.594335,53.313735],[-9.594392,53.313728],[-9.594414,53.313715],[-9.594414,53.313715],[-9.594437,53.313681],[-9.594437,53.313681],[-9.594437,53.313681],[-9.594437,53.313681],[-9.594493,53.313678],[-9.594526,53.313692],[-9.594563,53.313714],[-9.594584,53.313734],[-9.59464,53.313773],[-9.594663,53.313784],[-9.594694,53.313785],[-9.594768,53.313783],[-9.594815,53.313769],[-9.594833,53.313759],[-9.594879,53.313749],[-9.594903,53.313755],[-9.594946,53.31375],[-9.594982,53.313741],[-9.595019,53.313717],[-9.595031,53.313703],[-9.595031,53.313703],[-9.595031,53.313703],[-9.595072,53.313705],[-9.595123,53.313717],[-9.595159,53.313726],[-9.59517,53.313734],[-9.595207,53.313731],[-9.595224,53.313724],[-9.595256,53.313715],[-9.595267,53.313698],[-9.595266,53.313682],[-9.595265,53.313666],[-9.595265,53.313666],[-9.595265,53.313666],[-9.595293,53.313654],[-9.595319,53.313638],[-9.595324,53.313618],[-9.595332,53.313606],[-9.595332,53.313606],[-9.595332,53.313606],[-9.595392,53.313595],[-9.59543,53.313594],[-9.595469,53.313589],[-9.595469,53.313589],[-9.59551,53.313595],[-9.595536,53.313598],[-9.595536,53.313598],[-9.595632,53.313582],[-9.595664,53.313564],[-9.595684,53.313546],[-9.595684,53.313546],[-9.595684,53.313546],[-9.595717,53.31354],[-9.59577,53.313543],[-9.595841,53.313538],[-9.595892,53.313525],[-9.596008,53.313462],[-9.596035,53.313448],[-9.596087,53.313402],[-9.596175,53.313331],[-9.596289,53.313284],[-9.596372,53.313261],[-9.596464,53.313242],[-9.596519,53.313228],[-9.596565,53.313221],[-9.596612,53.313195],[-9.596665,53.313176],[-9.596709,53.313148],[-9.596785,53.313132],[-9.596856,53.313124],[-9.596889,53.313114],[-9.596913,53.313091],[-9.596957,53.313075],[-9.597014,53.313051],[-9.597216,53.313018],[-9.597275,53.313011],[-9.597347,53.312997],[-9.597401,53.312981],[-9.597435,53.312957],[-9.597464,53.312904],[-9.597485,53.312889],[-9.597536,53.312875],[-9.597608,53.312847],[-9.597687,53.31283],[-9.597733,53.312832],[-9.597809,53.312847],[-9.597831,53.312847],[-9.597983,53.312778],[-9.598244,53.312695],[-9.598226,53.312676],[-9.598224,53.312645],[-9.598228,53.312618],[-9.598193,53.312583],[-9.598172,53.312565],[-9.598152,53.312547],[-9.598134,53.312509],[-9.598142,53.312492],[-9.598187,53.312481],[-9.598212,53.312481],[-9.598244,53.312496],[-9.598277,53.312497],[-9.598328,53.312486],[-9.59838,53.312473],[-9.598438,53.312443],[-9.598493,53.312419],[-9.598556,53.312408],[-9.598611,53.312403],[-9.598653,53.312402],[-9.598719,53.312414],[-9.59883,53.3124],[-9.598888,53.312389],[-9.598954,53.312355],[-9.599052,53.312296],[-9.599099,53.31224],[-9.599139,53.312199],[-9.599171,53.312188],[-9.599235,53.312177],[-9.599327,53.312174],[-9.599358,53.312161],[-9.599386,53.312144],[-9.599433,53.312085],[-9.599513,53.312059],[-9.599599,53.312052],[-9.599716,53.312015],[-9.599802,53.311976],[-9.599838,53.311925],[-9.599836,53.311895],[-9.599807,53.31187],[-9.599743,53.31185],[-9.599719,53.311837],[-9.599728,53.311819],[-9.599747,53.311761],[-9.599769,53.311711],[-9.599805,53.311674],[-9.599885,53.31165],[-9.599943,53.311655],[-9.600009,53.311683],[-9.600048,53.311717],[-9.60009,53.311786],[-9.600144,53.311802],[-9.600205,53.311791],[-9.600235,53.311774],[-9.600265,53.311725],[-9.600251,53.311659],[-9.600224,53.311613],[-9.600232,53.311581],[-9.600257,53.311544],[-9.600312,53.311512],[-9.600455,53.311474],[-9.600566,53.311426],[-9.600628,53.311407],[-9.60069,53.311401],[-9.600709,53.311413],[-9.600722,53.311436],[-9.600723,53.311469],[-9.60075,53.311491],[-9.600789,53.311504],[-9.600836,53.311507],[-9.600866,53.311498],[-9.600894,53.311486],[-9.600915,53.311478],[-9.600953,53.311447],[-9.601105,53.311388],[-9.601157,53.311385],[-9.601251,53.311374],[-9.601262,53.311364],[-9.601275,53.311356],[-9.601327,53.311323],[-9.601239,53.311287],[-9.600664,53.311008],[-9.600426,53.310896],[-9.600224,53.310803],[-9.600071,53.310733],[-9.59999,53.310792],[-9.599949,53.310822],[-9.599866,53.310865],[-9.599068,53.311688],[-9.597872,53.311233],[-9.598335,53.310967],[-9.599332,53.310395],[-9.599202,53.310336],[-9.599121,53.310378],[-9.598582,53.310636],[-9.598538,53.310654],[-9.598446,53.310693],[-9.598186,53.310775],[-9.598078,53.310813],[-9.597309,53.310501],[-9.59811,53.309821],[-9.598011,53.309753],[-9.59796,53.309708],[-9.597905,53.309765],[-9.5976,53.31007],[-9.597453,53.310003],[-9.597157,53.309871],[-9.597249,53.309777],[-9.597257,53.30977],[-9.597376,53.309652],[-9.597458,53.309567],[-9.597527,53.309497],[-9.59768,53.309353],[-9.597766,53.309271],[-9.597769,53.309193],[-9.59779,53.309033],[-9.597834,53.308837],[-9.597849,53.308719],[-9.597851,53.308705],[-9.597841,53.308599],[-9.597734,53.308141],[-9.597694,53.30798],[-9.597671,53.307885],[-9.597671,53.307885],[-9.597671,53.307885],[-9.597654,53.307887],[-9.597599,53.307895],[-9.597172,53.307959],[-9.596286,53.308085],[-9.594958,53.30731],[-9.594795,53.307215],[-9.595412,53.306603],[-9.595412,53.306603],[-9.595412,53.306603],[-9.595463,53.306553],[-9.595463,53.306553],[-9.595351,53.306511],[-9.595104,53.306421],[-9.594877,53.306347],[-9.594715,53.306303],[-9.59469,53.306296],[-9.594353,53.306218],[-9.594109,53.30616],[-9.594064,53.306223],[-9.593957,53.306396],[-9.593983,53.306499],[-9.593898,53.306641],[-9.593807,53.306746],[-9.593748,53.306861],[-9.593697,53.306955],[-9.593636,53.307087],[-9.593603,53.307198],[-9.593627,53.307207],[-9.593663,53.307212],[-9.593709,53.307211],[-9.593797,53.307219],[-9.593829,53.307216],[-9.593878,53.307215],[-9.593902,53.307216],[-9.593931,53.30722],[-9.593961,53.307233],[-9.593961,53.307237],[-9.594052,53.307242],[-9.594245,53.307259],[-9.594404,53.307279],[-9.594386,53.307541],[-9.594371,53.307834],[-9.594364,53.307947],[-9.594478,53.308031],[-9.594571,53.308115],[-9.594589,53.308142],[-9.594606,53.308197],[-9.594613,53.308273],[-9.594602,53.308359],[-9.594593,53.308387],[-9.594571,53.308405],[-9.594549,53.308452],[-9.594559,53.30847],[-9.594536,53.308483],[-9.594514,53.308519],[-9.594453,53.3086],[-9.594283,53.308785],[-9.594192,53.308858],[-9.594144,53.308838],[-9.594063,53.308823],[-9.593894,53.308804],[-9.593785,53.308788],[-9.593601,53.308754],[-9.593485,53.308735],[-9.593017,53.308669],[-9.59293,53.308658],[-9.592933,53.308683],[-9.592961,53.308771],[-9.592962,53.308804],[-9.592949,53.308834],[-9.592939,53.308873],[-9.592147,53.308665],[-9.591979,53.308634],[-9.591515,53.308535],[-9.591685,53.308336],[-9.591673,53.308329],[-9.591894,53.308021],[-9.591981,53.308005],[-9.592012,53.307956],[-9.591992,53.30793],[-9.59204,53.307879],[-9.592072,53.307847],[-9.59209,53.307804],[-9.592124,53.307759],[-9.592151,53.307742],[-9.592183,53.307706],[-9.59221,53.307677],[-9.59228,53.307587],[-9.592284,53.307582],[-9.592308,53.307551],[-9.592319,53.307537],[-9.59233,53.307523],[-9.592401,53.307435],[-9.592462,53.307362],[-9.592498,53.307315],[-9.5926,53.307227],[-9.592753,53.307042],[-9.592764,53.307028],[-9.592782,53.307032],[-9.592846,53.306956],[-9.592862,53.306916],[-9.592896,53.306879],[-9.592947,53.306807],[-9.593012,53.30672],[-9.593082,53.306654],[-9.593185,53.306518],[-9.593231,53.306444],[-9.593253,53.306419],[-9.593318,53.306335],[-9.593359,53.306277],[-9.5934,53.306223],[-9.593446,53.306155],[-9.593509,53.306082],[-9.593528,53.306074],[-9.593426,53.306036],[-9.593423,53.30604],[-9.593421,53.306074],[-9.593402,53.306103],[-9.59329,53.306232],[-9.593053,53.30654],[-9.592956,53.306661],[-9.592839,53.306799],[-9.592731,53.306934],[-9.592417,53.307302],[-9.592299,53.307438],[-9.592171,53.307602],[-9.592133,53.307648],[-9.591418,53.307429],[-9.592868,53.305776],[-9.592761,53.305733],[-9.592647,53.305687],[-9.592334,53.305555],[-9.592242,53.305515],[-9.592168,53.305482],[-9.592041,53.305427],[-9.591702,53.305276],[-9.591646,53.305251],[-9.591417,53.305152],[-9.591382,53.305137],[-9.591209,53.305058],[-9.591064,53.304993],[-9.590993,53.304962],[-9.59082,53.304889],[-9.590746,53.304855],[-9.590643,53.304809],[-9.590253,53.304641],[-9.590046,53.304552],[-9.589855,53.304469],[-9.589669,53.304388],[-9.589186,53.304175],[-9.589161,53.304164],[-9.588874,53.304043],[-9.588764,53.303997],[-9.58849,53.303882],[-9.588442,53.303862],[-9.588308,53.303808],[-9.587875,53.303634],[-9.587857,53.303626],[-9.587731,53.303577],[-9.587468,53.303475],[-9.58749,53.303549],[-9.587499,53.30358],[-9.58749,53.303596],[-9.587418,53.303689],[-9.587131,53.304041],[-9.587059,53.304249],[-9.587009,53.304415],[-9.586983,53.304479],[-9.586957,53.304541],[-9.586834,53.304783],[-9.586709,53.304974],[-9.586666,53.305058],[-9.586602,53.305168],[-9.586413,53.305561],[-9.586389,53.305605],[-9.585698,53.305576],[-9.584681,53.305533],[-9.584565,53.305528],[-9.584206,53.305512],[-9.583249,53.30547],[-9.584374,53.303259],[-9.5843,53.30323],[-9.584291,53.303247],[-9.584308,53.303263],[-9.584277,53.303293],[-9.584271,53.303306],[-9.584244,53.303355],[-9.584161,53.303508],[-9.584102,53.303613],[-9.584086,53.303704],[-9.584055,53.303606],[-9.584102,53.303497],[-9.584146,53.303382],[-9.584169,53.303263],[-9.584164,53.303187],[-9.584157,53.303181],[-9.584142,53.303136],[-9.584203,53.302879],[-9.58426,53.30266],[-9.584302,53.302574],[-9.584227,53.302561],[-9.584207,53.302649],[-9.584188,53.302696],[-9.584169,53.302743],[-9.584136,53.302895],[-9.584139,53.302918],[-9.584122,53.303016],[-9.584078,53.303035],[-9.584042,53.303049],[-9.584021,53.303059],[-9.584001,53.30309],[-9.583968,53.303159],[-9.583928,53.303373],[-9.583901,53.303517],[-9.583829,53.303679],[-9.583812,53.303709],[-9.583647,53.303921],[-9.583451,53.304209],[-9.583391,53.304302],[-9.583278,53.304427],[-9.583134,53.30461],[-9.583049,53.304726],[-9.582982,53.304789],[-9.582918,53.304844],[-9.5828,53.30491],[-9.58266,53.305006],[-9.582415,53.305207],[-9.582358,53.305292],[-9.582278,53.305453],[-9.582226,53.305594],[-9.582103,53.305584],[-9.581933,53.305559],[-9.581635,53.305507],[-9.581457,53.305487],[-9.581208,53.305489],[-9.581186,53.305315],[-9.581192,53.305257],[-9.581216,53.305196],[-9.581225,53.305188],[-9.581139,53.305164],[-9.58102,53.305122],[-9.580834,53.305048],[-9.580723,53.305003],[-9.580608,53.30495],[-9.580434,53.304873],[-9.580396,53.304845],[-9.580368,53.3048],[-9.580348,53.304777],[-9.580323,53.304736],[-9.58031,53.304715],[-9.580286,53.304655],[-9.580262,53.30464],[-9.58024,53.3046],[-9.580196,53.30453],[-9.580043,53.304652],[-9.58001,53.304678],[-9.579544,53.305023],[-9.579427,53.305146],[-9.579211,53.305406],[-9.578968,53.305677],[-9.57887,53.305787],[-9.578745,53.305936],[-9.578511,53.306216],[-9.578066,53.306817],[-9.578043,53.306848],[-9.577901,53.307043],[-9.577645,53.307394],[-9.577514,53.307571],[-9.577369,53.307777],[-9.57709,53.308155],[-9.576725,53.308664],[-9.576615,53.308836],[-9.576489,53.309029],[-9.576412,53.30915],[-9.576358,53.309234],[-9.576237,53.309424],[-9.576214,53.30946],[-9.576202,53.309476],[-9.57607,53.309652],[-9.575996,53.30975],[-9.575921,53.309849],[-9.575918,53.309854],[-9.575882,53.309901],[-9.575814,53.310011],[-9.575753,53.31011],[-9.575695,53.310206],[-9.575637,53.310302],[-9.575619,53.310328],[-9.575521,53.31047],[-9.57551,53.310486],[-9.575241,53.310862],[-9.57508,53.311103],[-9.575033,53.311174],[-9.574888,53.311393],[-9.574701,53.311675],[-9.574589,53.311868],[-9.574582,53.31188],[-9.574484,53.312059],[-9.574453,53.312123],[-9.574376,53.312286],[-9.574232,53.312502],[-9.574122,53.312669],[-9.574062,53.312767],[-9.574009,53.312854],[-9.573867,53.31309],[-9.573826,53.313157],[-9.573678,53.313391]],[[-9.589925,53.308655],[-9.590002,53.308506],[-9.590066,53.308406],[-9.590244,53.308487],[-9.590558,53.308649],[-9.590966,53.30882],[-9.590986,53.308827],[-9.59097,53.308917],[-9.590815,53.309093],[-9.590646,53.309259],[-9.590413,53.309482],[-9.590475,53.309516],[-9.590343,53.309663],[-9.589961,53.310085],[-9.589537,53.310301],[-9.588886,53.309682],[-9.588815,53.309615],[-9.589308,53.309092],[-9.589673,53.309218],[-9.589715,53.309123],[-9.589836,53.308839],[-9.589922,53.308765],[-9.589916,53.308751],[-9.589912,53.308716],[-9.589925,53.308655]],[[-9.590541,53.311082],[-9.590562,53.311073],[-9.590635,53.311112],[-9.59125,53.311149],[-9.591101,53.311363],[-9.590543,53.312164],[-9.589815,53.311875],[-9.589367,53.311739],[-9.588977,53.311651],[-9.589663,53.310821],[-9.589929,53.310885],[-9.590149,53.310947],[-9.590455,53.311047],[-9.590541,53.311082]],[[-9.58993,53.313293],[-9.590316,53.313456],[-9.590106,53.313651],[-9.589753,53.313684],[-9.589617,53.313615],[-9.589518,53.313619],[-9.589384,53.313594],[-9.589322,53.31359],[-9.58922,53.313556],[-9.589158,53.313539],[-9.589129,53.313522],[-9.589088,53.313477],[-9.589063,53.313475],[-9.588896,53.313456],[-9.58878,53.313438],[-9.588733,53.313416],[-9.588692,53.31338],[-9.588638,53.313421],[-9.588276,53.313307],[-9.588259,53.31325],[-9.588205,53.313066],[-9.588325,53.31277],[-9.589002,53.313003],[-9.589508,53.313195],[-9.58993,53.313293]],[[-9.582359,53.309948],[-9.582808,53.309942],[-9.582818,53.310212],[-9.582368,53.310218],[-9.582359,53.309948]]],[[[-9.574044,53.315698],[-9.573902,53.315744],[-9.573858,53.315768],[-9.57388,53.315786],[-9.573895,53.315801],[-9.573885,53.315819],[-9.573845,53.31583],[-9.573825,53.315842],[-9.573874,53.315891],[-9.573928,53.315951],[-9.574,53.315997],[-9.573968,53.316085],[-9.573775,53.3161],[-9.573761,53.316161],[-9.573561,53.316263],[-9.573475,53.316266],[-9.573434,53.316244],[-9.573443,53.316219],[-9.573389,53.316217],[-9.573364,53.316195],[-9.573363,53.316163],[-9.573377,53.316143],[-9.573377,53.316143],[-9.573377,53.316143],[-9.573427,53.316112],[-9.573416,53.316093],[-9.573372,53.316043],[-9.573335,53.316046],[-9.573306,53.316035],[-9.573309,53.316005],[-9.57333,53.31595],[-9.573315,53.315938],[-9.573261,53.31594],[-9.573131,53.315941],[-9.573087,53.315926],[-9.573036,53.31589],[-9.573042,53.315868],[-9.573042,53.315868],[-9.573042,53.315868],[-9.573096,53.315852],[-9.573147,53.315869],[-9.573172,53.315854],[-9.573204,53.315813],[-9.573221,53.315756],[-9.573203,53.315732],[-9.573067,53.315666],[-9.573002,53.315638],[-9.572987,53.315777],[-9.57296,53.316175],[-9.572914,53.316655],[-9.572914,53.316657],[-9.572913,53.316679],[-9.572884,53.317255],[-9.572862,53.317451],[-9.57286,53.317473],[-9.572858,53.317486],[-9.572855,53.317514],[-9.572854,53.317526],[-9.572852,53.317542],[-9.572815,53.317881],[-9.572787,53.318524],[-9.572769,53.318809],[-9.572828,53.318798],[-9.573408,53.318687],[-9.573391,53.318231],[-9.574891,53.318211],[-9.574858,53.317313],[-9.576358,53.317293],[-9.576476,53.317291],[-9.576463,53.317274],[-9.576456,53.317259],[-9.57648,53.317235],[-9.576516,53.317202],[-9.576533,53.317167],[-9.576529,53.317137],[-9.57654,53.317111],[-9.576593,53.31708],[-9.576734,53.317042],[-9.576755,53.317023],[-9.57678,53.31699],[-9.5768,53.316929],[-9.57685,53.31687],[-9.576885,53.316844],[-9.576932,53.316824],[-9.576939,53.316809],[-9.576938,53.316772],[-9.576937,53.316724],[-9.576962,53.316666],[-9.57699,53.316629],[-9.577047,53.316602],[-9.577109,53.316628],[-9.577145,53.31663],[-9.577163,53.316612],[-9.577215,53.316493],[-9.57729,53.316278],[-9.5773,53.316221],[-9.577318,53.316189],[-9.577368,53.316162],[-9.577407,53.316129],[-9.5775,53.315988],[-9.577562,53.315855],[-9.57765,53.315761],[-9.57771,53.315693],[-9.577717,53.315639],[-9.577694,53.315611],[-9.577629,53.315598],[-9.577549,53.315605],[-9.577495,53.315599],[-9.577458,53.31558],[-9.57744,53.315554],[-9.577468,53.315526],[-9.577478,53.315485],[-9.577471,53.315469],[-9.577427,53.315455],[-9.577369,53.315457],[-9.577289,53.315449],[-9.577214,53.31546],[-9.577135,53.3155],[-9.576927,53.315584],[-9.576829,53.315608],[-9.576746,53.315626],[-9.57667,53.315616],[-9.576587,53.315604],[-9.576514,53.315567],[-9.576441,53.315546],[-9.576386,53.315531],[-9.576329,53.315524],[-9.576196,53.315551],[-9.576027,53.315593],[-9.575912,53.31564],[-9.575844,53.315684],[-9.575817,53.315701],[-9.575762,53.315738],[-9.575675,53.315734],[-9.575623,53.315687],[-9.575637,53.315526],[-9.575531,53.315462],[-9.575434,53.31537],[-9.575391,53.315408],[-9.57536,53.315456],[-9.575205,53.315481],[-9.57515,53.315516],[-9.575108,53.315523],[-9.575059,53.315592],[-9.574975,53.315612],[-9.574898,53.315622],[-9.574852,53.315566],[-9.574755,53.315514],[-9.574665,53.315515],[-9.57458,53.315561],[-9.574504,53.315603],[-9.574422,53.315606],[-9.574399,53.315588],[-9.574423,53.315507],[-9.574423,53.315458],[-9.574395,53.315442],[-9.574347,53.31545],[-9.574293,53.315488],[-9.574291,53.315499],[-9.57428,53.31551],[-9.574209,53.31562],[-9.574044,53.315698]]],[[[-9.573254,53.315514],[-9.573287,53.315582],[-9.573301,53.315574],[-9.573315,53.315552],[-9.573328,53.315465],[-9.573284,53.315435],[-9.573229,53.315401],[-9.573203,53.315366],[-9.573184,53.315316],[-9.573027,53.315417],[-9.573027,53.315417],[-9.573007,53.315593],[-9.573022,53.315584],[-9.573083,53.315553],[-9.573163,53.315553],[-9.573172,53.315555],[-9.573172,53.315555],[-9.573254,53.315514]]]]}}]}
