{"type":"FeatureCollection","features":[{"type":"Feature","properties":{"source_fid":2087587,"county":"Kerry","bog_geom_ha":168.9431008624762,"low15_pct":70.207116303770576,"low15_ha":118.6100793097151,"overlay_ha":118.597926190892,"area_delta":-0.012153118823107434},"geometry":{"type":"MultiPolygon","coordinates":[[[[-9.284841,52.226462],[-9.285026,52.226516],[-9.284999,52.226506],[-9.284845,52.226463],[-9.284841,52.226462]]],[[[-9.285463,52.226654],[-9.285374,52.226613],[-9.285266,52.22659],[-9.285308,52.226603],[-9.285389,52.226638],[-9.285713,52.226778],[-9.285675,52.226761],[-9.285575,52.226716],[-9.285463,52.226654]]],[[[-9.286464,52.227122],[-9.286284,52.227047],[-9.286104,52.226967],[-9.285929,52.226878],[-9.285799,52.226818],[-9.285937,52.226888],[-9.286036,52.226937],[-9.286331,52.227073],[-9.286741,52.227262],[-9.287267,52.227513],[-9.287383,52.227566],[-9.287715,52.227718],[-9.288166,52.227934],[-9.288201,52.22795],[-9.288405,52.228042],[-9.288396,52.228037],[-9.288216,52.227954],[-9.288053,52.227866],[-9.28783,52.227752],[-9.287657,52.227671],[-9.287473,52.227597],[-9.287293,52.227518],[-9.287179,52.22746],[-9.287011,52.227371],[-9.286827,52.227279],[-9.286646,52.227202],[-9.286464,52.227122]]],[[[-9.294135,52.231539],[-9.294259,52.231561],[-9.294252,52.231308],[-9.293744,52.231313],[-9.29374,52.23141],[-9.293816,52.231441],[-9.293816,52.231441],[-9.293926,52.231475],[-9.294003,52.231499],[-9.29406,52.231524],[-9.29407,52.231528],[-9.294135,52.231539]]],[[[-9.293767,52.230755],[-9.293766,52.230774],[-9.294236,52.230768],[-9.294244,52.231038],[-9.296,52.231019],[-9.295992,52.230749],[-9.296431,52.230744],[-9.296424,52.230475],[-9.295984,52.23048],[-9.295977,52.23021],[-9.296416,52.230205],[-9.296408,52.229936],[-9.297286,52.229926],[-9.297278,52.229656],[-9.297717,52.229652],[-9.297709,52.229382],[-9.29727,52.229387],[-9.297262,52.229117],[-9.297701,52.229112],[-9.297693,52.228843],[-9.297254,52.228848],[-9.297247,52.228578],[-9.297239,52.228308],[-9.297231,52.228039],[-9.296792,52.228044],[-9.296784,52.227774],[-9.296776,52.227504],[-9.296768,52.227235],[-9.297207,52.22723],[-9.297199,52.22696],[-9.297638,52.226956],[-9.297631,52.226686],[-9.29807,52.226681],[-9.298062,52.226412],[-9.298501,52.226407],[-9.298493,52.226137],[-9.29981,52.226123],[-9.299818,52.226392],[-9.300257,52.226387],[-9.300265,52.226657],[-9.300704,52.226652],[-9.300712,52.226922],[-9.30159,52.226912],[-9.301597,52.227182],[-9.303353,52.227162],[-9.303346,52.226893],[-9.304663,52.226878],[-9.304671,52.227148],[-9.30511,52.227143],[-9.305102,52.226873],[-9.305541,52.226869],[-9.305533,52.226599],[-9.305972,52.226594],[-9.305964,52.226324],[-9.30772,52.226305],[-9.307712,52.226035],[-9.308151,52.226031],[-9.308143,52.225761],[-9.308582,52.225756],[-9.308574,52.225487],[-9.309452,52.225477],[-9.309444,52.225207],[-9.309883,52.225202],[-9.309875,52.224933],[-9.310753,52.224923],[-9.310745,52.224653],[-9.311623,52.224644],[-9.311631,52.224913],[-9.311192,52.224918],[-9.3112,52.225188],[-9.311208,52.225457],[-9.310769,52.225462],[-9.310777,52.225732],[-9.309899,52.225742],[-9.309907,52.226011],[-9.310346,52.226006],[-9.310354,52.226276],[-9.311232,52.226266],[-9.311224,52.225996],[-9.311663,52.225992],[-9.311655,52.225722],[-9.312094,52.225717],[-9.312086,52.225448],[-9.312525,52.225443],[-9.312517,52.225173],[-9.312509,52.224903],[-9.313826,52.224889],[-9.313818,52.224619],[-9.31381,52.22435],[-9.314249,52.224345],[-9.314241,52.224075],[-9.31468,52.22407],[-9.314672,52.223801],[-9.314727,52.2238],[-9.314737,52.223614],[-9.314807,52.222968],[-9.314811,52.222657],[-9.314833,52.222249],[-9.314831,52.222207],[-9.314822,52.222003],[-9.314808,52.222003],[-9.314805,52.222073],[-9.314806,52.222184],[-9.314804,52.222423],[-9.314795,52.222665],[-9.314778,52.2229],[-9.314367,52.222996],[-9.313813,52.223098],[-9.313404,52.223144],[-9.313036,52.223222],[-9.312743,52.223255],[-9.312477,52.223297],[-9.312028,52.223345],[-9.31162,52.223421],[-9.311172,52.223481],[-9.310892,52.223528],[-9.310368,52.223586],[-9.309928,52.223626],[-9.309333,52.223709],[-9.308698,52.223787],[-9.308213,52.223818],[-9.307778,52.223863],[-9.307333,52.223907],[-9.306826,52.223956],[-9.306413,52.223999],[-9.306026,52.224028],[-9.305493,52.22408],[-9.305013,52.224135],[-9.304613,52.224189],[-9.30404,52.224255],[-9.303534,52.224335],[-9.302988,52.22439],[-9.302579,52.224449],[-9.302171,52.224497],[-9.301722,52.22456],[-9.301274,52.224639],[-9.300832,52.224753],[-9.300567,52.224838],[-9.300311,52.224931],[-9.300104,52.225029],[-9.299801,52.225175],[-9.299475,52.225318],[-9.299105,52.225451],[-9.298814,52.225558],[-9.29851,52.225693],[-9.298144,52.225823],[-9.297879,52.225919],[-9.297623,52.226009],[-9.297346,52.226133],[-9.297003,52.226279],[-9.296709,52.226433],[-9.296458,52.226572],[-9.296181,52.226674],[-9.296067,52.226771],[-9.295965,52.226915],[-9.295802,52.226996],[-9.295567,52.227195],[-9.295349,52.227373],[-9.295199,52.227575],[-9.295004,52.227776],[-9.294843,52.22803],[-9.294644,52.22841],[-9.29452,52.228595],[-9.294194,52.228735],[-9.29405,52.228827],[-9.293949,52.229028],[-9.293896,52.229207],[-9.293852,52.229541],[-9.293828,52.229916],[-9.293787,52.230374],[-9.293767,52.230755]],[[-9.313802,52.22408],[-9.31381,52.22435],[-9.313371,52.224355],[-9.313363,52.224085],[-9.313802,52.22408]],[[-9.312062,52.224639],[-9.311623,52.224644],[-9.311615,52.224374],[-9.312054,52.224369],[-9.312062,52.224639]]],[[[-9.314618,52.224968],[-9.314626,52.22488],[-9.314265,52.224884],[-9.314273,52.225154],[-9.313834,52.225158],[-9.313842,52.225428],[-9.312964,52.225438],[-9.312972,52.225707],[-9.312533,52.225712],[-9.312541,52.225982],[-9.312102,52.225987],[-9.31211,52.226256],[-9.312118,52.226526],[-9.311679,52.226531],[-9.311687,52.2268],[-9.311248,52.226805],[-9.311256,52.227075],[-9.310817,52.22708],[-9.310825,52.227349],[-9.309947,52.227359],[-9.309955,52.227629],[-9.309515,52.227633],[-9.309523,52.227903],[-9.308645,52.227913],[-9.308653,52.228182],[-9.307775,52.228192],[-9.307783,52.228462],[-9.306905,52.228471],[-9.306913,52.228741],[-9.306474,52.228746],[-9.306482,52.229015],[-9.306921,52.229011],[-9.306929,52.22928],[-9.307368,52.229275],[-9.307376,52.229545],[-9.307384,52.229815],[-9.306506,52.229824],[-9.306498,52.229555],[-9.30562,52.229564],[-9.305628,52.229834],[-9.305189,52.229839],[-9.305196,52.230108],[-9.304757,52.230113],[-9.304765,52.230383],[-9.303448,52.230397],[-9.303456,52.230667],[-9.302578,52.230677],[-9.302594,52.231216],[-9.302602,52.231485],[-9.303041,52.231481],[-9.303049,52.23175],[-9.302171,52.23176],[-9.302163,52.23149],[-9.301724,52.231495],[-9.301716,52.231226],[-9.301277,52.23123],[-9.301285,52.2315],[-9.301292,52.23177],[-9.301731,52.231765],[-9.301739,52.232034],[-9.300861,52.232044],[-9.300869,52.232314],[-9.299113,52.232333],[-9.299105,52.232063],[-9.29905,52.232064],[-9.299059,52.232372],[-9.298729,52.232376],[-9.298813,52.232395],[-9.298844,52.232409],[-9.298944,52.232429],[-9.299132,52.232393],[-9.299179,52.23238],[-9.299196,52.232378],[-9.299211,52.232376],[-9.29933,52.232414],[-9.299342,52.232418],[-9.299342,52.232418],[-9.299444,52.232476],[-9.299562,52.232544],[-9.29958,52.232549],[-9.299739,52.232596],[-9.300438,52.232588],[-9.300445,52.232845],[-9.300479,52.232857],[-9.301324,52.232848],[-9.301326,52.232926],[-9.301334,52.232928],[-9.301375,52.232939],[-9.301623,52.232941],[-9.301703,52.232942],[-9.30181,52.232957],[-9.301934,52.232974],[-9.301934,52.232974],[-9.301934,52.232974],[-9.301989,52.232998],[-9.302005,52.233011],[-9.302043,52.233042],[-9.302067,52.233048],[-9.30209,52.233053],[-9.302358,52.233067],[-9.30243,52.23308],[-9.302455,52.233085],[-9.302498,52.233085],[-9.302542,52.233084],[-9.302561,52.233083],[-9.3026,52.23308],[-9.302618,52.23308],[-9.302668,52.233082],[-9.302735,52.233095],[-9.302769,52.233101],[-9.302777,52.233102],[-9.302888,52.2331],[-9.302925,52.233094],[-9.302942,52.233086],[-9.302996,52.23306],[-9.303054,52.23304],[-9.303108,52.233038],[-9.303195,52.233035],[-9.303224,52.233037],[-9.303231,52.233037],[-9.303336,52.233055],[-9.303397,52.233059],[-9.303467,52.233035],[-9.30349,52.233027],[-9.30352,52.233026],[-9.303552,52.233025],[-9.303642,52.233022],[-9.303642,52.233022],[-9.303642,52.233022],[-9.303658,52.233026],[-9.303747,52.233046],[-9.303849,52.23309],[-9.304844,52.233079],[-9.304848,52.233188],[-9.304879,52.233194],[-9.304886,52.233196],[-9.304937,52.233206],[-9.304938,52.233206],[-9.304938,52.233207],[-9.304954,52.23321],[-9.305005,52.233232],[-9.305063,52.233259],[-9.305088,52.233318],[-9.305089,52.233346],[-9.305291,52.233343],[-9.305297,52.23355],[-9.305311,52.233554],[-9.305374,52.23357],[-9.30543,52.233593],[-9.305475,52.233611],[-9.305738,52.233608],[-9.305744,52.233816],[-9.305767,52.233835],[-9.30582,52.233952],[-9.305825,52.233961],[-9.305837,52.233981],[-9.305909,52.234094],[-9.306428,52.234089],[-9.306438,52.23441],[-9.30664,52.234407],[-9.306632,52.234138],[-9.306624,52.233868],[-9.307064,52.233863],[-9.307071,52.234133],[-9.307511,52.234128],[-9.307518,52.234398],[-9.307958,52.234393],[-9.307965,52.234662],[-9.308405,52.234657],[-9.308412,52.234927],[-9.309291,52.234917],[-9.309292,52.234956],[-9.31017,52.234946],[-9.310169,52.234908],[-9.310608,52.234903],[-9.310592,52.234363],[-9.310827,52.234361],[-9.310791,52.233141],[-9.312255,52.233125],[-9.312259,52.233266],[-9.312317,52.233266],[-9.312309,52.232996],[-9.312748,52.232991],[-9.31274,52.232722],[-9.313179,52.232717],[-9.313171,52.232447],[-9.31361,52.232442],[-9.313602,52.232173],[-9.314041,52.232168],[-9.314025,52.231629],[-9.314009,52.231089],[-9.31357,52.231094],[-9.313538,52.230016],[-9.313514,52.229207],[-9.313953,52.229202],[-9.313977,52.230011],[-9.314416,52.230006],[-9.314416,52.229998],[-9.314385,52.229973],[-9.314319,52.229898],[-9.31435,52.229814],[-9.314361,52.229769],[-9.31431,52.229725],[-9.314266,52.229701],[-9.314276,52.229641],[-9.314254,52.229575],[-9.314247,52.229545],[-9.314231,52.229478],[-9.31418,52.229442],[-9.314131,52.22925],[-9.314192,52.229201],[-9.314206,52.229152],[-9.314173,52.229115],[-9.314075,52.229077],[-9.31405,52.229047],[-9.31406,52.229],[-9.314016,52.228936],[-9.31401,52.228932],[-9.313945,52.228933],[-9.313944,52.228887],[-9.313922,52.228872],[-9.313863,52.228799],[-9.313848,52.228733],[-9.313782,52.228662],[-9.313821,52.228622],[-9.313788,52.228532],[-9.31374,52.228423],[-9.313623,52.228337],[-9.313651,52.228251],[-9.313578,52.228141],[-9.313585,52.228118],[-9.313599,52.228072],[-9.313649,52.228033],[-9.313703,52.227992],[-9.313932,52.227802],[-9.314092,52.227627],[-9.314166,52.227498],[-9.314168,52.227494],[-9.314233,52.227358],[-9.314265,52.22734],[-9.314291,52.227325],[-9.314431,52.227291],[-9.314496,52.227242],[-9.314506,52.22718],[-9.314602,52.227124],[-9.314619,52.226996],[-9.314604,52.226918],[-9.314601,52.226854],[-9.314597,52.226761],[-9.314585,52.226582],[-9.31458,52.226311],[-9.31461,52.225908],[-9.314594,52.225215],[-9.314618,52.224968]],[[-9.306617,52.233599],[-9.306624,52.233868],[-9.306185,52.233873],[-9.306177,52.233603],[-9.306617,52.233599]],[[-9.307807,52.22927],[-9.307368,52.229275],[-9.30736,52.229006],[-9.307799,52.229001],[-9.307807,52.22927]],[[-9.313067,52.228942],[-9.313036,52.227864],[-9.313475,52.227859],[-9.313506,52.228938],[-9.313067,52.228942]],[[-9.305683,52.231721],[-9.305244,52.231726],[-9.305236,52.231456],[-9.305228,52.231187],[-9.305667,52.231182],[-9.305651,52.230643],[-9.30609,52.230638],[-9.306106,52.231177],[-9.306114,52.231447],[-9.305675,52.231452],[-9.305683,52.231721]],[[-9.30613,52.231986],[-9.306114,52.231447],[-9.306553,52.231442],[-9.306569,52.231981],[-9.30613,52.231986]],[[-9.304805,52.231731],[-9.305244,52.231726],[-9.305252,52.231996],[-9.304813,52.232],[-9.304805,52.231731]]],[[[-9.314505,52.230068],[-9.314426,52.230006],[-9.314416,52.230006],[-9.314448,52.231084],[-9.314464,52.231624],[-9.314903,52.231619],[-9.314919,52.232158],[-9.314927,52.232428],[-9.315366,52.232423],[-9.31536,52.232205],[-9.315329,52.232204],[-9.315268,52.232204],[-9.315144,52.232246],[-9.315142,52.232189],[-9.315148,52.232078],[-9.315176,52.232027],[-9.315154,52.231996],[-9.315088,52.231939],[-9.31511,52.231904],[-9.315134,52.231857],[-9.315065,52.2318],[-9.31497,52.231714],[-9.314952,52.231645],[-9.314933,52.23161],[-9.314864,52.231561],[-9.314896,52.231512],[-9.314942,52.23147],[-9.314935,52.231435],[-9.314883,52.231342],[-9.314861,52.231269],[-9.314816,52.231176],[-9.314812,52.231121],[-9.314887,52.231056],[-9.314877,52.230732],[-9.314851,52.23072],[-9.314794,52.230744],[-9.314685,52.230687],[-9.314663,52.230636],[-9.314691,52.23057],[-9.314745,52.230554],[-9.31477,52.23053],[-9.314762,52.230483],[-9.314718,52.230446],[-9.314606,52.230413],[-9.314562,52.230305],[-9.314565,52.230251],[-9.314572,52.230229],[-9.314492,52.230212],[-9.314452,52.230177],[-9.314462,52.230134],[-9.314531,52.230108],[-9.314505,52.230068]]],[[[-9.315524,52.23215],[-9.315523,52.232151],[-9.315797,52.232148],[-9.31579,52.231919],[-9.315673,52.231943],[-9.315659,52.231974],[-9.315659,52.232001],[-9.315645,52.232039],[-9.315584,52.232054],[-9.315523,52.232126],[-9.315524,52.23215]]],[[[-9.316033,52.23186],[-9.315998,52.231876],[-9.316667,52.231869],[-9.316659,52.231599],[-9.316542,52.2316],[-9.316475,52.231663],[-9.316417,52.231686],[-9.316302,52.231708],[-9.316169,52.231791],[-9.316033,52.23186]]],[[[-9.31669,52.231516],[-9.316657,52.231529],[-9.316659,52.231599],[-9.317537,52.231589],[-9.317529,52.23132],[-9.318408,52.23131],[-9.3184,52.23104],[-9.319717,52.231026],[-9.319725,52.231295],[-9.318847,52.231305],[-9.318855,52.231575],[-9.318416,52.23158],[-9.318424,52.231849],[-9.317545,52.231859],[-9.317553,52.232129],[-9.317114,52.232133],[-9.317122,52.232403],[-9.316683,52.232408],[-9.316691,52.232678],[-9.316252,52.232682],[-9.31626,52.232952],[-9.315972,52.232955],[-9.317042,52.233008],[-9.31758,52.233034],[-9.318806,52.233094],[-9.320624,52.233186],[-9.321811,52.233247],[-9.324501,52.233387],[-9.3257,52.233446],[-9.326793,52.233517],[-9.327541,52.233546],[-9.327904,52.233502],[-9.328498,52.233438],[-9.328785,52.2334],[-9.329011,52.233399],[-9.329009,52.233348],[-9.330326,52.233334],[-9.330331,52.233493],[-9.330668,52.233565],[-9.330846,52.233597],[-9.331652,52.233588],[-9.331644,52.233319],[-9.330765,52.233329],[-9.330741,52.23252],[-9.330302,52.232525],[-9.330294,52.232255],[-9.330733,52.23225],[-9.330709,52.231442],[-9.33027,52.231447],[-9.330262,52.231177],[-9.329823,52.231182],[-9.329815,52.230912],[-9.329376,52.230917],[-9.329352,52.230108],[-9.329791,52.230104],[-9.329783,52.229834],[-9.331539,52.229814],[-9.331547,52.230084],[-9.331907,52.23008],[-9.331904,52.230036],[-9.331889,52.229919],[-9.331889,52.229815],[-9.331882,52.2297],[-9.331876,52.229617],[-9.331873,52.22948],[-9.331867,52.229375],[-9.331869,52.229246],[-9.331867,52.229162],[-9.331862,52.229003],[-9.331858,52.228881],[-9.331845,52.228702],[-9.330775,52.228679],[-9.328239,52.228628],[-9.328249,52.228652],[-9.328227,52.228734],[-9.328195,52.228809],[-9.328094,52.22887],[-9.328,52.228926],[-9.327986,52.228945],[-9.327818,52.229038],[-9.327689,52.229081],[-9.327579,52.229117],[-9.327464,52.229144],[-9.327332,52.229182],[-9.327289,52.229218],[-9.327253,52.229247],[-9.327125,52.229256],[-9.327035,52.229279],[-9.326835,52.229339],[-9.326664,52.229349],[-9.326585,52.229365],[-9.326538,52.229462],[-9.326438,52.229518],[-9.326337,52.229576],[-9.326294,52.229607],[-9.326183,52.229676],[-9.326072,52.229716],[-9.325977,52.229717],[-9.325864,52.229717],[-9.325683,52.229727],[-9.325673,52.22973],[-9.325579,52.229759],[-9.325494,52.229785],[-9.325294,52.229809],[-9.32526,52.229837],[-9.325102,52.229928],[-9.324958,52.230002],[-9.324652,52.230048],[-9.323939,52.230155],[-9.323806,52.230173],[-9.323153,52.230261],[-9.323056,52.230274],[-9.322637,52.230345],[-9.322307,52.230401],[-9.322099,52.230433],[-9.321446,52.230535],[-9.321395,52.230543],[-9.321237,52.230569],[-9.321042,52.230605],[-9.32091,52.230579],[-9.320786,52.230556],[-9.320668,52.230558],[-9.32053,52.230561],[-9.320411,52.230575],[-9.320162,52.230656],[-9.319892,52.230681],[-9.319831,52.230694],[-9.319575,52.230747],[-9.319334,52.230776],[-9.319132,52.230773],[-9.319063,52.2308],[-9.318953,52.230895],[-9.318844,52.230898],[-9.318668,52.23091],[-9.318448,52.230933],[-9.31836,52.230957],[-9.318246,52.230989],[-9.318117,52.231034],[-9.318074,52.231085],[-9.317965,52.23109],[-9.317872,52.231086],[-9.3178,52.231118],[-9.317736,52.231146],[-9.317693,52.231189],[-9.317675,52.231226],[-9.317528,52.23128],[-9.317503,52.231289],[-9.31742,52.231345],[-9.317361,52.231347],[-9.317272,52.23135],[-9.317142,52.231339],[-9.31706,52.231364],[-9.316991,52.231406],[-9.316978,52.231453],[-9.316938,52.231495],[-9.316885,52.231548],[-9.316834,52.231549],[-9.316751,52.231525],[-9.31669,52.231516]]],[[[-9.314455,52.232863],[-9.314501,52.232876],[-9.314496,52.232702],[-9.314057,52.232707],[-9.314062,52.232896],[-9.314152,52.232904],[-9.314267,52.232894],[-9.314455,52.232863]]],[[[-9.314066,52.233014],[-9.314036,52.232977],[-9.313626,52.232981],[-9.313634,52.233251],[-9.313672,52.233251],[-9.313731,52.233219],[-9.313943,52.233155],[-9.31407,52.233164],[-9.314066,52.233014]]],[[[-9.313623,52.233325],[-9.313635,52.233285],[-9.313634,52.233251],[-9.313195,52.233256],[-9.313203,52.233525],[-9.313325,52.233524],[-9.313385,52.233416],[-9.313435,52.233384],[-9.313497,52.233385],[-9.313623,52.233325]]],[[[-9.31302,52.233666],[-9.313205,52.23361],[-9.313203,52.233525],[-9.312764,52.23353],[-9.312772,52.2338],[-9.312875,52.233799],[-9.312816,52.233771],[-9.312787,52.233719],[-9.312795,52.233647],[-9.31302,52.233666]]],[[[-9.31272,52.233933],[-9.312776,52.233952],[-9.312772,52.2338],[-9.312332,52.233805],[-9.31234,52.234061],[-9.312455,52.23406],[-9.312488,52.234048],[-9.312507,52.233869],[-9.31254,52.233844],[-9.312584,52.233847],[-9.31272,52.233933]]],[[[-9.307535,52.234975],[-9.307974,52.23497],[-9.307973,52.234932],[-9.307534,52.234937],[-9.307535,52.234975]]],[[[-9.307224,52.234889],[-9.30729,52.234939],[-9.307534,52.234937],[-9.307526,52.234667],[-9.307087,52.234672],[-9.307091,52.23481],[-9.307153,52.234845],[-9.307224,52.234889]]],[[[-9.306809,52.234661],[-9.306871,52.234674],[-9.307087,52.234672],[-9.307079,52.234402],[-9.30664,52.234407],[-9.306647,52.234621],[-9.306724,52.23464],[-9.306791,52.234657],[-9.306809,52.234661]]],[[[-9.30047,52.230559],[-9.300474,52.2307],[-9.300822,52.230696],[-9.300814,52.230426],[-9.300806,52.230157],[-9.300798,52.229887],[-9.30079,52.229618],[-9.300782,52.229348],[-9.300775,52.229079],[-9.300767,52.228809],[-9.300419,52.228813],[-9.300444,52.229661],[-9.300352,52.229662],[-9.300359,52.229892],[-9.300367,52.230162],[-9.300375,52.230431],[-9.300379,52.23056],[-9.30047,52.230559]]],[[[-9.290825,52.229234],[-9.290798,52.229215],[-9.290809,52.229228],[-9.290825,52.229234]]],[[[-9.311328,52.235227],[-9.311333,52.23517],[-9.311346,52.235164],[-9.311055,52.235167],[-9.311062,52.235407],[-9.31108,52.235411],[-9.311109,52.235436],[-9.311249,52.235435],[-9.311242,52.235352],[-9.311328,52.235227]]],[[[-9.310859,52.23545],[-9.310872,52.235439],[-9.310859,52.235439],[-9.310859,52.23545]]],[[[-9.309408,52.235876],[-9.309429,52.235865],[-9.309456,52.235852],[-9.309408,52.235853],[-9.309408,52.235876]]],[[[-9.309769,52.236064],[-9.309997,52.235988],[-9.309761,52.235991],[-9.309757,52.235849],[-9.309612,52.235851],[-9.309617,52.235873],[-9.30958,52.235949],[-9.30956,52.23599],[-9.309547,52.236079],[-9.309587,52.236123],[-9.309642,52.236144],[-9.309681,52.236158],[-9.309681,52.236158],[-9.309681,52.236158],[-9.309769,52.236064]]],[[[-9.301261,52.230691],[-9.300822,52.230696],[-9.30083,52.230966],[-9.300838,52.231235],[-9.301277,52.23123],[-9.301261,52.230691]]],[[[-9.309915,52.226281],[-9.309907,52.226011],[-9.309029,52.226021],[-9.309037,52.22629],[-9.309915,52.226281]]],[[[-9.302491,52.227711],[-9.302052,52.227716],[-9.30206,52.227986],[-9.302499,52.227981],[-9.302491,52.227711]]],[[[-9.301613,52.227721],[-9.302052,52.227716],[-9.302044,52.227446],[-9.301605,52.227451],[-9.301613,52.227721]]],[[[-9.305604,52.229025],[-9.305612,52.229295],[-9.306051,52.22929],[-9.306043,52.22902],[-9.305604,52.229025]]],[[[-9.314935,52.232697],[-9.314927,52.232428],[-9.314488,52.232432],[-9.314496,52.232702],[-9.314935,52.232697]]]]}}]}
