{"type":"FeatureCollection","features":[{"type":"Feature","properties":{"source_fid":2098093,"county":"Westmeath","bog_geom_ha":120.99675454574349,"low15_pct":99.925484351713862,"low15_ha":120.90659302968852,"overlay_ha":120.78648828923613,"area_delta":-0.1201047404523905},"geometry":{"type":"MultiPolygon","coordinates":[[[[-7.043811,53.550839],[-7.043789,53.550796],[-7.043665,53.550528],[-7.043574,53.550329],[-7.043478,53.550121],[-7.043203,53.54966],[-7.043018,53.549342],[-7.043018,53.549342],[-7.043018,53.549342],[-7.042959,53.549268],[-7.042768,53.549026],[-7.042612,53.548789],[-7.042474,53.548613],[-7.04236,53.548448],[-7.042333,53.548408],[-7.042322,53.548371],[-7.042263,53.548184],[-7.042016,53.547448],[-7.041967,53.547264],[-7.042102,53.547207],[-7.042572,53.547021],[-7.042587,53.547014],[-7.042555,53.546939],[-7.042498,53.546963],[-7.042011,53.547172],[-7.041505,53.547397],[-7.041269,53.547503],[-7.040892,53.54767],[-7.040729,53.547743],[-7.040483,53.547847],[-7.040192,53.54792],[-7.039708,53.548021],[-7.039323,53.548094],[-7.039116,53.54813],[-7.039063,53.54814],[-7.039032,53.548146],[-7.038642,53.5474],[-7.038197,53.546502],[-7.037878,53.546574],[-7.037203,53.546727],[-7.036763,53.54683],[-7.036299,53.546939],[-7.035242,53.547191],[-7.035241,53.547191],[-7.0338,53.547531],[-7.033275,53.547654],[-7.032875,53.547747],[-7.032377,53.547863],[-7.032374,53.547877],[-7.032373,53.547879],[-7.032346,53.547881],[-7.03232,53.547882],[-7.032205,53.547903],[-7.032172,53.547909],[-7.032113,53.547922],[-7.031991,53.547948],[-7.031852,53.547984],[-7.03185,53.547984],[-7.031839,53.547987],[-7.031837,53.547987],[-7.031829,53.547989],[-7.031955,53.548072],[-7.032,53.548088],[-7.032116,53.548176],[-7.03223,53.548263],[-7.032282,53.548292],[-7.032538,53.548236],[-7.033027,53.548131],[-7.033336,53.548133],[-7.03356,53.548144],[-7.03356,53.548144],[-7.03372,53.548152],[-7.033974,53.548164],[-7.034025,53.548192],[-7.034114,53.548241],[-7.034372,53.548721],[-7.034372,53.548721],[-7.034372,53.548721],[-7.033969,53.548871],[-7.033942,53.548882],[-7.033786,53.548949],[-7.033616,53.549016],[-7.033285,53.54916],[-7.033094,53.549264],[-7.032939,53.549342],[-7.032877,53.549374],[-7.032739,53.549443],[-7.032509,53.549573],[-7.032426,53.549646],[-7.032349,53.549726],[-7.032219,53.549825],[-7.0321,53.549891],[-7.032042,53.549946],[-7.031858,53.55005],[-7.031586,53.550152],[-7.031419,53.550194],[-7.031448,53.550209],[-7.031385,53.550234],[-7.031244,53.550298],[-7.03115,53.55034],[-7.030805,53.550497],[-7.030264,53.550741],[-7.030029,53.550831],[-7.030007,53.550842],[-7.03001,53.550845],[-7.030091,53.550906],[-7.030211,53.551011],[-7.030349,53.551139],[-7.030352,53.551142],[-7.030508,53.551299],[-7.030626,53.551425],[-7.03067,53.551472],[-7.030885,53.551708],[-7.031065,53.551913],[-7.031435,53.55232],[-7.031453,53.552339],[-7.031958,53.552895],[-7.032083,53.553031],[-7.032236,53.553209],[-7.033906,53.552807],[-7.034024,53.553013],[-7.03238,53.553375],[-7.03252,53.553537],[-7.032577,53.553601],[-7.032782,53.553826],[-7.0329,53.553957],[-7.032962,53.554027],[-7.033063,53.55414],[-7.033147,53.554234],[-7.034757,53.553954],[-7.035526,53.554925],[-7.034042,53.555249],[-7.034241,53.555476],[-7.034658,53.555986],[-7.034794,53.556144],[-7.03503,53.556475],[-7.035491,53.556999],[-7.03513,53.557757],[-7.035097,53.557826],[-7.034995,53.55804],[-7.034652,53.558671],[-7.034652,53.558671],[-7.034979,53.558706],[-7.034979,53.558706],[-7.034979,53.558706],[-7.03575,53.558764],[-7.035794,53.558767],[-7.035802,53.558767],[-7.036825,53.558836],[-7.038325,53.558425],[-7.042999,53.557277],[-7.043664,53.557114],[-7.043664,53.557114],[-7.043795,53.556886],[-7.043796,53.556882],[-7.043797,53.556877],[-7.043703,53.556849],[-7.043601,53.556812],[-7.043574,53.5568],[-7.043574,53.5568],[-7.043563,53.556785],[-7.043562,53.556776],[-7.04356,53.556766],[-7.04356,53.556766],[-7.043562,53.556762],[-7.043571,53.556744],[-7.043583,53.556727],[-7.043585,53.5567],[-7.043581,53.556672],[-7.043579,53.556653],[-7.043581,53.556613],[-7.043586,53.556596],[-7.043596,53.556561],[-7.0437,53.55625],[-7.043224,53.556179],[-7.042788,53.556115],[-7.042788,53.556115],[-7.042788,53.556115],[-7.043006,53.555991],[-7.045011,53.554886],[-7.045183,53.55478],[-7.045185,53.554779],[-7.045186,53.554779],[-7.045186,53.554779],[-7.045186,53.554779],[-7.045246,53.55492],[-7.04525,53.554929],[-7.045499,53.555578],[-7.045514,53.55563],[-7.045517,53.555641],[-7.045548,53.555639],[-7.045582,53.555636],[-7.045582,53.555636],[-7.045582,53.555636],[-7.045587,53.555661],[-7.045599,53.555724],[-7.045627,53.555807],[-7.045651,53.555877],[-7.045678,53.555942],[-7.045701,53.555999],[-7.0457,53.556064],[-7.045626,53.556069],[-7.045418,53.556084],[-7.045425,53.556146],[-7.045429,53.556189],[-7.045452,53.556263],[-7.045463,53.5563],[-7.045491,53.556353],[-7.04547,53.556364],[-7.045486,53.556391],[-7.045518,53.556444],[-7.04562,53.556652],[-7.04562,53.556652],[-7.045912,53.556581],[-7.046275,53.556494],[-7.04779,53.556127],[-7.048912,53.555855],[-7.050038,53.555587],[-7.051658,53.555201],[-7.053047,53.55487],[-7.05643,53.554063],[-7.058013,53.553686],[-7.058323,53.553612],[-7.058234,53.553586],[-7.057246,53.553314],[-7.057187,53.553284],[-7.057171,53.553244],[-7.057172,53.5532],[-7.057203,53.553135],[-7.057461,53.55261],[-7.057572,53.552365],[-7.057686,53.55209],[-7.057635,53.552076],[-7.057446,53.552002],[-7.057132,53.551881],[-7.056923,53.551797],[-7.056922,53.551801],[-7.056679,53.551705],[-7.056243,53.551525],[-7.056156,53.551489],[-7.055795,53.551347],[-7.055665,53.5513],[-7.055504,53.551242],[-7.055073,53.551073],[-7.054999,53.551042],[-7.05466,53.550901],[-7.054546,53.550856],[-7.054386,53.550792],[-7.054379,53.550802],[-7.054352,53.550834],[-7.053831,53.551563],[-7.053444,53.551393],[-7.052713,53.551074],[-7.052052,53.550781],[-7.051405,53.550494],[-7.051373,53.55048],[-7.051348,53.550469],[-7.050899,53.550765],[-7.049934,53.550343],[-7.049763,53.550271],[-7.04976,53.550415],[-7.049309,53.550411],[-7.049308,53.550412],[-7.049302,53.550681],[-7.048865,53.550677],[-7.048849,53.550687],[-7.048843,53.550947],[-7.048417,53.550943],[-7.048135,53.551108],[-7.047997,53.550998],[-7.047957,53.551013],[-7.046468,53.551553],[-7.04623,53.551317],[-7.045029,53.55139],[-7.044071,53.551458],[-7.043943,53.551156],[-7.043892,53.551015],[-7.04386,53.550924],[-7.043811,53.550839]],[[-7.03658,53.551649],[-7.036775,53.551624],[-7.037028,53.551579],[-7.037298,53.551531],[-7.037298,53.551531],[-7.037298,53.551531],[-7.037507,53.551759],[-7.037689,53.551956],[-7.037689,53.551956],[-7.037689,53.551956],[-7.03755,53.551992],[-7.037703,53.552253],[-7.037715,53.552254],[-7.037728,53.552255],[-7.037728,53.552255],[-7.037728,53.552255],[-7.03792,53.55248],[-7.03792,53.55248],[-7.03792,53.55248],[-7.037906,53.552512],[-7.037898,53.552535],[-7.037895,53.552543],[-7.037818,53.552595],[-7.037709,53.552669],[-7.037685,53.552683],[-7.03749,53.552762],[-7.037293,53.55284],[-7.037066,53.552929],[-7.036853,53.553021],[-7.03668,53.553095],[-7.036302,53.553254],[-7.036098,53.55334],[-7.036098,53.55334],[-7.036098,53.55334],[-7.035966,53.553217],[-7.035798,53.553061],[-7.03504,53.552363],[-7.03504,53.552363],[-7.03504,53.552363],[-7.035753,53.552288],[-7.035704,53.552136],[-7.035647,53.551959],[-7.035647,53.551959],[-7.035808,53.551945],[-7.036476,53.551889],[-7.036425,53.551703],[-7.036427,53.551702],[-7.036453,53.551691],[-7.036542,53.55167],[-7.03658,53.551649]],[[-7.053798,53.552064],[-7.053345,53.552061],[-7.053351,53.551791],[-7.053804,53.551795],[-7.053798,53.552064]]]]}}]}
