{"type":"FeatureCollection","features":[{"type":"Feature","properties":{"source_fid":2126859,"county":"Donegal","bog_geom_ha":309.18469503901593,"low15_pct":71.182983682983675,"low15_ha":220.08689101990558,"overlay_ha":219.68673448320638,"area_delta":-0.40015653669919971},"geometry":{"type":"MultiPolygon","coordinates":[[[[-7.893772,54.640337],[-7.893896,54.640348],[-7.893877,54.64042],[-7.893732,54.640516],[-7.893474,54.640637],[-7.89347,54.64065],[-7.893428,54.640673],[-7.893351,54.640682],[-7.893214,54.64071],[-7.893172,54.640754],[-7.893143,54.640804],[-7.893158,54.640876],[-7.893166,54.640988],[-7.893186,54.641102],[-7.893096,54.641192],[-7.893082,54.64125],[-7.893117,54.641293],[-7.893071,54.641346],[-7.893012,54.641576],[-7.892942,54.64193],[-7.892833,54.642259],[-7.892693,54.642696],[-7.892582,54.643037],[-7.892402,54.643595],[-7.892348,54.643825],[-7.892263,54.644162],[-7.892119,54.644216],[-7.891744,54.644268],[-7.891355,54.644328],[-7.890972,54.644379],[-7.890769,54.644394],[-7.890562,54.644413],[-7.890337,54.644402],[-7.890184,54.644397],[-7.889795,54.644427],[-7.889418,54.644473],[-7.889383,54.644485],[-7.889383,54.644565],[-7.889148,54.644565],[-7.889114,54.644576],[-7.889022,54.644635],[-7.888918,54.644648],[-7.888917,54.644834],[-7.888326,54.644833],[-7.888285,54.644885],[-7.888175,54.645088],[-7.888139,54.645145],[-7.888025,54.64521],[-7.887987,54.645229],[-7.887986,54.645642],[-7.88938,54.645643],[-7.889379,54.645912],[-7.889844,54.645913],[-7.889843,54.646182],[-7.889843,54.646452],[-7.889904,54.646452],[-7.890055,54.646422],[-7.890187,54.646408],[-7.890416,54.646408],[-7.890744,54.646372],[-7.891048,54.64631],[-7.89121,54.646232],[-7.891374,54.64618],[-7.891454,54.646173],[-7.891577,54.646188],[-7.891637,54.646202],[-7.891727,54.646191],[-7.891819,54.646159],[-7.891916,54.646153],[-7.892215,54.64616],[-7.892591,54.646161],[-7.892794,54.64613],[-7.893173,54.646121],[-7.893399,54.646123],[-7.893647,54.646079],[-7.893926,54.646056],[-7.894027,54.646034],[-7.894027,54.645917],[-7.89441,54.645917],[-7.894452,54.645891],[-7.89452,54.645885],[-7.894534,54.645877],[-7.89456,54.64583],[-7.894593,54.645821],[-7.894627,54.645817],[-7.89467,54.645825],[-7.894723,54.645822],[-7.894907,54.645785],[-7.895058,54.645774],[-7.895164,54.6458],[-7.895291,54.645824],[-7.895517,54.645788],[-7.895749,54.645752],[-7.895887,54.645715],[-7.895887,54.645649],[-7.896128,54.645649],[-7.896247,54.645616],[-7.896335,54.645561],[-7.896422,54.645528],[-7.896535,54.645507],[-7.896717,54.645464],[-7.896887,54.645428],[-7.897202,54.645361],[-7.897288,54.645359],[-7.897437,54.645367],[-7.897643,54.645361],[-7.897757,54.645388],[-7.897911,54.645356],[-7.898254,54.645289],[-7.898734,54.645195],[-7.898895,54.645174],[-7.899104,54.645152],[-7.899142,54.645144],[-7.899142,54.645112],[-7.899302,54.645112],[-7.899336,54.645106],[-7.89955,54.645071],[-7.89987,54.645019],[-7.900164,54.644968],[-7.900356,54.64493],[-7.900511,54.644921],[-7.90079,54.644889],[-7.901033,54.644862],[-7.901142,54.64485],[-7.901371,54.644866],[-7.9015,54.644868],[-7.901677,54.644865],[-7.901677,54.644851],[-7.901704,54.644833],[-7.901704,54.64472],[-7.902268,54.644721],[-7.902376,54.644705],[-7.902462,54.6447],[-7.902752,54.644707],[-7.902897,54.644721],[-7.903253,54.644722],[-7.903253,54.64473],[-7.903315,54.644735],[-7.903454,54.644781],[-7.903528,54.644811],[-7.903555,54.64483],[-7.903678,54.64488],[-7.903841,54.644917],[-7.903894,54.644925],[-7.903957,54.644953],[-7.903971,54.64499],[-7.903951,54.645019],[-7.903965,54.645037],[-7.903985,54.645049],[-7.90402,54.645049],[-7.904136,54.645049],[-7.90425,54.645053],[-7.904283,54.645088],[-7.904313,54.6451],[-7.904373,54.645121],[-7.904503,54.64512],[-7.904608,54.645117],[-7.904691,54.645114],[-7.904814,54.645143],[-7.904857,54.645202],[-7.904906,54.645228],[-7.904928,54.645258],[-7.904948,54.645276],[-7.904969,54.645306],[-7.905001,54.645319],[-7.90506,54.64533],[-7.905133,54.645347],[-7.905262,54.645357],[-7.905404,54.64535],[-7.905613,54.645313],[-7.905648,54.645316],[-7.905649,54.645118],[-7.904719,54.645117],[-7.90472,54.644847],[-7.90472,54.644578],[-7.905185,54.644578],[-7.905186,54.644309],[-7.906115,54.644309],[-7.906116,54.64404],[-7.906581,54.64404],[-7.906582,54.643501],[-7.907047,54.643501],[-7.907047,54.643232],[-7.907048,54.642962],[-7.907049,54.642693],[-7.907978,54.642693],[-7.907979,54.642424],[-7.908908,54.642425],[-7.908909,54.642155],[-7.907979,54.642154],[-7.90798,54.641885],[-7.907515,54.641884],[-7.907516,54.641615],[-7.905657,54.641613],[-7.905658,54.641344],[-7.905193,54.641344],[-7.905193,54.641074],[-7.905658,54.641074],[-7.905659,54.640805],[-7.905659,54.640535],[-7.90473,54.640535],[-7.904731,54.640265],[-7.903801,54.640264],[-7.903802,54.639995],[-7.902872,54.639994],[-7.902873,54.639724],[-7.902874,54.639185],[-7.902875,54.638916],[-7.905663,54.638918],[-7.905663,54.639188],[-7.905662,54.639457],[-7.907056,54.639458],[-7.907055,54.639728],[-7.907985,54.639728],[-7.907984,54.639998],[-7.908449,54.639998],[-7.908448,54.640268],[-7.907984,54.640268],[-7.907983,54.640537],[-7.907982,54.640807],[-7.906588,54.640806],[-7.906588,54.641075],[-7.906587,54.641345],[-7.907516,54.641345],[-7.907517,54.641076],[-7.908447,54.641077],[-7.908446,54.641346],[-7.90984,54.641347],[-7.90984,54.641617],[-7.910769,54.641617],[-7.910769,54.641887],[-7.910768,54.642156],[-7.910767,54.642426],[-7.910303,54.642426],[-7.910302,54.642695],[-7.909837,54.642695],[-7.909837,54.642964],[-7.910301,54.642965],[-7.910301,54.643234],[-7.9103,54.643504],[-7.909835,54.643503],[-7.909835,54.643773],[-7.912159,54.643775],[-7.912159,54.643505],[-7.912624,54.643506],[-7.912623,54.643775],[-7.913553,54.643776],[-7.913554,54.643506],[-7.914018,54.643507],[-7.914019,54.643237],[-7.914948,54.643238],[-7.914949,54.642968],[-7.915414,54.642968],[-7.915414,54.642699],[-7.91495,54.642699],[-7.91495,54.642429],[-7.915415,54.642429],[-7.915415,54.64216],[-7.914951,54.642159],[-7.914951,54.64189],[-7.914101,54.641889],[-7.914101,54.642035],[-7.912552,54.642034],[-7.912553,54.641619],[-7.912163,54.641618],[-7.912164,54.641349],[-7.91077,54.641348],[-7.91077,54.641078],[-7.909841,54.641078],[-7.909841,54.640808],[-7.915418,54.640812],[-7.915418,54.641082],[-7.916347,54.641082],[-7.916348,54.640543],[-7.915884,54.640543],[-7.915884,54.640273],[-7.916814,54.640274],[-7.916813,54.640543],[-7.916812,54.641083],[-7.917741,54.641083],[-7.917741,54.641353],[-7.91867,54.641353],[-7.91867,54.641623],[-7.919134,54.641623],[-7.919134,54.641893],[-7.919599,54.641893],[-7.919598,54.642163],[-7.920063,54.642163],[-7.920062,54.642432],[-7.919133,54.642432],[-7.919132,54.642701],[-7.918668,54.642701],[-7.918667,54.642971],[-7.917273,54.64297],[-7.917273,54.6427],[-7.917738,54.6427],[-7.917739,54.642431],[-7.917739,54.642161],[-7.91681,54.642161],[-7.916809,54.64243],[-7.916809,54.6427],[-7.916344,54.6427],[-7.916343,54.642969],[-7.916808,54.642969],[-7.916807,54.643239],[-7.916343,54.643239],[-7.916342,54.643508],[-7.915413,54.643508],[-7.915412,54.643777],[-7.914483,54.643776],[-7.914482,54.644046],[-7.914481,54.644316],[-7.915411,54.644316],[-7.91541,54.644586],[-7.915645,54.644586],[-7.915646,54.643833],[-7.916341,54.643833],[-7.916342,54.643778],[-7.916806,54.643778],[-7.916807,54.643508],[-7.917272,54.643509],[-7.917271,54.643778],[-7.918201,54.643779],[-7.9182,54.644049],[-7.9182,54.644318],[-7.918199,54.644588],[-7.917734,54.644587],[-7.917734,54.644857],[-7.917269,54.644857],[-7.917268,54.645126],[-7.917192,54.645126],[-7.917192,54.645298],[-7.917603,54.645292],[-7.918242,54.645286],[-7.918399,54.645278],[-7.918525,54.645275],[-7.918659,54.645273],[-7.918757,54.645269],[-7.918876,54.645266],[-7.91916,54.645258],[-7.919882,54.64525],[-7.920334,54.64524],[-7.920443,54.645132],[-7.920454,54.64512],[-7.920568,54.645006],[-7.920568,54.645006],[-7.920569,54.645006],[-7.920762,54.644822],[-7.920926,54.644634],[-7.920927,54.644632],[-7.921086,54.644493],[-7.921177,54.644313],[-7.921251,54.64426],[-7.921251,54.64426],[-7.921251,54.64426],[-7.921364,54.644234],[-7.921509,54.644199],[-7.92159,54.644154],[-7.921698,54.64404],[-7.921801,54.643936],[-7.921801,54.643936],[-7.921801,54.643936],[-7.921829,54.643934],[-7.921845,54.643949],[-7.92188,54.643952],[-7.921925,54.643948],[-7.921964,54.643941],[-7.922091,54.643909],[-7.922144,54.64389],[-7.922243,54.643791],[-7.922337,54.643659],[-7.922348,54.64363],[-7.922415,54.643493],[-7.922427,54.643469],[-7.922461,54.643399],[-7.922539,54.643369],[-7.922632,54.643334],[-7.922651,54.643298],[-7.922704,54.643213],[-7.922746,54.643141],[-7.922807,54.64306],[-7.922807,54.64306],[-7.922807,54.64306],[-7.92289,54.643022],[-7.922921,54.642955],[-7.922899,54.642892],[-7.922932,54.642819],[-7.923,54.642733],[-7.923038,54.642666],[-7.923065,54.642585],[-7.923083,54.642487],[-7.923092,54.642443],[-7.923095,54.642427],[-7.92316,54.642403],[-7.923205,54.642278],[-7.92322,54.64215],[-7.923182,54.642006],[-7.923115,54.641876],[-7.923005,54.641766],[-7.922957,54.641683],[-7.922936,54.641578],[-7.922904,54.641534],[-7.922872,54.641462],[-7.922875,54.641448],[-7.922875,54.641448],[-7.922875,54.641448],[-7.922905,54.641437],[-7.92295,54.641417],[-7.922942,54.641395],[-7.922984,54.641357],[-7.922984,54.641357],[-7.922984,54.641357],[-7.922995,54.641354],[-7.923007,54.641334],[-7.922933,54.641193],[-7.922898,54.64115],[-7.922879,54.641093],[-7.922839,54.641053],[-7.92287,54.640995],[-7.922865,54.640982],[-7.92285,54.640973],[-7.922828,54.640928],[-7.922802,54.640904],[-7.922796,54.640884],[-7.922843,54.640838],[-7.922853,54.640753],[-7.922828,54.640727],[-7.922805,54.640712],[-7.922776,54.640674],[-7.922765,54.640633],[-7.922769,54.640588],[-7.922777,54.640571],[-7.922769,54.640543],[-7.922769,54.640543],[-7.922769,54.640543],[-7.922805,54.640527],[-7.922824,54.640534],[-7.922859,54.640525],[-7.922874,54.640503],[-7.922888,54.64048],[-7.922905,54.640449],[-7.922923,54.640417],[-7.922919,54.640364],[-7.922857,54.640283],[-7.92277,54.640208],[-7.922744,54.640151],[-7.922725,54.640115],[-7.922718,54.640086],[-7.922718,54.640086],[-7.922718,54.640086],[-7.922766,54.640066],[-7.922789,54.640015],[-7.922804,54.639986],[-7.922792,54.639958],[-7.922772,54.639944],[-7.922772,54.639929],[-7.922801,54.639899],[-7.922832,54.639832],[-7.922846,54.63982],[-7.922856,54.639809],[-7.922866,54.639748],[-7.922841,54.639717],[-7.922827,54.639691],[-7.9228,54.639671],[-7.922773,54.639662],[-7.92271,54.63959],[-7.922648,54.639564],[-7.922596,54.639551],[-7.922563,54.639521],[-7.922564,54.639492],[-7.922594,54.639442],[-7.922608,54.639403],[-7.922591,54.63935],[-7.922604,54.639326],[-7.922588,54.63931],[-7.922529,54.639277],[-7.922524,54.639263],[-7.922536,54.639249],[-7.922536,54.639249],[-7.922536,54.639249],[-7.922547,54.639246],[-7.9226,54.639231],[-7.922637,54.63922],[-7.922731,54.639244],[-7.92284,54.639235],[-7.92296,54.639234],[-7.923137,54.639232],[-7.923231,54.639235],[-7.923292,54.639206],[-7.923354,54.639196],[-7.923558,54.639178],[-7.923663,54.639176],[-7.923734,54.639176],[-7.923784,54.639183],[-7.923843,54.639199],[-7.923904,54.639192],[-7.924033,54.639167],[-7.924155,54.639133],[-7.92423,54.639112],[-7.924251,54.63911],[-7.924252,54.638931],[-7.924929,54.638931],[-7.924919,54.638914],[-7.924866,54.638894],[-7.924824,54.638874],[-7.924799,54.638851],[-7.924831,54.63883],[-7.924872,54.638797],[-7.924868,54.638778],[-7.924861,54.63874],[-7.924897,54.638711],[-7.924855,54.638649],[-7.924787,54.638635],[-7.924699,54.638578],[-7.924626,54.638491],[-7.924617,54.638443],[-7.924641,54.638424],[-7.924641,54.638424],[-7.924641,54.638424],[-7.924685,54.638402],[-7.924679,54.638387],[-7.924646,54.638376],[-7.924641,54.638365],[-7.924742,54.638282],[-7.924727,54.63824],[-7.924745,54.638205],[-7.924745,54.638205],[-7.924745,54.638205],[-7.92481,54.638173],[-7.924883,54.638138],[-7.924881,54.63813],[-7.924836,54.63812],[-7.924808,54.638101],[-7.924789,54.638081],[-7.924763,54.638069],[-7.924723,54.638063],[-7.924696,54.638043],[-7.924656,54.637988],[-7.924654,54.637953],[-7.92469,54.637903],[-7.924737,54.637868],[-7.924737,54.637868],[-7.924737,54.637868],[-7.924817,54.637838],[-7.924876,54.637821],[-7.924903,54.637799],[-7.924923,54.637764],[-7.924912,54.637725],[-7.924894,54.637715],[-7.924843,54.637699],[-7.924812,54.637683],[-7.924753,54.637668],[-7.924628,54.637666],[-7.924553,54.637648],[-7.924497,54.637613],[-7.924474,54.637569],[-7.924402,54.637483],[-7.924385,54.637413],[-7.924395,54.637367],[-7.924346,54.637227],[-7.924346,54.637136],[-7.924302,54.637043],[-7.92428,54.637023],[-7.924299,54.636955],[-7.924317,54.636929],[-7.924298,54.636872],[-7.924293,54.636824],[-7.92432,54.636756],[-7.924281,54.636648],[-7.924293,54.636608],[-7.924293,54.636608],[-7.924293,54.636608],[-7.924358,54.636571],[-7.924423,54.636545],[-7.924479,54.636523],[-7.924487,54.636503],[-7.924465,54.636469],[-7.924266,54.63642],[-7.924096,54.636347],[-7.924036,54.636305],[-7.923903,54.636267],[-7.92382,54.636232],[-7.923795,54.636213],[-7.923791,54.636184],[-7.923831,54.636125],[-7.923867,54.636057],[-7.923867,54.636057],[-7.923867,54.636057],[-7.923936,54.636021],[-7.923979,54.635961],[-7.923979,54.635961],[-7.923979,54.635961],[-7.924033,54.635939],[-7.924041,54.635908],[-7.924027,54.635874],[-7.923991,54.635837],[-7.923941,54.635804],[-7.923906,54.6358],[-7.923871,54.635815],[-7.923856,54.635811],[-7.923819,54.635783],[-7.923707,54.63583],[-7.923568,54.635808],[-7.923519,54.635814],[-7.923477,54.635818],[-7.92338,54.635797],[-7.923328,54.635785],[-7.923235,54.635763],[-7.92323,54.635692],[-7.923198,54.635573],[-7.923206,54.635486],[-7.923181,54.635411],[-7.923171,54.635362],[-7.923134,54.635314],[-7.923086,54.635293],[-7.923051,54.635265],[-7.923012,54.635199],[-7.922988,54.635151],[-7.922962,54.635083],[-7.922952,54.63501],[-7.922954,54.634967],[-7.922954,54.634967],[-7.922954,54.634967],[-7.922978,54.634958],[-7.923037,54.634966],[-7.923104,54.634973],[-7.923139,54.634965],[-7.923144,54.634938],[-7.923146,54.634929],[-7.923112,54.634919],[-7.923109,54.634903],[-7.923123,54.63489],[-7.923123,54.63489],[-7.923123,54.63489],[-7.923148,54.634881],[-7.923157,54.634859],[-7.923025,54.634755],[-7.922928,54.634705],[-7.922792,54.634645],[-7.922749,54.634617],[-7.921936,54.634617],[-7.921937,54.634347],[-7.922373,54.634347],[-7.922374,54.634338],[-7.922369,54.634323],[-7.922343,54.634313],[-7.922282,54.634299],[-7.92225,54.634285],[-7.922139,54.63419],[-7.922083,54.634174],[-7.921994,54.634125],[-7.921986,54.634089],[-7.921973,54.634073],[-7.921951,54.634055],[-7.921913,54.634036],[-7.921886,54.634032],[-7.921853,54.634019],[-7.921826,54.633991],[-7.921814,54.633961],[-7.921815,54.633925],[-7.921841,54.633902],[-7.921884,54.633855],[-7.921899,54.63381],[-7.921884,54.633741],[-7.921824,54.633697],[-7.921788,54.633677],[-7.921667,54.633658],[-7.921623,54.633631],[-7.921567,54.63362],[-7.921555,54.633586],[-7.921555,54.633586],[-7.921555,54.633586],[-7.921619,54.633567],[-7.921676,54.633543],[-7.921679,54.633512],[-7.921628,54.633468],[-7.921564,54.63344],[-7.921483,54.633447],[-7.921416,54.633425],[-7.921393,54.633388],[-7.921405,54.633357],[-7.921405,54.633357],[-7.921405,54.633357],[-7.921458,54.633334],[-7.921542,54.633311],[-7.921596,54.633269],[-7.921684,54.633216],[-7.921684,54.633216],[-7.921684,54.633216],[-7.921804,54.63317],[-7.921863,54.633123],[-7.921932,54.633059],[-7.921939,54.633046],[-7.921939,54.632999],[-7.92197,54.632999],[-7.922033,54.632949],[-7.922085,54.632893],[-7.922094,54.632839],[-7.922066,54.632796],[-7.922017,54.632759],[-7.921874,54.632734],[-7.921658,54.632668],[-7.92161,54.632615],[-7.921574,54.632604],[-7.921503,54.632596],[-7.921445,54.632589],[-7.921285,54.632506],[-7.921261,54.632474],[-7.921285,54.632447],[-7.921296,54.63239],[-7.921294,54.632376],[-7.921294,54.632374],[-7.92124,54.632327],[-7.921192,54.63232],[-7.921091,54.632302],[-7.921078,54.632291],[-7.921077,54.632267],[-7.921076,54.632266],[-7.921036,54.632202],[-7.921036,54.632202],[-7.920998,54.632208],[-7.920941,54.632158],[-7.92088,54.632131],[-7.920808,54.632089],[-7.920739,54.632084],[-7.920637,54.632079],[-7.920561,54.632063],[-7.920441,54.632015],[-7.92038,54.631982],[-7.920326,54.631954],[-7.920316,54.631949],[-7.920316,54.632158],[-7.920083,54.632158],[-7.920082,54.63219],[-7.920547,54.63219],[-7.920547,54.632459],[-7.921011,54.63246],[-7.921011,54.632729],[-7.919617,54.632728],[-7.919616,54.632998],[-7.919152,54.632998],[-7.919152,54.632728],[-7.918687,54.632728],[-7.918688,54.632458],[-7.918223,54.632458],[-7.918224,54.632188],[-7.918224,54.632156],[-7.917219,54.632156],[-7.91722,54.631601],[-7.916628,54.631564],[-7.916046,54.63154],[-7.915472,54.631513],[-7.915287,54.631511],[-7.915014,54.6315],[-7.914632,54.631498],[-7.913945,54.631522],[-7.913396,54.631502],[-7.913114,54.631504],[-7.913114,54.631646],[-7.912185,54.631645],[-7.912184,54.631915],[-7.91172,54.631914],[-7.911719,54.632184],[-7.912648,54.632184],[-7.912648,54.632454],[-7.913112,54.632454],[-7.913112,54.632724],[-7.911718,54.632723],[-7.911718,54.632453],[-7.90986,54.632452],[-7.90986,54.632182],[-7.909861,54.631913],[-7.909396,54.631913],[-7.909397,54.631643],[-7.906609,54.631641],[-7.90661,54.631371],[-7.90661,54.631102],[-7.904752,54.6311],[-7.904751,54.63137],[-7.904751,54.631639],[-7.905215,54.63164],[-7.905215,54.631909],[-7.906144,54.63191],[-7.906143,54.63218],[-7.906608,54.63218],[-7.906607,54.63245],[-7.907072,54.63245],[-7.907071,54.632719],[-7.907536,54.63272],[-7.907535,54.632989],[-7.908929,54.63299],[-7.908929,54.63326],[-7.910787,54.633261],[-7.910787,54.633531],[-7.910786,54.6338],[-7.911251,54.633801],[-7.91125,54.63407],[-7.911715,54.634071],[-7.911714,54.63434],[-7.91102,54.63434],[-7.91102,54.634609],[-7.913108,54.634611],[-7.913108,54.634341],[-7.914038,54.634342],[-7.914037,54.634611],[-7.914966,54.634612],[-7.914966,54.634882],[-7.91636,54.634883],[-7.91636,54.634613],[-7.915896,54.634613],[-7.915896,54.634343],[-7.914502,54.634342],[-7.914503,54.634073],[-7.914968,54.634073],[-7.914968,54.633803],[-7.915897,54.633804],[-7.915897,54.634074],[-7.916826,54.634074],[-7.916826,54.634344],[-7.917214,54.634344],[-7.917215,54.633952],[-7.918764,54.633953],[-7.918763,54.634345],[-7.919149,54.634345],[-7.919149,54.634076],[-7.920543,54.634077],[-7.920543,54.634346],[-7.921472,54.634347],[-7.921472,54.634616],[-7.921471,54.634886],[-7.919613,54.634885],[-7.919613,54.634615],[-7.919148,54.634615],[-7.919148,54.634884],[-7.918683,54.634884],[-7.918683,54.635154],[-7.919147,54.635154],[-7.919147,54.635424],[-7.919611,54.635424],[-7.919611,54.635693],[-7.920076,54.635694],[-7.920075,54.635963],[-7.92054,54.635964],[-7.920539,54.636233],[-7.921004,54.636233],[-7.921003,54.636503],[-7.921003,54.636773],[-7.921468,54.636773],[-7.921467,54.637042],[-7.921932,54.637043],[-7.921931,54.637582],[-7.922395,54.637582],[-7.922395,54.637852],[-7.921001,54.637851],[-7.921001,54.637581],[-7.920072,54.637581],[-7.920073,54.637041],[-7.920073,54.636772],[-7.919609,54.636772],[-7.919609,54.636502],[-7.919145,54.636502],[-7.919144,54.636771],[-7.918679,54.636771],[-7.918679,54.637041],[-7.919144,54.637041],[-7.919143,54.63731],[-7.919608,54.637311],[-7.919607,54.63758],[-7.919607,54.63785],[-7.919606,54.638119],[-7.916818,54.638118],[-7.916818,54.637848],[-7.915424,54.637847],[-7.915425,54.637577],[-7.917284,54.637579],[-7.917284,54.637309],[-7.916355,54.637309],[-7.916355,54.637039],[-7.913103,54.637037],[-7.913103,54.636767],[-7.912174,54.636766],[-7.912174,54.636497],[-7.91171,54.636497],[-7.911709,54.636766],[-7.90985,54.636765],[-7.90985,54.637034],[-7.909385,54.637034],[-7.909384,54.637304],[-7.907916,54.637302],[-7.907916,54.637539],[-7.906367,54.637538],[-7.90637,54.636493],[-7.905669,54.636492],[-7.905668,54.636762],[-7.904739,54.636761],[-7.904738,54.63703],[-7.905203,54.637031],[-7.905202,54.6373],[-7.905202,54.63757],[-7.904737,54.63757],[-7.904738,54.6373],[-7.904273,54.6373],[-7.904272,54.637569],[-7.903807,54.637569],[-7.903807,54.637838],[-7.902877,54.637838],[-7.902877,54.638107],[-7.899159,54.638104],[-7.89916,54.637835],[-7.901483,54.637836],[-7.901484,54.637567],[-7.902413,54.637568],[-7.902414,54.637298],[-7.901949,54.637298],[-7.90195,54.637028],[-7.901485,54.637028],[-7.901486,54.636758],[-7.902415,54.636759],[-7.902416,54.636489],[-7.902417,54.63622],[-7.902881,54.63622],[-7.902882,54.635951],[-7.902883,54.635681],[-7.901953,54.63568],[-7.901953,54.63595],[-7.901488,54.63595],[-7.901487,54.636489],[-7.901022,54.636488],[-7.901023,54.635949],[-7.899165,54.635948],[-7.899164,54.636217],[-7.89777,54.636216],[-7.897769,54.636486],[-7.89684,54.636485],[-7.89684,54.636215],[-7.896841,54.635946],[-7.897306,54.635946],[-7.897306,54.635677],[-7.898701,54.635678],[-7.898701,54.635408],[-7.901025,54.63541],[-7.901025,54.635141],[-7.902884,54.635142],[-7.902885,54.634873],[-7.903349,54.634873],[-7.90335,54.634603],[-7.904744,54.634604],[-7.904743,54.634874],[-7.903814,54.634873],[-7.903813,54.635143],[-7.903349,54.635142],[-7.903348,54.635412],[-7.904742,54.635413],[-7.904743,54.635144],[-7.905672,54.635144],[-7.905673,54.634875],[-7.906137,54.634875],[-7.906138,54.634606],[-7.906602,54.634606],[-7.906603,54.634336],[-7.906604,54.634067],[-7.905674,54.634066],[-7.905675,54.633944],[-7.903278,54.633942],[-7.903279,54.633525],[-7.901494,54.633524],[-7.901494,54.633254],[-7.90103,54.633254],[-7.90103,54.632984],[-7.90196,54.632985],[-7.90196,54.632715],[-7.90289,54.632716],[-7.90289,54.632447],[-7.903282,54.632447],[-7.903283,54.632177],[-7.901032,54.632176],[-7.901032,54.632445],[-7.900102,54.632444],[-7.900102,54.632714],[-7.898708,54.632713],[-7.898709,54.632443],[-7.898709,54.632174],[-7.899174,54.632174],[-7.899175,54.631904],[-7.899175,54.631635],[-7.89964,54.631635],[-7.89964,54.631366],[-7.901499,54.631367],[-7.9015,54.631098],[-7.902429,54.631098],[-7.90243,54.630829],[-7.904753,54.630831],[-7.904754,54.630292],[-7.904289,54.630291],[-7.90429,54.630158],[-7.904112,54.630118],[-7.903989,54.630094],[-7.903804,54.63005],[-7.903724,54.630021],[-7.901502,54.63002],[-7.901503,54.62975],[-7.900574,54.629749],[-7.900574,54.62948],[-7.900575,54.629298],[-7.900528,54.62929],[-7.900138,54.62921],[-7.90011,54.62921],[-7.90011,54.629204],[-7.900096,54.629201],[-7.899523,54.629114],[-7.899348,54.629091],[-7.899316,54.62904],[-7.899072,54.628998],[-7.898964,54.628978],[-7.898703,54.62893],[-7.898485,54.628882],[-7.898271,54.628833],[-7.897981,54.62876],[-7.897727,54.628703],[-7.897538,54.628656],[-7.897586,54.628609],[-7.897342,54.628546],[-7.896516,54.62834],[-7.895953,54.628211],[-7.895964,54.628253],[-7.895971,54.628319],[-7.895978,54.628388],[-7.895966,54.628437],[-7.895904,54.628459],[-7.89578,54.628491],[-7.895718,54.628509],[-7.895569,54.628551],[-7.895474,54.628561],[-7.895466,54.628563],[-7.895465,54.628936],[-7.895464,54.629475],[-7.896393,54.629476],[-7.896392,54.629746],[-7.896857,54.629746],[-7.896856,54.630016],[-7.896855,54.630285],[-7.895968,54.630284],[-7.895947,54.63034],[-7.895926,54.630353],[-7.895926,54.630554],[-7.895785,54.630554],[-7.895784,54.630596],[-7.89574,54.630644],[-7.895707,54.630681],[-7.895619,54.630723],[-7.895532,54.630747],[-7.89546,54.630747],[-7.89546,54.631093],[-7.895459,54.631362],[-7.894994,54.631362],[-7.894994,54.631631],[-7.894529,54.631631],[-7.894528,54.6319],[-7.894527,54.63217],[-7.894527,54.63244],[-7.894062,54.632439],[-7.894061,54.632709],[-7.894061,54.632978],[-7.893596,54.632978],[-7.893595,54.633247],[-7.893131,54.633247],[-7.89313,54.633517],[-7.893595,54.633517],[-7.893594,54.633787],[-7.893129,54.633786],[-7.893127,54.634776],[-7.893153,54.634817],[-7.893167,54.634951],[-7.893224,54.635007],[-7.893247,54.635014],[-7.893267,54.635014],[-7.893279,54.63503],[-7.893296,54.635054],[-7.893291,54.635073],[-7.893281,54.63509],[-7.893273,54.635107],[-7.893296,54.635145],[-7.893355,54.635156],[-7.893417,54.635161],[-7.893442,54.635174],[-7.893492,54.635216],[-7.893543,54.635267],[-7.893538,54.6353],[-7.893575,54.635333],[-7.893621,54.635361],[-7.893635,54.635401],[-7.893676,54.635431],[-7.893776,54.635479],[-7.893888,54.635545],[-7.893941,54.635567],[-7.894053,54.635573],[-7.894103,54.635589],[-7.894133,54.635612],[-7.894167,54.635637],[-7.894205,54.63566],[-7.894219,54.635688],[-7.894197,54.635763],[-7.894211,54.635778],[-7.894269,54.635803],[-7.89431,54.635814],[-7.89433,54.635851],[-7.894353,54.635891],[-7.894373,54.635977],[-7.89443,54.636068],[-7.894481,54.63611],[-7.89452,54.636126],[-7.89453,54.636141],[-7.894533,54.636165],[-7.894499,54.636172],[-7.894502,54.636186],[-7.894526,54.636209],[-7.894624,54.636284],[-7.894661,54.636377],[-7.894714,54.636437],[-7.894763,54.636497],[-7.894783,54.636506],[-7.894815,54.636517],[-7.894835,54.636532],[-7.894881,54.636574],[-7.89489,54.63665],[-7.894905,54.636667],[-7.894959,54.636671],[-7.895025,54.636677],[-7.89506,54.636696],[-7.895067,54.636717],[-7.895064,54.63674],[-7.895046,54.636766],[-7.895004,54.636806],[-7.894965,54.636821],[-7.894935,54.636878],[-7.89494,54.636908],[-7.894963,54.636924],[-7.894947,54.636937],[-7.894922,54.636945],[-7.894857,54.636945],[-7.894815,54.636951],[-7.894746,54.637032],[-7.894691,54.637076],[-7.894656,54.63709],[-7.894605,54.637104],[-7.894548,54.637133],[-7.894504,54.637145],[-7.894419,54.637153],[-7.894303,54.637157],[-7.894279,54.637171],[-7.894243,54.637206],[-7.894218,54.63724],[-7.8942,54.637248],[-7.894117,54.637258],[-7.894082,54.637268],[-7.894065,54.63728],[-7.894036,54.637324],[-7.894034,54.63737],[-7.894004,54.63743],[-7.89395,54.6375],[-7.893925,54.637527],[-7.893915,54.637623],[-7.893891,54.637655],[-7.893841,54.637672],[-7.893748,54.637672],[-7.893639,54.637687],[-7.893578,54.637736],[-7.893504,54.637782],[-7.893478,54.637813],[-7.893417,54.63792],[-7.893364,54.637958],[-7.893329,54.637975],[-7.893261,54.637967],[-7.893139,54.637941],[-7.893125,54.637931],[-7.893114,54.637914],[-7.893087,54.637909],[-7.893036,54.637912],[-7.892996,54.637917],[-7.892935,54.637998],[-7.892922,54.638026],[-7.89293,54.638085],[-7.892918,54.638102],[-7.892869,54.638123],[-7.892826,54.638154],[-7.892789,54.638247],[-7.892753,54.638287],[-7.892683,54.638349],[-7.892676,54.638379],[-7.892689,54.6384],[-7.892721,54.63843],[-7.892731,54.63846],[-7.892724,54.638478],[-7.892685,54.638498],[-7.892662,54.638529],[-7.892702,54.638638],[-7.892582,54.638727],[-7.89248,54.63875],[-7.892427,54.638764],[-7.89235,54.638816],[-7.892277,54.638927],[-7.892238,54.639054],[-7.892222,54.639185],[-7.892247,54.639258],[-7.892273,54.639362],[-7.892311,54.639443],[-7.892343,54.639489],[-7.892462,54.639581],[-7.89251,54.639597],[-7.892515,54.63962],[-7.892519,54.639651],[-7.892559,54.639696],[-7.892609,54.639719],[-7.892628,54.639739],[-7.892642,54.639772],[-7.892658,54.639818],[-7.892709,54.639833],[-7.892764,54.639845],[-7.892772,54.639871],[-7.892799,54.639908],[-7.892852,54.639921],[-7.89289,54.63995],[-7.892978,54.639993],[-7.893123,54.640074],[-7.893163,54.640091],[-7.89321,54.640092],[-7.893225,54.640098],[-7.893234,54.640115],[-7.893243,54.640133],[-7.893312,54.640144],[-7.893388,54.640209],[-7.893512,54.640291],[-7.89363,54.640322],[-7.893686,54.640326],[-7.893772,54.640337]],[[-7.914969,54.633534],[-7.914968,54.633803],[-7.914503,54.633803],[-7.914504,54.633534],[-7.914039,54.633533],[-7.91404,54.633264],[-7.91404,54.632994],[-7.914505,54.632994],[-7.914505,54.633264],[-7.914969,54.633264],[-7.914969,54.633534]],[[-7.92101,54.632999],[-7.921011,54.632729],[-7.921475,54.63273],[-7.921475,54.632999],[-7.92101,54.632999]],[[-7.908915,54.63946],[-7.907056,54.639458],[-7.907057,54.639189],[-7.906127,54.639188],[-7.906128,54.638918],[-7.908916,54.63892],[-7.908916,54.63919],[-7.908915,54.63946]],[[-7.902876,54.638646],[-7.902875,54.638916],[-7.90241,54.638915],[-7.902411,54.638646],[-7.901946,54.638645],[-7.901947,54.638376],[-7.902876,54.638377],[-7.902876,54.638646]],[[-7.903733,54.640482],[-7.903815,54.640429],[-7.903862,54.64044],[-7.903897,54.640453],[-7.903901,54.640481],[-7.903914,54.640492],[-7.903963,54.640502],[-7.904023,54.640526],[-7.904142,54.640539],[-7.904229,54.640531],[-7.904417,54.640508],[-7.904488,54.640502],[-7.904591,54.640477],[-7.904659,54.640466],[-7.9047,54.640477],[-7.904706,54.64051],[-7.904702,54.640565],[-7.904706,54.640592],[-7.904714,54.640633],[-7.904744,54.640661],[-7.904756,54.640695],[-7.904799,54.640714],[-7.904857,54.640725],[-7.904884,54.640785],[-7.904878,54.640807],[-7.904876,54.640841],[-7.904896,54.640871],[-7.904914,54.640901],[-7.904917,54.640966],[-7.904952,54.641018],[-7.90499,54.641035],[-7.905017,54.64107],[-7.905024,54.641123],[-7.905008,54.641141],[-7.90499,54.641158],[-7.904981,54.641201],[-7.904979,54.641232],[-7.904922,54.641246],[-7.904908,54.641245],[-7.904892,54.641259],[-7.904891,54.641272],[-7.904899,54.641288],[-7.904896,54.641312],[-7.904872,54.64134],[-7.90477,54.641372],[-7.90473,54.64141],[-7.904627,54.641427],[-7.904584,54.641435],[-7.904543,54.641473],[-7.904466,54.641466],[-7.904473,54.64151],[-7.904445,54.641576],[-7.904412,54.641629],[-7.904345,54.641722],[-7.904285,54.641751],[-7.904273,54.641792],[-7.904211,54.641831],[-7.904157,54.641877],[-7.904124,54.64193],[-7.904048,54.641955],[-7.903965,54.641975],[-7.903917,54.641975],[-7.90385,54.641977],[-7.903751,54.64198],[-7.903707,54.641968],[-7.90359,54.641962],[-7.903565,54.641953],[-7.903514,54.641927],[-7.903468,54.641913],[-7.903421,54.641899],[-7.903356,54.641909],[-7.903325,54.641914],[-7.903273,54.641898],[-7.903211,54.641863],[-7.903197,54.641825],[-7.90323,54.641747],[-7.903222,54.641712],[-7.903279,54.641611],[-7.9033,54.641499],[-7.903284,54.64142],[-7.903279,54.641331],[-7.903256,54.641259],[-7.903258,54.641146],[-7.903288,54.641078],[-7.903288,54.641041],[-7.9033,54.640903],[-7.903319,54.640831],[-7.903358,54.64077],[-7.903453,54.640669],[-7.903483,54.64061],[-7.903605,54.640548],[-7.903733,54.640482]],[[-7.922864,54.635696],[-7.921005,54.635694],[-7.921005,54.635425],[-7.921006,54.635155],[-7.921935,54.635156],[-7.921935,54.635425],[-7.922864,54.635426],[-7.922864,54.635696]],[[-7.923787,54.638661],[-7.923788,54.638392],[-7.924253,54.638392],[-7.924252,54.638661],[-7.923787,54.638661]],[[-7.917277,54.640813],[-7.917278,54.640544],[-7.918207,54.640544],[-7.918207,54.640814],[-7.917277,54.640813]],[[-7.920526,54.642972],[-7.920991,54.642972],[-7.92099,54.643242],[-7.920526,54.643241],[-7.920526,54.642972]],[[-7.914958,54.638655],[-7.915887,54.638656],[-7.915887,54.638926],[-7.914957,54.638925],[-7.914958,54.638655]],[[-7.899171,54.633522],[-7.898706,54.633521],[-7.898707,54.633252],[-7.899171,54.633252],[-7.899172,54.632983],[-7.899636,54.632983],[-7.899636,54.633253],[-7.9001,54.633253],[-7.9001,54.633523],[-7.900099,54.633792],[-7.89917,54.633791],[-7.899171,54.633522]],[[-7.901016,54.638914],[-7.899157,54.638913],[-7.899158,54.638643],[-7.899159,54.638374],[-7.900553,54.638375],[-7.900552,54.638644],[-7.901017,54.638645],[-7.901016,54.638914]],[[-7.901477,54.640262],[-7.901478,54.639993],[-7.901943,54.639993],[-7.901942,54.640263],[-7.901477,54.640262]],[[-7.894962,54.643761],[-7.894964,54.643222],[-7.895428,54.643222],[-7.895427,54.643761],[-7.894962,54.643761]],[[-7.894962,54.644031],[-7.895426,54.644031],[-7.895426,54.644301],[-7.894961,54.6443],[-7.894962,54.644031]]],[[[-7.892132,54.634543],[-7.892198,54.634557],[-7.8922,54.633785],[-7.892201,54.633516],[-7.892201,54.633246],[-7.892202,54.632977],[-7.892203,54.632707],[-7.891738,54.632707],[-7.891738,54.632976],[-7.891737,54.6331],[-7.891751,54.633111],[-7.891792,54.633173],[-7.891901,54.63322],[-7.891993,54.633294],[-7.892104,54.633323],[-7.892154,54.633344],[-7.892161,54.633382],[-7.892164,54.633447],[-7.892115,54.633558],[-7.892076,54.633582],[-7.892015,54.633584],[-7.891951,54.633684],[-7.891935,54.633739],[-7.891905,54.633802],[-7.891911,54.633859],[-7.891973,54.633931],[-7.891989,54.63402],[-7.891965,54.634088],[-7.891913,54.634115],[-7.891921,54.634138],[-7.891948,54.634159],[-7.892008,54.634212],[-7.891984,54.634278],[-7.891995,54.634321],[-7.892017,54.634365],[-7.892113,54.634443],[-7.892132,54.634543]]],[[[-7.890841,54.632691],[-7.890851,54.632706],[-7.891274,54.632706],[-7.891274,54.632437],[-7.891739,54.632437],[-7.89174,54.632168],[-7.892669,54.632168],[-7.89267,54.631899],[-7.893134,54.631899],[-7.893135,54.63163],[-7.892206,54.631629],[-7.892206,54.631371],[-7.89214,54.631379],[-7.892024,54.631383],[-7.891846,54.631379],[-7.891686,54.631375],[-7.891674,54.631374],[-7.891596,54.631275],[-7.891586,54.631256],[-7.89153,54.631257],[-7.891555,54.631316],[-7.891571,54.631368],[-7.891584,54.631412],[-7.891579,54.631513],[-7.891553,54.631592],[-7.891519,54.631713],[-7.891503,54.631734],[-7.891441,54.631818],[-7.891367,54.631901],[-7.891259,54.632042],[-7.891197,54.632135],[-7.891167,54.632268],[-7.891065,54.632458],[-7.890912,54.632608],[-7.890841,54.632691]]],[[[-7.892391,54.631346],[-7.892299,54.631359],[-7.893136,54.63136],[-7.893136,54.631322],[-7.892988,54.631328],[-7.892821,54.63133],[-7.892719,54.631329],[-7.892624,54.631322],[-7.892541,54.631329],[-7.892391,54.631346]]],[[[-7.906746,54.630685],[-7.906612,54.630654],[-7.906611,54.630832],[-7.90661,54.631102],[-7.907075,54.631102],[-7.907076,54.630833],[-7.907439,54.630833],[-7.907224,54.630784],[-7.906872,54.630709],[-7.906746,54.630685]]],[[[-7.907671,54.630887],[-7.90754,54.630856],[-7.90754,54.631102],[-7.907539,54.631372],[-7.908004,54.631372],[-7.908004,54.631103],[-7.908005,54.630963],[-7.907947,54.63095],[-7.907874,54.630938],[-7.907671,54.630887]]],[[[-7.914094,54.645352],[-7.914094,54.645124],[-7.912156,54.645122],[-7.912156,54.644853],[-7.910762,54.644852],[-7.910761,54.645121],[-7.908438,54.64512],[-7.908437,54.645389],[-7.908902,54.64539],[-7.908902,54.645439],[-7.909143,54.645436],[-7.909766,54.645424],[-7.910728,54.645412],[-7.911538,54.645395],[-7.912543,54.645374],[-7.914094,54.645352]]],[[[-7.907318,54.645457],[-7.907507,54.645455],[-7.907507,54.645389],[-7.907013,54.645388],[-7.907041,54.645405],[-7.907064,54.645428],[-7.907047,54.64544],[-7.907054,54.645455],[-7.907115,54.645458],[-7.907145,54.645474],[-7.907151,54.645512],[-7.907181,54.645509],[-7.907191,54.645508],[-7.907318,54.645457]]],[[[-7.887957,54.647246],[-7.887981,54.64723],[-7.887982,54.646989],[-7.887983,54.64645],[-7.887519,54.64645],[-7.887518,54.646719],[-7.887279,54.646719],[-7.887267,54.646797],[-7.887372,54.646845],[-7.88745,54.646893],[-7.887486,54.646974],[-7.887581,54.647077],[-7.887651,54.647143],[-7.887697,54.647172],[-7.887718,54.647179],[-7.887723,54.647203],[-7.887743,54.647225],[-7.887774,54.647225],[-7.887826,54.647213],[-7.887845,54.647214],[-7.887865,54.647217],[-7.887883,54.647235],[-7.887926,54.647243],[-7.887957,54.647246]]],[[[-7.88733,54.646139],[-7.887327,54.64618],[-7.887519,54.64618],[-7.88752,54.645911],[-7.887521,54.645641],[-7.887357,54.645641],[-7.887349,54.645806],[-7.88733,54.646139]]],[[[-7.90792,54.635742],[-7.907921,54.635416],[-7.90753,54.635415],[-7.907531,54.635146],[-7.906601,54.635145],[-7.906601,54.635415],[-7.905671,54.635414],[-7.905671,54.635683],[-7.90567,54.635953],[-7.906371,54.635953],[-7.906371,54.635741],[-7.90792,54.635742]]],[[[-7.908459,54.635743],[-7.90792,54.635742],[-7.907919,54.635955],[-7.908458,54.635955],[-7.908459,54.635743]]],[[[-7.909853,54.635744],[-7.908923,54.635743],[-7.908923,54.635955],[-7.909852,54.635956],[-7.909853,54.635744]]],[[[-7.907918,54.636494],[-7.907918,54.636763],[-7.908921,54.636764],[-7.908922,54.636495],[-7.907918,54.636494]]],[[[-7.911245,54.636496],[-7.91171,54.636497],[-7.91171,54.636227],[-7.911246,54.636227],[-7.911245,54.636496]]],[[[-7.903808,54.637299],[-7.904273,54.6373],[-7.904273,54.63703],[-7.904274,54.63676],[-7.904275,54.636491],[-7.903345,54.63649],[-7.903345,54.63676],[-7.903344,54.637029],[-7.903809,54.63703],[-7.903808,54.637299]]],[[[-7.914498,54.636229],[-7.914499,54.635959],[-7.91357,54.635959],[-7.913569,54.636228],[-7.914498,54.636229]]],[[[-7.916357,54.63623],[-7.916358,54.635961],[-7.915428,54.63596],[-7.915428,54.63623],[-7.916357,54.63623]]],[[[-7.917752,54.635962],[-7.917752,54.635692],[-7.917288,54.635692],[-7.917287,54.635961],[-7.917752,54.635962]]],[[[-7.917748,54.637579],[-7.917748,54.637849],[-7.918213,54.637849],[-7.918213,54.637579],[-7.917748,54.637579]]],[[[-7.909391,54.634338],[-7.909392,54.634069],[-7.907998,54.634068],[-7.907997,54.634337],[-7.908462,54.634338],[-7.908461,54.634607],[-7.90939,54.634608],[-7.909391,54.634338]]],[[[-7.909834,54.644043],[-7.909835,54.643773],[-7.908905,54.643772],[-7.908906,54.643503],[-7.908907,54.643233],[-7.908442,54.643233],[-7.908441,54.643502],[-7.907976,54.643502],[-7.907975,54.644041],[-7.90751,54.644041],[-7.90751,54.64431],[-7.90658,54.64431],[-7.90658,54.644579],[-7.908439,54.644581],[-7.908439,54.644311],[-7.909369,54.644312],[-7.909369,54.644042],[-7.909834,54.644043]]],[[[-7.905197,54.639457],[-7.905198,54.639187],[-7.904268,54.639186],[-7.904267,54.639726],[-7.905197,54.639726],[-7.905197,54.639457]]],[[[-7.910791,54.631644],[-7.910326,54.631644],[-7.910326,54.631913],[-7.91079,54.631914],[-7.910791,54.631644]]]]}}]}
