{"type":"FeatureCollection","features":[{"type":"Feature","properties":{"source_fid":2128517,"county":"Donegal","bog_geom_ha":236.16834934979585,"low15_pct":87.642585551330797,"low15_ha":206.98404762406062,"overlay_ha":207.0184548122285,"area_delta":0.034407188167875802},"geometry":{"type":"MultiPolygon","coordinates":[[[[-8.200454,55.082054],[-8.200284,55.08205],[-8.200276,55.082054],[-8.200454,55.082054]]],[[[-8.206781,55.082319],[-8.2068,55.082323],[-8.206763,55.082198],[-8.205348,55.082162],[-8.204849,55.082143],[-8.20485,55.082175],[-8.205319,55.082174],[-8.20532,55.082258],[-8.206781,55.082319]]],[[[-8.199698,55.082537],[-8.199697,55.08241],[-8.199551,55.082493],[-8.199269,55.082755],[-8.199003,55.083071],[-8.198576,55.083477],[-8.198139,55.083929],[-8.19814,55.084081],[-8.198337,55.083872],[-8.198671,55.083525],[-8.199285,55.082934],[-8.199613,55.082595],[-8.199698,55.082537]]],[[[-8.196477,55.085654],[-8.196277,55.085874],[-8.196013,55.086174],[-8.195897,55.086295],[-8.195727,55.086372],[-8.195393,55.086476],[-8.195133,55.086554],[-8.195626,55.086553],[-8.195889,55.086465],[-8.196298,55.086055],[-8.196582,55.08572],[-8.196581,55.085653],[-8.196477,55.085654]]],[[[-8.193456,55.087124],[-8.193128,55.087249],[-8.193128,55.087315],[-8.193375,55.087315],[-8.193685,55.087189],[-8.194067,55.08706],[-8.194067,55.087044],[-8.194066,55.086915],[-8.193858,55.086988],[-8.193456,55.087124]]],[[[-8.194809,55.086652],[-8.194465,55.086774],[-8.194535,55.086774],[-8.194536,55.086902],[-8.194985,55.08675],[-8.195021,55.086739],[-8.19502,55.086588],[-8.194809,55.086652]]],[[[-8.216044,55.09901],[-8.215874,55.098646],[-8.215734,55.098418],[-8.215624,55.098239],[-8.21552,55.098044],[-8.21541,55.097856],[-8.215175,55.097894],[-8.215013,55.097883],[-8.21467,55.097858],[-8.21441,55.097799],[-8.214153,55.097668],[-8.213952,55.097531],[-8.213708,55.097197],[-8.213537,55.097119],[-8.213168,55.096702],[-8.212699,55.096318],[-8.212486,55.096071],[-8.212031,55.095617],[-8.211636,55.095256],[-8.211477,55.095067],[-8.211441,55.095032],[-8.211239,55.095021],[-8.21073,55.094931],[-8.209515,55.094744],[-8.209357,55.094721],[-8.209168,55.094654],[-8.209077,55.094652],[-8.208972,55.094702],[-8.208811,55.094794],[-8.208027,55.095177],[-8.207313,55.095596],[-8.206976,55.095768],[-8.206221,55.095754],[-8.205814,55.095758],[-8.205217,55.095848],[-8.204974,55.095932],[-8.204766,55.096011],[-8.204667,55.096077],[-8.204842,55.096154],[-8.205177,55.096341],[-8.205423,55.096503],[-8.205645,55.096684],[-8.205666,55.096775],[-8.205649,55.096854],[-8.205586,55.096904],[-8.20536,55.097003],[-8.205229,55.097017],[-8.205165,55.097007],[-8.20504,55.096915],[-8.204962,55.096899],[-8.204878,55.096917],[-8.204576,55.097055],[-8.204505,55.097053],[-8.204365,55.097055],[-8.204194,55.097092],[-8.204092,55.097335],[-8.204066,55.097529],[-8.204115,55.097851],[-8.204133,55.098396],[-8.204194,55.098459],[-8.204544,55.098764],[-8.204683,55.098895],[-8.204855,55.098999],[-8.205401,55.099327],[-8.206142,55.099656],[-8.206429,55.099734],[-8.206823,55.099844],[-8.206999,55.099873],[-8.207341,55.099878],[-8.207355,55.099908],[-8.207367,55.099948],[-8.207427,55.100031],[-8.207475,55.100146],[-8.207553,55.10033],[-8.207603,55.100517],[-8.207616,55.100638],[-8.207638,55.100755],[-8.207656,55.10087],[-8.207751,55.100966],[-8.207793,55.101017],[-8.207833,55.101125],[-8.207846,55.101193],[-8.207913,55.101339],[-8.207969,55.101479],[-8.208012,55.101606],[-8.207996,55.101668],[-8.20803,55.101736],[-8.208129,55.101807],[-8.208258,55.101881],[-8.208254,55.102008],[-8.208283,55.10223],[-8.208296,55.10231],[-8.208318,55.10244],[-8.208306,55.102575],[-8.208268,55.102701],[-8.208251,55.102757],[-8.208245,55.10277],[-8.208249,55.103462],[-8.208719,55.103461],[-8.208723,55.10427],[-8.208729,55.105348],[-8.20873,55.105618],[-8.20826,55.105618],[-8.208259,55.105349],[-8.207789,55.10535],[-8.207783,55.104271],[-8.207313,55.104272],[-8.207309,55.103464],[-8.207306,55.102964],[-8.207054,55.102976],[-8.206366,55.103],[-8.205582,55.102998],[-8.20484,55.103065],[-8.204214,55.103053],[-8.203731,55.103028],[-8.203429,55.102995],[-8.203405,55.102731],[-8.203393,55.102568],[-8.20354,55.102343],[-8.203573,55.102206],[-8.203527,55.102066],[-8.203464,55.101981],[-8.20331,55.101832],[-8.20273,55.101327],[-8.202307,55.100943],[-8.202146,55.100777],[-8.202124,55.100777],[-8.202124,55.100754],[-8.201834,55.100184],[-8.20184,55.1001],[-8.201395,55.099774],[-8.200953,55.099501],[-8.200645,55.099512],[-8.200435,55.099492],[-8.200156,55.099457],[-8.199741,55.099363],[-8.199417,55.099315],[-8.199126,55.099296],[-8.198899,55.099322],[-8.198827,55.099361],[-8.198827,55.099435],[-8.198828,55.099672],[-8.198834,55.099704],[-8.199299,55.099704],[-8.1993,55.099973],[-8.19977,55.099972],[-8.199771,55.100242],[-8.200241,55.100241],[-8.200243,55.100511],[-8.200244,55.10078],[-8.200714,55.100779],[-8.200716,55.101049],[-8.200717,55.101319],[-8.201187,55.101318],[-8.201188,55.101587],[-8.201658,55.101586],[-8.201661,55.102126],[-8.202131,55.102125],[-8.202134,55.102664],[-8.202135,55.102933],[-8.201665,55.102934],[-8.201664,55.102665],[-8.201194,55.102665],[-8.201198,55.103474],[-8.202138,55.103472],[-8.202139,55.103742],[-8.202609,55.103741],[-8.202611,55.104011],[-8.202616,55.105089],[-8.202619,55.105628],[-8.203089,55.105627],[-8.203092,55.106166],[-8.203562,55.106165],[-8.203566,55.106974],[-8.204036,55.106973],[-8.204039,55.107512],[-8.20404,55.107782],[-8.20357,55.107782],[-8.203569,55.107513],[-8.203315,55.107513],[-8.203425,55.107735],[-8.203679,55.108149],[-8.203814,55.108355],[-8.203872,55.108465],[-8.204026,55.108716],[-8.204184,55.108941],[-8.204382,55.109228],[-8.204594,55.109566],[-8.204808,55.109881],[-8.204986,55.110195],[-8.205112,55.110356],[-8.205364,55.110676],[-8.205695,55.111043],[-8.205829,55.111197],[-8.206058,55.111497],[-8.206526,55.11214],[-8.206669,55.112348],[-8.20672,55.112459],[-8.206764,55.112612],[-8.206851,55.112873],[-8.206911,55.113062],[-8.206942,55.1131],[-8.206957,55.113133],[-8.20697,55.113149],[-8.206957,55.11318],[-8.206911,55.113226],[-8.206906,55.113273],[-8.206935,55.113315],[-8.206968,55.113339],[-8.207049,55.113418],[-8.207063,55.113475],[-8.20709,55.113593],[-8.207115,55.113728],[-8.207148,55.11379],[-8.207164,55.113845],[-8.207146,55.113871],[-8.207112,55.113898],[-8.207091,55.113937],[-8.207077,55.113975],[-8.207089,55.114021],[-8.207142,55.114104],[-8.207174,55.114161],[-8.207212,55.114203],[-8.207244,55.114247],[-8.207248,55.114282],[-8.207325,55.114416],[-8.207376,55.114512],[-8.207404,55.114571],[-8.207448,55.11462],[-8.20747,55.114651],[-8.20746,55.114682],[-8.207456,55.114707],[-8.207519,55.115084],[-8.207587,55.115558],[-8.207621,55.115771],[-8.207662,55.115849],[-8.207681,55.115926],[-8.207688,55.115988],[-8.207702,55.116057],[-8.207734,55.116123],[-8.207756,55.116156],[-8.207801,55.116221],[-8.207866,55.116315],[-8.207891,55.116364],[-8.207891,55.116391],[-8.207891,55.116426],[-8.207886,55.116489],[-8.207882,55.116554],[-8.207874,55.116607],[-8.207902,55.116654],[-8.207904,55.116705],[-8.207892,55.116738],[-8.207875,55.116767],[-8.207871,55.116817],[-8.20787,55.116946],[-8.207854,55.117011],[-8.207847,55.117075],[-8.207829,55.117209],[-8.207821,55.11726],[-8.207815,55.117308],[-8.20778,55.117492],[-8.207762,55.11759],[-8.207748,55.117677],[-8.207731,55.117775],[-8.207711,55.117923],[-8.207661,55.118153],[-8.207616,55.118368],[-8.20759,55.118487],[-8.207581,55.118608],[-8.207591,55.11869],[-8.207606,55.118724],[-8.207697,55.118801],[-8.207701,55.118805],[-8.207722,55.118845],[-8.207742,55.119023],[-8.207745,55.119055],[-8.207776,55.119216],[-8.207776,55.119242],[-8.207779,55.119372],[-8.207803,55.119392],[-8.207827,55.119434],[-8.207824,55.119468],[-8.207795,55.119566],[-8.207745,55.11962],[-8.207738,55.119641],[-8.207739,55.119685],[-8.207739,55.119719],[-8.207759,55.119748],[-8.207802,55.119761],[-8.207822,55.119765],[-8.207811,55.119774],[-8.207787,55.119788],[-8.207796,55.119817],[-8.207812,55.119836],[-8.207804,55.119843],[-8.207789,55.119868],[-8.207805,55.119879],[-8.207836,55.119901],[-8.207821,55.119919],[-8.207783,55.119928],[-8.207763,55.119942],[-8.207776,55.119966],[-8.207788,55.119995],[-8.207788,55.120024],[-8.20775,55.120072],[-8.207716,55.120099],[-8.207707,55.120131],[-8.207698,55.120161],[-8.207707,55.120242],[-8.207704,55.12028],[-8.207724,55.120313],[-8.207792,55.120371],[-8.207792,55.120388],[-8.207756,55.120518],[-8.207744,55.120534],[-8.207718,55.120566],[-8.207711,55.120601],[-8.207711,55.120619],[-8.207727,55.120635],[-8.207766,55.120648],[-8.207767,55.120677],[-8.207759,55.120708],[-8.207744,55.120731],[-8.207718,55.120762],[-8.207687,55.1208],[-8.207688,55.120843],[-8.2077,55.120856],[-8.207763,55.12088],[-8.207775,55.12092],[-8.207733,55.120956],[-8.207683,55.120986],[-8.207672,55.121004],[-8.207645,55.121041],[-8.207615,55.12108],[-8.207604,55.121116],[-8.207609,55.121141],[-8.207613,55.121168],[-8.207587,55.121199],[-8.207529,55.121213],[-8.20747,55.121211],[-8.207455,55.121225],[-8.207436,55.121252],[-8.207409,55.121265],[-8.20737,55.121279],[-8.207351,55.121297],[-8.207352,55.121331],[-8.207341,55.121362],[-8.20731,55.12138],[-8.207315,55.121398],[-8.209837,55.121817],[-8.209894,55.121411],[-8.209941,55.121076],[-8.209971,55.12086],[-8.211576,55.120602],[-8.211543,55.120553],[-8.211411,55.120346],[-8.211389,55.120311],[-8.211252,55.120116],[-8.211242,55.120102],[-8.211138,55.119954],[-8.211112,55.119917],[-8.211019,55.119783],[-8.210997,55.119724],[-8.210994,55.119676],[-8.211026,55.119641],[-8.211084,55.119619],[-8.211371,55.119552],[-8.2113,55.119448],[-8.211205,55.119281],[-8.211114,55.119074],[-8.211022,55.118898],[-8.210993,55.11884],[-8.21088,55.118619],[-8.210856,55.118568],[-8.21076,55.118369],[-8.210746,55.11834],[-8.210655,55.118179],[-8.210563,55.118017],[-8.210517,55.117938],[-8.210411,55.117755],[-8.210387,55.11771],[-8.21028,55.117505],[-8.210275,55.117494],[-8.210224,55.117389],[-8.21019,55.117317],[-8.210176,55.117289],[-8.210136,55.117211],[-8.210133,55.117205],[-8.210078,55.117094],[-8.210025,55.116986],[-8.210586,55.116886],[-8.210816,55.116849],[-8.211173,55.11679],[-8.211257,55.116777],[-8.21161,55.116707],[-8.211609,55.116663],[-8.211608,55.116394],[-8.211607,55.116124],[-8.211136,55.116125],[-8.211135,55.115855],[-8.210665,55.115856],[-8.210663,55.115587],[-8.210662,55.115317],[-8.21066,55.115048],[-8.21019,55.115049],[-8.210187,55.114509],[-8.210182,55.113431],[-8.210652,55.113431],[-8.210658,55.114509],[-8.211128,55.114508],[-8.211131,55.115047],[-8.211132,55.115316],[-8.211602,55.115316],[-8.211604,55.115585],[-8.212074,55.115584],[-8.212073,55.115315],[-8.21207,55.114776],[-8.211599,55.114777],[-8.211598,55.114507],[-8.211597,55.114237],[-8.211126,55.114238],[-8.211124,55.113699],[-8.211121,55.11316],[-8.211591,55.113159],[-8.211594,55.113698],[-8.212064,55.113698],[-8.212067,55.114237],[-8.212068,55.114506],[-8.212538,55.114505],[-8.21254,55.114775],[-8.212543,55.115314],[-8.213013,55.115313],[-8.213014,55.115583],[-8.213016,55.115852],[-8.213017,55.116122],[-8.213019,55.116391],[-8.212548,55.116392],[-8.212549,55.116502],[-8.212712,55.116476],[-8.212866,55.11645],[-8.212868,55.116453],[-8.213509,55.116327],[-8.213579,55.116314],[-8.213829,55.116265],[-8.214545,55.116254],[-8.214701,55.117197],[-8.214808,55.117845],[-8.214813,55.117849],[-8.215004,55.117981],[-8.215089,55.118067],[-8.215155,55.118305],[-8.215164,55.118394],[-8.215148,55.118436],[-8.215024,55.118568],[-8.214804,55.118693],[-8.214692,55.118752],[-8.214476,55.118825],[-8.214086,55.118927],[-8.213812,55.119002],[-8.213664,55.119036],[-8.213565,55.119054],[-8.213521,55.119054],[-8.213524,55.11906],[-8.21353,55.119071],[-8.213569,55.119149],[-8.213624,55.119243],[-8.213688,55.119355],[-8.213975,55.119354],[-8.213976,55.119624],[-8.214447,55.119623],[-8.214448,55.119893],[-8.21445,55.120162],[-8.214257,55.120162],[-8.214275,55.120185],[-8.21433,55.120251],[-8.214394,55.120328],[-8.214454,55.1204],[-8.214514,55.120466],[-8.214531,55.120486],[-8.214541,55.120498],[-8.214582,55.120548],[-8.214633,55.120605],[-8.214693,55.120676],[-8.21475,55.120742],[-8.214852,55.120852],[-8.214909,55.120909],[-8.215013,55.121002],[-8.215092,55.121082],[-8.215127,55.121116],[-8.215214,55.121207],[-8.215325,55.121313],[-8.215414,55.121396],[-8.215516,55.121498],[-8.215555,55.121534],[-8.215607,55.121587],[-8.215713,55.121679],[-8.21574,55.121707],[-8.215812,55.121776],[-8.215876,55.121829],[-8.215944,55.121875],[-8.216064,55.121936],[-8.216165,55.121982],[-8.216263,55.12204],[-8.216382,55.12211],[-8.216475,55.122164],[-8.216489,55.122172],[-8.216518,55.122196],[-8.216545,55.122218],[-8.216573,55.122241],[-8.216613,55.122284],[-8.216637,55.122346],[-8.216646,55.122384],[-8.216649,55.122444],[-8.216643,55.122493],[-8.216596,55.122554],[-8.216506,55.122635],[-8.216414,55.122705],[-8.216307,55.122785],[-8.216226,55.122839],[-8.216151,55.122902],[-8.2161,55.122945],[-8.216017,55.123051],[-8.215975,55.123124],[-8.216347,55.123124],[-8.216351,55.123932],[-8.215881,55.123933],[-8.215877,55.123296],[-8.215812,55.123432],[-8.215764,55.123518],[-8.215722,55.123591],[-8.215717,55.123599],[-8.215691,55.123645],[-8.215638,55.123728],[-8.215549,55.123861],[-8.215473,55.123964],[-8.215462,55.123978],[-8.216035,55.123982],[-8.216188,55.123983],[-8.216275,55.123973],[-8.216492,55.123959],[-8.21677,55.123943],[-8.216872,55.123924],[-8.216985,55.123933],[-8.217281,55.123921],[-8.217722,55.124039],[-8.218149,55.124139],[-8.218322,55.124218],[-8.219097,55.124539],[-8.219153,55.124562],[-8.219529,55.124718],[-8.21971,55.124782],[-8.220043,55.124939],[-8.220445,55.12495],[-8.221684,55.124984],[-8.223212,55.124992],[-8.223195,55.124867],[-8.223211,55.124801],[-8.223243,55.124762],[-8.223255,55.124731],[-8.223242,55.124704],[-8.223218,55.124671],[-8.223136,55.124639],[-8.223084,55.124627],[-8.222941,55.124618],[-8.222905,55.124611],[-8.222876,55.124574],[-8.222872,55.124528],[-8.222879,55.124486],[-8.222899,55.124437],[-8.222895,55.124384],[-8.222862,55.124337],[-8.222825,55.124286],[-8.222772,55.124244],[-8.222764,55.124203],[-8.222788,55.124161],[-8.222787,55.124123],[-8.222758,55.124068],[-8.222734,55.12404],[-8.222709,55.123961],[-8.222708,55.12391],[-8.222732,55.123861],[-8.222748,55.123821],[-8.222756,55.123751],[-8.222747,55.123679],[-8.222735,55.123633],[-8.222665,55.123572],[-8.222644,55.12354],[-8.222656,55.123514],[-8.222677,55.12351],[-8.222754,55.1235],[-8.222782,55.123488],[-8.222782,55.123474],[-8.222761,55.12344],[-8.222716,55.123396],[-8.222667,55.123375],[-8.222622,55.123312],[-8.222597,55.123228],[-8.222605,55.123205],[-8.222646,55.123193],[-8.222698,55.12317],[-8.222698,55.123156],[-8.22267,55.123126],[-8.222637,55.123091],[-8.222596,55.12307],[-8.222539,55.123059],[-8.222502,55.123029],[-8.222492,55.123005],[-8.222482,55.122982],[-8.222441,55.122957],[-8.222437,55.122938],[-8.222469,55.122912],[-8.222485,55.122882],[-8.222468,55.122857],[-8.222476,55.122824],[-8.222509,55.122815],[-8.222541,55.122798],[-8.222537,55.122763],[-8.222524,55.122712],[-8.222511,55.122622],[-8.222503,55.122587],[-8.222493,55.122573],[-8.222458,55.122574],[-8.222458,55.122529],[-8.222429,55.122499],[-8.222339,55.122434],[-8.222323,55.122378],[-8.222302,55.122341],[-8.222257,55.122318],[-8.222188,55.122267],[-8.222159,55.12223],[-8.222142,55.122174],[-8.222146,55.122139],[-8.222138,55.122116],[-8.222117,55.122095],[-8.222069,55.122035],[-8.221985,55.122035],[-8.221984,55.121946],[-8.221946,55.121937],[-8.221933,55.121925],[-8.221941,55.121911],[-8.221957,55.121888],[-8.221984,55.12185],[-8.221983,55.121775],[-8.22196,55.121707],[-8.221935,55.121646],[-8.221907,55.121646],[-8.221882,55.121651],[-8.22183,55.121663],[-8.221813,55.121668],[-8.221801,55.121654],[-8.221777,55.121633],[-8.221764,55.121596],[-8.22176,55.121558],[-8.2218,55.12154],[-8.221812,55.121514],[-8.221812,55.121489],[-8.221795,55.121433],[-8.221758,55.121384],[-8.221742,55.121363],[-8.221669,55.121326],[-8.221571,55.121236],[-8.221563,55.121228],[-8.22151,55.121228],[-8.221509,55.121172],[-8.22144,55.121099],[-8.221374,55.121064],[-8.221354,55.121064],[-8.221293,55.121067],[-8.22122,55.121067],[-8.2212,55.121058],[-8.221175,55.121039],[-8.221079,55.120959],[-8.221038,55.120959],[-8.221038,55.120937],[-8.220992,55.120937],[-8.220935,55.120935],[-8.220866,55.120926],[-8.220858,55.120912],[-8.220849,55.120884],[-8.220877,55.120837],[-8.220901,55.120779],[-8.220909,55.120749],[-8.22088,55.12071],[-8.220836,55.120679],[-8.220783,55.120652],[-8.220734,55.120645],[-8.220722,55.120649],[-8.220665,55.120689],[-8.220645,55.120692],[-8.220608,55.120675],[-8.220575,55.120638],[-8.220596,55.120629],[-8.220608,55.120587],[-8.220644,55.120554],[-8.220656,55.120503],[-8.220651,55.120452],[-8.220639,55.120421],[-8.220565,55.120421],[-8.220563,55.120189],[-8.22056,55.12018],[-8.220551,55.120148],[-8.220563,55.12011],[-8.220562,55.119969],[-8.220542,55.119961],[-8.22046,55.119955],[-8.220407,55.119932],[-8.220371,55.119901],[-8.220338,55.119864],[-8.220317,55.119832],[-8.220333,55.119746],[-8.220324,55.119706],[-8.220288,55.119685],[-8.220255,55.119672],[-8.220202,55.119655],[-8.220164,55.119631],[-8.220141,55.119622],[-8.220094,55.119613],[-8.22009,55.119613],[-8.22009,55.119612],[-8.220087,55.119612],[-8.220036,55.119605],[-8.219989,55.119577],[-8.219949,55.119537],[-8.219909,55.119481],[-8.219919,55.119417],[-8.219934,55.119376],[-8.219914,55.119338],[-8.219874,55.119278],[-8.219758,55.11915],[-8.219726,55.119083],[-8.219717,55.119036],[-8.219748,55.119018],[-8.219747,55.118994],[-8.219648,55.118912],[-8.219648,55.118885],[-8.219612,55.118859],[-8.219592,55.118832],[-8.219591,55.118752],[-8.219578,55.118703],[-8.219519,55.118658],[-8.219452,55.118621],[-8.219421,55.118612],[-8.219384,55.118555],[-8.219321,55.118482],[-8.219297,55.118451],[-8.219241,55.118375],[-8.21924,55.118348],[-8.219239,55.118319],[-8.219212,55.118293],[-8.219211,55.11827],[-8.21923,55.118246],[-8.219194,55.118192],[-8.219174,55.118157],[-8.219138,55.118097],[-8.219078,55.11803],[-8.219011,55.117986],[-8.21887,55.117936],[-8.218839,55.117928],[-8.218787,55.117865],[-8.218769,55.117781],[-8.21875,55.117761],[-8.218691,55.117737],[-8.218659,55.117704],[-8.218568,55.117633],[-8.218556,55.117611],[-8.218555,55.117577],[-8.218551,55.11755],[-8.218486,55.117442],[-8.218445,55.117348],[-8.218445,55.117315],[-8.218421,55.117279],[-8.218331,55.11719],[-8.218313,55.117173],[-8.21827,55.117151],[-8.218241,55.117057],[-8.218225,55.117039],[-8.218218,55.117028],[-8.218217,55.117014],[-8.218204,55.116995],[-8.218188,55.116979],[-8.218172,55.116967],[-8.218122,55.116944],[-8.218059,55.116919],[-8.217978,55.116892],[-8.217936,55.116874],[-8.217909,55.116846],[-8.217884,55.116814],[-8.217847,55.116755],[-8.217831,55.11674],[-8.217818,55.116721],[-8.217813,55.1167],[-8.217827,55.116677],[-8.217888,55.116604],[-8.217904,55.116586],[-8.217904,55.116571],[-8.217898,55.116536],[-8.217885,55.116518],[-8.217854,55.116487],[-8.217845,55.116455],[-8.217817,55.116409],[-8.217785,55.11639],[-8.217764,55.116371],[-8.217744,55.116345],[-8.217721,55.116316],[-8.217685,55.116281],[-8.217654,55.11626],[-8.217606,55.116229],[-8.217596,55.11621],[-8.217583,55.116186],[-8.217556,55.116167],[-8.217544,55.116162],[-8.217531,55.116156],[-8.217526,55.116149],[-8.217524,55.11614],[-8.217512,55.116129],[-8.2175,55.11611],[-8.217502,55.116096],[-8.21748,55.116073],[-8.217425,55.116032],[-8.217408,55.116008],[-8.217425,55.115991],[-8.217476,55.115936],[-8.217482,55.115913],[-8.217479,55.115835],[-8.217471,55.115797],[-8.217445,55.115756],[-8.217436,55.115743],[-8.217437,55.115728],[-8.217436,55.11571],[-8.217434,55.115697],[-8.217411,55.115675],[-8.217369,55.115647],[-8.217318,55.115619],[-8.217289,55.115595],[-8.217257,55.115551],[-8.217254,55.115518],[-8.21723,55.115486],[-8.217213,55.115471],[-8.217199,55.115463],[-8.217156,55.115437],[-8.21712,55.115422],[-8.217102,55.115411],[-8.217091,55.115396],[-8.217073,55.11539],[-8.217034,55.115376],[-8.216992,55.115376],[-8.216973,55.115369],[-8.216958,55.115345],[-8.216944,55.115333],[-8.21693,55.115322],[-8.216929,55.115309],[-8.216934,55.115296],[-8.216939,55.115282],[-8.216951,55.115271],[-8.217007,55.115258],[-8.21706,55.115249],[-8.217078,55.115234],[-8.217077,55.115215],[-8.217071,55.115193],[-8.217047,55.11517],[-8.217019,55.11515],[-8.21699,55.115129],[-8.216983,55.115108],[-8.216976,55.115091],[-8.216956,55.115064],[-8.216923,55.115037],[-8.216907,55.115022],[-8.216873,55.114994],[-8.216829,55.114945],[-8.216813,55.114915],[-8.21679,55.114886],[-8.216764,55.114853],[-8.216729,55.114795],[-8.216715,55.114776],[-8.216699,55.11475],[-8.216702,55.114737],[-8.216721,55.114728],[-8.216776,55.114714],[-8.216806,55.1147],[-8.216815,55.114669],[-8.216792,55.114647],[-8.216742,55.11463],[-8.216625,55.11459],[-8.216543,55.114559],[-8.216517,55.114533],[-8.216482,55.114504],[-8.216449,55.114474],[-8.216419,55.114448],[-8.216372,55.114414],[-8.216354,55.114383],[-8.216384,55.114341],[-8.216444,55.114301],[-8.216472,55.114279],[-8.216484,55.114256],[-8.216478,55.114229],[-8.216472,55.114208],[-8.216463,55.114173],[-8.216447,55.11416],[-8.216439,55.114133],[-8.216441,55.114114],[-8.21647,55.114092],[-8.21649,55.114063],[-8.216499,55.114043],[-8.216526,55.114008],[-8.216567,55.113966],[-8.216596,55.113916],[-8.216616,55.113866],[-8.216623,55.113795],[-8.216635,55.113755],[-8.216625,55.113735],[-8.216612,55.113714],[-8.216589,55.11369],[-8.216609,55.113668],[-8.216622,55.113654],[-8.216652,55.113638],[-8.216683,55.113629],[-8.216732,55.113568],[-8.216769,55.113511],[-8.216783,55.113481],[-8.216766,55.11345],[-8.216742,55.11343],[-8.216698,55.113404],[-8.216672,55.11337],[-8.21666,55.113352],[-8.216648,55.113321],[-8.216641,55.113285],[-8.216631,55.113252],[-8.216615,55.113237],[-8.216604,55.113213],[-8.216602,55.113152],[-8.216612,55.113126],[-8.216631,55.113098],[-8.216646,55.113077],[-8.216657,55.11305],[-8.216662,55.113035],[-8.216654,55.113007],[-8.216642,55.112979],[-8.216669,55.112935],[-8.216696,55.112867],[-8.216756,55.112797],[-8.216758,55.112784],[-8.216754,55.112764],[-8.216784,55.112713],[-8.216786,55.112687],[-8.216816,55.11267],[-8.216834,55.112656],[-8.216845,55.112639],[-8.216862,55.112631],[-8.2169,55.112637],[-8.216929,55.112643],[-8.21695,55.112625],[-8.216947,55.112606],[-8.216966,55.11259],[-8.216998,55.112584],[-8.217035,55.112585],[-8.217064,55.112585],[-8.217123,55.112584],[-8.217194,55.112576],[-8.217272,55.112566],[-8.217297,55.11256],[-8.217335,55.112542],[-8.217348,55.11251],[-8.217362,55.112474],[-8.217417,55.112442],[-8.217491,55.112401],[-8.217504,55.112385],[-8.217506,55.112352],[-8.217477,55.112323],[-8.217446,55.112276],[-8.217458,55.112265],[-8.217504,55.112247],[-8.21751,55.112222],[-8.217511,55.112188],[-8.21752,55.112176],[-8.217546,55.112157],[-8.217549,55.112135],[-8.217577,55.112122],[-8.217606,55.112124],[-8.217613,55.112091],[-8.217596,55.112065],[-8.217588,55.11203],[-8.21761,55.111989],[-8.217637,55.111974],[-8.217692,55.111967],[-8.217747,55.111949],[-8.217784,55.111934],[-8.217843,55.111886],[-8.217914,55.11182],[-8.217954,55.111787],[-8.217973,55.111755],[-8.217987,55.111742],[-8.218004,55.111724],[-8.218017,55.111701],[-8.218017,55.111683],[-8.21801,55.11167],[-8.217984,55.111667],[-8.217943,55.111645],[-8.217931,55.11162],[-8.217926,55.111589],[-8.217924,55.11156],[-8.217912,55.111531],[-8.217695,55.111531],[-8.217696,55.111801],[-8.217226,55.111802],[-8.217227,55.112071],[-8.216287,55.112073],[-8.216286,55.111804],[-8.216756,55.111803],[-8.216754,55.111533],[-8.216753,55.111264],[-8.217223,55.111263],[-8.217222,55.110993],[-8.21722,55.110724],[-8.21769,55.110723],[-8.217687,55.110184],[-8.217684,55.109645],[-8.218155,55.109644],[-8.218153,55.109374],[-8.218147,55.108296],[-8.218146,55.108027],[-8.217676,55.108028],[-8.217673,55.107489],[-8.217671,55.107219],[-8.21767,55.10695],[-8.21814,55.106949],[-8.218141,55.107218],[-8.218612,55.107217],[-8.218613,55.107487],[-8.219083,55.107486],[-8.219086,55.108025],[-8.219088,55.108295],[-8.219346,55.108294],[-8.219346,55.108286],[-8.219355,55.10826],[-8.219362,55.108236],[-8.219368,55.108213],[-8.219374,55.108181],[-8.21943,55.108133],[-8.21947,55.108124],[-8.219483,55.108112],[-8.219502,55.108089],[-8.219512,55.108073],[-8.219506,55.108046],[-8.219509,55.108023],[-8.219526,55.108002],[-8.219549,55.10798],[-8.219586,55.107963],[-8.219687,55.107928],[-8.219747,55.107914],[-8.219802,55.10792],[-8.219832,55.107906],[-8.219839,55.107856],[-8.219856,55.10784],[-8.219863,55.10783],[-8.219881,55.107796],[-8.219887,55.107773],[-8.219888,55.107747],[-8.219889,55.107718],[-8.219898,55.107693],[-8.219856,55.107587],[-8.21981,55.10751],[-8.219756,55.107459],[-8.219666,55.10732],[-8.219536,55.107121],[-8.219486,55.106993],[-8.21944,55.106849],[-8.219365,55.106721],[-8.219305,55.106593],[-8.21926,55.106474],[-8.21917,55.106307],[-8.219055,55.106136],[-8.218927,55.105914],[-8.218889,55.105832],[-8.218776,55.105613],[-8.218708,55.105456],[-8.218589,55.105215],[-8.218512,55.105075],[-8.218439,55.104921],[-8.218389,55.104825],[-8.218365,55.104775],[-8.218306,55.104665],[-8.218248,55.104577],[-8.218199,55.104492],[-8.218155,55.104378],[-8.218078,55.104256],[-8.218049,55.104199],[-8.218025,55.104162],[-8.217971,55.10407],[-8.217933,55.104023],[-8.217903,55.103978],[-8.217886,55.103947],[-8.21785,55.103873],[-8.217772,55.103731],[-8.217733,55.10364],[-8.217699,55.103584],[-8.217698,55.103582],[-8.217677,55.103552],[-8.21767,55.103537],[-8.217604,55.103422],[-8.217584,55.103364],[-8.217559,55.10333],[-8.217476,55.103201],[-8.217405,55.103094],[-8.217292,55.102892],[-8.217243,55.102809],[-8.217224,55.102771],[-8.21717,55.102694],[-8.217124,55.102592],[-8.217019,55.102341],[-8.21696,55.102246],[-8.216903,55.102118],[-8.216849,55.101833],[-8.216746,55.101383],[-8.216682,55.100987],[-8.21657,55.100558],[-8.216482,55.100177],[-8.216402,55.099885],[-8.216302,55.099622],[-8.21623,55.099396],[-8.216044,55.09901]],[[-8.21018,55.113162],[-8.210182,55.113431],[-8.209712,55.113432],[-8.20971,55.113163],[-8.21018,55.113162]],[[-8.208733,55.106157],[-8.20873,55.105618],[-8.2092,55.105617],[-8.209203,55.106156],[-8.209673,55.106155],[-8.209675,55.106424],[-8.209676,55.106694],[-8.210146,55.106693],[-8.210144,55.106154],[-8.210141,55.105615],[-8.210611,55.105614],[-8.210614,55.106153],[-8.211084,55.106153],[-8.211087,55.106692],[-8.211557,55.106691],[-8.21156,55.10723],[-8.21203,55.107229],[-8.212033,55.107768],[-8.212035,55.108307],[-8.211565,55.108308],[-8.211562,55.107769],[-8.211092,55.10777],[-8.211095,55.108309],[-8.211097,55.108578],[-8.211567,55.108577],[-8.211568,55.108847],[-8.21157,55.109116],[-8.211099,55.109117],[-8.211098,55.108848],[-8.210628,55.108849],[-8.210626,55.108579],[-8.210625,55.10831],[-8.210155,55.10831],[-8.210152,55.107771],[-8.210151,55.107502],[-8.20968,55.107503],[-8.209679,55.107233],[-8.209678,55.106964],[-8.209208,55.106964],[-8.209206,55.106695],[-8.209205,55.106425],[-8.208735,55.106426],[-8.208733,55.106157]],[[-8.211571,55.109386],[-8.21157,55.109116],[-8.21204,55.109116],[-8.212041,55.109385],[-8.211571,55.109386]],[[-8.212037,55.108577],[-8.212035,55.108307],[-8.212506,55.108306],[-8.212507,55.108576],[-8.212977,55.108575],[-8.212979,55.108845],[-8.213449,55.108844],[-8.21345,55.109113],[-8.21392,55.109112],[-8.213922,55.109382],[-8.213923,55.109651],[-8.214393,55.109651],[-8.214395,55.10992],[-8.214398,55.110459],[-8.214399,55.110729],[-8.214869,55.110728],[-8.214871,55.110997],[-8.215341,55.110997],[-8.215342,55.111266],[-8.215344,55.111536],[-8.214874,55.111536],[-8.214872,55.111267],[-8.214402,55.111268],[-8.214401,55.110998],[-8.21393,55.110999],[-8.213929,55.11073],[-8.213927,55.11046],[-8.213457,55.110461],[-8.213454,55.109922],[-8.212984,55.109923],[-8.212983,55.109653],[-8.212981,55.109384],[-8.212511,55.109384],[-8.21251,55.109115],[-8.212508,55.108845],[-8.212038,55.108846],[-8.212037,55.108577]],[[-8.215345,55.111805],[-8.215344,55.111536],[-8.215814,55.111535],[-8.215815,55.111804],[-8.215345,55.111805]],[[-8.210139,55.105346],[-8.210141,55.105615],[-8.209671,55.105616],[-8.209669,55.105346],[-8.210139,55.105346]],[[-8.21861,55.106948],[-8.218607,55.106409],[-8.219077,55.106408],[-8.21908,55.106947],[-8.21861,55.106948]],[[-8.216316,55.117464],[-8.215846,55.117464],[-8.215844,55.117195],[-8.215843,55.116925],[-8.21584,55.116386],[-8.215839,55.116117],[-8.215368,55.116118],[-8.215364,55.115309],[-8.214894,55.11531],[-8.214891,55.114771],[-8.214888,55.114232],[-8.215358,55.114231],[-8.215354,55.113422],[-8.215824,55.113421],[-8.215829,55.11423],[-8.215831,55.114769],[-8.216302,55.114768],[-8.216305,55.115307],[-8.216775,55.115307],[-8.216779,55.116115],[-8.216781,55.116385],[-8.217251,55.116384],[-8.217254,55.116923],[-8.216784,55.116924],[-8.216785,55.117193],[-8.216315,55.117194],[-8.216316,55.117464]],[[-8.215352,55.113153],[-8.215354,55.113422],[-8.214414,55.113424],[-8.214412,55.113154],[-8.213942,55.113155],[-8.21394,55.112886],[-8.213938,55.112347],[-8.213467,55.112348],[-8.213466,55.112078],[-8.213465,55.111808],[-8.212994,55.111809],[-8.212993,55.11154],[-8.212991,55.11127],[-8.212521,55.111271],[-8.212518,55.110732],[-8.212517,55.110462],[-8.212047,55.110463],[-8.212045,55.110194],[-8.212043,55.109655],[-8.212513,55.109654],[-8.212516,55.110193],[-8.212986,55.110192],[-8.212987,55.110462],[-8.212989,55.110731],[-8.213459,55.11073],[-8.213462,55.111269],[-8.213463,55.111539],[-8.213933,55.111538],[-8.213935,55.111808],[-8.213936,55.112077],[-8.214406,55.112076],[-8.214408,55.112346],[-8.214878,55.112345],[-8.214881,55.112884],[-8.215351,55.112883],[-8.215352,55.113153]],[[-8.215376,55.117465],[-8.215846,55.117464],[-8.215847,55.117734],[-8.215377,55.117735],[-8.215376,55.117465]],[[-8.217263,55.11854],[-8.217258,55.117731],[-8.217728,55.117731],[-8.217733,55.118539],[-8.217263,55.11854]],[[-8.219624,55.120422],[-8.219623,55.120153],[-8.220093,55.120152],[-8.220094,55.120422],[-8.219624,55.120422]],[[-8.220097,55.120961],[-8.220096,55.120691],[-8.220566,55.12069],[-8.220568,55.12096],[-8.220097,55.120961]],[[-8.216338,55.121506],[-8.216339,55.121776],[-8.215869,55.121777],[-8.215868,55.121507],[-8.216338,55.121506]],[[-8.216341,55.122045],[-8.216339,55.121776],[-8.21728,55.121774],[-8.217282,55.122044],[-8.217283,55.122313],[-8.216813,55.122314],[-8.216811,55.122045],[-8.216341,55.122045]],[[-8.20544,55.105623],[-8.205438,55.105354],[-8.204968,55.105354],[-8.204967,55.105085],[-8.204965,55.104815],[-8.205435,55.104815],[-8.205437,55.105084],[-8.205907,55.105083],[-8.205908,55.105353],[-8.206378,55.105352],[-8.20638,55.105622],[-8.20544,55.105623]],[[-8.206853,55.10616],[-8.206854,55.106429],[-8.206384,55.10643],[-8.206383,55.106161],[-8.206853,55.10616]],[[-8.206856,55.106699],[-8.206854,55.106429],[-8.207324,55.106428],[-8.207326,55.106698],[-8.207796,55.106697],[-8.207797,55.106967],[-8.206857,55.106968],[-8.206856,55.106699]],[[-8.209234,55.112085],[-8.209236,55.112355],[-8.208765,55.112356],[-8.208764,55.112086],[-8.209234,55.112085]],[[-8.209237,55.112624],[-8.209236,55.112355],[-8.209706,55.112354],[-8.209707,55.112624],[-8.209237,55.112624]],[[-8.210649,55.112891],[-8.210648,55.112622],[-8.211118,55.112621],[-8.211119,55.112891],[-8.210649,55.112891]],[[-8.203559,55.105626],[-8.203556,55.105087],[-8.204027,55.105086],[-8.204029,55.105625],[-8.203559,55.105626]]],[[[-8.219565,55.108568],[-8.219559,55.10856],[-8.219564,55.109372],[-8.219093,55.109373],[-8.219095,55.109642],[-8.219098,55.110181],[-8.218628,55.110182],[-8.218631,55.110721],[-8.218631,55.110792],[-8.218669,55.110762],[-8.218685,55.110739],[-8.218683,55.110717],[-8.218684,55.110697],[-8.218739,55.110666],[-8.218831,55.110609],[-8.218875,55.110591],[-8.218903,55.110575],[-8.21897,55.110538],[-8.219036,55.110518],[-8.219047,55.110515],[-8.2191,55.110512],[-8.219108,55.110494],[-8.219116,55.110473],[-8.219142,55.110452],[-8.219179,55.110441],[-8.21921,55.110414],[-8.219249,55.11037],[-8.21926,55.110344],[-8.21927,55.110312],[-8.219286,55.110286],[-8.219283,55.110261],[-8.219254,55.110221],[-8.219254,55.110198],[-8.219297,55.110167],[-8.219383,55.110081],[-8.219426,55.109999],[-8.219419,55.109941],[-8.219432,55.109897],[-8.219435,55.109862],[-8.219438,55.109813],[-8.219457,55.109768],[-8.219471,55.109729],[-8.219478,55.10971],[-8.219491,55.109692],[-8.219508,55.109655],[-8.219512,55.10963],[-8.219518,55.109598],[-8.219515,55.109563],[-8.219527,55.109537],[-8.219564,55.109506],[-8.219623,55.109446],[-8.219631,55.109402],[-8.219617,55.109371],[-8.21959,55.109279],[-8.219593,55.109234],[-8.219614,55.109201],[-8.219626,55.109164],[-8.219608,55.109128],[-8.219582,55.109083],[-8.219566,55.109011],[-8.219577,55.10897],[-8.219593,55.108942],[-8.219639,55.108838],[-8.219636,55.108781],[-8.219608,55.108721],[-8.219605,55.108682],[-8.219617,55.108656],[-8.219611,55.108621],[-8.219587,55.108602],[-8.219565,55.108568]]],[[[-8.218352,55.111002],[-8.21836,55.110991],[-8.218162,55.110992],[-8.218162,55.111049],[-8.218189,55.111047],[-8.218232,55.111042],[-8.218287,55.111051],[-8.218331,55.111043],[-8.218344,55.111026],[-8.218352,55.111002]]],[[[-8.203073,55.107084],[-8.203097,55.107117],[-8.203096,55.106975],[-8.203092,55.106166],[-8.202622,55.106167],[-8.202619,55.105628],[-8.202149,55.105629],[-8.202146,55.10509],[-8.20173,55.10509],[-8.201805,55.105185],[-8.201891,55.105317],[-8.202051,55.105556],[-8.202169,55.105736],[-8.20234,55.106021],[-8.202489,55.106261],[-8.202632,55.106437],[-8.20277,55.106674],[-8.202893,55.106841],[-8.202969,55.106942],[-8.203073,55.107084]]],[[[-8.201595,55.104922],[-8.201676,55.105023],[-8.201671,55.104012],[-8.2012,55.104013],[-8.201199,55.103743],[-8.200729,55.103744],[-8.200728,55.103475],[-8.200258,55.103475],[-8.200254,55.102667],[-8.200724,55.102666],[-8.200721,55.102127],[-8.200251,55.102128],[-8.200248,55.101589],[-8.199778,55.10159],[-8.199777,55.10132],[-8.199775,55.101051],[-8.199305,55.101051],[-8.199304,55.100782],[-8.198364,55.100783],[-8.198363,55.100554],[-8.198221,55.100583],[-8.197632,55.100703],[-8.197257,55.100739],[-8.19691,55.100766],[-8.196892,55.100767],[-8.197074,55.10091],[-8.197256,55.101073],[-8.197412,55.101232],[-8.197621,55.101371],[-8.197928,55.101646],[-8.198113,55.101801],[-8.198341,55.102],[-8.198486,55.102127],[-8.198645,55.102265],[-8.19882,55.1024],[-8.198842,55.1024],[-8.198842,55.102417],[-8.198877,55.102444],[-8.199146,55.102669],[-8.199313,55.102668],[-8.199314,55.102803],[-8.199515,55.102958],[-8.199665,55.103093],[-8.199862,55.103256],[-8.199906,55.103299],[-8.19996,55.103343],[-8.200144,55.103476],[-8.200296,55.103602],[-8.200312,55.103614],[-8.200454,55.103742],[-8.200681,55.103948],[-8.200953,55.104171],[-8.201188,55.104342],[-8.201311,55.104492],[-8.201446,55.104704],[-8.201595,55.104922]]],[[[-8.211089,55.107231],[-8.210619,55.107231],[-8.210621,55.107501],[-8.210622,55.10777],[-8.211092,55.10777],[-8.211089,55.107231]]],[[[-8.210616,55.106692],[-8.210146,55.106693],[-8.210148,55.106963],[-8.210149,55.107232],[-8.210619,55.107231],[-8.210616,55.106692]]]]}}]}
