{"type":"FeatureCollection","features":[{"type":"Feature","properties":{"source_fid":2131455,"county":"Donegal","bog_geom_ha":180.14257723284916,"low15_pct":90.080160320641284,"low15_ha":162.27272237708556,"overlay_ha":162.32437266633619,"area_delta":0.051650289250630976},"geometry":{"type":"MultiPolygon","coordinates":[[[[-8.238865,54.987453],[-8.23828,54.987706],[-8.236855,54.988324],[-8.236722,54.988381],[-8.235378,54.988956],[-8.235379,54.988957],[-8.235486,54.98897],[-8.235582,54.989017],[-8.23566,54.989055],[-8.235729,54.9891],[-8.235787,54.989123],[-8.235887,54.989097],[-8.236046,54.989115],[-8.236186,54.989205],[-8.236249,54.989257],[-8.236383,54.989319],[-8.236445,54.989357],[-8.236581,54.989393],[-8.236684,54.989457],[-8.236744,54.989492],[-8.236891,54.989534],[-8.236943,54.989571],[-8.23703,54.989595],[-8.23711,54.989657],[-8.237143,54.989722],[-8.237186,54.989793],[-8.237192,54.989815],[-8.23719,54.989397],[-8.236721,54.989398],[-8.236719,54.989129],[-8.236251,54.989129],[-8.236249,54.98886],[-8.236247,54.98859],[-8.236716,54.988589],[-8.236718,54.988859],[-8.237186,54.988858],[-8.237188,54.989128],[-8.237657,54.989127],[-8.237658,54.989396],[-8.237662,54.989935],[-8.23813,54.989934],[-8.238132,54.990204],[-8.238135,54.990743],[-8.237837,54.990744],[-8.237843,54.990751],[-8.237892,54.990776],[-8.237961,54.9908],[-8.237984,54.99091],[-8.238022,54.991006],[-8.238089,54.991055],[-8.238214,54.991116],[-8.238294,54.991144],[-8.238341,54.991193],[-8.238375,54.991255],[-8.238402,54.99134],[-8.238473,54.991375],[-8.238535,54.991416],[-8.238611,54.991457],[-8.238703,54.991483],[-8.23879,54.991509],[-8.238819,54.99153],[-8.23889,54.991552],[-8.238959,54.991549],[-8.239017,54.991555],[-8.239147,54.991567],[-8.2392,54.991527],[-8.239245,54.99153],[-8.239352,54.99158],[-8.239512,54.991624],[-8.239547,54.991629],[-8.239545,54.991279],[-8.240482,54.991277],[-8.240485,54.991816],[-8.240487,54.992086],[-8.240956,54.992085],[-8.240962,54.993163],[-8.241431,54.993162],[-8.241433,54.993432],[-8.241434,54.993701],[-8.241903,54.9937],[-8.241905,54.99397],[-8.241906,54.994239],[-8.241438,54.99424],[-8.241441,54.994779],[-8.24191,54.994779],[-8.241913,54.995318],[-8.241914,54.995587],[-8.242383,54.995586],[-8.242387,54.996125],[-8.242855,54.996124],[-8.242859,54.996663],[-8.242865,54.997742],[-8.242868,54.998281],[-8.2424,54.998282],[-8.242396,54.997742],[-8.241927,54.997743],[-8.241921,54.996665],[-8.241452,54.996666],[-8.241449,54.996127],[-8.24098,54.996128],[-8.240977,54.995589],[-8.240975,54.995319],[-8.240506,54.99532],[-8.240503,54.994781],[-8.2405,54.994242],[-8.240498,54.993973],[-8.240967,54.993972],[-8.240965,54.993702],[-8.240497,54.993703],[-8.240495,54.993434],[-8.240026,54.993435],[-8.240025,54.993165],[-8.240018,54.992087],[-8.240017,54.991817],[-8.239935,54.991818],[-8.239954,54.991897],[-8.239975,54.99197],[-8.239983,54.992083],[-8.23997,54.992161],[-8.239957,54.992251],[-8.239946,54.99231],[-8.239897,54.99238],[-8.239897,54.992429],[-8.239851,54.992465],[-8.239807,54.992505],[-8.239833,54.992615],[-8.239803,54.992663],[-8.239777,54.992704],[-8.23975,54.992781],[-8.239772,54.992918],[-8.239788,54.99299],[-8.239796,54.993054],[-8.239787,54.993191],[-8.239791,54.993265],[-8.239784,54.993327],[-8.239751,54.993424],[-8.23976,54.993502],[-8.239788,54.993655],[-8.239824,54.99371],[-8.239861,54.993756],[-8.239908,54.993868],[-8.23991,54.993905],[-8.239896,54.99393],[-8.239952,54.993983],[-8.239968,54.994068],[-8.24005,54.9942],[-8.240041,54.994258],[-8.240032,54.99434],[-8.240033,54.994428],[-8.240035,54.994508],[-8.240057,54.994539],[-8.240053,54.994588],[-8.240026,54.994645],[-8.240038,54.994768],[-8.240045,54.994816],[-8.240083,54.994885],[-8.240132,54.994958],[-8.240192,54.99503],[-8.240221,54.995057],[-8.240246,54.9951],[-8.240275,54.995152],[-8.240275,54.995181],[-8.24029,54.995193],[-8.240288,54.995229],[-8.240326,54.995267],[-8.240349,54.995304],[-8.240396,54.995328],[-8.240467,54.995385],[-8.240529,54.995409],[-8.240508,54.995461],[-8.240541,54.995509],[-8.240601,54.995574],[-8.240623,54.995601],[-8.240666,54.995695],[-8.240664,54.995717],[-8.240664,54.995751],[-8.240664,54.995756],[-8.240693,54.995817],[-8.240715,54.995882],[-8.240725,54.99595],[-8.240696,54.995981],[-8.240705,54.996029],[-8.240738,54.996067],[-8.240763,54.996154],[-8.240812,54.996215],[-8.240845,54.996241],[-8.240926,54.996281],[-8.241006,54.996343],[-8.241055,54.996414],[-8.241125,54.996512],[-8.241165,54.996584],[-8.241223,54.996715],[-8.24125,54.996776],[-8.241268,54.996837],[-8.241284,54.996885],[-8.241353,54.996975],[-8.241427,54.997081],[-8.24148,54.997151],[-8.241503,54.997204],[-8.241548,54.997247],[-8.241608,54.997316],[-8.241632,54.99737],[-8.241635,54.997425],[-8.241653,54.997482],[-8.241695,54.997526],[-8.241715,54.99757],[-8.241724,54.997611],[-8.2418,54.997636],[-8.241838,54.997659],[-8.241923,54.997754],[-8.241997,54.997844],[-8.242046,54.997896],[-8.24206,54.998012],[-8.241743,54.998023],[-8.241685,54.998031],[-8.241663,54.998018],[-8.241574,54.998038],[-8.241503,54.998033],[-8.241545,54.998093],[-8.241576,54.998133],[-8.241669,54.998223],[-8.241675,54.998362],[-8.241699,54.998448],[-8.241785,54.998493],[-8.241918,54.998561],[-8.242017,54.99863],[-8.242059,54.998689],[-8.242132,54.998762],[-8.242203,54.998874],[-8.242255,54.998932],[-8.242265,54.998944],[-8.242379,54.999067],[-8.242467,54.999094],[-8.242511,54.999126],[-8.242575,54.999207],[-8.242648,54.999301],[-8.242711,54.999379],[-8.242769,54.999433],[-8.242849,54.999456],[-8.242937,54.9995],[-8.242987,54.999547],[-8.243045,54.999563],[-8.243066,54.999619],[-8.243036,54.999668],[-8.243085,54.999697],[-8.243092,54.999734],[-8.243167,54.999772],[-8.243249,54.999823],[-8.24332,54.999862],[-8.243439,54.999909],[-8.243489,54.999961],[-8.243495,54.999999],[-8.24348,55.000033],[-8.243493,55.00008],[-8.243486,55.000103],[-8.243475,55.000135],[-8.24351,55.00018],[-8.243553,55.000289],[-8.243567,55.000341],[-8.243554,55.000374],[-8.2435,55.000414],[-8.243496,55.000439],[-8.243582,55.000469],[-8.243701,55.000516],[-8.243716,55.000542],[-8.243681,55.00058],[-8.243621,55.000606],[-8.243586,55.000653],[-8.243621,55.000677],[-8.243657,55.000711],[-8.243694,55.00076],[-8.243717,55.000832],[-8.243726,55.000883],[-8.243778,55.000895],[-8.243795,55.000916],[-8.243795,55.000949],[-8.243743,55.000951],[-8.243644,55.000965],[-8.24362,55.000993],[-8.243616,55.001007],[-8.243631,55.001024],[-8.243633,55.00105],[-8.243663,55.001068],[-8.243719,55.001051],[-8.243766,55.001064],[-8.243805,55.001122],[-8.243833,55.001183],[-8.243861,55.001208],[-8.243921,55.001209],[-8.243965,55.001232],[-8.243993,55.001251],[-8.243982,55.001306],[-8.24396,55.00137],[-8.243943,55.001418],[-8.243956,55.001463],[-8.243994,55.001523],[-8.244044,55.00157],[-8.24408,55.00158],[-8.244124,55.001577],[-8.244147,55.001571],[-8.244201,55.001594],[-8.244266,55.001628],[-8.244303,55.001649],[-8.244287,55.001679],[-8.244317,55.001739],[-8.244371,55.001789],[-8.244434,55.001819],[-8.24454,55.001848],[-8.244623,55.001857],[-8.244663,55.001845],[-8.244777,55.001873],[-8.244815,55.001917],[-8.244759,55.001946],[-8.244751,55.001969],[-8.244753,55.00199],[-8.244811,55.00199],[-8.244845,55.001992],[-8.244848,55.002023],[-8.244807,55.002068],[-8.244772,55.002079],[-8.24477,55.002078],[-8.244802,55.002121],[-8.244912,55.002142],[-8.24497,55.00215],[-8.244992,55.002181],[-8.245016,55.00221],[-8.245151,55.002277],[-8.24522,55.002311],[-8.245259,55.002302],[-8.245326,55.002313],[-8.245339,55.002344],[-8.24535,55.002374],[-8.245386,55.002396],[-8.24544,55.002404],[-8.24554,55.002404],[-8.245589,55.002409],[-8.245617,55.002433],[-8.245619,55.002461],[-8.245595,55.002481],[-8.245548,55.002492],[-8.245539,55.002551],[-8.245539,55.00258],[-8.245573,55.002597],[-8.245629,55.002599],[-8.24569,55.002613],[-8.245722,55.00265],[-8.24578,55.002721],[-8.245787,55.002748],[-8.245776,55.002788],[-8.245784,55.002823],[-8.245791,55.002864],[-8.245831,55.002889],[-8.245896,55.002906],[-8.245959,55.002916],[-8.245995,55.002937],[-8.246017,55.002951],[-8.24608,55.002949],[-8.246136,55.002977],[-8.246151,55.003005],[-8.246157,55.00303],[-8.246166,55.003048],[-8.246215,55.003056],[-8.246291,55.003045],[-8.246347,55.003029],[-8.246418,55.003006],[-8.246502,55.002992],[-8.246623,55.002997],[-8.246733,55.003002],[-8.246854,55.003012],[-8.246927,55.003035],[-8.246953,55.003054],[-8.246932,55.003071],[-8.246867,55.003074],[-8.24682,55.003074],[-8.246768,55.003123],[-8.246774,55.003171],[-8.246815,55.003201],[-8.246878,55.003212],[-8.246977,55.003224],[-8.247054,55.003226],[-8.247097,55.003247],[-8.247115,55.003293],[-8.247134,55.003337],[-8.247183,55.003353],[-8.247251,55.003343],[-8.247361,55.003343],[-8.247412,55.003333],[-8.247488,55.003291],[-8.247533,55.003261],[-8.247574,55.003247],[-8.24762,55.00324],[-8.247656,55.003218],[-8.247728,55.003229],[-8.247788,55.003255],[-8.247827,55.003275],[-8.2479,55.00328],[-8.247963,55.003287],[-8.248006,55.003291],[-8.248032,55.00331],[-8.248546,55.003159],[-8.248685,55.00312],[-8.247587,55.003123],[-8.247583,55.002584],[-8.247582,55.002314],[-8.248051,55.002313],[-8.248052,55.002583],[-8.24899,55.002581],[-8.248993,55.003036],[-8.249517,55.002889],[-8.249979,55.002762],[-8.250549,55.002591],[-8.250779,55.002531],[-8.252031,55.002306],[-8.252223,55.002254],[-8.252434,55.002206],[-8.25262,55.002151],[-8.252793,55.002126],[-8.252975,55.002114],[-8.253133,55.002059],[-8.253291,55.002006],[-8.253486,55.001915],[-8.253646,55.001876],[-8.25385,55.001841],[-8.254043,55.001798],[-8.25427,55.001727],[-8.254517,55.001643],[-8.254611,55.001608],[-8.25461,55.001491],[-8.253672,55.001493],[-8.253671,55.001223],[-8.25414,55.001222],[-8.254138,55.000953],[-8.253669,55.000954],[-8.253667,55.000684],[-8.254605,55.000682],[-8.254607,55.000952],[-8.255076,55.000951],[-8.255074,55.000681],[-8.255543,55.00068],[-8.255541,55.000411],[-8.25601,55.00041],[-8.256012,55.000679],[-8.256013,55.000949],[-8.256219,55.000949],[-8.256265,55.000932],[-8.256378,55.000876],[-8.256481,55.00082],[-8.256481,55.000678],[-8.25678,55.000678],[-8.256841,55.000658],[-8.257059,55.000591],[-8.257254,55.000522],[-8.257402,55.000453],[-8.257417,55.000443],[-8.257417,55.000407],[-8.257415,55.000137],[-8.257871,55.000136],[-8.257884,55.000116],[-8.257882,54.999867],[-8.257971,54.999867],[-8.257972,54.999773],[-8.258062,54.999683],[-8.258169,54.999648],[-8.258208,54.999621],[-8.258211,54.999612],[-8.258222,54.999534],[-8.258235,54.99952],[-8.258249,54.999504],[-8.258347,54.999422],[-8.258449,54.999378],[-8.258559,54.999307],[-8.258634,54.999283],[-8.258768,54.999235],[-8.258917,54.999168],[-8.259068,54.999153],[-8.259131,54.999149],[-8.25923,54.999155],[-8.259287,54.999161],[-8.259313,54.99917],[-8.259367,54.999162],[-8.259436,54.999139],[-8.259491,54.99911],[-8.259555,54.999092],[-8.259621,54.999076],[-8.259662,54.999068],[-8.259714,54.999068],[-8.259757,54.999047],[-8.259834,54.999028],[-8.259925,54.998996],[-8.260005,54.998953],[-8.260051,54.998941],[-8.260117,54.998934],[-8.260199,54.998898],[-8.26022,54.998883],[-8.260219,54.998784],[-8.260407,54.998783],[-8.260447,54.998767],[-8.26052,54.998736],[-8.260585,54.998708],[-8.260644,54.998678],[-8.260715,54.998633],[-8.260769,54.998595],[-8.260817,54.998576],[-8.260866,54.998563],[-8.260946,54.998532],[-8.260993,54.998501],[-8.261053,54.998475],[-8.261106,54.998438],[-8.261118,54.998433],[-8.261171,54.998419],[-8.261232,54.998414],[-8.261314,54.998386],[-8.261367,54.998362],[-8.261445,54.998331],[-8.261495,54.998321],[-8.261562,54.998325],[-8.261571,54.998311],[-8.261606,54.998313],[-8.261688,54.998292],[-8.261717,54.998293],[-8.261751,54.998296],[-8.261802,54.998277],[-8.26185,54.998255],[-8.261898,54.998251],[-8.261958,54.998248],[-8.261963,54.998247],[-8.261971,54.998246],[-8.260719,54.996943],[-8.259025,54.995232],[-8.258703,54.9948],[-8.25852,54.99458],[-8.258274,54.994322],[-8.258044,54.994105],[-8.257755,54.993844],[-8.257523,54.993655],[-8.257282,54.993458],[-8.257025,54.993221],[-8.256758,54.99296],[-8.256636,54.992841],[-8.256521,54.992792],[-8.256146,54.992631],[-8.255679,54.992048],[-8.255485,54.991798],[-8.255332,54.991653],[-8.25517,54.991463],[-8.255047,54.991314],[-8.255009,54.991277],[-8.254835,54.991075],[-8.254757,54.990983],[-8.254607,54.990821],[-8.254494,54.990748],[-8.2542,54.990568],[-8.254154,54.990455],[-8.254139,54.990415],[-8.254123,54.990292],[-8.254054,54.990189],[-8.25403,54.990093],[-8.254028,54.990084],[-8.253621,54.989787],[-8.253134,54.989422],[-8.253077,54.989365],[-8.253009,54.989341],[-8.252927,54.989283],[-8.252885,54.989253],[-8.252587,54.98905],[-8.252292,54.988883],[-8.251961,54.988701],[-8.251856,54.988638],[-8.251817,54.98862],[-8.251395,54.988422],[-8.251218,54.988337],[-8.251007,54.988257],[-8.250885,54.988206],[-8.250821,54.988171],[-8.250762,54.988138],[-8.250689,54.988096],[-8.25057,54.988017],[-8.250511,54.98796],[-8.250504,54.98793],[-8.250503,54.987927],[-8.250348,54.98787],[-8.250257,54.987839],[-8.250162,54.987807],[-8.250106,54.987798],[-8.249944,54.987782],[-8.249813,54.987775],[-8.249714,54.987756],[-8.249611,54.987734],[-8.249538,54.987714],[-8.249431,54.987683],[-8.24931,54.987656],[-8.249188,54.987647],[-8.249064,54.987596],[-8.248895,54.987529],[-8.248832,54.987448],[-8.248791,54.987423],[-8.248407,54.987612],[-8.2482,54.987513],[-8.248432,54.987261],[-8.248335,54.987231],[-8.24817,54.987201],[-8.248077,54.987186],[-8.247862,54.987315],[-8.247575,54.987222],[-8.247602,54.987199],[-8.247632,54.987156],[-8.247647,54.987102],[-8.247669,54.987057],[-8.247599,54.9869],[-8.247536,54.986818],[-8.247482,54.986771],[-8.24737,54.986683],[-8.247326,54.986654],[-8.247241,54.986598],[-8.247124,54.986526],[-8.246254,54.986118],[-8.245701,54.985917],[-8.245599,54.98588],[-8.245487,54.985824],[-8.245431,54.985791],[-8.245359,54.985773],[-8.245092,54.985677],[-8.244865,54.985577],[-8.244728,54.985533],[-8.244565,54.985474],[-8.244419,54.985414],[-8.244209,54.985337],[-8.244034,54.985266],[-8.243834,54.985187],[-8.243698,54.985268],[-8.243615,54.985314],[-8.243509,54.985374],[-8.243397,54.985429],[-8.243309,54.98547],[-8.243184,54.985529],[-8.243136,54.985558],[-8.24308,54.985587],[-8.243007,54.985625],[-8.242127,54.986102],[-8.240481,54.986815],[-8.240426,54.98691],[-8.239651,54.987179],[-8.23952,54.987225],[-8.239521,54.987236],[-8.239487,54.987236],[-8.239232,54.987325],[-8.238956,54.987421],[-8.238865,54.987453]],[[-8.252735,55.001495],[-8.253672,55.001493],[-8.253674,55.001762],[-8.252736,55.001764],[-8.252735,55.001495]],[[-8.252267,55.001765],[-8.252736,55.001764],[-8.252738,55.002034],[-8.252269,55.002035],[-8.252267,55.001765]],[[-8.247573,55.000966],[-8.247582,55.002314],[-8.247113,55.002315],[-8.247105,55.000967],[-8.247573,55.000966]],[[-8.248042,55.000965],[-8.247573,55.000966],[-8.247572,55.000697],[-8.248041,55.000696],[-8.248042,55.000965]],[[-8.248044,55.001235],[-8.248042,55.000965],[-8.248511,55.000965],[-8.248513,55.001234],[-8.248044,55.001235]],[[-8.247103,55.000698],[-8.247105,55.000967],[-8.246636,55.000968],[-8.246634,55.000699],[-8.246165,55.0007],[-8.246164,55.00043],[-8.245695,55.000431],[-8.245693,55.000162],[-8.244286,55.000164],[-8.244285,54.999895],[-8.243816,54.999896],[-8.243814,54.999626],[-8.245221,54.999624],[-8.245219,54.999354],[-8.245218,54.999084],[-8.245686,54.999084],[-8.245688,54.999353],[-8.246157,54.999352],[-8.246159,54.999622],[-8.24616,54.999891],[-8.246629,54.99989],[-8.246631,55.00016],[-8.246632,55.000429],[-8.247101,55.000428],[-8.247103,55.000698]],[[-8.238137,54.991012],[-8.238135,54.990743],[-8.238604,54.990742],[-8.238605,54.991012],[-8.238137,54.991012]],[[-8.249643,54.988272],[-8.249501,54.988213],[-8.249641,54.988116],[-8.249769,54.988016],[-8.249826,54.98798],[-8.249965,54.987993],[-8.250071,54.988001],[-8.250162,54.988024],[-8.250115,54.988088],[-8.250032,54.988225],[-8.249938,54.988359],[-8.249762,54.988309],[-8.249643,54.988272]],[[-8.24932,54.988009],[-8.24921,54.988088],[-8.249117,54.988154],[-8.248973,54.988087],[-8.249065,54.988021],[-8.249197,54.987969],[-8.24932,54.988009]],[[-8.245897,54.988266],[-8.245853,54.988277],[-8.245787,54.988187],[-8.246026,54.988125],[-8.246107,54.988221],[-8.246033,54.98824],[-8.245897,54.988266]],[[-8.246102,54.989451],[-8.246107,54.990349],[-8.244545,54.990352],[-8.24454,54.989454],[-8.246102,54.989451]],[[-8.244419,54.995754],[-8.244384,54.995756],[-8.24433,54.995754],[-8.244292,54.995744],[-8.244286,54.995743],[-8.243015,54.995745],[-8.24301,54.994847],[-8.243499,54.994846],[-8.243502,54.994843],[-8.243534,54.994831],[-8.243578,54.994807],[-8.243621,54.99481],[-8.243693,54.994805],[-8.243695,54.994794],[-8.24366,54.994769],[-8.243675,54.994759],[-8.243705,54.994777],[-8.243738,54.994782],[-8.243779,54.99478],[-8.243827,54.994764],[-8.243858,54.994741],[-8.243881,54.994723],[-8.243907,54.994724],[-8.243957,54.994727],[-8.244011,54.994721],[-8.244053,54.994731],[-8.244087,54.99475],[-8.244115,54.994758],[-8.244163,54.994753],[-8.2442,54.994751],[-8.244239,54.994777],[-8.244286,54.994781],[-8.244341,54.994793],[-8.244479,54.994783],[-8.244523,54.994804],[-8.244559,54.99482],[-8.244655,54.994825],[-8.244709,54.994837],[-8.244793,54.99486],[-8.244849,54.994875],[-8.244873,54.99489],[-8.244925,54.994905],[-8.244934,54.994924],[-8.244977,54.994935],[-8.245012,54.994949],[-8.245042,54.994973],[-8.245072,54.995002],[-8.245107,54.995021],[-8.245101,54.995044],[-8.245068,54.995085],[-8.245025,54.995109],[-8.245068,54.995139],[-8.245065,54.995172],[-8.245027,54.995201],[-8.245028,54.995238],[-8.24505,54.995275],[-8.245037,54.995296],[-8.245005,54.995323],[-8.245019,54.995367],[-8.245059,54.995409],[-8.245119,54.995431],[-8.245126,54.995451],[-8.245158,54.995482],[-8.245253,54.995514],[-8.24526,54.995536],[-8.245286,54.995576],[-8.245329,54.995626],[-8.245366,54.995657],[-8.245405,54.995688],[-8.245426,54.995721],[-8.245465,54.995729],[-8.245497,54.995732],[-8.245472,54.995742],[-8.245454,54.995749],[-8.245452,54.995769],[-8.245422,54.99578],[-8.245123,54.995774],[-8.245079,54.99578],[-8.245032,54.995797],[-8.244973,54.995795],[-8.24486,54.995767],[-8.244837,54.995756],[-8.244824,54.995777],[-8.244774,54.995776],[-8.2447,54.995758],[-8.244676,54.995763],[-8.244639,54.995782],[-8.2446,54.995791],[-8.244553,54.995776],[-8.244522,54.995753],[-8.244512,54.995745],[-8.244494,54.995756],[-8.244419,54.995754]],[[-8.254573,54.995561],[-8.254574,54.995831],[-8.253637,54.995833],[-8.253635,54.995563],[-8.254104,54.995562],[-8.254102,54.995293],[-8.254571,54.995292],[-8.254569,54.995022],[-8.255038,54.995021],[-8.25504,54.995291],[-8.255041,54.99556],[-8.254573,54.995561]],[[-8.254578,54.99637],[-8.254574,54.995831],[-8.255512,54.995829],[-8.255515,54.996368],[-8.254578,54.99637]],[[-8.249891,54.996649],[-8.249889,54.99638],[-8.250358,54.996379],[-8.25036,54.996648],[-8.250363,54.997187],[-8.250365,54.997457],[-8.249896,54.997458],[-8.249898,54.997727],[-8.250367,54.997726],[-8.250368,54.997996],[-8.25037,54.998265],[-8.249901,54.998266],[-8.249899,54.997997],[-8.248962,54.997999],[-8.24896,54.997729],[-8.248958,54.99746],[-8.248957,54.99719],[-8.249426,54.997189],[-8.249422,54.99665],[-8.249891,54.996649]],[[-8.258809,54.998248],[-8.25834,54.998249],[-8.258342,54.998518],[-8.258344,54.998788],[-8.257406,54.99879],[-8.257408,54.999059],[-8.257411,54.999598],[-8.257413,54.999868],[-8.255538,54.999872],[-8.255536,54.999602],[-8.256005,54.999601],[-8.256001,54.999062],[-8.25647,54.999061],[-8.256469,54.998792],[-8.256467,54.998522],[-8.257405,54.99852],[-8.257403,54.998251],[-8.257872,54.99825],[-8.25787,54.99798],[-8.258339,54.997979],[-8.258337,54.99771],[-8.258806,54.997709],[-8.258808,54.997978],[-8.258809,54.998248]],[[-8.246581,54.992074],[-8.246584,54.992613],[-8.247053,54.992612],[-8.247057,54.993151],[-8.246588,54.993152],[-8.246589,54.993421],[-8.247058,54.993421],[-8.24706,54.99369],[-8.247062,54.99396],[-8.247063,54.994229],[-8.246594,54.99423],[-8.246593,54.993961],[-8.246124,54.993961],[-8.246122,54.993692],[-8.245653,54.993693],[-8.245652,54.993423],[-8.24565,54.993154],[-8.245181,54.993155],[-8.245178,54.992616],[-8.245175,54.992077],[-8.245173,54.991807],[-8.24517,54.991268],[-8.245639,54.991267],[-8.245642,54.991806],[-8.246111,54.991805],[-8.246112,54.992075],[-8.246581,54.992074]],[[-8.249878,54.994493],[-8.249409,54.994494],[-8.249407,54.994224],[-8.249876,54.994223],[-8.249878,54.994493]],[[-8.248471,54.994496],[-8.249409,54.994494],[-8.249412,54.995033],[-8.248475,54.995035],[-8.248471,54.994496]],[[-8.248006,54.995036],[-8.248475,54.995035],[-8.248476,54.995304],[-8.248007,54.995305],[-8.248006,54.995036]],[[-8.248478,54.995574],[-8.248476,54.995304],[-8.248945,54.995303],[-8.248947,54.995573],[-8.248478,54.995574]],[[-8.248952,54.996382],[-8.248947,54.995573],[-8.249416,54.995572],[-8.249421,54.996381],[-8.248952,54.996382]],[[-8.243739,54.987228],[-8.24327,54.987229],[-8.243269,54.986959],[-8.243737,54.986958],[-8.243739,54.987228]],[[-8.244216,54.988575],[-8.243747,54.988576],[-8.243744,54.988037],[-8.244213,54.988036],[-8.244216,54.988575]],[[-8.243287,54.989924],[-8.242349,54.989926],[-8.242348,54.989657],[-8.243285,54.989655],[-8.243287,54.989924]]],[[[-8.255976,55.001038],[-8.256014,55.001024],[-8.256013,55.000949],[-8.255076,55.000951],[-8.255077,55.00122],[-8.254608,55.001221],[-8.25461,55.001491],[-8.254922,55.00149],[-8.255181,55.001387],[-8.25548,55.00125],[-8.255546,55.00122],[-8.255546,55.001219],[-8.255548,55.001219],[-8.255789,55.001114],[-8.255976,55.001038]]],[[[-8.237629,54.990455],[-8.237665,54.990517],[-8.237663,54.990205],[-8.237467,54.990205],[-8.23753,54.990282],[-8.2376,54.990403],[-8.237629,54.990455]]]]}}]}
