{"type":"FeatureCollection","features":[{"type":"Feature","properties":{"source_fid":2136374,"county":"Donegal","bog_geom_ha":142.64032606811838,"low15_pct":97.023432552248252,"low15_ha":138.39454055500784,"overlay_ha":138.21402898405739,"area_delta":-0.18051157095044346},"geometry":{"type":"MultiPolygon","coordinates":[[[[-8.525356,54.729517],[-8.525362,54.729511],[-8.525412,54.729269],[-8.525457,54.728997],[-8.525531,54.728865],[-8.5256,54.728836],[-8.525646,54.728819],[-8.525646,54.728819],[-8.52549,54.728759],[-8.525465,54.728748],[-8.525423,54.728732],[-8.525394,54.728725],[-8.52536,54.728721],[-8.525331,54.728722],[-8.525314,54.728727],[-8.525293,54.728738],[-8.525273,54.728764],[-8.525265,54.728781],[-8.525246,54.728869],[-8.525254,54.729091],[-8.525249,54.729178],[-8.525244,54.729286],[-8.525268,54.729374],[-8.525291,54.729415],[-8.525311,54.729447],[-8.525343,54.729481],[-8.525356,54.729517]]],[[[-8.525356,54.729517],[-8.525321,54.729549],[-8.525321,54.729549],[-8.525356,54.729517]]],[[[-8.525334,54.729593],[-8.525328,54.729565],[-8.525324,54.729558],[-8.525328,54.729565],[-8.525334,54.729593]]],[[[-8.525335,54.72964],[-8.525336,54.729637],[-8.525337,54.729618],[-8.525336,54.729637],[-8.525335,54.72964]]],[[[-8.525308,54.729707],[-8.525328,54.729665],[-8.525333,54.729648],[-8.525328,54.729665],[-8.525308,54.729707]]],[[[-8.525282,54.729824],[-8.525282,54.729824],[-8.525284,54.729829],[-8.525282,54.729824]]],[[[-8.525283,54.729906],[-8.525287,54.729876],[-8.52529,54.729857],[-8.525287,54.729876],[-8.525283,54.729906]]],[[[-8.525278,54.729991],[-8.525267,54.73001],[-8.525256,54.730018],[-8.525267,54.73001],[-8.525278,54.729991],[-8.525285,54.72996],[-8.525283,54.729948],[-8.525285,54.72996],[-8.525278,54.729991]]],[[[-8.514638,54.723866],[-8.514576,54.723866],[-8.514429,54.723864],[-8.514313,54.723873],[-8.514429,54.723864],[-8.514576,54.723866],[-8.514638,54.723866]]],[[[-8.513895,54.723899],[-8.513872,54.723901],[-8.513836,54.723905],[-8.513872,54.723901],[-8.513895,54.723899],[-8.51405,54.723891],[-8.514159,54.723884],[-8.51405,54.723891],[-8.513895,54.723899]]],[[[-8.527704,54.725285],[-8.527591,54.724972],[-8.527459,54.724681],[-8.527371,54.724462],[-8.52732,54.724382],[-8.527199,54.724235],[-8.527035,54.724091],[-8.523116,54.724298],[-8.522821,54.721657],[-8.522007,54.72166],[-8.522003,54.721391],[-8.521538,54.721393],[-8.521534,54.721123],[-8.522576,54.721119],[-8.522511,54.721005],[-8.521528,54.720649],[-8.521531,54.720854],[-8.521065,54.720856],[-8.521062,54.720586],[-8.520954,54.720587],[-8.520701,54.720831],[-8.520224,54.720454],[-8.520129,54.720459],[-8.52013,54.72059],[-8.520134,54.72086],[-8.519202,54.720864],[-8.519206,54.721133],[-8.51874,54.721135],[-8.518737,54.720866],[-8.517806,54.72087],[-8.517802,54.7206],[-8.517336,54.720602],[-8.517336,54.7206],[-8.515983,54.720669],[-8.515888,54.723683],[-8.515805,54.723676],[-8.515668,54.723677],[-8.515539,54.723706],[-8.515538,54.723737],[-8.515522,54.723836],[-8.515524,54.723877],[-8.51562,54.723888],[-8.515746,54.723905],[-8.515758,54.723902],[-8.515787,54.723901],[-8.515807,54.723904],[-8.51583,54.723914],[-8.515848,54.723932],[-8.515852,54.723948],[-8.515843,54.723964],[-8.515841,54.723981],[-8.515851,54.724014],[-8.515882,54.724075],[-8.51591,54.724115],[-8.515952,54.724155],[-8.515973,54.724168],[-8.51606,54.724204],[-8.516187,54.724299],[-8.516254,54.724344],[-8.516267,54.72436],[-8.516313,54.724505],[-8.516321,54.724526],[-8.516332,54.724543],[-8.516367,54.724581],[-8.516399,54.724614],[-8.516418,54.724653],[-8.516473,54.724712],[-8.516504,54.724751],[-8.516516,54.724786],[-8.51652,54.724808],[-8.516547,54.724834],[-8.51657,54.724847],[-8.516635,54.724869],[-8.516678,54.724888],[-8.516716,54.724932],[-8.516725,54.724996],[-8.516716,54.725075],[-8.516711,54.725187],[-8.516724,54.725283],[-8.516753,54.725377],[-8.516813,54.725513],[-8.516844,54.725579],[-8.516884,54.725655],[-8.5169,54.725703],[-8.516936,54.725776],[-8.517011,54.725904],[-8.517011,54.725935],[-8.516989,54.725953],[-8.516959,54.725966],[-8.516944,54.725988],[-8.516931,54.726048],[-8.516939,54.726107],[-8.516959,54.726144],[-8.517025,54.726196],[-8.517071,54.726222],[-8.517185,54.726259],[-8.517208,54.726265],[-8.517237,54.726271],[-8.517251,54.726274],[-8.517266,54.726276],[-8.517276,54.726276],[-8.517307,54.726273],[-8.51732,54.726271],[-8.517337,54.726264],[-8.517347,54.726258],[-8.51737,54.726247],[-8.517382,54.726243],[-8.517484,54.726231],[-8.517515,54.726229],[-8.51753,54.726228],[-8.517617,54.726231],[-8.517647,54.726234],[-8.517665,54.726237],[-8.517747,54.726252],[-8.517776,54.726258],[-8.517848,54.726277],[-8.517884,54.726287],[-8.517998,54.726317],[-8.518138,54.726361],[-8.518166,54.726369],[-8.518381,54.726415],[-8.518409,54.726423],[-8.518422,54.726427],[-8.518472,54.726453],[-8.518493,54.726466],[-8.518503,54.726472],[-8.518512,54.726479],[-8.518529,54.726505],[-8.518542,54.726521],[-8.518549,54.726529],[-8.518558,54.726535],[-8.518569,54.72654],[-8.518595,54.726549],[-8.518609,54.726553],[-8.518622,54.726556],[-8.518694,54.726559],[-8.518725,54.726558],[-8.518883,54.726549],[-8.518913,54.726546],[-8.518929,54.726544],[-8.519058,54.726522],[-8.519072,54.726521],[-8.519103,54.726521],[-8.519147,54.726522],[-8.519178,54.726524],[-8.519193,54.726526],[-8.519208,54.726528],[-8.519221,54.726531],[-8.519274,54.726555],[-8.519339,54.726594],[-8.519382,54.726635],[-8.519384,54.726642],[-8.519383,54.726662],[-8.519361,54.7267],[-8.519302,54.726774],[-8.519291,54.726851],[-8.519291,54.726869],[-8.519293,54.726878],[-8.519304,54.726902],[-8.519312,54.726909],[-8.519332,54.726922],[-8.519389,54.726949],[-8.519408,54.726949],[-8.519454,54.726949],[-8.519571,54.726931],[-8.519756,54.726907],[-8.519889,54.726898],[-8.52006,54.726916],[-8.520215,54.726928],[-8.520375,54.726942],[-8.520407,54.726959],[-8.520414,54.726963],[-8.520433,54.726979],[-8.520438,54.726988],[-8.520445,54.727001],[-8.520469,54.727078],[-8.520505,54.72717],[-8.52053,54.727249],[-8.520555,54.72738],[-8.520602,54.727454],[-8.520661,54.727553],[-8.520682,54.727599],[-8.520686,54.727616],[-8.520695,54.727713],[-8.52072,54.727742],[-8.520738,54.727756],[-8.520757,54.727765],[-8.520777,54.727779],[-8.520846,54.727844],[-8.520859,54.727861],[-8.5209,54.727933],[-8.520907,54.727951],[-8.520909,54.727959],[-8.520907,54.728029],[-8.520894,54.728109],[-8.520876,54.72815],[-8.520872,54.728159],[-8.520858,54.72823],[-8.520859,54.728273],[-8.52086,54.728291],[-8.520864,54.728305],[-8.521328,54.72848],[-8.521345,54.728493],[-8.521473,54.728584],[-8.521677,54.728687],[-8.521953,54.728802],[-8.522276,54.728916],[-8.522325,54.728929],[-8.522469,54.729061],[-8.522469,54.729061],[-8.522469,54.729061],[-8.522646,54.729121],[-8.52281,54.729181],[-8.522906,54.729216],[-8.523097,54.729298],[-8.523227,54.729347],[-8.523319,54.729366],[-8.523433,54.729387],[-8.52353,54.729417],[-8.523553,54.729429],[-8.523584,54.729449],[-8.523595,54.729465],[-8.523601,54.729504],[-8.523599,54.729522],[-8.523588,54.729549],[-8.523581,54.729556],[-8.523563,54.72957],[-8.523543,54.729582],[-8.523517,54.729591],[-8.523456,54.729604],[-8.523426,54.729608],[-8.523328,54.729615],[-8.523299,54.729621],[-8.523222,54.729643],[-8.523204,54.729666],[-8.52321,54.729709],[-8.52322,54.729725],[-8.523226,54.729731],[-8.523262,54.729742],[-8.523403,54.729767],[-8.523506,54.729791],[-8.523582,54.729824],[-8.52361,54.72983],[-8.52367,54.729833],[-8.523867,54.729821],[-8.523954,54.729805],[-8.524018,54.729797],[-8.524049,54.729795],[-8.524064,54.729794],[-8.524077,54.729796],[-8.524097,54.729803],[-8.524106,54.729809],[-8.524124,54.729824],[-8.524184,54.729891],[-8.524238,54.729947],[-8.524255,54.729962],[-8.524265,54.729969],[-8.524353,54.730018],[-8.524379,54.730027],[-8.524432,54.730042],[-8.524461,54.730048],[-8.524476,54.73005],[-8.524536,54.730052],[-8.524567,54.730051],[-8.52468,54.730039],[-8.524794,54.730044],[-8.524934,54.730056],[-8.524965,54.730057],[-8.52498,54.730056],[-8.525082,54.730038],[-8.525138,54.730023],[-8.525165,54.730014],[-8.525177,54.730008],[-8.525186,54.730003],[-8.525206,54.729978],[-8.525241,54.729839],[-8.525244,54.729826],[-8.525283,54.729714],[-8.525293,54.72963],[-8.525293,54.729613],[-8.525288,54.729598],[-8.525283,54.729588],[-8.525278,54.729577],[-8.525261,54.729547],[-8.525215,54.729425],[-8.52518,54.72933],[-8.525179,54.729323],[-8.52517,54.729223],[-8.525184,54.729155],[-8.525194,54.729089],[-8.525189,54.729027],[-8.525185,54.728876],[-8.525185,54.728848],[-8.525186,54.728842],[-8.525188,54.72883],[-8.525235,54.728709],[-8.525262,54.728676],[-8.525279,54.72866],[-8.525288,54.728654],[-8.525298,54.72865],[-8.525347,54.728644],[-8.525378,54.728642],[-8.525453,54.728641],[-8.525513,54.728644],[-8.525542,54.728649],[-8.525554,54.728652],[-8.525585,54.728675],[-8.525597,54.728691],[-8.525608,54.728721],[-8.525615,54.728727],[-8.525637,54.72874],[-8.525719,54.728791],[-8.525719,54.728791],[-8.526053,54.728757],[-8.52628,54.7287],[-8.526453,54.728646],[-8.526669,54.72859],[-8.526857,54.728564],[-8.52697,54.728569],[-8.527131,54.72851],[-8.527275,54.728499],[-8.527449,54.72849],[-8.527584,54.728421],[-8.52764,54.728383],[-8.527711,54.728341],[-8.527807,54.728303],[-8.527773,54.728241],[-8.527711,54.728157],[-8.527695,54.728126],[-8.527689,54.72809],[-8.527676,54.728007],[-8.527667,54.7279],[-8.527664,54.72786],[-8.527628,54.727699],[-8.527617,54.727545],[-8.52763,54.727266],[-8.527658,54.726974],[-8.527673,54.726649],[-8.52768,54.726263],[-8.527688,54.725949],[-8.527701,54.725501],[-8.527704,54.725285]]],[[[-8.522861,54.729262],[-8.522712,54.729221],[-8.522505,54.729138],[-8.522505,54.729138],[-8.522568,54.72927],[-8.523334,54.729493],[-8.523334,54.729493],[-8.523364,54.729486],[-8.523377,54.729481],[-8.523394,54.729467],[-8.523399,54.72946],[-8.523396,54.729454],[-8.523389,54.729447],[-8.523368,54.729434],[-8.523343,54.729421],[-8.523077,54.729346],[-8.523052,54.729336],[-8.52296,54.72929],[-8.522861,54.729262]]],[[[-8.504676,54.73124],[-8.50465,54.731352],[-8.504598,54.731521],[-8.504559,54.731753],[-8.504509,54.73194],[-8.504488,54.732099],[-8.50442,54.732152],[-8.504373,54.732247],[-8.504909,54.732245],[-8.504905,54.731976],[-8.505837,54.731972],[-8.505833,54.731702],[-8.506299,54.7317],[-8.506302,54.73197],[-8.506306,54.732239],[-8.506309,54.732509],[-8.504446,54.732517],[-8.504449,54.732786],[-8.504422,54.732786],[-8.504428,54.732801],[-8.504552,54.733037],[-8.504652,54.733237],[-8.504701,54.733356],[-8.504751,54.733464],[-8.504803,54.733592],[-8.504805,54.733596],[-8.504811,54.733611],[-8.504884,54.733721],[-8.504822,54.733796],[-8.504769,54.733859],[-8.504706,54.73394],[-8.504682,54.733984],[-8.504748,54.733996],[-8.504777,54.734059],[-8.504777,54.734211],[-8.504777,54.734406],[-8.504816,54.73443],[-8.504858,54.734465],[-8.504908,54.734521],[-8.505031,54.734643],[-8.505057,54.734666],[-8.505123,54.734695],[-8.505179,54.734736],[-8.505199,54.734822],[-8.505187,54.734876],[-8.505145,54.734954],[-8.50511,54.735053],[-8.505114,54.735117],[-8.505127,54.735167],[-8.505162,54.735221],[-8.50521,54.735314],[-8.505257,54.735403],[-8.505317,54.735484],[-8.505321,54.73552],[-8.505309,54.735552],[-8.505274,54.735586],[-8.505274,54.735586],[-8.505274,54.735586],[-8.505208,54.735618],[-8.505207,54.735618],[-8.505195,54.735622],[-8.505307,54.735625],[-8.505398,54.735629],[-8.505416,54.73563],[-8.505415,54.735478],[-8.507278,54.73547],[-8.507281,54.735733],[-8.507454,54.735752],[-8.507748,54.735787],[-8.507747,54.735737],[-8.508679,54.735734],[-8.508675,54.735464],[-8.509607,54.73546],[-8.50961,54.73573],[-8.510076,54.735728],[-8.510079,54.735997],[-8.509858,54.735998],[-8.509894,54.736029],[-8.509967,54.736094],[-8.510046,54.736128],[-8.51014,54.736134],[-8.510199,54.736137],[-8.510254,54.736132],[-8.51036,54.736084],[-8.510454,54.736034],[-8.510485,54.736016],[-8.510546,54.736037],[-8.510545,54.735995],[-8.511011,54.735993],[-8.511012,54.736077],[-8.511083,54.736064],[-8.511253,54.736026],[-8.511439,54.735987],[-8.511594,54.735974],[-8.511769,54.735957],[-8.511935,54.735942],[-8.512093,54.735924],[-8.512169,54.735871],[-8.512187,54.735858],[-8.512292,54.735796],[-8.512318,54.735778],[-8.512367,54.735743],[-8.512445,54.735687],[-8.512531,54.735638],[-8.512573,54.735614],[-8.512678,54.735556],[-8.512805,54.73548],[-8.512831,54.735465],[-8.513019,54.735361],[-8.513119,54.735305],[-8.513123,54.735303],[-8.513216,54.735256],[-8.513216,54.735256],[-8.513241,54.735293],[-8.513248,54.735304],[-8.513256,54.7353],[-8.513267,54.735295],[-8.513373,54.735244],[-8.513383,54.735239],[-8.513399,54.735231],[-8.513691,54.73509],[-8.513976,54.734954],[-8.514238,54.734838],[-8.51447,54.73474],[-8.514543,54.734715],[-8.514668,54.734671],[-8.514973,54.734572],[-8.515069,54.734536],[-8.515111,54.73452],[-8.515184,54.734487],[-8.515183,54.734358],[-8.515176,54.733819],[-8.515642,54.733817],[-8.515635,54.733278],[-8.516101,54.733276],[-8.516097,54.733007],[-8.516094,54.732737],[-8.516559,54.732735],[-8.516549,54.731927],[-8.517015,54.731925],[-8.517012,54.731655],[-8.517413,54.731653],[-8.517458,54.731559],[-8.517505,54.731472],[-8.517553,54.731395],[-8.517589,54.731333],[-8.517666,54.731196],[-8.517732,54.731081],[-8.517779,54.730991],[-8.517882,54.730823],[-8.517969,54.730667],[-8.518013,54.730588],[-8.518097,54.730462],[-8.518192,54.730306],[-8.518284,54.730176],[-8.518374,54.730058],[-8.518474,54.729921],[-8.518588,54.729775],[-8.518728,54.729581],[-8.518798,54.729497],[-8.518894,54.729369],[-8.519052,54.729157],[-8.5191,54.729096],[-8.51917,54.729014],[-8.519233,54.728937],[-8.519314,54.728835],[-8.519377,54.72876],[-8.519416,54.728714],[-8.519435,54.72869],[-8.519465,54.728668],[-8.519465,54.728668],[-8.519465,54.728668],[-8.519473,54.72866],[-8.519498,54.728636],[-8.519498,54.728636],[-8.519498,54.728636],[-8.519544,54.728652],[-8.519648,54.728687],[-8.519656,54.72869],[-8.519685,54.728662],[-8.519807,54.72854],[-8.519885,54.728456],[-8.519959,54.72839],[-8.520034,54.728323],[-8.520116,54.728245],[-8.520156,54.728215],[-8.520305,54.728227],[-8.520491,54.72825],[-8.520544,54.728256],[-8.520771,54.72827],[-8.520771,54.72827],[-8.520771,54.72827],[-8.520777,54.728167],[-8.520775,54.728149],[-8.520765,54.728116],[-8.520781,54.727995],[-8.520779,54.727899],[-8.520728,54.727843],[-8.52071,54.727829],[-8.520644,54.727792],[-8.520626,54.727778],[-8.520597,54.727744],[-8.520603,54.72765],[-8.520575,54.727593],[-8.52052,54.727483],[-8.520487,54.727424],[-8.520468,54.727392],[-8.520439,54.72726],[-8.520399,54.727153],[-8.520382,54.727096],[-8.520369,54.727024],[-8.520338,54.726993],[-8.520258,54.726985],[-8.520145,54.726983],[-8.519947,54.726959],[-8.519836,54.726946],[-8.519719,54.72696],[-8.519614,54.726983],[-8.519428,54.727004],[-8.519373,54.727],[-8.519331,54.72699],[-8.519269,54.72696],[-8.51924,54.72694],[-8.519221,54.726924],[-8.519211,54.726884],[-8.51921,54.726871],[-8.51922,54.726764],[-8.519277,54.72668],[-8.519294,54.726654],[-8.519294,54.726646],[-8.519268,54.726626],[-8.519213,54.726594],[-8.519177,54.726577],[-8.519166,54.726576],[-8.519139,54.726574],[-8.519101,54.726573],[-8.519078,54.726573],[-8.51895,54.726595],[-8.518929,54.726597],[-8.518894,54.7266],[-8.51873,54.726611],[-8.518692,54.726611],[-8.518604,54.726608],[-8.518572,54.726601],[-8.51855,54.726594],[-8.518519,54.726583],[-8.518494,54.726573],[-8.518474,54.726557],[-8.518462,54.726545],[-8.518446,54.726525],[-8.518432,54.726504],[-8.518409,54.726491],[-8.518368,54.726469],[-8.518346,54.726463],[-8.518131,54.726417],[-8.518097,54.726408],[-8.517958,54.726363],[-8.517779,54.726316],[-8.517741,54.726306],[-8.517718,54.726301],[-8.517626,54.726285],[-8.517607,54.726283],[-8.517524,54.726281],[-8.517499,54.726283],[-8.517417,54.726292],[-8.51741,54.726295],[-8.517397,54.726304],[-8.517358,54.726318],[-8.517326,54.726324],[-8.517284,54.726328],[-8.517257,54.726328],[-8.517229,54.726325],[-8.517207,54.726321],[-8.517174,54.726314],[-8.517141,54.726305],[-8.517049,54.726277],[-8.516992,54.726254],[-8.516942,54.726225],[-8.516907,54.726197],[-8.516889,54.726173],[-8.516886,54.726168],[-8.516872,54.726149],[-8.516848,54.726099],[-8.516843,54.726011],[-8.516864,54.725974],[-8.516894,54.725936],[-8.516909,54.725912],[-8.5169,54.725886],[-8.516876,54.725833],[-8.516849,54.725776],[-8.516829,54.725721],[-8.516789,54.72564],[-8.516753,54.725568],[-8.516702,54.72547],[-8.516653,54.725306],[-8.516648,54.725257],[-8.516646,54.725191],[-8.516642,54.725011],[-8.516638,54.724963],[-8.516618,54.724924],[-8.516591,54.724902],[-8.51656,54.724896],[-8.516526,54.724896],[-8.516476,54.724883],[-8.516449,54.724864],[-8.516441,54.724837],[-8.51644,54.724782],[-8.516439,54.724752],[-8.516435,54.724723],[-8.516392,54.724686],[-8.516303,54.72459],[-8.516268,54.724553],[-8.51626,54.72452],[-8.516243,54.724444],[-8.516231,54.724398],[-8.516192,54.724358],[-8.516153,54.724328],[-8.516107,54.724298],[-8.516061,54.724269],[-8.51598,54.724228],[-8.515938,54.7242],[-8.515903,54.724169],[-8.515868,54.724128],[-8.515825,54.72406],[-8.515794,54.724006],[-8.515747,54.723975],[-8.515656,54.723963],[-8.515493,54.723946],[-8.515314,54.723928],[-8.515158,54.723916],[-8.514991,54.723897],[-8.514892,54.723884],[-8.514991,54.723897],[-8.515158,54.723916],[-8.51481,54.724697],[-8.51352,54.724539],[-8.513402,54.724495],[-8.513567,54.723902],[-8.513669,54.723902],[-8.513567,54.723902],[-8.513535,54.723901],[-8.513413,54.723896],[-8.513265,54.723881],[-8.513162,54.723865],[-8.513079,54.723852],[-8.512801,54.723839],[-8.512687,54.723831],[-8.512554,54.723814],[-8.512474,54.723818],[-8.512445,54.723819],[-8.51227,54.723823],[-8.512031,54.723807],[-8.511955,54.723788],[-8.511818,54.723778],[-8.511715,54.723779],[-8.511579,54.723764],[-8.511506,54.723752],[-8.511468,54.723745],[-8.511377,54.723733],[-8.511316,54.723735],[-8.511251,54.723756],[-8.511199,54.723769],[-8.511026,54.723825],[-8.510895,54.723879],[-8.510764,54.723902],[-8.510757,54.723902],[-8.510736,54.723906],[-8.510666,54.723922],[-8.510596,54.723933],[-8.51059,54.723933],[-8.510524,54.724039],[-8.510352,54.724279],[-8.510158,54.724554],[-8.510019,54.724759],[-8.509722,54.725069],[-8.509574,54.725223],[-8.50947,54.725344],[-8.509465,54.72535],[-8.509418,54.725404],[-8.509204,54.725676],[-8.509123,54.725791],[-8.508925,54.726064],[-8.508775,54.726238],[-8.508736,54.726274],[-8.508805,54.726293],[-8.508791,54.726305],[-8.508678,54.726411],[-8.5086,54.726469],[-8.508574,54.726508],[-8.508563,54.726523],[-8.508564,54.726569],[-8.508528,54.726569],[-8.508445,54.726665],[-8.508411,54.726683],[-8.508384,54.726692],[-8.508309,54.726734],[-8.508272,54.726763],[-8.508235,54.726798],[-8.508066,54.726881],[-8.508029,54.726901],[-8.507999,54.726934],[-8.507924,54.726974],[-8.507781,54.727026],[-8.50771,54.727066],[-8.507677,54.727108],[-8.507632,54.727147],[-8.507591,54.727165],[-8.507523,54.727181],[-8.507474,54.727201],[-8.507448,54.727221],[-8.507403,54.727259],[-8.507309,54.727312],[-8.507223,54.727359],[-8.507144,54.727406],[-8.507073,54.727437],[-8.507039,54.727461],[-8.507014,54.727508],[-8.507011,54.727536],[-8.506992,54.727558],[-8.506982,54.727587],[-8.506929,54.727625],[-8.506903,54.727649],[-8.506877,54.72768],[-8.506833,54.727728],[-8.506819,54.727768],[-8.506789,54.727817],[-8.506748,54.727854],[-8.506734,54.727887],[-8.5067,54.727936],[-8.506659,54.727963],[-8.50663,54.727974],[-8.506626,54.727996],[-8.506604,54.728037],[-8.506556,54.728077],[-8.506511,54.728121],[-8.506474,54.728142],[-8.506448,54.728151],[-8.506433,54.72817],[-8.506351,54.728226],[-8.506276,54.728277],[-8.506216,54.728332],[-8.506122,54.728372],[-8.506066,54.728386],[-8.506006,54.728437],[-8.506011,54.728483],[-8.505966,54.728507],[-8.505956,54.728549],[-8.505903,54.728596],[-8.505886,54.72866],[-8.505823,54.728743],[-8.505756,54.728777],[-8.505734,54.728827],[-8.505712,54.728863],[-8.50568,54.728905],[-8.505593,54.729],[-8.505517,54.729067],[-8.505486,54.729088],[-8.505448,54.72913],[-8.505409,54.729174],[-8.50544,54.729205],[-8.505415,54.729268],[-8.5054,54.729332],[-8.505382,54.729383],[-8.505326,54.729431],[-8.505302,54.729492],[-8.505276,54.729624],[-8.505229,54.72974],[-8.505198,54.729842],[-8.505162,54.729935],[-8.505141,54.730009],[-8.505111,54.730148],[-8.505085,54.730244],[-8.505033,54.730398],[-8.504998,54.730514],[-8.504983,54.730575],[-8.504967,54.730631],[-8.504965,54.730639],[-8.504933,54.730717],[-8.504904,54.730805],[-8.504838,54.730915],[-8.504706,54.731187],[-8.504676,54.73124]],[[-8.516053,54.729503],[-8.516056,54.729772],[-8.51559,54.729774],[-8.515587,54.729505],[-8.515121,54.729507],[-8.515114,54.728968],[-8.516046,54.728964],[-8.516053,54.729503]],[[-8.512388,54.73437],[-8.511922,54.734372],[-8.511926,54.734642],[-8.510994,54.734646],[-8.510991,54.734376],[-8.510987,54.734107],[-8.512385,54.734101],[-8.512388,54.73437]]],[[[-8.516564,54.733108],[-8.516635,54.733004],[-8.516563,54.733005],[-8.516564,54.733108]]],[[[-8.523044,54.729998],[-8.523227,54.730047],[-8.523593,54.730135],[-8.523879,54.730201],[-8.52426,54.73027],[-8.524466,54.7303],[-8.524537,54.730306],[-8.524591,54.730312],[-8.524826,54.730312],[-8.524959,54.7303],[-8.525091,54.730284],[-8.525176,54.730266],[-8.525147,54.730231],[-8.525107,54.730175],[-8.525066,54.730145],[-8.525052,54.730128],[-8.525043,54.7301],[-8.525023,54.730101],[-8.524992,54.730102],[-8.524977,54.730101],[-8.524882,54.730094],[-8.524802,54.730089],[-8.524784,54.730088],[-8.524753,54.730088],[-8.524704,54.730092],[-8.524675,54.730098],[-8.524653,54.730105],[-8.524625,54.730112],[-8.524609,54.730116],[-8.524595,54.730116],[-8.524565,54.730113],[-8.524487,54.730098],[-8.524457,54.730094],[-8.524404,54.73009],[-8.524375,54.730086],[-8.524354,54.73008],[-8.52433,54.730069],[-8.524281,54.730031],[-8.524185,54.729959],[-8.524081,54.729866],[-8.52405,54.72985],[-8.524001,54.729851],[-8.523914,54.729867],[-8.523861,54.729887],[-8.523759,54.729899],[-8.523691,54.729895],[-8.523584,54.729867],[-8.523461,54.729826],[-8.523347,54.729805],[-8.523268,54.7298],[-8.523238,54.729795],[-8.523186,54.729782],[-8.52316,54.729772],[-8.523138,54.729763],[-8.523095,54.729747],[-8.523081,54.729739],[-8.523081,54.729739],[-8.523081,54.729739],[-8.522874,54.729937],[-8.523044,54.729998]]],[[[-8.525098,54.730077],[-8.52506,54.73008],[-8.52506,54.73008],[-8.525098,54.730077],[-8.525147,54.730066],[-8.5252,54.730046],[-8.525218,54.730038],[-8.5252,54.730046],[-8.525147,54.730066],[-8.525098,54.730077]]],[[[-8.525166,54.730229],[-8.525193,54.730262],[-8.525193,54.730262],[-8.525166,54.730229]]]]}}]}
