{"type":"FeatureCollection","features":[{"type":"Feature","properties":{"source_fid":2137969,"county":"Sligo","bog_geom_ha":117.66063425685726,"low15_pct":93.697156033820136,"low15_ha":110.24466807002999,"overlay_ha":109.93234802110791,"area_delta":-0.31232004892207499},"geometry":{"type":"MultiPolygon","coordinates":[[[[-8.886678,54.085135],[-8.886679,54.08554],[-8.886669,54.086029],[-8.886653,54.086557],[-8.886654,54.08697],[-8.886653,54.087596],[-8.886679,54.08845],[-8.886647,54.088793],[-8.886657,54.089153],[-8.886659,54.089156],[-8.886658,54.090007],[-8.886658,54.090032],[-8.886657,54.091236],[-8.886656,54.091412],[-8.886656,54.091433],[-8.88666,54.091433],[-8.886656,54.09246],[-8.886652,54.093476],[-8.886653,54.094708],[-8.886652,54.094708],[-8.886653,54.094731],[-8.886532,54.09473],[-8.886532,54.094731],[-8.886532,54.094732],[-8.886532,54.094961],[-8.886544,54.095063],[-8.886548,54.095102],[-8.886464,54.095107],[-8.886039,54.095098],[-8.885561,54.095104],[-8.885136,54.095098],[-8.885067,54.095103],[-8.884849,54.095118],[-8.884849,54.095333],[-8.884494,54.095359],[-8.884032,54.095412],[-8.883636,54.095473],[-8.882979,54.095566],[-8.882284,54.095662],[-8.882131,54.09567],[-8.882125,54.095251],[-8.881929,54.095252],[-8.881935,54.095522],[-8.881477,54.095525],[-8.881482,54.095794],[-8.881024,54.095798],[-8.881029,54.096067],[-8.880571,54.096071],[-8.880577,54.09634],[-8.880325,54.096342],[-8.880321,54.09645],[-8.880316,54.096647],[-8.880313,54.096823],[-8.880308,54.096979],[-8.880303,54.097178],[-8.880294,54.09749],[-8.880317,54.097577],[-8.880725,54.097957],[-8.881069,54.097954],[-8.881064,54.097685],[-8.881245,54.097683],[-8.881233,54.09714],[-8.882761,54.097129],[-8.882767,54.097403],[-8.883351,54.097398],[-8.883345,54.097129],[-8.883804,54.097125],[-8.883798,54.096856],[-8.884257,54.096852],[-8.884262,54.097122],[-8.884268,54.097392],[-8.884274,54.097661],[-8.883815,54.097664],[-8.883821,54.097934],[-8.884738,54.097927],[-8.884732,54.097658],[-8.885191,54.097654],[-8.885197,54.097924],[-8.885202,54.098193],[-8.885208,54.098463],[-8.88475,54.098466],[-8.884755,54.098736],[-8.884297,54.098739],[-8.884302,54.099009],[-8.883844,54.099012],[-8.88385,54.099282],[-8.883391,54.099285],[-8.883397,54.099555],[-8.882938,54.099558],[-8.882944,54.099827],[-8.882485,54.099831],[-8.882491,54.1001],[-8.882032,54.100104],[-8.882038,54.100373],[-8.881579,54.100377],[-8.881583,54.100531],[-8.881627,54.10057],[-8.881756,54.100681],[-8.881904,54.100814],[-8.881922,54.10083],[-8.882248,54.100719],[-8.882949,54.100467],[-8.8835,54.100273],[-8.883664,54.100235],[-8.884314,54.10074],[-8.88544,54.101583],[-8.885461,54.101601],[-8.885478,54.101615],[-8.885488,54.101609],[-8.885503,54.101601],[-8.885573,54.101561],[-8.885695,54.101491],[-8.885741,54.101469],[-8.885794,54.101444],[-8.885861,54.101406],[-8.885997,54.101328],[-8.886244,54.1012],[-8.886305,54.101163],[-8.886367,54.101127],[-8.886485,54.101068],[-8.886668,54.100976],[-8.886968,54.100808],[-8.887052,54.100763],[-8.887117,54.100728],[-8.887293,54.100636],[-8.887338,54.100612],[-8.887345,54.100608],[-8.887508,54.100515],[-8.887629,54.100449],[-8.887744,54.100384],[-8.887833,54.100336],[-8.887839,54.100332],[-8.887894,54.100293],[-8.887903,54.100286],[-8.88792,54.100272],[-8.887944,54.100252],[-8.887989,54.100191],[-8.888023,54.100124],[-8.888073,54.100034],[-8.888124,54.099914],[-8.88817,54.099816],[-8.888246,54.099643],[-8.888309,54.09951],[-8.888343,54.099425],[-8.888397,54.099306],[-8.888434,54.099224],[-8.888522,54.099031],[-8.888581,54.09888],[-8.888665,54.098682],[-8.888734,54.098488],[-8.88875,54.09845],[-8.888831,54.098261],[-8.888901,54.09807],[-8.888929,54.098004],[-8.888945,54.097946],[-8.888999,54.097805],[-8.889069,54.097638],[-8.889136,54.097457],[-8.889163,54.097383],[-8.889219,54.097265],[-8.889262,54.097149],[-8.889286,54.097085],[-8.888848,54.097088],[-8.888842,54.096819],[-8.889301,54.096815],[-8.889289,54.096276],[-8.888372,54.096283],[-8.888367,54.096013],[-8.888825,54.09601],[-8.888819,54.09574],[-8.889736,54.095734],[-8.889742,54.096003],[-8.890659,54.095996],[-8.890665,54.096266],[-8.890207,54.096269],[-8.890212,54.096525],[-8.890457,54.096417],[-8.890668,54.096326],[-8.890801,54.096268],[-8.891222,54.096088],[-8.891653,54.095904],[-8.892022,54.095753],[-8.892548,54.095528],[-8.892643,54.095486],[-8.892667,54.095475],[-8.892999,54.095333],[-8.89341,54.095156],[-8.893844,54.094972],[-8.894307,54.09477],[-8.894638,54.094621],[-8.894891,54.094512],[-8.895324,54.094324],[-8.895596,54.094204],[-8.895819,54.094103],[-8.89598,54.094038],[-8.89611,54.093982],[-8.896312,54.093903],[-8.896612,54.093774],[-8.896804,54.093691],[-8.897062,54.093578],[-8.897306,54.09348],[-8.897411,54.093456],[-8.897429,54.093455],[-8.897486,54.093452],[-8.897535,54.093417],[-8.897804,54.093294],[-8.898171,54.093135],[-8.898519,54.092978],[-8.89866,54.092919],[-8.898991,54.092777],[-8.899377,54.092605],[-8.899651,54.092495],[-8.89978,54.092445],[-8.900016,54.092344],[-8.90021,54.092258],[-8.900208,54.092151],[-8.900457,54.092149],[-8.900634,54.092071],[-8.900664,54.092057],[-8.90066,54.091878],[-8.901074,54.091875],[-8.901178,54.091829],[-8.901457,54.091708],[-8.901857,54.091534],[-8.90212,54.09142],[-8.902519,54.091258],[-8.902986,54.091057],[-8.90331,54.090927],[-8.903633,54.090785],[-8.903782,54.090728],[-8.903791,54.090726],[-8.903812,54.090721],[-8.903807,54.09071],[-8.903793,54.090693],[-8.903768,54.090664],[-8.903735,54.090646],[-8.903705,54.090602],[-8.903748,54.09057],[-8.903793,54.090556],[-8.903822,54.090573],[-8.903862,54.090582],[-8.903904,54.090571],[-8.903892,54.090561],[-8.903909,54.090535],[-8.903939,54.090523],[-8.903988,54.090504],[-8.90403,54.090469],[-8.904064,54.090448],[-8.904162,54.090424],[-8.904187,54.090419],[-8.904199,54.090411],[-8.904199,54.090386],[-8.904196,54.090369],[-8.904174,54.090351],[-8.90412,54.090286],[-8.904114,54.090252],[-8.904128,54.090212],[-8.904201,54.090156],[-8.904261,54.090115],[-8.904277,54.090092],[-8.904274,54.09007],[-8.90426,54.090056],[-8.904193,54.089995],[-8.904176,54.089962],[-8.904204,54.089919],[-8.904228,54.089896],[-8.904247,54.089876],[-8.904241,54.089838],[-8.904219,54.089805],[-8.904209,54.089799],[-8.904187,54.0898],[-8.904134,54.089817],[-8.904065,54.089826],[-8.904007,54.089814],[-8.904002,54.089784],[-8.903998,54.089767],[-8.904005,54.089744],[-8.904012,54.089708],[-8.904032,54.089691],[-8.904044,54.089672],[-8.904042,54.089666],[-8.904013,54.089637],[-8.903998,54.089617],[-8.903983,54.089602],[-8.903939,54.089591],[-8.903874,54.089582],[-8.903841,54.089573],[-8.903794,54.089556],[-8.903822,54.089522],[-8.903888,54.089477],[-8.904012,54.089424],[-8.904058,54.089398],[-8.904066,54.089379],[-8.904053,54.089369],[-8.904033,54.089355],[-8.904021,54.089351],[-8.90398,54.089322],[-8.903943,54.089308],[-8.903921,54.089308],[-8.90389,54.089319],[-8.90385,54.089307],[-8.903779,54.089285],[-8.90376,54.08926],[-8.903755,54.089229],[-8.903751,54.089204],[-8.903766,54.089181],[-8.90377,54.089154],[-8.903816,54.089129],[-8.90385,54.089122],[-8.903919,54.089128],[-8.903955,54.089145],[-8.903989,54.089147],[-8.904009,54.089147],[-8.904033,54.089149],[-8.904051,54.089156],[-8.904072,54.089157],[-8.904085,54.08915],[-8.904103,54.089134],[-8.904112,54.089109],[-8.904089,54.089074],[-8.904092,54.089064],[-8.904084,54.089054],[-8.904052,54.089046],[-8.904001,54.089042],[-8.903956,54.089033],[-8.903869,54.089025],[-8.9038,54.089023],[-8.903752,54.089003],[-8.903709,54.089004],[-8.903683,54.088989],[-8.903656,54.089001],[-8.903588,54.089009],[-8.903533,54.089006],[-8.903414,54.089005],[-8.903376,54.089003],[-8.903338,54.089018],[-8.903288,54.089046],[-8.903226,54.089081],[-8.903119,54.089109],[-8.903071,54.089091],[-8.903066,54.089063],[-8.903065,54.089026],[-8.903092,54.088993],[-8.903098,54.088956],[-8.903098,54.088936],[-8.903079,54.088895],[-8.90307,54.088815],[-8.903062,54.088769],[-8.903054,54.088691],[-8.903053,54.088642],[-8.90308,54.088603],[-8.903092,54.088582],[-8.903079,54.088569],[-8.903029,54.088538],[-8.902944,54.088502],[-8.902891,54.088446],[-8.902909,54.088425],[-8.902962,54.088397],[-8.902987,54.088376],[-8.903028,54.088348],[-8.90303,54.08833],[-8.902713,54.088306],[-8.902525,54.08829],[-8.902493,54.088287],[-8.901919,54.088233],[-8.901776,54.088222],[-8.901136,54.088187],[-8.900816,54.088169],[-8.900249,54.088134],[-8.900159,54.088132],[-8.900067,54.08813],[-8.899831,54.088111],[-8.899727,54.088103],[-8.898966,54.08806],[-8.898302,54.088022],[-8.898151,54.088014],[-8.898131,54.088012],[-8.897513,54.087974],[-8.897158,54.087947],[-8.896788,54.087938],[-8.89644,54.087922],[-8.896257,54.087915],[-8.896037,54.087898],[-8.895892,54.087872],[-8.89588,54.08787],[-8.89569,54.08784],[-8.895494,54.087812],[-8.895358,54.087784],[-8.895187,54.087725],[-8.89514,54.087716],[-8.894967,54.087647],[-8.894657,54.087549],[-8.894098,54.087372],[-8.89338,54.087144],[-8.892868,54.086985],[-8.892554,54.086881],[-8.891889,54.086683],[-8.891207,54.086495],[-8.890622,54.086327],[-8.890271,54.086226],[-8.889227,54.085932],[-8.8891,54.085499],[-8.888977,54.085137],[-8.888895,54.084881],[-8.888869,54.0848],[-8.888869,54.084799],[-8.887002,54.084847],[-8.886752,54.084852],[-8.886678,54.085135]],[[-8.890654,54.095727],[-8.889736,54.095734],[-8.889725,54.095195],[-8.890183,54.095191],[-8.890172,54.094652],[-8.89063,54.094649],[-8.890642,54.095188],[-8.890654,54.095727]]],[[[-8.889748,54.096273],[-8.889742,54.096003],[-8.889284,54.096007],[-8.889289,54.096276],[-8.889748,54.096273]]],[[[-8.883832,54.098473],[-8.883838,54.098743],[-8.884297,54.098739],[-8.884291,54.09847],[-8.883832,54.098473]]],[[[-8.881109,54.099841],[-8.881568,54.099838],[-8.881562,54.099568],[-8.882021,54.099565],[-8.882015,54.099295],[-8.882932,54.099288],[-8.882927,54.099019],[-8.882921,54.098749],[-8.882004,54.098756],[-8.882009,54.099026],[-8.881551,54.099029],[-8.881557,54.099298],[-8.880639,54.099305],[-8.880645,54.099575],[-8.881104,54.099571],[-8.881109,54.099841]]]]}}]}
