{"type":"FeatureCollection","features":[{"type":"Feature","properties":{"source_fid":2137666,"county":"Sligo","bog_geom_ha":283.4960322974872,"low15_pct":97.773536895674297,"low15_ha":277.18409773615639,"overlay_ha":277.17538379195565,"area_delta":-0.0087139442007355683},"geometry":{"type":"MultiPolygon","coordinates":[[[[-8.857617,54.171263],[-8.857617,54.171263],[-8.857595,54.171263],[-8.85747,54.171321],[-8.857371,54.171363],[-8.85729,54.171379],[-8.857318,54.171403],[-8.857417,54.17147],[-8.857447,54.171492],[-8.857474,54.171492],[-8.857538,54.171479],[-8.857576,54.171454],[-8.857626,54.171408],[-8.857633,54.171385],[-8.857569,54.171305],[-8.857595,54.171272],[-8.857617,54.171263]]],[[[-8.857104,54.171418],[-8.857104,54.171418],[-8.857011,54.171434],[-8.856836,54.171603],[-8.856615,54.171663],[-8.856233,54.171635],[-8.856233,54.171635],[-8.856282,54.171654],[-8.856415,54.171728],[-8.856487,54.171757],[-8.856559,54.171732],[-8.856627,54.171676],[-8.856734,54.171632],[-8.85679,54.171634],[-8.856825,54.171661],[-8.856878,54.171665],[-8.856965,54.171641],[-8.857041,54.17159],[-8.857068,54.171523],[-8.857094,54.171447],[-8.857104,54.171418]]],[[[-8.856001,54.171656],[-8.856001,54.171632],[-8.856032,54.171621],[-8.856032,54.171621],[-8.855777,54.171603],[-8.855612,54.171579],[-8.855612,54.171579],[-8.855656,54.1716],[-8.855717,54.171643],[-8.855739,54.171658],[-8.8558,54.171672],[-8.855883,54.171703],[-8.855933,54.171696],[-8.856001,54.171656]]],[[[-8.853591,54.171908],[-8.853599,54.171871],[-8.853609,54.171861],[-8.853609,54.171861],[-8.853496,54.171891],[-8.85331,54.171882],[-8.853243,54.171886],[-8.853272,54.171895],[-8.853333,54.171908],[-8.853386,54.171928],[-8.853417,54.171948],[-8.853454,54.171957],[-8.853481,54.171964],[-8.853538,54.171944],[-8.853591,54.171908]]],[[[-8.852886,54.171855],[-8.852836,54.171846],[-8.852696,54.171855],[-8.852453,54.171921],[-8.852301,54.171943],[-8.852088,54.171937],[-8.85188,54.171964],[-8.85188,54.171964],[-8.851895,54.171965],[-8.85213,54.171986],[-8.852278,54.172015],[-8.852381,54.172012],[-8.852494,54.17199],[-8.852582,54.171944],[-8.852673,54.171895],[-8.852775,54.171868],[-8.852886,54.171855],[-8.852886,54.171855]]],[[[-8.853113,54.171977],[-8.853143,54.171953],[-8.853166,54.171904],[-8.853182,54.17189],[-8.853102,54.171895],[-8.85299,54.171874],[-8.853014,54.171908],[-8.85306,54.171948],[-8.853079,54.171979],[-8.853096,54.171984],[-8.853113,54.171977]]],[[[-8.847764,54.174959],[-8.847803,54.174948],[-8.847682,54.174769],[-8.84764,54.174783],[-8.847764,54.174959]]],[[[-8.86541,54.205051],[-8.865452,54.20512],[-8.865638,54.205421],[-8.865756,54.205608],[-8.86577,54.205629],[-8.865986,54.205958],[-8.866017,54.206006],[-8.866107,54.206136],[-8.866292,54.206392],[-8.866429,54.206573],[-8.866619,54.206805],[-8.866801,54.207013],[-8.866938,54.207164],[-8.867002,54.207235],[-8.867068,54.207307],[-8.867321,54.207602],[-8.867326,54.207607],[-8.867528,54.207846],[-8.867601,54.207928],[-8.867776,54.207871],[-8.868005,54.207799],[-8.868311,54.207717],[-8.868603,54.207614],[-8.869044,54.207917],[-8.869384,54.208163],[-8.869579,54.208277],[-8.869573,54.208301],[-8.869442,54.208485],[-8.869381,54.208572],[-8.869274,54.208726],[-8.869123,54.208919],[-8.869,54.209085],[-8.868958,54.20912],[-8.868884,54.20916],[-8.868861,54.209191],[-8.868907,54.209231],[-8.868938,54.209265],[-8.868981,54.209253],[-8.869063,54.209213],[-8.869219,54.208982],[-8.869331,54.208846],[-8.869576,54.208774],[-8.870384,54.208579],[-8.870971,54.208438],[-8.871523,54.208321],[-8.87201,54.20824],[-8.872412,54.208186],[-8.87283,54.208126],[-8.872871,54.208293],[-8.872928,54.208552],[-8.872971,54.208764],[-8.873035,54.209043],[-8.873063,54.209089],[-8.873081,54.209277],[-8.873123,54.209346],[-8.873137,54.209396],[-8.873148,54.209433],[-8.873158,54.209448],[-8.873156,54.209461],[-8.87351,54.209503],[-8.873719,54.209473],[-8.873821,54.209484],[-8.873895,54.209509],[-8.873926,54.209545],[-8.873993,54.20956],[-8.874082,54.209567],[-8.87417,54.20958],[-8.874218,54.209611],[-8.874298,54.209661],[-8.874711,54.20977],[-8.874931,54.20979],[-8.875117,54.209787],[-8.875549,54.209826],[-8.875828,54.209857],[-8.875949,54.209873],[-8.876001,54.209866],[-8.876053,54.209833],[-8.876125,54.209802],[-8.876215,54.209783],[-8.876339,54.209777],[-8.876475,54.209795],[-8.876599,54.209827],[-8.876713,54.20983],[-8.876751,54.209822],[-8.876797,54.209765],[-8.876832,54.209732],[-8.876899,54.209722],[-8.877057,54.209727],[-8.877265,54.209797],[-8.877342,54.20984],[-8.877386,54.209891],[-8.877401,54.210015],[-8.877391,54.21005],[-8.877344,54.210092],[-8.877324,54.210139],[-8.877341,54.210187],[-8.877393,54.210277],[-8.877458,54.21032],[-8.877574,54.210359],[-8.877707,54.210379],[-8.877771,54.210409],[-8.877856,54.210424],[-8.878086,54.210435],[-8.878543,54.210446],[-8.878855,54.210471],[-8.87912,54.210477],[-8.879491,54.210502],[-8.879902,54.210541],[-8.879972,54.210551],[-8.880317,54.210602],[-8.880509,54.21063],[-8.880926,54.210669],[-8.881011,54.210679],[-8.881316,54.210724],[-8.881399,54.210802],[-8.881548,54.210895],[-8.881671,54.210962],[-8.88181,54.211048],[-8.882037,54.21113],[-8.882092,54.211169],[-8.882168,54.211231],[-8.882182,54.211231],[-8.882203,54.211254],[-8.882319,54.211261],[-8.882852,54.211322],[-8.883898,54.211453],[-8.88424,54.211505],[-8.884325,54.211506],[-8.884383,54.211506],[-8.884378,54.211477],[-8.884404,54.211442],[-8.88448,54.211382],[-8.884638,54.211287],[-8.88476,54.211212],[-8.884966,54.211087],[-8.884815,54.210949],[-8.884627,54.210834],[-8.884458,54.210709],[-8.884352,54.210615],[-8.884303,54.210524],[-8.884319,54.210448],[-8.884323,54.210431],[-8.884316,54.210406],[-8.884486,54.210355],[-8.884528,54.210358],[-8.884598,54.210331],[-8.884809,54.210355],[-8.884816,54.210358],[-8.884944,54.210317],[-8.88501,54.210296],[-8.88507,54.210288],[-8.885088,54.210289],[-8.885104,54.210336],[-8.885112,54.210368],[-8.885201,54.210477],[-8.885255,54.210526],[-8.885309,54.210521],[-8.885349,54.210518],[-8.885572,54.210447],[-8.885739,54.210341],[-8.885802,54.210322],[-8.885923,54.210322],[-8.88602,54.210313],[-8.886201,54.210298],[-8.886248,54.210294],[-8.886317,54.210279],[-8.886396,54.210282],[-8.886662,54.210324],[-8.886958,54.210398],[-8.887046,54.210426],[-8.887173,54.210372],[-8.887291,54.210343],[-8.887366,54.210304],[-8.887592,54.210395],[-8.887731,54.2105],[-8.88779,54.210552],[-8.887812,54.210853],[-8.887836,54.21113],[-8.887783,54.211215],[-8.887662,54.21137],[-8.887607,54.211485],[-8.887605,54.211546],[-8.887613,54.211626],[-8.887562,54.211657],[-8.887629,54.211674],[-8.887725,54.211784],[-8.887748,54.211851],[-8.887739,54.21189],[-8.88772,54.211918],[-8.887691,54.211933],[-8.887629,54.211929],[-8.887569,54.211926],[-8.887294,54.211947],[-8.887271,54.211915],[-8.887126,54.211786],[-8.887056,54.211814],[-8.887024,54.211826],[-8.887143,54.211922],[-8.887188,54.212016],[-8.88719,54.212088],[-8.887168,54.212164],[-8.887156,54.212204],[-8.887148,54.212241],[-8.887233,54.212244],[-8.887326,54.212239],[-8.887699,54.212222],[-8.888016,54.212212],[-8.88806,54.212209],[-8.888245,54.2122],[-8.888301,54.212197],[-8.888523,54.212185],[-8.888785,54.212174],[-8.888996,54.212299],[-8.889205,54.212394],[-8.889248,54.212416],[-8.889263,54.212487],[-8.889389,54.212646],[-8.889411,54.212709],[-8.889422,54.212822],[-8.889403,54.212862],[-8.88962,54.212702],[-8.889688,54.21262],[-8.889734,54.212531],[-8.889815,54.212371],[-8.889855,54.212269],[-8.889891,54.212177],[-8.889897,54.212161],[-8.889974,54.211965],[-8.890085,54.211605],[-8.890212,54.211342],[-8.889558,54.211288],[-8.888725,54.211191],[-8.888607,54.211371],[-8.888846,54.210635],[-8.888992,54.210266],[-8.888971,54.209966],[-8.888936,54.209665],[-8.889121,54.209389],[-8.890062,54.208004],[-8.890084,54.208006],[-8.89113,54.208141],[-8.891179,54.20815],[-8.891782,54.20826],[-8.891833,54.208157],[-8.892388,54.207289],[-8.892461,54.207174],[-8.892533,54.207063],[-8.892864,54.206549],[-8.892943,54.206427],[-8.893188,54.206047],[-8.89333,54.205827],[-8.893589,54.205445],[-8.894034,54.204789],[-8.894142,54.204658],[-8.894325,54.204434],[-8.894594,54.204193],[-8.894526,54.204197],[-8.894365,54.204214],[-8.894293,54.204214],[-8.894237,54.204204],[-8.894173,54.204182],[-8.894143,54.204154],[-8.894104,54.204097],[-8.894055,54.204062],[-8.89401,54.204047],[-8.893976,54.204049],[-8.89389,54.204061],[-8.893823,54.204066],[-8.893714,54.20406],[-8.893658,54.204045],[-8.893609,54.204015],[-8.89357,54.203973],[-8.893491,54.203919],[-8.893461,54.20391],[-8.893307,54.203898],[-8.893243,54.203885],[-8.893198,54.203874],[-8.89319,54.203866],[-8.89319,54.203861],[-8.893194,54.20385],[-8.8932,54.203843],[-8.893213,54.203837],[-8.893299,54.203816],[-8.893358,54.203812],[-8.893373,54.203807],[-8.893375,54.203802],[-8.893373,54.203794],[-8.893362,54.203776],[-8.893354,54.203767],[-8.893345,54.203763],[-8.893283,54.203742],[-8.89317,54.203714],[-8.893095,54.203708],[-8.892971,54.203711],[-8.89293,54.203714],[-8.892907,54.203712],[-8.892897,54.203707],[-8.892891,54.203703],[-8.892881,54.203696],[-8.892879,54.203689],[-8.89288,54.203663],[-8.892875,54.203652],[-8.892861,54.203639],[-8.89283,54.203625],[-8.892801,54.203618],[-8.89276,54.203611],[-8.892741,54.203612],[-8.892719,54.203616],[-8.892705,54.203621],[-8.892655,54.203652],[-8.892626,54.203668],[-8.892607,54.20367],[-8.892596,54.203671],[-8.892588,54.20367],[-8.892479,54.203647],[-8.892353,54.203617],[-8.892242,54.203591],[-8.892163,54.20357],[-8.892065,54.20354],[-8.892013,54.203529],[-8.891999,54.203526],[-8.891986,54.203521],[-8.891976,54.203507],[-8.891971,54.203488],[-8.891974,54.203477],[-8.891987,54.203468],[-8.892001,54.203463],[-8.892098,54.203454],[-8.892117,54.203453],[-8.892128,54.203449],[-8.892131,54.203444],[-8.892105,54.203403],[-8.892067,54.203366],[-8.892014,54.203344],[-8.891939,54.203329],[-8.89192,54.203325],[-8.891894,54.203318],[-8.891882,54.203318],[-8.891808,54.203324],[-8.891721,54.203329],[-8.891705,54.203327],[-8.891695,54.203322],[-8.891642,54.203283],[-8.891589,54.20325],[-8.89151,54.203229],[-8.891431,54.203192],[-8.891401,54.203168],[-8.891378,54.203129],[-8.891381,54.203067],[-8.891361,54.203025],[-8.8913,54.202955],[-8.891247,54.202911],[-8.891246,54.20291],[-8.891194,54.202883],[-8.89116,54.202873],[-8.891131,54.202868],[-8.891081,54.202875],[-8.891033,54.202886],[-8.890989,54.202909],[-8.89094,54.202938],[-8.890895,54.202954],[-8.890863,54.202957],[-8.890835,54.202957],[-8.890764,54.202948],[-8.890742,54.202949],[-8.890697,54.202958],[-8.890652,54.202971],[-8.8906,54.203014],[-8.890586,54.20302],[-8.89057,54.203023],[-8.890542,54.203024],[-8.890506,54.203021],[-8.890485,54.203016],[-8.890461,54.203004],[-8.890453,54.202997],[-8.890431,54.202958],[-8.890404,54.202916],[-8.890377,54.202885],[-8.890347,54.20283],[-8.890329,54.202804],[-8.89032,54.202795],[-8.890286,54.20278],[-8.890259,54.202775],[-8.890241,54.202774],[-8.890177,54.202781],[-8.890121,54.202784],[-8.890076,54.20278],[-8.890008,54.202763],[-8.889999,54.202756],[-8.889989,54.202743],[-8.889989,54.202708],[-8.889986,54.202697],[-8.889974,54.202688],[-8.889913,54.202669],[-8.889831,54.202656],[-8.889733,54.202657],[-8.889696,54.202659],[-8.88967,54.202666],[-8.889644,54.202684],[-8.889592,54.202735],[-8.889585,54.202738],[-8.889577,54.20274],[-8.889438,54.202712],[-8.88931,54.202671],[-8.889257,54.202661],[-8.88919,54.20265],[-8.889092,54.202678],[-8.888969,54.202712],[-8.888935,54.202712],[-8.88886,54.202686],[-8.888811,54.202656],[-8.88877,54.202647],[-8.888717,54.202639],[-8.888661,54.202617],[-8.888645,54.202598],[-8.888645,54.202556],[-8.888674,54.202511],[-8.888696,54.202502],[-8.888801,54.202501],[-8.888925,54.202511],[-8.889049,54.202486],[-8.889101,54.202466],[-8.889127,54.20245],[-8.889134,54.202432],[-8.889119,54.202395],[-8.88907,54.202375],[-8.888946,54.202365],[-8.888822,54.202356],[-8.888732,54.20235],[-8.888661,54.20233],[-8.888642,54.202311],[-8.888645,54.202266],[-8.888626,54.202242],[-8.888577,54.202223],[-8.888528,54.202221],[-8.888378,54.20226],[-8.888266,54.202296],[-8.888206,54.202317],[-8.888167,54.202351],[-8.886223,54.204075],[-8.885335,54.204841],[-8.885067,54.204678],[-8.885024,54.204694],[-8.88581,54.205155],[-8.886,54.205276],[-8.883943,54.206609],[-8.883122,54.206998],[-8.883003,54.207066],[-8.882959,54.207092],[-8.882815,54.207156],[-8.88267,54.20722],[-8.88252,54.207276],[-8.882363,54.207336],[-8.882238,54.207391],[-8.882182,54.207434],[-8.882173,54.207454],[-8.882132,54.207608],[-8.882117,54.207665],[-8.881854,54.207801],[-8.881715,54.207815],[-8.881266,54.207761],[-8.88123,54.20757],[-8.881251,54.207446],[-8.881257,54.20735],[-8.881119,54.20705],[-8.881073,54.206948],[-8.880792,54.207119],[-8.880763,54.207137],[-8.881092,54.207134],[-8.881097,54.207404],[-8.880178,54.207411],[-8.880176,54.207329],[-8.880104,54.207313],[-8.879833,54.207282],[-8.879505,54.207265],[-8.879351,54.207251],[-8.879219,54.207236],[-8.879157,54.207246],[-8.879034,54.207258],[-8.878888,54.207268],[-8.878758,54.20728],[-8.878601,54.207293],[-8.878556,54.207312],[-8.878475,54.207345],[-8.878385,54.207357],[-8.878273,54.207353],[-8.878167,54.207325],[-8.87809,54.207293],[-8.878006,54.207261],[-8.877918,54.207217],[-8.877874,54.207197],[-8.877879,54.207427],[-8.876959,54.207434],[-8.876954,54.207165],[-8.876942,54.206626],[-8.876482,54.206629],[-8.876477,54.206359],[-8.876471,54.20609],[-8.876752,54.206088],[-8.876716,54.206065],[-8.876574,54.20596],[-8.87654,54.205898],[-8.876515,54.205792],[-8.87656,54.205739],[-8.876611,54.205707],[-8.87666,54.205557],[-8.876665,54.205452],[-8.876661,54.205352],[-8.876616,54.20525],[-8.876571,54.205137],[-8.876557,54.205019],[-8.876561,54.204963],[-8.876596,54.204872],[-8.876612,54.204779],[-8.876603,54.204741],[-8.876442,54.204742],[-8.876437,54.204484],[-8.876418,54.204473],[-8.875977,54.204476],[-8.875974,54.204351],[-8.875959,54.20435],[-8.875852,54.204333],[-8.875748,54.204281],[-8.875618,54.204251],[-8.875554,54.204248],[-8.875454,54.204246],[-8.87535,54.204256],[-8.875207,54.204287],[-8.875023,54.204312],[-8.874889,54.204314],[-8.874759,54.204302],[-8.874646,54.204286],[-8.874593,54.20427],[-8.874598,54.204486],[-8.874138,54.204489],[-8.874132,54.20422],[-8.873213,54.204226],[-8.873207,54.203957],[-8.873201,54.203687],[-8.872741,54.203691],[-8.872736,54.203421],[-8.872719,54.202613],[-8.872259,54.202616],[-8.872253,54.202346],[-8.871794,54.20235],[-8.871782,54.201811],[-8.871765,54.201002],[-8.872225,54.200999],[-8.872242,54.201807],[-8.872655,54.201804],[-8.872674,54.201739],[-8.872677,54.201655],[-8.872619,54.201558],[-8.87246,54.201317],[-8.872363,54.201154],[-8.872314,54.201005],[-8.872306,54.200926],[-8.872339,54.200834],[-8.87235,54.200801],[-8.87237,54.200693],[-8.872346,54.20061],[-8.872287,54.200561],[-8.872217,54.200523],[-8.872129,54.200475],[-8.871983,54.20042],[-8.871797,54.200374],[-8.871706,54.200348],[-8.87161,54.200283],[-8.871537,54.200218],[-8.871548,54.200181],[-8.871498,54.200081],[-8.871439,54.200051],[-8.871287,54.200027],[-8.871161,54.200022],[-8.871122,54.20002],[-8.870903,54.200055],[-8.87078,54.200097],[-8.870645,54.200192],[-8.870561,54.200274],[-8.870572,54.200325],[-8.870595,54.20037],[-8.870648,54.200445],[-8.870681,54.200539],[-8.870716,54.200646],[-8.870728,54.200765],[-8.870724,54.200808],[-8.870703,54.200843],[-8.870661,54.200868],[-8.8706,54.200881],[-8.870515,54.200876],[-8.870398,54.200844],[-8.870382,54.200838],[-8.870386,54.201012],[-8.869926,54.201015],[-8.869921,54.200746],[-8.870209,54.200744],[-8.870175,54.20072],[-8.870093,54.200643],[-8.870037,54.200557],[-8.869943,54.200413],[-8.869862,54.2002],[-8.869788,54.199992],[-8.869747,54.199822],[-8.869752,54.199753],[-8.869788,54.199673],[-8.869838,54.199642],[-8.869865,54.199625],[-8.870022,54.199577],[-8.870217,54.199547],[-8.870429,54.199517],[-8.870597,54.199498],[-8.870678,54.19946],[-8.870692,54.199441],[-8.870667,54.199416],[-8.870594,54.199386],[-8.870497,54.199355],[-8.870367,54.199335],[-8.87021,54.19932],[-8.870013,54.19931],[-8.870058,54.199259],[-8.870147,54.199161],[-8.870184,54.199126],[-8.868967,54.199135],[-8.868962,54.198866],[-8.866663,54.198882],[-8.866657,54.198613],[-8.865738,54.198619],[-8.865732,54.19835],[-8.865727,54.19808],[-8.866186,54.198077],[-8.866192,54.198346],[-8.868031,54.198333],[-8.868036,54.198603],[-8.870335,54.198586],[-8.870341,54.198856],[-8.870343,54.19898],[-8.870598,54.198747],[-8.870681,54.19867],[-8.871204,54.198241],[-8.871763,54.197712],[-8.872222,54.197313],[-8.872309,54.197138],[-8.872081,54.196786],[-8.871962,54.196072],[-8.871672,54.195207],[-8.871393,54.194882],[-8.871307,54.194495],[-8.871066,54.193954],[-8.870787,54.193606],[-8.870743,54.193378],[-8.870742,54.192993],[-8.870662,54.192977],[-8.870605,54.192973],[-8.87049,54.192987],[-8.870447,54.192988],[-8.870379,54.192982],[-8.870322,54.192968],[-8.870222,54.192938],[-8.870172,54.192923],[-8.870076,54.192916],[-8.870004,54.192908],[-8.869956,54.19289],[-8.869914,54.192866],[-8.869863,54.192837],[-8.869822,54.192821],[-8.86977,54.192818],[-8.869717,54.192826],[-8.869609,54.192886],[-8.869517,54.192911],[-8.869444,54.192919],[-8.869408,54.192928],[-8.869406,54.19294],[-8.869454,54.192955],[-8.86951,54.192972],[-8.869556,54.193007],[-8.869546,54.193039],[-8.869486,54.193085],[-8.869311,54.193148],[-8.86919,54.193198],[-8.869117,54.193209],[-8.869057,54.193211],[-8.868995,54.193204],[-8.868921,54.193172],[-8.868911,54.193111],[-8.868903,54.193083],[-8.868876,54.19307],[-8.868818,54.193068],[-8.868767,54.19306],[-8.868708,54.193043],[-8.868613,54.193014],[-8.868555,54.193005],[-8.868505,54.193001],[-8.868385,54.193014],[-8.868261,54.193021],[-8.868186,54.193021],[-8.868131,54.19302],[-8.868069,54.193017],[-8.868035,54.193003],[-8.868001,54.192961],[-8.867969,54.19293],[-8.867944,54.192915],[-8.867892,54.192901],[-8.867761,54.192842],[-8.867632,54.192798],[-8.867494,54.192768],[-8.867429,54.192757],[-8.8674,54.192741],[-8.867386,54.192722],[-8.867391,54.192705],[-8.867452,54.192673],[-8.867495,54.192661],[-8.867514,54.192641],[-8.867515,54.192615],[-8.867496,54.19259],[-8.867438,54.19257],[-8.867218,54.192527],[-8.867154,54.192502],[-8.867095,54.19246],[-8.867066,54.192433],[-8.867066,54.192404],[-8.86708,54.192385],[-8.867112,54.192363],[-8.867138,54.192351],[-8.867136,54.192332],[-8.867107,54.192326],[-8.867072,54.192323],[-8.867029,54.19231],[-8.866973,54.192276],[-8.86694,54.192244],[-8.866908,54.192234],[-8.866849,54.192232],[-8.866783,54.192252],[-8.866767,54.192273],[-8.866759,54.192296],[-8.866738,54.192309],[-8.866701,54.192311],[-8.866656,54.192301],[-8.866558,54.192253],[-8.866499,54.192209],[-8.866483,54.192188],[-8.866479,54.19216],[-8.866505,54.192114],[-8.86658,54.192039],[-8.866604,54.191985],[-8.866598,54.191963],[-8.86658,54.191947],[-8.866442,54.191915],[-8.866372,54.191892],[-8.866277,54.191826],[-8.866229,54.191785],[-8.866203,54.191782],[-8.866114,54.191801],[-8.866054,54.191794],[-8.86601,54.191785],[-8.865982,54.191773],[-8.865975,54.191762],[-8.865965,54.191738],[-8.865979,54.191682],[-8.865979,54.19168],[-8.865996,54.191662],[-8.866043,54.191639],[-8.866251,54.191597],[-8.866292,54.191578],[-8.8663,54.19156],[-8.866343,54.191553],[-8.866323,54.191537],[-8.86625,54.191546],[-8.866184,54.191538],[-8.86614,54.191503],[-8.866161,54.191463],[-8.866171,54.191443],[-8.866218,54.191381],[-8.866294,54.191371],[-8.866308,54.191341],[-8.866237,54.191309],[-8.865898,54.191175],[-8.865793,54.191137],[-8.865714,54.191116],[-8.865668,54.19111],[-8.865681,54.191076],[-8.86573,54.191054],[-8.865829,54.191034],[-8.865855,54.191016],[-8.865861,54.190995],[-8.86581,54.190976],[-8.865722,54.190978],[-8.86564,54.190957],[-8.865507,54.190842],[-8.865459,54.19082],[-8.865391,54.190761],[-8.865317,54.190742],[-8.865227,54.190717],[-8.865162,54.190664],[-8.86513,54.190644],[-8.865069,54.190645],[-8.865006,54.190617],[-8.86499,54.190538],[-8.864961,54.190507],[-8.864896,54.190504],[-8.864827,54.190508],[-8.864781,54.190448],[-8.8648,54.190429],[-8.870369,54.189221],[-8.870387,54.188736],[-8.875105,54.187403],[-8.874551,54.186884],[-8.874507,54.186843],[-8.874357,54.186699],[-8.873749,54.186119],[-8.873539,54.185929],[-8.873533,54.185925],[-8.873506,54.185905],[-8.873452,54.185806],[-8.873377,54.185622],[-8.873235,54.185321],[-8.87299,54.184794],[-8.872763,54.184348],[-8.872735,54.184292],[-8.872626,54.184069],[-8.872347,54.183501],[-8.872067,54.182899],[-8.871834,54.182461],[-8.871648,54.182087],[-8.871416,54.181621],[-8.871255,54.181277],[-8.871113,54.180958],[-8.871101,54.180932],[-8.870892,54.180511],[-8.870777,54.180271],[-8.870599,54.179931],[-8.870547,54.179895],[-8.870486,54.179825],[-8.870367,54.179815],[-8.870323,54.179831],[-8.869687,54.179905],[-8.868244,54.18009],[-8.867444,54.180196],[-8.866691,54.180294],[-8.866646,54.180298],[-8.866245,54.179748],[-8.866201,54.179681],[-8.866179,54.179678],[-8.866112,54.179653],[-8.866062,54.17962],[-8.865993,54.179615],[-8.865879,54.179615],[-8.865762,54.179611],[-8.865678,54.179628],[-8.865629,54.179646],[-8.865526,54.179655],[-8.865435,54.179662],[-8.865374,54.179677],[-8.865177,54.179671],[-8.865037,54.179666],[-8.864915,54.179679],[-8.864817,54.179699],[-8.864725,54.179704],[-8.864646,54.179686],[-8.86457,54.179648],[-8.864483,54.179637],[-8.864266,54.179574],[-8.864225,54.179577],[-8.864168,54.179621],[-8.864073,54.179688],[-8.864023,54.179715],[-8.863989,54.179703],[-8.86394,54.179661],[-8.863891,54.179637],[-8.863822,54.179603],[-8.863709,54.179552],[-8.863712,54.179501],[-8.86369,54.179483],[-8.863655,54.179474],[-8.86364,54.179443],[-8.863602,54.179432],[-8.863508,54.179432],[-8.863379,54.179416],[-8.863295,54.179403],[-8.863257,54.179376],[-8.863223,54.179356],[-8.8632,54.179331],[-8.863181,54.179287],[-8.863121,54.17926],[-8.863087,54.179238],[-8.863094,54.179193],[-8.863052,54.179158],[-8.862969,54.179131],[-8.862908,54.179095],[-8.862711,54.179015],[-8.862669,54.17895],[-8.862632,54.178908],[-8.862552,54.17889],[-8.86243,54.178886],[-8.862328,54.178843],[-8.862237,54.178837],[-8.862169,54.178794],[-8.862142,54.178783],[-8.862081,54.178779],[-8.862013,54.17879],[-8.861922,54.17879],[-8.861812,54.178765],[-8.86177,54.178745],[-8.861698,54.178743],[-8.86166,54.178721],[-8.861615,54.178721],[-8.861577,54.178725],[-8.861501,54.178756],[-8.861459,54.178743],[-8.861379,54.178692],[-8.861296,54.178685],[-8.861224,54.178692],[-8.861186,54.178672],[-8.861076,54.178669],[-8.861,54.178674],[-8.860943,54.178691],[-8.860833,54.178736],[-8.860689,54.178765],[-8.860556,54.178827],[-8.860453,54.178858],[-8.8604,54.178867],[-8.860362,54.178849],[-8.860317,54.178818],[-8.860237,54.178802],[-8.860142,54.178822],[-8.860058,54.178827],[-8.859979,54.178847],[-8.859933,54.178827],[-8.859933,54.178811],[-8.859967,54.178778],[-8.859907,54.178751],[-8.859838,54.17874],[-8.859797,54.178742],[-8.859755,54.178758],[-8.859706,54.178795],[-8.859633,54.178811],[-8.859542,54.178802],[-8.859444,54.178829],[-8.85936,54.178842],[-8.859288,54.178824],[-8.859163,54.178786],[-8.859011,54.178782],[-8.858901,54.178777],[-8.858818,54.178757],[-8.858761,54.17875],[-8.8587,54.178764],[-8.858662,54.178777],[-8.858575,54.178819],[-8.858525,54.178819],[-8.858476,54.178815],[-8.858438,54.178788],[-8.858379,54.178784],[-8.858304,54.178808],[-8.858195,54.178881],[-8.858119,54.178913],[-8.857952,54.178877],[-8.857899,54.178852],[-8.857838,54.178886],[-8.857774,54.178883],[-8.857717,54.17891],[-8.857645,54.178903],[-8.857599,54.178861],[-8.857542,54.178852],[-8.857504,54.178888],[-8.857481,54.178926],[-8.857462,54.178955],[-8.857413,54.178932],[-8.857337,54.178908],[-8.857147,54.178923],[-8.857091,54.178901],[-8.857011,54.178852],[-8.856927,54.178834],[-8.856859,54.178843],[-8.856783,54.178865],[-8.856734,54.178852],[-8.856688,54.178867],[-8.856639,54.178901],[-8.856514,54.178907],[-8.85643,54.178905],[-8.856407,54.178927],[-8.856407,54.178927],[-8.85665,54.179209],[-8.856966,54.179576],[-8.857236,54.179888],[-8.857271,54.17994],[-8.85715,54.179938],[-8.856933,54.179925],[-8.856592,54.179929],[-8.855563,54.179966],[-8.853851,54.180021],[-8.852151,54.180082],[-8.852026,54.180084],[-8.85189,54.180089],[-8.851938,54.180153],[-8.852014,54.180256],[-8.857382,54.180106],[-8.857543,54.180346],[-8.857543,54.180346],[-8.857543,54.180347],[-8.857572,54.18039],[-8.857723,54.180615],[-8.858468,54.180609],[-8.858474,54.180879],[-8.858933,54.180876],[-8.858939,54.181145],[-8.859398,54.181142],[-8.859404,54.181411],[-8.859409,54.181681],[-8.85895,54.181684],[-8.858944,54.181415],[-8.858485,54.181418],[-8.858479,54.181148],[-8.858084,54.181151],[-8.858827,54.182259],[-8.858883,54.182335],[-8.85906,54.182578],[-8.859304,54.182912],[-8.859495,54.183173],[-8.859653,54.183389],[-8.859889,54.183711],[-8.860107,54.18401],[-8.860344,54.184334],[-8.860312,54.184644],[-8.858673,54.184608],[-8.855397,54.184588],[-8.855504,54.184762],[-8.855534,54.184813],[-8.860392,54.184805],[-8.860518,54.185062],[-8.860662,54.185354],[-8.860794,54.185621],[-8.860948,54.185934],[-8.861062,54.186165],[-8.86119,54.186425],[-8.861204,54.186453],[-8.861318,54.186715],[-8.861419,54.186947],[-8.861541,54.18723],[-8.861685,54.187559],[-8.861811,54.18785],[-8.86193,54.188125],[-8.862102,54.188521],[-8.862134,54.188595],[-8.862247,54.188847],[-8.862369,54.18912],[-8.862558,54.189541],[-8.862672,54.189795],[-8.862819,54.190124],[-8.863534,54.190973],[-8.860629,54.190996],[-8.860443,54.190909],[-8.860334,54.190866],[-8.860129,54.190796],[-8.859403,54.190478],[-8.858622,54.19053],[-8.858548,54.190386],[-8.85847,54.1904],[-8.858347,54.19041],[-8.857892,54.190408],[-8.857681,54.190412],[-8.857379,54.190438],[-8.857349,54.190445],[-8.857332,54.190464],[-8.85727,54.190503],[-8.857399,54.190588],[-8.85747,54.190687],[-8.85749,54.190746],[-8.858711,54.190737],[-8.858729,54.191636],[-8.858151,54.19164],[-8.858074,54.191867],[-8.857987,54.192136],[-8.857999,54.192193],[-8.858355,54.192258],[-8.858659,54.192319],[-8.858998,54.192351],[-8.859154,54.19236],[-8.859204,54.19238],[-8.859206,54.192388],[-8.859269,54.192637],[-8.85936,54.192997],[-8.859433,54.193305],[-8.859518,54.19365],[-8.859614,54.194011],[-8.859688,54.194356],[-8.85978,54.194753],[-8.859837,54.194986],[-8.859892,54.195248],[-8.859969,54.195561],[-8.860008,54.195718],[-8.860061,54.195943],[-8.860075,54.196],[-8.860118,54.196179],[-8.860206,54.196541],[-8.860287,54.196875],[-8.860322,54.197025],[-8.860391,54.197303],[-8.860439,54.197533],[-8.860524,54.197869],[-8.860532,54.197912],[-8.860546,54.197971],[-8.860594,54.198163],[-8.860696,54.19858],[-8.860765,54.198859],[-8.860805,54.199032],[-8.860884,54.199349],[-8.860911,54.199455],[-8.86093,54.199536],[-8.86097,54.19965],[-8.861022,54.199743],[-8.861099,54.199853],[-8.861192,54.199971],[-8.861266,54.200049],[-8.861267,54.20005],[-8.861302,54.200098],[-8.861349,54.200149],[-8.861374,54.200177],[-8.861405,54.200205],[-8.861448,54.200244],[-8.861554,54.20034],[-8.861733,54.200495],[-8.861987,54.20071],[-8.862315,54.200984],[-8.862533,54.201174],[-8.862745,54.201366],[-8.862915,54.201521],[-8.863069,54.201658],[-8.863281,54.201848],[-8.86335,54.201909],[-8.863464,54.202011],[-8.863663,54.202214],[-8.863754,54.202326],[-8.863877,54.202508],[-8.86397,54.202649],[-8.864066,54.202823],[-8.864145,54.202939],[-8.864317,54.20323],[-8.864439,54.203427],[-8.864452,54.203448],[-8.864611,54.20372],[-8.864619,54.203732],[-8.864758,54.203941],[-8.864843,54.204087],[-8.865009,54.204373],[-8.865124,54.204571],[-8.865155,54.204623],[-8.865287,54.204845],[-8.86541,54.205051]],[[-8.876465,54.20582],[-8.876471,54.20609],[-8.876011,54.206093],[-8.876005,54.205824],[-8.875546,54.205827],[-8.87554,54.205557],[-8.875534,54.205288],[-8.875994,54.205285],[-8.876,54.205554],[-8.876459,54.205551],[-8.876465,54.20582]],[[-8.877885,54.207697],[-8.877879,54.207427],[-8.878798,54.207421],[-8.878804,54.20769],[-8.877885,54.207697]],[[-8.87881,54.20796],[-8.878804,54.20769],[-8.879264,54.207687],[-8.87927,54.207956],[-8.87881,54.20796]],[[-8.879275,54.208226],[-8.87927,54.207956],[-8.880189,54.20795],[-8.880195,54.208219],[-8.880207,54.208758],[-8.880666,54.208755],[-8.880672,54.209025],[-8.879752,54.209031],[-8.879747,54.208762],[-8.879735,54.208223],[-8.879275,54.208226]],[[-8.888269,54.207725],[-8.886727,54.208608],[-8.886207,54.207154],[-8.883385,54.208497],[-8.882894,54.208099],[-8.884842,54.207219],[-8.887274,54.206014],[-8.888704,54.206894],[-8.88913,54.207161],[-8.888269,54.207725]],[[-8.861971,54.194333],[-8.861976,54.194602],[-8.861516,54.194606],[-8.861511,54.194336],[-8.861971,54.194333]],[[-8.861982,54.194872],[-8.861976,54.194602],[-8.862436,54.194599],[-8.862441,54.194869],[-8.861982,54.194872]],[[-8.870744,54.196157],[-8.870284,54.19616],[-8.870273,54.195621],[-8.870732,54.195618],[-8.870744,54.196157]],[[-8.865273,54.198353],[-8.865278,54.198622],[-8.864359,54.198629],[-8.864353,54.19836],[-8.864813,54.198356],[-8.864807,54.198087],[-8.865267,54.198083],[-8.865273,54.198353]]],[[[-8.872796,54.202262],[-8.87271,54.202181],[-8.872713,54.202343],[-8.872919,54.202341],[-8.872796,54.202262]]],[[[-8.873244,54.202452],[-8.873175,54.202442],[-8.873178,54.202609],[-8.873196,54.203418],[-8.873546,54.203415],[-8.873453,54.203392],[-8.873386,54.203338],[-8.873354,54.203243],[-8.873385,54.203129],[-8.873517,54.203066],[-8.873624,54.203048],[-8.873721,54.203059],[-8.873731,54.203085],[-8.87377,54.203109],[-8.873795,54.20311],[-8.873831,54.203081],[-8.873892,54.203017],[-8.873953,54.202932],[-8.874024,54.202827],[-8.874094,54.202683],[-8.874102,54.202569],[-8.874074,54.202457],[-8.874004,54.202408],[-8.873885,54.20237],[-8.873771,54.202373],[-8.87366,54.202384],[-8.873505,54.202419],[-8.873372,54.202445],[-8.873244,54.202452]]],[[[-8.873674,54.203415],[-8.873655,54.203416],[-8.873661,54.203684],[-8.873667,54.203954],[-8.873691,54.203953],[-8.87368,54.203936],[-8.873672,54.203903],[-8.873693,54.203876],[-8.873729,54.203866],[-8.873788,54.203852],[-8.873844,54.203827],[-8.873923,54.203773],[-8.873978,54.203725],[-8.874085,54.203694],[-8.874162,54.203646],[-8.874184,54.203603],[-8.874164,54.203524],[-8.874102,54.203436],[-8.874008,54.203392],[-8.873922,54.203371],[-8.873836,54.20337],[-8.873754,54.203383],[-8.873674,54.203415]]],[[[-8.87432,54.204191],[-8.874131,54.204145],[-8.874132,54.20422],[-8.874413,54.204218],[-8.87432,54.204191]]],[[[-8.876995,54.206224],[-8.876933,54.206205],[-8.876936,54.206356],[-8.877396,54.206353],[-8.877402,54.206622],[-8.877413,54.207161],[-8.877821,54.207158],[-8.87777,54.207096],[-8.877708,54.206975],[-8.877691,54.206916],[-8.877665,54.206845],[-8.877694,54.206776],[-8.877739,54.20671],[-8.877842,54.206607],[-8.877957,54.206513],[-8.878064,54.206415],[-8.878115,54.206329],[-8.878118,54.206285],[-8.878155,54.206234],[-8.878173,54.206209],[-8.878174,54.20616],[-8.87816,54.206121],[-8.878087,54.206096],[-8.87796,54.20608],[-8.877924,54.206079],[-8.87785,54.20608],[-8.87785,54.206078],[-8.87783,54.206077],[-8.877738,54.206086],[-8.877614,54.206113],[-8.877539,54.206129],[-8.877495,54.206146],[-8.877469,54.20618],[-8.877447,54.206229],[-8.877422,54.206261],[-8.877351,54.206286],[-8.877279,54.206297],[-8.8772,54.206288],[-8.877126,54.206269],[-8.877079,54.206247],[-8.876995,54.206224]]]]}}]}
