{"type":"FeatureCollection","features":[{"type":"Feature","properties":{"source_fid":22343,"county":"Westmeath","bog_geom_ha":100.01327759367324,"low15_pct":100.0,"low15_ha":100.01327759367324,"overlay_ha":100.01327759367324,"area_delta":0.0},"geometry":{"type":"MultiPolygon","coordinates":[[[[-7.59708,53.644713],[-7.597038,53.644696],[-7.597021,53.644689],[-7.596927,53.644651],[-7.596382,53.644445],[-7.596342,53.644429],[-7.59574,53.644201],[-7.595695,53.644184],[-7.595483,53.644142],[-7.595056,53.644058],[-7.59442,53.643934],[-7.594152,53.643893],[-7.59327,53.643715],[-7.593173,53.643699],[-7.592969,53.643666],[-7.591224,53.643327],[-7.589722,53.64305],[-7.587893,53.642724],[-7.587102,53.642566],[-7.587032,53.642549],[-7.585388,53.642146],[-7.583336,53.641684],[-7.581543,53.641012],[-7.581408,53.640966],[-7.580483,53.640647],[-7.580395,53.640616],[-7.580044,53.640495],[-7.579702,53.640403],[-7.579449,53.640378],[-7.57927,53.64036],[-7.579537,53.640616],[-7.579537,53.640616],[-7.579537,53.640616],[-7.579396,53.641091],[-7.579298,53.641394],[-7.579287,53.641431],[-7.579118,53.642018],[-7.579025,53.642306],[-7.578895,53.642706],[-7.578814,53.643001],[-7.57876,53.643194],[-7.578751,53.643224],[-7.578975,53.643225],[-7.578966,53.644183],[-7.578991,53.64419],[-7.579877,53.643989],[-7.580054,53.644064],[-7.580127,53.644095],[-7.580186,53.644038],[-7.580297,53.644028],[-7.580413,53.644002],[-7.580864,53.644103],[-7.580873,53.644057],[-7.581407,53.644244],[-7.581947,53.644393],[-7.582323,53.644253],[-7.583175,53.644548],[-7.583267,53.644588],[-7.583325,53.64457],[-7.583345,53.644594],[-7.583454,53.644664],[-7.583593,53.644722],[-7.583816,53.644808],[-7.58389,53.644832],[-7.583895,53.644846],[-7.583898,53.644882],[-7.58393,53.644909],[-7.583966,53.644935],[-7.584001,53.644962],[-7.58402,53.644967],[-7.584079,53.644979],[-7.584147,53.644998],[-7.584164,53.645006],[-7.584171,53.645015],[-7.584195,53.645032],[-7.584219,53.645038],[-7.584255,53.645053],[-7.584393,53.645101],[-7.584425,53.64512],[-7.584495,53.645158],[-7.584549,53.645159],[-7.584679,53.645198],[-7.584694,53.645209],[-7.584694,53.645241],[-7.584983,53.645349],[-7.585241,53.645451],[-7.585197,53.645487],[-7.585225,53.645501],[-7.585249,53.645503],[-7.585254,53.645509],[-7.585292,53.645523],[-7.585554,53.645623],[-7.585758,53.645702],[-7.585907,53.645765],[-7.58599,53.645767],[-7.586011,53.645772],[-7.586063,53.645787],[-7.586108,53.645805],[-7.586135,53.645822],[-7.586169,53.645846],[-7.586211,53.645891],[-7.586441,53.645987],[-7.586448,53.646001],[-7.586268,53.646153],[-7.586014,53.646384],[-7.586077,53.646407],[-7.587023,53.646731],[-7.58743,53.646872],[-7.587497,53.646877],[-7.587887,53.646914],[-7.588088,53.646939],[-7.58831,53.646968],[-7.588572,53.64699],[-7.588708,53.647002],[-7.588936,53.646416],[-7.589472,53.646053],[-7.590027,53.645681],[-7.590853,53.645129],[-7.591802,53.645756],[-7.593682,53.646987],[-7.595383,53.64805],[-7.596449,53.6487],[-7.597001,53.649044],[-7.597901,53.649604],[-7.598333,53.64989],[-7.598541,53.649996],[-7.597468,53.650966],[-7.597501,53.650977],[-7.59741,53.65105],[-7.597042,53.651345],[-7.597042,53.651373],[-7.59722,53.651374],[-7.597255,53.651337],[-7.597572,53.651051],[-7.597805,53.650827],[-7.597943,53.65069],[-7.598232,53.650408],[-7.598888,53.65063],[-7.599188,53.650734],[-7.599505,53.650837],[-7.599871,53.650954],[-7.599985,53.65099],[-7.600116,53.651035],[-7.600662,53.65121],[-7.600958,53.651307],[-7.601219,53.651393],[-7.601253,53.651404],[-7.601601,53.651517],[-7.601762,53.651569],[-7.602382,53.65177],[-7.603205,53.652045],[-7.60365,53.652185],[-7.603998,53.652295],[-7.604595,53.652297],[-7.604593,53.652483],[-7.604772,53.65254],[-7.605552,53.652793],[-7.606244,53.653019],[-7.606943,53.653249],[-7.607162,53.653338],[-7.60697,53.652282],[-7.607356,53.652269],[-7.608904,53.652265],[-7.610988,53.65226],[-7.612793,53.652256],[-7.614802,53.652342],[-7.61481,53.651914],[-7.614844,53.651668],[-7.614968,53.651294],[-7.614933,53.651026],[-7.614908,53.650825],[-7.614888,53.650141],[-7.615003,53.648816],[-7.613529,53.648773],[-7.613511,53.648772],[-7.613064,53.648761],[-7.612672,53.648751],[-7.611099,53.64871],[-7.610956,53.648704],[-7.610907,53.648702],[-7.610876,53.6487],[-7.610817,53.648698],[-7.610771,53.648696],[-7.610704,53.648693],[-7.610084,53.648667],[-7.609353,53.648636],[-7.609336,53.648636],[-7.608815,53.648614],[-7.608626,53.648604],[-7.60853,53.648599],[-7.608416,53.648593],[-7.608373,53.648591],[-7.608125,53.648578],[-7.607223,53.648532],[-7.606647,53.648502],[-7.606461,53.648492],[-7.606279,53.648483],[-7.606193,53.648478],[-7.606112,53.648474],[-7.606101,53.64847],[-7.606073,53.648459],[-7.605322,53.648164],[-7.605295,53.648153],[-7.605269,53.648143],[-7.604842,53.647966],[-7.604536,53.647839],[-7.604404,53.647784],[-7.604212,53.647704],[-7.604104,53.647659],[-7.604013,53.647622],[-7.603673,53.64748],[-7.603566,53.647435],[-7.603556,53.647431],[-7.603199,53.647282],[-7.603097,53.64724],[-7.602701,53.647075],[-7.602546,53.64701],[-7.602485,53.646984],[-7.601886,53.64674],[-7.601817,53.646711],[-7.601754,53.646685],[-7.601338,53.646518],[-7.601088,53.646417],[-7.600595,53.646202],[-7.600064,53.645971],[-7.599729,53.645825],[-7.599712,53.645817],[-7.599429,53.645697],[-7.599309,53.645646],[-7.599109,53.645561],[-7.598952,53.645495],[-7.598835,53.645445],[-7.598426,53.645271],[-7.598091,53.645129],[-7.597731,53.644977],[-7.5977,53.644963],[-7.597681,53.644956],[-7.597644,53.644941],[-7.597603,53.644924],[-7.597478,53.644874],[-7.59708,53.644713]]]]}}]}
