{"type":"FeatureCollection","features":[{"type":"Feature","properties":{"source_fid":2243868,"county":"Mayo","bog_geom_ha":218.46434129122719,"low15_pct":99.917593737124022,"low15_ha":218.28431299185246,"overlay_ha":218.34198340656758,"area_delta":0.057670414715119023},"geometry":{"type":"MultiPolygon","coordinates":[[[[-9.593662,54.135884],[-9.594186,54.136046],[-9.595677,54.136509],[-9.598678,54.13754],[-9.600784,54.138275],[-9.601425,54.13767],[-9.602675,54.136416],[-9.604146,54.135169],[-9.604739,54.134708],[-9.605362,54.134186],[-9.606128,54.133529],[-9.606681,54.132998],[-9.606921,54.132766],[-9.60816,54.131641],[-9.608704,54.131134],[-9.608857,54.131004],[-9.609003,54.130879],[-9.609325,54.130604],[-9.61022,54.129956],[-9.610353,54.129859],[-9.61108,54.129318],[-9.6116,54.128949],[-9.612068,54.128492],[-9.61263,54.128072],[-9.613168,54.127776],[-9.613544,54.127569],[-9.613625,54.127525],[-9.614207,54.1272],[-9.61429,54.127076],[-9.61454,54.126979],[-9.614583,54.12695],[-9.61438,54.126875],[-9.613449,54.12655],[-9.612714,54.126275],[-9.612167,54.126062],[-9.611581,54.125832],[-9.610798,54.125504],[-9.609974,54.125166],[-9.609069,54.124794],[-9.608269,54.12446],[-9.607621,54.124205],[-9.606935,54.123928],[-9.60632,54.123682],[-9.60631,54.123678],[-9.605671,54.123429],[-9.605108,54.123228],[-9.604692,54.123093],[-9.604165,54.122937],[-9.603476,54.122764],[-9.602845,54.122619],[-9.602417,54.122529],[-9.601727,54.122383],[-9.601167,54.122269],[-9.601068,54.122248],[-9.600415,54.122113],[-9.59986,54.122045],[-9.599063,54.121988],[-9.598001,54.121941],[-9.597205,54.121938],[-9.596615,54.121965],[-9.596478,54.121972],[-9.596115,54.121991],[-9.595587,54.122023],[-9.594846,54.122068],[-9.594017,54.122132],[-9.593185,54.122208],[-9.592515,54.12229],[-9.592021,54.122364],[-9.591585,54.122431],[-9.591586,54.122467],[-9.591331,54.12247],[-9.59122,54.122487],[-9.591128,54.122501],[-9.591138,54.122742],[-9.59022,54.122754],[-9.590216,54.12264],[-9.589955,54.122681],[-9.589878,54.122691],[-9.589826,54.122697],[-9.589818,54.12274],[-9.589694,54.123069],[-9.589636,54.123197],[-9.589538,54.123411],[-9.589434,54.12397],[-9.589243,54.124882],[-9.586627,54.12505],[-9.586588,54.125056],[-9.586555,54.125068],[-9.5865,54.125093],[-9.586498,54.125094],[-9.586434,54.125119],[-9.586364,54.125105],[-9.586315,54.12509],[-9.586206,54.125055],[-9.58616,54.125039],[-9.586146,54.125113],[-9.585802,54.125828],[-9.58573,54.125885],[-9.585607,54.12602],[-9.585476,54.126166],[-9.585404,54.126275],[-9.585372,54.126343],[-9.585328,54.126367],[-9.585264,54.126389],[-9.585018,54.126429],[-9.584849,54.126449],[-9.584695,54.12647],[-9.584623,54.126482],[-9.584642,54.126567],[-9.584674,54.126693],[-9.584743,54.126857],[-9.58482,54.127043],[-9.584983,54.127433],[-9.585045,54.127587],[-9.585097,54.127691],[-9.585137,54.127809],[-9.585496,54.128717],[-9.585947,54.12981],[-9.585973,54.12989],[-9.585993,54.130007],[-9.586124,54.130599],[-9.586147,54.130659],[-9.58622,54.13077],[-9.586288,54.130855],[-9.586932,54.131749],[-9.587642,54.132712],[-9.587782,54.13288],[-9.588323,54.133532],[-9.588405,54.133623],[-9.588532,54.133745],[-9.589209,54.134454],[-9.589272,54.134498],[-9.589387,54.134558],[-9.589573,54.134668],[-9.591079,54.135585],[-9.591198,54.135668],[-9.591233,54.135688],[-9.591407,54.13572],[-9.591888,54.135757],[-9.59299,54.135828],[-9.593662,54.135884]]]]}}]}
