{"type":"FeatureCollection","features":[{"type":"Feature","properties":{"source_fid":2244651,"county":"Mayo","bog_geom_ha":310.43372491115377,"low15_pct":100.0,"low15_ha":310.43372491115377,"overlay_ha":310.43372491115377,"area_delta":0.0},"geometry":{"type":"MultiPolygon","coordinates":[[[[-9.869243,54.165072],[-9.869273,54.165075],[-9.869386,54.165083],[-9.869509,54.165077],[-9.869664,54.165015],[-9.869703,54.164988],[-9.869735,54.164965],[-9.869826,54.164953],[-9.869848,54.16495],[-9.869849,54.16495],[-9.869852,54.16495],[-9.869976,54.164957],[-9.870048,54.164961],[-9.870064,54.164969],[-9.870096,54.164984],[-9.870135,54.165019],[-9.870137,54.16502],[-9.870138,54.165022],[-9.870223,54.16511],[-9.870238,54.165127],[-9.870243,54.165134],[-9.870259,54.16514],[-9.870274,54.165147],[-9.870305,54.165152],[-9.870319,54.165154],[-9.870637,54.165143],[-9.870729,54.16514],[-9.871044,54.165065],[-9.871241,54.165054],[-9.871313,54.16505],[-9.871313,54.16505],[-9.871313,54.16505],[-9.871393,54.165046],[-9.871399,54.16509],[-9.872178,54.165107],[-9.872151,54.165204],[-9.873684,54.16537],[-9.875243,54.165523],[-9.875569,54.165549],[-9.877003,54.165696],[-9.877159,54.165716],[-9.877193,54.16572],[-9.878247,54.165825],[-9.880004,54.166008],[-9.88215,54.166185],[-9.883926,54.166399],[-9.884078,54.166368],[-9.885382,54.166059],[-9.885716,54.165968],[-9.885716,54.165968],[-9.886017,54.165887],[-9.886348,54.165798],[-9.887118,54.165605],[-9.888178,54.165339],[-9.889475,54.165021],[-9.890308,54.164819],[-9.891157,54.164613],[-9.89196,54.16441],[-9.892964,54.164156],[-9.893163,54.164103],[-9.893348,54.164054],[-9.894182,54.164505],[-9.894937,54.164886],[-9.895497,54.165062],[-9.895692,54.165123],[-9.895785,54.165152],[-9.895871,54.165136],[-9.895946,54.165122],[-9.895987,54.165109],[-9.896163,54.165049],[-9.896308,54.164953],[-9.896548,54.164879],[-9.896743,54.164818],[-9.897119,54.164715],[-9.89751,54.164607],[-9.897678,54.164544],[-9.897804,54.164496],[-9.898099,54.164377],[-9.898227,54.164325],[-9.898484,54.16421],[-9.898895,54.164096],[-9.899021,54.164029],[-9.899203,54.164013],[-9.899362,54.163919],[-9.899422,54.163883],[-9.899422,54.163883],[-9.899649,54.163775],[-9.899937,54.163638],[-9.900097,54.163552],[-9.900214,54.163489],[-9.900342,54.163434],[-9.90061,54.163348],[-9.900869,54.163296],[-9.901231,54.163208],[-9.901536,54.163133],[-9.901907,54.163062],[-9.902062,54.163047],[-9.902182,54.163067],[-9.902504,54.163058],[-9.90283,54.163051],[-9.903075,54.163007],[-9.90333,54.162962],[-9.903611,54.162907],[-9.903944,54.162828],[-9.904201,54.16282],[-9.904309,54.162796],[-9.904372,54.162742],[-9.904489,54.162683],[-9.904975,54.161558],[-9.904448,54.158904],[-9.904431,54.158817],[-9.904126,54.157356],[-9.90349,54.154494],[-9.903258,54.153361],[-9.902399,54.153395],[-9.898723,54.153539],[-9.894665,54.15374],[-9.893323,54.153802],[-9.891976,54.153871],[-9.891779,54.153875],[-9.891426,54.153895],[-9.891265,54.153909],[-9.888535,54.154037],[-9.888434,54.154005],[-9.888241,54.154056],[-9.888208,54.154062],[-9.885849,54.154162],[-9.88549,54.154178],[-9.88455,54.15423],[-9.883467,54.15427],[-9.881835,54.15436],[-9.865796,54.155266],[-9.865382,54.15583],[-9.865084,54.156277],[-9.864771,54.156795],[-9.864695,54.156972],[-9.86467,54.157079],[-9.864667,54.157098],[-9.864666,54.15711],[-9.864656,54.157147],[-9.864642,54.157182],[-9.864614,54.157285],[-9.864588,54.157399],[-9.864531,54.157529],[-9.864505,54.15765],[-9.86448,54.157808],[-9.864468,54.157884],[-9.864437,54.15824],[-9.8644,54.158457],[-9.864371,54.158864],[-9.864373,54.159089],[-9.864339,54.159219],[-9.864309,54.159423],[-9.864298,54.159533],[-9.864291,54.159605],[-9.864313,54.159939],[-9.864309,54.160462],[-9.864272,54.161147],[-9.864222,54.161829],[-9.864201,54.162501],[-9.864148,54.163243],[-9.864134,54.164764],[-9.864133,54.164963],[-9.864156,54.164974],[-9.864184,54.164994],[-9.86418,54.165078],[-9.864196,54.165099],[-9.86422,54.165101],[-9.864338,54.165075],[-9.864468,54.165068],[-9.864658,54.165113],[-9.864908,54.165069],[-9.865206,54.165012],[-9.865361,54.165009],[-9.865439,54.165022],[-9.865796,54.165035],[-9.865815,54.165041],[-9.865963,54.165082],[-9.865983,54.165088],[-9.866046,54.165118],[-9.866168,54.165188],[-9.866215,54.16521],[-9.866262,54.165221],[-9.866303,54.165221],[-9.86634,54.165207],[-9.866381,54.165178],[-9.866423,54.165121],[-9.866476,54.165039],[-9.866486,54.16503],[-9.866515,54.165005],[-9.866601,54.16499],[-9.866871,54.16493],[-9.867053,54.164932],[-9.867166,54.164898],[-9.867241,54.164886],[-9.867298,54.164846],[-9.867374,54.16482],[-9.867494,54.1648],[-9.867651,54.164791],[-9.86778,54.164778],[-9.867819,54.164723],[-9.8679,54.164704],[-9.868017,54.16468],[-9.868174,54.164678],[-9.868309,54.164685],[-9.868432,54.164689],[-9.86858,54.1647],[-9.86863,54.164757],[-9.868635,54.164763],[-9.86862,54.1648],[-9.86866,54.164845],[-9.868711,54.164882],[-9.86885,54.164924],[-9.869103,54.165009],[-9.86923,54.165071],[-9.869243,54.165072]]]]}}]}
