{"type":"FeatureCollection","features":[{"type":"Feature","properties":{"source_fid":2244597,"county":"Mayo","bog_geom_ha":299.65788102401376,"low15_pct":81.984412470023983,"low15_ha":245.67275317766118,"overlay_ha":245.82668268972378,"area_delta":0.15392951206260364},"geometry":{"type":"MultiPolygon","coordinates":[[[[-10.117328,53.965821],[-10.1171,53.961332],[-10.115578,53.961359],[-10.115623,53.962257],[-10.114101,53.962283],[-10.114126,53.962787],[-10.114765,53.962997],[-10.115425,53.96323],[-10.115007,53.963656],[-10.114167,53.963363],[-10.113617,53.963191],[-10.113303,53.963196],[-10.113196,53.963338],[-10.113085,53.963484],[-10.112877,53.963679],[-10.112844,53.963703],[-10.112656,53.963843],[-10.112663,53.963986],[-10.112677,53.963975],[-10.112745,53.963945],[-10.113159,53.96357],[-10.113504,53.963252],[-10.113606,53.963325],[-10.113747,53.963467],[-10.113859,53.963632],[-10.11395,53.963804],[-10.114014,53.963929],[-10.11405,53.964057],[-10.114122,53.96428],[-10.114143,53.964394],[-10.114198,53.964527],[-10.114208,53.96455],[-10.114222,53.964567],[-10.114251,53.964604],[-10.11426,53.964632],[-10.114248,53.964679],[-10.114337,53.964902],[-10.114426,53.965151],[-10.114448,53.965204],[-10.114474,53.965272],[-10.114515,53.965433],[-10.114547,53.965543],[-10.114583,53.965711],[-10.114626,53.965879],[-10.114673,53.966044],[-10.114685,53.966118],[-10.114716,53.966325],[-10.114829,53.966763],[-10.114858,53.966902],[-10.114892,53.967027],[-10.114911,53.967155],[-10.114944,53.967296],[-10.11498,53.967469],[-10.115002,53.967669],[-10.115034,53.967867],[-10.115042,53.967952],[-10.11506,53.96813],[-10.115076,53.968401],[-10.115004,53.969337],[-10.115016,53.969456],[-10.115987,53.969439],[-10.115942,53.968541],[-10.118987,53.968488],[-10.118972,53.968194],[-10.118906,53.968195],[-10.118878,53.967656],[-10.118851,53.967118],[-10.118394,53.967126],[-10.11838,53.966856],[-10.118837,53.966848],[-10.118824,53.966579],[-10.11889,53.966578],[-10.11885,53.965794],[-10.117328,53.965821]],[[-10.114737,53.966106],[-10.114709,53.9659],[-10.114505,53.965201],[-10.114267,53.964522],[-10.115085,53.964468],[-10.115653,53.965708],[-10.115645,53.965778],[-10.115688,53.965884],[-10.114737,53.966106]]],[[[-10.119665,53.97207],[-10.119667,53.972106],[-10.119846,53.972115],[-10.120253,53.972104],[-10.120534,53.972096],[-10.120653,53.972098],[-10.120694,53.972098],[-10.120692,53.972052],[-10.119665,53.97207]]],[[[-10.125144,53.973952],[-10.125135,53.97377],[-10.124707,53.973778],[-10.124748,53.973801],[-10.124756,53.973805],[-10.124831,53.973835],[-10.125003,53.973896],[-10.125144,53.973952]]],[[[-10.125365,53.974013],[-10.125303,53.974014],[-10.125366,53.974037],[-10.125365,53.974013]]],[[[-10.108577,53.974311],[-10.108616,53.974369],[-10.1086,53.974062],[-10.108432,53.974065],[-10.108452,53.974097],[-10.108521,53.97422],[-10.108577,53.974311]]],[[[-10.125391,53.974542],[-10.125375,53.974553],[-10.125393,53.974564],[-10.125391,53.974542]]],[[[-10.12529,53.974874],[-10.125372,53.974889],[-10.125384,53.97489],[-10.125409,53.974894],[-10.125396,53.974634],[-10.125174,53.974803],[-10.125317,53.974828],[-10.125277,53.974853],[-10.125256,53.974865],[-10.125282,53.97487],[-10.12529,53.974874]]],[[[-10.108066,53.974717],[-10.108064,53.974722],[-10.108032,53.97478],[-10.108023,53.974797],[-10.107974,53.974848],[-10.107869,53.974949],[-10.107774,53.975037],[-10.107683,53.975131],[-10.107564,53.975251],[-10.107448,53.975228],[-10.107298,53.975184],[-10.10717,53.975145],[-10.107158,53.975142],[-10.10713,53.975134],[-10.107153,53.97559],[-10.107254,53.97564],[-10.107186,53.975673],[-10.107158,53.975688],[-10.10716,53.975741],[-10.107188,53.975726],[-10.107232,53.975704],[-10.107281,53.975678],[-10.107339,53.975637],[-10.107352,53.975628],[-10.107525,53.975766],[-10.10757,53.975801],[-10.107604,53.975764],[-10.107612,53.975755],[-10.107675,53.975689],[-10.107757,53.97559],[-10.107842,53.975476],[-10.107915,53.975385],[-10.10798,53.975295],[-10.108021,53.975238],[-10.108054,53.975191],[-10.108113,53.97511],[-10.108177,53.975024],[-10.107946,53.974989],[-10.107998,53.974939],[-10.108079,53.97485],[-10.108183,53.97474],[-10.108227,53.974702],[-10.108237,53.974692],[-10.108256,53.974683],[-10.108291,53.97467],[-10.108391,53.974625],[-10.108421,53.974602],[-10.108445,53.974592],[-10.108509,53.97458],[-10.10857,53.974581],[-10.108626,53.974579],[-10.108623,53.974516],[-10.108551,53.974525],[-10.108478,53.974533],[-10.108401,53.974545],[-10.108356,53.974558],[-10.108314,53.974577],[-10.108252,53.974611],[-10.108144,53.974644],[-10.108097,53.974659],[-10.108066,53.974717]]],[[[-10.125442,53.975529],[-10.125428,53.97554],[-10.125399,53.975563],[-10.125443,53.975562],[-10.125442,53.975529]]],[[[-10.125631,53.975559],[-10.125443,53.975562],[-10.125447,53.975627],[-10.125462,53.975634],[-10.125531,53.975662],[-10.125573,53.975606],[-10.125591,53.975591],[-10.125631,53.975559]]],[[[-10.12432,53.976508],[-10.124359,53.97648],[-10.124028,53.976486],[-10.123999,53.976529],[-10.12397,53.976554],[-10.123976,53.976671],[-10.12407,53.976607],[-10.12408,53.9766],[-10.124165,53.976591],[-10.124178,53.97658],[-10.124275,53.976527],[-10.124287,53.976522],[-10.12432,53.976508]]],[[[-10.107223,53.97698],[-10.107216,53.97685],[-10.107079,53.976923],[-10.106954,53.976992],[-10.106911,53.977016],[-10.107019,53.977048],[-10.107086,53.977067],[-10.107223,53.97698]]],[[[-10.127021,53.977139],[-10.127009,53.977152],[-10.127011,53.97716],[-10.127012,53.97717],[-10.127011,53.977176],[-10.127005,53.97718],[-10.127002,53.97719],[-10.127003,53.977198],[-10.127004,53.977218],[-10.126991,53.977229],[-10.127065,53.97736],[-10.127087,53.977398],[-10.127121,53.977459],[-10.127131,53.977399],[-10.127147,53.977329],[-10.127058,53.977331],[-10.127042,53.97702],[-10.127034,53.977031],[-10.127027,53.97704],[-10.127025,53.977054],[-10.127033,53.977058],[-10.127032,53.977065],[-10.127035,53.977073],[-10.127036,53.977085],[-10.127023,53.977104],[-10.12702,53.977117],[-10.127021,53.977139]]],[[[-10.129398,53.978399],[-10.129312,53.97828],[-10.129152,53.978123],[-10.129082,53.977952],[-10.128989,53.977869],[-10.128778,53.97778],[-10.128726,53.977733],[-10.128771,53.977594],[-10.128796,53.977465],[-10.128768,53.977419],[-10.128651,53.977369],[-10.128508,53.977343],[-10.128513,53.977305],[-10.12837,53.977308],[-10.128443,53.977423],[-10.128457,53.97743],[-10.128493,53.977452],[-10.128526,53.97747],[-10.128589,53.9775],[-10.128631,53.977519],[-10.12863,53.977543],[-10.1286,53.977565],[-10.128558,53.977596],[-10.128542,53.977611],[-10.128509,53.977636],[-10.128524,53.977652],[-10.128516,53.977691],[-10.128528,53.977718],[-10.128563,53.977762],[-10.128605,53.977801],[-10.128627,53.977817],[-10.128648,53.977832],[-10.128691,53.97786],[-10.128712,53.97788],[-10.128739,53.977908],[-10.128768,53.977928],[-10.128823,53.977953],[-10.128853,53.977966],[-10.128894,53.977993],[-10.128917,53.978014],[-10.128922,53.97803],[-10.128942,53.978071],[-10.128989,53.978129],[-10.12901,53.978138],[-10.129071,53.978192],[-10.129084,53.978262],[-10.129135,53.978342],[-10.129159,53.97837],[-10.12923,53.978454],[-10.12926,53.978485],[-10.129272,53.978504],[-10.129273,53.97852],[-10.129287,53.978539],[-10.129322,53.978568],[-10.12933,53.978589],[-10.129333,53.978605],[-10.129347,53.97862],[-10.129408,53.97872],[-10.129448,53.978793],[-10.129503,53.978839],[-10.129596,53.978921],[-10.129587,53.978934],[-10.129623,53.978994],[-10.129639,53.979016],[-10.129666,53.979026],[-10.129686,53.979034],[-10.129695,53.979056],[-10.129711,53.979101],[-10.129747,53.979153],[-10.129784,53.979194],[-10.129794,53.979216],[-10.129798,53.979222],[-10.129874,53.979278],[-10.129885,53.97928],[-10.129905,53.979288],[-10.129921,53.979306],[-10.129928,53.979347],[-10.129942,53.979384],[-10.129953,53.979422],[-10.129954,53.979427],[-10.129955,53.979433],[-10.129956,53.979451],[-10.129962,53.979509],[-10.129977,53.979549],[-10.129976,53.979584],[-10.129984,53.979607],[-10.130021,53.97964],[-10.130067,53.979662],[-10.130129,53.979689],[-10.130145,53.979694],[-10.130152,53.979725],[-10.130158,53.979746],[-10.130164,53.979765],[-10.13017,53.979783],[-10.130173,53.979793],[-10.130179,53.979802],[-10.13019,53.979819],[-10.130199,53.979833],[-10.130203,53.979836],[-10.130222,53.979851],[-10.130241,53.979867],[-10.130246,53.979871],[-10.130258,53.979883],[-10.130275,53.979899],[-10.130291,53.979915],[-10.130294,53.979918],[-10.130305,53.979932],[-10.130319,53.979949],[-10.130334,53.979968],[-10.130379,53.980005],[-10.130485,53.980105],[-10.130568,53.98016],[-10.130662,53.980171],[-10.130788,53.98026],[-10.130805,53.980299],[-10.130967,53.980412],[-10.131105,53.980495],[-10.131184,53.980501],[-10.13125,53.980577],[-10.13133,53.980692],[-10.131483,53.980874],[-10.131543,53.980912],[-10.131586,53.980942],[-10.131689,53.981048],[-10.131757,53.981103],[-10.131828,53.981143],[-10.131945,53.981254],[-10.132035,53.98132],[-10.132141,53.981336],[-10.132232,53.981412],[-10.132254,53.981446],[-10.132249,53.981603],[-10.132244,53.981627],[-10.132232,53.981657],[-10.132244,53.981676],[-10.13227,53.981716],[-10.132275,53.981722],[-10.132357,53.981694],[-10.132362,53.981717],[-10.132365,53.981722],[-10.132373,53.981726],[-10.132443,53.981733],[-10.132451,53.981735],[-10.132602,53.981784],[-10.1327,53.981812],[-10.132847,53.981859],[-10.1329,53.981885],[-10.132957,53.981932],[-10.133053,53.982004],[-10.133113,53.982024],[-10.133186,53.982025],[-10.133233,53.982045],[-10.133228,53.982111],[-10.13324,53.98214],[-10.133236,53.982155],[-10.133195,53.982184],[-10.133159,53.982191],[-10.133081,53.98219],[-10.132984,53.98219],[-10.132868,53.982177],[-10.132783,53.982191],[-10.132779,53.982247],[-10.132658,53.982268],[-10.132776,53.982405],[-10.13279,53.982421],[-10.132916,53.982518],[-10.132964,53.982614],[-10.133046,53.982673],[-10.133061,53.982669],[-10.133099,53.982747],[-10.133189,53.98291],[-10.133318,53.983097],[-10.133311,53.983168],[-10.133317,53.983202],[-10.133322,53.983274],[-10.133336,53.98333],[-10.13336,53.983356],[-10.13341,53.983439],[-10.133441,53.983475],[-10.133437,53.983517],[-10.133469,53.98354],[-10.133848,53.984016],[-10.13395,53.984139],[-10.13412,53.984143],[-10.134165,53.984174],[-10.13411,53.984236],[-10.134197,53.984218],[-10.134188,53.984257],[-10.134178,53.984322],[-10.134195,53.984344],[-10.134216,53.98436],[-10.134231,53.984394],[-10.134245,53.984423],[-10.134283,53.984461],[-10.134374,53.984504],[-10.134408,53.984543],[-10.134479,53.984586],[-10.134504,53.984602],[-10.134594,53.984725],[-10.134674,53.984814],[-10.134696,53.984848],[-10.134696,53.984849],[-10.134738,53.984906],[-10.134785,53.984959],[-10.134861,53.985041],[-10.134941,53.985115],[-10.134827,53.985165],[-10.134713,53.985182],[-10.13468,53.985188],[-10.134637,53.985196],[-10.13445,53.985233],[-10.134225,53.985255],[-10.134148,53.985132],[-10.134094,53.984987],[-10.134063,53.9849],[-10.133934,53.984675],[-10.13379,53.984495],[-10.133779,53.984408],[-10.133781,53.98433],[-10.13362,53.984396],[-10.133371,53.984464],[-10.133252,53.984496],[-10.133157,53.98452],[-10.133034,53.984298],[-10.132818,53.983848],[-10.132656,53.98356],[-10.132639,53.98353],[-10.132638,53.98351],[-10.132389,53.983549],[-10.132224,53.983598],[-10.132271,53.98367],[-10.132448,53.98395],[-10.132903,53.984601],[-10.132866,53.984611],[-10.132639,53.984678],[-10.132593,53.984691],[-10.13249,53.984722],[-10.1324,53.98475],[-10.13229,53.984774],[-10.131689,53.984901],[-10.131476,53.984946],[-10.131229,53.984986],[-10.131015,53.985021],[-10.130926,53.985035],[-10.130769,53.985061],[-10.130535,53.985099],[-10.130324,53.985133],[-10.130123,53.985166],[-10.12998,53.985189],[-10.129888,53.985208],[-10.129665,53.985255],[-10.129378,53.985283],[-10.129274,53.985293],[-10.128971,53.985339],[-10.128537,53.985399],[-10.128443,53.985042],[-10.128327,53.984657],[-10.128255,53.984413],[-10.128051,53.984452],[-10.127927,53.984482],[-10.127912,53.984466],[-10.127832,53.984345],[-10.127685,53.984187],[-10.127588,53.984076],[-10.127582,53.984081],[-10.127497,53.984134],[-10.127424,53.98416],[-10.1273,53.984181],[-10.127219,53.98419],[-10.127216,53.984191],[-10.126953,53.984211],[-10.126316,53.984259],[-10.12613,53.984261],[-10.125974,53.984232],[-10.125895,53.984171],[-10.125865,53.984082],[-10.125889,53.983934],[-10.126006,53.98367],[-10.126127,53.983468],[-10.126146,53.983431],[-10.126547,53.983453],[-10.126728,53.983452],[-10.126894,53.983441],[-10.127012,53.98343],[-10.126915,53.983314],[-10.127015,53.983283],[-10.12728,53.983192],[-10.12755,53.983114],[-10.127707,53.983081],[-10.127647,53.982897],[-10.127567,53.982635],[-10.127494,53.982387],[-10.127451,53.982204],[-10.12741,53.982061],[-10.127364,53.981941],[-10.127339,53.981878],[-10.127279,53.981756],[-10.127129,53.98175],[-10.126938,53.981743],[-10.126819,53.981739],[-10.126734,53.981733],[-10.126509,53.981678],[-10.126378,53.981611],[-10.126318,53.981584],[-10.126241,53.981553],[-10.126249,53.981615],[-10.126274,53.981672],[-10.126293,53.981714],[-10.126298,53.981776],[-10.126305,53.981841],[-10.12635,53.981882],[-10.126349,53.981914],[-10.126355,53.981994],[-10.12635,53.982022],[-10.126347,53.982035],[-10.126365,53.982038],[-10.126376,53.982051],[-10.126323,53.982168],[-10.126267,53.982285],[-10.126241,53.982302],[-10.126249,53.982328],[-10.126234,53.982345],[-10.126213,53.982394],[-10.126221,53.98246],[-10.126205,53.982517],[-10.126221,53.9826],[-10.126247,53.982678],[-10.126264,53.982773],[-10.126289,53.98283],[-10.12628,53.982853],[-10.126234,53.982877],[-10.126213,53.983055],[-10.126161,53.983276],[-10.125454,53.98331],[-10.124828,53.983234],[-10.124505,53.983184],[-10.124604,53.983084],[-10.124739,53.982912],[-10.124753,53.982894],[-10.124739,53.982795],[-10.124682,53.982612],[-10.124692,53.982585],[-10.124741,53.982445],[-10.124805,53.982352],[-10.124994,53.982073],[-10.12503,53.981963],[-10.124961,53.981809],[-10.124855,53.981602],[-10.124895,53.981555],[-10.125279,53.981365],[-10.125527,53.98122],[-10.125535,53.98121],[-10.125697,53.981001],[-10.125798,53.980878],[-10.125955,53.980688],[-10.126119,53.980363],[-10.126132,53.980383],[-10.126156,53.980358],[-10.126174,53.980335],[-10.126328,53.980222],[-10.126276,53.980144],[-10.126236,53.980009],[-10.126204,53.979939],[-10.126192,53.979891],[-10.126193,53.979863],[-10.126206,53.979832],[-10.126178,53.979783],[-10.126114,53.979668],[-10.125996,53.979544],[-10.126003,53.979578],[-10.125996,53.979599],[-10.125992,53.979606],[-10.125964,53.979657],[-10.125959,53.979668],[-10.125888,53.979725],[-10.125779,53.979821],[-10.125788,53.979848],[-10.125854,53.979847],[-10.125858,53.979903],[-10.125848,53.979919],[-10.125851,53.97993],[-10.125855,53.979939],[-10.125859,53.979948],[-10.125859,53.979957],[-10.125859,53.979962],[-10.125857,53.97997],[-10.125857,53.979976],[-10.125858,53.979979],[-10.12586,53.979986],[-10.125858,53.979995],[-10.125858,53.979997],[-10.125861,53.980013],[-10.125862,53.980019],[-10.125869,53.980047],[-10.125864,53.980127],[-10.125869,53.980193],[-10.125838,53.980283],[-10.125819,53.980306],[-10.125791,53.980347],[-10.12575,53.980431],[-10.125715,53.980469],[-10.125684,53.980516],[-10.125622,53.980543],[-10.125602,53.980598],[-10.125564,53.980642],[-10.125517,53.980795],[-10.125454,53.980912],[-10.125416,53.980988],[-10.125348,53.981037],[-10.125289,53.981078],[-10.125213,53.981153],[-10.125142,53.981207],[-10.1251,53.981238],[-10.124702,53.981181],[-10.124402,53.981122],[-10.124268,53.981105],[-10.124135,53.981095],[-10.124024,53.981072],[-10.123924,53.981054],[-10.123811,53.981041],[-10.123696,53.981038],[-10.123588,53.981048],[-10.123433,53.981127],[-10.123277,53.981216],[-10.123134,53.981273],[-10.122971,53.981318],[-10.122907,53.981324],[-10.122834,53.981323],[-10.122847,53.981348],[-10.122606,53.981349],[-10.122398,53.981358],[-10.122357,53.981361],[-10.122352,53.981362],[-10.122283,53.981371],[-10.122271,53.981373],[-10.122228,53.981383],[-10.122185,53.9814],[-10.122098,53.981428],[-10.122078,53.981436],[-10.122004,53.981465],[-10.12195,53.98149],[-10.121887,53.981527],[-10.121836,53.981576],[-10.121822,53.981587],[-10.121805,53.981597],[-10.121773,53.981613],[-10.121665,53.981654],[-10.121582,53.981685],[-10.12157,53.981689],[-10.121557,53.981691],[-10.121402,53.981706],[-10.121321,53.981715],[-10.121245,53.98172],[-10.121159,53.981738],[-10.121076,53.981769],[-10.121027,53.981778],[-10.121009,53.981779],[-10.120996,53.98177],[-10.120979,53.981768],[-10.120793,53.981783],[-10.120575,53.9818],[-10.120565,53.9818],[-10.120538,53.981788],[-10.120491,53.981759],[-10.120428,53.98173],[-10.120273,53.981696],[-10.120251,53.981694],[-10.11988,53.98166],[-10.119586,53.981602],[-10.119314,53.981583],[-10.119063,53.981606],[-10.118782,53.981678],[-10.118927,53.981854],[-10.119187,53.981669],[-10.119269,53.981677],[-10.119367,53.981724],[-10.119956,53.981801],[-10.120119,53.981792],[-10.120273,53.981831],[-10.120413,53.981831],[-10.12047,53.981884],[-10.120694,53.981882],[-10.120719,53.981843],[-10.120754,53.981844],[-10.121015,53.981814],[-10.121401,53.981783],[-10.121392,53.981732],[-10.12139,53.981719],[-10.121578,53.981698],[-10.12179,53.981622],[-10.121929,53.98152],[-10.121935,53.981517],[-10.122007,53.981475],[-10.12213,53.981432],[-10.122342,53.981435],[-10.122452,53.98144],[-10.122664,53.98142],[-10.122879,53.981412],[-10.123103,53.981404],[-10.123286,53.981342],[-10.123471,53.981278],[-10.123574,53.981234],[-10.123657,53.98116],[-10.12371,53.981137],[-10.123853,53.981149],[-10.123959,53.981155],[-10.124045,53.981175],[-10.124132,53.981211],[-10.124252,53.981215],[-10.124336,53.981205],[-10.124466,53.981205],[-10.124532,53.981223],[-10.124601,53.981246],[-10.124707,53.981295],[-10.124758,53.981346],[-10.124766,53.981365],[-10.124767,53.981375],[-10.124669,53.981392],[-10.124625,53.981391],[-10.124553,53.981429],[-10.124498,53.981469],[-10.124469,53.981484],[-10.124461,53.981569],[-10.124475,53.981615],[-10.124453,53.98164],[-10.124413,53.981662],[-10.124501,53.981744],[-10.124588,53.981825],[-10.12469,53.981969],[-10.124491,53.98203],[-10.124361,53.982068],[-10.12429,53.982075],[-10.124161,53.982118],[-10.124006,53.982139],[-10.123848,53.982172],[-10.123677,53.982207],[-10.123649,53.982216],[-10.123501,53.982261],[-10.123394,53.982286],[-10.123301,53.982318],[-10.123173,53.982386],[-10.122932,53.982533],[-10.122825,53.982607],[-10.12271,53.982661],[-10.122532,53.982728],[-10.122202,53.982871],[-10.122053,53.982781],[-10.121838,53.982865],[-10.121695,53.982965],[-10.12155,53.98308],[-10.121461,53.983108],[-10.121373,53.983164],[-10.121305,53.983209],[-10.121085,53.983375],[-10.120984,53.983287],[-10.120812,53.983397],[-10.120689,53.983486],[-10.120631,53.983541],[-10.120509,53.983677],[-10.120469,53.983721],[-10.120414,53.983783],[-10.120277,53.983956],[-10.120197,53.984032],[-10.120159,53.984067],[-10.120022,53.984188],[-10.119915,53.984271],[-10.119893,53.984288],[-10.119799,53.98436],[-10.119667,53.984464],[-10.119279,53.984067],[-10.119056,53.983801],[-10.118937,53.983653],[-10.118798,53.983481],[-10.118568,53.983214],[-10.118233,53.98281],[-10.118024,53.982546],[-10.11794,53.982413],[-10.117928,53.982392],[-10.11774,53.982427],[-10.117559,53.982452],[-10.117447,53.982429],[-10.117354,53.982403],[-10.117285,53.98236],[-10.117225,53.982305],[-10.117231,53.982344],[-10.11724,53.982471],[-10.117117,53.9825],[-10.117065,53.982583],[-10.117055,53.982636],[-10.11701,53.982716],[-10.11694,53.982831],[-10.11687,53.982907],[-10.116177,53.982812],[-10.116201,53.98273],[-10.116156,53.982524],[-10.116152,53.982494],[-10.11572,53.982518],[-10.115569,53.982543],[-10.115386,53.982542],[-10.115124,53.982478],[-10.115075,53.982467],[-10.115401,53.982286],[-10.115822,53.982037],[-10.11599,53.982038],[-10.116177,53.98207],[-10.116206,53.982076],[-10.116325,53.982107],[-10.116344,53.982115],[-10.116351,53.982126],[-10.116354,53.982141],[-10.116341,53.982203],[-10.116338,53.982249],[-10.116341,53.982294],[-10.11667,53.982284],[-10.116673,53.982265],[-10.116709,53.982028],[-10.117405,53.981974],[-10.117938,53.981917],[-10.118285,53.981826],[-10.118309,53.98179],[-10.118324,53.981783],[-10.118327,53.981781],[-10.118359,53.981764],[-10.118295,53.981725],[-10.118288,53.98172],[-10.11822,53.981678],[-10.11811,53.981655],[-10.117947,53.981653],[-10.117518,53.98169],[-10.117416,53.981692],[-10.117367,53.981721],[-10.116846,53.981811],[-10.11626,53.981929],[-10.116132,53.981879],[-10.116094,53.981862],[-10.116065,53.98185],[-10.116343,53.98167],[-10.116699,53.981395],[-10.117058,53.981138],[-10.117216,53.981026],[-10.117249,53.981003],[-10.117425,53.980887],[-10.117877,53.980588],[-10.11801,53.980509],[-10.118439,53.980254],[-10.118571,53.980176],[-10.118727,53.98008],[-10.118865,53.980001],[-10.118947,53.979949],[-10.119085,53.979863],[-10.119208,53.979793],[-10.119267,53.979755],[-10.119332,53.979709],[-10.119389,53.979672],[-10.119691,53.979577],[-10.119726,53.979556],[-10.119755,53.979532],[-10.119794,53.979499],[-10.119844,53.979472],[-10.119916,53.979433],[-10.119961,53.9794],[-10.120014,53.97936],[-10.120303,53.979177],[-10.120327,53.979152],[-10.12042,53.979093],[-10.120583,53.978995],[-10.120594,53.978988],[-10.120691,53.978941],[-10.120722,53.978894],[-10.120777,53.978872],[-10.1208,53.978849],[-10.120906,53.978778],[-10.12103,53.9787],[-10.121109,53.978655],[-10.121091,53.978639],[-10.121141,53.978608],[-10.121249,53.978537],[-10.12138,53.978478],[-10.121389,53.978472],[-10.121539,53.978367],[-10.121672,53.978282],[-10.121779,53.97821],[-10.121817,53.978182],[-10.12193,53.978107],[-10.121943,53.978107],[-10.121955,53.978106],[-10.121974,53.978096],[-10.122003,53.978072],[-10.122057,53.978028],[-10.122086,53.978009],[-10.122119,53.97799],[-10.122173,53.977951],[-10.122239,53.977904],[-10.12231,53.977854],[-10.1223,53.977844],[-10.122384,53.977786],[-10.12252,53.977708],[-10.122587,53.977652],[-10.122764,53.977528],[-10.122783,53.977514],[-10.122838,53.977473],[-10.122858,53.977459],[-10.122929,53.977409],[-10.122937,53.977404],[-10.122666,53.977409],[-10.122556,53.977463],[-10.122478,53.977517],[-10.122378,53.977579],[-10.122222,53.977697],[-10.122057,53.977828],[-10.121888,53.977901],[-10.121787,53.977937],[-10.121706,53.977999],[-10.12164,53.978051],[-10.121562,53.978162],[-10.121453,53.978231],[-10.121255,53.97827],[-10.121145,53.978343],[-10.121083,53.97849],[-10.120963,53.978585],[-10.120816,53.978641],[-10.12067,53.978686],[-10.120593,53.978749],[-10.120538,53.97882],[-10.120415,53.978931],[-10.120234,53.979026],[-10.11994,53.979203],[-10.119684,53.979351],[-10.119485,53.979456],[-10.119407,53.979528],[-10.119347,53.97958],[-10.119145,53.979683],[-10.119045,53.979745],[-10.118982,53.979808],[-10.118928,53.979841],[-10.118825,53.979869],[-10.118677,53.979915],[-10.118365,53.980094],[-10.118123,53.980265],[-10.117913,53.980417],[-10.117832,53.980491],[-10.117656,53.980546],[-10.117591,53.980581],[-10.117567,53.980629],[-10.117505,53.980671],[-10.117431,53.980691],[-10.117376,53.980746],[-10.117314,53.980809],[-10.117231,53.980883],[-10.117204,53.980891],[-10.11707,53.980945],[-10.116937,53.981007],[-10.116827,53.981115],[-10.116783,53.981165],[-10.116735,53.98126],[-10.116604,53.981357],[-10.116377,53.98144],[-10.116198,53.981493],[-10.116146,53.981563],[-10.11606,53.981601],[-10.115634,53.981501],[-10.115954,53.981271],[-10.116158,53.981135],[-10.115986,53.981007],[-10.115842,53.980884],[-10.1157,53.980802],[-10.115642,53.980796],[-10.115347,53.980672],[-10.115349,53.980656],[-10.115526,53.980552],[-10.115743,53.98041],[-10.116004,53.980221],[-10.116035,53.980201],[-10.116126,53.980143],[-10.116146,53.980128],[-10.115939,53.980041],[-10.115745,53.97996],[-10.115548,53.980086],[-10.115369,53.980186],[-10.115291,53.980233],[-10.115159,53.980325],[-10.115065,53.980237],[-10.115064,53.980237],[-10.114912,53.980102],[-10.114875,53.98007],[-10.114772,53.979981],[-10.114765,53.979974],[-10.11464,53.979865],[-10.115013,53.979784],[-10.115105,53.97986],[-10.115195,53.97983],[-10.115268,53.979801],[-10.115339,53.979765],[-10.115224,53.979725],[-10.115111,53.979602],[-10.115025,53.979508],[-10.114937,53.979476],[-10.114924,53.979463],[-10.11491,53.97945],[-10.114739,53.979279],[-10.114524,53.979428],[-10.114522,53.979429],[-10.114186,53.979657],[-10.113925,53.979839],[-10.112871,53.980031],[-10.112179,53.980125],[-10.112181,53.980081],[-10.112191,53.979991],[-10.112196,53.979944],[-10.11222,53.979864],[-10.11229,53.979676],[-10.112333,53.979602],[-10.113465,53.979438],[-10.113504,53.979415],[-10.113523,53.979426],[-10.114022,53.979138],[-10.114072,53.979109],[-10.114451,53.978894],[-10.114373,53.978785],[-10.114342,53.978741],[-10.114305,53.978689],[-10.114146,53.978779],[-10.11395,53.978893],[-10.113741,53.978719],[-10.113829,53.978662],[-10.114034,53.978529],[-10.114104,53.978477],[-10.114133,53.97846],[-10.114136,53.978457],[-10.11272,53.978482],[-10.112697,53.978549],[-10.112684,53.978584],[-10.112669,53.978634],[-10.112647,53.978634],[-10.112622,53.978709],[-10.112598,53.978775],[-10.112575,53.978833],[-10.112541,53.978909],[-10.112488,53.979045],[-10.112475,53.979078],[-10.112462,53.979113],[-10.112453,53.979137],[-10.110495,53.979061],[-10.110403,53.979477],[-10.110322,53.979823],[-10.110765,53.979842],[-10.111381,53.979861],[-10.112105,53.979888],[-10.112167,53.979892],[-10.112152,53.979948],[-10.112141,53.980013],[-10.112137,53.98009],[-10.112134,53.980197],[-10.112131,53.980257],[-10.112129,53.980289],[-10.112119,53.980628],[-10.110153,53.980543],[-10.110082,53.980876],[-10.109844,53.980779],[-10.109582,53.980672],[-10.110077,53.978485],[-10.110159,53.978113],[-10.110188,53.978115],[-10.110749,53.978141],[-10.111703,53.978184],[-10.111857,53.978191],[-10.111828,53.9776],[-10.111115,53.977612],[-10.111104,53.977641],[-10.11109,53.977667],[-10.111078,53.977613],[-10.11098,53.977614],[-10.111021,53.977725],[-10.111037,53.977794],[-10.111048,53.977839],[-10.110873,53.977826],[-10.110825,53.977853],[-10.110781,53.97785],[-10.110271,53.97781],[-10.110321,53.977626],[-10.108918,53.977651],[-10.108852,53.977838],[-10.108639,53.977797],[-10.108568,53.977657],[-10.107331,53.977678],[-10.107152,53.977787],[-10.107101,53.978234],[-10.107071,53.978723],[-10.107015,53.979332],[-10.106682,53.979397],[-10.106521,53.978976],[-10.106444,53.978783],[-10.106216,53.978207],[-10.106144,53.978035],[-10.106005,53.9777],[-10.105999,53.977687],[-10.105967,53.977609],[-10.105945,53.977623],[-10.105778,53.977742],[-10.105633,53.977844],[-10.105461,53.977948],[-10.105375,53.978003],[-10.105237,53.978087],[-10.10503,53.977976],[-10.104901,53.977903],[-10.104779,53.977832],[-10.10468,53.977769],[-10.104606,53.977725],[-10.104519,53.977674],[-10.104399,53.977607],[-10.104365,53.977588],[-10.104286,53.977543],[-10.1042,53.977493],[-10.104247,53.978429],[-10.10433,53.978428],[-10.104357,53.978967],[-10.104275,53.978968],[-10.104303,53.979529],[-10.101257,53.979582],[-10.101211,53.978684],[-10.102512,53.978661],[-10.102502,53.97846],[-10.102488,53.978191],[-10.102711,53.978187],[-10.102689,53.97776],[-10.101271,53.977785],[-10.100883,53.978127],[-10.100883,53.97883],[-10.100884,53.97892],[-10.10089,53.979493],[-10.100894,53.979811],[-10.10089,53.979961],[-10.100882,53.980307],[-10.101892,53.98026],[-10.10186,53.980374],[-10.101746,53.980794],[-10.100887,53.980881],[-10.100888,53.980957],[-10.100889,53.980975],[-10.1009,53.98128],[-10.100909,53.981489],[-10.100914,53.981615],[-10.100912,53.981965],[-10.1008,53.98214],[-10.100805,53.982413],[-10.100812,53.982795],[-10.100812,53.982914],[-10.100812,53.982958],[-10.100786,53.983192],[-10.100479,53.983484],[-10.100374,53.983595],[-10.100137,53.983846],[-10.099925,53.984055],[-10.099829,53.984154],[-10.09951,53.984481],[-10.099044,53.984945],[-10.098601,53.985386],[-10.098438,53.985542],[-10.098741,53.985536],[-10.098754,53.985806],[-10.099212,53.985798],[-10.099198,53.985528],[-10.099655,53.98552],[-10.099628,53.984982],[-10.100085,53.984974],[-10.100072,53.984704],[-10.100529,53.984696],[-10.100515,53.984427],[-10.100972,53.984419],[-10.100959,53.984149],[-10.100945,53.98388],[-10.101402,53.983872],[-10.101375,53.983333],[-10.101832,53.983325],[-10.101791,53.982517],[-10.102248,53.982509],[-10.102235,53.98224],[-10.102221,53.98197],[-10.102678,53.981962],[-10.102651,53.981423],[-10.103108,53.981415],[-10.103095,53.981146],[-10.103552,53.981138],[-10.103565,53.981407],[-10.104479,53.981391],[-10.104507,53.98193],[-10.10452,53.9822],[-10.104063,53.982208],[-10.104077,53.982477],[-10.104117,53.983285],[-10.10366,53.983293],[-10.103688,53.983832],[-10.103701,53.984101],[-10.103244,53.984109],[-10.103258,53.984379],[-10.103271,53.984648],[-10.102814,53.984656],[-10.102828,53.984926],[-10.102371,53.984934],[-10.102398,53.985472],[-10.101941,53.98548],[-10.101954,53.98575],[-10.101968,53.986019],[-10.101511,53.986027],[-10.101524,53.986297],[-10.101067,53.986305],[-10.101108,53.987113],[-10.100651,53.987121],[-10.100664,53.98739],[-10.100207,53.987398],[-10.100234,53.987937],[-10.099777,53.987945],[-10.099791,53.988214],[-10.099804,53.988484],[-10.099347,53.988492],[-10.099361,53.988761],[-10.098903,53.988769],[-10.098917,53.989038],[-10.09846,53.989046],[-10.098501,53.989855],[-10.098514,53.990124],[-10.098971,53.990116],[-10.098985,53.990385],[-10.098998,53.990655],[-10.099012,53.990924],[-10.099025,53.991194],[-10.098111,53.99121],[-10.098125,53.991479],[-10.097668,53.991487],[-10.097681,53.991756],[-10.097695,53.992026],[-10.097237,53.992034],[-10.097251,53.992303],[-10.096794,53.992311],[-10.096848,53.993389],[-10.096862,53.993658],[-10.095947,53.993674],[-10.095974,53.994213],[-10.095988,53.994482],[-10.096001,53.994752],[-10.095854,53.994754],[-10.095878,53.994823],[-10.095915,53.994947],[-10.095953,53.995039],[-10.095938,53.995127],[-10.095912,53.995192],[-10.095872,53.995231],[-10.095755,53.995306],[-10.095629,53.99539],[-10.095614,53.995404],[-10.095428,53.995337],[-10.095332,53.995313],[-10.095189,53.995429],[-10.095082,53.995492],[-10.094956,53.995545],[-10.094728,53.995619],[-10.094545,53.995679],[-10.094323,53.995762],[-10.094208,53.995772],[-10.094178,53.995775],[-10.094126,53.995771],[-10.09399,53.995838],[-10.0938,53.995915],[-10.093554,53.995973],[-10.093264,53.995998],[-10.09278,53.995998],[-10.092276,53.995992],[-10.091959,53.99605],[-10.091793,53.996078],[-10.091739,53.996074],[-10.09161,53.996087],[-10.091282,53.996113],[-10.091237,53.996099],[-10.091203,53.996088],[-10.09095,53.996122],[-10.090991,53.996253],[-10.090962,53.996268],[-10.091015,53.996396],[-10.091027,53.996437],[-10.091033,53.996461],[-10.091132,53.996456],[-10.091151,53.996478],[-10.091263,53.996591],[-10.091348,53.996727],[-10.091406,53.996841],[-10.091439,53.996871],[-10.091502,53.997131],[-10.091477,53.997194],[-10.091517,53.997182],[-10.091529,53.997137],[-10.091502,53.997017],[-10.091472,53.996881],[-10.091412,53.996807],[-10.09157,53.996802],[-10.091539,53.996697],[-10.091476,53.996703],[-10.091441,53.996614],[-10.091416,53.996553],[-10.091489,53.996547],[-10.091502,53.996562],[-10.09155,53.996512],[-10.091793,53.996508],[-10.091781,53.996442],[-10.091937,53.996433],[-10.092007,53.996429],[-10.091994,53.996527],[-10.091977,53.996655],[-10.092033,53.996652],[-10.092011,53.996407],[-10.092592,53.996373],[-10.093435,53.99633],[-10.093429,53.996352],[-10.093927,53.996324],[-10.094131,53.996312],[-10.094334,53.996309],[-10.094199,53.996559],[-10.094147,53.996686],[-10.094278,53.996676],[-10.094475,53.996347],[-10.094452,53.995875],[-10.095975,53.995849],[-10.095991,53.996156],[-10.096043,53.996142],[-10.096121,53.996125],[-10.096259,53.996094],[-10.096399,53.996063],[-10.096513,53.996102],[-10.096626,53.996123],[-10.096763,53.996158],[-10.096828,53.996208],[-10.096915,53.996268],[-10.097077,53.996319],[-10.097212,53.996359],[-10.097444,53.99644],[-10.097505,53.996456],[-10.097606,53.99646],[-10.097679,53.996455],[-10.097745,53.996456],[-10.097856,53.996468],[-10.098001,53.996496],[-10.098094,53.996516],[-10.098151,53.996532],[-10.098249,53.996558],[-10.09832,53.996565],[-10.098428,53.996561],[-10.09854,53.99653],[-10.098633,53.996498],[-10.098702,53.996463],[-10.098823,53.996429],[-10.098927,53.996413],[-10.099038,53.996392],[-10.099053,53.996387],[-10.099025,53.995841],[-10.098361,53.99638],[-10.097668,53.995982],[-10.098832,53.995001],[-10.098973,53.994813],[-10.098933,53.994],[-10.099624,53.993988],[-10.099618,53.99388],[-10.099616,53.993831],[-10.099547,53.993734],[-10.099477,53.993552],[-10.099481,53.993505],[-10.099548,53.993359],[-10.09958,53.99329],[-10.09993,53.992585],[-10.100122,53.992172],[-10.10015,53.992122],[-10.10021,53.992016],[-10.100299,53.991918],[-10.100525,53.991667],[-10.100767,53.991426],[-10.1009,53.991295],[-10.10112,53.991081],[-10.101447,53.991429],[-10.101744,53.991746],[-10.102238,53.991631],[-10.102141,53.991291],[-10.102934,53.991172],[-10.10325,53.991484],[-10.111399,53.989006],[-10.111638,53.989147],[-10.111658,53.98914],[-10.111673,53.989134],[-10.112844,53.988737],[-10.113357,53.988583],[-10.113654,53.988546],[-10.11498,53.988126],[-10.115607,53.988969],[-10.116365,53.988893],[-10.116365,53.988894],[-10.118711,53.988853],[-10.118756,53.988852],[-10.118759,53.988852],[-10.118782,53.988851],[-10.118978,53.988848],[-10.120012,53.988838],[-10.120276,53.988226],[-10.120295,53.988109],[-10.120407,53.987413],[-10.119524,53.987013],[-10.120715,53.986641],[-10.120904,53.986582],[-10.12106,53.986533],[-10.121812,53.985621],[-10.122265,53.985305],[-10.122275,53.985501],[-10.122302,53.985932],[-10.122357,53.986323],[-10.122362,53.986705],[-10.122363,53.986774],[-10.121985,53.987858],[-10.122948,53.987842],[-10.12317,53.987394],[-10.123315,53.987281],[-10.123322,53.987257],[-10.12337,53.987218],[-10.123688,53.986926],[-10.123879,53.986752],[-10.123901,53.986751],[-10.124464,53.986729],[-10.125598,53.986668],[-10.127042,53.986598],[-10.128461,53.986519],[-10.130012,53.986437],[-10.131008,53.986386],[-10.132098,53.986323],[-10.133586,53.986253],[-10.134574,53.98621],[-10.135054,53.986192],[-10.135185,53.986176],[-10.13539,53.986137],[-10.1356,53.986085],[-10.135685,53.986075],[-10.135749,53.986075],[-10.135898,53.986015],[-10.135945,53.986041],[-10.136,53.986087],[-10.136049,53.986172],[-10.136136,53.986252],[-10.136285,53.986466],[-10.136334,53.986536],[-10.136398,53.986569],[-10.136788,53.986677],[-10.136853,53.986725],[-10.13686,53.986763],[-10.13686,53.986816],[-10.136874,53.986841],[-10.136889,53.98687],[-10.136905,53.986878],[-10.13697,53.986913],[-10.137134,53.986987],[-10.137466,53.986833],[-10.137765,53.986674],[-10.138387,53.986342],[-10.138968,53.986036],[-10.139707,53.985658],[-10.139955,53.985541],[-10.14028,53.985362],[-10.14036,53.985318],[-10.141156,53.98491],[-10.141288,53.984841],[-10.140783,53.984412],[-10.140168,53.983902],[-10.140157,53.983892],[-10.14012,53.983862],[-10.140119,53.983861],[-10.139858,53.983644],[-10.139771,53.983567],[-10.139188,53.983047],[-10.139014,53.982887],[-10.139004,53.982878],[-10.13885,53.982935],[-10.138487,53.983071],[-10.138125,53.983204],[-10.137997,53.983252],[-10.13777,53.983337],[-10.137522,53.983429],[-10.137388,53.98348],[-10.137033,53.983616],[-10.13735,53.983965],[-10.137944,53.984622],[-10.138092,53.984776],[-10.138147,53.984838],[-10.138195,53.984902],[-10.137856,53.985078],[-10.137843,53.985084],[-10.137548,53.985219],[-10.136416,53.983827],[-10.136373,53.983842],[-10.136279,53.983932],[-10.135802,53.983916],[-10.13551,53.983907],[-10.135268,53.983899],[-10.135573,53.984253],[-10.135691,53.984376],[-10.135844,53.984563],[-10.136035,53.984782],[-10.136256,53.985062],[-10.136646,53.98561],[-10.136326,53.985743],[-10.135922,53.985903],[-10.135867,53.985927],[-10.135606,53.985506],[-10.135395,53.985327],[-10.13507,53.985015],[-10.134983,53.984796],[-10.134953,53.98477],[-10.134886,53.984735],[-10.134773,53.984641],[-10.134697,53.984562],[-10.134681,53.984549],[-10.134629,53.984509],[-10.134504,53.98445],[-10.134428,53.984412],[-10.134392,53.984395],[-10.134329,53.984352],[-10.134319,53.984277],[-10.134301,53.984216],[-10.134282,53.984105],[-10.133977,53.98398],[-10.133914,53.98377],[-10.133922,53.983729],[-10.133908,53.983682],[-10.133905,53.983631],[-10.133866,53.983599],[-10.133763,53.983633],[-10.133527,53.983515],[-10.133578,53.983345],[-10.133628,53.983148],[-10.133591,53.983148],[-10.133532,53.983119],[-10.133473,53.983064],[-10.133366,53.982883],[-10.133227,53.98262],[-10.13307,53.982423],[-10.133007,53.982418],[-10.132983,53.982388],[-10.132907,53.982337],[-10.132833,53.98227],[-10.132819,53.982244],[-10.132822,53.982209],[-10.13287,53.982201],[-10.13298,53.982214],[-10.13308,53.982214],[-10.133165,53.982214],[-10.133218,53.982205],[-10.133229,53.982197],[-10.133274,53.982165],[-10.133324,53.982149],[-10.133318,53.982141],[-10.133271,53.982077],[-10.133229,53.981992],[-10.133124,53.98192],[-10.133053,53.981907],[-10.13293,53.981869],[-10.13287,53.981839],[-10.132718,53.981791],[-10.132621,53.981763],[-10.132494,53.981722],[-10.132457,53.981573],[-10.132435,53.981496],[-10.13235,53.981355],[-10.132297,53.981276],[-10.132154,53.98128],[-10.132144,53.981277],[-10.132055,53.981251],[-10.132047,53.981247],[-10.132022,53.981217],[-10.13197,53.981166],[-10.131968,53.981137],[-10.131931,53.981077],[-10.131864,53.981025],[-10.131712,53.980802],[-10.131652,53.980775],[-10.131624,53.980717],[-10.13161,53.980656],[-10.131565,53.980555],[-10.131481,53.980376],[-10.131482,53.98035],[-10.131439,53.98037],[-10.131423,53.980373],[-10.131382,53.98038],[-10.131317,53.980365],[-10.131237,53.98034],[-10.131195,53.980322],[-10.131115,53.980299],[-10.131066,53.980281],[-10.131027,53.980265],[-10.131016,53.980247],[-10.130943,53.980269],[-10.13085,53.980212],[-10.130652,53.980054],[-10.130498,53.979965],[-10.130492,53.97996],[-10.130437,53.979913],[-10.13037,53.979852],[-10.130318,53.979801],[-10.130307,53.97978],[-10.130276,53.979713],[-10.130264,53.979682],[-10.130244,53.97965],[-10.130207,53.979599],[-10.130162,53.979544],[-10.130133,53.979501],[-10.130113,53.979462],[-10.130094,53.979402],[-10.130071,53.979351],[-10.130036,53.979303],[-10.13,53.979262],[-10.129954,53.979214],[-10.12989,53.979163],[-10.129862,53.97913],[-10.129858,53.979127],[-10.129851,53.979113],[-10.129845,53.9791],[-10.129843,53.979094],[-10.129837,53.979076],[-10.129833,53.979062],[-10.129833,53.979057],[-10.129833,53.979038],[-10.129833,53.979019],[-10.129832,53.979001],[-10.129832,53.978985],[-10.129833,53.978982],[-10.129836,53.978963],[-10.129839,53.978944],[-10.129842,53.978925],[-10.129845,53.978906],[-10.129845,53.978887],[-10.129849,53.978869],[-10.129629,53.978746],[-10.129558,53.978667],[-10.129555,53.97866],[-10.129548,53.978641],[-10.129542,53.978625],[-10.129541,53.978623],[-10.129529,53.978605],[-10.129518,53.978588],[-10.129516,53.978585],[-10.129505,53.978571],[-10.129492,53.978553],[-10.129478,53.978536],[-10.129476,53.978517],[-10.129476,53.97851],[-10.12947,53.978499],[-10.129462,53.978482],[-10.129456,53.978463],[-10.12945,53.978444],[-10.129448,53.978438],[-10.129436,53.978428],[-10.129417,53.978413],[-10.129398,53.978399]],[[-10.112286,53.982368],[-10.112405,53.982363],[-10.112598,53.982407],[-10.112779,53.982465],[-10.112943,53.982478],[-10.113053,53.982343],[-10.113121,53.98225],[-10.11318,53.982125],[-10.113167,53.981993],[-10.113217,53.981922],[-10.113244,53.981873],[-10.113304,53.981818],[-10.113338,53.981782],[-10.113424,53.981785],[-10.113498,53.981764],[-10.113548,53.98175],[-10.113649,53.98177],[-10.113868,53.981817],[-10.113905,53.981801],[-10.113965,53.981788],[-10.114031,53.981803],[-10.114148,53.981867],[-10.114245,53.981883],[-10.1144,53.981859],[-10.114556,53.981864],[-10.114687,53.98187],[-10.114779,53.981836],[-10.114824,53.981949],[-10.114924,53.981979],[-10.115043,53.981976],[-10.115134,53.982012],[-10.115251,53.982051],[-10.11524,53.982061],[-10.115127,53.98216],[-10.115059,53.982218],[-10.115043,53.982226],[-10.114931,53.982311],[-10.114883,53.982365],[-10.114771,53.982406],[-10.114565,53.982534],[-10.114523,53.982685],[-10.114391,53.982789],[-10.114235,53.982865],[-10.114059,53.982987],[-10.113655,53.982982],[-10.113458,53.982982],[-10.112867,53.982983],[-10.112679,53.98299],[-10.112593,53.982994],[-10.112293,53.982997],[-10.111942,53.982987],[-10.111569,53.982972],[-10.111345,53.98297],[-10.110985,53.982993],[-10.110614,53.983036],[-10.110394,53.98305],[-10.110249,53.98306],[-10.109588,53.983098],[-10.109374,53.983106],[-10.109351,53.982766],[-10.109345,53.982469],[-10.109189,53.982462],[-10.109166,53.982049],[-10.109146,53.981859],[-10.109493,53.981817],[-10.109709,53.981839],[-10.11036,53.981904],[-10.111383,53.981995],[-10.112169,53.982048],[-10.112202,53.98205],[-10.112215,53.982134],[-10.112261,53.98237],[-10.112286,53.982368]],[[-10.121409,53.985453],[-10.121728,53.985572],[-10.120857,53.986537],[-10.120635,53.98643],[-10.120504,53.986367],[-10.119824,53.986053],[-10.118023,53.985199],[-10.118389,53.985041],[-10.118492,53.984994],[-10.118945,53.98479],[-10.119463,53.984556],[-10.119886,53.98476],[-10.121409,53.985453]],[[-10.125034,53.985009],[-10.12508,53.985277],[-10.125145,53.985509],[-10.125206,53.985749],[-10.125278,53.986043],[-10.125318,53.986176],[-10.125349,53.986271],[-10.125097,53.986314],[-10.124722,53.986393],[-10.124514,53.98643],[-10.124045,53.98658],[-10.123848,53.986627],[-10.123791,53.986641],[-10.123734,53.986371],[-10.123712,53.986056],[-10.123703,53.985984],[-10.123628,53.985407],[-10.123584,53.984841],[-10.123593,53.984738],[-10.123582,53.98467],[-10.123579,53.984539],[-10.123652,53.984506],[-10.124023,53.984464],[-10.124135,53.984467],[-10.124293,53.984445],[-10.124453,53.984404],[-10.124617,53.984407],[-10.124841,53.984397],[-10.124876,53.984516],[-10.124922,53.984629],[-10.12494,53.984738],[-10.124996,53.984766],[-10.125022,53.984885],[-10.125034,53.985009]],[[-10.113009,53.983663],[-10.113409,53.983426],[-10.11378,53.983208],[-10.113842,53.983175],[-10.113869,53.983198],[-10.113934,53.983255],[-10.113934,53.983298],[-10.114298,53.983455],[-10.114428,53.983509],[-10.11477,53.983684],[-10.114943,53.983765],[-10.115081,53.983799],[-10.115132,53.983813],[-10.115027,53.983876],[-10.114635,53.984057],[-10.114158,53.984278],[-10.113042,53.983683],[-10.113009,53.983663]],[[-10.111509,53.981668],[-10.111628,53.981669],[-10.111692,53.981658],[-10.111748,53.981644],[-10.111843,53.981638],[-10.111972,53.981682],[-10.112037,53.981679],[-10.112061,53.981677],[-10.112108,53.981673],[-10.112147,53.98167],[-10.112177,53.981667],[-10.112178,53.981714],[-10.112194,53.981977],[-10.112153,53.981976],[-10.111394,53.981943],[-10.11017,53.981826],[-10.109661,53.981781],[-10.109462,53.981761],[-10.109304,53.981757],[-10.109243,53.981756],[-10.109361,53.981344],[-10.109395,53.981391],[-10.109434,53.981419],[-10.109521,53.981486],[-10.109597,53.981507],[-10.109639,53.981518],[-10.109737,53.981559],[-10.109791,53.981563],[-10.109923,53.981591],[-10.110034,53.981576],[-10.11019,53.981578],[-10.110383,53.98161],[-10.110473,53.98163],[-10.110656,53.981676],[-10.110783,53.981687],[-10.110966,53.981687],[-10.111133,53.981686],[-10.111248,53.981681],[-10.111377,53.981678],[-10.111509,53.981668]],[[-10.113636,53.978694],[-10.113504,53.97895],[-10.112633,53.978807],[-10.112648,53.978768],[-10.112675,53.978686],[-10.112741,53.978533],[-10.113636,53.978694]],[[-10.097789,53.993912],[-10.097332,53.99392],[-10.097319,53.99365],[-10.097776,53.993642],[-10.097789,53.993912]]],[[[-10.104683,53.976698],[-10.104638,53.97672],[-10.104634,53.976722],[-10.104589,53.976745],[-10.104547,53.976767],[-10.104558,53.976776],[-10.104534,53.97679],[-10.104519,53.976797],[-10.104512,53.9768],[-10.104478,53.976818],[-10.104433,53.976793],[-10.104331,53.976736],[-10.104255,53.976688],[-10.104184,53.976643],[-10.104156,53.976627],[-10.104162,53.976734],[-10.104399,53.97686],[-10.104263,53.976932],[-10.104211,53.976965],[-10.104173,53.976945],[-10.104178,53.977055],[-10.104202,53.977041],[-10.104294,53.976991],[-10.104376,53.976939],[-10.104451,53.976894],[-10.104535,53.976848],[-10.104629,53.976794],[-10.105272,53.976527],[-10.105922,53.976257],[-10.106216,53.976127],[-10.106227,53.976123],[-10.106254,53.976113],[-10.106281,53.976103],[-10.106307,53.976092],[-10.106334,53.976082],[-10.106361,53.976072],[-10.106388,53.976062],[-10.106414,53.976052],[-10.106441,53.976041],[-10.106468,53.976031],[-10.106495,53.976021],[-10.106522,53.976011],[-10.106526,53.976009],[-10.106548,53.976],[-10.106574,53.97599],[-10.106601,53.975979],[-10.106627,53.975969],[-10.106653,53.975958],[-10.106668,53.975952],[-10.10668,53.975948],[-10.106706,53.975938],[-10.106733,53.975927],[-10.10676,53.975917],[-10.106787,53.975907],[-10.106813,53.975897],[-10.106831,53.97589],[-10.106687,53.975893],[-10.106658,53.975904],[-10.106653,53.975905],[-10.106599,53.975925],[-10.106544,53.975944],[-10.10649,53.975964],[-10.106436,53.975984],[-10.106382,53.976004],[-10.106343,53.976018],[-10.106328,53.976024],[-10.106274,53.976044],[-10.106243,53.976056],[-10.106221,53.976065],[-10.106167,53.976085],[-10.106141,53.976095],[-10.106114,53.976106],[-10.10606,53.976126],[-10.106009,53.976145],[-10.105999,53.976149],[-10.105992,53.976143],[-10.105981,53.976147],[-10.105945,53.976162],[-10.105916,53.976173],[-10.1059,53.97618],[-10.105892,53.976183],[-10.105864,53.976195],[-10.105839,53.976204],[-10.105796,53.976221],[-10.105785,53.976225],[-10.105733,53.976247],[-10.105702,53.97626],[-10.10568,53.976268],[-10.105635,53.976285],[-10.105625,53.976289],[-10.105569,53.976311],[-10.105508,53.976337],[-10.105464,53.976356],[-10.105443,53.976365],[-10.1054,53.976385],[-10.105392,53.976388],[-10.105346,53.976408],[-10.10534,53.97641],[-10.105293,53.976431],[-10.105274,53.976439],[-10.105242,53.976453],[-10.105192,53.976475],[-10.105181,53.97648],[-10.105141,53.976496],[-10.105121,53.976504],[-10.105088,53.976517],[-10.105035,53.976539],[-10.104985,53.976561],[-10.104933,53.976583],[-10.104923,53.976588],[-10.104886,53.976605],[-10.104881,53.976607],[-10.104832,53.976629],[-10.104802,53.976643],[-10.104782,53.976652],[-10.104734,53.976674],[-10.104703,53.976689],[-10.104683,53.976698]]],[[[-10.091481,53.986741],[-10.091473,53.986579],[-10.0914,53.98658],[-10.091003,53.986595],[-10.09057,53.986629],[-10.089804,53.986679],[-10.089101,53.986722],[-10.088737,53.986749],[-10.088739,53.986789],[-10.089196,53.986781],[-10.089209,53.987051],[-10.089666,53.987043],[-10.08968,53.987312],[-10.090137,53.987304],[-10.090123,53.987035],[-10.09058,53.987027],[-10.090594,53.987296],[-10.091051,53.987288],[-10.091038,53.987019],[-10.091024,53.986749],[-10.091481,53.986741]]],[[[-10.085095,53.987122],[-10.085092,53.987052],[-10.084861,53.987056],[-10.084864,53.987126],[-10.085095,53.987122]]],[[[-10.081759,53.987352],[-10.081806,53.987406],[-10.08183,53.987433],[-10.081826,53.987344],[-10.081759,53.987352]]],[[[-10.085122,53.987661],[-10.085108,53.987391],[-10.084878,53.987395],[-10.084891,53.987665],[-10.085122,53.987661]]],[[[-10.097856,53.986144],[-10.097608,53.98641],[-10.097498,53.986527],[-10.097019,53.986534],[-10.096229,53.986527],[-10.095368,53.986545],[-10.094797,53.986544],[-10.094217,53.98655],[-10.094224,53.986694],[-10.094681,53.986686],[-10.094695,53.986955],[-10.095152,53.986947],[-10.095165,53.987217],[-10.095622,53.987209],[-10.095636,53.987478],[-10.095649,53.987747],[-10.093364,53.987787],[-10.093377,53.988057],[-10.093391,53.988326],[-10.094305,53.98831],[-10.094319,53.988579],[-10.094346,53.989118],[-10.093888,53.989126],[-10.093861,53.988587],[-10.09249,53.988611],[-10.092477,53.988342],[-10.092019,53.98835],[-10.092006,53.98808],[-10.091092,53.988096],[-10.091105,53.988366],[-10.091562,53.988358],[-10.091603,53.989166],[-10.092974,53.989142],[-10.092988,53.989412],[-10.093001,53.989681],[-10.093458,53.989673],[-10.093472,53.989942],[-10.093485,53.990212],[-10.093943,53.990204],[-10.093956,53.990473],[-10.09487,53.990457],[-10.094884,53.990727],[-10.095341,53.990719],[-10.095368,53.991257],[-10.095825,53.99125],[-10.095839,53.991519],[-10.096296,53.991511],[-10.096282,53.991242],[-10.097654,53.991218],[-10.09764,53.990948],[-10.098098,53.99094],[-10.098084,53.990671],[-10.098541,53.990663],[-10.098528,53.990393],[-10.09807,53.990401],[-10.098057,53.990132],[-10.098043,53.989863],[-10.097586,53.989871],[-10.097546,53.989062],[-10.098003,53.989054],[-10.097989,53.988785],[-10.097976,53.988516],[-10.097962,53.988246],[-10.097505,53.988254],[-10.097491,53.987985],[-10.097464,53.987446],[-10.097921,53.987438],[-10.097908,53.987169],[-10.097867,53.98636],[-10.097856,53.986144]],[[-10.096093,53.98747],[-10.09655,53.987462],[-10.096564,53.987731],[-10.096107,53.987739],[-10.096093,53.98747]]],[[[-10.089492,53.992708],[-10.089506,53.992977],[-10.089963,53.992969],[-10.089977,53.993239],[-10.092263,53.993199],[-10.092276,53.993468],[-10.092733,53.99346],[-10.092679,53.992383],[-10.092666,53.992113],[-10.092652,53.991844],[-10.091738,53.99186],[-10.091724,53.991591],[-10.09081,53.991607],[-10.090796,53.991337],[-10.090769,53.990798],[-10.090756,53.990529],[-10.090742,53.99026],[-10.090285,53.990267],[-10.090272,53.989998],[-10.089815,53.990006],[-10.089801,53.989737],[-10.089788,53.989467],[-10.089331,53.989475],[-10.089317,53.989206],[-10.089277,53.988398],[-10.088819,53.988406],[-10.088806,53.988136],[-10.088792,53.987867],[-10.088335,53.987875],[-10.088349,53.988144],[-10.087892,53.988152],[-10.087905,53.988421],[-10.087448,53.988429],[-10.087475,53.988968],[-10.087932,53.98896],[-10.087973,53.989768],[-10.08843,53.98976],[-10.088457,53.990299],[-10.088914,53.990291],[-10.088941,53.99083],[-10.089398,53.990822],[-10.089425,53.991361],[-10.088968,53.991369],[-10.089008,53.992177],[-10.089022,53.992447],[-10.089479,53.992439],[-10.089492,53.992708]]],[[[-10.089661,53.994253],[-10.089611,53.994494],[-10.089716,53.994469],[-10.089806,53.994461],[-10.089912,53.994459],[-10.090099,53.99446],[-10.090172,53.994497],[-10.090149,53.994314],[-10.090031,53.994316],[-10.090017,53.994047],[-10.088188,53.994079],[-10.088175,53.993809],[-10.08726,53.993825],[-10.087247,53.993556],[-10.087233,53.993287],[-10.087691,53.993279],[-10.087677,53.993009],[-10.088134,53.993001],[-10.088121,53.992732],[-10.087664,53.99274],[-10.08765,53.99247],[-10.087637,53.992201],[-10.08718,53.992209],[-10.087139,53.991401],[-10.087112,53.990862],[-10.086655,53.99087],[-10.086628,53.990331],[-10.086601,53.989792],[-10.086561,53.988984],[-10.086534,53.988445],[-10.086455,53.988447],[-10.086474,53.988826],[-10.085638,53.98884],[-10.085646,53.989],[-10.084958,53.989012],[-10.084995,53.98975],[-10.083472,53.989776],[-10.083427,53.988878],[-10.082845,53.988888],[-10.082924,53.989126],[-10.080647,53.989198],[-10.080727,53.989386],[-10.080756,53.989474],[-10.080784,53.98958],[-10.08099,53.989582],[-10.081045,53.989821],[-10.081143,53.990208],[-10.081184,53.990434],[-10.08119,53.990548],[-10.081061,53.990579],[-10.081099,53.990647],[-10.08117,53.990763],[-10.081225,53.990864],[-10.081472,53.990841],[-10.08154,53.990862],[-10.08161,53.990905],[-10.081713,53.991021],[-10.0818,53.991107],[-10.08196,53.991204],[-10.081705,53.991283],[-10.081655,53.991297],[-10.080853,53.991054],[-10.080771,53.991029],[-10.080145,53.990842],[-10.079362,53.990615],[-10.078617,53.990353],[-10.078378,53.990283],[-10.078134,53.990204],[-10.07797,53.990153],[-10.077967,53.990335],[-10.07798,53.990535],[-10.078018,53.990781],[-10.07805,53.991035],[-10.078036,53.991036],[-10.077783,53.991058],[-10.077659,53.990426],[-10.077629,53.99029],[-10.07757,53.990053],[-10.077563,53.990024],[-10.077532,53.990015],[-10.077247,53.989921],[-10.076982,53.989843],[-10.076816,53.989794],[-10.076394,53.989662],[-10.076295,53.989637],[-10.076298,53.989655],[-10.076363,53.990031],[-10.076426,53.990483],[-10.076525,53.990965],[-10.076579,53.991331],[-10.076646,53.991693],[-10.076709,53.992095],[-10.076588,53.992117],[-10.076541,53.992135],[-10.0765,53.992167],[-10.076491,53.992178],[-10.076457,53.99224],[-10.076412,53.99232],[-10.076312,53.992361],[-10.076488,53.992385],[-10.076562,53.992384],[-10.076708,53.992404],[-10.076777,53.992437],[-10.077028,53.992447],[-10.077136,53.992466],[-10.07716,53.9923],[-10.077201,53.992298],[-10.077238,53.992299],[-10.07737,53.992302],[-10.077363,53.991892],[-10.077361,53.991873],[-10.077464,53.991856],[-10.07763,53.991841],[-10.07774,53.991812],[-10.077839,53.991797],[-10.077926,53.991798],[-10.07801,53.991801],[-10.078167,53.991808],[-10.07834,53.991784],[-10.078469,53.991791],[-10.078764,53.991876],[-10.079112,53.991951],[-10.079347,53.992001],[-10.079387,53.99201],[-10.079387,53.991995],[-10.07937,53.991863],[-10.079345,53.991668],[-10.079341,53.991609],[-10.07953,53.991625],[-10.07967,53.991638],[-10.079687,53.991715],[-10.079825,53.991742],[-10.080058,53.99178],[-10.080092,53.991984],[-10.080119,53.992101],[-10.080122,53.992119],[-10.080269,53.99217],[-10.080404,53.992174],[-10.080424,53.992219],[-10.080541,53.99223],[-10.080604,53.992233],[-10.080651,53.992246],[-10.080713,53.992266],[-10.08075,53.992267],[-10.080917,53.992245],[-10.080947,53.992242],[-10.081138,53.992426],[-10.081304,53.992609],[-10.081369,53.992627],[-10.081563,53.992625],[-10.081613,53.992664],[-10.081659,53.992717],[-10.081731,53.992747],[-10.081763,53.992799],[-10.081833,53.992808],[-10.081808,53.992752],[-10.0821,53.992666],[-10.08216,53.992648],[-10.082313,53.992606],[-10.082522,53.992732],[-10.082433,53.992759],[-10.082475,53.99297],[-10.082357,53.993061],[-10.082478,53.993112],[-10.082632,53.993179],[-10.082796,53.993247],[-10.082862,53.993312],[-10.082991,53.993386],[-10.083049,53.99343],[-10.083122,53.993445],[-10.083176,53.993452],[-10.083266,53.993486],[-10.083324,53.993487],[-10.083367,53.993535],[-10.083371,53.993595],[-10.083364,53.993651],[-10.083397,53.993706],[-10.083471,53.993724],[-10.08353,53.993724],[-10.08364,53.993695],[-10.083657,53.99369],[-10.083743,53.99366],[-10.083817,53.993633],[-10.083833,53.99361],[-10.083942,53.993695],[-10.084017,53.993724],[-10.08408,53.993735],[-10.084234,53.993764],[-10.084336,53.993759],[-10.084375,53.993753],[-10.084439,53.993772],[-10.084505,53.993854],[-10.084575,53.993916],[-10.084668,53.993969],[-10.084741,53.993981],[-10.084854,53.993986],[-10.084903,53.993989],[-10.08496,53.994018],[-10.085049,53.994164],[-10.085126,53.994171],[-10.085234,53.994168],[-10.085387,53.994163],[-10.085488,53.994179],[-10.085603,53.994186],[-10.08569,53.994223],[-10.085771,53.994246],[-10.085957,53.994245],[-10.086022,53.994244],[-10.086109,53.994233],[-10.086264,53.994207],[-10.086356,53.994196],[-10.086459,53.994202],[-10.086565,53.994222],[-10.086692,53.994255],[-10.086784,53.994278],[-10.086903,53.994293],[-10.086909,53.994311],[-10.087093,53.994329],[-10.087381,53.994366],[-10.087541,53.994406],[-10.087589,53.994423],[-10.087688,53.994456],[-10.087787,53.994459],[-10.087878,53.994436],[-10.088082,53.994563],[-10.08818,53.994624],[-10.088331,53.994754],[-10.088321,53.99468],[-10.088311,53.994528],[-10.088364,53.994535],[-10.088385,53.994546],[-10.088427,53.994551],[-10.088499,53.994542],[-10.088545,53.994527],[-10.088677,53.994483],[-10.088735,53.994453],[-10.088731,53.994434],[-10.088768,53.994416],[-10.088746,53.994391],[-10.088755,53.99429],[-10.0887,53.994275],[-10.088655,53.994137],[-10.088946,53.994165],[-10.088957,53.994165],[-10.08903,53.994172],[-10.089228,53.994181],[-10.089442,53.994226],[-10.089661,53.994253]],[[-10.084516,53.992288],[-10.084322,53.992156],[-10.084005,53.992012],[-10.084033,53.991999],[-10.084121,53.99197],[-10.084274,53.991948],[-10.084776,53.991873],[-10.084874,53.991861],[-10.084867,53.99171],[-10.085324,53.991702],[-10.085297,53.991163],[-10.085754,53.991155],[-10.085781,53.991694],[-10.085821,53.992502],[-10.086279,53.992494],[-10.086292,53.992764],[-10.085835,53.992772],[-10.085848,53.993041],[-10.085862,53.99331],[-10.085405,53.993318],[-10.085391,53.993049],[-10.084934,53.993057],[-10.084921,53.992787],[-10.084913,53.992638],[-10.084881,53.992596],[-10.084516,53.992288]],[[-10.085283,53.990894],[-10.085297,53.991163],[-10.084972,53.991169],[-10.085032,53.991212],[-10.085025,53.991281],[-10.085025,53.991336],[-10.085008,53.991422],[-10.084984,53.99147],[-10.084796,53.991507],[-10.084585,53.991547],[-10.084427,53.991576],[-10.084345,53.991626],[-10.084271,53.991619],[-10.084182,53.991527],[-10.084044,53.991448],[-10.084019,53.991365],[-10.08432,53.991275],[-10.084496,53.991227],[-10.084626,53.99119],[-10.084821,53.991143],[-10.084838,53.991143],[-10.084826,53.990902],[-10.085283,53.990894]],[[-10.084813,53.990632],[-10.084826,53.990902],[-10.084369,53.99091],[-10.084356,53.99064],[-10.084813,53.990632]],[[-10.076883,53.991378],[-10.076812,53.991142],[-10.076771,53.991005],[-10.076741,53.990915],[-10.076974,53.990861],[-10.077074,53.990837],[-10.077404,53.99078],[-10.077462,53.99107],[-10.077466,53.991088],[-10.077503,53.99126],[-10.077198,53.991278],[-10.077208,53.991312],[-10.076883,53.991378]],[[-10.083314,53.991684],[-10.083266,53.991744],[-10.083255,53.991764],[-10.082923,53.991681],[-10.082946,53.991664],[-10.083044,53.991617],[-10.08313,53.991569],[-10.083195,53.991551],[-10.083249,53.991524],[-10.083285,53.991487],[-10.083203,53.991427],[-10.083109,53.991333],[-10.0831,53.991308],[-10.083094,53.991267],[-10.083234,53.991228],[-10.083488,53.991176],[-10.083562,53.991395],[-10.083549,53.991409],[-10.083536,53.991423],[-10.083554,53.991499],[-10.083375,53.991613],[-10.083314,53.991684]]],[[[-10.095409,53.992066],[-10.095422,53.992335],[-10.096337,53.992319],[-10.096323,53.99205],[-10.09631,53.99178],[-10.094938,53.991804],[-10.094952,53.992074],[-10.095409,53.992066]]],[[[-10.092523,53.995004],[-10.092497,53.994784],[-10.0927,53.994762],[-10.092801,53.994688],[-10.093725,53.994704],[-10.093674,53.994655],[-10.094653,53.994416],[-10.095063,53.994293],[-10.09506,53.994229],[-10.093231,53.994261],[-10.093204,53.993722],[-10.09319,53.993453],[-10.092733,53.99346],[-10.092747,53.99373],[-10.09276,53.993999],[-10.092303,53.994007],[-10.092317,53.994277],[-10.090204,53.994313],[-10.09027,53.994326],[-10.090335,53.994329],[-10.09041,53.994314],[-10.090804,53.994392],[-10.091102,53.994469],[-10.091161,53.994386],[-10.091392,53.994465],[-10.091759,53.994613],[-10.092182,53.994822],[-10.092523,53.995004]]],[[[-10.095396,53.994531],[-10.095485,53.994515],[-10.095531,53.994501],[-10.095531,53.99449],[-10.095369,53.994493],[-10.095396,53.994531]]],[[[-10.090059,53.996743],[-10.090044,53.996681],[-10.090026,53.996504],[-10.089866,53.996501],[-10.089682,53.996498],[-10.089687,53.996585],[-10.089772,53.996669],[-10.089826,53.996747],[-10.090059,53.996743]]],[[[-10.090636,53.997272],[-10.09082,53.997269],[-10.090804,53.99725],[-10.090635,53.997243],[-10.090636,53.997272]]]]}}]}
