{"type":"FeatureCollection","features":[{"type":"Feature","properties":{"source_fid":2244013,"county":"Mayo","bog_geom_ha":208.40711479786074,"low15_pct":100.0,"low15_ha":208.40711479786074,"overlay_ha":208.35989928467797,"area_delta":-0.047215513182777613},"geometry":{"type":"MultiPolygon","coordinates":[[[[-9.607575,54.156084],[-9.608593,54.156517],[-9.60894,54.156417],[-9.609398,54.156284],[-9.60997,54.15608],[-9.609975,54.156078],[-9.609975,54.156078],[-9.610777,54.155916],[-9.612401,54.155794],[-9.613532,54.155702],[-9.613528,54.155606],[-9.614446,54.155593],[-9.614448,54.155647],[-9.614449,54.155647],[-9.615243,54.155639],[-9.615839,54.155526],[-9.616628,54.155322],[-9.61834,54.154948],[-9.618411,54.15493],[-9.619003,54.154779],[-9.620337,54.154439],[-9.620566,54.154379],[-9.620566,54.154379],[-9.620566,54.154379],[-9.620619,54.154365],[-9.620641,54.154158],[-9.620758,54.153159],[-9.620804,54.152561],[-9.620918,54.151583],[-9.621108,54.150107],[-9.621054,54.150078],[-9.620909,54.150001],[-9.620679,54.149955],[-9.618899,54.149386],[-9.61407,54.147908],[-9.612963,54.147596],[-9.608128,54.146052],[-9.607176,54.14578],[-9.607023,54.145736],[-9.606937,54.145483],[-9.606927,54.145298],[-9.606844,54.145188],[-9.606654,54.145145],[-9.6068,54.145099],[-9.607067,54.14486],[-9.607135,54.144719],[-9.607161,54.144663],[-9.607149,54.144395],[-9.60712,54.144334],[-9.607089,54.144271],[-9.606721,54.144123],[-9.606828,54.143811],[-9.606916,54.143582],[-9.60703,54.143422],[-9.607082,54.14336],[-9.607113,54.143323],[-9.60708,54.143324],[-9.604375,54.143442],[-9.606967,54.140405],[-9.612415,54.134023],[-9.612731,54.13366],[-9.612832,54.133544],[-9.612871,54.1335],[-9.612719,54.133466],[-9.612279,54.133367],[-9.612094,54.133325],[-9.609917,54.132596],[-9.60816,54.131641],[-9.606921,54.132766],[-9.606681,54.132998],[-9.606128,54.133529],[-9.605362,54.134186],[-9.604739,54.134708],[-9.604146,54.135169],[-9.602675,54.136416],[-9.601425,54.13767],[-9.600784,54.138275],[-9.600496,54.138546],[-9.599545,54.139376],[-9.598529,54.140362],[-9.598238,54.140645],[-9.597234,54.14155],[-9.596751,54.142239],[-9.596467,54.142643],[-9.595622,54.143759],[-9.59562,54.143762],[-9.596053,54.145071],[-9.596407,54.145988],[-9.596449,54.14606],[-9.596997,54.147],[-9.598171,54.148985],[-9.598319,54.149224],[-9.598939,54.150224],[-9.599638,54.151278],[-9.600104,54.15175],[-9.600717,54.152217],[-9.602339,54.153432],[-9.603552,54.154161],[-9.604442,54.15468],[-9.606472,54.155615],[-9.606981,54.155831],[-9.607198,54.155923],[-9.607575,54.156084]]]]}}]}
