{"type":"FeatureCollection","features":[{"type":"Feature","properties":{"source_fid":2244745,"county":"Mayo","bog_geom_ha":177.58964490397335,"low15_pct":100.0,"low15_ha":177.58964490397335,"overlay_ha":177.58964490397335,"area_delta":0.0},"geometry":{"type":"MultiPolygon","coordinates":[[[[-9.766753,54.111483],[-9.766474,54.111974],[-9.766467,54.111986],[-9.766318,54.112327],[-9.766338,54.112565],[-9.766416,54.112797],[-9.766573,54.11287],[-9.766775,54.112997],[-9.766771,54.113109],[-9.76677,54.113146],[-9.766814,54.113218],[-9.767058,54.113247],[-9.76716,54.113252],[-9.767255,54.113274],[-9.767308,54.113295],[-9.767411,54.113323],[-9.767474,54.113318],[-9.767544,54.113313],[-9.767624,54.113311],[-9.767696,54.113292],[-9.767706,54.113287],[-9.767781,54.113294],[-9.767833,54.113313],[-9.767872,54.113325],[-9.767934,54.113397],[-9.76811,54.113456],[-9.768181,54.113472],[-9.768283,54.11347],[-9.768353,54.113477],[-9.768384,54.113495],[-9.768453,54.113514],[-9.768497,54.113525],[-9.768538,54.113532],[-9.768604,54.113527],[-9.768698,54.113514],[-9.768733,54.113511],[-9.768776,54.11351],[-9.768822,54.113518],[-9.768869,54.113521],[-9.768934,54.113532],[-9.768992,54.113501],[-9.769051,54.113483],[-9.769102,54.11347],[-9.769209,54.113449],[-9.769436,54.113419],[-9.76958,54.113405],[-9.769701,54.113401],[-9.769799,54.11338],[-9.769926,54.113362],[-9.770031,54.113346],[-9.770133,54.113337],[-9.770199,54.113312],[-9.77023,54.113285],[-9.770355,54.113157],[-9.770375,54.113091],[-9.770415,54.113047],[-9.770463,54.112986],[-9.770499,54.112925],[-9.770597,54.112798],[-9.770675,54.112727],[-9.770771,54.112681],[-9.770817,54.112642],[-9.770894,54.112611],[-9.770982,54.112602],[-9.771083,54.112539],[-9.77119,54.112499],[-9.771343,54.11246],[-9.771457,54.112461],[-9.771513,54.112474],[-9.771731,54.11251],[-9.771851,54.112545],[-9.771976,54.112581],[-9.772095,54.112609],[-9.772181,54.112646],[-9.77225,54.112674],[-9.772326,54.112707],[-9.772432,54.112718],[-9.772677,54.112746],[-9.772824,54.112784],[-9.772958,54.11282],[-9.77307,54.112845],[-9.773184,54.112888],[-9.773357,54.112946],[-9.77344,54.112978],[-9.773559,54.113007],[-9.773671,54.113035],[-9.773792,54.113072],[-9.773899,54.113117],[-9.774039,54.113195],[-9.774247,54.113246],[-9.774335,54.113269],[-9.774403,54.113269],[-9.774468,54.11327],[-9.774538,54.113262],[-9.774627,54.113246],[-9.774874,54.113248],[-9.77504,54.113252],[-9.775256,54.113263],[-9.775408,54.113257],[-9.775617,54.113241],[-9.775801,54.113243],[-9.775962,54.11326],[-9.776363,54.11324],[-9.776755,54.113315],[-9.777336,54.113468],[-9.777732,54.113588],[-9.778007,54.113704],[-9.778272,54.113773],[-9.778445,54.113842],[-9.77864,54.113915],[-9.778807,54.113971],[-9.778918,54.114065],[-9.779004,54.114087],[-9.779116,54.114093],[-9.779221,54.114119],[-9.77931,54.114198],[-9.779524,54.114306],[-9.779872,54.114507],[-9.780163,54.11466],[-9.780349,54.114766],[-9.780457,54.114938],[-9.780586,54.115118],[-9.780668,54.115172],[-9.78083,54.115235],[-9.780875,54.115257],[-9.780903,54.115296],[-9.780926,54.11537],[-9.780936,54.115442],[-9.781034,54.115542],[-9.78122,54.115697],[-9.781354,54.115853],[-9.781354,54.115854],[-9.781417,54.115968],[-9.781498,54.116036],[-9.781547,54.116073],[-9.781582,54.116117],[-9.781577,54.116217],[-9.781582,54.116305],[-9.781623,54.116362],[-9.781719,54.116377],[-9.781861,54.116383],[-9.781952,54.116391],[-9.782061,54.116384],[-9.78216,54.116355],[-9.782249,54.116332],[-9.782382,54.116309],[-9.782713,54.116274],[-9.782939,54.116243],[-9.78307,54.11626],[-9.783201,54.116295],[-9.783327,54.116372],[-9.783544,54.116452],[-9.783709,54.116496],[-9.783865,54.116517],[-9.783948,54.116541],[-9.783989,54.116579],[-9.783993,54.116626],[-9.783932,54.116687],[-9.783879,54.11675],[-9.783937,54.116801],[-9.784079,54.11686],[-9.784203,54.116884],[-9.784508,54.116911],[-9.784979,54.11693],[-9.785256,54.116963],[-9.785427,54.116996],[-9.785609,54.117064],[-9.785831,54.117176],[-9.78607,54.117236],[-9.786362,54.117288],[-9.786479,54.117284],[-9.786593,54.117269],[-9.786683,54.117251],[-9.786839,54.117258],[-9.786896,54.117301],[-9.786915,54.117357],[-9.786872,54.117403],[-9.786844,54.117445],[-9.786874,54.117468],[-9.786931,54.117497],[-9.787025,54.117553],[-9.787114,54.117598],[-9.787184,54.117612],[-9.787451,54.11763],[-9.787632,54.117639],[-9.787742,54.117677],[-9.787889,54.117755],[-9.788013,54.117822],[-9.788131,54.117906],[-9.788201,54.117971],[-9.788326,54.118022],[-9.788519,54.118094],[-9.78864,54.118155],[-9.788722,54.118209],[-9.788751,54.118265],[-9.788717,54.118333],[-9.78871,54.118388],[-9.788775,54.118431],[-9.788955,54.118442],[-9.789161,54.118425],[-9.789273,54.118429],[-9.789378,54.118409],[-9.789578,54.118359],[-9.78977,54.11833],[-9.789898,54.118325],[-9.790001,54.118349],[-9.790083,54.118383],[-9.790113,54.118441],[-9.790127,54.118502],[-9.790175,54.118538],[-9.790388,54.118624],[-9.790597,54.11869],[-9.790706,54.118756],[-9.790792,54.118872],[-9.790834,54.118949],[-9.790867,54.119056],[-9.790898,54.119152],[-9.790965,54.119235],[-9.791061,54.119304],[-9.791305,54.119386],[-9.791724,54.119481],[-9.791961,54.119552],[-9.792117,54.119605],[-9.792212,54.119632],[-9.792325,54.119642],[-9.792528,54.119687],[-9.79284,54.119773],[-9.792955,54.11983],[-9.793007,54.119874],[-9.793089,54.119898],[-9.793212,54.119937],[-9.793375,54.119996],[-9.793483,54.120048],[-9.793654,54.120078],[-9.793836,54.12008],[-9.794,54.120064],[-9.794144,54.120054],[-9.794287,54.120075],[-9.794355,54.120103],[-9.794362,54.120159],[-9.794352,54.120241],[-9.794383,54.120305],[-9.794464,54.120333],[-9.794561,54.120352],[-9.794701,54.120404],[-9.794857,54.120484],[-9.795049,54.120535],[-9.795219,54.120589],[-9.795314,54.120652],[-9.795394,54.120734],[-9.795447,54.120813],[-9.795456,54.120865],[-9.795427,54.120914],[-9.795376,54.120973],[-9.7954,54.121042],[-9.79548,54.121113],[-9.795563,54.121189],[-9.795645,54.121222],[-9.795748,54.12121],[-9.79582,54.121189],[-9.795928,54.121182],[-9.796045,54.121187],[-9.796198,54.121177],[-9.79636,54.121162],[-9.796577,54.121157],[-9.796765,54.121161],[-9.796951,54.12113],[-9.79724,54.121071],[-9.797482,54.121086],[-9.797624,54.121107],[-9.797748,54.121115],[-9.797847,54.121087],[-9.79798,54.121057],[-9.798125,54.12105],[-9.79802,54.120899],[-9.797681,54.120519],[-9.797382,54.120115],[-9.797356,54.120037],[-9.797551,54.119828],[-9.798142,54.119361],[-9.798422,54.119128],[-9.798631,54.118808],[-9.799194,54.117827],[-9.799851,54.116722],[-9.799868,54.116694],[-9.800309,54.115893],[-9.800479,54.115568],[-9.800606,54.115326],[-9.800776,54.114763],[-9.800951,54.11427],[-9.801248,54.113791],[-9.801565,54.113274],[-9.801881,54.112658],[-9.802148,54.112122],[-9.802224,54.111998],[-9.802294,54.111972],[-9.802355,54.111947],[-9.802427,54.111919],[-9.802548,54.111896],[-9.802753,54.111865],[-9.80294,54.111833],[-9.803055,54.111803],[-9.803279,54.111806],[-9.80343,54.111789],[-9.803748,54.111704],[-9.803915,54.111683],[-9.804068,54.11162],[-9.804135,54.111539],[-9.80415,54.111475],[-9.803933,54.111427],[-9.803897,54.111353],[-9.803834,54.111311],[-9.803697,54.111267],[-9.803528,54.111225],[-9.803376,54.111182],[-9.803144,54.111208],[-9.80302,54.111234],[-9.802894,54.111246],[-9.802805,54.111235],[-9.802742,54.111196],[-9.802647,54.111163],[-9.80254,54.111145],[-9.802451,54.111106],[-9.802282,54.111002],[-9.802153,54.110881],[-9.80198,54.110661],[-9.801917,54.110498],[-9.801949,54.110351],[-9.80189,54.110288],[-9.801718,54.110113],[-9.801597,54.110057],[-9.801361,54.109917],[-9.80168,54.109719],[-9.802489,54.109209],[-9.803372,54.108675],[-9.804045,54.108285],[-9.803475,54.108106],[-9.802817,54.107899],[-9.801636,54.107516],[-9.800911,54.107279],[-9.800334,54.107094],[-9.799693,54.106884],[-9.79907,54.106686],[-9.797518,54.106172],[-9.795726,54.105489],[-9.79429,54.104943],[-9.793782,54.106035],[-9.793383,54.106922],[-9.793397,54.107026],[-9.793481,54.107151],[-9.793524,54.107238],[-9.793557,54.107324],[-9.793532,54.107428],[-9.793181,54.108178],[-9.79232,54.110004],[-9.792212,54.110629],[-9.792205,54.110677],[-9.793644,54.110931],[-9.793251,54.112081],[-9.793204,54.112246],[-9.794644,54.112588],[-9.794227,54.113617],[-9.794014,54.113701],[-9.793025,54.11423],[-9.79157,54.115003],[-9.791536,54.115233],[-9.791517,54.115429],[-9.791117,54.115406],[-9.790523,54.115312],[-9.788521,54.115293],[-9.787412,54.115166],[-9.787172,54.114842],[-9.786883,54.115176],[-9.786289,54.11365],[-9.784812,54.111657],[-9.782607,54.108607],[-9.782517,54.108619],[-9.781661,54.107448],[-9.781222,54.106837],[-9.779742,54.104731],[-9.779603,54.104532],[-9.779561,54.104475],[-9.779469,54.104365],[-9.777836,54.104623],[-9.777332,54.103506],[-9.776739,54.104249],[-9.77626,54.104927],[-9.775933,54.105345],[-9.77577,54.106071],[-9.775402,54.107037],[-9.775289,54.107426],[-9.775108,54.10816],[-9.774931,54.108953],[-9.774629,54.110055],[-9.774793,54.110402],[-9.775078,54.110836],[-9.774433,54.110805],[-9.774388,54.110802],[-9.774038,54.110791],[-9.773876,54.11079],[-9.77364,54.110798],[-9.773548,54.110813],[-9.773452,54.110839],[-9.773389,54.110867],[-9.773323,54.1109],[-9.773258,54.110933],[-9.773193,54.110955],[-9.773115,54.110952],[-9.773013,54.110935],[-9.772853,54.11087],[-9.772432,54.110704],[-9.77229,54.110625],[-9.772115,54.110554],[-9.772016,54.110542],[-9.771892,54.110535],[-9.771698,54.110538],[-9.771518,54.110547],[-9.771387,54.11053],[-9.771207,54.110491],[-9.770955,54.11044],[-9.770641,54.110371],[-9.770335,54.110318],[-9.769866,54.110229],[-9.769395,54.110148],[-9.769269,54.110123],[-9.769194,54.110063],[-9.769137,54.11002],[-9.769132,54.109987],[-9.768974,54.109993],[-9.768538,54.110125],[-9.768198,54.110284],[-9.767691,54.110647],[-9.76714,54.111051],[-9.766753,54.111483]]]]}}]}
