{"type":"FeatureCollection","features":[{"type":"Feature","properties":{"source_fid":224568,"county":"Tipperary","bog_geom_ha":384.42327360642594,"low15_pct":87.476635514018696,"low15_ha":336.28054588375204,"overlay_ha":336.40439925128817,"area_delta":0.12385336753612819},"geometry":{"type":"MultiPolygon","coordinates":[[[[-8.316659,52.718266],[-8.317298,52.718343],[-8.317478,52.718366],[-8.31749,52.718342],[-8.31947,52.718604],[-8.319466,52.71865],[-8.320246,52.718756],[-8.32075,52.718826],[-8.321456,52.718937],[-8.321634,52.718981],[-8.321952,52.719021],[-8.322036,52.718998],[-8.322131,52.718942],[-8.322198,52.718905],[-8.322217,52.718891],[-8.322363,52.718804],[-8.322513,52.718706],[-8.322611,52.718653],[-8.322884,52.718521],[-8.322993,52.718465],[-8.323112,52.71837],[-8.323188,52.71832],[-8.323233,52.718299],[-8.323413,52.718251],[-8.323487,52.718209],[-8.323633,52.718128],[-8.323795,52.718046],[-8.323936,52.717978],[-8.324066,52.717931],[-8.324266,52.717864],[-8.324436,52.71781],[-8.324666,52.71774],[-8.325012,52.717671],[-8.325421,52.717643],[-8.325558,52.717622],[-8.325717,52.717598],[-8.325922,52.717572],[-8.326306,52.717537],[-8.326491,52.717524],[-8.326781,52.71748],[-8.326816,52.717463],[-8.326915,52.7174],[-8.326964,52.717368],[-8.327075,52.717335],[-8.327481,52.717298],[-8.327856,52.717258],[-8.328271,52.717218],[-8.328678,52.717158],[-8.329192,52.71703],[-8.329471,52.716897],[-8.329615,52.716831],[-8.329773,52.716789],[-8.329779,52.716789],[-8.329954,52.71678],[-8.330071,52.716801],[-8.330377,52.716876],[-8.330726,52.716971],[-8.331186,52.717106],[-8.331476,52.717205],[-8.3319,52.717259],[-8.332417,52.717306],[-8.332633,52.717334],[-8.332719,52.717353],[-8.332887,52.717381],[-8.333297,52.717415],[-8.333634,52.717473],[-8.333897,52.717527],[-8.334011,52.717535],[-8.334195,52.717518],[-8.334312,52.71752],[-8.334441,52.717536],[-8.334551,52.717556],[-8.334951,52.717639],[-8.335122,52.717661],[-8.3354,52.717676],[-8.335508,52.717679],[-8.335572,52.717688],[-8.335591,52.717692],[-8.335591,52.717692],[-8.335591,52.717692],[-8.335683,52.717635],[-8.335683,52.717635],[-8.335683,52.717635],[-8.335892,52.717547],[-8.33594,52.71753],[-8.335947,52.717528],[-8.336304,52.717416],[-8.336316,52.717414],[-8.33634,52.717408],[-8.3365,52.717373],[-8.336607,52.717349],[-8.336733,52.717328],[-8.336829,52.717313],[-8.336865,52.717313],[-8.336941,52.717315],[-8.33695,52.717315],[-8.336955,52.717315],[-8.337021,52.717319],[-8.337019,52.717088],[-8.336131,52.71709],[-8.336129,52.716821],[-8.337905,52.716816],[-8.337907,52.717085],[-8.337909,52.717355],[-8.337598,52.717356],[-8.337978,52.717362],[-8.338064,52.717353],[-8.33811,52.717349],[-8.338195,52.71733],[-8.338207,52.717327],[-8.338192,52.71531],[-8.339671,52.715306],[-8.339657,52.713508],[-8.340099,52.713507],[-8.340098,52.713304],[-8.340542,52.713303],[-8.340543,52.713506],[-8.341137,52.713504],[-8.34113,52.712606],[-8.341123,52.711707],[-8.340085,52.71171],[-8.340087,52.711956],[-8.339645,52.711957],[-8.33965,52.71261],[-8.338316,52.712614],[-8.338318,52.71277],[-8.339206,52.712767],[-8.339208,52.713037],[-8.337876,52.713041],[-8.337878,52.71331],[-8.33699,52.713313],[-8.336988,52.713043],[-8.336986,52.712774],[-8.33743,52.712772],[-8.337428,52.712503],[-8.337871,52.712502],[-8.337869,52.712232],[-8.338168,52.712231],[-8.33816,52.711153],[-8.337861,52.711153],[-8.337859,52.710884],[-8.337857,52.710614],[-8.338301,52.710613],[-8.338299,52.710343],[-8.338743,52.710342],[-8.338741,52.710072],[-8.339185,52.710071],[-8.339183,52.709801],[-8.33918,52.709532],[-8.339624,52.709531],[-8.339622,52.709261],[-8.340066,52.70926],[-8.340064,52.70899],[-8.340952,52.708987],[-8.34095,52.708718],[-8.341394,52.708717],[-8.341392,52.708447],[-8.341836,52.708446],[-8.341834,52.708176],[-8.342721,52.708173],[-8.342719,52.707904],[-8.342717,52.707634],[-8.342273,52.707635],[-8.342271,52.707366],[-8.341827,52.707367],[-8.341825,52.707098],[-8.341823,52.706828],[-8.340935,52.70683],[-8.340937,52.7071],[-8.340049,52.707103],[-8.340052,52.707372],[-8.339608,52.707374],[-8.339606,52.707104],[-8.339603,52.706834],[-8.339601,52.706565],[-8.338714,52.706567],[-8.338711,52.706298],[-8.338268,52.706299],[-8.338265,52.706029],[-8.338263,52.70576],[-8.341815,52.705749],[-8.341812,52.70548],[-8.342256,52.705478],[-8.342254,52.705209],[-8.342698,52.705208],[-8.3427,52.705477],[-8.342702,52.705747],[-8.342258,52.705748],[-8.342261,52.706018],[-8.341817,52.706019],[-8.341819,52.706289],[-8.344482,52.706281],[-8.34448,52.706011],[-8.344924,52.70601],[-8.344926,52.70628],[-8.344926,52.706304],[-8.345814,52.706302],[-8.345814,52.706277],[-8.346702,52.706274],[-8.3467,52.706005],[-8.346996,52.706004],[-8.346984,52.704501],[-8.348464,52.704497],[-8.348458,52.703843],[-8.348458,52.703843],[-8.348456,52.703598],[-8.347125,52.703602],[-8.347126,52.703846],[-8.346683,52.703848],[-8.346681,52.703604],[-8.345498,52.703607],[-8.345491,52.702708],[-8.34623,52.702706],[-8.346228,52.702501],[-8.346672,52.7025],[-8.346674,52.702705],[-8.348449,52.7027],[-8.348454,52.703303],[-8.348898,52.703302],[-8.3489,52.703597],[-8.350232,52.703593],[-8.350232,52.703568],[-8.350229,52.703298],[-8.351117,52.703295],[-8.351115,52.703026],[-8.351411,52.703025],[-8.351408,52.702691],[-8.352,52.702689],[-8.351998,52.702484],[-8.352442,52.702483],[-8.352441,52.702348],[-8.35212,52.702194],[-8.351683,52.702021],[-8.351516,52.701963],[-8.351315,52.701893],[-8.350313,52.701649],[-8.349896,52.701547],[-8.349661,52.701489],[-8.34956,52.701452],[-8.349513,52.701435],[-8.349504,52.701432],[-8.349447,52.701411],[-8.349176,52.701302],[-8.348049,52.700904],[-8.346008,52.70091],[-8.345784,52.701003],[-8.345776,52.701006],[-8.345776,52.701006],[-8.345759,52.701012],[-8.345623,52.70106],[-8.345587,52.701063],[-8.345551,52.701066],[-8.345391,52.701046],[-8.345309,52.701036],[-8.34517,52.701037],[-8.345169,52.701037],[-8.345169,52.701037],[-8.344239,52.700918],[-8.344234,52.700915],[-8.343997,52.700916],[-8.343997,52.70089],[-8.342664,52.700893],[-8.342666,52.701163],[-8.342223,52.701164],[-8.342225,52.701434],[-8.341337,52.701437],[-8.341335,52.701167],[-8.341333,52.700923],[-8.341039,52.700924],[-8.341037,52.700695],[-8.340627,52.700721],[-8.340473,52.70073],[-8.339537,52.700781],[-8.338988,52.700811],[-8.338894,52.700817],[-8.338716,52.700829],[-8.338465,52.700847],[-8.338021,52.700873],[-8.3376,52.70089],[-8.336969,52.700928],[-8.336886,52.700934],[-8.336807,52.700939],[-8.336013,52.700994],[-8.335777,52.701001],[-8.33495,52.701049],[-8.334365,52.701085],[-8.333879,52.701117],[-8.333789,52.701129],[-8.333789,52.701188],[-8.333471,52.701189],[-8.33346,52.701192],[-8.333346,52.701217],[-8.333347,52.701459],[-8.332904,52.70146],[-8.332903,52.701316],[-8.332755,52.701348],[-8.332229,52.701465],[-8.332149,52.701483],[-8.330943,52.701745],[-8.330691,52.7018],[-8.330691,52.701852],[-8.330449,52.701853],[-8.330275,52.70189],[-8.329214,52.702121],[-8.329219,52.702755],[-8.326423,52.702762],[-8.326261,52.702802],[-8.326267,52.703661],[-8.323308,52.703669],[-8.323315,52.704568],[-8.320356,52.704576],[-8.320363,52.705475],[-8.317404,52.705483],[-8.317411,52.706381],[-8.314328,52.706389],[-8.314256,52.706416],[-8.313703,52.706615],[-8.313703,52.706615],[-8.313703,52.706615],[-8.31341,52.70665],[-8.313412,52.706906],[-8.312968,52.706908],[-8.312967,52.706701],[-8.312713,52.706728],[-8.31257,52.706744],[-8.311962,52.706792],[-8.311571,52.706823],[-8.311316,52.706847],[-8.310772,52.7069],[-8.309969,52.706967],[-8.309342,52.707016],[-8.309342,52.707016],[-8.309342,52.707016],[-8.309342,52.70701],[-8.309342,52.707007],[-8.30917,52.70702],[-8.308825,52.707048],[-8.308423,52.707064],[-8.308325,52.707068],[-8.308309,52.707069],[-8.308258,52.707071],[-8.308108,52.707077],[-8.307922,52.707085],[-8.306829,52.70715],[-8.305857,52.707234],[-8.30536,52.707282],[-8.30489,52.707328],[-8.303974,52.707411],[-8.303301,52.707502],[-8.30325,52.707506],[-8.30325,52.707506],[-8.30325,52.707506],[-8.303095,52.70752],[-8.30284,52.707542],[-8.302827,52.707542],[-8.302496,52.70759],[-8.302269,52.707627],[-8.302422,52.70785],[-8.30246,52.707905],[-8.302529,52.708007],[-8.302649,52.708185],[-8.302808,52.708392],[-8.302889,52.708498],[-8.302956,52.708585],[-8.30298,52.708616],[-8.303046,52.708737],[-8.303193,52.709006],[-8.303235,52.70909],[-8.305437,52.709084],[-8.305435,52.708815],[-8.307655,52.708809],[-8.307653,52.708539],[-8.308984,52.708536],[-8.308986,52.708805],[-8.309874,52.708803],[-8.309876,52.709073],[-8.308988,52.709075],[-8.30899,52.709345],[-8.307214,52.709349],[-8.307216,52.709619],[-8.306328,52.709621],[-8.30633,52.709891],[-8.304998,52.709894],[-8.304997,52.709625],[-8.304553,52.709626],[-8.304554,52.709895],[-8.30358,52.709898],[-8.30374,52.710254],[-8.303758,52.710295],[-8.303783,52.710341],[-8.304077,52.710873],[-8.304274,52.71116],[-8.304405,52.711352],[-8.304741,52.711859],[-8.304832,52.711952],[-8.305109,52.712232],[-8.305231,52.71234],[-8.305354,52.712448],[-8.305657,52.712649],[-8.306166,52.712964],[-8.30617,52.712966],[-8.306182,52.712973],[-8.306222,52.713036],[-8.306226,52.713041],[-8.306439,52.713312],[-8.306753,52.713701],[-8.306806,52.713768],[-8.306886,52.713861],[-8.307221,52.714251],[-8.307535,52.714631],[-8.307708,52.714838],[-8.307727,52.714947],[-8.307751,52.715258],[-8.307753,52.715282],[-8.307832,52.715806],[-8.30783,52.715813],[-8.307828,52.71582],[-8.307828,52.71582],[-8.309294,52.716466],[-8.3106,52.716703],[-8.313619,52.717252],[-8.315323,52.717557],[-8.316315,52.718089],[-8.316659,52.718266]],[[-8.344905,52.703609],[-8.345498,52.703607],[-8.345505,52.704506],[-8.344026,52.70451],[-8.344023,52.704125],[-8.344021,52.704125],[-8.344024,52.704395],[-8.344026,52.704664],[-8.343582,52.704666],[-8.343584,52.704935],[-8.342696,52.704938],[-8.342694,52.704668],[-8.342692,52.704399],[-8.343136,52.704397],[-8.343134,52.704128],[-8.343578,52.704126],[-8.343575,52.703857],[-8.344019,52.703855],[-8.344017,52.703586],[-8.344461,52.703585],[-8.344459,52.703315],[-8.344903,52.703314],[-8.344905,52.703583],[-8.344905,52.703609]],[[-8.314458,52.707288],[-8.314461,52.707713],[-8.316969,52.707706],[-8.316967,52.707436],[-8.316966,52.707167],[-8.316964,52.706897],[-8.31652,52.706898],[-8.316518,52.706628],[-8.320957,52.706617],[-8.320959,52.706886],[-8.322291,52.706883],[-8.322289,52.706613],[-8.322733,52.706612],[-8.322731,52.706342],[-8.323174,52.706341],[-8.323176,52.706611],[-8.323178,52.70688],[-8.32318,52.70715],[-8.324068,52.707147],[-8.324066,52.706878],[-8.325398,52.706874],[-8.3254,52.707144],[-8.325844,52.707142],[-8.325846,52.707412],[-8.326734,52.70741],[-8.326736,52.707679],[-8.325404,52.707683],[-8.325406,52.707953],[-8.32363,52.707957],[-8.323632,52.708227],[-8.321857,52.708232],[-8.321859,52.708502],[-8.320527,52.708505],[-8.320529,52.708775],[-8.318309,52.708781],[-8.318307,52.708511],[-8.318305,52.708242],[-8.317861,52.708243],[-8.317863,52.708512],[-8.317419,52.708514],[-8.317421,52.708783],[-8.317423,52.709053],[-8.316979,52.709054],[-8.316981,52.709324],[-8.316093,52.709326],[-8.316091,52.709056],[-8.315647,52.709058],[-8.315645,52.708788],[-8.314758,52.70879],[-8.314756,52.708521],[-8.313868,52.708523],[-8.313866,52.708253],[-8.313865,52.708188],[-8.312985,52.70819],[-8.312979,52.707292],[-8.313415,52.70729],[-8.313414,52.707176],[-8.313858,52.707175],[-8.313859,52.707289],[-8.314458,52.707288]],[[-8.328993,52.71264],[-8.327814,52.712643],[-8.327807,52.711745],[-8.328542,52.711743],[-8.328542,52.711719],[-8.328098,52.71172],[-8.328096,52.71145],[-8.328984,52.711448],[-8.328986,52.711718],[-8.32943,52.711716],[-8.329432,52.711986],[-8.329288,52.711986],[-8.329292,52.712526],[-8.329436,52.712525],[-8.329438,52.712795],[-8.328994,52.712796],[-8.328993,52.71264]],[[-8.332259,52.713529],[-8.33078,52.713533],[-8.330773,52.712635],[-8.332252,52.712631],[-8.332259,52.713529]],[[-8.342244,52.703861],[-8.3418,52.703862],[-8.341798,52.703592],[-8.342242,52.703591],[-8.342244,52.703861]],[[-8.341356,52.703863],[-8.3418,52.703862],[-8.341802,52.704132],[-8.341358,52.704133],[-8.341356,52.703863]],[[-8.338253,52.704411],[-8.337809,52.704413],[-8.337811,52.704682],[-8.338255,52.704681],[-8.338257,52.704951],[-8.338259,52.70522],[-8.337815,52.705222],[-8.337813,52.704952],[-8.336925,52.704954],[-8.336923,52.704685],[-8.336479,52.704686],[-8.336477,52.704416],[-8.336475,52.704147],[-8.336031,52.704148],[-8.336033,52.704418],[-8.33559,52.704419],[-8.335592,52.704689],[-8.334704,52.704691],[-8.334702,52.704421],[-8.332038,52.704429],[-8.33204,52.704699],[-8.332042,52.704968],[-8.333374,52.704964],[-8.333376,52.705234],[-8.332045,52.705238],[-8.332047,52.705507],[-8.330715,52.705511],[-8.330717,52.705781],[-8.329829,52.705783],[-8.329831,52.706053],[-8.328943,52.706055],[-8.328945,52.706325],[-8.328501,52.706326],[-8.328503,52.706596],[-8.32806,52.706597],[-8.328062,52.706867],[-8.327618,52.706868],[-8.327616,52.706598],[-8.327614,52.706329],[-8.327612,52.706059],[-8.32761,52.705789],[-8.328497,52.705787],[-8.328495,52.705517],[-8.329827,52.705514],[-8.329825,52.705244],[-8.330269,52.705243],[-8.330267,52.704973],[-8.331155,52.704971],[-8.331153,52.704701],[-8.330265,52.704704],[-8.330263,52.704434],[-8.330707,52.704433],[-8.330705,52.704163],[-8.331149,52.704162],[-8.331147,52.703892],[-8.333366,52.703886],[-8.333364,52.703616],[-8.334252,52.703614],[-8.33425,52.703344],[-8.335137,52.703342],[-8.335135,52.703072],[-8.337799,52.703064],[-8.337801,52.703334],[-8.338245,52.703333],[-8.338247,52.703602],[-8.338249,52.703872],[-8.338693,52.703871],[-8.338695,52.70414],[-8.338251,52.704142],[-8.338253,52.704411]],[[-8.327174,52.706869],[-8.327618,52.706868],[-8.32762,52.707138],[-8.327176,52.707139],[-8.327174,52.706869]],[[-8.340472,52.704405],[-8.34047,52.704135],[-8.340914,52.704134],[-8.340916,52.704404],[-8.340472,52.704405]],[[-8.337392,52.707919],[-8.33739,52.707649],[-8.336946,52.707651],[-8.336948,52.70792],[-8.33606,52.707923],[-8.336062,52.708193],[-8.336065,52.708462],[-8.336067,52.708732],[-8.335623,52.708733],[-8.335625,52.709003],[-8.335181,52.709004],[-8.335183,52.709274],[-8.335627,52.709272],[-8.335631,52.709812],[-8.335635,52.710351],[-8.334303,52.710355],[-8.334299,52.709815],[-8.334743,52.709814],[-8.334739,52.709275],[-8.334737,52.709005],[-8.334735,52.708736],[-8.335179,52.708734],[-8.335177,52.708465],[-8.334733,52.708466],[-8.334731,52.708196],[-8.335175,52.708195],[-8.335173,52.707925],[-8.33517,52.707656],[-8.336058,52.707653],[-8.336056,52.707384],[-8.33872,52.707376],[-8.338722,52.707646],[-8.337834,52.707648],[-8.337836,52.707918],[-8.337392,52.707919]],[[-8.339618,52.708722],[-8.339616,52.708452],[-8.34006,52.708451],[-8.340062,52.70872],[-8.339618,52.708722]],[[-8.337896,52.715737],[-8.337452,52.715738],[-8.337455,52.716008],[-8.337011,52.716009],[-8.337008,52.71574],[-8.33612,52.715742],[-8.336118,52.715473],[-8.336116,52.715203],[-8.337448,52.715199],[-8.33745,52.715469],[-8.337894,52.715468],[-8.337896,52.715737]],[[-8.335606,52.706576],[-8.335608,52.706846],[-8.335164,52.706847],[-8.335162,52.706577],[-8.335606,52.706576]],[[-8.33561,52.707115],[-8.335608,52.706846],[-8.336052,52.706844],[-8.336054,52.707114],[-8.33561,52.707115]],[[-8.330297,52.709018],[-8.330299,52.709287],[-8.330302,52.709557],[-8.329414,52.709559],[-8.329412,52.70929],[-8.329856,52.709289],[-8.329853,52.709019],[-8.330297,52.709018]],[[-8.334751,52.710893],[-8.334307,52.710894],[-8.334305,52.710624],[-8.334749,52.710623],[-8.334751,52.710893]],[[-8.333863,52.710895],[-8.334307,52.710894],[-8.334309,52.711164],[-8.333865,52.711165],[-8.333863,52.710895]],[[-8.336977,52.711695],[-8.335645,52.711699],[-8.335647,52.711969],[-8.33476,52.711971],[-8.334757,52.711702],[-8.335201,52.7117],[-8.335199,52.711431],[-8.335197,52.711161],[-8.337417,52.711155],[-8.337419,52.711424],[-8.336975,52.711426],[-8.336977,52.711695]],[[-8.330318,52.711714],[-8.330316,52.711444],[-8.33076,52.711443],[-8.330762,52.711713],[-8.330318,52.711714]],[[-8.333432,52.712514],[-8.332988,52.712515],[-8.332986,52.712246],[-8.332984,52.711976],[-8.333428,52.711975],[-8.333426,52.711705],[-8.33387,52.711704],[-8.333872,52.711974],[-8.333874,52.712243],[-8.33343,52.712245],[-8.333432,52.712514]],[[-8.335662,52.713856],[-8.335664,52.714126],[-8.33522,52.714127],[-8.335218,52.713857],[-8.335662,52.713856]],[[-8.335666,52.714395],[-8.335664,52.714126],[-8.336108,52.714124],[-8.33611,52.714394],[-8.335666,52.714395]],[[-8.333896,52.715209],[-8.333894,52.71494],[-8.334338,52.714938],[-8.33434,52.715208],[-8.333896,52.715209]],[[-8.32583,52.705255],[-8.326274,52.705254],[-8.326276,52.705523],[-8.325832,52.705525],[-8.32583,52.705255]],[[-8.32584,52.706603],[-8.326284,52.706602],[-8.326286,52.706872],[-8.325842,52.706873],[-8.32584,52.706603]],[[-8.328953,52.707404],[-8.329841,52.707401],[-8.329843,52.707671],[-8.328955,52.707673],[-8.328953,52.707404]],[[-8.327626,52.707947],[-8.327622,52.707407],[-8.328066,52.707406],[-8.32807,52.707945],[-8.327626,52.707947]],[[-8.326296,52.70822],[-8.32674,52.708219],[-8.326742,52.708488],[-8.326298,52.708489],[-8.326296,52.70822]],[[-8.323196,52.709307],[-8.322308,52.709309],[-8.322307,52.70904],[-8.32275,52.709038],[-8.322748,52.708769],[-8.323192,52.708768],[-8.323194,52.709037],[-8.323196,52.709307]],[[-8.321421,52.709312],[-8.322308,52.709309],[-8.32231,52.709579],[-8.323198,52.709576],[-8.3232,52.709846],[-8.323202,52.710116],[-8.322758,52.710117],[-8.322756,52.709847],[-8.322312,52.709849],[-8.322314,52.710118],[-8.321427,52.710121],[-8.321425,52.709851],[-8.321423,52.709581],[-8.321421,52.709312]],[[-8.32542,52.70984],[-8.325864,52.709839],[-8.325866,52.710108],[-8.32587,52.710648],[-8.324982,52.71065],[-8.324984,52.71092],[-8.32454,52.710921],[-8.324538,52.710651],[-8.324094,52.710653],[-8.32409,52.710113],[-8.325422,52.71011],[-8.32542,52.70984]],[[-8.326312,52.710377],[-8.32631,52.710107],[-8.327198,52.710105],[-8.3272,52.710374],[-8.326312,52.710377]],[[-8.325876,52.711457],[-8.327208,52.711453],[-8.32721,52.711723],[-8.326322,52.711725],[-8.326324,52.711995],[-8.32588,52.711996],[-8.325878,52.711726],[-8.325876,52.711457]],[[-8.32277,52.711735],[-8.323658,52.711732],[-8.32366,52.712002],[-8.322772,52.712004],[-8.32277,52.711735]],[[-8.320994,52.71174],[-8.321438,52.711738],[-8.32144,52.712008],[-8.320996,52.712009],[-8.320994,52.71174]],[[-8.320535,52.709584],[-8.320537,52.709853],[-8.320093,52.709855],[-8.320091,52.709585],[-8.319647,52.709586],[-8.319645,52.709316],[-8.320533,52.709314],[-8.320535,52.709584]],[[-8.320539,52.710123],[-8.320537,52.709853],[-8.320981,52.709852],[-8.320983,52.710122],[-8.320539,52.710123]],[[-8.314763,52.709599],[-8.314319,52.7096],[-8.314318,52.709331],[-8.314761,52.70933],[-8.314763,52.709599]],[[-8.313432,52.709603],[-8.314319,52.7096],[-8.314321,52.70987],[-8.313433,52.709872],[-8.313432,52.709603]],[[-8.312991,52.710143],[-8.312548,52.710144],[-8.312546,52.709875],[-8.31299,52.709874],[-8.312991,52.710143]],[[-8.31166,52.710147],[-8.312548,52.710144],[-8.312549,52.710414],[-8.311662,52.710416],[-8.31166,52.710147]],[[-8.315211,52.710137],[-8.315655,52.710136],[-8.315657,52.710406],[-8.315213,52.710407],[-8.315211,52.710137]],[[-8.317433,52.710401],[-8.317877,52.7104],[-8.317879,52.710669],[-8.317435,52.710671],[-8.317433,52.710401]],[[-8.314327,52.710679],[-8.314771,52.710678],[-8.314773,52.710947],[-8.314329,52.710949],[-8.314327,52.710679]]],[[[-8.344059,52.708709],[-8.344052,52.7079],[-8.344051,52.7079],[-8.344053,52.70817],[-8.343609,52.708171],[-8.343611,52.708441],[-8.342724,52.708443],[-8.342726,52.708713],[-8.34317,52.708711],[-8.343172,52.708981],[-8.34406,52.708979],[-8.344057,52.708709],[-8.344059,52.708709]]],[[[-8.342581,52.709007],[-8.343172,52.709005],[-8.343172,52.708981],[-8.342728,52.708982],[-8.342726,52.708713],[-8.342282,52.708714],[-8.342284,52.708984],[-8.34184,52.708985],[-8.341842,52.709255],[-8.342583,52.709252],[-8.342581,52.709007]]],[[[-8.343603,52.707362],[-8.343159,52.707363],[-8.343161,52.707633],[-8.343605,52.707632],[-8.343603,52.707362]]],[[[-8.336473,52.703877],[-8.336475,52.704147],[-8.336919,52.704146],[-8.336921,52.704415],[-8.337809,52.704413],[-8.337807,52.704143],[-8.337805,52.703873],[-8.337361,52.703875],[-8.337359,52.703605],[-8.336915,52.703606],[-8.336917,52.703876],[-8.336473,52.703877]]],[[[-8.320967,52.707965],[-8.321855,52.707962],[-8.321853,52.707693],[-8.321851,52.707423],[-8.320963,52.707425],[-8.320961,52.707156],[-8.320073,52.707158],[-8.320075,52.707428],[-8.319631,52.707429],[-8.319633,52.707699],[-8.319189,52.7077],[-8.319191,52.70797],[-8.318747,52.707971],[-8.318749,52.70824],[-8.319193,52.708239],[-8.319195,52.708509],[-8.320083,52.708506],[-8.320081,52.708237],[-8.320969,52.708234],[-8.320967,52.707965]]],[[[-8.316087,52.708517],[-8.316531,52.708516],[-8.316529,52.708246],[-8.316085,52.708247],[-8.316087,52.708517]]]]}}]}
