{"type":"FeatureCollection","features":[{"type":"Feature","properties":{"source_fid":2245977,"county":"Mayo","bog_geom_ha":166.60603742433537,"low15_pct":71.976241900647949,"low15_ha":119.91676451762368,"overlay_ha":119.85903909496434,"area_delta":-0.057725422659331116},"geometry":{"type":"MultiPolygon","coordinates":[[[[-9.556862,53.967358],[-9.556405,53.967364],[-9.556415,53.967633],[-9.557329,53.967621],[-9.557319,53.967352],[-9.557776,53.967346],[-9.557756,53.966807],[-9.556841,53.966819],[-9.556862,53.967358]]],[[[-9.565112,53.9771],[-9.565165,53.977058],[-9.565238,53.976981],[-9.565259,53.976911],[-9.565255,53.976844],[-9.565251,53.976775],[-9.565238,53.976616],[-9.565202,53.976498],[-9.565149,53.976389],[-9.56507,53.976261],[-9.564997,53.976131],[-9.564975,53.976082],[-9.561492,53.976127],[-9.561444,53.974847],[-9.5608,53.974856],[-9.56081,53.975125],[-9.559896,53.975137],[-9.559886,53.974868],[-9.558809,53.974882],[-9.55881,53.974887],[-9.558764,53.974949],[-9.558632,53.97503],[-9.558461,53.975112],[-9.558348,53.97519],[-9.558275,53.97527],[-9.558237,53.975366],[-9.558202,53.975437],[-9.558052,53.975511],[-9.557826,53.975602],[-9.557763,53.975632],[-9.55765,53.975617],[-9.557413,53.975632],[-9.557361,53.975583],[-9.557133,53.97559],[-9.556856,53.975571],[-9.556729,53.975565],[-9.556531,53.975555],[-9.556322,53.975531],[-9.556192,53.975497],[-9.556036,53.975461],[-9.555999,53.975457],[-9.553963,53.975484],[-9.553953,53.975214],[-9.553943,53.974945],[-9.553486,53.974951],[-9.553476,53.974681],[-9.553019,53.974687],[-9.553029,53.974956],[-9.548915,53.97501],[-9.548905,53.97474],[-9.548447,53.974746],[-9.548438,53.974476],[-9.54798,53.974482],[-9.54797,53.974213],[-9.547513,53.974219],[-9.547503,53.973949],[-9.547493,53.97368],[-9.54795,53.973674],[-9.54796,53.973943],[-9.548875,53.973932],[-9.548885,53.974201],[-9.55117,53.974172],[-9.55116,53.973902],[-9.55115,53.973633],[-9.551607,53.973627],[-9.551617,53.973896],[-9.552074,53.97389],[-9.552064,53.973621],[-9.552054,53.973351],[-9.552512,53.973345],[-9.552522,53.973615],[-9.553436,53.973603],[-9.553446,53.973873],[-9.554817,53.973855],[-9.554807,53.973585],[-9.555264,53.973579],[-9.555254,53.97331],[-9.556625,53.973292],[-9.556615,53.973023],[-9.55753,53.973011],[-9.55752,53.972741],[-9.557977,53.972736],[-9.557967,53.972466],[-9.556595,53.972484],[-9.556585,53.972214],[-9.557499,53.972202],[-9.557489,53.971933],[-9.557947,53.971927],[-9.557936,53.971658],[-9.557479,53.971664],[-9.557469,53.971394],[-9.557459,53.971125],[-9.557002,53.97113],[-9.557012,53.9714],[-9.556555,53.971406],[-9.556565,53.971675],[-9.555651,53.971687],[-9.555641,53.971418],[-9.556098,53.971412],[-9.556088,53.971142],[-9.556078,53.970873],[-9.557449,53.970855],[-9.557439,53.970586],[-9.557896,53.97058],[-9.557886,53.97031],[-9.557876,53.970041],[-9.558333,53.970035],[-9.558343,53.970304],[-9.5588,53.970298],[-9.55881,53.970568],[-9.55882,53.970837],[-9.559278,53.970831],[-9.559288,53.971101],[-9.559298,53.97137],[-9.559755,53.971364],[-9.559765,53.971634],[-9.559775,53.971903],[-9.560232,53.971897],[-9.560242,53.972167],[-9.560252,53.972436],[-9.560709,53.97243],[-9.560719,53.9727],[-9.560729,53.972969],[-9.560739,53.973239],[-9.561197,53.973233],[-9.561207,53.973502],[-9.561217,53.973772],[-9.561227,53.974041],[-9.561413,53.974039],[-9.561357,53.972535],[-9.562881,53.972515],[-9.562847,53.971617],[-9.5598,53.971657],[-9.559709,53.969208],[-9.559674,53.969209],[-9.559614,53.967592],[-9.559594,53.967053],[-9.559574,53.966514],[-9.560031,53.966508],[-9.560022,53.966272],[-9.55973,53.96624],[-9.55957,53.966216],[-9.559261,53.966176],[-9.558916,53.966149],[-9.558875,53.966121],[-9.558813,53.966118],[-9.558767,53.966094],[-9.558705,53.966079],[-9.558517,53.966059],[-9.558451,53.96603],[-9.558368,53.966055],[-9.55833,53.966052],[-9.55831,53.966009],[-9.558246,53.966008],[-9.558214,53.966031],[-9.558176,53.966018],[-9.558179,53.965979],[-9.558101,53.965971],[-9.558067,53.966005],[-9.558028,53.966002],[-9.557979,53.965933],[-9.557885,53.965943],[-9.557822,53.965911],[-9.557808,53.965884],[-9.557812,53.965845],[-9.557725,53.965772],[-9.557655,53.965756],[-9.557584,53.965761],[-9.557455,53.965738],[-9.55738,53.965709],[-9.55741,53.96565],[-9.557376,53.965631],[-9.557274,53.965654],[-9.55715,53.965681],[-9.55708,53.965655],[-9.556954,53.965628],[-9.556798,53.965651],[-9.55667,53.965617],[-9.556516,53.965568],[-9.55642,53.965615],[-9.55634,53.965641],[-9.556344,53.965747],[-9.557258,53.965735],[-9.557268,53.966004],[-9.557725,53.965999],[-9.557756,53.966807],[-9.558213,53.966801],[-9.558233,53.96734],[-9.558243,53.967609],[-9.557786,53.967615],[-9.557796,53.967885],[-9.557339,53.967891],[-9.557349,53.96816],[-9.557359,53.96843],[-9.557816,53.968424],[-9.557826,53.968693],[-9.557836,53.968963],[-9.557837,53.968987],[-9.558177,53.968982],[-9.55821,53.96988],[-9.556687,53.9699],[-9.556663,53.969248],[-9.556475,53.96925],[-9.556465,53.968981],[-9.556922,53.968975],[-9.556912,53.968705],[-9.555998,53.968717],[-9.555988,53.968448],[-9.555531,53.968453],[-9.555521,53.968184],[-9.555063,53.96819],[-9.555053,53.96792],[-9.555043,53.967651],[-9.555033,53.967381],[-9.555013,53.966842],[-9.554983,53.966034],[-9.554973,53.965765],[-9.55543,53.965759],[-9.555423,53.965575],[-9.555391,53.965599],[-9.555294,53.965618],[-9.555095,53.965567],[-9.5549,53.96551],[-9.554768,53.965526],[-9.554707,53.965502],[-9.554482,53.965498],[-9.554295,53.965525],[-9.554146,53.965502],[-9.554085,53.965472],[-9.553929,53.965471],[-9.553768,53.965459],[-9.553652,53.965476],[-9.55353,53.965508],[-9.553365,53.965529],[-9.553183,53.965577],[-9.553066,53.96559],[-9.552813,53.965578],[-9.552687,53.965605],[-9.552626,53.965539],[-9.552474,53.9655],[-9.55226,53.965353],[-9.552106,53.965383],[-9.551983,53.965364],[-9.551902,53.965376],[-9.551797,53.965392],[-9.551703,53.965378],[-9.551588,53.965392],[-9.551479,53.965366],[-9.551399,53.965323],[-9.551323,53.965344],[-9.551292,53.965316],[-9.551184,53.965336],[-9.551116,53.965352],[-9.551016,53.965357],[-9.550956,53.965369],[-9.550897,53.965372],[-9.550737,53.965357],[-9.550663,53.965304],[-9.550783,53.965318],[-9.550728,53.965273],[-9.550536,53.965259],[-9.55039,53.965236],[-9.550381,53.96523],[-9.550383,53.965285],[-9.549926,53.965291],[-9.549966,53.966368],[-9.549509,53.966374],[-9.549469,53.965296],[-9.549459,53.965038],[-9.549373,53.964984],[-9.549291,53.96502],[-9.549186,53.965033],[-9.548982,53.96506],[-9.548887,53.965019],[-9.548886,53.965019],[-9.548971,53.967304],[-9.547448,53.967324],[-9.547547,53.970018],[-9.546024,53.970038],[-9.546091,53.971834],[-9.549137,53.971795],[-9.549171,53.972693],[-9.547647,53.972713],[-9.547681,53.973611],[-9.546286,53.973629],[-9.546426,53.973756],[-9.546426,53.973759],[-9.54642,53.973801],[-9.546493,53.97384],[-9.546515,53.973879],[-9.546634,53.974011],[-9.546808,53.9742],[-9.546996,53.97437],[-9.547253,53.974558],[-9.547395,53.974657],[-9.547551,53.974758],[-9.547762,53.974883],[-9.547911,53.974972],[-9.548051,53.975055],[-9.548249,53.975161],[-9.548401,53.975226],[-9.548573,53.975292],[-9.548667,53.975306],[-9.548865,53.975361],[-9.54898,53.97539],[-9.549032,53.975404],[-9.54941,53.975509],[-9.549873,53.975619],[-9.550255,53.975693],[-9.550826,53.975814],[-9.551174,53.975888],[-9.551557,53.975974],[-9.551922,53.976059],[-9.552285,53.976145],[-9.552495,53.976185],[-9.552618,53.976196],[-9.552612,53.97604],[-9.553983,53.976023],[-9.553993,53.976292],[-9.553836,53.976294],[-9.554236,53.976326],[-9.554757,53.976368],[-9.555324,53.976423],[-9.556033,53.976481],[-9.556586,53.976538],[-9.557088,53.976583],[-9.557577,53.976626],[-9.558204,53.976682],[-9.558699,53.976722],[-9.559142,53.976783],[-9.559517,53.976836],[-9.559789,53.976884],[-9.560084,53.976962],[-9.560313,53.977019],[-9.560495,53.977044],[-9.56078,53.977046],[-9.561092,53.977049],[-9.561633,53.977052],[-9.562078,53.977069],[-9.562519,53.977079],[-9.562871,53.977096],[-9.563204,53.977118],[-9.563628,53.97716],[-9.564,53.977219],[-9.564544,53.977331],[-9.564663,53.977307],[-9.564904,53.977312],[-9.565018,53.977177],[-9.565066,53.977136],[-9.565112,53.9771]],[[-9.55114,53.973363],[-9.55115,53.973633],[-9.550693,53.973639],[-9.550683,53.973369],[-9.55114,53.973363]],[[-9.563623,53.976976],[-9.562252,53.976994],[-9.562242,53.976724],[-9.563613,53.976706],[-9.563623,53.976976]],[[-9.555681,53.972496],[-9.555691,53.972765],[-9.554777,53.972777],[-9.554767,53.972507],[-9.555681,53.972496]],[[-9.55432,53.972783],[-9.554777,53.972777],[-9.554787,53.973046],[-9.55433,53.973052],[-9.55432,53.972783]],[[-9.553763,53.970094],[-9.553742,53.969555],[-9.554657,53.969543],[-9.554677,53.970082],[-9.554687,53.970352],[-9.55423,53.970358],[-9.55425,53.970897],[-9.553336,53.970908],[-9.553315,53.970369],[-9.553305,53.9701],[-9.553763,53.970094]],[[-9.55104,53.970668],[-9.55107,53.971477],[-9.550613,53.971483],[-9.550583,53.970674],[-9.55104,53.970668]],[[-9.550156,53.971489],[-9.550613,53.971483],[-9.550633,53.972022],[-9.550176,53.972028],[-9.550156,53.971489]]],[[[-9.559835,53.97352],[-9.559825,53.973251],[-9.559368,53.973257],[-9.559378,53.973526],[-9.559835,53.97352]]],[[[-9.552542,53.974154],[-9.552532,53.973884],[-9.552074,53.97389],[-9.552084,53.97416],[-9.552542,53.974154]]],[[[-9.56077,53.974047],[-9.56076,53.973778],[-9.559845,53.97379],[-9.559855,53.974059],[-9.559865,53.974329],[-9.561237,53.974311],[-9.561227,53.974041],[-9.56077,53.974047]]],[[[-9.557011,53.980675],[-9.556835,53.98079],[-9.556799,53.980814],[-9.557011,53.980675]]],[[[-9.555761,53.981381],[-9.555555,53.981491],[-9.555557,53.98149],[-9.555761,53.981381]]],[[[-9.54646,53.98152],[-9.546449,53.981517],[-9.546456,53.981713],[-9.544933,53.981732],[-9.541885,53.981772],[-9.541919,53.98267],[-9.541423,53.982676],[-9.541432,53.982924],[-9.540975,53.98293],[-9.540995,53.983469],[-9.541005,53.983739],[-9.540547,53.983745],[-9.540567,53.984284],[-9.540575,53.984484],[-9.541238,53.984475],[-9.541241,53.984474],[-9.541349,53.984419],[-9.541387,53.984397],[-9.541426,53.984376],[-9.541455,53.984362],[-9.5415,53.984341],[-9.541707,53.984269],[-9.541718,53.984266],[-9.541736,53.98426],[-9.541913,53.984208],[-9.54212,53.984108],[-9.542397,53.983984],[-9.542611,53.983898],[-9.542692,53.983832],[-9.542761,53.983787],[-9.542881,53.983719],[-9.542943,53.983677],[-9.543029,53.983619],[-9.543084,53.983585],[-9.543118,53.983564],[-9.543137,53.983557],[-9.543157,53.983549],[-9.543186,53.98353],[-9.543227,53.983504],[-9.543313,53.983496],[-9.543446,53.983439],[-9.543684,53.983323],[-9.543864,53.983318],[-9.543943,53.983307],[-9.544119,53.983282],[-9.544326,53.98325],[-9.544457,53.983229],[-9.544756,53.983182],[-9.54481,53.983174],[-9.544985,53.983148],[-9.544966,53.982631],[-9.547378,53.9826],[-9.547385,53.982596],[-9.548095,53.982348],[-9.548114,53.98233],[-9.548129,53.982316],[-9.54817,53.982296],[-9.548199,53.982281],[-9.548189,53.982276],[-9.54813,53.982203],[-9.548087,53.982125],[-9.547881,53.982064],[-9.547682,53.981977],[-9.547285,53.981815],[-9.547104,53.981739],[-9.547033,53.981678],[-9.546846,53.98159],[-9.546776,53.981553],[-9.546657,53.98152],[-9.546596,53.981503],[-9.546558,53.9815],[-9.546538,53.981514],[-9.54646,53.98152]],[[-9.54507,53.982339],[-9.544613,53.982344],[-9.544593,53.981805],[-9.545964,53.981788],[-9.545984,53.982327],[-9.545994,53.982596],[-9.54508,53.982608],[-9.54507,53.982339]]],[[[-9.528176,53.970692],[-9.527761,53.970697],[-9.52777,53.970967],[-9.528186,53.970961],[-9.528176,53.970692]]],[[[-9.530054,53.972016],[-9.529597,53.972022],[-9.529587,53.971752],[-9.529323,53.971756],[-9.529334,53.972048],[-9.530857,53.972029],[-9.530837,53.971467],[-9.530491,53.971471],[-9.530481,53.971202],[-9.530024,53.971207],[-9.530044,53.971746],[-9.530054,53.972016]]],[[[-9.533778,53.972818],[-9.533688,53.972785],[-9.53355,53.972755],[-9.533529,53.972699],[-9.533476,53.972653],[-9.533472,53.972634],[-9.533462,53.972605],[-9.533501,53.972597],[-9.533957,53.972447],[-9.534779,53.972236],[-9.535075,53.972163],[-9.535431,53.972058],[-9.535427,53.971971],[-9.532381,53.97201],[-9.532414,53.972908],[-9.53383,53.97289],[-9.53385,53.972862],[-9.533778,53.972818]]],[[[-9.539049,53.975752],[-9.53888,53.975748],[-9.538888,53.975947],[-9.537973,53.975959],[-9.537968,53.975804],[-9.537808,53.975815],[-9.537591,53.975811],[-9.537298,53.97578],[-9.53697,53.975731],[-9.536537,53.975666],[-9.536214,53.975608],[-9.535993,53.975558],[-9.534036,53.975583],[-9.534003,53.974684],[-9.534594,53.974677],[-9.534474,53.974567],[-9.534342,53.97443],[-9.534199,53.974298],[-9.534049,53.97415],[-9.533951,53.974053],[-9.533799,53.973906],[-9.533673,53.97379],[-9.532447,53.973806],[-9.532414,53.972908],[-9.531002,53.972926],[-9.531007,53.973082],[-9.530896,53.973084],[-9.530923,53.973825],[-9.5294,53.973845],[-9.527876,53.973864],[-9.527909,53.974762],[-9.529433,53.974743],[-9.529466,53.975641],[-9.529498,53.976539],[-9.532545,53.9765],[-9.532578,53.977376],[-9.533451,53.977365],[-9.533452,53.977387],[-9.534102,53.977379],[-9.535626,53.977359],[-9.537149,53.97734],[-9.538673,53.97732],[-9.538706,53.978218],[-9.540229,53.978199],[-9.540262,53.979097],[-9.541786,53.979077],[-9.543309,53.979058],[-9.543343,53.979956],[-9.545578,53.979927],[-9.545591,53.979913],[-9.545631,53.979874],[-9.545623,53.979837],[-9.545583,53.979744],[-9.545593,53.97962],[-9.545626,53.979444],[-9.54566,53.979315],[-9.545633,53.979126],[-9.545599,53.978947],[-9.545488,53.978733],[-9.545454,53.97864],[-9.545417,53.978518],[-9.545404,53.978443],[-9.545351,53.978362],[-9.545308,53.978278],[-9.545282,53.978226],[-9.545225,53.978163],[-9.545199,53.978088],[-9.545189,53.977963],[-9.545184,53.977831],[-9.545251,53.977771],[-9.545312,53.97772],[-9.545343,53.977666],[-9.545311,53.977637],[-9.545261,53.977561],[-9.545255,53.977509],[-9.545121,53.977359],[-9.544985,53.977317],[-9.544825,53.977238],[-9.544782,53.977195],[-9.544803,53.977167],[-9.544856,53.977149],[-9.544901,53.977101],[-9.544985,53.977015],[-9.545046,53.976925],[-9.54508,53.976876],[-9.545019,53.97681],[-9.544927,53.976694],[-9.544905,53.976646],[-9.544929,53.976518],[-9.544961,53.976388],[-9.544947,53.976167],[-9.544947,53.97609],[-9.545024,53.976034],[-9.545084,53.975948],[-9.54517,53.975922],[-9.545194,53.97587],[-9.545225,53.975778],[-9.545292,53.975682],[-9.545366,53.975604],[-9.545374,53.975427],[-9.544749,53.975259],[-9.544372,53.975176],[-9.544153,53.97512],[-9.543755,53.975017],[-9.54349,53.974956],[-9.54316,53.974897],[-9.543006,53.974923],[-9.542801,53.974926],[-9.542614,53.974938],[-9.542403,53.974976],[-9.542079,53.97504],[-9.541855,53.975068],[-9.541556,53.9751],[-9.541511,53.975105],[-9.541601,53.975104],[-9.541611,53.975373],[-9.541153,53.975379],[-9.541145,53.975144],[-9.540903,53.975169],[-9.540678,53.975207],[-9.540598,53.975221],[-9.540484,53.975226],[-9.540217,53.975324],[-9.53986,53.975453],[-9.539724,53.975509],[-9.5394,53.975641],[-9.539162,53.975728],[-9.539049,53.975752]]],[[[-9.540508,53.982688],[-9.540395,53.982689],[-9.540051,53.982694],[-9.54006,53.982942],[-9.540518,53.982936],[-9.540508,53.982688]]],[[[-9.540537,53.983475],[-9.54008,53.983481],[-9.54009,53.98375],[-9.540547,53.983745],[-9.540537,53.983475]]],[[[-9.54011,53.984289],[-9.54009,53.98375],[-9.539633,53.983756],[-9.539643,53.984026],[-9.53892,53.984035],[-9.538937,53.984505],[-9.53966,53.984496],[-9.539653,53.984295],[-9.54011,53.984289]]],[[[-9.538939,53.984555],[-9.538937,53.984505],[-9.538603,53.984509],[-9.538609,53.98451],[-9.538793,53.984537],[-9.538809,53.98454],[-9.538939,53.984555]]]]}}]}
