{"type":"FeatureCollection","features":[{"type":"Feature","properties":{"source_fid":2245919,"county":"Mayo","bog_geom_ha":114.40962810382047,"low15_pct":99.137254901960787,"low15_ha":113.42256464566985,"overlay_ha":113.41962810382806,"area_delta":-0.0029365418417910405},"geometry":{"type":"MultiPolygon","coordinates":[[[[-9.517038,53.915768],[-9.516273,53.915751],[-9.516189,53.915755],[-9.516104,53.915761],[-9.516109,53.915769],[-9.516124,53.915804],[-9.516175,53.915923],[-9.516185,53.915956],[-9.516306,53.916358],[-9.51634,53.916473],[-9.516401,53.916675],[-9.515616,53.916658],[-9.514821,53.916641],[-9.514335,53.916631],[-9.513657,53.916624],[-9.513318,53.916619],[-9.513252,53.916608],[-9.513133,53.916587],[-9.512991,53.916569],[-9.512665,53.916526],[-9.512135,53.916502],[-9.511168,53.916495],[-9.51105,53.916494],[-9.511013,53.916525],[-9.510873,53.916643],[-9.51097,53.916737],[-9.511051,53.916814],[-9.511198,53.916981],[-9.511501,53.917313],[-9.51155,53.91737],[-9.511607,53.917437],[-9.511682,53.917517],[-9.511725,53.917563],[-9.511734,53.917573],[-9.511802,53.917649],[-9.511944,53.9178],[-9.512063,53.917949],[-9.512066,53.917952],[-9.512147,53.918029],[-9.512228,53.918145],[-9.512437,53.918393],[-9.512617,53.918599],[-9.512674,53.918663],[-9.512685,53.918677],[-9.512706,53.918702],[-9.512943,53.918987],[-9.513226,53.919322],[-9.513366,53.919488],[-9.513392,53.919518],[-9.513563,53.919721],[-9.513795,53.919973],[-9.514026,53.920279],[-9.514011,53.920278],[-9.514138,53.920433],[-9.514262,53.920606],[-9.514366,53.920727],[-9.514525,53.920868],[-9.514641,53.920994],[-9.514627,53.921057],[-9.514483,53.921237],[-9.514429,53.921342],[-9.514429,53.921371],[-9.514458,53.921536],[-9.514464,53.921598],[-9.514405,53.921615],[-9.514305,53.921657],[-9.514162,53.921723],[-9.514041,53.921779],[-9.513809,53.921879],[-9.513698,53.92193],[-9.513564,53.921995],[-9.513555,53.921999],[-9.513356,53.922124],[-9.513305,53.922157],[-9.51325,53.922225],[-9.513165,53.92227],[-9.513101,53.922277],[-9.513076,53.922296],[-9.513004,53.922351],[-9.51298,53.922379],[-9.512636,53.922602],[-9.512587,53.922629],[-9.512575,53.922636],[-9.512536,53.922658],[-9.512528,53.922663],[-9.512367,53.922754],[-9.512325,53.922779],[-9.511697,53.923153],[-9.511486,53.923289],[-9.51156,53.923298],[-9.511555,53.923344],[-9.511635,53.923422],[-9.51177,53.923419],[-9.511864,53.923398],[-9.511939,53.923437],[-9.511932,53.923484],[-9.511974,53.923547],[-9.511963,53.923579],[-9.511974,53.923603],[-9.512068,53.923598],[-9.512189,53.923612],[-9.512276,53.923643],[-9.512358,53.923672],[-9.512455,53.923713],[-9.512508,53.92375],[-9.51255,53.923773],[-9.512671,53.923794],[-9.512758,53.923822],[-9.512896,53.923872],[-9.513057,53.923899],[-9.513065,53.9239],[-9.513155,53.923915],[-9.513549,53.923963],[-9.513564,53.923966],[-9.513898,53.924043],[-9.513939,53.924048],[-9.514156,53.924075],[-9.514337,53.924077],[-9.514411,53.92407],[-9.514505,53.924061],[-9.514773,53.924008],[-9.514849,53.923993],[-9.515136,53.923924],[-9.515192,53.92391],[-9.515371,53.923871],[-9.51548,53.92382],[-9.515639,53.923733],[-9.515897,53.923626],[-9.516219,53.923526],[-9.516398,53.92347],[-9.516709,53.923396],[-9.516724,53.923393],[-9.51684,53.923366],[-9.516993,53.923326],[-9.517102,53.923318],[-9.517194,53.92334],[-9.517281,53.923378],[-9.517355,53.923414],[-9.517431,53.923446],[-9.517483,53.923451],[-9.517522,53.923461],[-9.517601,53.923478],[-9.517678,53.923494],[-9.517836,53.923528],[-9.517989,53.923568],[-9.518275,53.923643],[-9.51832,53.923653],[-9.518362,53.923662],[-9.518779,53.923756],[-9.518836,53.923768],[-9.518898,53.923792],[-9.518929,53.923804],[-9.518962,53.923817],[-9.519004,53.923835],[-9.519139,53.923892],[-9.519363,53.923987],[-9.519659,53.924127],[-9.519868,53.924206],[-9.520309,53.924358],[-9.5204,53.924398],[-9.52063,53.924498],[-9.520839,53.924632],[-9.52084,53.924633],[-9.521085,53.924782],[-9.521322,53.924928],[-9.521347,53.924943],[-9.521356,53.924949],[-9.521416,53.924919],[-9.521509,53.924909],[-9.521576,53.924921],[-9.521604,53.924938],[-9.521635,53.924942],[-9.521695,53.924929],[-9.521739,53.9249],[-9.521801,53.924879],[-9.521863,53.924869],[-9.521912,53.924864],[-9.521963,53.924847],[-9.522057,53.924804],[-9.522057,53.924804],[-9.522198,53.924716],[-9.522318,53.924649],[-9.522412,53.924644],[-9.522436,53.924637],[-9.522503,53.924618],[-9.522533,53.92461],[-9.522655,53.924581],[-9.522716,53.924577],[-9.522772,53.924577],[-9.522885,53.924593],[-9.522951,53.924616],[-9.522974,53.924622],[-9.522986,53.924642],[-9.523031,53.924649],[-9.523093,53.924637],[-9.52316,53.924632],[-9.523196,53.924592],[-9.523245,53.924574],[-9.523328,53.92457],[-9.523444,53.924586],[-9.523509,53.924569],[-9.523545,53.92448],[-9.523601,53.924443],[-9.523694,53.924395],[-9.523896,53.924399],[-9.524026,53.924317],[-9.524087,53.924253],[-9.52412,53.924184],[-9.524094,53.924153],[-9.524091,53.924122],[-9.524138,53.924086],[-9.52417,53.92404],[-9.524228,53.924011],[-9.524562,53.923999],[-9.524771,53.924003],[-9.524914,53.923986],[-9.525133,53.923997],[-9.525238,53.924012],[-9.525346,53.924048],[-9.525384,53.924103],[-9.525431,53.924131],[-9.525508,53.924131],[-9.525515,53.924132],[-9.525576,53.924141],[-9.525613,53.92414],[-9.525666,53.924134],[-9.525718,53.924151],[-9.525755,53.92419],[-9.525792,53.92422],[-9.525837,53.924234],[-9.525971,53.924205],[-9.526056,53.924181],[-9.526098,53.924165],[-9.526108,53.924127],[-9.526111,53.924084],[-9.526213,53.924062],[-9.526279,53.924014],[-9.526321,53.924002],[-9.526382,53.924002],[-9.526447,53.92402],[-9.526534,53.924014],[-9.526623,53.923966],[-9.526704,53.923975],[-9.526886,53.924013],[-9.526982,53.923998],[-9.527112,53.923993],[-9.52721,53.92398],[-9.527228,53.923978],[-9.52737,53.923916],[-9.52742,53.923875],[-9.52755,53.923864],[-9.527605,53.923843],[-9.527713,53.923819],[-9.527789,53.923807],[-9.527925,53.923789],[-9.528114,53.923726],[-9.528268,53.923688],[-9.528343,53.923635],[-9.528373,53.923598],[-9.528437,53.92356],[-9.528453,53.923517],[-9.528458,53.923434],[-9.52851,53.92341],[-9.528675,53.923417],[-9.528666,53.923365],[-9.528664,53.92331],[-9.52871,53.923257],[-9.528764,53.923232],[-9.528784,53.923226],[-9.528859,53.923203],[-9.528982,53.923188],[-9.529193,53.923156],[-9.529229,53.923141],[-9.529248,53.923063],[-9.529287,53.923017],[-9.529317,53.922946],[-9.529323,53.922898],[-9.529342,53.922849],[-9.529397,53.922798],[-9.52955,53.922785],[-9.529615,53.922757],[-9.529802,53.922754],[-9.529922,53.922737],[-9.529982,53.9227],[-9.53003,53.922638],[-9.530108,53.922649],[-9.530214,53.922637],[-9.530236,53.922637],[-9.530348,53.922634],[-9.530448,53.922592],[-9.530585,53.922619],[-9.530683,53.922589],[-9.53082,53.922548],[-9.530948,53.922553],[-9.531025,53.922622],[-9.531117,53.92268],[-9.531239,53.922718],[-9.531345,53.922777],[-9.531471,53.922807],[-9.531493,53.922812],[-9.531581,53.922824],[-9.531629,53.922839],[-9.531815,53.922817],[-9.531883,53.922821],[-9.531987,53.922855],[-9.532018,53.922873],[-9.532069,53.922904],[-9.53221,53.922946],[-9.532307,53.922939],[-9.532364,53.922906],[-9.532422,53.922844],[-9.532496,53.922843],[-9.532606,53.922876],[-9.532618,53.92288],[-9.532749,53.92293],[-9.532794,53.923011],[-9.532865,53.923091],[-9.532894,53.923147],[-9.532933,53.923169],[-9.533019,53.923191],[-9.533115,53.92318],[-9.53316,53.923156],[-9.533245,53.923132],[-9.53331,53.923116],[-9.533383,53.923099],[-9.533544,53.923102],[-9.533645,53.923076],[-9.533759,53.922964],[-9.533853,53.922897],[-9.533911,53.92287],[-9.534064,53.922853],[-9.534225,53.92286],[-9.534365,53.92285],[-9.534412,53.922843],[-9.534484,53.922831],[-9.534613,53.922838],[-9.534709,53.92286],[-9.534748,53.922746],[-9.534765,53.922655],[-9.534778,53.9226],[-9.534791,53.922536],[-9.534794,53.922469],[-9.534769,53.922328],[-9.534738,53.922221],[-9.534705,53.922116],[-9.534622,53.921897],[-9.534574,53.921797],[-9.534521,53.921665],[-9.534363,53.921425],[-9.534331,53.921376],[-9.534248,53.921251],[-9.534194,53.921171],[-9.533961,53.920784],[-9.533762,53.920391],[-9.53374,53.920349],[-9.533685,53.920254],[-9.533621,53.920144],[-9.533458,53.919965],[-9.533311,53.919726],[-9.533102,53.919316],[-9.533098,53.919308],[-9.533026,53.919138],[-9.532948,53.918946],[-9.532825,53.918675],[-9.532608,53.918195],[-9.532606,53.918191],[-9.532586,53.918146],[-9.532526,53.918016],[-9.532403,53.917574],[-9.532341,53.91733],[-9.532335,53.9173],[-9.532294,53.917095],[-9.532236,53.916865],[-9.532172,53.916487],[-9.532169,53.916457],[-9.532169,53.916451],[-9.531955,53.916437],[-9.531335,53.916401],[-9.530548,53.916351],[-9.530425,53.916343],[-9.530211,53.91633],[-9.53012,53.916327],[-9.529835,53.916315],[-9.529746,53.916311],[-9.52912,53.916281],[-9.52893,53.916271],[-9.52846,53.916237],[-9.528065,53.916208],[-9.527895,53.916199],[-9.527266,53.916168],[-9.527236,53.916167],[-9.526796,53.916149],[-9.52671,53.916145],[-9.526498,53.916137],[-9.52601,53.916109],[-9.52559,53.916085],[-9.525471,53.916077],[-9.524827,53.916036],[-9.524816,53.916036],[-9.52422,53.916014],[-9.523807,53.915998],[-9.523563,53.915984],[-9.522997,53.915951],[-9.522953,53.915947],[-9.522634,53.915915],[-9.522375,53.91589],[-9.52236,53.915889],[-9.522216,53.91588],[-9.522015,53.915868],[-9.521689,53.915856],[-9.521411,53.915845],[-9.521185,53.915841],[-9.521107,53.91584],[-9.520517,53.915836],[-9.520444,53.915833],[-9.520197,53.915824],[-9.519996,53.915817],[-9.519869,53.915814],[-9.519322,53.915802],[-9.519198,53.915801],[-9.518678,53.9158],[-9.518664,53.9158],[-9.518069,53.915785],[-9.517705,53.915781],[-9.517455,53.915778],[-9.517038,53.915768]],[[-9.529133,53.92188],[-9.529113,53.921341],[-9.531396,53.921312],[-9.531416,53.921851],[-9.52959,53.921874],[-9.529599,53.922144],[-9.529143,53.92215],[-9.529133,53.92188]]]]}}]}
