{"type":"FeatureCollection","features":[{"type":"Feature","properties":{"source_fid":2245588,"county":"Mayo","bog_geom_ha":237.34858357945271,"low15_pct":99.657403882755986,"low15_ha":236.53543654777584,"overlay_ha":236.47765199612263,"area_delta":-0.057784551653213612},"geometry":{"type":"MultiPolygon","coordinates":[[[[-9.387399,53.973548],[-9.387524,53.97348],[-9.387645,53.973414],[-9.387602,53.972128],[-9.387378,53.972131],[-9.387369,53.971861],[-9.386912,53.971866],[-9.386903,53.971597],[-9.386446,53.971602],[-9.386437,53.971333],[-9.386428,53.971063],[-9.386842,53.971058],[-9.386774,53.970907],[-9.386739,53.970773],[-9.386727,53.970615],[-9.386708,53.970375],[-9.386713,53.970036],[-9.386752,53.96965],[-9.386768,53.96952],[-9.386791,53.969324],[-9.386785,53.968948],[-9.386804,53.96855],[-9.386826,53.96823],[-9.386841,53.968139],[-9.387057,53.968142],[-9.38732,53.968162],[-9.387472,53.968174],[-9.387803,53.968214],[-9.387891,53.968241],[-9.387942,53.968278],[-9.388079,53.968359],[-9.388272,53.968406],[-9.388575,53.968497],[-9.388583,53.968488],[-9.388597,53.968475],[-9.388608,53.968466],[-9.388608,53.968466],[-9.38825,53.96837],[-9.388001,53.968217],[-9.387987,53.968208],[-9.387975,53.968199],[-9.387732,53.968011],[-9.387287,53.967666],[-9.386993,53.967506],[-9.386824,53.967412],[-9.386626,53.96713],[-9.385496,53.966655],[-9.385462,53.966452],[-9.385609,53.965735],[-9.385651,53.965383],[-9.385906,53.965105],[-9.38621,53.964785],[-9.386324,53.964649],[-9.386405,53.964555],[-9.386515,53.964348],[-9.386601,53.964141],[-9.386635,53.963896],[-9.386607,53.963671],[-9.386557,53.963559],[-9.386592,53.963378],[-9.386263,53.963342],[-9.385984,53.963334],[-9.385251,53.963303],[-9.384454,53.963287],[-9.384262,53.963256],[-9.383934,53.963159],[-9.383754,53.963104],[-9.383459,53.963005],[-9.38324,53.962939],[-9.383187,53.96292],[-9.382658,53.962731],[-9.382573,53.9627],[-9.382019,53.9625],[-9.381906,53.962462],[-9.381817,53.962517],[-9.381481,53.962725],[-9.381126,53.962965],[-9.380667,53.9633],[-9.380297,53.963564],[-9.380085,53.963654],[-9.379807,53.963577],[-9.379709,53.963541],[-9.379154,53.963322],[-9.378831,53.963183],[-9.378548,53.963041],[-9.378477,53.963024],[-9.378477,53.963024],[-9.378417,53.963009],[-9.377775,53.962793],[-9.377747,53.962784],[-9.377207,53.962602],[-9.376445,53.962347],[-9.376309,53.9623],[-9.376276,53.96226],[-9.376165,53.962219],[-9.375429,53.961952],[-9.374842,53.96173],[-9.374258,53.961501],[-9.373763,53.961335],[-9.372921,53.961008],[-9.372371,53.960835],[-9.372152,53.960761],[-9.372134,53.96075],[-9.372063,53.960707],[-9.371993,53.960601],[-9.371929,53.960459],[-9.371883,53.960375],[-9.371594,53.959971],[-9.371435,53.95975],[-9.371423,53.95976],[-9.370697,53.960299],[-9.36993,53.960838],[-9.369222,53.961362],[-9.368889,53.961568],[-9.36852,53.961798],[-9.367887,53.962179],[-9.367156,53.962588],[-9.367043,53.962653],[-9.366816,53.962796],[-9.36675,53.962807],[-9.366355,53.963037],[-9.365911,53.963286],[-9.365224,53.963635],[-9.364728,53.963902],[-9.364251,53.964152],[-9.36426,53.964226],[-9.363216,53.9648],[-9.36225,53.965265],[-9.362073,53.965344],[-9.361756,53.965484],[-9.36148,53.965589],[-9.361493,53.965981],[-9.360381,53.965993],[-9.359827,53.966186],[-9.359306,53.966366],[-9.359018,53.966463],[-9.358467,53.966648],[-9.358476,53.966913],[-9.359999,53.966896],[-9.360058,53.968692],[-9.359919,53.968694],[-9.359933,53.968706],[-9.36005,53.96881],[-9.360091,53.968852],[-9.3599,53.969227],[-9.359814,53.969216],[-9.35976,53.969341],[-9.359545,53.970102],[-9.359443,53.97041],[-9.359379,53.970535],[-9.359318,53.970678],[-9.359223,53.97082],[-9.359046,53.971048],[-9.358901,53.971218],[-9.358681,53.971503],[-9.358657,53.971546],[-9.35868,53.971645],[-9.358725,53.971746],[-9.358843,53.972019],[-9.358868,53.972079],[-9.358876,53.972148],[-9.358882,53.972512],[-9.358881,53.972667],[-9.358881,53.972732],[-9.358874,53.972911],[-9.358915,53.973209],[-9.358925,53.973275],[-9.358891,53.973358],[-9.358853,53.97345],[-9.358658,53.974087],[-9.358495,53.974651],[-9.358342,53.9752],[-9.358171,53.975808],[-9.357898,53.976676],[-9.358393,53.977061],[-9.358773,53.977318],[-9.358852,53.977366],[-9.359179,53.977687],[-9.359317,53.97785],[-9.359811,53.97843],[-9.359988,53.978638],[-9.360086,53.978721],[-9.36015,53.978775],[-9.362195,53.978556],[-9.36285,53.978476],[-9.362983,53.978479],[-9.36389,53.978383],[-9.364197,53.978344],[-9.364238,53.978339],[-9.364447,53.978313],[-9.365179,53.978238],[-9.365299,53.97822],[-9.365679,53.97818],[-9.365811,53.978171],[-9.366123,53.978153],[-9.366513,53.97812],[-9.366615,53.978104],[-9.366708,53.978077],[-9.366949,53.977998],[-9.366981,53.977985],[-9.367816,53.977694],[-9.368014,53.97762],[-9.368101,53.977586],[-9.368246,53.977521],[-9.368493,53.977284],[-9.368791,53.976972],[-9.369204,53.976612],[-9.369603,53.976267],[-9.369765,53.976123],[-9.370116,53.975812],[-9.370164,53.975757],[-9.370396,53.975453],[-9.370536,53.975279],[-9.370824,53.974996],[-9.37104,53.974779],[-9.371204,53.974643],[-9.371292,53.974573],[-9.371428,53.9745],[-9.371474,53.974475],[-9.371575,53.974436],[-9.371831,53.974338],[-9.371902,53.974332],[-9.372177,53.974307],[-9.37235,53.97428],[-9.372414,53.974266],[-9.372432,53.97426],[-9.372421,53.973943],[-9.373542,53.97393],[-9.373596,53.973914],[-9.373859,53.973867],[-9.374658,53.973762],[-9.374864,53.973685],[-9.375205,53.973542],[-9.375437,53.973406],[-9.375595,53.973285],[-9.375802,53.973166],[-9.37595,53.973111],[-9.376046,53.973113],[-9.37606,53.973116],[-9.376285,53.97316],[-9.376442,53.973174],[-9.376576,53.973197],[-9.376646,53.973243],[-9.376719,53.973239],[-9.377036,53.973219],[-9.377141,53.973245],[-9.377475,53.973329],[-9.377549,53.973348],[-9.37763,53.973369],[-9.377692,53.973411],[-9.377766,53.97348],[-9.377903,53.973649],[-9.377937,53.973827],[-9.377869,53.97392],[-9.377868,53.973961],[-9.377941,53.974069],[-9.378052,53.974123],[-9.378082,53.974179],[-9.378114,53.974281],[-9.378119,53.974359],[-9.378195,53.974447],[-9.378204,53.974453],[-9.378518,53.974456],[-9.378858,53.97446],[-9.37934,53.974465],[-9.379551,53.974467],[-9.379693,53.974462],[-9.380056,53.974449],[-9.380513,53.974433],[-9.380749,53.974425],[-9.380759,53.97442],[-9.380836,53.974415],[-9.380912,53.97441],[-9.381204,53.974404],[-9.381292,53.974402],[-9.381585,53.974407],[-9.382034,53.974415],[-9.382082,53.974416],[-9.382423,53.974424],[-9.382798,53.974434],[-9.382841,53.974434],[-9.383166,53.974437],[-9.383521,53.97444],[-9.383761,53.974442],[-9.383947,53.974449],[-9.384304,53.974463],[-9.384364,53.974467],[-9.384693,53.974493],[-9.384798,53.974501],[-9.385101,53.974521],[-9.385246,53.97453],[-9.385512,53.974489],[-9.385523,53.974486],[-9.385862,53.974374],[-9.386113,53.97426],[-9.386161,53.974231],[-9.386318,53.974137],[-9.386534,53.97402],[-9.386806,53.973873],[-9.386994,53.97377],[-9.387399,53.973548]],[[-9.386419,53.970794],[-9.386428,53.971063],[-9.385971,53.971068],[-9.385962,53.970799],[-9.385504,53.970804],[-9.385496,53.970535],[-9.385478,53.969996],[-9.385935,53.96999],[-9.385953,53.970529],[-9.38641,53.970524],[-9.386419,53.970794]],[[-9.373148,53.968019],[-9.373019,53.967891],[-9.372951,53.967807],[-9.372687,53.967449],[-9.373546,53.967106],[-9.374494,53.966709],[-9.375135,53.966395],[-9.375525,53.965925],[-9.375808,53.965584],[-9.376146,53.964995],[-9.376383,53.964526],[-9.376096,53.964238],[-9.376081,53.964222],[-9.37577,53.963983],[-9.376377,53.963724],[-9.377377,53.96337],[-9.377495,53.963491],[-9.377496,53.963491],[-9.377514,53.963509],[-9.377779,53.96378],[-9.377987,53.963908],[-9.37821,53.964002],[-9.378785,53.964114],[-9.379505,53.964244],[-9.379841,53.965033],[-9.380057,53.965694],[-9.380497,53.966659],[-9.38053,53.967033],[-9.3806,53.967128],[-9.380835,53.967571],[-9.380865,53.967616],[-9.380947,53.967775],[-9.380944,53.967806],[-9.380895,53.967879],[-9.380686,53.968092],[-9.380517,53.968252],[-9.380505,53.968263],[-9.380082,53.968898],[-9.379677,53.969312],[-9.378731,53.96986],[-9.377764,53.969934],[-9.375921,53.969999],[-9.373828,53.969722],[-9.373777,53.969605],[-9.373707,53.96949],[-9.373635,53.969315],[-9.373494,53.968948],[-9.373377,53.968656],[-9.373253,53.968348],[-9.373187,53.968156],[-9.373148,53.968019]],[[-9.386742,53.96855],[-9.385964,53.968535],[-9.38599,53.968424],[-9.386021,53.968296],[-9.386063,53.968124],[-9.386073,53.96803],[-9.386213,53.968035],[-9.386642,53.968075],[-9.386785,53.968086],[-9.386764,53.968227],[-9.386742,53.968549],[-9.386742,53.96855]]],[[[-9.386976,53.971238],[-9.386887,53.971119],[-9.386894,53.971327],[-9.38706,53.971325],[-9.386976,53.971238]]],[[[-9.38737,53.971539],[-9.387358,53.971531],[-9.38736,53.971592],[-9.387473,53.97159],[-9.38737,53.971539]]],[[[-9.385832,53.974935],[-9.385559,53.975206],[-9.385546,53.975219],[-9.385553,53.975225],[-9.385553,53.975225],[-9.385553,53.975225],[-9.385474,53.975288],[-9.385451,53.975352],[-9.385443,53.975411],[-9.38544,53.975469],[-9.385823,53.975241],[-9.386103,53.975385],[-9.386279,53.975476],[-9.386167,53.97562],[-9.386167,53.97562],[-9.38623,53.975647],[-9.386244,53.975653],[-9.386263,53.975654],[-9.386341,53.975657],[-9.38636,53.975658],[-9.386439,53.97568],[-9.386439,53.97568],[-9.386476,53.975715],[-9.386465,53.975769],[-9.386451,53.97584],[-9.386467,53.975888],[-9.386523,53.975908],[-9.386567,53.975924],[-9.386698,53.97595],[-9.386878,53.975985],[-9.386947,53.976028],[-9.38715,53.97618],[-9.387257,53.976216],[-9.387757,53.976323],[-9.387939,53.976377],[-9.388009,53.976376],[-9.388056,53.976375],[-9.388429,53.976297],[-9.388471,53.976289],[-9.388498,53.976284],[-9.38865,53.976276],[-9.388792,53.976269],[-9.388786,53.976242],[-9.388714,53.975944],[-9.388626,53.975381],[-9.388577,53.97496],[-9.388472,53.974666],[-9.388277,53.974295],[-9.388235,53.974008],[-9.388233,53.973998],[-9.388196,53.973762],[-9.387656,53.973768],[-9.387648,53.973519],[-9.387347,53.973681],[-9.38706,53.973829],[-9.386662,53.974056],[-9.386408,53.974205],[-9.386308,53.974263],[-9.386195,53.974329],[-9.385942,53.974449],[-9.385765,53.974508],[-9.385922,53.974638],[-9.38604,53.974735],[-9.385832,53.974935]]]]}}]}
