{"type":"FeatureCollection","features":[{"type":"Feature","properties":{"source_fid":2246497,"county":"Mayo","bog_geom_ha":162.25753244208656,"low15_pct":62.839711591791456,"low15_ha":101.96216542256465,"overlay_ha":101.90765152998648,"area_delta":-0.054513892578171408},"geometry":{"type":"MultiPolygon","coordinates":[[[[-10.007808,53.968501],[-10.00801,53.968254],[-10.008141,53.968115],[-10.008177,53.968077],[-10.008177,53.968077],[-10.008139,53.968067],[-10.007716,53.967928],[-10.007359,53.967812],[-10.006872,53.967601],[-10.006514,53.967458],[-10.006454,53.96743],[-10.005914,53.967439],[-10.005939,53.967978],[-10.005482,53.967986],[-10.005495,53.968255],[-10.005038,53.968263],[-10.005051,53.968532],[-10.004594,53.96854],[-10.00462,53.969078],[-10.005077,53.969071],[-10.005064,53.968801],[-10.005978,53.968786],[-10.005991,53.969056],[-10.005534,53.969063],[-10.00556,53.969602],[-10.005103,53.96961],[-10.005116,53.969879],[-10.004659,53.969887],[-10.004672,53.970156],[-10.004215,53.970164],[-10.004228,53.970433],[-10.003771,53.970441],[-10.003784,53.97071],[-10.003327,53.970718],[-10.00334,53.970987],[-10.002426,53.971002],[-10.002439,53.971272],[-10.001525,53.971287],[-10.001538,53.971557],[-10.001081,53.971564],[-10.001094,53.971834],[-10.000637,53.971841],[-10.00065,53.972111],[-10.000193,53.972118],[-10.000206,53.972388],[-9.999749,53.972395],[-9.999762,53.972665],[-9.998848,53.97268],[-9.998861,53.972949],[-9.998404,53.972957],[-9.998416,53.973226],[-9.997959,53.973234],[-9.997972,53.973503],[-9.997515,53.973511],[-9.997528,53.97378],[-9.997554,53.974319],[-9.997097,53.974327],[-9.99711,53.974596],[-9.997136,53.975135],[-9.996222,53.97515],[-9.996234,53.97542],[-9.995777,53.975427],[-9.995816,53.976235],[-9.995359,53.976243],[-9.995372,53.976512],[-9.994458,53.976528],[-9.994445,53.976258],[-9.994406,53.97545],[-9.994394,53.975181],[-9.993937,53.975188],[-9.993911,53.974649],[-9.992997,53.974664],[-9.99301,53.974934],[-9.992553,53.974941],[-9.992565,53.975211],[-9.992578,53.97548],[-9.992121,53.975488],[-9.992134,53.975757],[-9.991677,53.975765],[-9.991664,53.975495],[-9.991651,53.975226],[-9.992108,53.975218],[-9.992096,53.974949],[-9.992083,53.97468],[-9.99254,53.974672],[-9.992527,53.974403],[-9.992506,53.973974],[-9.992493,53.974012],[-9.992337,53.974116],[-9.992017,53.974259],[-9.991361,53.974437],[-9.991259,53.974453],[-9.991,53.97443],[-9.990463,53.974382],[-9.990153,53.974356],[-9.990017,53.974463],[-9.989764,53.974785],[-9.989744,53.974818],[-9.989782,53.975608],[-9.989873,53.975755],[-9.989906,53.975807],[-9.990054,53.976081],[-9.990136,53.976419],[-9.99021,53.976637],[-9.990297,53.97699],[-9.990311,53.977053],[-9.990389,53.977383],[-9.990242,53.977454],[-9.9904,53.9776],[-9.990514,53.977704],[-9.990577,53.97776],[-9.990599,53.97778],[-9.990839,53.977997],[-9.990956,53.978106],[-9.991237,53.978299],[-9.991454,53.97842],[-9.991527,53.978464],[-9.992263,53.978451],[-9.99225,53.978182],[-9.992707,53.978174],[-9.99272,53.978444],[-9.992733,53.978713],[-9.993647,53.978698],[-9.99366,53.978968],[-9.994117,53.97896],[-9.99413,53.979229],[-9.994587,53.979222],[-9.994597,53.979439],[-9.994827,53.979487],[-9.995057,53.979484],[-9.995059,53.979537],[-9.995066,53.979538],[-9.995165,53.979575],[-9.995384,53.979695],[-9.996041,53.980141],[-9.996437,53.980391],[-9.996723,53.980387],[-9.997228,53.980385],[-9.998464,53.980316],[-9.999006,53.980298],[-9.999651,53.980262],[-10.000697,53.980171],[-10.001966,53.980061],[-10.002658,53.979967],[-10.003227,53.979915],[-10.003451,53.979941],[-10.003601,53.979999],[-10.004227,53.980198],[-10.004862,53.98002],[-10.005906,53.979742],[-10.006073,53.979701],[-10.006504,53.979619],[-10.007128,53.979621],[-10.007412,53.979622],[-10.007479,53.979619],[-10.00764,53.979626],[-10.00841,53.979318],[-10.008658,53.979256],[-10.009019,53.979166],[-10.009988,53.978769],[-10.010191,53.978704],[-10.011314,53.978342],[-10.010997,53.978113],[-10.010602,53.977838],[-10.010184,53.977548],[-10.010031,53.977436],[-10.009746,53.97723],[-10.009334,53.976938],[-10.008969,53.976709],[-10.008387,53.976301],[-10.008037,53.976051],[-10.007373,53.975547],[-10.00686,53.975247],[-10.006854,53.975243],[-10.006746,53.975244],[-10.006759,53.975514],[-10.006302,53.975521],[-10.006315,53.975791],[-10.005858,53.975799],[-10.005871,53.976068],[-10.004957,53.976083],[-10.00497,53.976353],[-10.004513,53.97636],[-10.004526,53.97663],[-10.004538,53.976899],[-10.003167,53.976922],[-10.00318,53.977191],[-10.002723,53.977199],[-10.002736,53.977468],[-10.002279,53.977476],[-10.002292,53.977745],[-10.001835,53.977753],[-10.001848,53.978022],[-10.001391,53.97803],[-10.001404,53.978299],[-10.000947,53.978307],[-10.00096,53.978577],[-10.000503,53.978584],[-10.000516,53.978854],[-9.999601,53.978869],[-9.999614,53.979138],[-9.999157,53.979146],[-9.99917,53.979415],[-9.996885,53.979453],[-9.996872,53.979184],[-9.996859,53.978914],[-9.997316,53.978907],[-9.997303,53.978637],[-9.996846,53.978645],[-9.996833,53.978376],[-9.997747,53.97836],[-9.997734,53.978091],[-9.998192,53.978083],[-9.998179,53.977814],[-9.998636,53.977806],[-9.998623,53.977537],[-9.99861,53.977267],[-9.999524,53.977252],[-9.999511,53.976983],[-9.999968,53.976975],[-9.999955,53.976706],[-10.000412,53.976698],[-10.000399,53.976429],[-10.000386,53.976159],[-10.000373,53.97589],[-10.000831,53.975882],[-10.000818,53.975613],[-10.001275,53.975605],[-10.001262,53.975336],[-10.001719,53.975328],[-10.001706,53.975059],[-10.001249,53.975067],[-10.001236,53.974797],[-10.001693,53.974789],[-10.00168,53.97452],[-10.002137,53.974512],[-10.002124,53.974243],[-10.002581,53.974235],[-10.002568,53.973966],[-10.003025,53.973958],[-10.002999,53.97342],[-10.003782,53.973406],[-10.003675,53.973309],[-10.00318,53.972985],[-10.00259,53.972531],[-10.003088,53.972207],[-10.004079,53.971686],[-10.004816,53.971261],[-10.005654,53.970779],[-10.006025,53.970427],[-10.006288,53.970177],[-10.006363,53.970106],[-10.007341,53.969096],[-10.007716,53.968601],[-10.007808,53.968501]],[[-9.992237,53.977913],[-9.99225,53.978182],[-9.991793,53.97819],[-9.99178,53.97792],[-9.992237,53.977913]],[[-9.993544,53.976543],[-9.993557,53.976812],[-9.9931,53.97682],[-9.993113,53.977089],[-9.992655,53.977097],[-9.992668,53.977366],[-9.992211,53.977374],[-9.992198,53.977104],[-9.992186,53.976835],[-9.992173,53.976566],[-9.99263,53.976558],[-9.992604,53.976019],[-9.993061,53.976012],[-9.993087,53.97655],[-9.993544,53.976543]]],[[[-9.992587,53.973737],[-9.992544,53.973863],[-9.992958,53.973856],[-9.992945,53.973587],[-9.992932,53.973317],[-9.99292,53.973048],[-9.993377,53.97304],[-9.993364,53.972771],[-9.994735,53.972748],[-9.994722,53.972479],[-9.995179,53.972471],[-9.995166,53.972202],[-9.995153,53.971932],[-9.99561,53.971925],[-9.995597,53.971655],[-9.996054,53.971648],[-9.996041,53.971378],[-9.996498,53.971371],[-9.996485,53.971101],[-9.996942,53.971094],[-9.996929,53.970824],[-9.997386,53.970817],[-9.997374,53.970547],[-9.997361,53.970278],[-9.998275,53.970263],[-9.998262,53.969993],[-9.998719,53.969986],[-9.998732,53.970255],[-9.999645,53.97024],[-9.999633,53.96997],[-9.99962,53.969701],[-10.000077,53.969693],[-10.000051,53.969155],[-10.000508,53.969147],[-10.000482,53.968608],[-10.000469,53.968339],[-10.000926,53.968331],[-10.000913,53.968062],[-10.00137,53.968054],[-10.001344,53.967515],[-10.001331,53.967246],[-10.001318,53.966976],[-10.000861,53.966984],[-10.000849,53.966715],[-10.000392,53.966722],[-10.000404,53.966992],[-9.999948,53.966999],[-9.999935,53.96673],[-9.999922,53.96646],[-9.999909,53.966191],[-9.999896,53.965922],[-9.999883,53.965652],[-9.999426,53.96566],[-9.999413,53.96539],[-9.9994,53.965121],[-9.998943,53.965129],[-9.998931,53.964859],[-9.998879,53.963782],[-9.998814,53.962434],[-9.998358,53.962442],[-9.998345,53.962173],[-9.997888,53.96218],[-9.997881,53.96203],[-9.997757,53.962169],[-9.997506,53.96251],[-9.997248,53.962852],[-9.997146,53.963001],[-9.997927,53.962988],[-9.997939,53.963258],[-9.998396,53.96325],[-9.998409,53.96352],[-9.997495,53.963535],[-9.997483,53.963265],[-9.996941,53.963274],[-9.996756,53.963537],[-9.99665,53.963686],[-9.996496,53.963921],[-9.996313,53.964124],[-9.996148,53.96437],[-9.996119,53.964429],[-9.99604,53.964542],[-9.99589,53.964774],[-9.995804,53.964914],[-9.995737,53.965027],[-9.99571,53.965055],[-9.995603,53.965198],[-9.995431,53.965428],[-9.995213,53.965744],[-9.995003,53.966051],[-9.994926,53.966143],[-9.994884,53.96622],[-9.994837,53.966215],[-9.994741,53.966181],[-9.994608,53.966193],[-9.994476,53.96624],[-9.994372,53.966254],[-9.99424,53.966303],[-9.994111,53.966358],[-9.994035,53.966405],[-9.993882,53.966448],[-9.993807,53.966443],[-9.993658,53.966455],[-9.993577,53.966477],[-9.993487,53.966479],[-9.993484,53.966438],[-9.993448,53.966398],[-9.993326,53.966355],[-9.993218,53.966325],[-9.993085,53.966296],[-9.992975,53.966233],[-9.992921,53.966204],[-9.992864,53.966194],[-9.992783,53.966217],[-9.992771,53.966296],[-9.992782,53.966363],[-9.992813,53.966465],[-9.992855,53.966573],[-9.992822,53.966677],[-9.992733,53.96683],[-9.992751,53.966888],[-9.9928,53.966939],[-9.992706,53.967093],[-9.992626,53.967194],[-9.992601,53.967231],[-9.992563,53.967294],[-9.992546,53.96738],[-9.992548,53.967426],[-9.992597,53.967609],[-9.992659,53.967634],[-9.992835,53.967767],[-9.992904,53.967816],[-9.993009,53.967893],[-9.99315,53.967972],[-9.993283,53.968082],[-9.993383,53.968164],[-9.99356,53.968283],[-9.993641,53.96838],[-9.993681,53.968433],[-9.993682,53.968446],[-9.993687,53.968549],[-9.993689,53.968588],[-9.993708,53.968683],[-9.993738,53.968833],[-9.993739,53.968868],[-9.993751,53.96945],[-9.993677,53.969498],[-9.993475,53.969888],[-9.99341,53.97002],[-9.993397,53.97009],[-9.993333,53.970152],[-9.993237,53.97061],[-9.993232,53.971073],[-9.99323,53.97128],[-9.993105,53.971552],[-9.992791,53.971819],[-9.992743,53.971895],[-9.992696,53.972084],[-9.992669,53.972646],[-9.992669,53.972655],[-9.992633,53.973201],[-9.992621,53.973374],[-9.992593,53.973675],[-9.992587,53.973737]]],[[[-10.004468,53.96597],[-10.004303,53.965848],[-10.003551,53.965861],[-10.003564,53.96613],[-10.004478,53.966115],[-10.004471,53.965972],[-10.004468,53.96597]]]]}}]}
