{"type":"FeatureCollection","features":[{"type":"Feature","properties":{"source_fid":2290876,"county":"Offaly","bog_geom_ha":486.56155973029297,"low15_pct":99.722325064790823,"low15_ha":485.21050023455911,"overlay_ha":485.28720416690351,"area_delta":0.076703932344400982},"geometry":{"type":"MultiPolygon","coordinates":[[[[-7.744106,53.200869],[-7.743885,53.200198],[-7.743651,53.199606],[-7.741394,53.199422],[-7.739154,53.19925],[-7.737277,53.199102],[-7.735437,53.198942],[-7.735445,53.199135],[-7.735455,53.199556],[-7.735466,53.199966],[-7.735484,53.200251],[-7.735503,53.200628],[-7.735514,53.201059],[-7.735544,53.201843],[-7.735574,53.202248],[-7.735593,53.202535],[-7.735594,53.202906],[-7.735613,53.203206],[-7.735614,53.20322],[-7.736313,53.203245],[-7.736611,53.203265],[-7.736701,53.203266],[-7.737042,53.203257],[-7.737237,53.203249],[-7.737536,53.203237],[-7.737785,53.203946],[-7.737979,53.2045],[-7.738318,53.205564],[-7.73844,53.205946],[-7.738538,53.205954],[-7.738784,53.205946],[-7.740008,53.205906],[-7.74086,53.205843],[-7.741367,53.205794],[-7.741715,53.205765],[-7.742007,53.205741],[-7.742021,53.205739],[-7.742123,53.205726],[-7.742254,53.205702],[-7.74253,53.205652],[-7.743036,53.205581],[-7.743109,53.205571],[-7.743395,53.205523],[-7.743416,53.205519],[-7.743434,53.205516],[-7.743767,53.205451],[-7.743871,53.205426],[-7.744128,53.205355],[-7.744202,53.205339],[-7.744249,53.205328],[-7.744359,53.205314],[-7.744457,53.205314],[-7.744571,53.205327],[-7.744608,53.205333],[-7.744697,53.205349],[-7.744798,53.205362],[-7.744886,53.205365],[-7.744961,53.205359],[-7.745038,53.205348],[-7.745107,53.205326],[-7.745038,53.20556],[-7.745024,53.205645],[-7.745029,53.20572],[-7.74504,53.205801],[-7.74507,53.205931],[-7.7452,53.206388],[-7.745246,53.206521],[-7.745301,53.206664],[-7.745375,53.206665],[-7.745374,53.206853],[-7.745393,53.206902],[-7.745485,53.207176],[-7.745497,53.207204],[-7.745821,53.207205],[-7.745818,53.207744],[-7.745681,53.207744],[-7.745731,53.207918],[-7.745913,53.208403],[-7.745934,53.20847],[-7.745945,53.208524],[-7.745943,53.208583],[-7.74593,53.208636],[-7.745903,53.208692],[-7.74585,53.208763],[-7.745752,53.208867],[-7.74567,53.208941],[-7.745633,53.208968],[-7.745581,53.208993],[-7.737886,53.209883],[-7.737135,53.20997],[-7.737207,53.209995],[-7.738405,53.210375],[-7.739164,53.210606],[-7.740099,53.210907],[-7.740712,53.211089],[-7.741506,53.211338],[-7.743166,53.211861],[-7.744837,53.212382],[-7.747457,53.213225],[-7.748956,53.213707],[-7.749,53.213721],[-7.749307,53.213811],[-7.749589,53.213892],[-7.750275,53.214088],[-7.750345,53.214107],[-7.751369,53.214377],[-7.751592,53.214436],[-7.752193,53.214585],[-7.752568,53.214679],[-7.752737,53.214722],[-7.75382,53.214998],[-7.753875,53.215012],[-7.754481,53.215161],[-7.754746,53.215217],[-7.755157,53.215261],[-7.755685,53.215293],[-7.755789,53.215292],[-7.756182,53.21529],[-7.756301,53.215272],[-7.756456,53.215212],[-7.757381,53.214829],[-7.758495,53.21435],[-7.760128,53.213652],[-7.761242,53.214379],[-7.762138,53.214999],[-7.76305,53.215567],[-7.763618,53.215606],[-7.764504,53.215649],[-7.765636,53.215369],[-7.767665,53.214896],[-7.769636,53.214427],[-7.771637,53.213941],[-7.773628,53.213445],[-7.77543,53.212999],[-7.775633,53.212949],[-7.776242,53.212801],[-7.7776,53.212472],[-7.779569,53.211974],[-7.781508,53.2115],[-7.785319,53.210566],[-7.783486,53.204595],[-7.782706,53.20445],[-7.782169,53.204356],[-7.781208,53.204199],[-7.78121,53.204151],[-7.780747,53.204082],[-7.780243,53.204004],[-7.779674,53.203832],[-7.779151,53.203648],[-7.77905,53.203593],[-7.778882,53.203501],[-7.778714,53.20298],[-7.778895,53.20291],[-7.778982,53.202773],[-7.779157,53.202509],[-7.779299,53.202348],[-7.7794,53.202254],[-7.779487,53.201929],[-7.779731,53.201313],[-7.780106,53.200332],[-7.780259,53.199907],[-7.780286,53.199694],[-7.780462,53.199406],[-7.780444,53.199177],[-7.780437,53.198973],[-7.780523,53.198914],[-7.780624,53.198881],[-7.780475,53.19865],[-7.78009,53.198048],[-7.779709,53.197467],[-7.779444,53.19704],[-7.779398,53.196967],[-7.779145,53.196603],[-7.778944,53.196316],[-7.778541,53.19567],[-7.778217,53.195193],[-7.778216,53.195406],[-7.777767,53.195406],[-7.777768,53.195136],[-7.777319,53.195135],[-7.777322,53.194596],[-7.777838,53.194597],[-7.777579,53.194209],[-7.777484,53.194304],[-7.777415,53.194313],[-7.777078,53.194308],[-7.776892,53.194313],[-7.775782,53.194218],[-7.775528,53.194207],[-7.775071,53.194188],[-7.77481,53.194173],[-7.774578,53.194147],[-7.774431,53.194123],[-7.774181,53.194073],[-7.774115,53.194064],[-7.773829,53.194032],[-7.773596,53.194015],[-7.773536,53.194013],[-7.772888,53.194041],[-7.77244,53.194084],[-7.772145,53.194101],[-7.772118,53.194152],[-7.771866,53.194157],[-7.771482,53.19412],[-7.770802,53.194016],[-7.770207,53.193931],[-7.769766,53.193867],[-7.769608,53.193844],[-7.768796,53.193727],[-7.768796,53.193771],[-7.767449,53.193768],[-7.767451,53.193502],[-7.767426,53.193499],[-7.767002,53.193498],[-7.767002,53.193445],[-7.766951,53.193438],[-7.76589,53.193291],[-7.765171,53.193186],[-7.764545,53.193081],[-7.764502,53.193085],[-7.763519,53.192957],[-7.762846,53.192879],[-7.762811,53.192891],[-7.762757,53.192909],[-7.762677,53.193489],[-7.762962,53.19349],[-7.76296,53.193759],[-7.762959,53.194029],[-7.762611,53.194028],[-7.762577,53.194381],[-7.762554,53.194619],[-7.762607,53.194694],[-7.762611,53.195376],[-7.762951,53.195377],[-7.76295,53.195647],[-7.762611,53.195646],[-7.762611,53.195786],[-7.762556,53.195865],[-7.762499,53.195874],[-7.762499,53.195915],[-7.76247,53.195915],[-7.762497,53.196022],[-7.762509,53.196085],[-7.762509,53.196513],[-7.762547,53.196683],[-7.762546,53.196878],[-7.762552,53.196975],[-7.762558,53.197325],[-7.762576,53.198507],[-7.762506,53.198713],[-7.762433,53.198806],[-7.762251,53.198963],[-7.762013,53.199177],[-7.761492,53.199681],[-7.76118,53.199972],[-7.761162,53.199992],[-7.761,53.199922],[-7.760794,53.199812],[-7.760655,53.199738],[-7.760364,53.199577],[-7.760004,53.199365],[-7.759987,53.199355],[-7.759954,53.199576],[-7.759939,53.199665],[-7.759911,53.199661],[-7.75964,53.199603],[-7.759501,53.199568],[-7.759238,53.19958],[-7.759007,53.199588],[-7.758584,53.199633],[-7.758261,53.199662],[-7.757605,53.199729],[-7.757221,53.199785],[-7.757081,53.199801],[-7.756963,53.199798],[-7.756621,53.199744],[-7.756367,53.199698],[-7.756225,53.199692],[-7.755862,53.199726],[-7.755511,53.199771],[-7.755044,53.199821],[-7.754332,53.199919],[-7.753613,53.199993],[-7.753091,53.200048],[-7.752726,53.200089],[-7.752134,53.20016],[-7.751655,53.200208],[-7.751309,53.200236],[-7.751232,53.200259],[-7.751081,53.200316],[-7.750841,53.200436],[-7.750491,53.200693],[-7.750398,53.200758],[-7.749981,53.200872],[-7.749661,53.200947],[-7.749096,53.201096],[-7.748645,53.201209],[-7.747651,53.201469],[-7.748006,53.20257],[-7.748048,53.202699],[-7.748052,53.202713],[-7.746611,53.202828],[-7.746466,53.202838],[-7.745182,53.202942],[-7.745063,53.202949],[-7.744738,53.202968],[-7.744678,53.202763],[-7.744505,53.20216],[-7.744327,53.201531],[-7.744106,53.200869]],[[-7.777323,53.194326],[-7.777322,53.194596],[-7.776873,53.194595],[-7.776874,53.194326],[-7.777323,53.194326]],[[-7.745816,53.208014],[-7.745818,53.207744],[-7.746267,53.207745],[-7.746265,53.208015],[-7.745816,53.208014]],[[-7.764648,53.208572],[-7.765225,53.210396],[-7.76577,53.212183],[-7.76594,53.212749],[-7.761606,53.213153],[-7.760952,53.21114],[-7.760616,53.210083],[-7.762011,53.209412],[-7.761576,53.208076],[-7.76343,53.207882],[-7.764391,53.207785],[-7.764648,53.208572]],[[-7.748761,53.205267],[-7.749021,53.205573],[-7.749043,53.205682],[-7.748972,53.20565],[-7.748926,53.205704],[-7.748889,53.20573],[-7.748862,53.205772],[-7.748866,53.205873],[-7.748609,53.20593],[-7.747362,53.205885],[-7.746301,53.205906],[-7.746188,53.205738],[-7.746194,53.205502],[-7.745461,53.205369],[-7.745443,53.205232],[-7.744911,53.205231],[-7.744917,53.204333],[-7.746679,53.204336],[-7.746709,53.204333],[-7.747171,53.204266],[-7.747166,53.204128],[-7.746911,53.203995],[-7.74685,53.203816],[-7.747166,53.2038],[-7.747341,53.203729],[-7.748396,53.203761],[-7.748923,53.203821],[-7.74939,53.204141],[-7.749466,53.204651],[-7.748846,53.205121],[-7.748761,53.205267]],[[-7.779093,53.199452],[-7.779097,53.198643],[-7.779546,53.198644],[-7.779542,53.199453],[-7.779093,53.199452]]]]}}]}
