{"type":"FeatureCollection","features":[{"type":"Feature","properties":{"source_fid":2290749,"county":"Offaly","bog_geom_ha":127.41373052109778,"low15_pct":100.0,"low15_ha":127.41373052109778,"overlay_ha":127.41373052109778,"area_delta":0.0},"geometry":{"type":"MultiPolygon","coordinates":[[[[-7.237105,53.350177],[-7.235258,53.346627],[-7.234931,53.346711],[-7.233406,53.347108],[-7.233566,53.347442],[-7.234117,53.348534],[-7.234596,53.349514],[-7.234743,53.349843],[-7.235026,53.350439],[-7.235091,53.350589],[-7.235438,53.351189],[-7.23568,53.351704],[-7.235761,53.351879],[-7.236163,53.352645],[-7.236413,53.35313],[-7.236469,53.353239],[-7.236648,53.353661],[-7.236991,53.354318],[-7.237334,53.355007],[-7.237544,53.355232],[-7.237764,53.355497],[-7.238095,53.355896],[-7.238291,53.356166],[-7.238338,53.35623],[-7.238381,53.356286],[-7.238574,53.356535],[-7.239078,53.357158],[-7.239553,53.357827],[-7.23987,53.358243],[-7.240441,53.358952],[-7.240674,53.359234],[-7.24079,53.359375],[-7.241182,53.35987],[-7.24162,53.360412],[-7.248909,53.356834],[-7.249821,53.356387],[-7.250428,53.356066],[-7.251015,53.355787],[-7.252027,53.355271],[-7.253131,53.354729],[-7.254241,53.354166],[-7.255133,53.353709],[-7.25587,53.353388],[-7.25668,53.35304],[-7.256851,53.352963],[-7.254804,53.349216],[-7.249054,53.348628],[-7.248388,53.348561],[-7.248121,53.348533],[-7.240726,53.347787],[-7.240321,53.347866],[-7.240159,53.347878],[-7.240106,53.347871],[-7.240065,53.34784],[-7.240033,53.347799],[-7.240034,53.347732],[-7.239968,53.347711],[-7.239432,53.347778],[-7.239061,53.347995],[-7.238954,53.348064],[-7.238742,53.348168],[-7.238626,53.348264],[-7.238492,53.348373],[-7.237734,53.349371],[-7.237528,53.349627],[-7.237352,53.349845],[-7.237153,53.350102],[-7.237105,53.350177]]]]}}]}
