{"type":"FeatureCollection","features":[{"type":"Feature","properties":{"source_fid":2294284,"county":"Mayo","bog_geom_ha":174.72438387693944,"low15_pct":73.80952380952381,"low15_ha":128.9632357186934,"overlay_ha":128.43655638672783,"area_delta":-0.5266793319655676},"geometry":{"type":"MultiPolygon","coordinates":[[[[-9.60542,54.277281],[-9.605337,54.277265],[-9.605292,54.277217],[-9.605177,54.277205],[-9.60506,54.27721],[-9.604944,54.277244],[-9.604836,54.277281],[-9.604775,54.277296],[-9.604709,54.27731],[-9.604592,54.277306],[-9.604413,54.2773],[-9.604318,54.277303],[-9.604263,54.277313],[-9.60423,54.277315],[-9.604163,54.277329],[-9.604076,54.277322],[-9.604064,54.277322],[-9.60401,54.277318],[-9.603965,54.277314],[-9.603857,54.277326],[-9.603724,54.277355],[-9.603488,54.27742],[-9.603481,54.277431],[-9.603449,54.277465],[-9.603394,54.277494],[-9.603346,54.27752],[-9.603298,54.277538],[-9.603235,54.277551],[-9.603172,54.277576],[-9.603094,54.277598],[-9.603009,54.277638],[-9.602967,54.27767],[-9.60293,54.277717],[-9.602906,54.277762],[-9.602885,54.277814],[-9.602865,54.278021],[-9.602845,54.278105],[-9.602837,54.278204],[-9.602783,54.278417],[-9.602733,54.27851],[-9.60264,54.278626],[-9.602519,54.278736],[-9.602402,54.278806],[-9.602314,54.278834],[-9.602238,54.278859],[-9.602152,54.278942],[-9.602067,54.278993],[-9.601975,54.279043],[-9.601892,54.279086],[-9.601796,54.279127],[-9.601706,54.279161],[-9.601602,54.27919],[-9.601529,54.279206],[-9.601473,54.279215],[-9.601455,54.279219],[-9.601408,54.279231],[-9.601359,54.279251],[-9.601314,54.279292],[-9.601297,54.27931],[-9.601291,54.279318],[-9.601274,54.279351],[-9.601236,54.279372],[-9.601215,54.279392],[-9.601158,54.279429],[-9.601122,54.279453],[-9.601065,54.279469],[-9.600983,54.279513],[-9.600941,54.279532],[-9.600896,54.279546],[-9.600818,54.279587],[-9.60076,54.279634],[-9.60073,54.279653],[-9.600674,54.279666],[-9.600652,54.279692],[-9.600598,54.279734],[-9.600547,54.27976],[-9.600498,54.279799],[-9.600468,54.279815],[-9.600392,54.279861],[-9.600341,54.279877],[-9.600289,54.279892],[-9.600174,54.279917],[-9.600108,54.279941],[-9.600048,54.279966],[-9.599951,54.280014],[-9.599861,54.280033],[-9.599772,54.280053],[-9.59966,54.280066],[-9.599464,54.280107],[-9.599333,54.280133],[-9.599326,54.280134],[-9.599143,54.280207],[-9.599031,54.280286],[-9.598918,54.280332],[-9.598767,54.280394],[-9.598595,54.280439],[-9.598464,54.280465],[-9.598306,54.280497],[-9.598247,54.280504],[-9.598194,54.280528],[-9.598058,54.280545],[-9.597878,54.280573],[-9.597465,54.280575],[-9.597,54.280485],[-9.596997,54.280485],[-9.596935,54.2805],[-9.596819,54.280531],[-9.596729,54.280565],[-9.596643,54.280592],[-9.596567,54.280617],[-9.596512,54.280653],[-9.596461,54.280718],[-9.596427,54.280768],[-9.596406,54.280816],[-9.596397,54.280898],[-9.596369,54.280967],[-9.596286,54.281078],[-9.596215,54.281155],[-9.596144,54.281237],[-9.596089,54.281282],[-9.59602,54.281331],[-9.595965,54.281359],[-9.5959,54.281393],[-9.595837,54.281407],[-9.595798,54.281431],[-9.595718,54.281443],[-9.595655,54.281455],[-9.595535,54.281438],[-9.595435,54.281425],[-9.59539,54.281427],[-9.595373,54.28143],[-9.595307,54.281446],[-9.595209,54.281494],[-9.595118,54.281527],[-9.595065,54.281551],[-9.595026,54.28158],[-9.594958,54.28159],[-9.594899,54.281605],[-9.594848,54.281633],[-9.594793,54.281648],[-9.594748,54.281652],[-9.59474,54.281656],[-9.594673,54.281702],[-9.594586,54.281808],[-9.59451,54.28189],[-9.594398,54.281955],[-9.59429,54.281997],[-9.594111,54.282062],[-9.594023,54.282105],[-9.593933,54.282138],[-9.593817,54.28219],[-9.59363,54.282244],[-9.593504,54.282275],[-9.593423,54.282306],[-9.59335,54.282331],[-9.593207,54.2824],[-9.593014,54.282506],[-9.592897,54.282565],[-9.592767,54.282635],[-9.592601,54.282721],[-9.592531,54.282749],[-9.592471,54.28278],[-9.59238,54.28282],[-9.59229,54.282854],[-9.592189,54.282894],[-9.592099,54.282937],[-9.592006,54.282973],[-9.591941,54.283015],[-9.591884,54.283046],[-9.591816,54.283072],[-9.591735,54.283103],[-9.591695,54.283116],[-9.591614,54.283133],[-9.591507,54.28315],[-9.591347,54.283168],[-9.591321,54.283174],[-9.591239,54.283204],[-9.591205,54.2832],[-9.591144,54.283216],[-9.591059,54.28325],[-9.590984,54.283302],[-9.590899,54.283357],[-9.590807,54.283404],[-9.590711,54.283445],[-9.590646,54.283469],[-9.590573,54.283493],[-9.590487,54.283512],[-9.590385,54.28353],[-9.590217,54.283553],[-9.590095,54.283563],[-9.590076,54.283567],[-9.590234,54.283803],[-9.590399,54.284029],[-9.590676,54.284441],[-9.5909,54.284813],[-9.591076,54.285095],[-9.591264,54.285463],[-9.591269,54.285473],[-9.591337,54.285606],[-9.591687,54.286277],[-9.591971,54.286954],[-9.591879,54.287048],[-9.591773,54.28716],[-9.591666,54.287227],[-9.591326,54.287294],[-9.591363,54.287375],[-9.591395,54.287444],[-9.591502,54.287757],[-9.591598,54.287952],[-9.591739,54.288194],[-9.591962,54.288529],[-9.591966,54.288535],[-9.591967,54.288536],[-9.591993,54.288536],[-9.591982,54.288267],[-9.592904,54.288254],[-9.592893,54.287985],[-9.593354,54.287979],[-9.593343,54.287709],[-9.594264,54.287697],[-9.594254,54.287428],[-9.594715,54.287422],[-9.594704,54.287152],[-9.595165,54.287146],[-9.595154,54.286877],[-9.595615,54.286871],[-9.595594,54.286332],[-9.596055,54.286326],[-9.596044,54.286056],[-9.596505,54.28605],[-9.596494,54.285781],[-9.597415,54.285768],[-9.597405,54.285499],[-9.599708,54.285468],[-9.599718,54.285738],[-9.599258,54.285744],[-9.599268,54.286013],[-9.598808,54.28602],[-9.598818,54.286289],[-9.598357,54.286295],[-9.598378,54.286834],[-9.598839,54.286828],[-9.598828,54.286558],[-9.60021,54.28654],[-9.6002,54.286271],[-9.601121,54.286258],[-9.601131,54.286528],[-9.601142,54.286797],[-9.600681,54.286803],[-9.600692,54.287073],[-9.600231,54.287079],[-9.600241,54.287348],[-9.601623,54.28733],[-9.601634,54.2876],[-9.602094,54.287593],[-9.602105,54.287863],[-9.603026,54.287851],[-9.603036,54.28812],[-9.603047,54.28839],[-9.603507,54.288384],[-9.603518,54.288653],[-9.603978,54.288647],[-9.603989,54.288916],[-9.604449,54.28891],[-9.60446,54.28918],[-9.605381,54.289167],[-9.605392,54.289437],[-9.606313,54.289425],[-9.606323,54.289694],[-9.606784,54.289688],[-9.606794,54.289957],[-9.606805,54.290227],[-9.607265,54.290221],[-9.607286,54.29076],[-9.607289,54.290815],[-9.60729,54.290814],[-9.607382,54.290773],[-9.607546,54.290683],[-9.607742,54.290576],[-9.608517,54.29003],[-9.609286,54.289489],[-9.609803,54.288854],[-9.610378,54.288135],[-9.610925,54.287565],[-9.611482,54.286995],[-9.612192,54.286308],[-9.612627,54.285901],[-9.612773,54.285764],[-9.613305,54.28525],[-9.613696,54.284933],[-9.61377,54.28479],[-9.61359,54.284523],[-9.613534,54.284414],[-9.613474,54.284361],[-9.613386,54.284318],[-9.6133,54.284233],[-9.613244,54.284195],[-9.613175,54.284139],[-9.613053,54.284079],[-9.612892,54.283992],[-9.612827,54.283937],[-9.612785,54.28389],[-9.612661,54.283846],[-9.612564,54.283846],[-9.612546,54.283844],[-9.612466,54.283835],[-9.612353,54.283799],[-9.612272,54.283735],[-9.612253,54.28368],[-9.612248,54.283546],[-9.612224,54.283461],[-9.612146,54.283404],[-9.611964,54.283329],[-9.611907,54.283235],[-9.61172,54.283134],[-9.611624,54.283104],[-9.611606,54.283071],[-9.611613,54.283008],[-9.611571,54.282969],[-9.611449,54.28287],[-9.611416,54.282797],[-9.61135,54.282733],[-9.611249,54.282679],[-9.611195,54.28264],[-9.611182,54.282574],[-9.611186,54.282539],[-9.611104,54.282458],[-9.611006,54.282385],[-9.61099,54.282318],[-9.611039,54.282239],[-9.611115,54.282124],[-9.611185,54.282049],[-9.61128,54.281949],[-9.611316,54.28189],[-9.611357,54.281791],[-9.611347,54.28173],[-9.611312,54.281631],[-9.611251,54.281519],[-9.611198,54.281431],[-9.611187,54.281394],[-9.611129,54.281339],[-9.6111,54.281278],[-9.611113,54.281213],[-9.611186,54.281118],[-9.611263,54.281035],[-9.611336,54.280991],[-9.611431,54.280974],[-9.611536,54.280935],[-9.611581,54.280876],[-9.611616,54.280779],[-9.611657,54.280675],[-9.611636,54.280549],[-9.611581,54.280332],[-9.611506,54.280301],[-9.611411,54.280253],[-9.611429,54.280168],[-9.611381,54.280135],[-9.611336,54.280084],[-9.611279,54.280011],[-9.611347,54.279879],[-9.61142,54.279795],[-9.611412,54.279702],[-9.611459,54.279694],[-9.611513,54.279681],[-9.6116,54.279678],[-9.61172,54.279677],[-9.611796,54.279696],[-9.611968,54.279666],[-9.61214,54.279577],[-9.612379,54.279557],[-9.612603,54.279538],[-9.612666,54.279515],[-9.612775,54.279476],[-9.612912,54.279393],[-9.612943,54.279008],[-9.612967,54.278686],[-9.612953,54.278368],[-9.612958,54.27829],[-9.612945,54.278201],[-9.612945,54.278088],[-9.612952,54.278006],[-9.612954,54.277981],[-9.612954,54.277981],[-9.612954,54.277973],[-9.612952,54.277837],[-9.612951,54.277817],[-9.612935,54.277795],[-9.612853,54.277797],[-9.612663,54.277871],[-9.612405,54.277884],[-9.612215,54.277875],[-9.612027,54.277865],[-9.611803,54.277834],[-9.61158,54.277794],[-9.611253,54.277746],[-9.611014,54.277715],[-9.610824,54.277708],[-9.610494,54.277664],[-9.610188,54.277632],[-9.609784,54.277577],[-9.60942,54.277544],[-9.609285,54.277548],[-9.609183,54.277576],[-9.609039,54.277587],[-9.608903,54.277584],[-9.608733,54.27756],[-9.608671,54.277539],[-9.608545,54.277485],[-9.608293,54.27745],[-9.608182,54.27744],[-9.608092,54.277458],[-9.608011,54.277485],[-9.607938,54.277501],[-9.60786,54.277519],[-9.607745,54.277516],[-9.607679,54.277502],[-9.6076,54.277484],[-9.607522,54.277494],[-9.607403,54.277493],[-9.607303,54.277468],[-9.60719,54.277417],[-9.607074,54.277387],[-9.606957,54.277439],[-9.606891,54.277445],[-9.606788,54.277417],[-9.606692,54.27738],[-9.606606,54.277398],[-9.606525,54.277433],[-9.606468,54.277448],[-9.606391,54.277461],[-9.606313,54.277462],[-9.606251,54.277453],[-9.606158,54.277395],[-9.606144,54.277382],[-9.606123,54.277386],[-9.60569,54.277292],[-9.605632,54.277294],[-9.60542,54.277281]],[[-9.600127,54.284384],[-9.600137,54.284654],[-9.599216,54.284666],[-9.599226,54.284936],[-9.598305,54.284948],[-9.598295,54.284678],[-9.598284,54.284409],[-9.599205,54.284397],[-9.599195,54.284127],[-9.600116,54.284115],[-9.600127,54.284384]]],[[[-9.599404,54.293507],[-9.599554,54.293398],[-9.59955,54.293289],[-9.599089,54.293295],[-9.5991,54.293564],[-9.59932,54.293561],[-9.599404,54.293507]]],[[[-9.598855,54.293576],[-9.599104,54.293662],[-9.5991,54.293564],[-9.598837,54.293568],[-9.598855,54.293576]]],[[[-9.592387,54.289084],[-9.592623,54.289337],[-9.592945,54.289332],[-9.592935,54.289063],[-9.592377,54.28907],[-9.592387,54.289084]]]]}}]}
