{"type":"FeatureCollection","features":[{"type":"Feature","properties":{"source_fid":2313954,"county":"Mayo","bog_geom_ha":111.46474777943257,"low15_pct":92.009685230024218,"low15_ha":102.55836357429632,"overlay_ha":102.6334821955197,"area_delta":0.075118621223381865},"geometry":{"type":"MultiPolygon","coordinates":[[[[-9.539785,54.051747],[-9.539824,54.051772],[-9.539824,54.051772],[-9.539856,54.051758],[-9.539853,54.051695],[-9.540029,54.051692],[-9.540165,54.051664],[-9.54032,54.051612],[-9.540494,54.051558],[-9.540688,54.051523],[-9.540713,54.051519],[-9.540763,54.051514],[-9.540761,54.051463],[-9.540744,54.051464],[-9.540477,54.051505],[-9.540331,54.051536],[-9.540318,54.051538],[-9.540272,54.051548],[-9.539968,54.051649],[-9.539907,54.051657],[-9.539837,54.051651],[-9.539678,54.051623],[-9.539635,54.051615],[-9.539637,54.051653],[-9.539669,54.051676],[-9.539708,54.051699],[-9.539785,54.051747]]],[[[-9.541142,54.051388],[-9.541027,54.05141],[-9.541396,54.051405],[-9.541471,54.051389],[-9.541622,54.051348],[-9.542038,54.051367],[-9.542175,54.051374],[-9.542248,54.051378],[-9.542534,54.051392],[-9.542786,54.051408],[-9.542952,54.051405],[-9.543061,54.051388],[-9.543224,54.051377],[-9.543524,54.051362],[-9.543809,54.051367],[-9.543888,54.05138],[-9.543944,54.051317],[-9.544228,54.051217],[-9.544415,54.051151],[-9.544413,54.051097],[-9.545329,54.051085],[-9.54533,54.05111],[-9.545439,54.051096],[-9.545688,54.051104],[-9.545873,54.051111],[-9.547098,54.051049],[-9.547389,54.051056],[-9.552137,54.045336],[-9.551987,54.045338],[-9.551957,54.044529],[-9.552816,54.044518],[-9.555772,54.040956],[-9.555717,54.040939],[-9.555487,54.040922],[-9.555489,54.040979],[-9.551827,54.041026],[-9.551817,54.040757],[-9.549985,54.04078],[-9.549975,54.040511],[-9.54677,54.040552],[-9.54676,54.040282],[-9.544471,54.040312],[-9.544461,54.040042],[-9.54263,54.040066],[-9.542622,54.03986],[-9.541759,54.039784],[-9.541707,54.039778],[-9.541681,54.039775],[-9.54159,54.040021],[-9.54155,54.040128],[-9.540547,54.04122],[-9.540045,54.041808],[-9.539755,54.042125],[-9.539457,54.042417],[-9.539355,54.042525],[-9.539125,54.04273],[-9.538781,54.043019],[-9.538657,54.043134],[-9.538524,54.043258],[-9.538524,54.043258],[-9.538524,54.043258],[-9.538738,54.043536],[-9.538757,54.043568],[-9.538733,54.043612],[-9.538695,54.043676],[-9.538701,54.043732],[-9.538772,54.043878],[-9.538781,54.043925],[-9.538834,54.043972],[-9.538862,54.044009],[-9.538901,54.044113],[-9.538902,54.044168],[-9.538902,54.044252],[-9.538899,54.044292],[-9.538912,54.04433],[-9.538944,54.044412],[-9.539032,54.04451],[-9.539047,54.044531],[-9.539038,54.044561],[-9.53902,54.044598],[-9.539018,54.044622],[-9.539042,54.044663],[-9.539109,54.044718],[-9.539138,54.044731],[-9.539116,54.044155],[-9.539574,54.044149],[-9.539564,54.04388],[-9.540022,54.043874],[-9.540012,54.043604],[-9.54047,54.043599],[-9.54046,54.043329],[-9.541376,54.043317],[-9.541386,54.043587],[-9.541396,54.043856],[-9.54048,54.043868],[-9.54049,54.044137],[-9.540032,54.044143],[-9.540062,54.044952],[-9.540072,54.045221],[-9.54053,54.045215],[-9.54055,54.045754],[-9.540092,54.04576],[-9.540102,54.04603],[-9.540112,54.046299],[-9.538738,54.046317],[-9.538728,54.046047],[-9.539186,54.046041],[-9.539176,54.045772],[-9.539634,54.045766],[-9.539614,54.045227],[-9.539604,54.044958],[-9.539251,54.044962],[-9.539285,54.045043],[-9.539302,54.045082],[-9.539293,54.045155],[-9.539284,54.045185],[-9.539257,54.045209],[-9.53925,54.045238],[-9.539278,54.045334],[-9.539291,54.045424],[-9.539305,54.045551],[-9.539296,54.045584],[-9.539206,54.045652],[-9.53905,54.045791],[-9.538984,54.045827],[-9.538701,54.045919],[-9.538626,54.045947],[-9.538576,54.04598],[-9.5385,54.04602],[-9.538343,54.046085],[-9.53822,54.046135],[-9.53814,54.04617],[-9.538105,54.046201],[-9.53806,54.046247],[-9.538,54.04631],[-9.537941,54.04637],[-9.537867,54.046423],[-9.537825,54.046462],[-9.537796,54.046527],[-9.537811,54.046526],[-9.537824,54.046616],[-9.537799,54.046648],[-9.537693,54.046737],[-9.537653,54.046796],[-9.537652,54.0468],[-9.537269,54.046916],[-9.537034,54.046988],[-9.536926,54.047021],[-9.536307,54.047158],[-9.535404,54.047387],[-9.53453,54.047572],[-9.534271,54.047607],[-9.534212,54.047757],[-9.534155,54.047996],[-9.534143,54.048317],[-9.534143,54.048434],[-9.534079,54.04857],[-9.533982,54.048686],[-9.533932,54.048728],[-9.533921,54.048758],[-9.533908,54.048855],[-9.533964,54.048916],[-9.53399,54.048981],[-9.534025,54.049022],[-9.534042,54.049108],[-9.534068,54.04922],[-9.534099,54.049301],[-9.534148,54.049377],[-9.534169,54.049444],[-9.534192,54.049478],[-9.534208,54.049504],[-9.534231,54.049532],[-9.53427,54.049579],[-9.534315,54.049622],[-9.534379,54.049685],[-9.534463,54.049762],[-9.534468,54.049831],[-9.53446,54.049895],[-9.534467,54.049952],[-9.534519,54.050011],[-9.534582,54.050079],[-9.534626,54.050164],[-9.534666,54.050256],[-9.534783,54.050678],[-9.534843,54.050942],[-9.534909,54.051057],[-9.534924,54.051205],[-9.534936,54.051331],[-9.534902,54.051467],[-9.534979,54.051578],[-9.535134,54.051652],[-9.535552,54.051865],[-9.53572,54.052005],[-9.535786,54.052133],[-9.535841,54.052245],[-9.535871,54.052408],[-9.535879,54.052448],[-9.535884,54.052474],[-9.536236,54.052565],[-9.536429,54.052587],[-9.536474,54.052589],[-9.536497,54.052593],[-9.536523,54.052597],[-9.536525,54.052603],[-9.536532,54.052642],[-9.53657,54.052677],[-9.536662,54.052737],[-9.536693,54.052768],[-9.536726,54.052783],[-9.536719,54.052815],[-9.536763,54.052794],[-9.536909,54.052718],[-9.537082,54.052629],[-9.537286,54.052449],[-9.537434,54.052318],[-9.537674,54.05218],[-9.537709,54.052142],[-9.53783,54.05175],[-9.537834,54.051716],[-9.537837,54.051683],[-9.53784,54.05165],[-9.537844,54.051552],[-9.537897,54.051473],[-9.537912,54.051468],[-9.538091,54.051407],[-9.538263,54.051346],[-9.538448,54.051217],[-9.53838,54.051145],[-9.538327,54.051097],[-9.538306,54.051061],[-9.538303,54.050998],[-9.538286,54.050937],[-9.538296,54.050854],[-9.538296,54.050818],[-9.538325,54.050783],[-9.538356,54.050733],[-9.538443,54.050679],[-9.538492,54.050649],[-9.538613,54.050574],[-9.538915,54.050554],[-9.538916,54.050538],[-9.538972,54.050452],[-9.539151,54.050272],[-9.539251,54.050149],[-9.539311,54.050092],[-9.539348,54.050054],[-9.540999,54.050024],[-9.542388,54.049961],[-9.542435,54.049961],[-9.542668,54.049987],[-9.542861,54.049986],[-9.542831,54.050407],[-9.543321,54.050393],[-9.543323,54.050297],[-9.543898,54.050288],[-9.54391,54.050374],[-9.543991,54.050437],[-9.544005,54.050514],[-9.543997,54.050682],[-9.544055,54.051056],[-9.543915,54.051069],[-9.543788,54.051056],[-9.543648,54.051041],[-9.54363,54.051041],[-9.543461,54.051036],[-9.543276,54.051041],[-9.543217,54.051047],[-9.542801,54.051072],[-9.542796,54.051334],[-9.542577,54.051311],[-9.542282,54.051301],[-9.542199,54.051324],[-9.542079,54.051313],[-9.541873,54.051301],[-9.541597,54.051291],[-9.541395,54.051317],[-9.541383,54.051323],[-9.541142,54.051388]],[[-9.53828,54.046323],[-9.538738,54.046317],[-9.538748,54.046586],[-9.53829,54.046592],[-9.53828,54.046323]],[[-9.550981,54.042924],[-9.550991,54.043194],[-9.550533,54.0432],[-9.550523,54.04293],[-9.550981,54.042924]],[[-9.551001,54.043463],[-9.550991,54.043194],[-9.551449,54.043188],[-9.551459,54.043457],[-9.551001,54.043463]],[[-9.547348,54.04378],[-9.547338,54.04351],[-9.547796,54.043504],[-9.547806,54.043774],[-9.547348,54.04378]],[[-9.547816,54.044043],[-9.547806,54.043774],[-9.548264,54.043768],[-9.548274,54.044038],[-9.547816,54.044043]],[[-9.547328,54.043241],[-9.547338,54.04351],[-9.546422,54.043522],[-9.546412,54.043253],[-9.547328,54.043241]],[[-9.54922,54.044834],[-9.54923,54.045104],[-9.548772,54.04511],[-9.548762,54.04484],[-9.54922,54.044834]],[[-9.54924,54.045373],[-9.54923,54.045104],[-9.550146,54.045092],[-9.550156,54.045361],[-9.54924,54.045373]],[[-9.550166,54.045631],[-9.550156,54.045361],[-9.551071,54.045349],[-9.551082,54.045619],[-9.550166,54.045631]],[[-9.551092,54.045888],[-9.551082,54.045619],[-9.551539,54.045613],[-9.551549,54.045883],[-9.551092,54.045888]],[[-9.548842,54.046996],[-9.548384,54.047002],[-9.548374,54.046732],[-9.548832,54.046726],[-9.548842,54.046996]],[[-9.547926,54.047008],[-9.548384,54.047002],[-9.548394,54.047271],[-9.548404,54.047541],[-9.547946,54.047547],[-9.547956,54.047816],[-9.547041,54.047828],[-9.54703,54.047558],[-9.547488,54.047553],[-9.547478,54.047283],[-9.547936,54.047277],[-9.547926,54.047008]],[[-9.543675,54.043557],[-9.544133,54.043552],[-9.544143,54.043821],[-9.544601,54.043815],[-9.544611,54.044085],[-9.545527,54.044073],[-9.545537,54.044342],[-9.546452,54.044331],[-9.546462,54.0446],[-9.54692,54.044594],[-9.54695,54.045403],[-9.546493,54.045408],[-9.546513,54.045947],[-9.546523,54.046217],[-9.546065,54.046223],[-9.546055,54.045953],[-9.545597,54.045959],[-9.545577,54.04542],[-9.546035,54.045414],[-9.546005,54.044606],[-9.545089,54.044618],[-9.545079,54.044348],[-9.544163,54.04436],[-9.544153,54.04409],[-9.543695,54.044096],[-9.543685,54.043827],[-9.543227,54.043833],[-9.543217,54.043563],[-9.543207,54.043294],[-9.543665,54.043288],[-9.543675,54.043557]],[[-9.545677,54.048115],[-9.545687,54.048384],[-9.545229,54.04839],[-9.545219,54.048121],[-9.545677,54.048115]],[[-9.545697,54.048654],[-9.545687,54.048384],[-9.546145,54.048379],[-9.546155,54.048648],[-9.545697,54.048654]],[[-9.541525,54.047359],[-9.541067,54.047365],[-9.541058,54.047096],[-9.538768,54.047125],[-9.538758,54.046856],[-9.541505,54.046821],[-9.541515,54.04709],[-9.541525,54.047359]],[[-9.540639,54.04818],[-9.540649,54.048449],[-9.540192,54.048455],[-9.540182,54.048186],[-9.540639,54.04818]]]]}}]}
