{"type":"FeatureCollection","features":[{"type":"Feature","properties":{"source_fid":2319650,"county":"Donegal","bog_geom_ha":179.4422039900941,"low15_pct":90.156486622917726,"low15_ha":161.77878663619791,"overlay_ha":161.63739757348139,"area_delta":-0.14138906271651308},"geometry":{"type":"MultiPolygon","coordinates":[[[[-7.874183,54.570958],[-7.874155,54.570964],[-7.874052,54.570989],[-7.873866,54.571033],[-7.873404,54.571143],[-7.873286,54.571188],[-7.872762,54.571387],[-7.872775,54.571406],[-7.872968,54.571803],[-7.873035,54.57193],[-7.873277,54.57239],[-7.873317,54.572468],[-7.872942,54.572717],[-7.873438,54.573728],[-7.87348,54.573813],[-7.874096,54.573812],[-7.874289,54.574179],[-7.874298,54.574197],[-7.874726,54.574198],[-7.874727,54.573928],[-7.874263,54.573928],[-7.874264,54.573658],[-7.875192,54.573659],[-7.875193,54.57312],[-7.875657,54.57312],[-7.875658,54.572851],[-7.876122,54.572851],[-7.876121,54.573121],[-7.876585,54.573121],[-7.876584,54.57366],[-7.87612,54.57366],[-7.876119,54.57393],[-7.875655,54.573929],[-7.875654,54.574199],[-7.87519,54.574198],[-7.875189,54.574468],[-7.875106,54.574468],[-7.875104,54.574475],[-7.875099,54.574496],[-7.875114,54.574513],[-7.875136,54.574528],[-7.875181,54.574549],[-7.875243,54.574548],[-7.875318,54.57451],[-7.875337,54.574498],[-7.875381,54.574468],[-7.875441,54.574471],[-7.875463,54.57448],[-7.875606,54.574497],[-7.875665,54.574541],[-7.875514,54.574663],[-7.875425,54.574764],[-7.875392,54.574851],[-7.875312,54.57507],[-7.875186,54.575444],[-7.875218,54.575478],[-7.875257,54.575509],[-7.875256,54.575531],[-7.875237,54.57555],[-7.875232,54.575576],[-7.875249,54.575613],[-7.875288,54.575659],[-7.875304,54.575691],[-7.875277,54.57573],[-7.875277,54.575753],[-7.875308,54.575774],[-7.875327,54.575799],[-7.875327,54.575811],[-7.875311,54.575831],[-7.875311,54.57585],[-7.875348,54.575876],[-7.875349,54.57589],[-7.875308,54.575913],[-7.875259,54.575952],[-7.875196,54.575973],[-7.87515,54.575992],[-7.875122,54.576013],[-7.875089,54.576017],[-7.875049,54.576037],[-7.875024,54.576072],[-7.87506,54.576127],[-7.875063,54.576149],[-7.875051,54.57617],[-7.875056,54.576191],[-7.875128,54.576264],[-7.875209,54.57634],[-7.875261,54.576375],[-7.875303,54.576402],[-7.875325,54.576455],[-7.874448,54.576818],[-7.874465,54.576825],[-7.874487,54.576835],[-7.874564,54.576867],[-7.874634,54.576897],[-7.874865,54.576992],[-7.875015,54.577055],[-7.875084,54.577085],[-7.875157,54.577116],[-7.875301,54.577178],[-7.875453,54.577237],[-7.87548,54.577245],[-7.875492,54.577249],[-7.875507,54.577254],[-7.875549,54.577267],[-7.875751,54.57733],[-7.875888,54.577378],[-7.876025,54.577427],[-7.876383,54.577574],[-7.876678,54.577685],[-7.876868,54.577761],[-7.877036,54.577828],[-7.87732,54.577953],[-7.877686,54.578114],[-7.877832,54.578194],[-7.877884,54.578224],[-7.877936,54.578244],[-7.878171,54.578337],[-7.878221,54.57836],[-7.879175,54.578785],[-7.879352,54.578785],[-7.879353,54.578515],[-7.879817,54.578516],[-7.879818,54.578246],[-7.880282,54.578247],[-7.880283,54.577977],[-7.880747,54.577977],[-7.880748,54.577708],[-7.881212,54.577708],[-7.881212,54.577439],[-7.88214,54.57744],[-7.88214,54.577709],[-7.882139,54.577979],[-7.882138,54.578248],[-7.881674,54.578248],[-7.881673,54.578517],[-7.880745,54.578517],[-7.880745,54.578786],[-7.88028,54.578786],[-7.88028,54.579055],[-7.879766,54.579055],[-7.87991,54.579121],[-7.880212,54.579261],[-7.88038,54.579338],[-7.880704,54.579488],[-7.88132,54.579785],[-7.881495,54.579879],[-7.881722,54.579995],[-7.882096,54.580182],[-7.882976,54.580638],[-7.883298,54.580806],[-7.883851,54.581096],[-7.884635,54.581502],[-7.8848,54.581595],[-7.884844,54.58162],[-7.884846,54.580925],[-7.886771,54.580927],[-7.886772,54.580679],[-7.887236,54.580679],[-7.887236,54.58041],[-7.887237,54.58014],[-7.887237,54.580029],[-7.884849,54.580027],[-7.884853,54.578521],[-7.884458,54.57852],[-7.884457,54.57879],[-7.883065,54.578788],[-7.883065,54.578519],[-7.883529,54.578519],[-7.88353,54.57825],[-7.884458,54.578251],[-7.884459,54.577981],[-7.884855,54.577981],[-7.884857,54.577332],[-7.884859,54.576434],[-7.886405,54.576435],[-7.886406,54.576096],[-7.88632,54.576096],[-7.886321,54.575826],[-7.886407,54.575827],[-7.886408,54.575537],[-7.886786,54.575537],[-7.886787,54.575288],[-7.887251,54.575288],[-7.887252,54.574749],[-7.887405,54.574749],[-7.887435,54.574729],[-7.887443,54.574705],[-7.887448,54.574663],[-7.887455,54.574653],[-7.887496,54.574641],[-7.88753,54.574626],[-7.887559,54.574591],[-7.887603,54.57446],[-7.887613,54.574432],[-7.887664,54.5744],[-7.887717,54.574382],[-7.887718,54.57421],[-7.888069,54.574211],[-7.888109,54.574177],[-7.888182,54.574132],[-7.888182,54.573941],[-7.888972,54.573942],[-7.889002,54.573922],[-7.888471,54.573655],[-7.888319,54.573726],[-7.888157,54.573598],[-7.887856,54.573367],[-7.887628,54.573194],[-7.887483,54.573064],[-7.887264,54.572797],[-7.88699,54.572456],[-7.886741,54.572153],[-7.886637,54.572047],[-7.886545,54.571966],[-7.886422,54.571873],[-7.886152,54.571692],[-7.885932,54.571571],[-7.885805,54.571508],[-7.885585,54.57139],[-7.884964,54.571083],[-7.884747,54.570976],[-7.884447,54.570831],[-7.884223,54.570727],[-7.884084,54.57067],[-7.884046,54.570654],[-7.883996,54.570619],[-7.884143,54.570554],[-7.884535,54.570435],[-7.884746,54.570395],[-7.88487,54.570342],[-7.885053,54.570283],[-7.885376,54.570236],[-7.885589,54.570279],[-7.88583,54.570304],[-7.885922,54.570287],[-7.885505,54.570151],[-7.88528,54.570063],[-7.885027,54.56995],[-7.884638,54.569815],[-7.884178,54.569675],[-7.883729,54.569542],[-7.883343,54.569418],[-7.882647,54.569159],[-7.882604,54.569143],[-7.882572,54.569136],[-7.881688,54.56893],[-7.881458,54.568857],[-7.881121,54.568751],[-7.881102,54.568745],[-7.880973,54.568706],[-7.880856,54.56874],[-7.880805,54.568745],[-7.880707,54.56874],[-7.880664,54.568746],[-7.8806,54.568778],[-7.880533,54.568817],[-7.880451,54.568884],[-7.880429,54.568898],[-7.880408,54.568901],[-7.880206,54.568954],[-7.879796,54.569102],[-7.879653,54.569169],[-7.879544,54.569159],[-7.879418,54.569232],[-7.879361,54.569252],[-7.879301,54.569291],[-7.879181,54.56933],[-7.878925,54.569427],[-7.878827,54.569449],[-7.878714,54.569487],[-7.878656,54.569518],[-7.878156,54.569695],[-7.877132,54.570044],[-7.876859,54.570155],[-7.876587,54.570254],[-7.876378,54.570323],[-7.876145,54.570407],[-7.875758,54.570544],[-7.875342,54.570644],[-7.874183,54.570958]],[[-7.883087,54.570971],[-7.883086,54.571241],[-7.883085,54.571511],[-7.882622,54.57151],[-7.882621,54.57178],[-7.882157,54.571779],[-7.882156,54.572049],[-7.881228,54.572048],[-7.881227,54.572317],[-7.880299,54.572316],[-7.880299,54.572586],[-7.879371,54.572585],[-7.879372,54.572316],[-7.879835,54.572316],[-7.879836,54.572046],[-7.8803,54.572047],[-7.880301,54.571777],[-7.881229,54.571778],[-7.88123,54.571509],[-7.882158,54.57151],[-7.882158,54.57124],[-7.882622,54.57124],[-7.882623,54.570971],[-7.882624,54.570701],[-7.883088,54.570702],[-7.883089,54.570432],[-7.883553,54.570433],[-7.883552,54.570702],[-7.883551,54.570972],[-7.883087,54.570971]],[[-7.883546,54.572859],[-7.883082,54.572858],[-7.883084,54.57205],[-7.883548,54.57205],[-7.883546,54.572859]],[[-7.883538,54.575554],[-7.883074,54.575554],[-7.883072,54.576093],[-7.882608,54.576092],[-7.882608,54.576362],[-7.882606,54.576901],[-7.881678,54.5769],[-7.88168,54.576361],[-7.882144,54.576362],[-7.882144,54.576092],[-7.882146,54.575553],[-7.882147,54.575283],[-7.882611,54.575284],[-7.882612,54.574745],[-7.883076,54.574745],[-7.883078,54.574206],[-7.883542,54.574206],[-7.88354,54.574746],[-7.883539,54.575285],[-7.883538,54.575554]],[[-7.883061,54.580136],[-7.882133,54.580135],[-7.882133,54.579866],[-7.881669,54.579865],[-7.88167,54.579596],[-7.882598,54.579597],[-7.882598,54.579866],[-7.883062,54.579867],[-7.883061,54.580136]]],[[[-7.887939,54.580928],[-7.887941,54.58041],[-7.8877,54.58041],[-7.8877,54.58068],[-7.887236,54.580679],[-7.887235,54.580928],[-7.887939,54.580928]]],[[[-7.902838,54.576672],[-7.902337,54.576393],[-7.902218,54.576309],[-7.902111,54.576318],[-7.902051,54.576322],[-7.901838,54.576349],[-7.901615,54.576524],[-7.901514,54.57657],[-7.901369,54.576627],[-7.901141,54.576701],[-7.901057,54.576719],[-7.901057,54.576719],[-7.901057,54.576719],[-7.901009,54.576708],[-7.90094,54.576693],[-7.900845,54.576709],[-7.900834,54.576712],[-7.900763,54.576735],[-7.90076,54.576741],[-7.900735,54.576807],[-7.900662,54.576826],[-7.900464,54.576835],[-7.900144,54.576718],[-7.900144,54.576718],[-7.900144,54.576718],[-7.900154,54.576704],[-7.900177,54.576673],[-7.899982,54.576548],[-7.899972,54.576542],[-7.899956,54.576531],[-7.899821,54.576441],[-7.899797,54.576377],[-7.899789,54.57635],[-7.899775,54.576305],[-7.899717,54.576257],[-7.899707,54.576128],[-7.899707,54.57612],[-7.899691,54.576109],[-7.89968,54.576101],[-7.89964,54.576094],[-7.899635,54.576093],[-7.899635,54.576093],[-7.8996,54.576051],[-7.899558,54.576001],[-7.899505,54.575934],[-7.899469,54.57589],[-7.899411,54.575875],[-7.899374,54.575865],[-7.899252,54.575757],[-7.899258,54.575693],[-7.899265,54.575623],[-7.899147,54.575461],[-7.899142,54.57542],[-7.899133,54.575353],[-7.899113,54.575341],[-7.899082,54.575323],[-7.899288,54.575214],[-7.899299,54.575199],[-7.899304,54.575192],[-7.899282,54.575078],[-7.899334,54.575017],[-7.899343,54.574979],[-7.899507,54.574878],[-7.899507,54.574878],[-7.896098,54.572977],[-7.895958,54.573011],[-7.895864,54.573064],[-7.895464,54.573161],[-7.895201,54.57322],[-7.89483,54.57336],[-7.894582,54.573473],[-7.894509,54.573484],[-7.894424,54.573494],[-7.894378,54.573513],[-7.894278,54.573617],[-7.894162,54.573693],[-7.893931,54.573821],[-7.893866,54.573847],[-7.893772,54.57386],[-7.893698,54.57388],[-7.893649,54.573919],[-7.893551,54.57397],[-7.89336,54.574025],[-7.893103,54.574079],[-7.893037,54.574148],[-7.892917,54.574258],[-7.892801,54.574322],[-7.892612,54.574484],[-7.893749,54.574485],[-7.893748,54.574755],[-7.894676,54.574756],[-7.894676,54.574486],[-7.895604,54.574487],[-7.895604,54.574757],[-7.89514,54.574756],[-7.895139,54.575026],[-7.894211,54.575025],[-7.89421,54.575294],[-7.89421,54.575564],[-7.895138,54.575565],[-7.895137,54.575834],[-7.895601,54.575835],[-7.8956,54.576104],[-7.896064,54.576105],[-7.896064,54.576374],[-7.896528,54.576375],[-7.896527,54.576644],[-7.896524,54.577722],[-7.896524,54.577992],[-7.89606,54.577992],[-7.896059,54.578261],[-7.895131,54.57826],[-7.895131,54.577991],[-7.895132,54.577721],[-7.895596,54.577722],[-7.895599,54.576643],[-7.895135,54.576643],[-7.895134,54.576913],[-7.89467,54.576912],[-7.89467,54.577182],[-7.894206,54.577181],[-7.894205,54.577451],[-7.894135,54.577451],[-7.894132,54.578239],[-7.893739,54.578239],[-7.893739,54.578259],[-7.892811,54.578258],[-7.89281,54.578528],[-7.892585,54.578528],[-7.892584,54.579067],[-7.892809,54.579067],[-7.892809,54.578797],[-7.893273,54.578798],[-7.893274,54.578528],[-7.894666,54.578529],[-7.894665,54.578799],[-7.894201,54.578799],[-7.894201,54.579068],[-7.893737,54.579068],[-7.893736,54.579337],[-7.893272,54.579337],[-7.893271,54.579606],[-7.892807,54.579606],[-7.892806,54.579876],[-7.892342,54.579875],[-7.892342,54.580145],[-7.891878,54.580144],[-7.891878,54.579875],[-7.891879,54.579605],[-7.89188,54.579336],[-7.892344,54.579336],[-7.892344,54.579136],[-7.890488,54.579134],[-7.890488,54.579334],[-7.88956,54.579334],[-7.889559,54.579603],[-7.889095,54.579603],[-7.889094,54.579872],[-7.88863,54.579872],[-7.88863,54.580031],[-7.889488,54.580031],[-7.889486,54.58093],[-7.887939,54.580928],[-7.887937,54.581758],[-7.888161,54.581758],[-7.88816,54.582028],[-7.889088,54.582029],[-7.889089,54.581759],[-7.890017,54.58176],[-7.890016,54.58203],[-7.889552,54.582029],[-7.889552,54.582299],[-7.889088,54.582298],[-7.889087,54.582568],[-7.888623,54.582567],[-7.888622,54.582689],[-7.888851,54.582755],[-7.889655,54.582987],[-7.890909,54.583366],[-7.890948,54.583378],[-7.891405,54.583379],[-7.891405,54.583514],[-7.891597,54.58357],[-7.892469,54.583829],[-7.893195,54.58405],[-7.893784,54.584231],[-7.893857,54.584252],[-7.894636,54.584484],[-7.895262,54.584677],[-7.895461,54.584738],[-7.89567,54.584801],[-7.895839,54.584852],[-7.896177,54.584953],[-7.897097,54.585236],[-7.897957,54.585489],[-7.898135,54.585541],[-7.898361,54.585541],[-7.898361,54.585608],[-7.898958,54.585791],[-7.899061,54.585823],[-7.899104,54.585836],[-7.899125,54.585818],[-7.89914,54.585806],[-7.899159,54.585763],[-7.899171,54.58573],[-7.899167,54.5857],[-7.899093,54.585693],[-7.899004,54.585668],[-7.899005,54.585643],[-7.899075,54.585544],[-7.899099,54.585502],[-7.899061,54.585475],[-7.898953,54.5854],[-7.898915,54.585337],[-7.898915,54.585332],[-7.898907,54.585322],[-7.89891,54.585307],[-7.898915,54.585302],[-7.898916,54.585255],[-7.898944,54.585093],[-7.898984,54.58501],[-7.899051,54.584936],[-7.899067,54.584886],[-7.899032,54.584843],[-7.89904,54.584821],[-7.899079,54.584801],[-7.899212,54.584756],[-7.899305,54.584741],[-7.899352,54.584721],[-7.899372,54.58466],[-7.899451,54.584527],[-7.899557,54.584433],[-7.899647,54.58437],[-7.899721,54.584339],[-7.899767,54.584314],[-7.899803,54.584285],[-7.89988,54.584258],[-7.899931,54.584231],[-7.899955,54.584202],[-7.899971,54.584171],[-7.899987,54.584137],[-7.900064,54.584103],[-7.900115,54.58407],[-7.90015,54.584038],[-7.900174,54.584],[-7.900202,54.583982],[-7.90024,54.583994],[-7.900302,54.583998],[-7.900415,54.583976],[-7.900458,54.583949],[-7.900524,54.583945],[-7.900637,54.583934],[-7.900653,54.583926],[-7.899757,54.583925],[-7.899758,54.583655],[-7.900686,54.583656],[-7.900685,54.583908],[-7.900695,54.583903],[-7.90073,54.583887],[-7.9008,54.583881],[-7.900893,54.583877],[-7.90099,54.583866],[-7.901072,54.583852],[-7.901181,54.583835],[-7.901375,54.583799],[-7.901531,54.583759],[-7.901589,54.583757],[-7.901624,54.583762],[-7.901787,54.583747],[-7.901857,54.583751],[-7.901899,54.583779],[-7.901957,54.583788],[-7.902117,54.583773],[-7.90233,54.583746],[-7.902385,54.583733],[-7.902455,54.583731],[-7.902521,54.583725],[-7.902583,54.583711],[-7.902731,54.583664],[-7.902882,54.583629],[-7.902976,54.583595],[-7.903124,54.58354],[-7.903288,54.583473],[-7.903424,54.583432],[-7.903471,54.583431],[-7.903471,54.583389],[-7.903606,54.583389],[-7.903661,54.58337],[-7.903685,54.583332],[-7.903697,54.583305],[-7.903802,54.583267],[-7.903936,54.58322],[-7.903936,54.58312],[-7.904203,54.58312],[-7.904246,54.583075],[-7.904309,54.583032],[-7.904367,54.583003],[-7.904426,54.582992],[-7.904468,54.582967],[-7.9045,54.582938],[-7.90455,54.582923],[-7.904562,54.58288],[-7.90459,54.582857],[-7.904636,54.582851],[-7.904698,54.582862],[-7.904741,54.582874],[-7.904811,54.582869],[-7.904877,54.582845],[-7.90497,54.582818],[-7.905017,54.582805],[-7.905021,54.582776],[-7.905181,54.582715],[-7.905193,54.58269],[-7.905162,54.582648],[-7.905139,54.582625],[-7.905136,54.582607],[-7.905252,54.582564],[-7.905404,54.582504],[-7.905451,54.582462],[-7.905503,54.582378],[-7.905541,54.582378],[-7.905712,54.582379],[-7.905871,54.582395],[-7.90596,54.582407],[-7.906018,54.582409],[-7.906061,54.582401],[-7.906065,54.582385],[-7.906108,54.582367],[-7.90617,54.58236],[-7.906209,54.582347],[-7.906225,54.58232],[-7.906237,54.582279],[-7.906257,54.582262],[-7.906319,54.582246],[-7.906342,54.582228],[-7.90637,54.582188],[-7.906405,54.582131],[-7.90646,54.582111],[-7.906549,54.582114],[-7.906685,54.582141],[-7.906702,54.582144],[-7.906735,54.582144],[-7.906855,54.582139],[-7.906953,54.582097],[-7.907109,54.582046],[-7.907187,54.582006],[-7.907222,54.581994],[-7.907284,54.58199],[-7.90733,54.581966],[-7.907397,54.581882],[-7.907523,54.581779],[-7.907593,54.581705],[-7.907644,54.581642],[-7.907734,54.581629],[-7.907819,54.581627],[-7.907901,54.581587],[-7.90794,54.581578],[-7.907936,54.581526],[-7.907952,54.581499],[-7.907997,54.581488],[-7.90818,54.581465],[-7.908236,54.581445],[-7.908381,54.581413],[-7.908489,54.581389],[-7.908589,54.581349],[-7.908496,54.581272],[-7.908272,54.581091],[-7.908029,54.580862],[-7.907848,54.58071],[-7.907528,54.58046],[-7.90737,54.580335],[-7.90724,54.580229],[-7.906805,54.579856],[-7.906408,54.579513],[-7.906078,54.579228],[-7.905988,54.579147],[-7.905755,54.578938],[-7.905419,54.578755],[-7.90535,54.57868],[-7.905263,54.578558],[-7.905139,54.578382],[-7.905057,54.578269],[-7.905042,54.578248],[-7.904958,54.578117],[-7.904957,54.578248],[-7.903411,54.578247],[-7.903413,54.577348],[-7.903945,54.577349],[-7.903713,54.577187],[-7.903332,54.576944],[-7.903157,54.576833],[-7.903058,54.576781],[-7.902935,54.576722],[-7.902838,54.576672]],[[-7.901614,54.583657],[-7.900686,54.583656],[-7.900687,54.583387],[-7.901615,54.583387],[-7.901614,54.583657]],[[-7.899293,54.583924],[-7.899757,54.583925],[-7.899756,54.584194],[-7.899292,54.584194],[-7.899293,54.583924]],[[-7.888625,54.581759],[-7.888161,54.581758],[-7.888162,54.581489],[-7.888626,54.581489],[-7.888625,54.581759]],[[-7.901626,54.578805],[-7.900698,54.578804],[-7.900698,54.578535],[-7.901626,54.578535],[-7.901626,54.578805]],[[-7.899768,54.579342],[-7.899768,54.579612],[-7.899304,54.579612],[-7.899304,54.579342],[-7.899768,54.579342]],[[-7.899767,54.579882],[-7.899768,54.579612],[-7.900232,54.579612],[-7.900231,54.579882],[-7.899767,54.579882]],[[-7.892804,54.580684],[-7.892805,54.580415],[-7.892806,54.580145],[-7.89327,54.580146],[-7.893269,54.580415],[-7.893733,54.580416],[-7.893732,54.580685],[-7.892804,54.580684]],[[-7.895587,54.581495],[-7.895587,54.581226],[-7.896051,54.581226],[-7.896052,54.580957],[-7.896516,54.580957],[-7.896515,54.581227],[-7.896515,54.581496],[-7.895587,54.581495]],[[-7.891412,54.580683],[-7.890948,54.580683],[-7.890949,54.580413],[-7.891413,54.580413],[-7.891412,54.580683]],[[-7.89002,54.580682],[-7.890948,54.580683],[-7.890947,54.580952],[-7.890483,54.580952],[-7.890483,54.581221],[-7.889554,54.58122],[-7.889555,54.580951],[-7.890019,54.580951],[-7.89002,54.580682]],[[-7.891406,54.582839],[-7.890942,54.582839],[-7.890944,54.58203],[-7.891409,54.582031],[-7.891406,54.582839]]],[[[-7.887473,54.582422],[-7.887695,54.582475],[-7.887695,54.582297],[-7.887696,54.582027],[-7.887697,54.581826],[-7.88639,54.581825],[-7.886389,54.582156],[-7.886621,54.582212],[-7.886936,54.582288],[-7.887184,54.58235],[-7.887473,54.582422]]],[[[-7.894137,54.576442],[-7.894137,54.576642],[-7.894207,54.576642],[-7.894208,54.576373],[-7.894208,54.576103],[-7.894138,54.576103],[-7.894137,54.576442]]]]}}]}
