{"type":"FeatureCollection","features":[{"type":"Feature","properties":{"source_fid":2319685,"county":"Donegal","bog_geom_ha":138.86831704924117,"low15_pct":95.666235446313067,"low15_ha":132.85009114865957,"overlay_ha":132.72045536348702,"area_delta":-0.12963578517255314},"geometry":{"type":"MultiPolygon","coordinates":[[[[-8.004143,54.580419],[-8.00319,54.580052],[-8.002886,54.579935],[-8.002652,54.579813],[-8.002459,54.579651],[-8.002459,54.579651],[-8.002447,54.579654],[-8.00232,54.579666],[-8.002273,54.579686],[-8.002245,54.579737],[-8.002218,54.579762],[-8.002186,54.579792],[-8.002186,54.579792],[-8.002186,54.579792],[-8.002059,54.579865],[-8.002059,54.579865],[-8.002003,54.579893],[-8.001995,54.57992],[-8.001896,54.58004],[-8.001852,54.58007],[-8.001852,54.58007],[-8.001852,54.58007],[-8.001797,54.580067],[-8.001718,54.580062],[-8.001674,54.580026],[-8.001611,54.579996],[-8.00156,54.580037],[-8.001544,54.580085],[-8.001575,54.580115],[-8.001563,54.580134],[-8.001532,54.58017],[-8.00148,54.580205],[-8.00148,54.580205],[-8.00148,54.580205],[-8.001409,54.580246],[-8.001409,54.580246],[-8.001381,54.580267],[-8.001381,54.580267],[-8.001381,54.580267],[-8.001337,54.580278],[-8.001353,54.580296],[-8.001294,54.580356],[-8.001175,54.580427],[-8.001175,54.580427],[-8.001175,54.580427],[-8.001127,54.58045],[-8.00102,54.58045],[-8.000909,54.580448],[-8.000834,54.58045],[-8.000779,54.58045],[-8.000748,54.580466],[-8.000719,54.580466],[-8.000692,54.580466],[-8.000624,54.580466],[-8.000589,54.580486],[-8.000589,54.580486],[-8.000553,54.580502],[-8.00049,54.580507],[-8.000407,54.580514],[-8.000308,54.580527],[-8.000236,54.580507],[-8.000181,54.580502],[-8.000134,54.580502],[-8.000074,54.580495],[-8.000019,54.580495],[-7.999948,54.580504],[-7.999837,54.580497],[-7.99971,54.580492],[-7.999576,54.580492],[-7.999481,54.580499],[-7.99939,54.580499],[-7.999318,54.580485],[-7.999275,54.58048],[-7.999204,54.58048],[-7.999132,54.580489],[-7.999081,54.580496],[-7.999037,54.580501],[-7.99899,54.580501],[-7.998946,54.580494],[-7.998891,54.580464],[-7.998875,54.580462],[-7.998828,54.580464],[-7.998768,54.580471],[-7.998701,54.580454],[-7.998646,54.580448],[-7.998598,54.580422],[-7.998543,54.580427],[-7.998496,54.580429],[-7.998464,54.580429],[-7.998452,54.580447],[-7.998452,54.580447],[-7.998452,54.580447],[-7.998377,54.580456],[-7.998341,54.580463],[-7.998317,54.580472],[-7.998317,54.580489],[-7.998317,54.580502],[-7.998317,54.580523],[-7.998301,54.580537],[-7.998281,54.580551],[-7.998281,54.580551],[-7.998281,54.580551],[-7.99825,54.580557],[-7.998218,54.580576],[-7.998218,54.580576],[-7.99819,54.580585],[-7.998107,54.580592],[-7.998056,54.580605],[-7.998016,54.580626],[-7.997937,54.580635],[-7.997882,54.580635],[-7.997846,54.580626],[-7.997806,54.580626],[-7.997779,54.580635],[-7.997703,54.580633],[-7.997597,54.580614],[-7.997498,54.580591],[-7.99734,54.580556],[-7.99715,54.580536],[-7.997082,54.580554],[-7.997027,54.580558],[-7.996904,54.580558],[-7.996821,54.580574],[-7.996774,54.58059],[-7.996738,54.58059],[-7.996643,54.580574],[-7.996592,54.58056],[-7.996556,54.580553],[-7.996521,54.580533],[-7.996477,54.580514],[-7.996434,54.580507],[-7.996346,54.580537],[-7.996283,54.580553],[-7.99622,54.58058],[-7.996148,54.58058],[-7.99605,54.580548],[-7.995971,54.580539],[-7.995856,54.580543],[-7.995781,54.580543],[-7.995686,54.580525],[-7.995634,54.580504],[-7.995579,54.580481],[-7.99552,54.580444],[-7.995453,54.58041],[-7.995354,54.580393],[-7.995302,54.580382],[-7.995298,54.580368],[-7.995283,54.580341],[-7.995176,54.580313],[-7.995109,54.580324],[-7.995073,54.58031],[-7.995029,54.580287],[-7.994974,54.580278],[-7.994927,54.580257],[-7.994887,54.580221],[-7.994856,54.580214],[-7.994796,54.580211],[-7.994713,54.580253],[-7.994662,54.580255],[-7.994617,54.580244],[-7.994602,54.580241],[-7.994583,54.580228],[-7.994535,54.580195],[-7.994433,54.580105],[-7.994401,54.580066],[-7.994405,54.58003],[-7.994409,54.580009],[-7.994393,54.579979],[-7.994389,54.579951],[-7.994342,54.579853],[-7.994326,54.579846],[-7.994295,54.579786],[-7.994279,54.579777],[-7.994236,54.579765],[-7.994216,54.579747],[-7.994165,54.579701],[-7.994113,54.579669],[-7.994082,54.579659],[-7.994014,54.579659],[-7.993943,54.579638],[-7.993829,54.579597],[-7.993754,54.579579],[-7.993686,54.579562],[-7.993607,54.579535],[-7.993576,54.579516],[-7.993552,54.579503],[-7.993505,54.579479],[-7.993461,54.579473],[-7.993418,54.579473],[-7.993354,54.57944],[-7.993271,54.579408],[-7.993224,54.579383],[-7.993208,54.579344],[-7.993173,54.579321],[-7.993145,54.579318],[-7.993105,54.579321],[-7.993086,54.579309],[-7.993078,54.579279],[-7.99305,54.57924],[-7.992928,54.579176],[-7.992833,54.5791],[-7.992782,54.579088],[-7.992707,54.579056],[-7.992628,54.579026],[-7.992592,54.579012],[-7.992489,54.578909],[-7.992478,54.578904],[-7.992457,54.578902],[-7.992438,54.578902],[-7.992425,54.578901],[-7.992409,54.578901],[-7.992394,54.578902],[-7.992379,54.578904],[-7.99236,54.578909],[-7.992335,54.57892],[-7.992311,54.578922],[-7.992284,54.578925],[-7.992273,54.578925],[-7.992252,54.578926],[-7.992252,54.578926],[-7.992212,54.578927],[-7.992015,54.578936],[-7.991951,54.578961],[-7.991923,54.578979],[-7.991888,54.578986],[-7.99186,54.578986],[-7.99182,54.578981],[-7.991749,54.578979],[-7.99169,54.578981],[-7.991627,54.578984],[-7.991579,54.578995],[-7.991539,54.578995],[-7.991488,54.57899],[-7.991385,54.578974],[-7.991223,54.578969],[-7.991037,54.578971],[-7.990938,54.578994],[-7.990855,54.57901],[-7.990799,54.579019],[-7.990724,54.579022],[-7.990657,54.579017],[-7.99057,54.579017],[-7.990499,54.579012],[-7.990455,54.579012],[-7.990435,54.579037],[-7.990427,54.579069],[-7.990384,54.57912],[-7.990348,54.579152],[-7.990304,54.579168],[-7.990265,54.57917],[-7.990229,54.579182],[-7.990197,54.579223],[-7.990177,54.579262],[-7.990126,54.579276],[-7.990015,54.579287],[-7.989979,54.579308],[-7.989948,54.579345],[-7.989939,54.579409],[-7.989941,54.579418],[-7.989955,54.579492],[-7.989903,54.579538],[-7.989788,54.579593],[-7.989745,54.579652],[-7.989725,54.579717],[-7.989701,54.579737],[-7.989638,54.579769],[-7.989626,54.579815],[-7.989582,54.579854],[-7.989582,54.579879],[-7.989613,54.579896],[-7.989641,54.579912],[-7.989645,54.579937],[-7.989621,54.579955],[-7.989474,54.580079],[-7.989407,54.580116],[-7.989308,54.580148],[-7.989233,54.580171],[-7.989177,54.580196],[-7.98913,54.580228],[-7.989082,54.580258],[-7.989054,54.580276],[-7.989026,54.580288],[-7.988987,54.58029],[-7.988935,54.580308],[-7.988876,54.580336],[-7.988828,54.580345],[-7.988753,54.580359],[-7.988725,54.580384],[-7.98867,54.580444],[-7.988634,54.580476],[-7.988598,54.580494],[-7.988539,54.58051],[-7.988476,54.580538],[-7.98844,54.58056],[-7.988396,54.580556],[-7.988333,54.580565],[-7.988305,54.580592],[-7.988301,54.580615],[-7.988273,54.580689],[-7.988261,54.580714],[-7.988226,54.580721],[-7.988174,54.580721],[-7.988095,54.580737],[-7.988028,54.580748],[-7.987964,54.580748],[-7.987913,54.580755],[-7.987857,54.580794],[-7.987798,54.580854],[-7.987616,54.580925],[-7.987481,54.580991],[-7.987431,54.581028],[-7.987395,54.581054],[-7.98739,54.581058],[-7.987363,54.581081],[-7.987322,54.581117],[-7.987302,54.58112],[-7.987231,54.581149],[-7.987152,54.581165],[-7.987128,54.581191],[-7.98706,54.581253],[-7.986989,54.581259],[-7.98693,54.58128],[-7.986815,54.581353],[-7.986759,54.581413],[-7.986756,54.581422],[-7.986747,54.58145],[-7.986688,54.581477],[-7.986616,54.581489],[-7.986513,54.581516],[-7.986478,54.581555],[-7.986474,54.581594],[-7.986438,54.581645],[-7.986386,54.581668],[-7.986279,54.581709],[-7.986232,54.581734],[-7.986077,54.581794],[-7.986033,54.581853],[-7.98599,54.581881],[-7.985903,54.581908],[-7.985827,54.58195],[-7.985768,54.581998],[-7.985673,54.582021],[-7.985617,54.582027],[-7.985542,54.582057],[-7.985475,54.582117],[-7.985447,54.582172],[-7.985399,54.582199],[-7.985238,54.582234],[-7.985137,54.582248],[-7.985069,54.58229],[-7.985016,54.58237],[-7.984922,54.582437],[-7.984896,54.582456],[-7.984847,54.582493],[-7.984753,54.582551],[-7.984504,54.582665],[-7.98438,54.582691],[-7.984372,54.582726],[-7.98438,54.582774],[-7.98432,54.58287],[-7.984252,54.582954],[-7.984177,54.583058],[-7.984015,54.583209],[-7.983733,54.583593],[-7.983568,54.583932],[-7.983451,54.584043],[-7.983146,54.584286],[-7.982961,54.584322],[-7.982927,54.584345],[-7.982916,54.584402],[-7.982921,54.584422],[-7.982931,54.58447],[-7.983071,54.584712],[-7.983052,54.584765],[-7.983034,54.584833],[-7.983041,54.584928],[-7.983083,54.585],[-7.983125,54.585095],[-7.9832,54.585147],[-7.983475,54.585176],[-7.983751,54.585204],[-7.98395,54.58522],[-7.984049,54.585261],[-7.984113,54.585323],[-7.984156,54.585435],[-7.984166,54.585435],[-7.984194,54.585451],[-7.984215,54.585463],[-7.984388,54.585567],[-7.984437,54.585602],[-7.984517,54.585612],[-7.984592,54.585605],[-7.984664,54.585563],[-7.984716,54.585507],[-7.984724,54.585474],[-7.984724,54.585357],[-7.984765,54.585286],[-7.984818,54.585244],[-7.984931,54.585186],[-7.985047,54.585158],[-7.985231,54.585147],[-7.985607,54.585191],[-7.985955,54.585223],[-7.98624,54.585263],[-7.986477,54.585334],[-7.987006,54.585638],[-7.987492,54.586001],[-7.98795,54.586376],[-7.988167,54.586498],[-7.988341,54.586551],[-7.988461,54.586586],[-7.988475,54.586591],[-7.988562,54.586618],[-7.988596,54.586784],[-7.988601,54.586811],[-7.988569,54.587073],[-7.988537,54.587103],[-7.988461,54.587129],[-7.988458,54.58713],[-7.988046,54.587181],[-7.987571,54.587221],[-7.987294,54.58726],[-7.987092,54.587269],[-7.986902,54.587294],[-7.986783,54.587315],[-7.986549,54.58733],[-7.986423,54.58733],[-7.986229,54.58736],[-7.986047,54.587362],[-7.98592,54.587353],[-7.985789,54.587339],[-7.985631,54.587352],[-7.985453,54.587389],[-7.985266,54.587462],[-7.985354,54.587608],[-7.985476,54.587811],[-7.985692,54.588166],[-7.985701,54.588182],[-7.985972,54.588627],[-7.986202,54.588888],[-7.98636,54.589075],[-7.986476,54.589184],[-7.98654,54.589169],[-7.98654,54.589087],[-7.987004,54.589087],[-7.987004,54.588818],[-7.987468,54.588818],[-7.987468,54.588548],[-7.987932,54.588548],[-7.987932,54.588279],[-7.989325,54.588279],[-7.989325,54.588009],[-7.991181,54.588009],[-7.991182,54.58774],[-7.991646,54.58774],[-7.991646,54.58747],[-7.99211,54.58747],[-7.99211,54.587201],[-7.992574,54.587201],[-7.992574,54.58747],[-7.992574,54.58774],[-7.99211,54.58774],[-7.99211,54.588009],[-7.991646,54.588009],[-7.991646,54.588279],[-7.990717,54.588279],[-7.990717,54.588548],[-7.989325,54.588548],[-7.989325,54.588818],[-7.988396,54.588818],[-7.988396,54.589087],[-7.987932,54.589087],[-7.987932,54.589357],[-7.98781,54.589357],[-7.987777,54.589645],[-7.987756,54.589764],[-7.988015,54.589895],[-7.98803,54.5899],[-7.988097,54.589921],[-7.988381,54.590085],[-7.988824,54.590365],[-7.98946,54.590783],[-7.989726,54.590958],[-7.990596,54.591554],[-7.990907,54.591709],[-7.991099,54.591677],[-7.99132,54.591634],[-7.99149,54.591671],[-7.99155,54.591726],[-7.991649,54.591733],[-7.991882,54.591641],[-7.992472,54.591585],[-7.992766,54.591525],[-7.9929,54.591484],[-7.993047,54.591418],[-7.993312,54.591321],[-7.993542,54.591296],[-7.993752,54.591246],[-7.993998,54.591175],[-7.99424,54.591049],[-7.99464,54.590859],[-7.994806,54.590815],[-7.995016,54.590753],[-7.995274,54.590669],[-7.995607,54.590554],[-7.99571,54.590534],[-7.996165,54.590495],[-7.996438,54.590472],[-7.996779,54.590415],[-7.997076,54.590333],[-7.997535,54.590198],[-7.997591,54.590157],[-7.997789,54.590014],[-7.998003,54.58996],[-7.998387,54.589863],[-7.998562,54.589806],[-7.998744,54.589694],[-7.998851,54.589614],[-7.999101,54.589536],[-7.999434,54.589428],[-7.999592,54.589389],[-7.999814,54.589325],[-7.999941,54.589261],[-8.0,54.589225],[-8.000016,54.589215],[-8.000092,54.58907],[-8.000116,54.589004],[-8.000203,54.588946],[-8.000262,54.588933],[-8.000587,54.588931],[-8.000748,54.588926],[-8.000915,54.588909],[-8.001114,54.588875],[-8.001281,54.588791],[-8.001483,54.588658],[-8.001566,54.588594],[-8.001739,54.588539],[-8.002057,54.588442],[-8.002181,54.58841],[-8.002443,54.58829],[-8.002752,54.588132],[-8.002892,54.588083],[-8.003235,54.588037],[-8.00352,54.587976],[-8.003684,54.587915],[-8.003874,54.587824],[-8.004003,54.587719],[-8.004136,54.587614],[-8.004299,54.587409],[-8.004346,54.587358],[-8.0044,54.587331],[-8.004632,54.587275],[-8.004917,54.587225],[-8.005128,54.58716],[-8.005191,54.587104],[-8.005247,54.586961],[-8.005301,54.586868],[-8.005312,54.586815],[-8.005553,54.586712],[-8.005646,54.58666],[-8.005706,54.586576],[-8.005777,54.586483],[-8.005922,54.586423],[-8.00608,54.586396],[-8.006206,54.58636],[-8.006319,54.58628],[-8.006451,54.586152],[-8.006528,54.586046],[-8.006581,54.585988],[-8.006673,54.585935],[-8.006774,54.58591],[-8.006933,54.585884],[-8.007096,54.585875],[-8.007314,54.585865],[-8.007427,54.585852],[-8.007523,54.585798],[-8.007611,54.585754],[-8.007752,54.58573],[-8.007885,54.585694],[-8.008031,54.585634],[-8.00814,54.585568],[-8.008204,54.585513],[-8.008266,54.58542],[-8.008351,54.585355],[-8.008503,54.585292],[-8.008602,54.585229],[-8.008691,54.585165],[-8.008812,54.58512],[-8.008999,54.585088],[-8.009135,54.585058],[-8.009208,54.585002],[-8.009277,54.584955],[-8.00935,54.584922],[-8.009501,54.584886],[-8.009627,54.584852],[-8.009784,54.584793],[-8.009913,54.584757],[-8.01003,54.584708],[-8.010142,54.584633],[-8.010274,54.584542],[-8.010359,54.584481],[-8.010492,54.584442],[-8.010607,54.584401],[-8.01071,54.584341],[-8.010742,54.584295],[-8.010741,54.584237],[-8.010697,54.58418],[-8.010697,54.584129],[-8.010725,54.584077],[-8.010786,54.584027],[-8.010877,54.584006],[-8.011042,54.584026],[-8.011178,54.584032],[-8.011276,54.584016],[-8.011334,54.58398],[-8.011405,54.583918],[-8.01144,54.583885],[-8.011502,54.583819],[-8.01154,54.583745],[-8.011568,54.583717],[-8.011642,54.583686],[-8.011705,54.583673],[-8.011794,54.583668],[-8.011855,54.583694],[-8.011861,54.583724],[-8.011788,54.583782],[-8.011729,54.583825],[-8.011744,54.583868],[-8.011776,54.58389],[-8.01184,54.583899],[-8.011896,54.583898],[-8.011997,54.583867],[-8.012074,54.583828],[-8.012133,54.583773],[-8.012153,54.583743],[-8.012194,54.583685],[-8.012197,54.583623],[-8.012214,54.583587],[-8.012248,54.583518],[-8.012307,54.58348],[-8.01237,54.58346],[-8.012445,54.583465],[-8.012563,54.583497],[-8.012684,54.583543],[-8.012739,54.583553],[-8.012789,54.583563],[-8.012878,54.583527],[-8.012994,54.583495],[-8.013086,54.583478],[-8.013168,54.583485],[-8.013205,54.583496],[-8.013225,54.583548],[-8.013232,54.583612],[-8.013312,54.583674],[-8.013395,54.583699],[-8.013488,54.583687],[-8.013597,54.583654],[-8.013715,54.583593],[-8.013798,54.583542],[-8.013878,54.583512],[-8.013956,54.583474],[-8.014009,54.583471],[-8.014011,54.583448],[-8.013962,54.583264],[-8.013962,54.583237],[-8.013557,54.583226],[-8.012983,54.583223],[-8.012504,54.583227],[-8.012219,54.583241],[-8.011907,54.583286],[-8.011594,54.583357],[-8.011261,54.583458],[-8.010837,54.583591],[-8.010832,54.583593],[-8.010794,54.583572],[-8.010395,54.583342],[-8.010007,54.583119],[-8.009695,54.58294],[-8.008889,54.582463],[-8.008656,54.582334],[-8.008372,54.582164],[-8.008155,54.582033],[-8.007973,54.581934],[-8.007419,54.581718],[-8.006878,54.581492],[-8.006712,54.58143],[-8.006206,54.581216],[-8.00587,54.581082],[-8.00551,54.580941],[-8.005373,54.580922],[-8.005182,54.58084],[-8.004143,54.580419]],[[-7.99792,54.586261],[-7.997888,54.586261],[-7.997868,54.586256],[-7.997793,54.58624],[-7.997741,54.586226],[-7.997741,54.58637],[-7.99673,54.58637],[-7.996728,54.586372],[-7.996704,54.586379],[-7.996684,54.58637],[-7.996287,54.58637],[-7.996287,54.586392],[-7.996751,54.586392],[-7.996751,54.586662],[-7.996287,54.586662],[-7.996287,54.586931],[-7.995823,54.586931],[-7.995823,54.586662],[-7.995359,54.586662],[-7.995359,54.586392],[-7.995359,54.586123],[-7.994895,54.586123],[-7.994895,54.585853],[-7.994648,54.585853],[-7.994648,54.58637],[-7.993502,54.58637],[-7.993502,54.586392],[-7.993502,54.586662],[-7.992574,54.586662],[-7.992574,54.586392],[-7.99211,54.586392],[-7.99211,54.586123],[-7.99211,54.585583],[-7.992574,54.585583],[-7.992574,54.585314],[-7.992574,54.585044],[-7.993038,54.585044],[-7.993039,54.584775],[-7.993039,54.584505],[-7.990718,54.584505],[-7.990718,54.584236],[-7.993039,54.584236],[-7.993039,54.583966],[-7.994895,54.583966],[-7.994895,54.584236],[-7.994895,54.584505],[-7.994895,54.584574],[-7.995127,54.584574],[-7.995123,54.584526],[-7.995119,54.584482],[-7.995013,54.584416],[-7.994961,54.584358],[-7.994942,54.584229],[-7.995034,54.583954],[-7.995101,54.583853],[-7.99526,54.583724],[-7.995355,54.583681],[-7.995454,54.583651],[-7.995609,54.583626],[-7.995759,54.583615],[-7.995904,54.583629],[-7.995925,54.583631],[-7.996028,54.583668],[-7.996075,54.583705],[-7.996087,54.583718],[-7.996135,54.583723],[-7.996206,54.583728],[-7.996285,54.583744],[-7.996356,54.583758],[-7.996416,54.583755],[-7.996467,54.583726],[-7.99659,54.583678],[-7.996697,54.583675],[-7.996815,54.583708],[-7.996883,54.583728],[-7.996966,54.583784],[-7.997076,54.583846],[-7.997183,54.583867],[-7.997322,54.583851],[-7.9975,54.583791],[-7.997753,54.583706],[-7.998137,54.583622],[-7.998585,54.583585],[-7.99902,54.583581],[-7.999056,54.583588],[-7.999087,54.583593],[-7.99919,54.583604],[-7.999594,54.583589],[-7.999626,54.583589],[-7.999998,54.583589],[-8.0,54.583589],[-8.000441,54.58362],[-8.000748,54.583602],[-8.000839,54.583619],[-8.000892,54.58363],[-8.000965,54.583621],[-8.001083,54.583643],[-8.001141,54.583651],[-8.001198,54.583652],[-8.001179,54.583689],[-8.001194,54.58371],[-8.001228,54.583719],[-8.001269,54.58371],[-8.001324,54.583697],[-8.001444,54.583704],[-8.00151,54.583695],[-8.001587,54.58372],[-8.001694,54.583729],[-8.001813,54.58373],[-8.001885,54.583722],[-8.001912,54.583726],[-8.001968,54.583746],[-8.002016,54.583748],[-8.002042,54.583736],[-8.002056,54.583721],[-8.002072,54.583737],[-8.002096,54.583752],[-8.002109,54.583764],[-8.002161,54.583761],[-8.002205,54.583754],[-8.002202,54.583774],[-8.002224,54.583776],[-8.002258,54.583766],[-8.002322,54.583781],[-8.002341,54.583802],[-8.002357,54.583806],[-8.002398,54.5838],[-8.00242,54.583802],[-8.002408,54.583836],[-8.002441,54.583865],[-8.002445,54.583895],[-8.002471,54.583927],[-8.002531,54.583953],[-8.002538,54.583993],[-8.002537,54.584046],[-8.002527,54.584079],[-8.002505,54.584103],[-8.002472,54.584115],[-8.002422,54.584126],[-8.002381,54.58415],[-8.002348,54.58418],[-8.002319,54.584219],[-8.002329,54.584302],[-8.002343,54.584339],[-8.002314,54.584379],[-8.002229,54.584373],[-8.002097,54.584386],[-8.001992,54.584403],[-8.001864,54.584423],[-8.001771,54.584447],[-8.001693,54.58448],[-8.001666,54.584499],[-8.001646,54.584513],[-8.001602,54.584522],[-8.001546,54.584547],[-8.001498,54.584582],[-8.001465,54.584639],[-8.00145,54.58467],[-8.001452,54.584694],[-8.0014,54.584722],[-8.001388,54.584757],[-8.001351,54.584778],[-8.001273,54.584792],[-8.001245,54.584798],[-8.001209,54.584812],[-8.001186,54.584824],[-8.001123,54.584837],[-8.00106,54.584859],[-8.001016,54.584879],[-8.000983,54.584893],[-8.000947,54.584924],[-8.00092,54.584955],[-8.00091,54.584973],[-8.000903,54.585003],[-8.00082,54.584998],[-8.000795,54.585005],[-8.000764,54.585008],[-8.000748,54.58502],[-8.00071,54.585026],[-8.000595,54.585055],[-8.000519,54.585088],[-8.00046,54.585108],[-8.000373,54.58514],[-8.000353,54.585179],[-8.000353,54.585207],[-8.000333,54.585218],[-8.000282,54.585232],[-8.00025,54.58526],[-8.00023,54.585326],[-8.000238,54.5854],[-8.000269,54.585432],[-8.000376,54.585453],[-8.000526,54.58549],[-8.000665,54.585515],[-8.000748,54.585532],[-8.000802,54.585559],[-8.000837,54.585554],[-8.000837,54.585567],[-8.000819,54.585574],[-8.000777,54.585576],[-8.000764,54.585581],[-8.000755,54.585588],[-8.000752,54.585596],[-8.000752,54.585604],[-8.000774,54.585617],[-8.000786,54.585631],[-8.00078,54.585642],[-8.000768,54.585648],[-8.00076,54.585652],[-8.000748,54.585661],[-8.000739,54.585664],[-8.000684,54.58569],[-8.00064,54.585719],[-8.000605,54.585724],[-8.000561,54.585728],[-8.00051,54.585751],[-8.000462,54.585781],[-8.000438,54.585806],[-8.000403,54.585853],[-8.000464,54.585853],[-8.000464,54.586123],[-8.0,54.586123],[-8.0,54.586028],[-7.999951,54.586045],[-7.999907,54.58607],[-7.999604,54.586265],[-7.999555,54.586244],[-7.99934,54.586188],[-7.999055,54.586167],[-7.998892,54.586139],[-7.998889,54.586133],[-7.998898,54.586105],[-7.998889,54.586078],[-7.99887,54.585969],[-7.998983,54.585859],[-7.999116,54.585835],[-7.999148,54.585812],[-7.999439,54.585713],[-7.999314,54.5857],[-7.999239,54.585667],[-7.999141,54.585624],[-7.999038,54.585598],[-7.99897,54.585596],[-7.998899,54.585596],[-7.998848,54.585593],[-7.998808,54.585582],[-7.998709,54.585589],[-7.998598,54.585616],[-7.998527,54.585653],[-7.998448,54.585694],[-7.9984,54.585715],[-7.998246,54.585758],[-7.99819,54.585783],[-7.998135,54.585816],[-7.998115,54.585859],[-7.998119,54.585882],[-7.998132,54.585916],[-7.998142,54.585942],[-7.998166,54.586011],[-7.998158,54.586059],[-7.998158,54.586119],[-7.998106,54.586162],[-7.998046,54.586206],[-7.998023,54.586224],[-7.997951,54.586243],[-7.997935,54.586252],[-7.99792,54.586261]],[[-7.990254,54.584505],[-7.990718,54.584505],[-7.990718,54.584775],[-7.990254,54.584775],[-7.990254,54.584505]],[[-8.007425,54.583157],[-8.007889,54.583157],[-8.007889,54.583427],[-8.008353,54.583427],[-8.008354,54.583697],[-8.007425,54.583697],[-8.007425,54.583427],[-8.006961,54.583427],[-8.006961,54.583158],[-8.006961,54.582888],[-8.007425,54.582888],[-8.007425,54.583157]],[[-8.006961,54.583966],[-8.006961,54.584236],[-8.006033,54.584236],[-8.006033,54.583966],[-8.006961,54.583966]],[[-7.99211,54.584775],[-7.99211,54.585044],[-7.991646,54.585044],[-7.991646,54.584775],[-7.99211,54.584775]]],[[[-7.993101,54.586123],[-7.993101,54.585583],[-7.993038,54.585583],[-7.993038,54.586123],[-7.993101,54.586123]]],[[[-7.996195,54.585472],[-7.995359,54.585472],[-7.995359,54.585584],[-7.995359,54.585853],[-7.995823,54.585853],[-7.995823,54.586123],[-7.996158,54.586123],[-7.996151,54.586107],[-7.996151,54.586062],[-7.996171,54.586006],[-7.996195,54.585972],[-7.996195,54.585472]]],[[[-7.996802,54.585375],[-7.996719,54.585417],[-7.996636,54.58545],[-7.996592,54.585467],[-7.996553,54.585472],[-7.997602,54.585472],[-7.997617,54.585466],[-7.997661,54.585397],[-7.997665,54.585358],[-7.997669,54.585289],[-7.99765,54.585261],[-7.997602,54.585238],[-7.997519,54.58522],[-7.997448,54.58522],[-7.997345,54.585224],[-7.997286,54.585243],[-7.997187,54.585256],[-7.997127,54.585277],[-7.996996,54.585293],[-7.996874,54.585332],[-7.996802,54.585375]]],[[[-7.996419,54.585472],[-7.996414,54.585471],[-7.996303,54.585435],[-7.996216,54.585409],[-7.996195,54.585407],[-7.996195,54.585472],[-7.996419,54.585472]]]]}}]}
