{"type":"FeatureCollection","features":[{"type":"Feature","properties":{"source_fid":2321061,"county":"Donegal","bog_geom_ha":286.95366286780217,"low15_pct":99.561952440550684,"low15_ha":285.69666935085934,"overlay_ha":285.66984914176788,"area_delta":-0.026820209091454217},"geometry":{"type":"MultiPolygon","coordinates":[[[[-8.185892,55.121811],[-8.186314,55.121819],[-8.186314,55.121819],[-8.186314,55.121819],[-8.186318,55.121841],[-8.186381,55.121837],[-8.186641,55.121831],[-8.187057,55.121812],[-8.187183,55.121828],[-8.18731,55.121828],[-8.187564,55.121823],[-8.187653,55.121823],[-8.187786,55.121824],[-8.187876,55.121823],[-8.18802,55.121821],[-8.18826,55.121822],[-8.188497,55.121815],[-8.18883,55.121825],[-8.189088,55.121816],[-8.189518,55.121807],[-8.189897,55.121798],[-8.190263,55.121742],[-8.190307,55.121626],[-8.190336,55.121527],[-8.190359,55.121441],[-8.190363,55.121427],[-8.190282,55.121263],[-8.190254,55.121225],[-8.190253,55.120902],[-8.190311,55.120773],[-8.190337,55.120698],[-8.190554,55.120066],[-8.188364,55.119398],[-8.1885,55.118987],[-8.191034,55.119407],[-8.191714,55.11947],[-8.19175,55.119474],[-8.191732,55.119423],[-8.191725,55.119403],[-8.191646,55.119315],[-8.191425,55.119124],[-8.19124,55.119021],[-8.191156,55.118957],[-8.191015,55.118793],[-8.190804,55.11851],[-8.19054,55.118084],[-8.190499,55.117938],[-8.190506,55.1179],[-8.19054,55.117808],[-8.190504,55.117812],[-8.190357,55.117692],[-8.190203,55.117565],[-8.19,55.117396],[-8.189822,55.11724],[-8.189819,55.117238],[-8.189785,55.117208],[-8.189695,55.117104],[-8.189664,55.11707],[-8.189614,55.116988],[-8.189519,55.116878],[-8.189508,55.116864],[-8.18939,55.116721],[-8.189311,55.116626],[-8.189289,55.1166],[-8.189194,55.1165],[-8.189057,55.11633],[-8.189006,55.116279],[-8.188955,55.11623],[-8.188822,55.1161],[-8.188803,55.116078],[-8.188769,55.11604],[-8.188629,55.115882],[-8.188499,55.115746],[-8.188489,55.115736],[-8.188422,55.115665],[-8.188319,55.115556],[-8.188179,55.115398],[-8.188167,55.115383],[-8.187997,55.115216],[-8.18793,55.115186],[-8.187509,55.114932],[-8.187099,55.114685],[-8.187134,55.11454],[-8.187165,55.114513],[-8.187352,55.114346],[-8.18869,55.113615],[-8.188943,55.113494],[-8.18911,55.113414],[-8.189252,55.113346],[-8.189405,55.113273],[-8.189632,55.113164],[-8.189758,55.113104],[-8.189838,55.113065],[-8.190248,55.112874],[-8.190516,55.112609],[-8.19107,55.11258],[-8.191088,55.112553],[-8.191109,55.112518],[-8.19112,55.112492],[-8.19116,55.112434],[-8.191187,55.112399],[-8.191202,55.112381],[-8.191223,55.112355],[-8.191276,55.112331],[-8.191323,55.112299],[-8.191339,55.112268],[-8.191346,55.112241],[-8.191382,55.112177],[-8.191386,55.112132],[-8.191366,55.112063],[-8.191325,55.112037],[-8.191269,55.112005],[-8.191226,55.111944],[-8.191214,55.111896],[-8.191196,55.111844],[-8.191184,55.111822],[-8.191174,55.111807],[-8.191162,55.111788],[-8.19115,55.11175],[-8.191151,55.111716],[-8.191156,55.11168],[-8.191169,55.111628],[-8.191191,55.111576],[-8.191202,55.111518],[-8.191196,55.111476],[-8.191192,55.111424],[-8.191204,55.111369],[-8.19121,55.111303],[-8.191187,55.111291],[-8.191133,55.111258],[-8.191113,55.111232],[-8.191102,55.11119],[-8.191116,55.111143],[-8.19114,55.111104],[-8.19119,55.111055],[-8.191287,55.110979],[-8.19131,55.110955],[-8.191348,55.110919],[-8.191396,55.110886],[-8.191421,55.110864],[-8.191431,55.110845],[-8.191407,55.1108],[-8.191383,55.110762],[-8.191364,55.110706],[-8.191362,55.110678],[-8.191364,55.110652],[-8.191336,55.110619],[-8.191289,55.110579],[-8.191254,55.110534],[-8.191224,55.11047],[-8.191224,55.110433],[-8.19123,55.110414],[-8.19124,55.110379],[-8.191246,55.110327],[-8.191237,55.110271],[-8.19123,55.110226],[-8.19123,55.110176],[-8.191234,55.110134],[-8.191215,55.110098],[-8.191204,55.110072],[-8.191174,55.110001],[-8.191176,55.109971],[-8.191195,55.109951],[-8.191232,55.109922],[-8.191252,55.109901],[-8.191252,55.109834],[-8.19124,55.109797],[-8.191241,55.109753],[-8.191312,55.10966],[-8.191331,55.10962],[-8.191307,55.109603],[-8.191284,55.109594],[-8.191269,55.109534],[-8.191262,55.109522],[-8.191265,55.109497],[-8.191276,55.109456],[-8.19127,55.109413],[-8.191265,55.109389],[-8.191259,55.109337],[-8.191259,55.109259],[-8.191264,55.109188],[-8.191272,55.10916],[-8.191281,55.109125],[-8.191297,55.109087],[-8.191334,55.109046],[-8.19138,55.109012],[-8.191385,55.108966],[-8.191372,55.108945],[-8.191366,55.108935],[-8.191323,55.10889],[-8.191307,55.108855],[-8.191315,55.10882],[-8.191328,55.108785],[-8.191325,55.10873],[-8.191329,55.108664],[-8.191357,55.108622],[-8.19142,55.108583],[-8.191432,55.108541],[-8.191424,55.108513],[-8.191409,55.108453],[-8.191385,55.10843],[-8.191357,55.108408],[-8.191346,55.108373],[-8.191346,55.108328],[-8.191359,55.108309],[-8.19142,55.108261],[-8.191456,55.108233],[-8.19147,55.108215],[-8.191471,55.108181],[-8.191479,55.108132],[-8.191492,55.108111],[-8.19149,55.108073],[-8.191502,55.108059],[-8.191569,55.108042],[-8.191599,55.108009],[-8.191625,55.107978],[-8.191614,55.10792],[-8.191593,55.107876],[-8.191571,55.107842],[-8.191553,55.107814],[-8.191534,55.107788],[-8.191525,55.107759],[-8.191519,55.10772],[-8.191524,55.107684],[-8.191534,55.10765],[-8.191591,55.107598],[-8.191626,55.107563],[-8.191633,55.107542],[-8.191609,55.107495],[-8.191592,55.107479],[-8.191592,55.107427],[-8.191599,55.107389],[-8.191582,55.107369],[-8.191568,55.107362],[-8.19155,55.107347],[-8.191551,55.107323],[-8.191551,55.107314],[-8.191542,55.10729],[-8.191522,55.107262],[-8.191505,55.107196],[-8.191481,55.107162],[-8.191444,55.107135],[-8.191417,55.107107],[-8.191431,55.107083],[-8.191451,55.107074],[-8.191503,55.107049],[-8.191529,55.10703],[-8.191566,55.106998],[-8.191591,55.10696],[-8.191595,55.106937],[-8.19161,55.106899],[-8.191618,55.106884],[-8.191642,55.106843],[-8.191667,55.106814],[-8.191688,55.106792],[-8.1917,55.106747],[-8.191698,55.106721],[-8.1917,55.106675],[-8.191712,55.106649],[-8.191753,55.106602],[-8.191783,55.106543],[-8.19182,55.106475],[-8.191818,55.106457],[-8.191813,55.106436],[-8.191824,55.106413],[-8.191832,55.106405],[-8.191837,55.10639],[-8.191819,55.106372],[-8.191726,55.106335],[-8.191709,55.106316],[-8.191686,55.10629],[-8.191675,55.106261],[-8.191688,55.106213],[-8.191732,55.106153],[-8.191761,55.106133],[-8.191778,55.106123],[-8.191845,55.106116],[-8.191862,55.106094],[-8.19185,55.106066],[-8.191821,55.106045],[-8.191776,55.106035],[-8.191756,55.106017],[-8.191737,55.106],[-8.191728,55.105992],[-8.191713,55.105975],[-8.191706,55.105951],[-8.19172,55.105925],[-8.191754,55.105888],[-8.19178,55.10587],[-8.191835,55.10586],[-8.191856,55.10584],[-8.191857,55.105812],[-8.191854,55.105788],[-8.19183,55.105768],[-8.191786,55.105744],[-8.191744,55.105718],[-8.191733,55.105698],[-8.191766,55.105648],[-8.191794,55.105619],[-8.191818,55.105609],[-8.191863,55.105606],[-8.191903,55.105614],[-8.191943,55.105614],[-8.191957,55.105614],[-8.191978,55.105622],[-8.192013,55.105631],[-8.192075,55.105649],[-8.192097,55.105641],[-8.19212,55.105612],[-8.192123,55.105599],[-8.192114,55.105562],[-8.192091,55.105541],[-8.19207,55.105519],[-8.192076,55.105504],[-8.192088,55.105483],[-8.192084,55.105464],[-8.192066,55.105454],[-8.192042,55.105449],[-8.192015,55.105452],[-8.191991,55.105445],[-8.19199,55.10542],[-8.191997,55.105374],[-8.19201,55.105347],[-8.192042,55.105307],[-8.192049,55.105297],[-8.192064,55.10528],[-8.192086,55.105263],[-8.192116,55.105246],[-8.192149,55.105233],[-8.192219,55.105222],[-8.192253,55.105205],[-8.192275,55.105185],[-8.192282,55.105153],[-8.192261,55.105137],[-8.192249,55.105126],[-8.192247,55.105104],[-8.192223,55.10508],[-8.192192,55.105067],[-8.192143,55.105035],[-8.192111,55.105001],[-8.192098,55.104965],[-8.192106,55.104922],[-8.192141,55.104871],[-8.192164,55.104819],[-8.192164,55.104788],[-8.192156,55.104762],[-8.192144,55.104747],[-8.192142,55.104719],[-8.192145,55.104699],[-8.192147,55.104641],[-8.192138,55.104614],[-8.192112,55.10457],[-8.192105,55.104549],[-8.192139,55.104526],[-8.192162,55.104515],[-8.192244,55.1045],[-8.192297,55.104474],[-8.192368,55.104428],[-8.192382,55.104403],[-8.192389,55.104379],[-8.192363,55.10435],[-8.192343,55.104334],[-8.192291,55.104297],[-8.1922,55.104241],[-8.192181,55.104215],[-8.192174,55.104141],[-8.192187,55.104086],[-8.192242,55.10402],[-8.192265,55.10398],[-8.192244,55.103948],[-8.192204,55.103926],[-8.192154,55.103892],[-8.192128,55.103857],[-8.192132,55.103822],[-8.192136,55.103775],[-8.192131,55.103728],[-8.192138,55.103704],[-8.192126,55.103666],[-8.192116,55.103644],[-8.192092,55.103627],[-8.192075,55.103618],[-8.191992,55.1036],[-8.19191,55.103574],[-8.191883,55.103554],[-8.191843,55.10351],[-8.191799,55.103496],[-8.191759,55.103482],[-8.191709,55.103468],[-8.191627,55.103464],[-8.19155,55.103441],[-8.19151,55.103409],[-8.191451,55.103354],[-8.191415,55.10333],[-8.191367,55.103306],[-8.191347,55.103289],[-8.191327,55.103257],[-8.191321,55.103224],[-8.191319,55.103205],[-8.191289,55.103189],[-8.191256,55.103179],[-8.191201,55.103181],[-8.1911,55.103175],[-8.190974,55.10314],[-8.190833,55.103078],[-8.190794,55.103035],[-8.190782,55.103001],[-8.190782,55.102977],[-8.19075,55.102952],[-8.190702,55.102932],[-8.190635,55.102913],[-8.190589,55.102899],[-8.190406,55.102826],[-8.190374,55.102803],[-8.190326,55.102769],[-8.190279,55.102745],[-8.190239,55.10272],[-8.19016,55.102681],[-8.1901,55.102655],[-8.190059,55.10265],[-8.190007,55.102642],[-8.189971,55.102611],[-8.189953,55.102582],[-8.189939,55.102549],[-8.189884,55.102498],[-8.189856,55.102481],[-8.18983,55.10247],[-8.189779,55.102461],[-8.189752,55.10246],[-8.189722,55.10246],[-8.189629,55.10241],[-8.189568,55.102396],[-8.189517,55.10239],[-8.189499,55.102374],[-8.189501,55.102351],[-8.18949,55.102288],[-8.189456,55.102257],[-8.189423,55.102179],[-8.189413,55.102158],[-8.18939,55.102141],[-8.189361,55.102128],[-8.189341,55.102111],[-8.189315,55.102101],[-8.189165,55.102076],[-8.189086,55.102057],[-8.189043,55.102038],[-8.189008,55.102007],[-8.188935,55.101957],[-8.188846,55.101897],[-8.188756,55.101825],[-8.188736,55.10179],[-8.188685,55.101741],[-8.188676,55.101656],[-8.188686,55.101593],[-8.188666,55.101533],[-8.188637,55.101486],[-8.188614,55.10146],[-8.188563,55.101442],[-8.1885,55.101412],[-8.188441,55.101372],[-8.18839,55.101352],[-8.188346,55.101317],[-8.188322,55.101284],[-8.188322,55.101246],[-8.18834,55.101183],[-8.188339,55.101149],[-8.188323,55.101107],[-8.188299,55.101083],[-8.188247,55.101025],[-8.188227,55.100985],[-8.188207,55.100943],[-8.188206,55.100912],[-8.188232,55.100849],[-8.188232,55.100848],[-8.188113,55.100701],[-8.188078,55.100598],[-8.188085,55.100547],[-8.187919,55.100335],[-8.187671,55.100095],[-8.187568,55.099958],[-8.187375,55.099785],[-8.187168,55.099553],[-8.187024,55.099431],[-8.186639,55.099329],[-8.18631,55.099324],[-8.186056,55.099348],[-8.185885,55.099419],[-8.185832,55.099695],[-8.185847,55.099986],[-8.185615,55.10023],[-8.185361,55.100242],[-8.185279,55.100238],[-8.185189,55.100113],[-8.185045,55.100011],[-8.184975,55.099869],[-8.184858,55.099728],[-8.18472,55.09959],[-8.184679,55.099525],[-8.184671,55.099332],[-8.184678,55.099246],[-8.184732,55.099112],[-8.184773,55.099037],[-8.184916,55.098848],[-8.184916,55.098805],[-8.184771,55.098636],[-8.184674,55.098506],[-8.184454,55.098384],[-8.184173,55.098241],[-8.184007,55.098131],[-8.183795,55.098116],[-8.183321,55.097983],[-8.183136,55.097932],[-8.18308,55.097857],[-8.183079,55.09757],[-8.183099,55.097457],[-8.183229,55.097257],[-8.183311,55.097166],[-8.183296,55.097009],[-8.183247,55.096851],[-8.183213,55.096761],[-8.182979,55.096453],[-8.182575,55.096454],[-8.182482,55.096619],[-8.182393,55.096657],[-8.182269,55.096629],[-8.181889,55.096618],[-8.1816,55.096561],[-8.18137,55.096495],[-8.181254,55.096487],[-8.181058,55.096495],[-8.180873,55.096537],[-8.180743,55.096557],[-8.180435,55.096557],[-8.180318,55.096522],[-8.180244,55.096412],[-8.18009,55.096408],[-8.180009,55.096408],[-8.179862,55.096523],[-8.179572,55.096805],[-8.17943,55.096942],[-8.179225,55.097123],[-8.179022,55.097299],[-8.178987,55.097333],[-8.178962,55.097357],[-8.178953,55.097366],[-8.17887,55.097436],[-8.178575,55.097719],[-8.178327,55.097946],[-8.17818,55.098085],[-8.177933,55.098313],[-8.177541,55.098675],[-8.177237,55.098955],[-8.177207,55.098983],[-8.177093,55.099091],[-8.176854,55.099318],[-8.176581,55.0996],[-8.176312,55.09989],[-8.175986,55.100222],[-8.175625,55.100598],[-8.175623,55.1006],[-8.175554,55.100668],[-8.175337,55.100881],[-8.175269,55.100985],[-8.175228,55.101066],[-8.175194,55.101115],[-8.175164,55.101171],[-8.175145,55.101223],[-8.17515,55.101272],[-8.175139,55.101317],[-8.175094,55.101358],[-8.174973,55.101368],[-8.174877,55.101404],[-8.174827,55.101443],[-8.174813,55.10151],[-8.174779,55.101593],[-8.174684,55.101674],[-8.174599,55.10171],[-8.174522,55.101754],[-8.174426,55.101826],[-8.174342,55.101898],[-8.174287,55.101933],[-8.174238,55.101964],[-8.174103,55.102019],[-8.173949,55.102071],[-8.173814,55.102115],[-8.173702,55.102172],[-8.173645,55.102231],[-8.173636,55.102241],[-8.173673,55.102372],[-8.173634,55.102418],[-8.173596,55.102462],[-8.173663,55.102578],[-8.17358,55.102752],[-8.17355,55.102797],[-8.173591,55.102886],[-8.173601,55.102921],[-8.173625,55.10301],[-8.173682,55.103135],[-8.173714,55.103191],[-8.17373,55.103226],[-8.173763,55.103288],[-8.173779,55.103346],[-8.173851,55.103368],[-8.173873,55.103435],[-8.173881,55.103494],[-8.173884,55.103534],[-8.17388,55.103564],[-8.173865,55.10359],[-8.173804,55.103618],[-8.173707,55.103645],[-8.173683,55.103655],[-8.173623,55.103677],[-8.1735,55.103725],[-8.173464,55.103768],[-8.173464,55.103786],[-8.173934,55.103785],[-8.173933,55.103516],[-8.174403,55.103515],[-8.174404,55.103785],[-8.174405,55.104054],[-8.173935,55.104055],[-8.173936,55.104325],[-8.173937,55.104594],[-8.173467,55.104595],[-8.173469,55.104864],[-8.172998,55.104865],[-8.173,55.105134],[-8.172946,55.105135],[-8.172946,55.10524],[-8.172727,55.105422],[-8.172642,55.105493],[-8.172606,55.105526],[-8.172549,55.105579],[-8.172375,55.105739],[-8.172275,55.105914],[-8.172213,55.106199],[-8.172192,55.106435],[-8.172144,55.106976],[-8.172107,55.107395],[-8.172081,55.1077],[-8.172064,55.107884],[-8.172011,55.10815],[-8.171945,55.108481],[-8.171931,55.108555],[-8.171857,55.108593],[-8.171608,55.108656],[-8.171223,55.108725],[-8.170882,55.108745],[-8.170325,55.108749],[-8.170107,55.108743],[-8.169885,55.109325],[-8.16965,55.109943],[-8.169593,55.110069],[-8.169193,55.11095],[-8.169159,55.111025],[-8.169297,55.111616],[-8.169418,55.112064],[-8.169458,55.11228],[-8.169519,55.11227],[-8.169545,55.112412],[-8.169583,55.112621],[-8.169611,55.112776],[-8.169611,55.112777],[-8.169695,55.113186],[-8.169711,55.113265],[-8.169538,55.11328],[-8.169602,55.113634],[-8.169642,55.113854],[-8.169812,55.114726],[-8.169715,55.114751],[-8.169704,55.114754],[-8.169278,55.114859],[-8.169297,55.114887],[-8.169346,55.11495],[-8.169448,55.115156],[-8.169527,55.115349],[-8.169595,55.115485],[-8.169652,55.1156],[-8.169715,55.115784],[-8.169719,55.115808],[-8.169742,55.115959],[-8.169752,55.116117],[-8.169769,55.116236],[-8.169781,55.1163],[-8.169797,55.116423],[-8.169823,55.1167],[-8.169815,55.116884],[-8.169811,55.117002],[-8.169804,55.11709],[-8.16979,55.117132],[-8.171661,55.117129],[-8.171669,55.118926],[-8.173236,55.118924],[-8.173236,55.118976],[-8.173614,55.118859],[-8.174476,55.119148],[-8.174562,55.119183],[-8.174782,55.119266],[-8.175118,55.119375],[-8.175142,55.119383],[-8.177061,55.118583],[-8.177087,55.118551],[-8.177139,55.118494],[-8.177228,55.118396],[-8.177449,55.118127],[-8.177622,55.117916],[-8.17789,55.117573],[-8.1781,55.117304],[-8.17814,55.117256],[-8.178252,55.117122],[-8.178293,55.117062],[-8.178355,55.116979],[-8.178387,55.116936],[-8.178482,55.116844],[-8.178505,55.116839],[-8.178529,55.11684],[-8.178663,55.116906],[-8.178692,55.11692],[-8.178833,55.11699],[-8.179017,55.117085],[-8.179082,55.11712],[-8.17918,55.117189],[-8.179304,55.117254],[-8.17987,55.117553],[-8.179724,55.117725],[-8.179545,55.118015],[-8.179465,55.118123],[-8.179317,55.11828],[-8.179135,55.118528],[-8.178952,55.118793],[-8.178795,55.119016],[-8.178643,55.119192],[-8.178549,55.119327],[-8.178424,55.119503],[-8.178311,55.11964],[-8.178252,55.119716],[-8.178244,55.119725],[-8.178196,55.119781],[-8.177914,55.120299],[-8.177831,55.120675],[-8.178203,55.120578],[-8.178369,55.12054],[-8.178884,55.12042],[-8.179404,55.120357],[-8.179731,55.120343],[-8.180019,55.120361],[-8.180202,55.12037],[-8.180288,55.120385],[-8.180432,55.120406],[-8.180576,55.120423],[-8.180643,55.120427],[-8.18074,55.120435],[-8.18081,55.120441],[-8.180857,55.12044],[-8.181032,55.12048],[-8.18113,55.120489],[-8.181376,55.120536],[-8.181389,55.120546],[-8.181752,55.120623],[-8.182163,55.12072],[-8.182304,55.120764],[-8.182347,55.120789],[-8.182393,55.120822],[-8.182421,55.120869],[-8.182418,55.1209],[-8.182397,55.120951],[-8.18237,55.121041],[-8.182348,55.121309],[-8.182329,55.121481],[-8.182308,55.121619],[-8.182291,55.121732],[-8.182287,55.121764],[-8.182257,55.121824],[-8.182012,55.121833],[-8.181833,55.121826],[-8.181653,55.121828],[-8.181458,55.121838],[-8.181188,55.121909],[-8.181033,55.121911],[-8.180905,55.121919],[-8.180723,55.121904],[-8.180633,55.121903],[-8.180623,55.12194],[-8.180606,55.12203],[-8.181316,55.122002],[-8.181507,55.122031],[-8.181739,55.122011],[-8.181937,55.122004],[-8.182124,55.122005],[-8.18227,55.121964],[-8.182363,55.121927],[-8.183005,55.121891],[-8.183043,55.12189],[-8.183132,55.121888],[-8.183406,55.121881],[-8.183437,55.121914],[-8.183745,55.121905],[-8.184094,55.121886],[-8.184181,55.121883],[-8.184639,55.12187],[-8.184887,55.121863],[-8.184897,55.121863],[-8.185494,55.121849],[-8.185485,55.121804],[-8.185892,55.121811]],[[-8.174873,55.103515],[-8.174403,55.103515],[-8.174396,55.101898],[-8.174866,55.101897],[-8.174873,55.103515]],[[-8.175336,55.101897],[-8.174866,55.101897],[-8.174865,55.101628],[-8.175335,55.101627],[-8.175336,55.101897]]],[[[-8.172943,55.104817],[-8.172944,55.104865],[-8.172998,55.104865],[-8.172997,55.104595],[-8.172996,55.104326],[-8.172887,55.104326],[-8.172888,55.104338],[-8.172893,55.104382],[-8.172893,55.104399],[-8.172808,55.104423],[-8.172684,55.104474],[-8.172584,55.104487],[-8.172562,55.104508],[-8.172551,55.104569],[-8.172552,55.104626],[-8.172584,55.10471],[-8.172582,55.104769],[-8.172557,55.104847],[-8.172545,55.104866],[-8.172681,55.104865],[-8.172943,55.104817]]],[[[-8.172526,55.104894],[-8.172528,55.104894],[-8.172528,55.10489],[-8.172526,55.104894]]],[[[-8.173016,55.104126],[-8.172995,55.104135],[-8.172996,55.104326],[-8.173466,55.104325],[-8.173465,55.104056],[-8.173464,55.103786],[-8.173449,55.103786],[-8.173432,55.103873],[-8.173429,55.10395],[-8.173428,55.103985],[-8.173419,55.104023],[-8.173395,55.104048],[-8.173357,55.104057],[-8.173297,55.104057],[-8.17322,55.104047],[-8.173134,55.104069],[-8.173066,55.104096],[-8.173016,55.104126]]]]}}]}
