{"type":"FeatureCollection","features":[{"type":"Feature","properties":{"source_fid":2324433,"county":"Donegal","bog_geom_ha":306.44455443011299,"low15_pct":68.311306901615282,"low15_ha":209.33628006004196,"overlay_ha":209.01761640867565,"area_delta":-0.31866365136630748},"geometry":{"type":"MultiPolygon","coordinates":[[[[-8.207754,54.863771],[-8.20783,54.863798],[-8.207919,54.863901],[-8.207955,54.863931],[-8.207962,54.863936],[-8.208315,54.864161],[-8.208683,54.864328],[-8.209129,54.864454],[-8.209315,54.864693],[-8.209407,54.864761],[-8.209487,54.864851],[-8.209603,54.864931],[-8.209764,54.865054],[-8.20982,54.865116],[-8.209823,54.865119],[-8.209822,54.864921],[-8.209819,54.864382],[-8.209818,54.864113],[-8.210285,54.864112],[-8.210286,54.864381],[-8.210754,54.864381],[-8.210756,54.86492],[-8.211224,54.864919],[-8.211225,54.865188],[-8.211692,54.865188],[-8.211694,54.865457],[-8.211697,54.865996],[-8.212631,54.865995],[-8.212633,54.866264],[-8.212634,54.866452],[-8.212647,54.866452],[-8.214205,54.866449],[-8.214206,54.8668],[-8.214505,54.8668],[-8.214506,54.867069],[-8.214208,54.86707],[-8.214209,54.867347],[-8.213573,54.867349],[-8.213574,54.86761],[-8.214042,54.867609],[-8.214043,54.867879],[-8.214045,54.868246],[-8.214214,54.868246],[-8.214215,54.868418],[-8.214513,54.868417],[-8.214515,54.868687],[-8.216384,54.868683],[-8.216386,54.868953],[-8.215918,54.868954],[-8.21592,54.869223],[-8.214985,54.869225],[-8.214987,54.869494],[-8.214988,54.869764],[-8.215455,54.869763],[-8.215457,54.870033],[-8.214699,54.870034],[-8.214818,54.870113],[-8.21491,54.870211],[-8.214951,54.870271],[-8.215019,54.870325],[-8.215139,54.870378],[-8.215179,54.870428],[-8.215255,54.870492],[-8.215347,54.870572],[-8.21546,54.870572],[-8.21546,54.870663],[-8.215476,54.870675],[-8.215501,54.870792],[-8.215585,54.870861],[-8.215702,54.870959],[-8.215754,54.871016],[-8.215834,54.871039],[-8.215894,54.871077],[-8.215914,54.87111],[-8.21593,54.87111],[-8.21593,54.871135],[-8.215938,54.871148],[-8.215982,54.871192],[-8.216046,54.871233],[-8.216123,54.871292],[-8.216124,54.871391],[-8.216172,54.871432],[-8.216311,54.871446],[-8.216574,54.871468],[-8.216686,54.871495],[-8.216687,54.871577],[-8.216667,54.871635],[-8.216783,54.87166],[-8.216966,54.871657],[-8.217157,54.871691],[-8.217253,54.871709],[-8.217345,54.871763],[-8.217385,54.871784],[-8.217454,54.871796],[-8.217544,54.871811],[-8.21764,54.871824],[-8.217696,54.871882],[-8.217776,54.871927],[-8.217884,54.871957],[-8.218171,54.871969],[-8.218354,54.871983],[-8.218485,54.871975],[-8.218628,54.871979],[-8.21876,54.871982],[-8.218776,54.871985],[-8.218809,54.871991],[-8.218818,54.871995],[-8.218854,54.872015],[-8.219286,54.872032],[-8.220209,54.872157],[-8.220499,54.872197],[-8.220567,54.872216],[-8.220714,54.872237],[-8.220836,54.872251],[-8.220967,54.872254],[-8.22105,54.872311],[-8.221156,54.872389],[-8.221219,54.872419],[-8.221302,54.872424],[-8.221328,54.872424],[-8.221412,54.872426],[-8.221508,54.872427],[-8.221642,54.872436],[-8.221797,54.872453],[-8.221959,54.872453],[-8.222074,54.872454],[-8.22213,54.872427],[-8.222248,54.872445],[-8.222331,54.872448],[-8.222411,54.872446],[-8.222462,54.872423],[-8.22253,54.872425],[-8.222605,54.872439],[-8.222652,54.872469],[-8.222731,54.872513],[-8.222821,54.87255],[-8.222909,54.872555],[-8.222952,54.872575],[-8.222999,54.872626],[-8.223058,54.872628],[-8.223126,54.872628],[-8.22326,54.872624],[-8.223316,54.872659],[-8.22334,54.872687],[-8.22334,54.872687],[-8.22338,54.87266],[-8.223383,54.872658],[-8.223387,54.872655],[-8.223571,54.87253],[-8.223943,54.87229],[-8.22421,54.872117],[-8.224665,54.871854],[-8.224938,54.871695],[-8.225115,54.871639],[-8.225183,54.871612],[-8.225355,54.871543],[-8.225515,54.871482],[-8.22557,54.871461],[-8.22574,54.871393],[-8.226236,54.871194],[-8.226748,54.870978],[-8.226844,54.870938],[-8.22692,54.870907],[-8.22726,54.870771],[-8.227493,54.87069],[-8.227628,54.870644],[-8.227938,54.870533],[-8.228154,54.870476],[-8.228378,54.870417],[-8.229276,54.870153],[-8.229444,54.87011],[-8.229444,54.87011],[-8.229444,54.87011],[-8.229528,54.870088],[-8.229686,54.870077],[-8.229911,54.870018],[-8.230206,54.869863],[-8.230588,54.869581],[-8.230768,54.869486],[-8.23122,54.869287],[-8.231605,54.869115],[-8.232081,54.868894],[-8.232213,54.868793],[-8.232603,54.868481],[-8.232911,54.86824],[-8.233104,54.868096],[-8.233399,54.867881],[-8.233671,54.867684],[-8.233775,54.867608],[-8.233947,54.867454],[-8.234225,54.86719],[-8.234405,54.866983],[-8.234343,54.866939],[-8.233772,54.86664],[-8.233664,54.866593],[-8.233605,54.866567],[-8.233506,54.866478],[-8.233441,54.866391],[-8.233446,54.866223],[-8.233444,54.866059],[-8.233457,54.866031],[-8.233659,54.865615],[-8.233707,54.865515],[-8.232888,54.865517],[-8.232878,54.86372],[-8.234258,54.863717],[-8.234122,54.863456],[-8.233802,54.862843],[-8.233641,54.862501],[-8.233584,54.862381],[-8.233271,54.861812],[-8.233078,54.861351],[-8.232885,54.861026],[-8.232872,54.860991],[-8.232732,54.86074],[-8.232669,54.860616],[-8.232598,54.860468],[-8.232494,54.860252],[-8.232405,54.860069],[-8.23232,54.859876],[-8.232222,54.859723],[-8.232099,54.859511],[-8.23201,54.859373],[-8.231929,54.8592],[-8.231864,54.859006],[-8.23179,54.858847],[-8.231714,54.858709],[-8.23169,54.858661],[-8.231577,54.858448],[-8.231499,54.858272],[-8.231434,54.858151],[-8.231385,54.858034],[-8.231348,54.857901],[-8.231322,54.857814],[-8.231324,54.857763],[-8.231385,54.857744],[-8.231322,54.857683],[-8.231224,54.85758],[-8.231153,54.857484],[-8.230937,54.857319],[-8.23083,54.857296],[-8.230716,54.857154],[-8.23044,54.856969],[-8.230217,54.856819],[-8.230162,54.856743],[-8.230084,54.856636],[-8.230021,54.856495],[-8.229941,54.856371],[-8.229934,54.856361],[-8.22987,54.856249],[-8.229809,54.856128],[-8.229778,54.856057],[-8.229804,54.855987],[-8.229795,54.855851],[-8.229731,54.855784],[-8.229718,54.855777],[-8.229615,54.855719],[-8.229524,54.855595],[-8.229404,54.85548],[-8.229345,54.855458],[-8.229186,54.855389],[-8.229087,54.855339],[-8.229028,54.85525],[-8.228953,54.855185],[-8.228952,54.855183],[-8.228926,54.855183],[-8.228929,54.855722],[-8.229397,54.855721],[-8.229398,54.855991],[-8.2294,54.856261],[-8.229401,54.85653],[-8.228934,54.856531],[-8.228932,54.856261],[-8.227531,54.856264],[-8.227532,54.856534],[-8.227534,54.856803],[-8.228001,54.856802],[-8.228003,54.857072],[-8.227535,54.857073],[-8.22754,54.857881],[-8.227073,54.857882],[-8.227076,54.858421],[-8.225207,54.858425],[-8.225206,54.858345],[-8.225062,54.858345],[-8.225057,54.857447],[-8.225669,54.857446],[-8.225667,54.857076],[-8.225199,54.857077],[-8.225198,54.856808],[-8.226132,54.856806],[-8.226131,54.856536],[-8.225664,54.856537],[-8.225662,54.856268],[-8.224728,54.856269],[-8.224726,54.856],[-8.225193,54.855999],[-8.22519,54.85546],[-8.225658,54.855459],[-8.225656,54.855189],[-8.226123,54.855189],[-8.226122,54.854919],[-8.226589,54.854918],[-8.226587,54.854649],[-8.226586,54.854379],[-8.225651,54.854381],[-8.225653,54.85465],[-8.225186,54.854651],[-8.225187,54.854921],[-8.22472,54.854922],[-8.224722,54.855191],[-8.224254,54.855192],[-8.224257,54.855731],[-8.22379,54.855732],[-8.223792,54.856001],[-8.222857,54.856003],[-8.222859,54.856273],[-8.22099,54.856276],[-8.220991,54.856546],[-8.218655,54.85655],[-8.218657,54.856819],[-8.217722,54.856821],[-8.217721,54.856552],[-8.21772,54.856282],[-8.216318,54.856285],[-8.216316,54.856015],[-8.215382,54.856017],[-8.215384,54.856286],[-8.215385,54.856556],[-8.215852,54.856555],[-8.215854,54.856824],[-8.215855,54.857094],[-8.215388,54.857095],[-8.215386,54.856825],[-8.214919,54.856826],[-8.214918,54.856557],[-8.214451,54.856557],[-8.214449,54.856288],[-8.213982,54.856289],[-8.21398,54.856019],[-8.213513,54.85602],[-8.213512,54.85575],[-8.213045,54.855751],[-8.213042,54.855212],[-8.21304,54.854943],[-8.212573,54.854943],[-8.212572,54.854674],[-8.21257,54.854404],[-8.212103,54.854405],[-8.212102,54.854136],[-8.211635,54.854136],[-8.211632,54.853597],[-8.211165,54.853598],[-8.211164,54.853395],[-8.210459,54.853538],[-8.209891,54.853653],[-8.209144,54.853793],[-8.208301,54.853978],[-8.2077,54.854098],[-8.206514,54.854358],[-8.205364,54.854649],[-8.205469,54.854789],[-8.205716,54.855081],[-8.206025,54.855449],[-8.206394,54.855822],[-8.206643,54.856058],[-8.206839,54.856246],[-8.206897,54.856344],[-8.206871,54.85646],[-8.206825,54.856563],[-8.206812,54.85658],[-8.206736,54.85677],[-8.20661,54.857099],[-8.206492,54.857392],[-8.206454,54.857493],[-8.206387,54.857609],[-8.206307,54.857772],[-8.206245,54.857919],[-8.206515,54.857919],[-8.206513,54.857649],[-8.207915,54.857647],[-8.207917,54.857916],[-8.207449,54.857917],[-8.207453,54.858726],[-8.207921,54.858725],[-8.207922,54.858995],[-8.207925,54.859534],[-8.208392,54.859533],[-8.208393,54.859802],[-8.207926,54.859803],[-8.207929,54.860342],[-8.208864,54.860341],[-8.208865,54.86061],[-8.209332,54.860609],[-8.209335,54.861149],[-8.209336,54.861418],[-8.209338,54.861688],[-8.20887,54.861688],[-8.208872,54.861958],[-8.208873,54.862227],[-8.208406,54.862228],[-8.208409,54.862767],[-8.207941,54.862768],[-8.207943,54.863038],[-8.208877,54.863036],[-8.208876,54.862767],[-8.209343,54.862766],[-8.209342,54.862496],[-8.209341,54.862227],[-8.209808,54.862226],[-8.209806,54.861956],[-8.210274,54.861956],[-8.210275,54.862225],[-8.210276,54.862495],[-8.209809,54.862495],[-8.209811,54.862765],[-8.209812,54.863034],[-8.209813,54.863304],[-8.209346,54.863305],[-8.209348,54.863574],[-8.209349,54.863844],[-8.207947,54.863846],[-8.207946,54.863577],[-8.207478,54.863578],[-8.207478,54.863597],[-8.207586,54.863664],[-8.207638,54.863732],[-8.207754,54.863771]],[[-8.208395,54.860072],[-8.208393,54.859802],[-8.208861,54.859802],[-8.208862,54.860071],[-8.208395,54.860072]],[[-8.208382,54.857646],[-8.207915,54.857647],[-8.207914,54.857377],[-8.208381,54.857377],[-8.208382,54.857646]],[[-8.207912,54.857108],[-8.207914,54.857377],[-8.207447,54.857378],[-8.207445,54.857109],[-8.207912,54.857108]],[[-8.212577,54.855752],[-8.213045,54.855751],[-8.213046,54.856021],[-8.213047,54.85629],[-8.212113,54.856292],[-8.212112,54.856022],[-8.211644,54.856023],[-8.211643,54.855754],[-8.211642,54.855484],[-8.211174,54.855485],[-8.211173,54.855215],[-8.21117,54.854676],[-8.211637,54.854676],[-8.21164,54.855215],[-8.212107,54.855214],[-8.212109,54.855483],[-8.212576,54.855483],[-8.212577,54.855752]],[[-8.214972,54.866799],[-8.214505,54.8668],[-8.214503,54.86653],[-8.214971,54.866529],[-8.214972,54.866799]],[[-8.212628,54.862859],[-8.212624,54.861961],[-8.214181,54.861958],[-8.214186,54.862856],[-8.212628,54.862859]],[[-8.2142,54.865551],[-8.214195,54.864653],[-8.214961,54.864651],[-8.214961,54.864643],[-8.215428,54.864642],[-8.215427,54.864372],[-8.215894,54.864372],[-8.215892,54.864102],[-8.21636,54.864101],[-8.216361,54.864371],[-8.216363,54.86464],[-8.216364,54.86491],[-8.216831,54.864909],[-8.216833,54.865178],[-8.2173,54.865178],[-8.217302,54.865447],[-8.217304,54.865986],[-8.217772,54.865985],[-8.217773,54.866255],[-8.219175,54.866252],[-8.219174,54.865983],[-8.219641,54.865982],[-8.21964,54.865713],[-8.221509,54.865709],[-8.22151,54.865979],[-8.222445,54.865977],[-8.222443,54.865707],[-8.222911,54.865707],[-8.222909,54.865437],[-8.223377,54.865436],[-8.223374,54.864897],[-8.223841,54.864896],[-8.223839,54.864627],[-8.223372,54.864628],[-8.223371,54.864358],[-8.223369,54.864088],[-8.223836,54.864088],[-8.223838,54.864357],[-8.224305,54.864356],[-8.224304,54.864087],[-8.224302,54.863817],[-8.224301,54.863548],[-8.224299,54.863278],[-8.225701,54.863276],[-8.225698,54.862736],[-8.226633,54.862735],[-8.226636,54.863274],[-8.226637,54.863543],[-8.227105,54.863542],[-8.227106,54.863812],[-8.227108,54.864082],[-8.226173,54.864083],[-8.226174,54.864353],[-8.226176,54.864622],[-8.226177,54.864892],[-8.227112,54.86489],[-8.227115,54.865429],[-8.227117,54.865699],[-8.227118,54.865968],[-8.22712,54.866238],[-8.227121,54.866507],[-8.225719,54.86651],[-8.225721,54.86678],[-8.225253,54.86678],[-8.225255,54.86705],[-8.224788,54.867051],[-8.224789,54.86732],[-8.224791,54.86759],[-8.224792,54.867859],[-8.224325,54.86786],[-8.224326,54.86813],[-8.223859,54.868131],[-8.22386,54.8684],[-8.224328,54.868399],[-8.224329,54.868669],[-8.224331,54.868938],[-8.224798,54.868938],[-8.2248,54.869207],[-8.224801,54.869477],[-8.224334,54.869477],[-8.224332,54.869208],[-8.22293,54.869211],[-8.222932,54.86948],[-8.222464,54.869481],[-8.222466,54.86975],[-8.221998,54.869751],[-8.222,54.870021],[-8.222935,54.870019],[-8.222936,54.870289],[-8.222469,54.87029],[-8.22247,54.870559],[-8.222003,54.87056],[-8.222001,54.87029],[-8.221534,54.870291],[-8.221533,54.870022],[-8.221065,54.870023],[-8.221064,54.869753],[-8.220129,54.869755],[-8.22013,54.870024],[-8.219663,54.870025],[-8.219662,54.869756],[-8.21966,54.869486],[-8.219193,54.869487],[-8.219191,54.869217],[-8.218724,54.869218],[-8.218722,54.868949],[-8.217788,54.86895],[-8.217786,54.868681],[-8.217319,54.868682],[-8.21732,54.868951],[-8.216853,54.868952],[-8.216852,54.868682],[-8.21685,54.868413],[-8.216383,54.868414],[-8.216381,54.868144],[-8.215914,54.868145],[-8.215913,54.867876],[-8.216847,54.867874],[-8.216846,54.867604],[-8.217313,54.867603],[-8.217312,54.867334],[-8.21731,54.867064],[-8.216843,54.867065],[-8.216842,54.866796],[-8.21684,54.866526],[-8.216373,54.866527],[-8.216371,54.866257],[-8.21637,54.865988],[-8.216367,54.865449],[-8.2159,54.86545],[-8.215898,54.86518],[-8.215897,54.864911],[-8.215754,54.864911],[-8.215757,54.865548],[-8.2142,54.865551]],[[-8.223388,54.871681],[-8.222209,54.871877],[-8.222382,54.87151],[-8.223388,54.871583],[-8.223388,54.871681]],[[-8.223761,54.871835],[-8.223891,54.872154],[-8.223355,54.872335],[-8.223221,54.872011],[-8.223761,54.871835]],[[-8.223364,54.871222],[-8.223736,54.871369],[-8.22335,54.871407],[-8.223364,54.871222]],[[-8.229881,54.858686],[-8.230348,54.858685],[-8.230349,54.858954],[-8.229882,54.858955],[-8.229884,54.859225],[-8.229885,54.859494],[-8.229888,54.860033],[-8.229421,54.860034],[-8.229423,54.860304],[-8.230824,54.860301],[-8.230826,54.86057],[-8.231293,54.86057],[-8.231295,54.860839],[-8.231296,54.861109],[-8.230829,54.86111],[-8.230831,54.861379],[-8.230363,54.86138],[-8.230365,54.86165],[-8.22943,54.861651],[-8.229432,54.861921],[-8.228497,54.861923],[-8.228499,54.862192],[-8.228031,54.862193],[-8.228033,54.862463],[-8.226631,54.862465],[-8.22663,54.862196],[-8.225695,54.862197],[-8.225694,54.861928],[-8.224292,54.86193],[-8.22429,54.861661],[-8.223823,54.861662],[-8.223822,54.861392],[-8.223354,54.861393],[-8.223353,54.861124],[-8.224755,54.861121],[-8.224756,54.861391],[-8.225223,54.86139],[-8.225222,54.86112],[-8.225689,54.861119],[-8.225688,54.86085],[-8.226155,54.860849],[-8.226153,54.860579],[-8.226621,54.860578],[-8.226619,54.860309],[-8.227086,54.860308],[-8.227088,54.860578],[-8.227089,54.860847],[-8.227091,54.861117],[-8.227092,54.861386],[-8.228027,54.861384],[-8.228025,54.861115],[-8.228493,54.861114],[-8.228491,54.860844],[-8.228958,54.860844],[-8.228957,54.860574],[-8.228955,54.860305],[-8.228488,54.860305],[-8.228487,54.860036],[-8.228484,54.859497],[-8.228951,54.859496],[-8.228949,54.859226],[-8.229416,54.859225],[-8.229415,54.858956],[-8.229413,54.858686],[-8.229412,54.858417],[-8.228945,54.858418],[-8.228942,54.857879],[-8.228474,54.85788],[-8.22847,54.857071],[-8.229871,54.857068],[-8.229876,54.857877],[-8.229879,54.858416],[-8.229881,54.858686]],[[-8.222899,54.86355],[-8.223366,54.863549],[-8.223368,54.863819],[-8.2229,54.86382],[-8.222899,54.86355]],[[-8.224343,54.871095],[-8.22481,54.871094],[-8.224812,54.871363],[-8.224344,54.871364],[-8.224343,54.871095]],[[-8.219596,54.857626],[-8.219128,54.857627],[-8.21913,54.857897],[-8.218663,54.857898],[-8.218661,54.857628],[-8.21866,54.857359],[-8.219127,54.857358],[-8.219126,54.857088],[-8.22006,54.857086],[-8.220061,54.857356],[-8.219594,54.857357],[-8.219596,54.857626]],[[-8.216792,54.857631],[-8.216791,54.857362],[-8.217258,54.857361],[-8.21726,54.857631],[-8.216792,54.857631]],[[-8.218216,54.861672],[-8.218683,54.861671],[-8.218685,54.861941],[-8.218217,54.861942],[-8.218216,54.861672]],[[-8.220095,54.863555],[-8.220097,54.863825],[-8.219629,54.863826],[-8.219628,54.863556],[-8.219161,54.863557],[-8.219159,54.863288],[-8.219158,54.863018],[-8.219625,54.863017],[-8.219626,54.863287],[-8.220094,54.863286],[-8.220095,54.863555]],[[-8.220098,54.864094],[-8.220097,54.863825],[-8.220564,54.863824],[-8.220565,54.864094],[-8.220098,54.864094]],[[-8.212592,54.858447],[-8.213059,54.858447],[-8.213062,54.858986],[-8.212594,54.858987],[-8.212592,54.858447]],[[-8.213537,54.860602],[-8.21354,54.861141],[-8.213073,54.861142],[-8.21307,54.860603],[-8.213537,54.860602]],[[-8.213542,54.861411],[-8.21354,54.861141],[-8.214008,54.86114],[-8.214009,54.86141],[-8.213542,54.861411]],[[-8.214485,54.863026],[-8.214483,54.862757],[-8.214482,54.862487],[-8.214949,54.862486],[-8.214948,54.862217],[-8.215415,54.862216],[-8.215417,54.862486],[-8.215418,54.862755],[-8.214951,54.862756],[-8.214952,54.863025],[-8.214485,54.863026]],[[-8.215911,54.867606],[-8.215444,54.867607],[-8.215442,54.867337],[-8.21591,54.867336],[-8.215911,54.867606]],[[-8.214977,54.867608],[-8.215444,54.867607],[-8.215445,54.867876],[-8.214978,54.867877],[-8.214977,54.867608]],[[-8.209777,54.856296],[-8.20931,54.856297],[-8.209308,54.856027],[-8.209307,54.855758],[-8.210241,54.855756],[-8.210243,54.856026],[-8.209776,54.856026],[-8.209777,54.856296]],[[-8.206977,54.85684],[-8.206975,54.85657],[-8.206974,54.856301],[-8.207441,54.8563],[-8.20744,54.856031],[-8.207907,54.85603],[-8.207908,54.856299],[-8.20791,54.856569],[-8.207442,54.85657],[-8.207444,54.856839],[-8.206977,54.85684]],[[-8.20978,54.856835],[-8.209313,54.856836],[-8.209311,54.856566],[-8.209778,54.856566],[-8.20978,54.856835]],[[-8.208845,54.856837],[-8.209313,54.856836],[-8.209314,54.857105],[-8.208847,54.857106],[-8.208845,54.856837]]],[[[-8.206241,54.862821],[-8.206541,54.862979],[-8.20654,54.862771],[-8.20618,54.862771],[-8.206241,54.862821]]],[[[-8.204967,54.861077],[-8.204933,54.861156],[-8.20513,54.861156],[-8.205131,54.861425],[-8.206065,54.861424],[-8.206064,54.861154],[-8.205597,54.861155],[-8.205594,54.860616],[-8.205593,54.860346],[-8.20559,54.859807],[-8.205513,54.859807],[-8.20544,54.85999],[-8.205208,54.860526],[-8.205078,54.860826],[-8.204985,54.861033],[-8.204967,54.861077]]],[[[-8.205937,54.858668],[-8.205914,54.858729],[-8.206052,54.858728],[-8.20605,54.858379],[-8.206046,54.858387],[-8.205937,54.858668]]],[[[-8.212633,54.853082],[-8.212097,54.853189],[-8.212098,54.853327],[-8.212565,54.853326],[-8.212566,54.853596],[-8.213033,54.853595],[-8.213032,54.853325],[-8.21303,54.853056],[-8.21276,54.853056],[-8.212633,54.853082]]],[[[-8.216587,54.852276],[-8.21583,54.852433],[-8.215831,54.852512],[-8.216298,54.852511],[-8.216299,54.852781],[-8.216301,54.85305],[-8.218169,54.853047],[-8.218171,54.853316],[-8.218638,54.853315],[-8.218636,54.853046],[-8.219104,54.853045],[-8.219102,54.852776],[-8.219569,54.852775],[-8.219571,54.853044],[-8.220505,54.853043],[-8.220504,54.852773],[-8.220502,54.852503],[-8.220969,54.852503],[-8.220968,54.852233],[-8.220966,54.851964],[-8.221434,54.851963],[-8.221429,54.851154],[-8.220962,54.851155],[-8.220961,54.850885],[-8.220493,54.850886],[-8.220364,54.850979],[-8.220064,54.851166],[-8.219623,54.851458],[-8.219386,54.851592],[-8.219252,54.851643],[-8.218709,54.851785],[-8.218546,54.851826],[-8.217721,54.852046],[-8.216587,54.852276]]],[[[-8.221349,54.850317],[-8.221303,54.850346],[-8.221425,54.850345],[-8.221426,54.850615],[-8.221893,54.850614],[-8.221895,54.850884],[-8.222698,54.850882],[-8.221482,54.85024],[-8.221446,54.850261],[-8.221442,54.850264],[-8.221349,54.850317]]],[[[-8.227119,54.853777],[-8.227049,54.853719],[-8.227052,54.854109],[-8.227053,54.854378],[-8.227987,54.854376],[-8.227987,54.854308],[-8.227804,54.854208],[-8.227683,54.854102],[-8.227529,54.854049],[-8.227444,54.853989],[-8.227422,54.853935],[-8.227342,54.853888],[-8.227249,54.853887],[-8.227119,54.853777]]],[[[-8.228149,54.854457],[-8.228071,54.854376],[-8.227987,54.854376],[-8.227989,54.854646],[-8.227522,54.854647],[-8.227523,54.854916],[-8.227525,54.855186],[-8.228926,54.855183],[-8.228926,54.855152],[-8.228892,54.85511],[-8.22884,54.85504],[-8.228809,54.854988],[-8.228616,54.854807],[-8.228471,54.854683],[-8.228332,54.854564],[-8.228149,54.854457]]],[[[-8.214461,54.869797],[-8.214521,54.869858],[-8.214521,54.869765],[-8.214519,54.869495],[-8.214107,54.869496],[-8.214244,54.869594],[-8.214461,54.869797]]],[[[-8.213911,54.869301],[-8.214052,54.869445],[-8.21405,54.869227],[-8.21405,54.869144],[-8.21379,54.869145],[-8.213911,54.869301]]],[[[-8.213059,54.868248],[-8.213111,54.868248],[-8.213109,54.86788],[-8.212715,54.867881],[-8.212724,54.867917],[-8.212808,54.868022],[-8.213025,54.868203],[-8.213059,54.868248]]],[[[-8.211469,54.866454],[-8.211699,54.866454],[-8.211698,54.866266],[-8.211231,54.866266],[-8.211229,54.865997],[-8.211087,54.865997],[-8.211088,54.866203],[-8.21116,54.86624],[-8.211188,54.866291],[-8.211256,54.866334],[-8.21132,54.866366],[-8.211416,54.866432],[-8.211469,54.866454]]],[[[-8.210317,54.865558],[-8.21076,54.865557],[-8.210759,54.865459],[-8.210292,54.86546],[-8.210291,54.86519],[-8.209888,54.865191],[-8.2099,54.865205],[-8.209997,54.865296],[-8.210104,54.865321],[-8.210145,54.865351],[-8.210141,54.865385],[-8.210209,54.865486],[-8.210317,54.865558]]],[[[-8.226599,54.856805],[-8.226132,54.856806],[-8.226134,54.857075],[-8.226601,54.857074],[-8.226599,54.856805]]],[[[-8.227058,54.855187],[-8.226123,54.855189],[-8.226125,54.855458],[-8.226128,54.855997],[-8.226595,54.855996],[-8.226593,54.855727],[-8.227061,54.855726],[-8.227058,54.855187]]],[[[-8.227997,54.855994],[-8.228464,54.855993],[-8.228462,54.855723],[-8.227995,54.855724],[-8.227997,54.855994]]],[[[-8.218714,54.867331],[-8.219181,54.867331],[-8.21918,54.867061],[-8.218712,54.867062],[-8.218711,54.866792],[-8.217776,54.866794],[-8.217778,54.867064],[-8.217779,54.867333],[-8.218246,54.867332],[-8.218248,54.867602],[-8.218715,54.867601],[-8.218714,54.867331]]],[[[-8.220116,54.867329],[-8.219181,54.867331],[-8.219183,54.8676],[-8.220585,54.867598],[-8.220583,54.867328],[-8.22105,54.867327],[-8.221049,54.867058],[-8.221516,54.867057],[-8.221515,54.866787],[-8.221513,54.866518],[-8.221981,54.866517],[-8.221979,54.866247],[-8.221045,54.866249],[-8.221046,54.866519],[-8.220579,54.866519],[-8.22058,54.866789],[-8.220113,54.86679],[-8.220114,54.867059],[-8.220116,54.867329]]],[[[-8.22617,54.863544],[-8.225703,54.863545],[-8.225704,54.863815],[-8.226171,54.863814],[-8.22617,54.863544]]],[[[-8.224322,54.867321],[-8.223854,54.867322],[-8.223856,54.867592],[-8.224323,54.867591],[-8.224322,54.867321]]],[[[-8.223384,54.866784],[-8.222917,54.866785],[-8.222918,54.867054],[-8.221984,54.867056],[-8.221985,54.867325],[-8.221987,54.867595],[-8.222454,54.867594],[-8.222452,54.867325],[-8.223387,54.867323],[-8.223386,54.867053],[-8.223384,54.866784]]],[[[-8.207469,54.861691],[-8.207001,54.861692],[-8.207003,54.861961],[-8.20747,54.86196],[-8.207469,54.861691]]]]}}]}
