{"type":"FeatureCollection","features":[{"type":"Feature","properties":{"source_fid":2330856,"county":"Mayo","bog_geom_ha":438.2694111811079,"low15_pct":99.897119341563794,"low15_ha":437.81851672516029,"overlay_ha":437.62185670499355,"area_delta":-0.19666002016674611},"geometry":{"type":"MultiPolygon","coordinates":[[[[-8.972866,54.126981],[-8.972661,54.126893],[-8.97244,54.126802],[-8.972317,54.126746],[-8.972317,54.126746],[-8.972218,54.1267],[-8.972154,54.126671],[-8.971738,54.126476],[-8.971103,54.126193],[-8.970736,54.126033],[-8.970478,54.125916],[-8.970288,54.12583],[-8.970206,54.125791],[-8.969967,54.12568],[-8.969893,54.125648],[-8.969893,54.125648],[-8.969846,54.125687],[-8.968896,54.126376],[-8.969876,54.126863],[-8.96961,54.126868],[-8.969112,54.126872],[-8.968623,54.126875],[-8.968231,54.126878],[-8.967798,54.126879],[-8.967354,54.126882],[-8.966924,54.126886],[-8.966493,54.126886],[-8.966095,54.126884],[-8.965676,54.126888],[-8.965377,54.126891],[-8.965044,54.126899],[-8.964586,54.126902],[-8.964183,54.126906],[-8.963793,54.126903],[-8.963383,54.126901],[-8.963032,54.126903],[-8.962656,54.1269],[-8.962292,54.126903],[-8.961872,54.12691],[-8.961465,54.126912],[-8.961044,54.126911],[-8.96068,54.126915],[-8.96043,54.126917],[-8.9602,54.126921],[-8.959833,54.126921],[-8.959431,54.126932],[-8.959088,54.126944],[-8.959039,54.126943],[-8.959179,54.127591],[-8.959365,54.128338],[-8.961407,54.128335],[-8.962009,54.131192],[-8.96185,54.131191],[-8.961234,54.131189],[-8.960663,54.131187],[-8.960086,54.131184],[-8.958826,54.131198],[-8.957273,54.131242],[-8.957357,54.131804],[-8.957415,54.132195],[-8.957452,54.132446],[-8.957499,54.132762],[-8.957507,54.132816],[-8.95709,54.13282],[-8.956618,54.132827],[-8.956223,54.132836],[-8.955701,54.132835],[-8.955373,54.132842],[-8.955246,54.132842],[-8.955126,54.132844],[-8.955013,54.132843],[-8.955029,54.132911],[-8.955082,54.133141],[-8.955534,54.135085],[-8.955758,54.136295],[-8.956095,54.137798],[-8.954378,54.137934],[-8.954881,54.140663],[-8.954119,54.140682],[-8.954079,54.141713],[-8.952656,54.1435],[-8.952087,54.144217],[-8.95187,54.14449],[-8.951843,54.144525],[-8.952088,54.144559],[-8.952633,54.144635],[-8.95283,54.144662],[-8.953267,54.144714],[-8.95387,54.144773],[-8.954144,54.144811],[-8.954387,54.144887],[-8.954556,54.144945],[-8.954556,54.144945],[-8.954556,54.144945],[-8.95458,54.144954],[-8.954675,54.144987],[-8.954721,54.145002],[-8.954769,54.145019],[-8.955348,54.14522],[-8.955623,54.145315],[-8.95632,54.145577],[-8.956855,54.145777],[-8.957267,54.145921],[-8.958035,54.146182],[-8.958213,54.146242],[-8.958795,54.146397],[-8.958821,54.146404],[-8.958963,54.146443],[-8.959003,54.146456],[-8.959394,54.146582],[-8.960145,54.146855],[-8.960268,54.1469],[-8.960424,54.146957],[-8.960781,54.147079],[-8.960787,54.147081],[-8.960804,54.147087],[-8.960868,54.147112],[-8.961007,54.147149],[-8.961128,54.147174],[-8.961165,54.147189],[-8.961339,54.147249],[-8.961688,54.147374],[-8.962241,54.147565],[-8.962832,54.147765],[-8.963334,54.147941],[-8.963911,54.148136],[-8.964062,54.14819],[-8.964327,54.148284],[-8.964381,54.148301],[-8.964604,54.148334],[-8.96499,54.148371],[-8.965277,54.148389],[-8.96586,54.148427],[-8.966048,54.148438],[-8.966539,54.148468],[-8.966817,54.148486],[-8.967295,54.148516],[-8.967817,54.148546],[-8.968673,54.148592],[-8.968947,54.148609],[-8.969712,54.148659],[-8.970415,54.148713],[-8.970565,54.148723],[-8.971074,54.148758],[-8.971362,54.148782],[-8.971728,54.148811],[-8.972137,54.148847],[-8.972233,54.148854],[-8.972893,54.148902],[-8.973458,54.148957],[-8.973743,54.148984],[-8.974046,54.149014],[-8.974539,54.14905],[-8.975077,54.149083],[-8.975283,54.149098],[-8.975747,54.149132],[-8.975886,54.149143],[-8.976293,54.149177],[-8.976567,54.149199],[-8.976964,54.149231],[-8.977102,54.149242],[-8.977522,54.149275],[-8.97767,54.149286],[-8.977999,54.149311],[-8.978129,54.149322],[-8.978618,54.14936],[-8.978748,54.14937],[-8.979268,54.149409],[-8.979399,54.149417],[-8.979878,54.149447],[-8.980064,54.14946],[-8.980209,54.149471],[-8.980533,54.149381],[-8.98072,54.149395],[-8.981482,54.149451],[-8.982231,54.149505],[-8.983648,54.149609],[-8.984946,54.14964],[-8.98499,54.149641],[-8.985099,54.149644],[-8.986059,54.149656],[-8.986668,54.149659],[-8.987421,54.149663],[-8.987582,54.149663],[-8.987767,54.149662],[-8.988071,54.14966],[-8.988307,54.149658],[-8.988629,54.149649],[-8.989059,54.149637],[-8.989341,54.149625],[-8.989606,54.149614],[-8.989986,54.149605],[-8.990428,54.149596],[-8.990666,54.1496],[-8.990964,54.149605],[-8.991418,54.14959],[-8.991662,54.149582],[-8.991767,54.149583],[-8.991767,54.149583],[-8.991981,54.149584],[-8.992056,54.149585],[-8.992214,54.149586],[-8.992707,54.149577],[-8.992723,54.149581],[-8.992746,54.149521],[-8.993075,54.14868],[-8.9934,54.147847],[-8.993396,54.147845],[-8.993337,54.147817],[-8.993281,54.14779],[-8.991585,54.14698],[-8.9911,54.146762],[-8.990397,54.146445],[-8.989971,54.146254],[-8.989542,54.146061],[-8.989545,54.146176],[-8.98725,54.146194],[-8.987243,54.145925],[-8.986784,54.145929],[-8.986771,54.14539],[-8.98723,54.145386],[-8.987218,54.144847],[-8.987633,54.144843],[-8.987675,54.144787],[-8.987664,54.144304],[-8.987657,54.144034],[-8.988113,54.144031],[-8.987679,54.14377],[-8.987056,54.143397],[-8.986464,54.143042],[-8.98635,54.142957],[-8.986252,54.142884],[-8.986118,54.142785],[-8.985755,54.142577],[-8.985751,54.142574],[-8.985641,54.142468],[-8.985572,54.142388],[-8.98543,54.142309],[-8.9852,54.142182],[-8.984933,54.142008],[-8.984867,54.141964],[-8.984802,54.141905],[-8.984683,54.141797],[-8.984309,54.141803],[-8.984294,54.141804],[-8.984233,54.141805],[-8.98406,54.141586],[-8.983488,54.140918],[-8.983185,54.140564],[-8.983142,54.140478],[-8.98304,54.140272],[-8.982983,54.140158],[-8.982885,54.13996],[-8.983608,54.139056],[-8.983835,54.138764],[-8.983839,54.138759],[-8.983839,54.138759],[-8.983821,54.138682],[-8.983814,54.138653],[-8.983431,54.13704],[-8.983222,54.136162],[-8.983176,54.135968],[-8.983106,54.135673],[-8.983101,54.135651],[-8.983097,54.135635],[-8.983089,54.135604],[-8.983088,54.135597],[-8.983049,54.135435],[-8.982881,54.13519],[-8.9828,54.134831],[-8.982744,54.134579],[-8.982736,54.13447],[-8.982736,54.134468],[-8.982736,54.134468],[-8.982736,54.134465],[-8.982742,54.134086],[-8.982537,54.133567],[-8.982388,54.132864],[-8.982356,54.132714],[-8.982346,54.132669],[-8.982339,54.132637],[-8.982334,54.132612],[-8.982221,54.132263],[-8.981944,54.131409],[-8.981885,54.13119],[-8.981723,54.130581],[-8.981694,54.130566],[-8.981572,54.130538],[-8.981525,54.130538],[-8.981467,54.13056],[-8.981378,54.130563],[-8.981287,54.130548],[-8.98121,54.130476],[-8.98117,54.130458],[-8.981112,54.130457],[-8.980995,54.13046],[-8.980905,54.13045],[-8.980861,54.130437],[-8.980841,54.130421],[-8.980764,54.1304],[-8.980688,54.130367],[-8.980603,54.130342],[-8.980391,54.130279],[-8.980186,54.130152],[-8.980082,54.130087],[-8.979992,54.130036],[-8.979747,54.129905],[-8.979474,54.129784],[-8.979285,54.129701],[-8.979145,54.129691],[-8.978926,54.12967],[-8.978828,54.129627],[-8.97827,54.129374],[-8.97773,54.12914],[-8.97764,54.1291],[-8.977182,54.128901],[-8.976648,54.128666],[-8.976439,54.128573],[-8.975773,54.12828],[-8.975565,54.12819],[-8.975315,54.128081],[-8.974977,54.127926],[-8.9749,54.127891],[-8.974512,54.127712],[-8.974292,54.127609],[-8.974209,54.127569],[-8.973642,54.127331],[-8.97356,54.127294],[-8.973513,54.127273],[-8.973465,54.127251],[-8.973256,54.127156],[-8.972952,54.127017],[-8.972866,54.126981]]]]}}]}
