{"type":"FeatureCollection","features":[{"type":"Feature","properties":{"source_fid":2330179,"county":"Sligo","bog_geom_ha":163.28404191195614,"low15_pct":67.740144364242084,"low15_ha":110.60884571492863,"overlay_ha":110.27299104059283,"area_delta":-0.33585467433580618},"geometry":{"type":"MultiPolygon","coordinates":[[[[-8.662584,54.177661],[-8.662514,54.177544],[-8.662516,54.177507],[-8.662475,54.177512],[-8.662215,54.177552],[-8.662215,54.177552],[-8.661889,54.177589],[-8.661492,54.177641],[-8.661377,54.177657],[-8.660891,54.177718],[-8.660807,54.177729],[-8.660795,54.177731],[-8.66052,54.177767],[-8.660364,54.177779],[-8.660174,54.177781],[-8.660174,54.177781],[-8.660167,54.177822],[-8.660161,54.177891],[-8.660148,54.178051],[-8.660156,54.178085],[-8.660352,54.178084],[-8.660358,54.17846],[-8.660418,54.178559],[-8.660428,54.17858],[-8.660486,54.178699],[-8.660518,54.178773],[-8.660541,54.178844],[-8.660558,54.178911],[-8.660605,54.179045],[-8.660638,54.179117],[-8.660658,54.179175],[-8.660672,54.179248],[-8.660688,54.179307],[-8.660717,54.179418],[-8.66074,54.179481],[-8.660765,54.179554],[-8.660802,54.17966],[-8.660848,54.179743],[-8.660907,54.179858],[-8.660977,54.179977],[-8.661047,54.180077],[-8.661007,54.180088],[-8.660522,54.180152],[-8.660385,54.180169],[-8.660386,54.180241],[-8.659927,54.180243],[-8.659931,54.180513],[-8.658553,54.18052],[-8.658557,54.18079],[-8.658097,54.180792],[-8.658093,54.180523],[-8.658093,54.180505],[-8.657709,54.180563],[-8.657505,54.180599],[-8.657138,54.18065],[-8.656625,54.180708],[-8.656382,54.180758],[-8.655347,54.180888],[-8.654083,54.181055],[-8.654022,54.181064],[-8.654016,54.181051],[-8.653531,54.18111],[-8.652676,54.181217],[-8.652178,54.181281],[-8.651514,54.181365],[-8.650944,54.181456],[-8.650221,54.181545],[-8.650245,54.183058],[-8.648612,54.183067],[-8.648616,54.183077],[-8.648707,54.183311],[-8.64875,54.183428],[-8.648763,54.183461],[-8.64877,54.183478],[-8.648902,54.183808],[-8.649872,54.183802],[-8.649868,54.183533],[-8.650328,54.18353],[-8.650323,54.183261],[-8.651242,54.183256],[-8.651238,54.182986],[-8.652617,54.182979],[-8.652613,54.182709],[-8.653072,54.182707],[-8.653068,54.182437],[-8.653987,54.182432],[-8.653983,54.182163],[-8.654902,54.182158],[-8.654906,54.182427],[-8.656744,54.182417],[-8.656749,54.182687],[-8.658127,54.182679],[-8.658132,54.182949],[-8.65997,54.182939],[-8.659974,54.183208],[-8.659514,54.183211],[-8.659519,54.18348],[-8.65814,54.183488],[-8.658144,54.183758],[-8.657685,54.18376],[-8.657681,54.183491],[-8.656761,54.183496],[-8.656766,54.183765],[-8.65677,54.184035],[-8.65723,54.184032],[-8.657234,54.184302],[-8.659532,54.184289],[-8.65954,54.184828],[-8.659081,54.184831],[-8.659085,54.1851],[-8.659545,54.185098],[-8.659549,54.185367],[-8.659553,54.185637],[-8.661391,54.185627],[-8.661387,54.185357],[-8.661847,54.185355],[-8.661851,54.185624],[-8.662311,54.185622],[-8.662312,54.185688],[-8.662771,54.185685],[-8.66277,54.185619],[-8.662766,54.18535],[-8.664145,54.185342],[-8.66414,54.185073],[-8.6646,54.18507],[-8.664596,54.1848],[-8.665515,54.184795],[-8.66551,54.184526],[-8.66643,54.184521],[-8.666425,54.184251],[-8.666885,54.184249],[-8.66688,54.183979],[-8.66734,54.183977],[-8.667336,54.183707],[-8.667795,54.183704],[-8.667791,54.183458],[-8.667688,54.183286],[-8.667625,54.183183],[-8.667519,54.18301],[-8.667415,54.182798],[-8.667278,54.182556],[-8.667194,54.182405],[-8.667027,54.182082],[-8.666786,54.181611],[-8.666759,54.181554],[-8.666382,54.181556],[-8.666391,54.182095],[-8.666395,54.182364],[-8.665476,54.182369],[-8.66548,54.182639],[-8.664101,54.182647],[-8.664106,54.182916],[-8.661348,54.182931],[-8.661353,54.183201],[-8.660893,54.183203],[-8.660889,54.182934],[-8.660885,54.182664],[-8.661804,54.182659],[-8.661799,54.18239],[-8.663638,54.18238],[-8.663633,54.18211],[-8.665471,54.1821],[-8.665463,54.181561],[-8.665922,54.181558],[-8.665918,54.181289],[-8.666634,54.181285],[-8.666592,54.181194],[-8.666431,54.180806],[-8.666388,54.18057],[-8.666382,54.180533],[-8.666364,54.180424],[-8.666369,54.180747],[-8.666373,54.181017],[-8.665914,54.181019],[-8.665909,54.18075],[-8.66545,54.180752],[-8.665441,54.180213],[-8.666328,54.180208],[-8.666326,54.180196],[-8.666286,54.179939],[-8.665896,54.179941],[-8.665888,54.179402],[-8.665883,54.179132],[-8.666188,54.179131],[-8.666184,54.17908],[-8.666181,54.17902],[-8.666158,54.178905],[-8.666119,54.178728],[-8.666106,54.178664],[-8.664924,54.178667],[-8.663729,54.178655],[-8.663673,54.178483],[-8.663676,54.178468],[-8.663723,54.178419],[-8.663624,54.178313],[-8.663575,54.178246],[-8.663554,54.178212],[-8.66353,54.178193],[-8.663491,54.178161],[-8.663463,54.178151],[-8.663333,54.178139],[-8.663308,54.17813],[-8.663244,54.178082],[-8.663201,54.17806],[-8.66288,54.177965],[-8.662789,54.177931],[-8.662692,54.177887],[-8.662693,54.177869],[-8.662714,54.17783],[-8.662739,54.177789],[-8.662736,54.177771],[-8.662699,54.177735],[-8.662653,54.177715],[-8.662595,54.177701],[-8.662584,54.177661]],[[-8.665506,54.184256],[-8.66551,54.184526],[-8.665051,54.184528],[-8.665046,54.184259],[-8.665506,54.184256]]],[[[-8.66804,54.18387],[-8.66794,54.183704],[-8.667795,54.183704],[-8.6678,54.183974],[-8.668102,54.183972],[-8.66804,54.18387]]],[[[-8.668628,54.184843],[-8.668589,54.184778],[-8.668272,54.18478],[-8.668277,54.18505],[-8.668281,54.185319],[-8.667362,54.185324],[-8.667366,54.185594],[-8.666906,54.185596],[-8.666902,54.185327],[-8.666898,54.185057],[-8.666438,54.18506],[-8.666443,54.185329],[-8.665983,54.185332],[-8.665987,54.185601],[-8.665068,54.185607],[-8.665069,54.185673],[-8.665603,54.18567],[-8.665611,54.186143],[-8.665996,54.186141],[-8.665992,54.185871],[-8.666911,54.185866],[-8.666915,54.186135],[-8.666919,54.186405],[-8.667379,54.186402],[-8.667383,54.186672],[-8.667388,54.186942],[-8.666928,54.186944],[-8.666932,54.187214],[-8.666473,54.187216],[-8.666477,54.187486],[-8.6628,54.187506],[-8.662796,54.187237],[-8.662336,54.187239],[-8.662332,54.18697],[-8.661413,54.186975],[-8.661409,54.186705],[-8.65957,54.186715],[-8.659568,54.186601],[-8.659491,54.186602],[-8.659488,54.186446],[-8.659106,54.186448],[-8.659102,54.186178],[-8.658642,54.186181],[-8.658634,54.185642],[-8.657715,54.185647],[-8.657719,54.185916],[-8.657259,54.185919],[-8.657264,54.186189],[-8.657268,54.186458],[-8.657272,54.186728],[-8.657277,54.186997],[-8.657281,54.187267],[-8.656821,54.187269],[-8.656825,54.187539],[-8.656366,54.187541],[-8.65637,54.187811],[-8.655911,54.187813],[-8.655915,54.188083],[-8.655455,54.188085],[-8.655451,54.187816],[-8.655447,54.187546],[-8.655906,54.187544],[-8.655906,54.18752],[-8.65491,54.187525],[-8.654906,54.18728],[-8.654064,54.187284],[-8.654068,54.187554],[-8.653608,54.187556],[-8.653612,54.187826],[-8.653383,54.187827],[-8.653393,54.188432],[-8.652703,54.188435],[-8.652706,54.188639],[-8.652246,54.188642],[-8.652251,54.188912],[-8.651868,54.188914],[-8.651875,54.189338],[-8.651798,54.189339],[-8.651799,54.189453],[-8.65134,54.189456],[-8.651344,54.189725],[-8.651206,54.189726],[-8.651273,54.189894],[-8.651311,54.189995],[-8.651808,54.189992],[-8.651804,54.189723],[-8.652263,54.18972],[-8.652259,54.189451],[-8.652719,54.189448],[-8.652723,54.189718],[-8.652727,54.189987],[-8.652268,54.18999],[-8.652272,54.190259],[-8.65143,54.190264],[-8.651496,54.190396],[-8.651572,54.190562],[-8.651662,54.190728],[-8.651695,54.190821],[-8.651745,54.190935],[-8.651818,54.191122],[-8.651823,54.191134],[-8.651919,54.191345],[-8.652045,54.19161],[-8.652172,54.191874],[-8.652362,54.19232],[-8.652544,54.192669],[-8.652551,54.192683],[-8.652684,54.192959],[-8.652794,54.1932],[-8.652885,54.193379],[-8.653092,54.193785],[-8.653215,54.194018],[-8.653217,54.194023],[-8.653242,54.194083],[-8.653327,54.194095],[-8.653482,54.194118],[-8.653477,54.193822],[-8.654167,54.193818],[-8.654166,54.193754],[-8.653706,54.193756],[-8.653702,54.193486],[-8.653693,54.192947],[-8.653693,54.192922],[-8.653463,54.192923],[-8.653449,54.192025],[-8.654138,54.192021],[-8.654127,54.191328],[-8.654119,54.190788],[-8.655038,54.190783],[-8.655034,54.190514],[-8.655953,54.190509],[-8.655949,54.190239],[-8.656868,54.190234],[-8.656864,54.189965],[-8.657324,54.189962],[-8.657328,54.190232],[-8.658707,54.190224],[-8.658702,54.189955],[-8.659622,54.18995],[-8.659626,54.190219],[-8.660545,54.190214],[-8.660541,54.189945],[-8.661001,54.189942],[-8.661005,54.190212],[-8.661465,54.190209],[-8.661469,54.190479],[-8.661929,54.190476],[-8.661933,54.190746],[-8.662392,54.190743],[-8.662397,54.191013],[-8.662856,54.19101],[-8.662861,54.19128],[-8.66332,54.191277],[-8.663325,54.191547],[-8.663329,54.191816],[-8.663789,54.191814],[-8.663797,54.192353],[-8.664257,54.19235],[-8.664259,54.192505],[-8.664337,54.192488],[-8.664746,54.192374],[-8.66572,54.192123],[-8.666374,54.19198],[-8.666908,54.191902],[-8.667657,54.191876],[-8.667586,54.191525],[-8.667543,54.191112],[-8.668494,54.190984],[-8.668942,54.190908],[-8.669747,54.190788],[-8.671285,54.19055],[-8.671948,54.190467],[-8.671848,54.190314],[-8.671623,54.190044],[-8.671332,54.189686],[-8.671087,54.18936],[-8.670962,54.189234],[-8.668724,54.189246],[-8.66871,54.188348],[-8.670385,54.188338],[-8.670307,54.18814],[-8.670187,54.187891],[-8.670112,54.187735],[-8.66878,54.187743],[-8.668784,54.188012],[-8.667865,54.188017],[-8.667869,54.188287],[-8.667409,54.188289],[-8.667405,54.18802],[-8.667401,54.18775],[-8.667396,54.187481],[-8.667856,54.187478],[-8.667852,54.187209],[-8.668771,54.187204],[-8.668767,54.186934],[-8.669226,54.186931],[-8.669222,54.186662],[-8.669598,54.18666],[-8.669572,54.186599],[-8.669386,54.186245],[-8.669157,54.185773],[-8.669094,54.18565],[-8.668971,54.185412],[-8.668863,54.185233],[-8.668733,54.185017],[-8.668628,54.184843]],[[-8.654115,54.190519],[-8.654119,54.190788],[-8.653659,54.190791],[-8.653655,54.190521],[-8.654115,54.190519]],[[-8.653651,54.190252],[-8.653655,54.190521],[-8.653195,54.190524],[-8.653191,54.190254],[-8.653651,54.190252]],[[-8.662612,54.190178],[-8.662597,54.18928],[-8.663748,54.189274],[-8.663745,54.189118],[-8.665124,54.189111],[-8.665129,54.18938],[-8.665588,54.189378],[-8.665593,54.189647],[-8.666052,54.189645],[-8.666057,54.189914],[-8.666061,54.190184],[-8.666065,54.190453],[-8.665606,54.190456],[-8.665601,54.190186],[-8.665142,54.190189],[-8.665137,54.189919],[-8.664678,54.189922],[-8.664686,54.190461],[-8.665146,54.190458],[-8.66515,54.190728],[-8.665155,54.190998],[-8.664695,54.191],[-8.664691,54.190731],[-8.663312,54.190738],[-8.663307,54.190469],[-8.663303,54.190174],[-8.662612,54.190178]],[[-8.659141,54.188604],[-8.659132,54.188065],[-8.660051,54.18806],[-8.66006,54.188599],[-8.659141,54.188604]]],[[[-8.66287,54.192834],[-8.663344,54.192736],[-8.663342,54.192625],[-8.663338,54.192355],[-8.663329,54.191816],[-8.66241,54.191821],[-8.662405,54.191552],[-8.661486,54.191557],[-8.661482,54.191287],[-8.661941,54.191285],[-8.661937,54.191015],[-8.661933,54.190746],[-8.660554,54.190753],[-8.66055,54.190484],[-8.66009,54.190486],[-8.660094,54.190756],[-8.658256,54.190766],[-8.658264,54.191305],[-8.656885,54.191313],[-8.656907,54.19266],[-8.656911,54.19293],[-8.65783,54.192925],[-8.657839,54.193464],[-8.657379,54.193466],[-8.657383,54.193736],[-8.657843,54.193733],[-8.657844,54.193798],[-8.659023,54.193791],[-8.659603,54.193658],[-8.659591,54.19289],[-8.660128,54.192887],[-8.66012,54.192373],[-8.661499,54.192366],[-8.661508,54.192905],[-8.661512,54.193174],[-8.661612,54.193174],[-8.661671,54.19316],[-8.662337,54.19298],[-8.66287,54.192834]],[[-8.660111,54.191834],[-8.660107,54.191564],[-8.660567,54.191562],[-8.660571,54.191832],[-8.660111,54.191834]]],[[[-8.649856,54.186212],[-8.649912,54.186336],[-8.64991,54.186228],[-8.65037,54.186226],[-8.650366,54.185956],[-8.650825,54.185954],[-8.650821,54.185684],[-8.650817,54.185415],[-8.650812,54.185145],[-8.650808,54.184876],[-8.64934,54.184884],[-8.649467,54.185154],[-8.649532,54.185326],[-8.649553,54.185383],[-8.64958,54.185455],[-8.649678,54.185757],[-8.649699,54.185819],[-8.649726,54.185889],[-8.649772,54.186009],[-8.649844,54.186182],[-8.649856,54.186212]]],[[[-8.665084,54.186571],[-8.663705,54.186579],[-8.663707,54.186692],[-8.663711,54.186962],[-8.66463,54.186957],[-8.664626,54.186687],[-8.665085,54.186685],[-8.665084,54.186571]]],[[[-8.654972,54.186626],[-8.655432,54.186624],[-8.65543,54.186468],[-8.655889,54.186466],[-8.655885,54.186196],[-8.656345,54.186194],[-8.65634,54.185924],[-8.6568,54.185921],[-8.656796,54.185652],[-8.656791,54.185382],[-8.654953,54.185392],[-8.654957,54.185662],[-8.654498,54.185664],[-8.654502,54.185934],[-8.654961,54.185932],[-8.654966,54.186201],[-8.65497,54.186471],[-8.654972,54.186626]]],[[[-8.655838,54.183231],[-8.655834,54.182961],[-8.654455,54.182969],[-8.654459,54.183238],[-8.654919,54.183236],[-8.654923,54.183506],[-8.655842,54.183501],[-8.655838,54.183231]]],[[[-8.654034,54.185397],[-8.65403,54.185128],[-8.65357,54.18513],[-8.653574,54.1854],[-8.653115,54.185402],[-8.653119,54.185672],[-8.653123,54.185941],[-8.653127,54.186211],[-8.653587,54.186209],[-8.653583,54.185939],[-8.654042,54.185936],[-8.654038,54.185667],[-8.654034,54.185397]]],[[[-8.651732,54.18514],[-8.651736,54.18541],[-8.652195,54.185407],[-8.652191,54.185138],[-8.651732,54.18514]]],[[[-8.65174,54.185679],[-8.651736,54.18541],[-8.651276,54.185412],[-8.651281,54.185682],[-8.65174,54.185679]]]]}}]}
