{"type":"FeatureCollection","features":[{"type":"Feature","properties":{"source_fid":2333955,"county":"Mayo","bog_geom_ha":145.65522284721359,"low15_pct":89.265885256014812,"low15_ha":130.02042409618636,"overlay_ha":129.97781182912885,"area_delta":-0.04261226705750687},"geometry":{"type":"MultiPolygon","coordinates":[[[[-9.82107,54.257225],[-9.821557,54.257756],[-9.821845,54.258071],[-9.821948,54.258192],[-9.82214,54.258414],[-9.822447,54.258752],[-9.822592,54.258911],[-9.823005,54.260231],[-9.8231,54.260533],[-9.823329,54.261107],[-9.823569,54.261679],[-9.823711,54.262035],[-9.823784,54.262219],[-9.823822,54.262389],[-9.823892,54.26247],[-9.824028,54.26256],[-9.824161,54.262651],[-9.82443,54.262833],[-9.824698,54.263018],[-9.824854,54.263119],[-9.825126,54.263297],[-9.825346,54.263442],[-9.825462,54.263533],[-9.825683,54.263739],[-9.82595,54.26403],[-9.826103,54.26424],[-9.82619,54.264354],[-9.826194,54.264358],[-9.826244,54.26442],[-9.826532,54.264538],[-9.826713,54.264612],[-9.827111,54.264849],[-9.827192,54.264882],[-9.827483,54.264684],[-9.827761,54.264489],[-9.82829,54.264155],[-9.828238,54.264156],[-9.828226,54.263886],[-9.827766,54.263893],[-9.827754,54.263624],[-9.827294,54.263631],[-9.827282,54.263362],[-9.827258,54.262823],[-9.826798,54.26283],[-9.826774,54.262291],[-9.825854,54.262305],[-9.825842,54.262035],[-9.824921,54.262049],[-9.824909,54.26178],[-9.824449,54.261787],[-9.824437,54.261517],[-9.823977,54.261524],[-9.823953,54.260985],[-9.823941,54.260716],[-9.824862,54.260702],[-9.824874,54.260972],[-9.825794,54.260958],[-9.825782,54.260688],[-9.826242,54.260681],[-9.826231,54.260412],[-9.826207,54.259873],[-9.826195,54.259603],[-9.825735,54.25961],[-9.825711,54.259072],[-9.82479,54.259086],[-9.824767,54.258547],[-9.824306,54.258554],[-9.824294,54.258284],[-9.823834,54.258291],[-9.823822,54.258022],[-9.82381,54.257752],[-9.82335,54.257759],[-9.823338,54.25749],[-9.823799,54.257483],[-9.823787,54.257213],[-9.823775,54.256944],[-9.822854,54.256958],[-9.822843,54.256689],[-9.823303,54.256682],[-9.823291,54.256412],[-9.823751,54.256405],[-9.823763,54.256675],[-9.824223,54.256668],[-9.824235,54.256937],[-9.825155,54.256923],[-9.825167,54.257193],[-9.825627,54.257186],[-9.825639,54.257455],[-9.8261,54.257448],[-9.826111,54.257717],[-9.826123,54.257987],[-9.826584,54.25798],[-9.826595,54.258249],[-9.826607,54.258519],[-9.827068,54.258512],[-9.827091,54.259051],[-9.827552,54.259044],[-9.827575,54.259583],[-9.828956,54.259562],[-9.828968,54.259831],[-9.829428,54.259824],[-9.829452,54.260363],[-9.828992,54.26037],[-9.829004,54.260639],[-9.829016,54.260909],[-9.829476,54.260902],[-9.8295,54.261441],[-9.82996,54.261434],[-9.829972,54.261703],[-9.829984,54.261973],[-9.829996,54.262242],[-9.828615,54.262263],[-9.828639,54.262802],[-9.828663,54.263341],[-9.829123,54.263334],[-9.829135,54.263603],[-9.829142,54.263603],[-9.829271,54.263516],[-9.829731,54.263239],[-9.830159,54.262992],[-9.830492,54.2628],[-9.830837,54.262553],[-9.830928,54.262499],[-9.830928,54.262497],[-9.830468,54.262504],[-9.830456,54.262235],[-9.831354,54.262221],[-9.831361,54.262214],[-9.831376,54.262206],[-9.831364,54.261952],[-9.831353,54.261682],[-9.831813,54.261675],[-9.831801,54.261406],[-9.831789,54.261136],[-9.831777,54.260867],[-9.832697,54.260853],[-9.832685,54.260583],[-9.833606,54.260569],[-9.833609,54.260635],[-9.833686,54.260579],[-9.833771,54.26052],[-9.833843,54.260481],[-9.833878,54.260465],[-9.833917,54.260436],[-9.833954,54.260427],[-9.833977,54.260347],[-9.834045,54.260295],[-9.834109,54.260258],[-9.834185,54.260257],[-9.834267,54.260182],[-9.834365,54.260108],[-9.834485,54.260035],[-9.834563,54.260001],[-9.834628,54.259957],[-9.834702,54.259899],[-9.834804,54.25985],[-9.834858,54.259794],[-9.834921,54.259695],[-9.834957,54.259661],[-9.835024,54.259639],[-9.835139,54.25961],[-9.835165,54.259589],[-9.83512,54.259464],[-9.835146,54.259375],[-9.835243,54.259268],[-9.83541,54.259067],[-9.835491,54.258938],[-9.835674,54.258747],[-9.8359,54.258587],[-9.83602,54.258518],[-9.836061,54.25849],[-9.836238,54.258406],[-9.836368,54.257926],[-9.836551,54.257842],[-9.836502,54.257781],[-9.8365,54.25768],[-9.836487,54.257533],[-9.836459,54.257404],[-9.836459,54.257357],[-9.836445,54.257344],[-9.836354,54.257147],[-9.836299,54.257029],[-9.836085,54.256612],[-9.83586,54.256325],[-9.835596,54.255995],[-9.835127,54.255312],[-9.835044,54.255285],[-9.834804,54.255321],[-9.834803,54.255303],[-9.834802,54.255294],[-9.834637,54.255215],[-9.834385,54.255081],[-9.834682,54.254999],[-9.834903,54.254947],[-9.834863,54.254906],[-9.834777,54.254828],[-9.834554,54.254468],[-9.834395,54.254186],[-9.834315,54.254086],[-9.8343,54.254055],[-9.834143,54.25379],[-9.834062,54.253676],[-9.834022,54.253648],[-9.833838,54.253347],[-9.833763,54.25328],[-9.833696,54.253221],[-9.833684,54.253221],[-9.833086,54.25319],[-9.832679,54.253171],[-9.832274,54.253131],[-9.832157,54.25312],[-9.831951,54.253034],[-9.831537,54.252834],[-9.831179,54.252668],[-9.831011,54.252576],[-9.830719,54.252423],[-9.83014,54.252115],[-9.830019,54.252058],[-9.830381,54.251995],[-9.830822,54.251927],[-9.831715,54.251796],[-9.832268,54.25171],[-9.832757,54.25163],[-9.832825,54.251644],[-9.832985,54.25167],[-9.833098,54.251695],[-9.833267,54.251733],[-9.833689,54.251795],[-9.833853,54.251633],[-9.83404,54.25145],[-9.834238,54.251278],[-9.833044,54.249883],[-9.833038,54.249877],[-9.833001,54.249834],[-9.832979,54.249808],[-9.832898,54.249799],[-9.832436,54.249743],[-9.832227,54.249718],[-9.831709,54.249651],[-9.831462,54.249624],[-9.83127,54.249603],[-9.831117,54.249586],[-9.830426,54.249502],[-9.830252,54.249481],[-9.829719,54.249412],[-9.829019,54.249323],[-9.828989,54.249319],[-9.828744,54.24928],[-9.82863,54.249262],[-9.828286,54.249207],[-9.827725,54.249144],[-9.827427,54.249078],[-9.827386,54.249065],[-9.827297,54.249036],[-9.827253,54.249008],[-9.827206,54.248939],[-9.827155,54.248835],[-9.827149,54.248824],[-9.827093,54.248533],[-9.827092,54.248489],[-9.827066,54.248381],[-9.827055,54.24825],[-9.827045,54.248118],[-9.827045,54.248061],[-9.827045,54.247927],[-9.827082,54.247744],[-9.827124,54.247627],[-9.827248,54.24739],[-9.827215,54.247367],[-9.827156,54.247362],[-9.82705,54.247385],[-9.826958,54.247416],[-9.826944,54.247417],[-9.826922,54.247412],[-9.826911,54.247402],[-9.826887,54.247387],[-9.826839,54.247356],[-9.826828,54.247348],[-9.826746,54.247359],[-9.826727,54.247373],[-9.826695,54.247407],[-9.826664,54.24742],[-9.826618,54.247423],[-9.826559,54.247399],[-9.826543,54.247389],[-9.826496,54.247385],[-9.826327,54.247403],[-9.82628,54.247409],[-9.826166,54.247425],[-9.826031,54.247442],[-9.825787,54.247498],[-9.825668,54.247547],[-9.825651,54.247554],[-9.825618,54.247579],[-9.825565,54.24761],[-9.8255,54.247621],[-9.825462,54.247622],[-9.825434,54.247607],[-9.82538,54.247551],[-9.825352,54.247536],[-9.825325,54.247537],[-9.825112,54.247658],[-9.825063,54.247684],[-9.82499,54.247695],[-9.824975,54.247699],[-9.824682,54.247784],[-9.824616,54.247788],[-9.824556,54.247771],[-9.824515,54.247767],[-9.824374,54.247812],[-9.824304,54.247835],[-9.824144,54.247922],[-9.823906,54.247984],[-9.823263,54.247844],[-9.822869,54.247855],[-9.822625,54.248053],[-9.822271,54.248275],[-9.821875,54.248513],[-9.821786,54.24856],[-9.821678,54.248628],[-9.821504,54.248707],[-9.821155,54.248876],[-9.820838,54.249065],[-9.820567,54.249179],[-9.820014,54.249424],[-9.81961,54.24962],[-9.819144,54.249842],[-9.818871,54.249977],[-9.818613,54.250102],[-9.818408,54.250201],[-9.817693,54.250558],[-9.817302,54.250767],[-9.817162,54.250837],[-9.817066,54.250825],[-9.816838,54.250785],[-9.816573,54.25073],[-9.816277,54.250668],[-9.816172,54.250664],[-9.816081,54.250672],[-9.815981,54.250643],[-9.815865,54.250602],[-9.815666,54.250537],[-9.815514,54.250515],[-9.815355,54.250517],[-9.815212,54.250515],[-9.815489,54.250877],[-9.815799,54.251232],[-9.815917,54.251366],[-9.816103,54.251577],[-9.816343,54.251867],[-9.816574,54.25214],[-9.816669,54.252253],[-9.816862,54.252482],[-9.817054,54.252747],[-9.817281,54.253065],[-9.817327,54.253124],[-9.817366,54.253173],[-9.817532,54.253383],[-9.817732,54.253605],[-9.817995,54.253887],[-9.818232,54.254142],[-9.818678,54.254613],[-9.818709,54.254645],[-9.818749,54.25469],[-9.818753,54.254693],[-9.818815,54.254749],[-9.818826,54.254758],[-9.818833,54.254765],[-9.81891,54.254857],[-9.81911,54.255073],[-9.819707,54.255714],[-9.820014,54.256057],[-9.820379,54.256465],[-9.820422,54.256513],[-9.82107,54.257225]]]]}}]}
