{"type":"FeatureCollection","features":[{"type":"Feature","properties":{"source_fid":2333784,"county":"Mayo","bog_geom_ha":249.12250930459527,"low15_pct":100.0,"low15_ha":249.12250930459527,"overlay_ha":249.12204193224684,"area_delta":-0.0004673723484245329},"geometry":{"type":"MultiPolygon","coordinates":[[[[-9.753195,54.262317],[-9.753336,54.261681],[-9.753346,54.261477],[-9.753289,54.261428],[-9.753311,54.261302],[-9.753426,54.261264],[-9.753485,54.261004],[-9.753157,54.261009],[-9.753134,54.261037],[-9.752894,54.261249],[-9.75288,54.261302],[-9.752875,54.261334],[-9.753054,54.261618],[-9.753026,54.26174],[-9.752646,54.262205],[-9.752608,54.262251],[-9.751112,54.262075],[-9.750779,54.26178],[-9.750639,54.261723],[-9.750649,54.261852],[-9.750623,54.261978],[-9.750555,54.262144],[-9.750404,54.262326],[-9.75036,54.262371],[-9.750365,54.262395],[-9.750248,54.262582],[-9.750038,54.262967],[-9.75002,54.262998],[-9.749926,54.26317],[-9.74981,54.263422],[-9.749684,54.263749],[-9.749663,54.26381],[-9.749545,54.264155],[-9.749476,54.264446],[-9.752972,54.264558],[-9.753508,54.262332],[-9.754216,54.262412],[-9.754183,54.262398],[-9.753703,54.262338],[-9.753195,54.262317]]],[[[-9.749927,54.26782],[-9.749949,54.267956],[-9.750103,54.268115],[-9.750568,54.268444],[-9.750853,54.2686],[-9.750895,54.268619],[-9.751139,54.268732],[-9.751185,54.268675],[-9.751001,54.268612],[-9.750793,54.268503],[-9.750501,54.26833],[-9.750036,54.267938],[-9.749927,54.26782]]],[[[-9.79841,54.282363],[-9.798423,54.282346],[-9.798581,54.282147],[-9.798668,54.282038],[-9.7987,54.281997],[-9.798718,54.281972],[-9.798752,54.281926],[-9.798751,54.281901],[-9.798778,54.2819],[-9.79878,54.281899],[-9.798935,54.281696],[-9.799097,54.28148],[-9.799303,54.281223],[-9.799332,54.281189],[-9.798941,54.28098],[-9.798709,54.28088],[-9.798662,54.28086],[-9.798109,54.280633],[-9.79808,54.280622],[-9.797807,54.280514],[-9.797402,54.280355],[-9.797219,54.280283],[-9.797026,54.280204],[-9.796854,54.280135],[-9.796596,54.279887],[-9.79646,54.279793],[-9.796445,54.279782],[-9.796308,54.279653],[-9.796181,54.279514],[-9.796023,54.279341],[-9.79597,54.279283],[-9.795882,54.279161],[-9.795715,54.278931],[-9.795569,54.27873],[-9.795192,54.27836],[-9.793991,54.278378],[-9.793969,54.277864],[-9.793952,54.27786],[-9.793898,54.277919],[-9.793856,54.277965],[-9.793446,54.278507],[-9.79296,54.278395],[-9.79278,54.278332],[-9.792717,54.2783],[-9.792255,54.278168],[-9.792003,54.278094],[-9.792095,54.277985],[-9.791734,54.277919],[-9.791686,54.277981],[-9.791564,54.278145],[-9.791249,54.278429],[-9.791006,54.279047],[-9.790889,54.279049],[-9.790786,54.279187],[-9.79054,54.279151],[-9.790257,54.27911],[-9.790558,54.278271],[-9.790688,54.277975],[-9.790986,54.277576],[-9.791031,54.277469],[-9.791309,54.277116],[-9.79137,54.277112],[-9.791692,54.277176],[-9.791724,54.277077],[-9.792044,54.276392],[-9.7921,54.276286],[-9.792171,54.276171],[-9.792204,54.276134],[-9.792236,54.276095],[-9.79226,54.276066],[-9.792177,54.276033],[-9.792154,54.276063],[-9.792125,54.276105],[-9.792026,54.27626],[-9.791923,54.276448],[-9.791875,54.276523],[-9.791716,54.276801],[-9.791589,54.277032],[-9.791283,54.276916],[-9.791212,54.276889],[-9.791177,54.276863],[-9.791059,54.276815],[-9.790899,54.276749],[-9.790479,54.276593],[-9.790214,54.276491],[-9.790152,54.276569],[-9.790127,54.276671],[-9.790108,54.276774],[-9.7901,54.276828],[-9.790073,54.276851],[-9.78995,54.27703],[-9.789821,54.277211],[-9.789724,54.277305],[-9.789668,54.277334],[-9.7895,54.277421],[-9.788919,54.2773],[-9.788394,54.277198],[-9.788041,54.277121],[-9.788044,54.277108],[-9.788177,54.27694],[-9.78841,54.276687],[-9.788603,54.276477],[-9.788605,54.276475],[-9.788734,54.276332],[-9.788848,54.276223],[-9.788927,54.276178],[-9.789059,54.276073],[-9.788697,54.27597],[-9.788396,54.275865],[-9.788134,54.275775],[-9.787945,54.275683],[-9.787667,54.275554],[-9.787473,54.27546],[-9.787285,54.275369],[-9.787026,54.275238],[-9.786966,54.275208],[-9.786648,54.275061],[-9.78646,54.274955],[-9.785966,54.274731],[-9.785963,54.274729],[-9.785691,54.274596],[-9.785325,54.274424],[-9.785045,54.274287],[-9.784812,54.274175],[-9.784779,54.274158],[-9.784756,54.274146],[-9.784344,54.273939],[-9.783837,54.273695],[-9.783582,54.273578],[-9.783581,54.273547],[-9.782936,54.273251],[-9.782844,54.273244],[-9.782501,54.273082],[-9.78208,54.272901],[-9.781376,54.272599],[-9.780998,54.272438],[-9.780645,54.272257],[-9.780484,54.272206],[-9.780263,54.272133],[-9.779893,54.271981],[-9.779741,54.27192],[-9.779644,54.271849],[-9.779638,54.271853],[-9.779476,54.271792],[-9.77938,54.271834],[-9.77904,54.271719],[-9.778858,54.271665],[-9.778746,54.271631],[-9.778842,54.271465],[-9.778681,54.271463],[-9.77845,54.271502],[-9.778295,54.271523],[-9.778181,54.271535],[-9.777723,54.271608],[-9.777424,54.271615],[-9.777159,54.271615],[-9.776716,54.271579],[-9.776341,54.271544],[-9.775947,54.271498],[-9.775718,54.271467],[-9.77556,54.271448],[-9.775467,54.271433],[-9.775425,54.271422],[-9.773193,54.270837],[-9.772399,54.270642],[-9.772028,54.270551],[-9.771555,54.270381],[-9.771487,54.270454],[-9.771198,54.270505],[-9.771153,54.270582],[-9.770978,54.270849],[-9.770951,54.27089],[-9.770731,54.271117],[-9.770339,54.271512],[-9.77006,54.271771],[-9.769444,54.271563],[-9.769185,54.271478],[-9.768761,54.271339],[-9.768142,54.27113],[-9.76783,54.271028],[-9.767251,54.270832],[-9.767014,54.270753],[-9.766778,54.270465],[-9.766653,54.270312],[-9.765939,54.269308],[-9.765729,54.269305],[-9.765513,54.269249],[-9.765122,54.269146],[-9.765001,54.269117],[-9.764283,54.268932],[-9.763976,54.268831],[-9.762806,54.268323],[-9.762333,54.268124],[-9.76189,54.267927],[-9.76133,54.267681],[-9.761538,54.267506],[-9.761784,54.267305],[-9.762095,54.267057],[-9.762344,54.26685],[-9.762632,54.2666],[-9.762892,54.266389],[-9.763234,54.2661],[-9.763273,54.266079],[-9.763302,54.266064],[-9.763336,54.266046],[-9.763698,54.265761],[-9.76357,54.265656],[-9.7639,54.26553],[-9.763858,54.265523],[-9.763623,54.265501],[-9.763423,54.265351],[-9.762728,54.265361],[-9.762709,54.264916],[-9.762356,54.264693],[-9.762255,54.264611],[-9.762038,54.264473],[-9.761155,54.264486],[-9.761131,54.263907],[-9.760867,54.263746],[-9.760616,54.263595],[-9.759583,54.26361],[-9.759559,54.263038],[-9.759282,54.262877],[-9.759013,54.26272],[-9.758011,54.262735],[-9.757982,54.262055],[-9.757876,54.261987],[-9.757643,54.261842],[-9.757336,54.261846],[-9.756647,54.262185],[-9.755916,54.262349],[-9.755654,54.262408],[-9.755447,54.262469],[-9.755282,54.262517],[-9.754993,54.262517],[-9.755488,54.262592],[-9.756351,54.262853],[-9.758009,54.263631],[-9.760065,54.26469],[-9.762046,54.26576],[-9.76275,54.266137],[-9.761903,54.266807],[-9.760605,54.267942],[-9.762379,54.268367],[-9.762942,54.268581],[-9.763522,54.268812],[-9.765207,54.269346],[-9.765522,54.269257],[-9.765646,54.269395],[-9.765772,54.269462],[-9.765782,54.269557],[-9.765831,54.269658],[-9.765951,54.269827],[-9.766148,54.270104],[-9.76634,54.270387],[-9.76659,54.270728],[-9.766358,54.27081],[-9.766232,54.270897],[-9.7662,54.270972],[-9.766083,54.271205],[-9.766009,54.271404],[-9.765973,54.271533],[-9.765942,54.271586],[-9.765917,54.271661],[-9.76587,54.271744],[-9.765814,54.27187],[-9.765756,54.271976],[-9.765709,54.272042],[-9.765645,54.272132],[-9.765537,54.272242],[-9.765416,54.272425],[-9.765349,54.27257],[-9.765299,54.272712],[-9.765281,54.272813],[-9.76524,54.272912],[-9.765361,54.272976],[-9.76515,54.273296],[-9.764944,54.273585],[-9.764618,54.273984],[-9.764362,54.274302],[-9.764043,54.274704],[-9.763566,54.275245],[-9.763453,54.275375],[-9.763282,54.275571],[-9.763089,54.275781],[-9.762992,54.275874],[-9.762869,54.27603],[-9.762797,54.276108],[-9.762933,54.276142],[-9.762933,54.276155],[-9.763104,54.276193],[-9.763215,54.276178],[-9.763255,54.276142],[-9.763317,54.276134],[-9.763427,54.276132],[-9.763478,54.276163],[-9.763602,54.276204],[-9.763652,54.27622],[-9.76376,54.276226],[-9.763806,54.27628],[-9.763848,54.276381],[-9.764065,54.276505],[-9.764051,54.276652],[-9.764003,54.277126],[-9.76418,54.277413],[-9.764352,54.277451],[-9.765295,54.277328],[-9.76528,54.277844],[-9.765451,54.27835],[-9.765342,54.278682],[-9.765084,54.278941],[-9.765595,54.279053],[-9.765634,54.279061],[-9.765935,54.279125],[-9.766583,54.279261],[-9.767679,54.279491],[-9.767656,54.279517],[-9.767559,54.279632],[-9.767469,54.279753],[-9.767368,54.2799],[-9.767315,54.280002],[-9.767296,54.280066],[-9.767267,54.280162],[-9.767239,54.280224],[-9.767194,54.280384],[-9.767195,54.280547],[-9.767195,54.280562],[-9.767213,54.280641],[-9.7672,54.28073],[-9.767172,54.280816],[-9.767097,54.280945],[-9.766996,54.281053],[-9.766959,54.281082],[-9.766878,54.281145],[-9.766791,54.281249],[-9.766784,54.281257],[-9.766488,54.281503],[-9.766525,54.282377],[-9.769594,54.282332],[-9.772663,54.282287],[-9.772702,54.283185],[-9.777306,54.283117],[-9.780375,54.283072],[-9.780414,54.28397],[-9.783483,54.283925],[-9.783522,54.284823],[-9.783669,54.28482],[-9.78382,54.284736],[-9.784171,54.284529],[-9.784316,54.284598],[-9.784924,54.284757],[-9.785167,54.284608],[-9.785368,54.284671],[-9.785912,54.28477],[-9.786609,54.284879],[-9.786751,54.284878],[-9.787155,54.284898],[-9.787522,54.284691],[-9.787936,54.284457],[-9.787949,54.284474],[-9.788211,54.284624],[-9.788386,54.284746],[-9.788467,54.284782],[-9.788554,54.284843],[-9.788717,54.284949],[-9.788952,54.285119],[-9.789151,54.285241],[-9.789489,54.285469],[-9.789656,54.285579],[-9.789798,54.285666],[-9.790123,54.285872],[-9.790148,54.285896],[-9.790193,54.285938],[-9.790467,54.286116],[-9.790674,54.286259],[-9.790856,54.286365],[-9.791002,54.286315],[-9.791034,54.286304],[-9.791419,54.286041],[-9.792336,54.28639],[-9.793225,54.286731],[-9.793635,54.286862],[-9.793837,54.286933],[-9.79394,54.28697],[-9.794254,54.287088],[-9.794277,54.287118],[-9.794514,54.286935],[-9.794522,54.286928],[-9.79448,54.28691],[-9.794059,54.286769],[-9.79394,54.286729],[-9.794367,54.286404],[-9.794725,54.286132],[-9.794757,54.286108],[-9.794616,54.286041],[-9.795118,54.285652],[-9.796061,54.285802],[-9.796304,54.285637],[-9.796387,54.285581],[-9.796336,54.285564],[-9.795691,54.285366],[-9.795616,54.285344],[-9.794822,54.285112],[-9.793723,54.2848],[-9.79392,54.284529],[-9.793975,54.284501],[-9.793672,54.284434],[-9.79371,54.284357],[-9.793715,54.28435],[-9.793875,54.284001],[-9.793892,54.283966],[-9.793958,54.28383],[-9.794011,54.283738],[-9.794541,54.28382],[-9.795301,54.283952],[-9.796117,54.283991],[-9.79704,54.284104],[-9.797049,54.284105],[-9.797113,54.284114],[-9.797214,54.283964],[-9.797475,54.283642],[-9.797568,54.28352],[-9.797574,54.283512],[-9.797615,54.283458],[-9.797752,54.283259],[-9.79775,54.283217],[-9.797781,54.283217],[-9.797915,54.283021],[-9.798098,54.282785],[-9.798128,54.282747],[-9.79841,54.282363]],[[-9.790141,54.283716],[-9.790572,54.283798],[-9.790416,54.284052],[-9.790156,54.283996],[-9.789986,54.28396],[-9.790141,54.283716]]]]}}]}
