{"type":"FeatureCollection","features":[{"type":"Feature","properties":{"source_fid":2333904,"county":"Mayo","bog_geom_ha":196.83850743109875,"low15_pct":100.0,"low15_ha":196.83850743109875,"overlay_ha":196.83850743109875,"area_delta":0.0},"geometry":{"type":"MultiPolygon","coordinates":[[[[-9.689313,54.244065],[-9.689354,54.244066],[-9.689462,54.244064],[-9.689313,54.244065]]],[[[-9.680618,54.24638],[-9.680768,54.246587],[-9.680888,54.246762],[-9.680972,54.246888],[-9.681266,54.247325],[-9.681443,54.247302],[-9.681373,54.247202],[-9.681327,54.247123],[-9.681273,54.247034],[-9.681225,54.246969],[-9.6811,54.246766],[-9.681004,54.246633],[-9.680939,54.246504],[-9.680871,54.246427],[-9.680841,54.246373],[-9.68078,54.246263],[-9.680696,54.246154],[-9.680645,54.246071],[-9.680597,54.245996],[-9.680556,54.245932],[-9.68049,54.245825],[-9.680424,54.24574],[-9.680355,54.245632],[-9.680294,54.245529],[-9.680261,54.245485],[-9.680178,54.24536],[-9.680153,54.245321],[-9.680115,54.245273],[-9.680057,54.245191],[-9.679995,54.245086],[-9.679942,54.245016],[-9.679879,54.244918],[-9.679825,54.244842],[-9.679779,54.244763],[-9.679706,54.24466],[-9.67967,54.244598],[-9.679634,54.244549],[-9.679619,54.244529],[-9.679481,54.244343],[-9.679703,54.24436],[-9.679797,54.244381],[-9.680021,54.244429],[-9.680248,54.24449],[-9.680425,54.244517],[-9.680582,54.244515],[-9.680773,54.244508],[-9.681665,54.244454],[-9.68169,54.244378],[-9.681736,54.244098],[-9.681415,54.244101],[-9.681052,54.244104],[-9.680536,54.244107],[-9.680111,54.244109],[-9.679825,54.24411],[-9.679241,54.244111],[-9.679115,54.244109],[-9.679066,54.244111],[-9.679082,54.244152],[-9.679157,54.24426],[-9.679347,54.244522],[-9.679482,54.244734],[-9.68008,54.2456],[-9.680294,54.245913],[-9.680356,54.246004],[-9.680586,54.246335],[-9.680618,54.24638]]],[[[-9.719208,54.252336],[-9.719216,54.252512],[-9.719371,54.25251],[-9.719279,54.252417],[-9.719208,54.252336]]],[[[-9.707278,54.246393],[-9.706694,54.246894],[-9.706333,54.247215],[-9.704228,54.246436],[-9.703621,54.246444],[-9.703584,54.245546],[-9.701893,54.24557],[-9.701818,54.245603],[-9.701743,54.24561],[-9.701658,54.24566],[-9.701589,54.245771],[-9.701603,54.245826],[-9.701673,54.245962],[-9.701657,54.245992],[-9.701575,54.246046],[-9.701514,54.246188],[-9.701515,54.246293],[-9.701457,54.246406],[-9.701345,54.246446],[-9.701215,54.246429],[-9.701059,54.246416],[-9.701035,54.246421],[-9.700992,54.246462],[-9.701013,54.246565],[-9.700919,54.246595],[-9.700819,54.24662],[-9.700737,54.246679],[-9.700729,54.246687],[-9.700639,54.24683],[-9.700562,54.246914],[-9.700508,54.246963],[-9.700473,54.247002],[-9.700446,54.247018],[-9.700446,54.247018],[-9.700394,54.247061],[-9.700303,54.247133],[-9.700312,54.247171],[-9.700602,54.247592],[-9.700871,54.247986],[-9.701312,54.248615],[-9.701347,54.248631],[-9.70118,54.248759],[-9.700728,54.24809],[-9.700072,54.24714],[-9.699794,54.246703],[-9.698882,54.245386],[-9.698016,54.244136],[-9.69806,54.244119],[-9.698003,54.244039],[-9.697913,54.244035],[-9.696501,54.244032],[-9.695843,54.24403],[-9.694691,54.244044],[-9.69382,54.244044],[-9.693149,54.244048],[-9.690982,54.24405],[-9.690276,54.244056],[-9.68986,54.244061],[-9.690132,54.244061],[-9.690643,54.244062],[-9.690832,54.244065],[-9.691247,54.244063],[-9.691629,54.244066],[-9.692049,54.244064],[-9.692463,54.244065],[-9.692835,54.244065],[-9.693062,54.244068],[-9.693399,54.244066],[-9.693663,54.244072],[-9.693981,54.244075],[-9.694303,54.244077],[-9.694654,54.244076],[-9.695149,54.244776],[-9.69604,54.246061],[-9.696935,54.247354],[-9.697198,54.247768],[-9.697228,54.247814],[-9.69788,54.248757],[-9.698309,54.249394],[-9.698344,54.249448],[-9.69843,54.249578],[-9.698443,54.249597],[-9.698488,54.249662],[-9.698517,54.249711],[-9.698601,54.249834],[-9.698615,54.249854],[-9.698639,54.249895],[-9.698672,54.249953],[-9.698734,54.250055],[-9.698808,54.250165],[-9.698865,54.250253],[-9.698881,54.250278],[-9.698947,54.250377],[-9.698969,54.250413],[-9.698996,54.250457],[-9.699039,54.250522],[-9.699098,54.250618],[-9.699226,54.250796],[-9.699309,54.250896],[-9.699457,54.251053],[-9.699542,54.251133],[-9.700099,54.251523],[-9.700124,54.251537],[-9.700151,54.251552],[-9.700271,54.25162],[-9.700325,54.251648],[-9.700613,54.251783],[-9.700764,54.251846],[-9.700879,54.251891],[-9.701058,54.251959],[-9.701079,54.251966],[-9.701237,54.252024],[-9.701258,54.252032],[-9.701409,54.252087],[-9.701507,54.252124],[-9.701649,54.252174],[-9.701801,54.252225],[-9.701992,54.252283],[-9.702129,54.252322],[-9.702316,54.25237],[-9.702506,54.252415],[-9.702592,54.252434],[-9.702704,54.252458],[-9.702891,54.2525],[-9.702987,54.252521],[-9.703133,54.252551],[-9.703228,54.252572],[-9.703416,54.252615],[-9.703466,54.252626],[-9.70363,54.252661],[-9.703964,54.252721],[-9.704002,54.252729],[-9.704055,54.252739],[-9.704153,54.252757],[-9.704359,54.252799],[-9.704421,54.252811],[-9.704572,54.25284],[-9.7047,54.252862],[-9.704857,54.252887],[-9.70495,54.252903],[-9.705088,54.252927],[-9.705271,54.252959],[-9.705303,54.252964],[-9.705505,54.252997],[-9.705692,54.253034],[-9.705916,54.25306],[-9.705956,54.253067],[-9.706072,54.253096],[-9.706219,54.253131],[-9.706449,54.253182],[-9.706786,54.25326],[-9.706816,54.253267],[-9.70705,54.253319],[-9.707132,54.253337],[-9.707191,54.253353],[-9.707336,54.253393],[-9.707548,54.253447],[-9.707676,54.253478],[-9.70794,54.253537],[-9.708011,54.253554],[-9.708163,54.253594],[-9.708376,54.253645],[-9.708465,54.253664],[-9.708491,54.25367],[-9.708513,54.253677],[-9.7088,54.253748],[-9.708843,54.253757],[-9.709007,54.253799],[-9.70937,54.253884],[-9.709524,54.25392],[-9.709551,54.253927],[-9.709654,54.253956],[-9.709782,54.253991],[-9.709892,54.254019],[-9.710015,54.254049],[-9.710108,54.254073],[-9.710236,54.254109],[-9.71033,54.254138],[-9.710412,54.254162],[-9.710595,54.254214],[-9.710682,54.25424],[-9.710722,54.254255],[-9.710836,54.254294],[-9.711012,54.254352],[-9.711172,54.254408],[-9.711324,54.254462],[-9.711381,54.254482],[-9.711482,54.254516],[-9.711588,54.254558],[-9.711644,54.254579],[-9.711914,54.254681],[-9.71198,54.254705],[-9.712179,54.254775],[-9.71232,54.254829],[-9.712609,54.254939],[-9.712652,54.254955],[-9.712964,54.255069],[-9.713273,54.255185],[-9.713451,54.255254],[-9.713655,54.255334],[-9.71369,54.255348],[-9.713736,54.255368],[-9.713814,54.255402],[-9.713992,54.255476],[-9.714017,54.255487],[-9.714131,54.255534],[-9.71425,54.255585],[-9.714336,54.255623],[-9.714414,54.255659],[-9.714475,54.255687],[-9.714697,54.255786],[-9.714759,54.255814],[-9.71485,54.255852],[-9.71493,54.25589],[-9.714969,54.255908],[-9.714999,54.255923],[-9.715177,54.256007],[-9.715199,54.256016],[-9.715229,54.256031],[-9.715379,54.256114],[-9.715563,54.256217],[-9.715689,54.256294],[-9.715745,54.256327],[-9.716001,54.256475],[-9.716154,54.256565],[-9.716176,54.25658],[-9.716306,54.256669],[-9.716349,54.256697],[-9.716419,54.256754],[-9.716563,54.256862],[-9.71667,54.256936],[-9.716726,54.256978],[-9.716837,54.257071],[-9.71694,54.25716],[-9.717095,54.257299],[-9.717201,54.257388],[-9.717278,54.257449],[-9.717382,54.25754],[-9.7174,54.257556],[-9.717497,54.257639],[-9.717572,54.257705],[-9.717592,54.257723],[-9.717699,54.257814],[-9.71772,54.257831],[-9.717907,54.257987],[-9.718015,54.258084],[-9.718131,54.258188],[-9.718193,54.258252],[-9.718276,54.258332],[-9.71835,54.2584],[-9.718444,54.258486],[-9.718544,54.258578],[-9.718621,54.258651],[-9.718664,54.258692],[-9.718744,54.258764],[-9.718817,54.258836],[-9.718835,54.258854],[-9.71896,54.258974],[-9.71904,54.259051],[-9.719149,54.259158],[-9.719192,54.2592],[-9.719211,54.259218],[-9.719228,54.259239],[-9.719251,54.259292],[-9.719275,54.259359],[-9.719294,54.259409],[-9.719315,54.259486],[-9.719352,54.25961],[-9.719363,54.259648],[-9.719404,54.259772],[-9.719421,54.259836],[-9.719431,54.259988],[-9.719431,54.260225],[-9.719432,54.260356],[-9.719429,54.260423],[-9.719419,54.260493],[-9.719388,54.260584],[-9.719371,54.260639],[-9.719347,54.260692],[-9.719226,54.260883],[-9.719167,54.260985],[-9.719111,54.261092],[-9.719031,54.26123],[-9.718925,54.261391],[-9.718908,54.261418],[-9.718814,54.261569],[-9.718691,54.261822],[-9.718626,54.262007],[-9.718621,54.262021],[-9.718562,54.262197],[-9.718537,54.262279],[-9.718487,54.262474],[-9.718449,54.262581],[-9.718403,54.262758],[-9.718384,54.262871],[-9.718335,54.263047],[-9.718313,54.26314],[-9.718289,54.263265],[-9.718259,54.26341],[-9.718244,54.263509],[-9.718228,54.263655],[-9.718207,54.263782],[-9.718193,54.263958],[-9.718194,54.264084],[-9.718193,54.264192],[-9.71819,54.264284],[-9.718194,54.264417],[-9.71821,54.264583],[-9.718225,54.264765],[-9.718227,54.264791],[-9.718243,54.264941],[-9.718259,54.265098],[-9.718278,54.265304],[-9.718287,54.265403],[-9.718292,54.265448],[-9.718299,54.265506],[-9.718303,54.265589],[-9.718305,54.265624],[-9.718316,54.265768],[-9.718326,54.265856],[-9.718328,54.265868],[-9.718968,54.265957],[-9.719697,54.266058],[-9.71996,54.2661],[-9.720266,54.266142],[-9.720705,54.266212],[-9.720941,54.266254],[-9.721224,54.266304],[-9.721259,54.266306],[-9.721406,54.266363],[-9.72165,54.266395],[-9.722355,54.266513],[-9.722694,54.266588],[-9.722873,54.26664],[-9.722844,54.265938],[-9.724372,54.265916],[-9.724378,54.265911],[-9.724341,54.265018],[-9.725875,54.264996],[-9.725762,54.262302],[-9.727078,54.262283],[-9.727221,54.262175],[-9.72729,54.262129],[-9.727258,54.261382],[-9.730326,54.261338],[-9.730289,54.26044],[-9.731822,54.260418],[-9.731747,54.258622],[-9.730213,54.258644],[-9.730138,54.256849],[-9.728604,54.256871],[-9.728529,54.255075],[-9.726972,54.255097],[-9.726914,54.255109],[-9.726473,54.255162],[-9.72535,54.25512],[-9.723929,54.255141],[-9.722395,54.255162],[-9.722376,54.254714],[-9.722341,54.254701],[-9.722062,54.254598],[-9.721782,54.25449],[-9.7216,54.254396],[-9.721391,54.254279],[-9.72139,54.254278],[-9.720824,54.254286],[-9.720804,54.253815],[-9.720702,54.25373],[-9.720596,54.25364],[-9.720458,54.25352],[-9.720328,54.253402],[-9.720321,54.253395],[-9.719253,54.25341],[-9.719216,54.252512],[-9.717682,54.252534],[-9.717645,54.251636],[-9.719094,54.251616],[-9.719096,54.251612],[-9.719125,54.251579],[-9.719125,54.251578],[-9.719222,54.251458],[-9.719374,54.25126],[-9.719685,54.250857],[-9.719888,54.250603],[-9.720034,54.250385],[-9.720093,54.250255],[-9.720128,54.25018],[-9.720159,54.250081],[-9.720156,54.250015],[-9.720111,54.249958],[-9.719961,54.249872],[-9.719718,54.249792],[-9.719622,54.249766],[-9.719203,54.249676],[-9.719129,54.249663],[-9.719097,54.249659],[-9.719104,54.249819],[-9.71757,54.24984],[-9.717552,54.249401],[-9.717524,54.249395],[-9.717251,54.249345],[-9.716918,54.249248],[-9.716867,54.249226],[-9.716859,54.249223],[-9.716821,54.249206],[-9.716687,54.249147],[-9.716642,54.249122],[-9.716575,54.249091],[-9.716374,54.248938],[-9.716344,54.248868],[-9.716324,54.248843],[-9.716266,54.248735],[-9.716227,54.248556],[-9.716216,54.248387],[-9.716192,54.248246],[-9.716186,54.248106],[-9.716182,54.248002],[-9.71615,54.247806],[-9.716126,54.247562],[-9.716118,54.247479],[-9.716076,54.247219],[-9.715889,54.246513],[-9.715872,54.246403],[-9.715584,54.246346],[-9.715453,54.24632],[-9.71526,54.246279],[-9.714354,54.246292],[-9.714346,54.246078],[-9.714232,54.246053],[-9.713779,54.245961],[-9.713563,54.245918],[-9.712858,54.245798],[-9.712799,54.245788],[-9.712821,54.246314],[-9.707278,54.246393]]],[[[-9.727362,54.263853],[-9.727369,54.264021],[-9.727404,54.263951],[-9.727413,54.263713],[-9.727349,54.263545],[-9.727349,54.263558],[-9.727362,54.263581],[-9.727375,54.263665],[-9.727387,54.263743],[-9.727365,54.263845],[-9.727362,54.263853]]],[[[-9.725875,54.264996],[-9.725875,54.264998],[-9.725879,54.264996],[-9.725875,54.264996]]]]}}]}
