{"type":"FeatureCollection","features":[{"type":"Feature","properties":{"source_fid":2333657,"county":"Mayo","bog_geom_ha":210.6309541944934,"low15_pct":75.894378194207832,"low15_ha":159.85705297043748,"overlay_ha":159.87328335612375,"area_delta":0.016230385686270665},"geometry":{"type":"MultiPolygon","coordinates":[[[[-9.585853,54.296657],[-9.586233,54.296714],[-9.58678,54.296786],[-9.586766,54.296423],[-9.585845,54.296435],[-9.585853,54.296657]]],[[[-9.585239,54.296564],[-9.58539,54.296586],[-9.585384,54.296441],[-9.585364,54.295903],[-9.585824,54.295897],[-9.585814,54.295627],[-9.585353,54.295633],[-9.585343,54.295364],[-9.585332,54.295094],[-9.584872,54.2951],[-9.584861,54.294831],[-9.584401,54.294837],[-9.58439,54.294567],[-9.58438,54.294298],[-9.583919,54.294304],[-9.583909,54.294034],[-9.58437,54.294028],[-9.584359,54.293759],[-9.584349,54.29349],[-9.584328,54.292951],[-9.58525,54.292938],[-9.585239,54.292669],[-9.587082,54.292645],[-9.587071,54.292375],[-9.589375,54.292345],[-9.589364,54.292076],[-9.588904,54.292082],[-9.588893,54.291812],[-9.588433,54.291818],[-9.588422,54.291549],[-9.589343,54.291537],[-9.589333,54.291267],[-9.590254,54.291255],[-9.590244,54.290986],[-9.590705,54.290979],[-9.590673,54.290171],[-9.591134,54.290165],[-9.591124,54.289896],[-9.591584,54.289889],[-9.591574,54.28962],[-9.592495,54.289608],[-9.592485,54.289338],[-9.592623,54.289337],[-9.592387,54.289084],[-9.592377,54.28907],[-9.591553,54.289081],[-9.591532,54.288542],[-9.591967,54.288536],[-9.591966,54.288535],[-9.591962,54.288529],[-9.591739,54.288194],[-9.591598,54.287952],[-9.591502,54.287757],[-9.591395,54.287444],[-9.591363,54.287375],[-9.591077,54.287406],[-9.590779,54.287416],[-9.590297,54.287542],[-9.590213,54.287566],[-9.5898,54.287684],[-9.589689,54.287716],[-9.589318,54.287833],[-9.589185,54.287871],[-9.588892,54.287954],[-9.588754,54.288],[-9.587422,54.288244],[-9.587348,54.288272],[-9.587298,54.288319],[-9.587192,54.288385],[-9.587083,54.288477],[-9.586989,54.288534],[-9.586925,54.288576],[-9.586926,54.288603],[-9.586883,54.288603],[-9.586801,54.288654],[-9.586774,54.288671],[-9.586676,54.288707],[-9.586533,54.288721],[-9.58647,54.288725],[-9.586476,54.288878],[-9.586016,54.288884],[-9.586026,54.289154],[-9.585565,54.28916],[-9.585576,54.289429],[-9.585115,54.289435],[-9.585105,54.289166],[-9.585094,54.288897],[-9.584173,54.288909],[-9.584184,54.289178],[-9.583723,54.289184],[-9.583733,54.289454],[-9.583273,54.28946],[-9.583283,54.289729],[-9.582822,54.289735],[-9.582833,54.290005],[-9.582372,54.290011],[-9.582383,54.29028],[-9.581922,54.290286],[-9.581943,54.290825],[-9.581482,54.290831],[-9.581503,54.29137],[-9.580581,54.291382],[-9.580561,54.290843],[-9.58054,54.290304],[-9.58053,54.290035],[-9.581451,54.290023],[-9.581441,54.289753],[-9.581901,54.289747],[-9.581891,54.289478],[-9.582352,54.289472],[-9.582341,54.289202],[-9.582331,54.288933],[-9.582791,54.288927],[-9.582781,54.288657],[-9.582771,54.288388],[-9.582934,54.288386],[-9.582836,54.288328],[-9.582702,54.288261],[-9.582266,54.288071],[-9.581957,54.28795],[-9.581755,54.287842],[-9.581586,54.287802],[-9.581501,54.287726],[-9.581409,54.287575],[-9.581347,54.287515],[-9.58117,54.287436],[-9.581051,54.287306],[-9.580887,54.287133],[-9.58077,54.28696],[-9.580735,54.286851],[-9.580685,54.286744],[-9.58072,54.286583],[-9.580727,54.286543],[-9.580479,54.286231],[-9.580253,54.28584],[-9.58016,54.285655],[-9.580126,54.285575],[-9.579967,54.285522],[-9.57971,54.285522],[-9.57969,54.285523],[-9.579545,54.285543],[-9.579488,54.285523],[-9.579378,54.285523],[-9.579135,54.285385],[-9.578582,54.285251],[-9.578531,54.285261],[-9.578455,54.285287],[-9.578367,54.285311],[-9.578281,54.285342],[-9.578178,54.285385],[-9.578092,54.285407],[-9.577996,54.285438],[-9.577899,54.285446],[-9.577842,54.285442],[-9.577824,54.28545],[-9.577592,54.285415],[-9.577451,54.285396],[-9.577414,54.285405],[-9.577275,54.285452],[-9.577028,54.285531],[-9.576818,54.285577],[-9.576603,54.285628],[-9.576476,54.285646],[-9.576323,54.285664],[-9.576211,54.285678],[-9.576081,54.285689],[-9.57593,54.285677],[-9.575793,54.285682],[-9.575711,54.28568],[-9.575634,54.285674],[-9.575522,54.285675],[-9.575378,54.285653],[-9.575242,54.285643],[-9.575111,54.285622],[-9.57507,54.285613],[-9.575067,54.285611],[-9.575,54.285605],[-9.574799,54.285537],[-9.574718,54.285486],[-9.574669,54.285447],[-9.574652,54.285417],[-9.574657,54.285398],[-9.574636,54.285396],[-9.57435,54.285381],[-9.573874,54.285483],[-9.573535,54.285602],[-9.573143,54.285692],[-9.572886,54.285737],[-9.572647,54.285789],[-9.572445,54.285821],[-9.572363,54.285836],[-9.572245,54.285832],[-9.572076,54.285816],[-9.571787,54.285817],[-9.571611,54.285834],[-9.571454,54.285891],[-9.57133,54.28589],[-9.571134,54.285853],[-9.571063,54.285904],[-9.571025,54.285913],[-9.57101,54.285908],[-9.571005,54.285907],[-9.570574,54.285752],[-9.570293,54.285657],[-9.570238,54.285638],[-9.570199,54.285671],[-9.569945,54.285865],[-9.569865,54.285938],[-9.569573,54.286164],[-9.56911,54.286518],[-9.568729,54.286812],[-9.56849,54.286994],[-9.568161,54.28725],[-9.567899,54.28745],[-9.56783,54.287503],[-9.567699,54.287601],[-9.567633,54.28765],[-9.567551,54.287711],[-9.56743,54.287801],[-9.567122,54.288038],[-9.567042,54.288098],[-9.566757,54.288323],[-9.566523,54.288509],[-9.566509,54.28852],[-9.566175,54.288783],[-9.566122,54.288825],[-9.565841,54.28903],[-9.565264,54.289464],[-9.564605,54.289962],[-9.563939,54.290471],[-9.56349,54.290804],[-9.563377,54.290873],[-9.56318,54.290949],[-9.562998,54.291004],[-9.562543,54.291109],[-9.562394,54.291136],[-9.562413,54.291161],[-9.562442,54.291201],[-9.562561,54.291316],[-9.562572,54.291414],[-9.562541,54.291467],[-9.562388,54.291665],[-9.562338,54.291723],[-9.562363,54.291753],[-9.562015,54.291977],[-9.561386,54.292295],[-9.560769,54.292617],[-9.560725,54.292646],[-9.560692,54.29273],[-9.560702,54.292823],[-9.560751,54.293262],[-9.56081,54.293678],[-9.562026,54.293856],[-9.562282,54.293904],[-9.562603,54.293963],[-9.56272,54.293997],[-9.563919,54.294184],[-9.564968,54.294326],[-9.565651,54.294467],[-9.566227,54.294546],[-9.567098,54.294663],[-9.567208,54.294706],[-9.567301,54.294723],[-9.56765,54.294836],[-9.568139,54.294968],[-9.568148,54.294971],[-9.568692,54.295127],[-9.569668,54.295428],[-9.56996,54.29551],[-9.570569,54.295681],[-9.571868,54.296062],[-9.57188,54.296066],[-9.572737,54.296292],[-9.574152,54.29668],[-9.576125,54.297149],[-9.577574,54.297552],[-9.578026,54.297714],[-9.578034,54.297708],[-9.578182,54.297574],[-9.578299,54.297519],[-9.578409,54.297451],[-9.578448,54.297425],[-9.578512,54.297429],[-9.578619,54.297402],[-9.578666,54.297378],[-9.578712,54.297341],[-9.578767,54.297296],[-9.578829,54.297246],[-9.57884,54.297197],[-9.578834,54.297139],[-9.578873,54.297123],[-9.57902,54.297091],[-9.579086,54.29703],[-9.579176,54.296971],[-9.579245,54.296898],[-9.579415,54.296829],[-9.579473,54.296793],[-9.579496,54.296744],[-9.579547,54.296725],[-9.579637,54.296682],[-9.579653,54.296659],[-9.579679,54.296621],[-9.579711,54.296611],[-9.579822,54.296596],[-9.579877,54.296575],[-9.579892,54.296535],[-9.579859,54.296484],[-9.579894,54.296463],[-9.580136,54.296421],[-9.580304,54.296324],[-9.580354,54.296263],[-9.580377,54.296239],[-9.580432,54.296215],[-9.580543,54.296184],[-9.58066,54.296115],[-9.580708,54.296089],[-9.580779,54.296093],[-9.580924,54.296124],[-9.58119,54.296106],[-9.581427,54.296064],[-9.581658,54.296061],[-9.581842,54.296071],[-9.582374,54.296159],[-9.58295,54.296258],[-9.583172,54.296262],[-9.584595,54.29647],[-9.585239,54.296564]],[[-9.581859,54.288649],[-9.581918,54.288693],[-9.581581,54.288873],[-9.58137,54.288959],[-9.581365,54.288961],[-9.581361,54.288958],[-9.580887,54.288636],[-9.58147,54.288359],[-9.581531,54.288404],[-9.58185,54.2884],[-9.581859,54.288649]],[[-9.581994,54.292172],[-9.582005,54.292442],[-9.581544,54.292448],[-9.581534,54.292178],[-9.581523,54.291909],[-9.582445,54.291897],[-9.582455,54.292166],[-9.581994,54.292172]]],[[[-9.598091,54.29461],[-9.597758,54.294614],[-9.59776,54.294661],[-9.59777,54.29493],[-9.597791,54.29493],[-9.598012,54.294722],[-9.598092,54.294637],[-9.598091,54.29461]]],[[[-9.597633,54.295078],[-9.597771,54.294948],[-9.59777,54.29493],[-9.597309,54.294936],[-9.59732,54.295206],[-9.596859,54.295212],[-9.59687,54.295481],[-9.59688,54.295751],[-9.597087,54.295748],[-9.597167,54.295646],[-9.597633,54.295078]]],[[[-9.598855,54.293576],[-9.598837,54.293568],[-9.598639,54.293571],[-9.59865,54.29384],[-9.598189,54.293846],[-9.598199,54.294116],[-9.59821,54.294385],[-9.598341,54.294383],[-9.598579,54.294149],[-9.598916,54.293871],[-9.599106,54.293711],[-9.599104,54.293662],[-9.598855,54.293576]]],[[[-9.598119,54.29461],[-9.598215,54.294508],[-9.59821,54.294385],[-9.598083,54.294387],[-9.598091,54.29461],[-9.598119,54.29461]]],[[[-9.587584,54.293717],[-9.587594,54.293986],[-9.588055,54.29398],[-9.588045,54.293711],[-9.587584,54.293717]]]]}}]}
