{"type":"FeatureCollection","features":[{"type":"Feature","properties":{"source_fid":2333986,"county":"Mayo","bog_geom_ha":103.12826705235308,"low15_pct":98.597721297107796,"low15_ha":101.68212132681614,"overlay_ha":101.67900595916718,"area_delta":-0.0031153676489594773},"geometry":{"type":"MultiPolygon","coordinates":[[[[-10.019389,54.277221],[-10.019598,54.277149],[-10.019638,54.27712],[-10.019613,54.276607],[-10.020144,54.276598],[-10.020157,54.276572],[-10.020212,54.276519],[-10.020292,54.276468],[-10.020386,54.27643],[-10.020477,54.276381],[-10.020596,54.276307],[-10.02068,54.276216],[-10.020649,54.276171],[-10.02069,54.276078],[-10.020693,54.27607],[-10.020711,54.276021],[-10.020708,54.275945],[-10.020728,54.27589],[-10.020725,54.275846],[-10.020672,54.275773],[-10.020657,54.27573],[-10.020657,54.275674],[-10.020615,54.275611],[-10.020559,54.275478],[-10.020545,54.275345],[-10.020511,54.275267],[-10.020503,54.275251],[-10.020553,54.275099],[-10.020606,54.27497],[-10.020647,54.27488],[-10.020676,54.27474],[-10.020715,54.274685],[-10.020737,54.274654],[-10.020757,54.274583],[-10.020732,54.274463],[-10.020761,54.274378],[-10.020837,54.274282],[-10.020841,54.274277],[-10.020889,54.274198],[-10.020909,54.274093],[-10.020915,54.274062],[-10.020881,54.273941],[-10.020812,54.273832],[-10.02079,54.273797],[-10.020709,54.273692],[-10.020693,54.273659],[-10.020656,54.273584],[-10.020567,54.273502],[-10.020545,54.273471],[-10.020479,54.273375],[-10.020452,54.273336],[-10.020409,54.273313],[-10.020358,54.273302],[-10.020308,54.273268],[-10.020254,54.273193],[-10.020173,54.273127],[-10.020131,54.273056],[-10.020112,54.273026],[-10.02003,54.272969],[-10.020016,54.272857],[-10.019999,54.272712],[-10.019954,54.272582],[-10.019827,54.272443],[-10.019769,54.272384],[-10.019711,54.27234],[-10.019684,54.272295],[-10.019678,54.27221],[-10.019637,54.272022],[-10.019587,54.271774],[-10.019623,54.271726],[-10.019642,54.271709],[-10.019786,54.271591],[-10.019838,54.271526],[-10.019862,54.271446],[-10.01986,54.271389],[-10.01986,54.271377],[-10.020047,54.271212],[-10.020051,54.271208],[-10.017815,54.271246],[-10.017859,54.272144],[-10.0174,54.272151],[-10.016347,54.272611],[-10.016369,54.273067],[-10.014835,54.273093],[-10.014791,54.272195],[-10.013257,54.27222],[-10.01323,54.271666],[-10.013175,54.271684],[-10.013063,54.271602],[-10.013019,54.271529],[-10.01322,54.271466],[-10.01317,54.270425],[-10.020526,54.270302],[-10.020532,54.270301],[-10.020622,54.270284],[-10.020654,54.270242],[-10.020663,54.270187],[-10.020727,54.270148],[-10.020754,54.270122],[-10.020806,54.27008],[-10.020885,54.270043],[-10.020948,54.270029],[-10.020972,54.269985],[-10.02102,54.269952],[-10.021107,54.26992],[-10.021166,54.269908],[-10.021229,54.269861],[-10.021304,54.269831],[-10.021364,54.269782],[-10.021451,54.269758],[-10.021498,54.26973],[-10.021538,54.269695],[-10.021672,54.269648],[-10.02175,54.269648],[-10.021821,54.269636],[-10.021861,54.269606],[-10.022011,54.269556],[-10.022201,54.269456],[-10.022359,54.269342],[-10.022503,54.269219],[-10.022515,54.269184],[-10.022653,54.269144],[-10.022723,54.269169],[-10.022849,54.269156],[-10.022845,54.269113],[-10.022854,54.269071],[-10.022854,54.269042],[-10.022898,54.269007],[-10.022848,54.268957],[-10.022837,54.268885],[-10.022858,54.268828],[-10.02289,54.268784],[-10.022937,54.268768],[-10.022972,54.268776],[-10.023047,54.268792],[-10.023106,54.268775],[-10.023091,54.268748],[-10.023068,54.268688],[-10.022999,54.268604],[-10.022956,54.268581],[-10.02287,54.268561],[-10.022788,54.268537],[-10.022753,54.268523],[-10.02273,54.268507],[-10.02273,54.268471],[-10.022754,54.268445],[-10.022806,54.268406],[-10.022881,54.268373],[-10.022858,54.268341],[-10.022844,54.268293],[-10.022843,54.268291],[-10.022824,54.268224],[-10.022819,54.268075],[-10.02282,54.267988],[-10.022834,54.267875],[-10.022831,54.267806],[-10.022786,54.267664],[-10.022737,54.267579],[-10.02275,54.267481],[-10.022763,54.267432],[-10.02276,54.267377],[-10.022674,54.267327],[-10.022465,54.267177],[-10.022224,54.267012],[-10.02219,54.266995],[-10.022148,54.266974],[-10.021958,54.267049],[-10.021806,54.267093],[-10.021536,54.267164],[-10.021353,54.267128],[-10.021273,54.267162],[-10.020324,54.267326],[-10.019789,54.267427],[-10.019169,54.267501],[-10.019028,54.26752],[-10.01903,54.26753],[-10.018733,54.267571],[-10.0179,54.267644],[-10.016635,54.267763],[-10.015551,54.267882],[-10.015047,54.267955],[-10.015032,54.267947],[-10.014556,54.268016],[-10.01361,54.268136],[-10.013334,54.268166],[-10.012738,54.268261],[-10.012563,54.26829],[-10.011653,54.268472],[-10.010457,54.268709],[-10.009289,54.268933],[-10.00921,54.268948],[-10.009051,54.268958],[-10.008922,54.26898],[-10.008908,54.268969],[-10.008538,54.269032],[-10.008048,54.269125],[-10.007767,54.269215],[-10.007614,54.26926],[-10.007578,54.269254],[-10.007334,54.269316],[-10.00726,54.269335],[-10.006386,54.269562],[-10.006343,54.269573],[-10.006335,54.269575],[-10.005242,54.269839],[-10.004837,54.26993],[-10.005316,54.270559],[-10.005693,54.271053],[-10.005741,54.271111],[-10.005865,54.271264],[-10.006196,54.27167],[-10.006598,54.27218],[-10.006802,54.272486],[-10.007024,54.272825],[-10.007387,54.273357],[-10.007378,54.273169],[-10.007365,54.272899],[-10.007825,54.272892],[-10.007838,54.273161],[-10.008759,54.273146],[-10.008772,54.273415],[-10.008785,54.273685],[-10.008325,54.273692],[-10.008338,54.273962],[-10.008351,54.274231],[-10.009271,54.274216],[-10.009258,54.273946],[-10.009719,54.273939],[-10.009732,54.274208],[-10.009745,54.274477],[-10.009284,54.274485],[-10.009298,54.274754],[-10.008837,54.274762],[-10.00885,54.275032],[-10.008641,54.275035],[-10.008784,54.275231],[-10.008895,54.275379],[-10.009011,54.275547],[-10.009295,54.275917],[-10.009537,54.276268],[-10.009695,54.276487],[-10.009765,54.276604],[-10.009948,54.276838],[-10.010713,54.277923],[-10.011162,54.278549],[-10.011676,54.279227],[-10.012707,54.280488],[-10.01337,54.281297],[-10.014373,54.282631],[-10.015188,54.283682],[-10.015925,54.284635],[-10.01667,54.285641],[-10.016983,54.285636],[-10.016976,54.285491],[-10.016946,54.28546],[-10.016964,54.285245],[-10.016939,54.284738],[-10.017033,54.284737],[-10.01711,54.284176],[-10.0172,54.283405],[-10.017224,54.28322],[-10.017322,54.282473],[-10.017351,54.28224],[-10.017555,54.281874],[-10.017859,54.281383],[-10.018012,54.281196],[-10.018024,54.281035],[-10.017984,54.280416],[-10.017964,54.280229],[-10.01672,54.280249],[-10.016632,54.278454],[-10.017802,54.278434],[-10.017802,54.278423],[-10.017751,54.277782],[-10.017631,54.27756],[-10.017615,54.277343],[-10.017607,54.277243],[-10.017671,54.27724],[-10.01782,54.277193],[-10.018049,54.277152],[-10.018123,54.277184],[-10.018232,54.277226],[-10.018302,54.277263],[-10.018348,54.277297],[-10.018423,54.277307],[-10.018453,54.277339],[-10.018582,54.277389],[-10.018672,54.2774],[-10.018804,54.277392],[-10.018999,54.277346],[-10.01912,54.277359],[-10.019199,54.277349],[-10.019281,54.277321],[-10.019389,54.277221]],[[-10.012182,54.271977],[-10.011941,54.272055],[-10.011898,54.272027],[-10.011859,54.272007],[-10.011806,54.272013],[-10.011781,54.272003],[-10.01168,54.271944],[-10.011685,54.271896],[-10.012092,54.271718],[-10.01209,54.271697],[-10.012172,54.271663],[-10.012331,54.271611],[-10.012351,54.271633],[-10.012487,54.271779],[-10.0127,54.271864],[-10.01274,54.271882],[-10.012898,54.271952],[-10.013138,54.271975],[-10.013139,54.271985],[-10.01309,54.272096],[-10.012998,54.272186],[-10.012899,54.272187],[-10.012821,54.272236],[-10.012659,54.272313],[-10.012596,54.272295],[-10.012382,54.272115],[-10.012236,54.271993],[-10.012182,54.271977]]]]}}]}
