{"type":"FeatureCollection","features":[{"type":"Feature","properties":{"source_fid":2403098,"county":"Offaly","bog_geom_ha":218.7482211233627,"low15_pct":98.51973684210526,"low15_ha":215.51017179752344,"overlay_ha":215.5180611091703,"area_delta":0.0078893116468634616},"geometry":{"type":"MultiPolygon","coordinates":[[[[-7.14743,53.247469],[-7.148829,53.247607],[-7.148829,53.247607],[-7.148829,53.247607],[-7.148819,53.24737],[-7.149362,53.247417],[-7.149625,53.24744],[-7.149777,53.247453],[-7.149874,53.247462],[-7.150171,53.247486],[-7.150399,53.247504],[-7.150483,53.247511],[-7.150472,53.247659],[-7.150465,53.247748],[-7.150477,53.247749],[-7.150477,53.247749],[-7.150478,53.247749],[-7.150511,53.247749],[-7.150636,53.247749],[-7.150844,53.247746],[-7.152311,53.247737],[-7.152513,53.247736],[-7.152508,53.247748],[-7.15258,53.247749],[-7.152763,53.247745],[-7.153044,53.247747],[-7.153477,53.247742],[-7.153899,53.247743],[-7.154231,53.247747],[-7.154666,53.24775],[-7.155067,53.247754],[-7.155437,53.247754],[-7.15586,53.247753],[-7.156152,53.247755],[-7.156369,53.247765],[-7.156705,53.247782],[-7.15703,53.247798],[-7.157271,53.247809],[-7.158265,53.247863],[-7.158273,53.247849],[-7.158378,53.247671],[-7.159678,53.247715],[-7.15964,53.24791],[-7.159885,53.24792],[-7.161248,53.247972],[-7.162817,53.24802],[-7.162441,53.24831],[-7.161619,53.248929],[-7.161162,53.249272],[-7.161113,53.249734],[-7.161106,53.250143],[-7.161131,53.250323],[-7.161131,53.250323],[-7.161131,53.250323],[-7.162656,53.250493],[-7.162411,53.251329],[-7.16233,53.251607],[-7.162784,53.251646],[-7.163783,53.251731],[-7.164242,53.251763],[-7.164126,53.252019],[-7.163735,53.25288],[-7.163578,53.253226],[-7.163224,53.253943],[-7.163365,53.253972],[-7.163781,53.254051],[-7.163844,53.254067],[-7.164426,53.254169],[-7.164806,53.254259],[-7.165367,53.254363],[-7.165444,53.254377],[-7.165824,53.254425],[-7.166254,53.254441],[-7.166572,53.254455],[-7.167491,53.254508],[-7.167875,53.254529],[-7.167869,53.254516],[-7.167852,53.254476],[-7.167843,53.254456],[-7.168297,53.254467],[-7.1694,53.254526],[-7.170129,53.254575],[-7.170571,53.254589],[-7.171281,53.254619],[-7.17147,53.254656],[-7.171564,53.254705],[-7.173163,53.254792],[-7.174675,53.254877],[-7.174692,53.254759],[-7.174889,53.254101],[-7.175078,53.253502],[-7.175326,53.252705],[-7.175532,53.252074],[-7.175699,53.251513],[-7.175838,53.251053],[-7.175965,53.250636],[-7.176196,53.24993],[-7.176335,53.249509],[-7.176072,53.24892],[-7.175888,53.248491],[-7.175875,53.248462],[-7.175582,53.247782],[-7.175257,53.247001],[-7.17507,53.246571],[-7.174751,53.245822],[-7.17463,53.245561],[-7.174408,53.245023],[-7.174064,53.244232],[-7.173837,53.243661],[-7.173546,53.242992],[-7.173233,53.242243],[-7.173096,53.241914],[-7.173052,53.241944],[-7.172973,53.24194],[-7.172817,53.241916],[-7.172559,53.241878],[-7.172385,53.241849],[-7.17235,53.241827],[-7.172281,53.241762],[-7.172212,53.241732],[-7.172166,53.2417],[-7.172144,53.241662],[-7.172135,53.241635],[-7.172101,53.24161],[-7.172048,53.241603],[-7.171998,53.241613],[-7.171928,53.241638],[-7.17189,53.241645],[-7.171707,53.241559],[-7.171401,53.24144],[-7.171252,53.241394],[-7.171244,53.241388],[-7.171205,53.241331],[-7.171142,53.241276],[-7.171102,53.241266],[-7.171029,53.241247],[-7.17093,53.241235],[-7.170856,53.241237],[-7.170807,53.241255],[-7.170786,53.241262],[-7.170748,53.241269],[-7.170641,53.241285],[-7.170565,53.241284],[-7.170529,53.241277],[-7.170489,53.241252],[-7.170475,53.241243],[-7.170406,53.24119],[-7.170344,53.241137],[-7.170303,53.241107],[-7.170243,53.241086],[-7.170141,53.241067],[-7.170088,53.241058],[-7.17004,53.241035],[-7.169961,53.240972],[-7.16989,53.240931],[-7.169821,53.240901],[-7.169738,53.240883],[-7.169667,53.24089],[-7.169542,53.240902],[-7.169478,53.240903],[-7.169379,53.240878],[-7.169291,53.240841],[-7.169146,53.240796],[-7.169078,53.240798],[-7.169018,53.240814],[-7.16899,53.240805],[-7.168974,53.240764],[-7.168911,53.240735],[-7.168808,53.240695],[-7.168738,53.240672],[-7.168649,53.240666],[-7.168557,53.240671],[-7.168475,53.240696],[-7.168408,53.240726],[-7.168355,53.24075],[-7.168335,53.240821],[-7.168298,53.240858],[-7.168245,53.240879],[-7.168192,53.240906],[-7.168136,53.240968],[-7.168073,53.241012],[-7.168019,53.241042],[-7.167963,53.241044],[-7.167882,53.241046],[-7.167781,53.241041],[-7.167765,53.24104],[-7.167699,53.241047],[-7.167605,53.241032],[-7.16753,53.24101],[-7.167429,53.240961],[-7.16728,53.240877],[-7.167174,53.240807],[-7.167115,53.240769],[-7.167042,53.240761],[-7.166855,53.240748],[-7.166728,53.240748],[-7.166612,53.240738],[-7.16653,53.240718],[-7.166481,53.240704],[-7.166398,53.240708],[-7.166247,53.240714],[-7.166162,53.240727],[-7.166113,53.24072],[-7.166056,53.240688],[-7.165952,53.24063],[-7.165882,53.240615],[-7.165818,53.240613],[-7.165725,53.24063],[-7.165655,53.240662],[-7.165623,53.240655],[-7.165482,53.240611],[-7.165327,53.240563],[-7.165148,53.240557],[-7.164917,53.24055],[-7.164789,53.240549],[-7.164738,53.24053],[-7.164711,53.240503],[-7.164639,53.240495],[-7.164539,53.240469],[-7.164466,53.240448],[-7.16442,53.240436],[-7.164385,53.240449],[-7.164355,53.24047],[-7.164296,53.240492],[-7.164235,53.240497],[-7.164153,53.240491],[-7.164137,53.240496],[-7.164084,53.240538],[-7.164049,53.240543],[-7.163924,53.240522],[-7.163824,53.240513],[-7.163715,53.240499],[-7.163652,53.240495],[-7.163592,53.240516],[-7.163548,53.240566],[-7.163505,53.240659],[-7.16349,53.240706],[-7.163474,53.240735],[-7.163411,53.240745],[-7.163364,53.240756],[-7.163349,53.240766],[-7.163354,53.240803],[-7.16335,53.240819],[-7.163299,53.240842],[-7.163255,53.240863],[-7.163189,53.240879],[-7.163111,53.240892],[-7.163071,53.24091],[-7.163031,53.24096],[-7.162981,53.240975],[-7.162935,53.240973],[-7.162871,53.240953],[-7.162832,53.240952],[-7.162775,53.240948],[-7.162666,53.240909],[-7.162582,53.240861],[-7.162508,53.240804],[-7.162426,53.240781],[-7.162325,53.240761],[-7.162264,53.240746],[-7.16216,53.240733],[-7.162117,53.240697],[-7.162063,53.240697],[-7.162024,53.240724],[-7.161977,53.240727],[-7.161907,53.24073],[-7.161868,53.240722],[-7.161793,53.240678],[-7.161688,53.240643],[-7.161655,53.240625],[-7.16151,53.24066],[-7.161411,53.240728],[-7.16116,53.240808],[-7.160917,53.240885],[-7.160841,53.240952],[-7.160797,53.240981],[-7.160698,53.24103],[-7.16065,53.241079],[-7.160565,53.241085],[-7.160536,53.241083],[-7.160423,53.241055],[-7.160346,53.241047],[-7.16029,53.241049],[-7.160237,53.24107],[-7.160195,53.241096],[-7.160167,53.241132],[-7.160155,53.24118],[-7.160137,53.241235],[-7.160037,53.241276],[-7.159943,53.241299],[-7.159887,53.241319],[-7.159805,53.241312],[-7.159679,53.241269],[-7.159569,53.24127],[-7.159494,53.241282],[-7.159362,53.241259],[-7.159227,53.241277],[-7.159097,53.241283],[-7.159094,53.241447],[-7.159083,53.241986],[-7.158634,53.241983],[-7.158644,53.241444],[-7.158195,53.241441],[-7.158184,53.24198],[-7.157735,53.241977],[-7.157745,53.241438],[-7.157751,53.241168],[-7.158815,53.241176],[-7.158804,53.241168],[-7.158782,53.241151],[-7.158738,53.241132],[-7.158658,53.241123],[-7.158569,53.241123],[-7.158522,53.241129],[-7.158456,53.241145],[-7.158395,53.241145],[-7.158362,53.241143],[-7.158326,53.241124],[-7.158252,53.241089],[-7.158189,53.241065],[-7.158118,53.24105],[-7.158041,53.241013],[-7.157987,53.240974],[-7.157907,53.240944],[-7.157827,53.240937],[-7.157684,53.240914],[-7.157571,53.240892],[-7.157483,53.240866],[-7.15742,53.240838],[-7.157346,53.240807],[-7.157308,53.240791],[-7.157246,53.240722],[-7.157207,53.240707],[-7.157162,53.240715],[-7.157115,53.240687],[-7.157083,53.240645],[-7.15705,53.2406],[-7.15696,53.240582],[-7.156889,53.240573],[-7.156804,53.240562],[-7.156734,53.240539],[-7.156345,53.240525],[-7.154337,53.240473],[-7.153786,53.240457],[-7.153635,53.240453],[-7.152076,53.240409],[-7.150153,53.240359],[-7.14783,53.240291],[-7.147431,53.240283],[-7.147431,53.240286],[-7.146981,53.240283],[-7.146982,53.240274],[-7.146099,53.240257],[-7.144873,53.240223],[-7.144408,53.245507],[-7.144375,53.246165],[-7.144323,53.247184],[-7.144412,53.247191],[-7.14566,53.247303],[-7.146536,53.247382],[-7.14656,53.247384],[-7.14743,53.247469]],[[-7.163572,53.242287],[-7.16447,53.242294],[-7.164465,53.242563],[-7.164016,53.24256],[-7.164011,53.24283],[-7.163561,53.242827],[-7.163566,53.242557],[-7.163572,53.242287]],[[-7.157724,53.242516],[-7.157275,53.242513],[-7.15728,53.242243],[-7.157729,53.242246],[-7.157724,53.242516]],[[-7.156376,53.242506],[-7.157275,53.242513],[-7.157269,53.242782],[-7.156371,53.242776],[-7.156376,53.242506]],[[-7.158549,53.246296],[-7.158538,53.246836],[-7.158089,53.246832],[-7.1581,53.246293],[-7.158549,53.246296]],[[-7.158084,53.247102],[-7.158078,53.247372],[-7.156281,53.247359],[-7.156286,53.247089],[-7.156296,53.24655],[-7.156746,53.246553],[-7.156735,53.247092],[-7.158084,53.247102]],[[-7.146484,53.242706],[-7.146473,53.243245],[-7.146923,53.243248],[-7.146917,53.243518],[-7.146912,53.243787],[-7.146462,53.243784],[-7.146468,53.243514],[-7.146018,53.243511],[-7.146024,53.243242],[-7.146034,53.242702],[-7.146484,53.242706]],[[-7.147372,53.243251],[-7.147821,53.243254],[-7.147816,53.243524],[-7.147367,53.243521],[-7.147372,53.243251]],[[-7.146901,53.244326],[-7.146452,53.244323],[-7.146457,53.244054],[-7.146906,53.244057],[-7.146901,53.244326]],[[-7.146002,53.24432],[-7.146452,53.244323],[-7.146425,53.245671],[-7.145975,53.245668],[-7.146002,53.24432]],[[-7.147302,53.246756],[-7.147297,53.247025],[-7.145949,53.247016],[-7.145954,53.246746],[-7.147302,53.246756]]]]}}]}
