{"type":"FeatureCollection","features":[{"type":"Feature","properties":{"source_fid":2436843,"county":"Mayo","bog_geom_ha":265.28667623877385,"low15_pct":99.525101763907728,"low15_ha":264.02683449272809,"overlay_ha":263.9292455480342,"area_delta":-0.09758894469388224},"geometry":{"type":"MultiPolygon","coordinates":[[[[-9.59984,54.105576],[-9.599642,54.105782],[-9.599642,54.105782],[-9.599642,54.105782],[-9.599553,54.105857],[-9.599488,54.105866],[-9.599283,54.105894],[-9.59908,54.105945],[-9.597995,54.10641],[-9.597407,54.106738],[-9.59688,54.107059],[-9.596295,54.107543],[-9.59568,54.108046],[-9.595596,54.108115],[-9.595562,54.108143],[-9.595307,54.108366],[-9.595307,54.108366],[-9.594746,54.108937],[-9.594456,54.109189],[-9.594197,54.109413],[-9.593902,54.109578],[-9.593697,54.109732],[-9.593697,54.109732],[-9.593697,54.109732],[-9.593636,54.109829],[-9.593555,54.109963],[-9.593237,54.11049],[-9.592748,54.110767],[-9.592544,54.11107],[-9.592327,54.111195],[-9.592156,54.111272],[-9.592039,54.111313],[-9.59198,54.111296],[-9.591972,54.111315],[-9.591915,54.11134],[-9.591821,54.111435],[-9.591815,54.111486],[-9.591778,54.111528],[-9.591752,54.111529],[-9.591716,54.11153],[-9.591638,54.111513],[-9.591503,54.111657],[-9.59159,54.111694],[-9.591575,54.111792],[-9.591394,54.111857],[-9.591406,54.111894],[-9.591344,54.111974],[-9.59133,54.112022],[-9.591389,54.112061],[-9.591411,54.112123],[-9.591435,54.112206],[-9.591399,54.112298],[-9.591309,54.112333],[-9.591209,54.112436],[-9.591206,54.112493],[-9.591154,54.112563],[-9.591,54.112568],[-9.590989,54.11256],[-9.590987,54.112532],[-9.590973,54.112516],[-9.590957,54.112502],[-9.590931,54.112495],[-9.59073,54.112652],[-9.59073,54.112675],[-9.590723,54.112686],[-9.590713,54.112704],[-9.590704,54.11273],[-9.590709,54.112789],[-9.590684,54.112797],[-9.590659,54.112801],[-9.590562,54.112973],[-9.590083,54.11362],[-9.590019,54.113696],[-9.589904,54.113913],[-9.589707,54.114372],[-9.589442,54.115085],[-9.589408,54.115159],[-9.589381,54.115222],[-9.589152,54.115579],[-9.58913,54.115628],[-9.589099,54.115668],[-9.589075,54.115695],[-9.589006,54.115743],[-9.588736,54.116082],[-9.58843,54.116533],[-9.588222,54.116797],[-9.58816,54.116845],[-9.588088,54.1169],[-9.588029,54.116948],[-9.587973,54.116995],[-9.587827,54.117198],[-9.58776,54.117304],[-9.587739,54.117337],[-9.587705,54.117365],[-9.587667,54.117391],[-9.587629,54.117424],[-9.587604,54.117462],[-9.587581,54.117564],[-9.587568,54.117604],[-9.587577,54.117646],[-9.587608,54.117673],[-9.587638,54.11769],[-9.587695,54.117717],[-9.587712,54.117777],[-9.587752,54.117815],[-9.587856,54.117916],[-9.587878,54.117953],[-9.587914,54.118033],[-9.587963,54.118092],[-9.588019,54.118145],[-9.588069,54.118176],[-9.588103,54.118195],[-9.588164,54.118223],[-9.588211,54.11824],[-9.588267,54.118249],[-9.588362,54.118259],[-9.588461,54.118274],[-9.588537,54.118289],[-9.588783,54.118426],[-9.588831,54.118466],[-9.588888,54.118507],[-9.588933,54.118528],[-9.589012,54.118549],[-9.589099,54.118572],[-9.589155,54.118593],[-9.589212,54.118624],[-9.589255,54.118651],[-9.589307,54.118696],[-9.589339,54.118749],[-9.589361,54.118773],[-9.58938,54.11881],[-9.589404,54.118867],[-9.589428,54.118905],[-9.58946,54.118931],[-9.589521,54.118959],[-9.589581,54.11898],[-9.590065,54.119161],[-9.590105,54.119184],[-9.590162,54.119221],[-9.590191,54.119253],[-9.590206,54.119308],[-9.590221,54.119376],[-9.590231,54.119465],[-9.590203,54.119658],[-9.590195,54.119723],[-9.590196,54.119731],[-9.596046,54.120639],[-9.597518,54.120868],[-9.597496,54.120313],[-9.600554,54.120272],[-9.600564,54.120527],[-9.600739,54.120521],[-9.601384,54.120582],[-9.602114,54.120738],[-9.602848,54.12086],[-9.603,54.120899],[-9.602992,54.120698],[-9.603451,54.120692],[-9.603461,54.120961],[-9.604837,54.120943],[-9.604848,54.121212],[-9.60485,54.121258],[-9.605053,54.121257],[-9.605093,54.121255],[-9.606115,54.121224],[-9.606225,54.121221],[-9.606808,54.121205],[-9.606846,54.121213],[-9.607027,54.120653],[-9.607219,54.120077],[-9.607438,54.119508],[-9.607406,54.119164],[-9.60735,54.118303],[-9.607337,54.118095],[-9.607256,54.117199],[-9.607365,54.115881],[-9.607566,54.114516],[-9.607675,54.113749],[-9.607992,54.112581],[-9.60839,54.111362],[-9.608723,54.110747],[-9.609497,54.110058],[-9.610476,54.109358],[-9.610889,54.108948],[-9.611726,54.108258],[-9.612088,54.107862],[-9.612538,54.107796],[-9.613407,54.107597],[-9.614316,54.107357],[-9.614844,54.107138],[-9.615101,54.106514],[-9.61526,54.105992],[-9.615512,54.105098],[-9.615542,54.105011],[-9.6156,54.104773],[-9.615836,54.10432],[-9.616794,54.102591],[-9.617295,54.101675],[-9.61751,54.1013],[-9.617965,54.100507],[-9.618953,54.098776],[-9.619323,54.097957],[-9.619447,54.097629],[-9.619449,54.097611],[-9.617915,54.097789],[-9.615414,54.098046],[-9.613586,54.098247],[-9.610767,54.098547],[-9.609389,54.098827],[-9.608325,54.09916],[-9.606964,54.099424],[-9.605395,54.099743],[-9.604563,54.099911],[-9.601864,54.100465],[-9.600819,54.10068],[-9.600703,54.100872],[-9.6007,54.100889],[-9.600708,54.101083],[-9.601006,54.101489],[-9.60126,54.101803],[-9.601318,54.10193],[-9.601218,54.102348],[-9.601079,54.103029],[-9.601085,54.103121],[-9.60107,54.103144],[-9.600886,54.103431],[-9.600463,54.103802],[-9.600266,54.10398],[-9.600113,54.104798],[-9.600113,54.104798],[-9.600113,54.104798],[-9.600107,54.104794],[-9.600036,54.105169],[-9.59984,54.105576]],[[-9.604689,54.108537],[-9.606217,54.108516],[-9.606252,54.109414],[-9.607603,54.109396],[-9.6076,54.109313],[-9.608058,54.109307],[-9.608069,54.109576],[-9.607788,54.10958],[-9.607798,54.109849],[-9.608079,54.109846],[-9.60809,54.110115],[-9.6081,54.110385],[-9.605807,54.110415],[-9.605803,54.110319],[-9.604758,54.110333],[-9.604689,54.108537]],[[-9.605453,54.101253],[-9.605443,54.100984],[-9.605901,54.100978],[-9.605912,54.101247],[-9.605453,54.101253]],[[-9.607756,54.101492],[-9.608215,54.101486],[-9.608225,54.101756],[-9.607767,54.101762],[-9.607756,54.101492]],[[-9.60687,54.102313],[-9.607329,54.102307],[-9.607339,54.102576],[-9.606881,54.102582],[-9.60687,54.102313]],[[-9.606922,54.10366],[-9.606912,54.103391],[-9.607371,54.103385],[-9.607381,54.103654],[-9.606922,54.10366]],[[-9.604963,54.100451],[-9.605422,54.100445],[-9.605432,54.100714],[-9.604974,54.10072],[-9.604963,54.100451]],[[-9.602254,54.101566],[-9.602264,54.101835],[-9.601806,54.101841],[-9.601796,54.101572],[-9.602254,54.101566]],[[-9.602275,54.102105],[-9.602264,54.101835],[-9.603181,54.101823],[-9.603192,54.102092],[-9.602275,54.102105]]],[[[-9.603252,54.120964],[-9.603463,54.121019],[-9.603461,54.120961],[-9.603252,54.120964]]]]}}]}
