{"type":"FeatureCollection","features":[{"type":"Feature","properties":{"source_fid":2437518,"county":"Mayo","bog_geom_ha":164.41552785805649,"low15_pct":96.179039301310041,"low15_ha":158.13327515605653,"overlay_ha":158.16516517030152,"area_delta":0.031890014244993381},"geometry":{"type":"MultiPolygon","coordinates":[[[[-9.782169,54.071174],[-9.782186,54.071462],[-9.782261,54.07176],[-9.782295,54.071896],[-9.782444,54.072611],[-9.782502,54.073104],[-9.782503,54.073221],[-9.781842,54.074235],[-9.782745,54.074222],[-9.782757,54.074491],[-9.781637,54.074508],[-9.7816,54.074555],[-9.781532,54.074663],[-9.781464,54.074771],[-9.781336,54.075107],[-9.781279,54.075315],[-9.781203,54.075591],[-9.781087,54.076115],[-9.781022,54.076343],[-9.780988,54.076459],[-9.780899,54.076777],[-9.780894,54.076803],[-9.780825,54.077125],[-9.78078,54.077463],[-9.780673,54.078293],[-9.780611,54.078836],[-9.780567,54.078966],[-9.780543,54.07904],[-9.780482,54.079535],[-9.780464,54.080007],[-9.780268,54.081113],[-9.780038,54.081688],[-9.779932,54.082059],[-9.779871,54.082464],[-9.779983,54.082592],[-9.780006,54.082619],[-9.780214,54.082708],[-9.781392,54.082786],[-9.782499,54.082865],[-9.783532,54.08294],[-9.783984,54.082976],[-9.784303,54.082869],[-9.785116,54.082567],[-9.785513,54.082428],[-9.786222,54.082182],[-9.787439,54.081777],[-9.787821,54.081638],[-9.788412,54.081442],[-9.789234,54.081165],[-9.78935,54.081132],[-9.789354,54.081131],[-9.789549,54.081076],[-9.789625,54.081375],[-9.789855,54.082292],[-9.790071,54.083054],[-9.790219,54.083537],[-9.790354,54.083985],[-9.790429,54.084178],[-9.790462,54.084244],[-9.789992,54.08438],[-9.789254,54.084596],[-9.788422,54.084828],[-9.787845,54.084992],[-9.787141,54.085187],[-9.786828,54.085281],[-9.786323,54.085444],[-9.785888,54.085589],[-9.785226,54.085812],[-9.784712,54.085984],[-9.784162,54.086166],[-9.783564,54.086353],[-9.78355,54.086357],[-9.783111,54.086495],[-9.782641,54.086643],[-9.781995,54.08685],[-9.781466,54.087021],[-9.781146,54.087124],[-9.780901,54.087215],[-9.780581,54.087358],[-9.780217,54.087507],[-9.779658,54.087744],[-9.779781,54.09],[-9.780598,54.090424],[-9.780841,54.090566],[-9.780986,54.09065],[-9.781301,54.090827],[-9.781411,54.090886],[-9.78154,54.090955],[-9.781772,54.091093],[-9.782131,54.091298],[-9.782569,54.091564],[-9.782872,54.091742],[-9.782868,54.091653],[-9.784395,54.09163],[-9.784434,54.092528],[-9.783521,54.092542],[-9.783561,54.092605],[-9.783621,54.092698],[-9.783744,54.09289],[-9.783799,54.092974],[-9.783825,54.093019],[-9.783929,54.093198],[-9.784,54.093429],[-9.784123,54.093787],[-9.784188,54.094515],[-9.784208,54.094518],[-9.784298,54.094499],[-9.784337,54.094495],[-9.784404,54.094487],[-9.784485,54.094504],[-9.784511,54.09451],[-9.784581,54.094547],[-9.784582,54.094548],[-9.784704,54.094596],[-9.784782,54.094613],[-9.78489,54.094625],[-9.784979,54.094634],[-9.785282,54.094612],[-9.785523,54.094596],[-9.785663,54.094567],[-9.786276,54.094471],[-9.786302,54.094468],[-9.786309,54.094458],[-9.786317,54.094446],[-9.78633,54.094437],[-9.786331,54.094436],[-9.786353,54.094421],[-9.786364,54.094414],[-9.786391,54.094383],[-9.786401,54.094374],[-9.786412,54.094363],[-9.786452,54.094301],[-9.786517,54.094208],[-9.78665,54.094088],[-9.786698,54.094046],[-9.786735,54.094],[-9.786775,54.093982],[-9.786833,54.093959],[-9.786863,54.093959],[-9.786936,54.093979],[-9.786997,54.09396],[-9.787027,54.093929],[-9.787046,54.093919],[-9.78714,54.093881],[-9.78725,54.093852],[-9.787394,54.093821],[-9.787625,54.093782],[-9.787677,54.093766],[-9.787809,54.093733],[-9.788023,54.093682],[-9.788119,54.093667],[-9.788304,54.09366],[-9.788332,54.093657],[-9.78842,54.093639],[-9.788463,54.093628],[-9.788497,54.093626],[-9.788546,54.093622],[-9.788555,54.093596],[-9.788555,54.093581],[-9.788579,54.093583],[-9.7886,54.093582],[-9.788615,54.093557],[-9.78864,54.093528],[-9.788724,54.093452],[-9.788799,54.093417],[-9.788842,54.093359],[-9.788933,54.093324],[-9.788933,54.093317],[-9.789001,54.093271],[-9.78902,54.09325],[-9.789024,54.093226],[-9.789041,54.093184],[-9.789064,54.093173],[-9.789131,54.093162],[-9.789172,54.093145],[-9.78923,54.093101],[-9.789277,54.09306],[-9.789307,54.092989],[-9.789307,54.092931],[-9.789299,54.092858],[-9.789298,54.092823],[-9.789249,54.092811],[-9.789152,54.092782],[-9.789127,54.092743],[-9.789118,54.092704],[-9.789124,54.092656],[-9.789194,54.092563],[-9.789447,54.092402],[-9.78957,54.092273],[-9.789591,54.092216],[-9.78959,54.092153],[-9.789592,54.092091],[-9.789634,54.091916],[-9.78966,54.091852],[-9.789648,54.091819],[-9.789637,54.091793],[-9.789639,54.091774],[-9.789659,54.091752],[-9.789694,54.09173],[-9.789769,54.091712],[-9.789805,54.091703],[-9.789832,54.091675],[-9.789837,54.091645],[-9.789832,54.091633],[-9.789819,54.091602],[-9.789802,54.091578],[-9.789768,54.091536],[-9.789734,54.09152],[-9.789661,54.091506],[-9.789678,54.091466],[-9.789734,54.091449],[-9.789764,54.091433],[-9.789774,54.091403],[-9.789758,54.091369],[-9.789745,54.091339],[-9.789759,54.091308],[-9.789771,54.091286],[-9.789793,54.091252],[-9.78981,54.091235],[-9.789859,54.091113],[-9.789895,54.090982],[-9.7899,54.090938],[-9.789902,54.090904],[-9.789912,54.090875],[-9.789939,54.09085],[-9.789967,54.090837],[-9.790013,54.090821],[-9.790045,54.090796],[-9.790052,54.090778],[-9.790032,54.090729],[-9.79003,54.090706],[-9.790037,54.090662],[-9.790034,54.090633],[-9.790039,54.090602],[-9.790052,54.090577],[-9.790092,54.090564],[-9.790121,54.090564],[-9.790157,54.090566],[-9.790216,54.090569],[-9.790277,54.090553],[-9.790293,54.090529],[-9.790321,54.090496],[-9.790356,54.090493],[-9.790389,54.090512],[-9.790437,54.090523],[-9.790468,54.09052],[-9.79049,54.090507],[-9.790497,54.090486],[-9.790504,54.090472],[-9.790539,54.090452],[-9.790567,54.090441],[-9.79058,54.090425],[-9.790596,54.090407],[-9.790599,54.090381],[-9.790592,54.090365],[-9.790589,54.090346],[-9.790597,54.090326],[-9.790607,54.090303],[-9.790628,54.090296],[-9.790653,54.090293],[-9.790677,54.09028],[-9.790686,54.090255],[-9.790684,54.090237],[-9.790675,54.090219],[-9.790662,54.090204],[-9.790646,54.090185],[-9.790637,54.090164],[-9.790649,54.090139],[-9.790661,54.090133],[-9.790692,54.09012],[-9.790724,54.090113],[-9.790758,54.090104],[-9.790782,54.090092],[-9.790794,54.090075],[-9.790799,54.090057],[-9.79081,54.090031],[-9.790826,54.090007],[-9.790859,54.089981],[-9.790907,54.089941],[-9.790935,54.089898],[-9.790934,54.08986],[-9.790947,54.089818],[-9.790974,54.08977],[-9.791005,54.089726],[-9.791023,54.089666],[-9.791015,54.089622],[-9.791027,54.089543],[-9.791057,54.089468],[-9.791104,54.089344],[-9.791143,54.089265],[-9.791168,54.08921],[-9.791205,54.089149],[-9.791234,54.089111],[-9.791246,54.089096],[-9.791309,54.089044],[-9.791374,54.089026],[-9.791432,54.089017],[-9.791496,54.089026],[-9.791544,54.089036],[-9.791592,54.089036],[-9.791686,54.08902],[-9.791861,54.089005],[-9.791918,54.088996],[-9.791985,54.088984],[-9.792019,54.088981],[-9.792066,54.088985],[-9.792125,54.089002],[-9.792202,54.089024],[-9.792279,54.089035],[-9.792361,54.08904],[-9.792437,54.089025],[-9.792465,54.089003],[-9.792474,54.08898],[-9.792496,54.088948],[-9.792531,54.088939],[-9.792576,54.088954],[-9.792631,54.088981],[-9.792734,54.089007],[-9.792792,54.089021],[-9.792839,54.089018],[-9.792904,54.089007],[-9.793051,54.08901],[-9.793112,54.089014],[-9.793176,54.089017],[-9.793233,54.089008],[-9.793323,54.088988],[-9.793451,54.088961],[-9.793527,54.088952],[-9.793606,54.088921],[-9.793703,54.088869],[-9.793712,54.088818],[-9.793747,54.088645],[-9.793711,54.088408],[-9.793668,54.088305],[-9.793625,54.088214],[-9.793526,54.088017],[-9.793417,54.087803],[-9.793429,54.088083],[-9.792971,54.08809],[-9.792948,54.087551],[-9.793274,54.087546],[-9.793147,54.08734],[-9.792986,54.087053],[-9.792655,54.083595],[-9.792688,54.083585],[-9.793482,54.083348],[-9.794368,54.083085],[-9.795453,54.082767],[-9.795831,54.082655],[-9.794571,54.082674],[-9.79456,54.082404],[-9.795018,54.082397],[-9.795006,54.082128],[-9.796381,54.082108],[-9.79637,54.081838],[-9.797286,54.081824],[-9.797274,54.081555],[-9.797733,54.081548],[-9.797721,54.081279],[-9.798637,54.081265],[-9.798626,54.080996],[-9.799084,54.080989],[-9.799096,54.081258],[-9.799097,54.081279],[-9.799204,54.081162],[-9.799215,54.08115],[-9.799446,54.080903],[-9.799635,54.080706],[-9.799732,54.080604],[-9.799927,54.080423],[-9.800105,54.080219],[-9.800141,54.080164],[-9.799507,54.080173],[-9.799496,54.079904],[-9.799037,54.079911],[-9.799026,54.079641],[-9.798568,54.079648],[-9.798556,54.079379],[-9.798098,54.079386],[-9.798086,54.079116],[-9.79717,54.07913],[-9.797158,54.078861],[-9.7967,54.078867],[-9.796688,54.078598],[-9.797081,54.078592],[-9.797035,54.078557],[-9.796875,54.078396],[-9.796719,54.078317],[-9.796632,54.078234],[-9.796509,54.078108],[-9.796471,54.078059],[-9.796437,54.077975],[-9.796368,54.077912],[-9.796297,54.077859],[-9.796158,54.077796],[-9.795975,54.077767],[-9.795868,54.077737],[-9.795707,54.077678],[-9.795563,54.07766],[-9.795442,54.077644],[-9.795369,54.077625],[-9.795357,54.077574],[-9.795306,54.077534],[-9.795201,54.07752],[-9.795079,54.077432],[-9.79507,54.077398],[-9.795055,54.077369],[-9.794997,54.077333],[-9.794979,54.077317],[-9.794895,54.077267],[-9.79483,54.077227],[-9.794705,54.077155],[-9.794602,54.077084],[-9.79449,54.07703],[-9.794256,54.076943],[-9.794019,54.076866],[-9.793656,54.076802],[-9.793497,54.076767],[-9.793398,54.076715],[-9.793138,54.076578],[-9.792735,54.076405],[-9.792662,54.076383],[-9.7925,54.076372],[-9.79233,54.076379],[-9.792183,54.076396],[-9.79207,54.07641],[-9.792023,54.076411],[-9.791971,54.076402],[-9.791778,54.076361],[-9.791709,54.076343],[-9.791509,54.076278],[-9.791268,54.076158],[-9.791063,54.076042],[-9.790945,54.075953],[-9.790862,54.07588],[-9.790759,54.075811],[-9.790616,54.075748],[-9.790477,54.075707],[-9.790348,54.075683],[-9.790192,54.075661],[-9.79007,54.075587],[-9.789994,54.075503],[-9.789957,54.075387],[-9.789946,54.075253],[-9.789901,54.075139],[-9.789874,54.075084],[-9.78981,54.075007],[-9.789776,54.074978],[-9.789646,54.0749],[-9.789546,54.074851],[-9.789397,54.074778],[-9.789287,54.0747],[-9.789185,54.074655],[-9.789054,54.07463],[-9.788984,54.074617],[-9.788975,54.074616],[-9.788901,54.074603],[-9.788798,54.074526],[-9.788724,54.074461],[-9.788654,54.074422],[-9.788559,54.074404],[-9.78835,54.074382],[-9.788126,54.074354],[-9.788158,54.074235],[-9.78809,54.074125],[-9.787011,54.073018],[-9.78701,54.072971],[-9.786993,54.072921],[-9.787013,54.072722],[-9.78664,54.072728],[-9.786602,54.07183],[-9.783548,54.071875],[-9.78351,54.070977],[-9.782158,54.070997],[-9.782169,54.071174]],[[-9.794548,54.082135],[-9.79456,54.082404],[-9.794102,54.082411],[-9.79409,54.082142],[-9.794548,54.082135]],[[-9.794055,54.081333],[-9.79409,54.082142],[-9.793632,54.082149],[-9.793597,54.08134],[-9.794055,54.081333]],[[-9.782769,54.074761],[-9.782757,54.074491],[-9.783215,54.074485],[-9.783227,54.074754],[-9.782769,54.074761]],[[-9.795807,54.07942],[-9.79489,54.079434],[-9.794879,54.079164],[-9.795795,54.07915],[-9.795807,54.07942]],[[-9.793974,54.079447],[-9.79489,54.079434],[-9.794902,54.079703],[-9.793985,54.079717],[-9.793974,54.079447]],[[-9.793527,54.079724],[-9.793985,54.079717],[-9.793997,54.079986],[-9.793539,54.079993],[-9.793527,54.079724]],[[-9.78826,54.085194],[-9.788272,54.085464],[-9.787813,54.085471],[-9.787802,54.085201],[-9.78826,54.085194]],[[-9.792408,54.085672],[-9.79242,54.085941],[-9.791961,54.085948],[-9.79195,54.085679],[-9.792408,54.085672]],[[-9.791515,54.086224],[-9.791526,54.086494],[-9.791068,54.086501],[-9.791056,54.086231],[-9.791515,54.086224]],[[-9.789316,54.088414],[-9.789327,54.088683],[-9.788869,54.08869],[-9.788858,54.088421],[-9.789316,54.088414]],[[-9.792089,54.088912],[-9.789797,54.088946],[-9.789786,54.088677],[-9.792077,54.088642],[-9.792089,54.088912]],[[-9.787506,54.08898],[-9.787517,54.08925],[-9.787059,54.089256],[-9.787047,54.088987],[-9.787506,54.08898]],[[-9.787529,54.089519],[-9.787517,54.08925],[-9.788892,54.089229],[-9.788904,54.089499],[-9.787529,54.089519]],[[-9.788916,54.089768],[-9.788904,54.089499],[-9.789362,54.089492],[-9.789374,54.089761],[-9.788916,54.089768]],[[-9.789409,54.09057],[-9.789374,54.089761],[-9.789832,54.089754],[-9.789867,54.090563],[-9.789879,54.090832],[-9.78942,54.090839],[-9.789432,54.091108],[-9.788973,54.091115],[-9.788962,54.090846],[-9.78895,54.090576],[-9.789409,54.09057]],[[-9.785684,54.089277],[-9.785696,54.089546],[-9.784779,54.08956],[-9.784767,54.08929],[-9.785684,54.089277]],[[-9.783851,54.089304],[-9.783862,54.089573],[-9.782946,54.089587],[-9.782934,54.089318],[-9.783851,54.089304]],[[-9.781147,54.090423],[-9.780689,54.090429],[-9.780666,54.08989],[-9.781124,54.089884],[-9.781147,54.090423]],[[-9.784355,54.090375],[-9.783897,54.090382],[-9.783885,54.090112],[-9.784344,54.090106],[-9.784355,54.090375]],[[-9.783439,54.090389],[-9.783897,54.090382],[-9.783909,54.090651],[-9.78345,54.090658],[-9.783439,54.090389]]],[[[-9.79718,54.078666],[-9.797149,54.078643],[-9.797158,54.078861],[-9.798197,54.078845],[-9.798067,54.07878],[-9.797965,54.078757],[-9.797858,54.078755],[-9.797784,54.078773],[-9.797693,54.078762],[-9.797552,54.078738],[-9.797415,54.078728],[-9.797309,54.078724],[-9.797241,54.078694],[-9.79718,54.078666]]],[[[-9.798922,54.078986],[-9.798534,54.078875],[-9.798544,54.079109],[-9.799002,54.079103],[-9.799014,54.079372],[-9.799395,54.079366],[-9.799269,54.079187],[-9.799205,54.079137],[-9.798922,54.078986]]],[[[-9.799482,54.079489],[-9.799477,54.079482],[-9.799484,54.079635],[-9.799752,54.079631],[-9.799482,54.079489]]],[[[-9.799993,54.079725],[-9.799946,54.079719],[-9.799954,54.079897],[-9.800259,54.079893],[-9.800106,54.079785],[-9.800051,54.079725],[-9.800042,54.079726],[-9.799993,54.079725]]],[[[-9.798825,54.081562],[-9.798855,54.081531],[-9.798191,54.081541],[-9.798202,54.081811],[-9.798622,54.081804],[-9.798648,54.081765],[-9.798669,54.081735],[-9.798704,54.081684],[-9.798705,54.081681],[-9.798705,54.081681],[-9.798705,54.081681],[-9.798825,54.081562]]],[[[-9.79811,54.081973],[-9.798208,54.081944],[-9.798202,54.081811],[-9.797744,54.081818],[-9.797756,54.082081],[-9.79811,54.081973]]],[[[-9.797607,54.082126],[-9.797735,54.082087],[-9.796839,54.082101],[-9.79685,54.08235],[-9.797135,54.082264],[-9.797607,54.082126]]],[[[-9.796409,54.082483],[-9.796779,54.082371],[-9.795935,54.082384],[-9.795945,54.082621],[-9.796409,54.082483]]]]}}]}
