{"type":"FeatureCollection","features":[{"type":"Feature","properties":{"source_fid":2439526,"county":"Mayo","bog_geom_ha":261.77385846506712,"low15_pct":62.268041237113401,"low15_ha":163.00145413701088,"overlay_ha":162.7279383302554,"area_delta":-0.27351580675548348},"geometry":{"type":"MultiPolygon","coordinates":[[[[-9.413071,53.688322],[-9.413082,53.688644],[-9.413579,53.688639],[-9.413071,53.688322]]],[[[-9.39571,53.709606],[-9.396262,53.709597],[-9.396667,53.709534],[-9.397129,53.709738],[-9.397121,53.709498],[-9.395607,53.709515],[-9.395577,53.708617],[-9.392549,53.708652],[-9.39252,53.707754],[-9.391006,53.707772],[-9.390976,53.706874],[-9.39249,53.706856],[-9.39246,53.705958],[-9.395488,53.705923],[-9.395458,53.705025],[-9.396296,53.705015],[-9.396291,53.704844],[-9.394928,53.70486],[-9.394919,53.70459],[-9.39491,53.704321],[-9.395364,53.704316],[-9.395356,53.704046],[-9.394447,53.704057],[-9.394456,53.704326],[-9.393548,53.704337],[-9.393557,53.704606],[-9.393102,53.704612],[-9.393111,53.704881],[-9.39312,53.705151],[-9.392666,53.705156],[-9.392675,53.705425],[-9.391766,53.705436],[-9.391784,53.705975],[-9.390876,53.705986],[-9.390884,53.706255],[-9.39043,53.70626],[-9.390448,53.706799],[-9.389994,53.706805],[-9.390003,53.707074],[-9.38864,53.70709],[-9.388649,53.707359],[-9.388195,53.707365],[-9.388203,53.707634],[-9.388212,53.707904],[-9.388221,53.708173],[-9.387767,53.708179],[-9.387776,53.708448],[-9.387794,53.708987],[-9.387339,53.708992],[-9.387348,53.709262],[-9.386894,53.709267],[-9.3869,53.709469],[-9.386957,53.709456],[-9.386984,53.709483],[-9.387094,53.709507],[-9.387101,53.709484],[-9.387166,53.709482],[-9.387224,53.709472],[-9.387356,53.709471],[-9.387437,53.709461],[-9.38753,53.709457],[-9.387596,53.709484],[-9.387694,53.709504],[-9.387706,53.709518],[-9.387752,53.709513],[-9.387888,53.709539],[-9.388009,53.709552],[-9.388064,53.709574],[-9.388096,53.709631],[-9.388206,53.709697],[-9.388269,53.709721],[-9.388347,53.709744],[-9.388382,53.709743],[-9.388471,53.709738],[-9.388506,53.709738],[-9.388506,53.709751],[-9.388492,53.709809],[-9.388513,53.709852],[-9.388584,53.709907],[-9.388649,53.70989],[-9.388777,53.709893],[-9.388855,53.70989],[-9.388934,53.709943],[-9.388964,53.709931],[-9.389041,53.709914],[-9.38911,53.709881],[-9.389157,53.709876],[-9.389214,53.709864],[-9.389276,53.70985],[-9.389369,53.709844],[-9.389529,53.709891],[-9.389591,53.709897],[-9.389681,53.709922],[-9.389744,53.709965],[-9.389834,53.710005],[-9.38988,53.709998],[-9.389954,53.710002],[-9.390004,53.709976],[-9.390104,53.709975],[-9.390233,53.710004],[-9.390307,53.710014],[-9.390403,53.710004],[-9.390485,53.710017],[-9.390559,53.710042],[-9.390638,53.710092],[-9.390735,53.710098],[-9.390755,53.710111],[-9.39086,53.71011],[-9.390898,53.710103],[-9.391027,53.710155],[-9.39109,53.71017],[-9.391167,53.710178],[-9.391264,53.71018],[-9.391407,53.710169],[-9.391458,53.710169],[-9.391478,53.71018],[-9.392042,53.709986],[-9.392672,53.709757],[-9.39313,53.709616],[-9.393722,53.709631],[-9.394015,53.709676],[-9.394345,53.709675],[-9.394813,53.709681],[-9.395167,53.709655],[-9.39571,53.709606]]],[[[-9.38639,53.709271],[-9.386441,53.709306],[-9.38644,53.709272],[-9.386431,53.709003],[-9.386413,53.708464],[-9.385959,53.708469],[-9.385976,53.709008],[-9.385983,53.709202],[-9.386001,53.709208],[-9.386085,53.709182],[-9.386277,53.709249],[-9.38639,53.709271]]],[[[-9.384536,53.709052],[-9.384614,53.709051],[-9.384614,53.709024],[-9.384454,53.709026],[-9.384478,53.709036],[-9.384536,53.709052]]],[[[-9.38406,53.708928],[-9.384156,53.70892],[-9.384142,53.70849],[-9.384133,53.708221],[-9.384124,53.707951],[-9.384106,53.707412],[-9.385015,53.707402],[-9.385032,53.707941],[-9.384578,53.707946],[-9.384587,53.708215],[-9.385041,53.70821],[-9.38505,53.70848],[-9.385959,53.708469],[-9.38595,53.7082],[-9.385941,53.70793],[-9.386395,53.707925],[-9.386386,53.707655],[-9.386841,53.70765],[-9.386832,53.70738],[-9.387286,53.707375],[-9.387277,53.707106],[-9.387268,53.706836],[-9.386814,53.706841],[-9.386796,53.706302],[-9.386787,53.706033],[-9.387242,53.706028],[-9.387233,53.705758],[-9.386779,53.705763],[-9.38677,53.705494],[-9.385861,53.705504],[-9.38587,53.705774],[-9.384053,53.705795],[-9.384062,53.706064],[-9.383608,53.70607],[-9.383617,53.706339],[-9.383625,53.706609],[-9.383171,53.706614],[-9.38318,53.706883],[-9.383189,53.707153],[-9.382735,53.707158],[-9.382726,53.706889],[-9.381817,53.706899],[-9.381808,53.70663],[-9.3818,53.70636],[-9.382254,53.706355],[-9.382245,53.706085],[-9.382236,53.705816],[-9.381328,53.705826],[-9.381337,53.706096],[-9.380428,53.706106],[-9.380419,53.705837],[-9.38041,53.705567],[-9.380865,53.705562],[-9.380856,53.705293],[-9.38131,53.705287],[-9.381301,53.705018],[-9.381755,53.705013],[-9.381747,53.704743],[-9.382201,53.704738],[-9.382192,53.704468],[-9.382646,53.704463],[-9.382637,53.704194],[-9.383092,53.704188],[-9.383083,53.703919],[-9.383537,53.703914],[-9.383528,53.703644],[-9.384437,53.703634],[-9.384445,53.703903],[-9.384454,53.704173],[-9.384463,53.704442],[-9.384472,53.704712],[-9.386289,53.704691],[-9.38628,53.704421],[-9.387189,53.704411],[-9.38718,53.704141],[-9.387634,53.704136],[-9.387625,53.703866],[-9.388079,53.703861],[-9.38807,53.703592],[-9.387616,53.703597],[-9.387598,53.703058],[-9.387144,53.703063],[-9.387126,53.702524],[-9.387581,53.702519],[-9.387572,53.702249],[-9.388026,53.702244],[-9.388035,53.702513],[-9.388053,53.703053],[-9.388507,53.703047],[-9.388525,53.703586],[-9.389433,53.703576],[-9.389424,53.703306],[-9.390333,53.703296],[-9.390324,53.703026],[-9.39214,53.703005],[-9.392132,53.702736],[-9.393948,53.702714],[-9.393957,53.702984],[-9.395774,53.702963],[-9.395765,53.702693],[-9.396219,53.702688],[-9.39621,53.702418],[-9.396665,53.702413],[-9.396656,53.702144],[-9.39711,53.702138],[-9.397119,53.702408],[-9.39939,53.702381],[-9.399381,53.702112],[-9.399835,53.702107],[-9.399826,53.701837],[-9.40028,53.701832],[-9.400265,53.701374],[-9.398367,53.701397],[-9.396177,53.701422],[-9.396184,53.70161],[-9.39573,53.701615],[-9.395723,53.701427],[-9.392312,53.701467],[-9.392282,53.700569],[-9.390769,53.700586],[-9.390739,53.699688],[-9.391122,53.699684],[-9.391116,53.699512],[-9.391108,53.699242],[-9.389745,53.699258],[-9.389754,53.699528],[-9.3893,53.699533],[-9.389291,53.699264],[-9.388383,53.699274],[-9.388365,53.698735],[-9.388356,53.698466],[-9.38881,53.69846],[-9.388801,53.698191],[-9.389255,53.698185],[-9.389247,53.697916],[-9.391517,53.69789],[-9.391526,53.698159],[-9.392434,53.698149],[-9.392426,53.697879],[-9.39288,53.697874],[-9.392871,53.697604],[-9.393325,53.697599],[-9.393316,53.697329],[-9.39377,53.697324],[-9.393761,53.697055],[-9.395124,53.697039],[-9.395115,53.696769],[-9.396477,53.696753],[-9.396468,53.696484],[-9.396922,53.696479],[-9.396914,53.696209],[-9.396905,53.69594],[-9.397359,53.695934],[-9.39735,53.695665],[-9.397804,53.695659],[-9.397795,53.69539],[-9.397786,53.69512],[-9.39824,53.695115],[-9.398231,53.694846],[-9.398685,53.69484],[-9.398676,53.694571],[-9.399131,53.694566],[-9.399122,53.694296],[-9.399113,53.694027],[-9.400021,53.694016],[-9.400003,53.693477],[-9.400457,53.693472],[-9.400448,53.693202],[-9.401356,53.693191],[-9.401347,53.692922],[-9.401802,53.692917],[-9.401793,53.692647],[-9.402247,53.692642],[-9.402238,53.692372],[-9.402692,53.692367],[-9.402683,53.692097],[-9.401775,53.692108],[-9.401784,53.692378],[-9.40133,53.692383],[-9.401338,53.692652],[-9.400884,53.692658],[-9.400875,53.692388],[-9.400866,53.692119],[-9.399504,53.692135],[-9.399513,53.692404],[-9.39588,53.692447],[-9.395889,53.692716],[-9.394981,53.692727],[-9.39499,53.692996],[-9.394536,53.693001],[-9.394545,53.693271],[-9.394091,53.693276],[-9.3941,53.693546],[-9.393646,53.693551],[-9.393637,53.693282],[-9.393628,53.693012],[-9.393619,53.692742],[-9.394073,53.692737],[-9.394064,53.692468],[-9.394518,53.692462],[-9.394511,53.692257],[-9.394508,53.692259],[-9.394463,53.692291],[-9.394402,53.692307],[-9.394336,53.692324],[-9.394242,53.692343],[-9.394135,53.692362],[-9.394036,53.692379],[-9.393958,53.692391],[-9.393902,53.692396],[-9.393854,53.692393],[-9.393808,53.692384],[-9.393767,53.692374],[-9.39373,53.692369],[-9.393693,53.69237],[-9.393662,53.692379],[-9.393642,53.692399],[-9.393628,53.692424],[-9.393611,53.692448],[-9.39359,53.692467],[-9.39356,53.692477],[-9.393504,53.692479],[-9.393447,53.692477],[-9.393283,53.692459],[-9.393171,53.692458],[-9.393113,53.692456],[-9.392993,53.692448],[-9.39291,53.692445],[-9.392844,53.692442],[-9.392809,53.692449],[-9.392776,53.692465],[-9.392768,53.692483],[-9.392753,53.692538],[-9.392712,53.692572],[-9.392627,53.692588],[-9.392579,53.692595],[-9.392516,53.692603],[-9.392439,53.692606],[-9.392348,53.692579],[-9.392337,53.692534],[-9.392339,53.692487],[-9.392303,53.69243],[-9.392235,53.692384],[-9.392216,53.692375],[-9.392099,53.692385],[-9.392047,53.69238],[-9.39195,53.692404],[-9.391802,53.692413],[-9.391734,53.692425],[-9.391621,53.692406],[-9.391559,53.692409],[-9.391436,53.692417],[-9.391358,53.692424],[-9.39125,53.692475],[-9.391134,53.69254],[-9.391073,53.692585],[-9.390957,53.692591],[-9.390747,53.692605],[-9.390614,53.692633],[-9.390566,53.692663],[-9.390562,53.692687],[-9.390583,53.692717],[-9.390615,53.692767],[-9.390634,53.692841],[-9.390592,53.692919],[-9.390534,53.692965],[-9.390396,53.69301],[-9.390286,53.693051],[-9.390903,53.693044],[-9.390894,53.692774],[-9.392257,53.692758],[-9.392265,53.693028],[-9.391811,53.693033],[-9.39182,53.693303],[-9.390912,53.693313],[-9.390921,53.693583],[-9.39093,53.693852],[-9.390476,53.693857],[-9.390485,53.694127],[-9.390939,53.694122],[-9.390948,53.694391],[-9.390494,53.694396],[-9.390502,53.694666],[-9.390048,53.694671],[-9.390066,53.69521],[-9.390974,53.6952],[-9.390983,53.695469],[-9.391437,53.695464],[-9.391446,53.695734],[-9.391464,53.696273],[-9.390556,53.696283],[-9.390538,53.695744],[-9.390084,53.695749],[-9.390075,53.69548],[-9.389167,53.69549],[-9.389176,53.69576],[-9.38963,53.695755],[-9.389639,53.696024],[-9.390093,53.696019],[-9.390102,53.696288],[-9.388285,53.696309],[-9.388276,53.69604],[-9.387822,53.696045],[-9.387831,53.696315],[-9.38784,53.696584],[-9.391473,53.696542],[-9.391482,53.696812],[-9.391936,53.696806],[-9.391945,53.697076],[-9.390128,53.697097],[-9.390137,53.697366],[-9.390591,53.697361],[-9.3906,53.697631],[-9.389692,53.697641],[-9.389683,53.697372],[-9.388775,53.697382],[-9.388766,53.697113],[-9.388757,53.696843],[-9.387849,53.696854],[-9.387857,53.697123],[-9.387866,53.697393],[-9.38832,53.697387],[-9.388338,53.697927],[-9.388347,53.698196],[-9.387893,53.698201],[-9.387902,53.698471],[-9.387911,53.69874],[-9.38792,53.69901],[-9.387928,53.699279],[-9.387474,53.699285],[-9.387483,53.699554],[-9.387492,53.699824],[-9.387501,53.700093],[-9.386593,53.700104],[-9.386584,53.699834],[-9.386129,53.699839],[-9.386121,53.69957],[-9.385666,53.699575],[-9.385675,53.699845],[-9.385221,53.69985],[-9.38523,53.700119],[-9.385684,53.700114],[-9.385693,53.700384],[-9.385711,53.700923],[-9.384802,53.700933],[-9.384785,53.700394],[-9.383876,53.700405],[-9.383867,53.700135],[-9.383859,53.699866],[-9.384313,53.69986],[-9.384304,53.699591],[-9.384295,53.699321],[-9.384749,53.699316],[-9.38474,53.699047],[-9.383832,53.699057],[-9.383823,53.698788],[-9.384277,53.698782],[-9.384269,53.698513],[-9.385177,53.698502],[-9.385168,53.698233],[-9.385159,53.697963],[-9.385613,53.697958],[-9.385596,53.697419],[-9.38605,53.697414],[-9.386041,53.697144],[-9.385587,53.69715],[-9.385578,53.69688],[-9.384215,53.696896],[-9.384224,53.697165],[-9.38377,53.697171],[-9.383761,53.696901],[-9.383752,53.696631],[-9.386023,53.696605],[-9.386014,53.696336],[-9.386468,53.69633],[-9.38646,53.696061],[-9.386914,53.696056],[-9.386905,53.695786],[-9.386896,53.695517],[-9.386887,53.695247],[-9.386869,53.694708],[-9.386861,53.694439],[-9.386852,53.694169],[-9.387306,53.694164],[-9.387297,53.693894],[-9.388205,53.693884],[-9.388196,53.693614],[-9.388031,53.693616],[-9.387986,53.693636],[-9.387873,53.693726],[-9.387792,53.693766],[-9.387726,53.693775],[-9.38762,53.693756],[-9.387532,53.693752],[-9.387445,53.693745],[-9.38736,53.693752],[-9.387245,53.693791],[-9.387119,53.693862],[-9.38701,53.69389],[-9.386958,53.693885],[-9.386856,53.693935],[-9.38674,53.693999],[-9.386749,53.694034],[-9.386753,53.694065],[-9.386748,53.694114],[-9.386716,53.694196],[-9.386689,53.694245],[-9.386641,53.694316],[-9.386611,53.694344],[-9.386586,53.694376],[-9.386569,53.694434],[-9.386505,53.694496],[-9.38639,53.694567],[-9.386295,53.694584],[-9.386213,53.694611],[-9.386162,53.694629],[-9.386065,53.694665],[-9.385984,53.694709],[-9.385969,53.69476],[-9.385951,53.694822],[-9.385882,53.694927],[-9.38584,53.695],[-9.385792,53.695121],[-9.385777,53.695175],[-9.385736,53.695196],[-9.385646,53.695197],[-9.385454,53.695181],[-9.385339,53.695197],[-9.385289,53.695217],[-9.38522,53.695296],[-9.38517,53.695314],[-9.385073,53.695329],[-9.384945,53.695286],[-9.384831,53.695277],[-9.384698,53.695261],[-9.384622,53.695273],[-9.384585,53.695298],[-9.384471,53.69537],[-9.384387,53.6954],[-9.384277,53.695428],[-9.384063,53.695421],[-9.383855,53.695394],[-9.383699,53.695364],[-9.38337,53.695393],[-9.383189,53.695405],[-9.383078,53.695382],[-9.382994,53.695371],[-9.382889,53.695375],[-9.382799,53.695337],[-9.382731,53.695321],[-9.382709,53.695306],[-9.382628,53.695324],[-9.382577,53.695342],[-9.382561,53.695358],[-9.382423,53.695373],[-9.382313,53.695368],[-9.382249,53.695378],[-9.382234,53.695383],[-9.382159,53.69541],[-9.381995,53.695432],[-9.381865,53.695407],[-9.381687,53.695301],[-9.381653,53.695195],[-9.381606,53.695153],[-9.381535,53.695138],[-9.381445,53.695139],[-9.381321,53.695162],[-9.381211,53.695171],[-9.381147,53.695203],[-9.381013,53.695258],[-9.380875,53.695315],[-9.380799,53.695346],[-9.380684,53.695377],[-9.380597,53.695438],[-9.380451,53.695487],[-9.380378,53.695529],[-9.380264,53.695551],[-9.380133,53.695609],[-9.379991,53.695648],[-9.37985,53.695664],[-9.379742,53.695682],[-9.379641,53.695723],[-9.379581,53.695731],[-9.379467,53.695744],[-9.379364,53.695764],[-9.379302,53.695782],[-9.379232,53.695834],[-9.379119,53.695863],[-9.379025,53.695905],[-9.378927,53.695965],[-9.378816,53.695994],[-9.378666,53.695989],[-9.378574,53.69599],[-9.378506,53.69601],[-9.378415,53.696052],[-9.378276,53.696058],[-9.378162,53.696072],[-9.377982,53.696089],[-9.377843,53.696129],[-9.377784,53.696161],[-9.382827,53.696103],[-9.382844,53.696642],[-9.381482,53.696658],[-9.381491,53.696927],[-9.380582,53.696938],[-9.380591,53.697207],[-9.379683,53.697218],[-9.379709,53.698026],[-9.377059,53.698057],[-9.377146,53.700744],[-9.375765,53.70076],[-9.375762,53.700953],[-9.375747,53.701013],[-9.375717,53.701169],[-9.375658,53.701531],[-9.375672,53.701955],[-9.375673,53.701958],[-9.375718,53.702226],[-9.375757,53.702457],[-9.375753,53.702498],[-9.37576,53.702585],[-9.375804,53.703096],[-9.375786,53.703165],[-9.375765,53.703235],[-9.375714,53.703248],[-9.37575,53.704354],[-9.375355,53.704358],[-9.375366,53.704366],[-9.37539,53.704406],[-9.375391,53.704444],[-9.375409,53.704464],[-9.37544,53.704474],[-9.375492,53.704469],[-9.375531,53.704468],[-9.375569,53.704479],[-9.375583,53.704523],[-9.375628,53.704531],[-9.375652,53.704553],[-9.37572,53.704579],[-9.375732,53.704598],[-9.375739,53.70461],[-9.375753,53.704632],[-9.375777,53.704644],[-9.375822,53.704666],[-9.375883,53.704694],[-9.375901,53.704724],[-9.375922,53.704754],[-9.37594,53.704768],[-9.375964,53.704773],[-9.376035,53.704763],[-9.376078,53.704726],[-9.376104,53.704708],[-9.376148,53.704695],[-9.376263,53.704688],[-9.376335,53.704691],[-9.376484,53.704682],[-9.376548,53.704683],[-9.376603,53.704689],[-9.376634,53.704707],[-9.376655,53.704727],[-9.376679,53.704754],[-9.376717,53.704788],[-9.376766,53.704814],[-9.376854,53.704835],[-9.376916,53.704863],[-9.376917,53.704887],[-9.376938,53.704917],[-9.376952,53.704941],[-9.376905,53.704995],[-9.37689,53.705014],[-9.37687,53.705033],[-9.37686,53.705057],[-9.376864,53.705083],[-9.376879,53.705113],[-9.376883,53.705157],[-9.376891,53.705177],[-9.376896,53.705234],[-9.376853,53.705309],[-9.37683,53.705331],[-9.376821,53.705355],[-9.376771,53.705414],[-9.376755,53.705436],[-9.376742,53.705451],[-9.376753,53.705481],[-9.376754,53.705511],[-9.376744,53.705547],[-9.376722,53.705578],[-9.376705,53.705602],[-9.376699,53.705626],[-9.376713,53.705652],[-9.376748,53.705696],[-9.376754,53.705759],[-9.376748,53.705809],[-9.376736,53.705861],[-9.376713,53.705902],[-9.376708,53.705946],[-9.376723,53.706002],[-9.376765,53.706042],[-9.376874,53.706088],[-9.376927,53.706112],[-9.376916,53.706135],[-9.376874,53.70617],[-9.37684,53.706211],[-9.376811,53.706251],[-9.376816,53.706308],[-9.376858,53.706368],[-9.376924,53.706423],[-9.377031,53.706473],[-9.377059,53.706501],[-9.377077,53.706567],[-9.377064,53.70669],[-9.377071,53.706704],[-9.377112,53.70672],[-9.377232,53.706769],[-9.377311,53.706796],[-9.377352,53.70682],[-9.37737,53.706854],[-9.377394,53.706874],[-9.37746,53.706902],[-9.377512,53.706949],[-9.377729,53.706946],[-9.377733,53.707067],[-9.377735,53.707067],[-9.377789,53.707062],[-9.3778,53.707084],[-9.377798,53.707108],[-9.377832,53.70713],[-9.377876,53.707133],[-9.377975,53.707126],[-9.378084,53.707157],[-9.378152,53.707179],[-9.378194,53.707215],[-9.378236,53.707269],[-9.378295,53.707312],[-9.378308,53.707332],[-9.378286,53.707383],[-9.378318,53.707405],[-9.378363,53.707445],[-9.378369,53.70747],[-9.37832,53.707512],[-9.378384,53.707571],[-9.378425,53.707603],[-9.378497,53.707639],[-9.378597,53.707688],[-9.378674,53.70771],[-9.378717,53.707712],[-9.378752,53.707712],[-9.37877,53.707689],[-9.378783,53.707664],[-9.378803,53.707654],[-9.378847,53.70765],[-9.37901,53.707662],[-9.379123,53.707677],[-9.379181,53.707695],[-9.379216,53.707735],[-9.379275,53.707766],[-9.379357,53.707784],[-9.379435,53.707787],[-9.379509,53.70778],[-9.379554,53.70779],[-9.379708,53.707859],[-9.379817,53.707884],[-9.379947,53.707895],[-9.380001,53.707898],[-9.380105,53.707906],[-9.380206,53.707939],[-9.380231,53.707951],[-9.380305,53.707984],[-9.380313,53.708],[-9.380381,53.708076],[-9.380448,53.708121],[-9.380496,53.708192],[-9.38057,53.708209],[-9.380597,53.708198],[-9.38069,53.70819],[-9.380686,53.708201],[-9.380752,53.708208],[-9.380798,53.7082],[-9.380818,53.708212],[-9.380844,53.708296],[-9.380904,53.708374],[-9.380959,53.708403],[-9.380998,53.708419],[-9.381076,53.708444],[-9.38113,53.708448],[-9.381179,53.708509],[-9.381226,53.708543],[-9.381273,53.708547],[-9.381346,53.708547],[-9.381374,53.708553],[-9.381374,53.708576],[-9.381344,53.708602],[-9.381364,53.708636],[-9.381469,53.708658],[-9.381506,53.708717],[-9.381556,53.708722],[-9.381611,53.708726],[-9.381642,53.708725],[-9.381699,53.7087],[-9.381796,53.708694],[-9.381846,53.708696],[-9.381876,53.708699],[-9.38187,53.708516],[-9.382325,53.708511],[-9.382335,53.70883],[-9.382392,53.708847],[-9.382427,53.708842],[-9.382512,53.708825],[-9.382616,53.708803],[-9.382721,53.708816],[-9.382791,53.70882],[-9.382856,53.708817],[-9.382914,53.708812],[-9.38296,53.708777],[-9.382986,53.708742],[-9.383025,53.708747],[-9.383095,53.708755],[-9.383134,53.708753],[-9.383189,53.708784],[-9.383267,53.708825],[-9.383345,53.708833],[-9.383345,53.708852],[-9.383408,53.708885],[-9.383455,53.708887],[-9.383532,53.708873],[-9.38359,53.708863],[-9.38366,53.708867],[-9.383699,53.70889],[-9.383784,53.708898],[-9.383913,53.708915],[-9.383998,53.708924],[-9.384053,53.708937],[-9.38406,53.708928]],[[-9.378638,53.706936],[-9.377729,53.706946],[-9.37772,53.706677],[-9.377266,53.706682],[-9.377248,53.706143],[-9.377231,53.705604],[-9.377222,53.705334],[-9.377676,53.705329],[-9.377667,53.70506],[-9.378576,53.705049],[-9.378585,53.705319],[-9.37813,53.705324],[-9.378139,53.705594],[-9.377685,53.705599],[-9.377703,53.706138],[-9.378157,53.706133],[-9.378174,53.706672],[-9.378629,53.706666],[-9.378638,53.706936]],[[-9.378646,53.707205],[-9.378638,53.706936],[-9.379546,53.706925],[-9.379555,53.707195],[-9.379101,53.7072],[-9.379109,53.70747],[-9.378655,53.707475],[-9.378646,53.707205]],[[-9.382853,53.696911],[-9.382844,53.696642],[-9.383298,53.696637],[-9.383307,53.696906],[-9.382853,53.696911]],[[-9.392346,53.695453],[-9.392354,53.695723],[-9.3919,53.695728],[-9.391891,53.695459],[-9.392346,53.695453]],[[-9.392363,53.695992],[-9.392354,53.695723],[-9.392809,53.695718],[-9.392817,53.695987],[-9.392363,53.695992]],[[-9.385265,53.701197],[-9.38572,53.701192],[-9.385737,53.701731],[-9.385283,53.701736],[-9.385265,53.701197]],[[-9.388017,53.701974],[-9.388008,53.701705],[-9.388462,53.7017],[-9.388471,53.701969],[-9.388017,53.701974]],[[-9.381526,53.698005],[-9.38198,53.698],[-9.381998,53.698539],[-9.381544,53.698544],[-9.381526,53.698005]],[[-9.379493,53.705308],[-9.379484,53.705039],[-9.379939,53.705034],[-9.379947,53.705303],[-9.379493,53.705308]],[[-9.380455,53.706915],[-9.380446,53.706645],[-9.381354,53.706635],[-9.381363,53.706904],[-9.380455,53.706915]]],[[[-9.388293,53.693602],[-9.388196,53.693592],[-9.388196,53.693614],[-9.389559,53.693598],[-9.38955,53.693329],[-9.390004,53.693324],[-9.389996,53.69309],[-9.389953,53.693087],[-9.389838,53.693117],[-9.389701,53.69316],[-9.389527,53.693247],[-9.389514,53.693255],[-9.38946,53.693291],[-9.389383,53.693302],[-9.389241,53.69331],[-9.389143,53.693309],[-9.389103,53.693325],[-9.389081,53.693386],[-9.389072,53.693419],[-9.388937,53.693451],[-9.388788,53.693471],[-9.388683,53.693477],[-9.388626,53.693484],[-9.388571,53.693549],[-9.388513,53.693573],[-9.38841,53.693586],[-9.388293,53.693602]]],[[[-9.394972,53.692106],[-9.394961,53.692107],[-9.394963,53.692188],[-9.396326,53.692172],[-9.396317,53.691902],[-9.396203,53.691904],[-9.396162,53.691958],[-9.396065,53.69196],[-9.395944,53.691955],[-9.395878,53.692002],[-9.395819,53.692012],[-9.395758,53.692023],[-9.395703,53.692031],[-9.39565,53.692045],[-9.395573,53.692027],[-9.395497,53.692009],[-9.395419,53.691998],[-9.395329,53.692],[-9.395239,53.692009],[-9.395166,53.692017],[-9.395113,53.692026],[-9.395079,53.692038],[-9.395051,53.692057],[-9.395019,53.692083],[-9.394972,53.692106]]],[[[-9.396769,53.6918],[-9.396768,53.6918],[-9.396771,53.691897],[-9.398133,53.691881],[-9.39813,53.691803],[-9.39807,53.691787],[-9.397968,53.691757],[-9.397894,53.691729],[-9.397838,53.691703],[-9.397803,53.691686],[-9.397764,53.69167],[-9.397722,53.691663],[-9.397666,53.69166],[-9.3976,53.691661],[-9.397534,53.691672],[-9.397477,53.691699],[-9.397432,53.69173],[-9.397398,53.691755],[-9.397367,53.691771],[-9.39733,53.691774],[-9.397272,53.691768],[-9.397193,53.691757],[-9.39711,53.691751],[-9.397027,53.691754],[-9.396938,53.691767],[-9.396849,53.691785],[-9.396769,53.6918]]],[[[-9.399059,53.691785],[-9.399038,53.691786],[-9.399041,53.69187],[-9.400403,53.691854],[-9.400395,53.691585],[-9.401303,53.691574],[-9.401294,53.691305],[-9.402656,53.691289],[-9.402648,53.691044],[-9.402611,53.691046],[-9.402549,53.691051],[-9.402493,53.691072],[-9.402439,53.69111],[-9.402409,53.691129],[-9.402383,53.691137],[-9.402373,53.691138],[-9.402353,53.691127],[-9.402327,53.691095],[-9.402296,53.691075],[-9.402251,53.691067],[-9.402187,53.691073],[-9.402104,53.691093],[-9.402019,53.691111],[-9.401929,53.691137],[-9.401846,53.69116],[-9.401765,53.691198],[-9.401674,53.69123],[-9.401523,53.691281],[-9.401362,53.691292],[-9.401264,53.691307],[-9.401207,53.691323],[-9.401178,53.691345],[-9.401166,53.69137],[-9.401157,53.691393],[-9.401147,53.69141],[-9.401138,53.691424],[-9.401117,53.691435],[-9.401068,53.691443],[-9.400997,53.691449],[-9.400916,53.691456],[-9.400829,53.691469],[-9.400745,53.691489],[-9.400673,53.69151],[-9.400614,53.691526],[-9.400555,53.691538],[-9.400491,53.69155],[-9.400418,53.691566],[-9.400344,53.691585],[-9.400275,53.691603],[-9.400199,53.691613],[-9.400114,53.691616],[-9.400035,53.691615],[-9.39997,53.691614],[-9.399907,53.691618],[-9.399846,53.691628],[-9.399795,53.691643],[-9.399758,53.691662],[-9.399737,53.691683],[-9.399723,53.6917],[-9.399717,53.691703],[-9.39969,53.691707],[-9.399663,53.691703],[-9.399599,53.691688],[-9.399557,53.691682],[-9.399529,53.691684],[-9.399518,53.691688],[-9.399497,53.691699],[-9.399477,53.69172],[-9.399456,53.691759],[-9.39944,53.691794],[-9.399423,53.691811],[-9.399403,53.691823],[-9.399376,53.691831],[-9.399329,53.691829],[-9.399285,53.691815],[-9.399239,53.6918],[-9.399186,53.691792],[-9.399126,53.691788],[-9.399059,53.691785]]],[[[-9.402809,53.691],[-9.402751,53.691018],[-9.403555,53.691009],[-9.403546,53.690739],[-9.40353,53.690739],[-9.403489,53.690758],[-9.403443,53.690796],[-9.403405,53.690837],[-9.403376,53.690868],[-9.403301,53.690899],[-9.403157,53.690937],[-9.403021,53.690967],[-9.402909,53.690985],[-9.402809,53.691]]],[[[-9.406719,53.690516],[-9.40581,53.690527],[-9.405817,53.690713],[-9.405826,53.690982],[-9.406734,53.690971],[-9.406719,53.690516]]],[[[-9.407149,53.692308],[-9.407113,53.691237],[-9.406289,53.691246],[-9.406298,53.691516],[-9.406752,53.69151],[-9.406761,53.69178],[-9.406307,53.691785],[-9.406316,53.692055],[-9.406325,53.692324],[-9.40587,53.69233],[-9.405879,53.692599],[-9.405888,53.692869],[-9.405434,53.692874],[-9.405443,53.693144],[-9.404989,53.693149],[-9.404998,53.693418],[-9.405007,53.693688],[-9.404553,53.693693],[-9.404562,53.693963],[-9.404108,53.693968],[-9.404099,53.693699],[-9.403191,53.693709],[-9.4032,53.693979],[-9.403654,53.693973],[-9.403663,53.694243],[-9.403209,53.694248],[-9.403218,53.694518],[-9.403253,53.695596],[-9.402799,53.695601],[-9.402808,53.695871],[-9.402354,53.695876],[-9.402345,53.695606],[-9.402309,53.694528],[-9.401401,53.694539],[-9.40141,53.694808],[-9.401419,53.695078],[-9.401428,53.695348],[-9.401446,53.695887],[-9.4019,53.695881],[-9.401918,53.69642],[-9.401927,53.69669],[-9.401473,53.696695],[-9.401479,53.696868],[-9.402758,53.696853],[-9.402728,53.695954],[-9.404242,53.695937],[-9.404212,53.695038],[-9.405725,53.695021],[-9.405695,53.694123],[-9.407209,53.694105],[-9.407179,53.693207],[-9.408692,53.693189],[-9.408662,53.692291],[-9.407149,53.692308]]],[[[-9.401275,53.697768],[-9.401257,53.697237],[-9.401037,53.697239],[-9.401045,53.697509],[-9.400591,53.697514],[-9.4006,53.697776],[-9.401275,53.697768]]],[[[-9.399761,53.697786],[-9.400146,53.697782],[-9.400137,53.69752],[-9.400128,53.69725],[-9.40011,53.696711],[-9.400101,53.696441],[-9.400556,53.696436],[-9.400538,53.695897],[-9.400992,53.695892],[-9.400974,53.695353],[-9.40052,53.695358],[-9.400511,53.695089],[-9.400965,53.695083],[-9.400956,53.694814],[-9.400502,53.694819],[-9.400493,53.69455],[-9.400484,53.69428],[-9.40003,53.694285],[-9.400039,53.694555],[-9.400048,53.694824],[-9.399594,53.69483],[-9.399603,53.695099],[-9.399148,53.695105],[-9.399157,53.695374],[-9.398703,53.695379],[-9.398712,53.695649],[-9.398258,53.695654],[-9.398267,53.695924],[-9.399175,53.695913],[-9.399166,53.695644],[-9.39962,53.695638],[-9.399629,53.695908],[-9.399638,53.696177],[-9.399184,53.696183],[-9.399193,53.696452],[-9.399202,53.696722],[-9.398748,53.696727],[-9.398757,53.696996],[-9.398303,53.697002],[-9.398312,53.697271],[-9.397858,53.697277],[-9.397866,53.697546],[-9.397412,53.697551],[-9.397421,53.697821],[-9.39743,53.69809],[-9.396976,53.698096],[-9.396985,53.698365],[-9.396531,53.69837],[-9.39654,53.69864],[-9.396086,53.698645],[-9.396088,53.698728],[-9.399791,53.698684],[-9.399761,53.697786]]],[[[-9.39528,53.699635],[-9.395265,53.699194],[-9.395195,53.699195],[-9.395186,53.698925],[-9.394278,53.698936],[-9.394269,53.698666],[-9.393815,53.698672],[-9.393824,53.698941],[-9.39337,53.698947],[-9.393378,53.699216],[-9.39247,53.699227],[-9.392479,53.699496],[-9.392025,53.699501],[-9.39203,53.699673],[-9.39528,53.699635]]],[[[-9.401364,53.700463],[-9.401391,53.701279],[-9.401625,53.701277],[-9.401616,53.701007],[-9.402979,53.700991],[-9.40297,53.700722],[-9.403424,53.700716],[-9.403415,53.700447],[-9.403869,53.700442],[-9.403851,53.699903],[-9.403842,53.699633],[-9.40475,53.699622],[-9.404741,53.699353],[-9.405196,53.699348],[-9.405187,53.699078],[-9.405641,53.699073],[-9.40565,53.699342],[-9.405659,53.699612],[-9.405878,53.699609],[-9.405845,53.698613],[-9.404331,53.698631],[-9.404361,53.699529],[-9.402848,53.699547],[-9.402878,53.700445],[-9.401364,53.700463]]],[[[-9.407418,53.700392],[-9.406594,53.700402],[-9.406594,53.70041],[-9.406603,53.700679],[-9.406612,53.700949],[-9.406158,53.700954],[-9.406167,53.701224],[-9.405258,53.701234],[-9.405261,53.701316],[-9.407448,53.70129],[-9.407418,53.700392]]],[[[-9.404451,53.702224],[-9.404445,53.702053],[-9.403923,53.702059],[-9.403929,53.70223],[-9.404451,53.702224]]],[[[-9.401392,53.694269],[-9.401383,53.694],[-9.401374,53.69373],[-9.401365,53.693461],[-9.400911,53.693466],[-9.400929,53.694005],[-9.400938,53.694275],[-9.401392,53.694269]]],[[[-9.392016,53.699232],[-9.392007,53.698962],[-9.392461,53.698957],[-9.392452,53.698688],[-9.391544,53.698698],[-9.391562,53.699237],[-9.392016,53.699232]]],[[[-9.390421,53.705991],[-9.390876,53.705986],[-9.390858,53.705447],[-9.390404,53.705452],[-9.390412,53.705721],[-9.390421,53.705991]]],[[[-9.386094,53.698761],[-9.386548,53.698756],[-9.386539,53.698487],[-9.386085,53.698492],[-9.386094,53.698761]]]]}}]}
