{"type":"FeatureCollection","features":[{"type":"Feature","properties":{"source_fid":2441624,"county":"Galway","bog_geom_ha":257.2875535196074,"low15_pct":69.403508771929822,"low15_ha":178.56658977606435,"overlay_ha":178.67033650402152,"area_delta":0.10374672795717288},"geometry":{"type":"MultiPolygon","coordinates":[[[[-9.256313,53.375846],[-9.256313,53.37587],[-9.256344,53.375895],[-9.256357,53.375904],[-9.256954,53.375897],[-9.256955,53.375942],[-9.256986,53.375939],[-9.257069,53.37594],[-9.257232,53.375957],[-9.257272,53.37602],[-9.2573,53.376083],[-9.257298,53.376129],[-9.257335,53.376171],[-9.257356,53.376222],[-9.257342,53.37629],[-9.257303,53.376366],[-9.257213,53.37647],[-9.257161,53.376513],[-9.257066,53.376554],[-9.256975,53.376598],[-9.25698,53.376796],[-9.258483,53.37678],[-9.258509,53.377678],[-9.257089,53.377693],[-9.257118,53.377776],[-9.257269,53.377802],[-9.257424,53.377792],[-9.257515,53.377846],[-9.257531,53.377855],[-9.257648,53.377933],[-9.257752,53.378018],[-9.257778,53.378043],[-9.257813,53.378077],[-9.257916,53.378154],[-9.257938,53.378219],[-9.258045,53.378301],[-9.258089,53.378325],[-9.258176,53.378384],[-9.258253,53.378442],[-9.258392,53.378549],[-9.258432,53.378578],[-9.258886,53.378573],[-9.258885,53.378511],[-9.259335,53.378507],[-9.259337,53.378568],[-9.26069,53.378554],[-9.260688,53.378492],[-9.260237,53.378497],[-9.260229,53.378228],[-9.259778,53.378232],[-9.25977,53.377963],[-9.258869,53.377972],[-9.258861,53.377703],[-9.258853,53.377433],[-9.259754,53.377424],[-9.259746,53.377154],[-9.260197,53.377149],[-9.260205,53.377419],[-9.260656,53.377414],[-9.260664,53.377684],[-9.262918,53.37766],[-9.26291,53.37739],[-9.262459,53.377395],[-9.262451,53.377126],[-9.262443,53.376856],[-9.262894,53.376851],[-9.26287,53.376043],[-9.262862,53.375773],[-9.263763,53.375764],[-9.263771,53.376033],[-9.264222,53.376028],[-9.264246,53.376837],[-9.264697,53.376832],[-9.264705,53.377102],[-9.265156,53.377097],[-9.265163,53.377367],[-9.266065,53.377357],[-9.266073,53.377627],[-9.266524,53.377622],[-9.266516,53.377352],[-9.2665,53.376813],[-9.266951,53.376808],[-9.266967,53.377347],[-9.267868,53.377338],[-9.267876,53.377607],[-9.269228,53.377593],[-9.269236,53.377863],[-9.270138,53.377853],[-9.27013,53.377583],[-9.271031,53.377574],[-9.271039,53.377843],[-9.27149,53.377839],[-9.271498,53.378108],[-9.27285,53.378094],[-9.272842,53.377824],[-9.273293,53.377819],[-9.273285,53.37755],[-9.272834,53.377555],[-9.272826,53.377285],[-9.27411,53.377271],[-9.274341,53.37701],[-9.274585,53.376765],[-9.274782,53.376554],[-9.275023,53.37626],[-9.275189,53.376075],[-9.275369,53.375869],[-9.275496,53.375723],[-9.275778,53.375419],[-9.275826,53.375366],[-9.275024,53.375374],[-9.275016,53.375105],[-9.275,53.374566],[-9.274549,53.37457],[-9.274533,53.374031],[-9.274082,53.374036],[-9.27409,53.374306],[-9.273189,53.374315],[-9.273181,53.374046],[-9.273165,53.373507],[-9.273615,53.373502],[-9.273607,53.373232],[-9.273591,53.372693],[-9.273575,53.372154],[-9.272674,53.372164],[-9.272682,53.372433],[-9.273132,53.372429],[-9.27314,53.372698],[-9.27269,53.372703],[-9.272698,53.372972],[-9.272706,53.373242],[-9.272255,53.373247],[-9.272263,53.373516],[-9.271362,53.373526],[-9.271354,53.373256],[-9.271346,53.372987],[-9.271796,53.372982],[-9.271788,53.372713],[-9.271338,53.372717],[-9.27133,53.372448],[-9.271322,53.372178],[-9.271772,53.372173],[-9.271756,53.371634],[-9.269953,53.371654],[-9.269945,53.371384],[-9.269044,53.371394],[-9.269036,53.371124],[-9.267684,53.371138],[-9.267676,53.370869],[-9.267225,53.370874],[-9.267217,53.370604],[-9.266316,53.370614],[-9.266308,53.370344],[-9.265406,53.370354],[-9.265399,53.370084],[-9.264948,53.370089],[-9.26494,53.369819],[-9.264932,53.36955],[-9.264916,53.369011],[-9.265367,53.369006],[-9.265359,53.368736],[-9.265809,53.368732],[-9.265801,53.368462],[-9.265793,53.368193],[-9.266244,53.368188],[-9.266228,53.367649],[-9.266679,53.367644],[-9.266671,53.367374],[-9.267121,53.36737],[-9.267113,53.3671],[-9.267564,53.367095],[-9.267556,53.366826],[-9.268007,53.366821],[-9.267999,53.366551],[-9.267983,53.366012],[-9.268433,53.366008],[-9.268449,53.366547],[-9.26935,53.366537],[-9.269342,53.366268],[-9.270244,53.366258],[-9.270252,53.366527],[-9.27026,53.366797],[-9.271161,53.366787],[-9.271153,53.366518],[-9.272956,53.366499],[-9.272948,53.366229],[-9.275201,53.366205],[-9.275209,53.366475],[-9.277462,53.366451],[-9.27747,53.36672],[-9.277921,53.366715],[-9.277929,53.366985],[-9.277937,53.367254],[-9.278387,53.36725],[-9.278396,53.367519],[-9.279297,53.367509],[-9.279305,53.367779],[-9.279313,53.368048],[-9.279764,53.368044],[-9.279772,53.368313],[-9.280222,53.368308],[-9.280214,53.368039],[-9.280665,53.368034],[-9.280673,53.368304],[-9.280681,53.368573],[-9.281132,53.368568],[-9.281148,53.369107],[-9.281599,53.369102],[-9.281615,53.369642],[-9.282065,53.369637],[-9.282074,53.369906],[-9.282524,53.369901],[-9.282527,53.369978],[-9.282693,53.369913],[-9.283262,53.369713],[-9.283243,53.369641],[-9.283166,53.369372],[-9.283065,53.368861],[-9.28296,53.368466],[-9.282949,53.368385],[-9.282967,53.368315],[-9.283119,53.368208],[-9.283213,53.368154],[-9.283184,53.368123],[-9.283538,53.367708],[-9.283787,53.367408],[-9.283939,53.367277],[-9.284017,53.367241],[-9.284271,53.367173],[-9.28462,53.367099],[-9.285186,53.366977],[-9.285221,53.366906],[-9.285223,53.366873],[-9.285217,53.366862],[-9.2852,53.36685],[-9.285126,53.366813],[-9.285108,53.3668],[-9.285078,53.366777],[-9.285069,53.36676],[-9.285077,53.366699],[-9.285081,53.366681],[-9.285115,53.366603],[-9.285148,53.366519],[-9.285153,53.366476],[-9.285151,53.366458],[-9.28513,53.366387],[-9.28512,53.366371],[-9.285072,53.366318],[-9.285056,53.366303],[-9.284913,53.366187],[-9.284831,53.366119],[-9.284818,53.366103],[-9.284806,53.366081],[-9.28479,53.366023],[-9.284787,53.366005],[-9.284788,53.365934],[-9.284783,53.36592],[-9.284774,53.365892],[-9.284717,53.365854],[-9.284706,53.365839],[-9.284633,53.365705],[-9.284618,53.365679],[-9.284612,53.365662],[-9.284611,53.365654],[-9.284629,53.365598],[-9.284634,53.365573],[-9.284638,53.365556],[-9.284632,53.365543],[-9.28458,53.365497],[-9.284563,53.365487],[-9.284522,53.365462],[-9.284507,53.365447],[-9.284495,53.365411],[-9.284486,53.365391],[-9.284483,53.365383],[-9.284466,53.365318],[-9.284463,53.365297],[-9.284434,53.365249],[-9.284387,53.365196],[-9.284369,53.365182],[-9.284356,53.365177],[-9.284343,53.365171],[-9.28433,53.365168],[-9.284304,53.365152],[-9.284268,53.365146],[-9.284242,53.365142],[-9.284219,53.365142],[-9.284175,53.365136],[-9.284144,53.365129],[-9.284118,53.365126],[-9.283919,53.365083],[-9.283904,53.365078],[-9.283886,53.365068],[-9.283893,53.365052],[-9.283922,53.36503],[-9.283934,53.365014],[-9.283942,53.364991],[-9.283943,53.364962],[-9.28392,53.364943],[-9.283854,53.36488],[-9.283841,53.364864],[-9.283825,53.364846],[-9.283819,53.36483],[-9.283813,53.364813],[-9.283822,53.364806],[-9.283844,53.36479],[-9.283858,53.364785],[-9.283889,53.364781],[-9.283928,53.364772],[-9.28395,53.364762],[-9.283965,53.364748],[-9.283975,53.364731],[-9.283978,53.36472],[-9.283979,53.364702],[-9.283961,53.364606],[-9.283953,53.364565],[-9.283946,53.364548],[-9.283862,53.364394],[-9.28385,53.364377],[-9.283835,53.36436],[-9.283818,53.364345],[-9.28374,53.364293],[-9.283722,53.364279],[-9.283685,53.364244],[-9.283673,53.364228],[-9.283638,53.364151],[-9.283606,53.364029],[-9.28357,53.363881],[-9.283565,53.363863],[-9.283538,53.363798],[-9.283525,53.363774],[-9.283524,53.363765],[-9.283526,53.363747],[-9.28352,53.363706],[-9.283573,53.363663],[-9.283589,53.363649],[-9.283644,53.363596],[-9.283698,53.363541],[-9.283723,53.363512],[-9.28379,53.363433],[-9.283797,53.363416],[-9.283834,53.363344],[-9.28384,53.363327],[-9.28386,53.36322],[-9.283861,53.363202],[-9.283858,53.363108],[-9.283852,53.363091],[-9.283793,53.363014],[-9.283779,53.362999],[-9.283639,53.362872],[-9.283503,53.362747],[-9.283434,53.362673],[-9.283429,53.362663],[-9.283425,53.362656],[-9.283423,53.362648],[-9.283442,53.362596],[-9.283452,53.362554],[-9.283446,53.362541],[-9.283446,53.362541],[-9.283446,53.362541],[-9.283433,53.362513],[-9.283424,53.362495],[-9.283418,53.362482],[-9.283409,53.362371],[-9.283404,53.362317],[-9.283404,53.362317],[-9.283405,53.362307],[-9.283405,53.362299],[-9.28341,53.362267],[-9.283405,53.36223],[-9.283402,53.362209],[-9.283403,53.362193],[-9.283404,53.362191],[-9.283406,53.362183],[-9.283417,53.362168],[-9.283428,53.362153],[-9.283434,53.362147],[-9.283443,53.362138],[-9.28356,53.362043],[-9.283586,53.362021],[-9.283609,53.362002],[-9.283643,53.361975],[-9.283643,53.361975],[-9.283656,53.361959],[-9.283696,53.361878],[-9.283703,53.36186],[-9.283716,53.361804],[-9.283716,53.361786],[-9.283705,53.361743],[-9.283695,53.3617],[-9.283692,53.361695],[-9.283686,53.361683],[-9.283687,53.36167],[-9.283685,53.361663],[-9.283685,53.36165],[-9.283699,53.361587],[-9.28372,53.361496],[-9.28375,53.361413],[-9.283754,53.361396],[-9.283758,53.361345],[-9.283758,53.361344],[-9.283753,53.361327],[-9.283742,53.361309],[-9.283721,53.361276],[-9.28367,53.361174],[-9.283635,53.361101],[-9.283633,53.361098],[-9.283625,53.361084],[-9.283548,53.360973],[-9.28353,53.36096],[-9.28351,53.360951],[-9.283485,53.360942],[-9.283404,53.360917],[-9.283354,53.360902],[-9.283348,53.360899],[-9.283331,53.360891],[-9.283223,53.360813],[-9.283202,53.3608],[-9.283081,53.360739],[-9.28305,53.360723],[-9.283044,53.360719],[-9.283031,53.360709],[-9.282988,53.360635],[-9.282892,53.360553],[-9.282887,53.360544],[-9.282883,53.360536],[-9.282863,53.360435],[-9.282861,53.360428],[-9.282855,53.360414],[-9.282804,53.360291],[-9.282804,53.360274],[-9.282804,53.360274],[-9.282805,53.360272],[-9.282807,53.360267],[-9.282812,53.360264],[-9.282826,53.360255],[-9.282869,53.360245],[-9.282885,53.360242],[-9.282906,53.36023],[-9.282922,53.360212],[-9.282946,53.360179],[-9.282954,53.360162],[-9.282956,53.360154],[-9.282957,53.360149],[-9.282953,53.360142],[-9.282936,53.360128],[-9.282927,53.360123],[-9.282904,53.360124],[-9.282874,53.360124],[-9.282858,53.360126],[-9.282845,53.360127],[-9.282831,53.360131],[-9.282821,53.360133],[-9.282813,53.360133],[-9.282808,53.360133],[-9.282779,53.36013],[-9.282759,53.360126],[-9.282741,53.360122],[-9.282734,53.36012],[-9.282714,53.360114],[-9.282684,53.360102],[-9.282602,53.36007],[-9.282582,53.36006],[-9.282579,53.360058],[-9.282579,53.360058],[-9.282579,53.360058],[-9.282578,53.360057],[-9.282542,53.360032],[-9.282539,53.360028],[-9.282537,53.360025],[-9.28253,53.360007],[-9.282529,53.359997],[-9.282526,53.359975],[-9.282526,53.359957],[-9.282521,53.359942],[-9.282521,53.35994],[-9.28252,53.359939],[-9.282516,53.359932],[-9.282503,53.359921],[-9.282476,53.359899],[-9.282437,53.359875],[-9.282425,53.359863],[-9.282421,53.35986],[-9.282421,53.35986],[-9.282421,53.35986],[-9.282403,53.359832],[-9.282396,53.359815],[-9.282385,53.359753],[-9.282379,53.359723],[-9.282379,53.359719],[-9.28238,53.359705],[-9.282383,53.359696],[-9.282386,53.359687],[-9.282393,53.359682],[-9.282417,53.359671],[-9.282485,53.359656],[-9.282508,53.359645],[-9.282543,53.359618],[-9.282545,53.359616],[-9.282548,53.359613],[-9.28256,53.359601],[-9.282563,53.359595],[-9.282567,53.359587],[-9.28257,53.359582],[-9.282571,53.359578],[-9.282572,53.359577],[-9.282573,53.359571],[-9.282254,53.35961],[-9.281787,53.35966],[-9.281777,53.359661],[-9.281582,53.359685],[-9.281336,53.359755],[-9.281207,53.359819],[-9.281107,53.359954],[-9.281002,53.360142],[-9.280874,53.360385],[-9.280809,53.360474],[-9.280602,53.36061],[-9.280339,53.360766],[-9.280043,53.360873],[-9.279752,53.360998],[-9.279488,53.361116],[-9.279152,53.361204],[-9.278859,53.361294],[-9.278378,53.361372],[-9.278211,53.361399],[-9.27768,53.361511],[-9.277176,53.361622],[-9.277018,53.361653],[-9.276792,53.361698],[-9.276152,53.361817],[-9.275641,53.361929],[-9.275383,53.361989],[-9.275113,53.362026],[-9.274873,53.362042],[-9.274702,53.362109],[-9.274678,53.362121],[-9.274491,53.362213],[-9.274328,53.362272],[-9.27417,53.362296],[-9.273938,53.362371],[-9.273814,53.362415],[-9.273662,53.362434],[-9.273464,53.362502],[-9.273338,53.362563],[-9.273256,53.362596],[-9.273204,53.362615],[-9.273069,53.362643],[-9.272933,53.362694],[-9.272796,53.362706],[-9.272643,53.362738],[-9.272595,53.362768],[-9.272564,53.362801],[-9.272523,53.362855],[-9.272386,53.36305],[-9.2722,53.363231],[-9.272051,53.363411],[-9.271926,53.363516],[-9.271758,53.363655],[-9.271545,53.363783],[-9.271384,53.363906],[-9.271267,53.363993],[-9.271139,53.364049],[-9.270988,53.36411],[-9.270798,53.364208],[-9.270684,53.364296],[-9.270547,53.364396],[-9.270412,53.364471],[-9.270242,53.364552],[-9.270091,53.36463],[-9.269882,53.364756],[-9.269711,53.364839],[-9.269514,53.364972],[-9.269334,53.365104],[-9.269214,53.365216],[-9.268991,53.365408],[-9.268862,53.365507],[-9.268576,53.365715],[-9.268402,53.365813],[-9.268128,53.365944],[-9.267917,53.366038],[-9.267789,53.36608],[-9.267445,53.366278],[-9.267436,53.366288],[-9.26754,53.366287],[-9.267548,53.366556],[-9.267175,53.36656],[-9.267163,53.366573],[-9.267006,53.366678],[-9.26686,53.366764],[-9.266759,53.366787],[-9.266666,53.366796],[-9.266444,53.366764],[-9.266343,53.366763],[-9.266258,53.366787],[-9.266083,53.366863],[-9.26593,53.36688],[-9.265768,53.366905],[-9.265627,53.36694],[-9.265385,53.366976],[-9.265141,53.366987],[-9.26496,53.367015],[-9.264784,53.367086],[-9.264608,53.367131],[-9.264458,53.367158],[-9.264344,53.367148],[-9.264174,53.367176],[-9.263997,53.367215],[-9.263831,53.367228],[-9.263647,53.367254],[-9.263536,53.367258],[-9.263324,53.367312],[-9.263076,53.367347],[-9.263,53.367339],[-9.262926,53.367371],[-9.262744,53.367371],[-9.262631,53.367407],[-9.26263,53.367407],[-9.262487,53.367407],[-9.2624,53.367408],[-9.262371,53.36742],[-9.262358,53.36746],[-9.262316,53.367476],[-9.262188,53.367474],[-9.262036,53.367492],[-9.261835,53.367553],[-9.261768,53.367596],[-9.261732,53.367612],[-9.261661,53.367644],[-9.2616,53.367661],[-9.26148,53.367654],[-9.261359,53.367644],[-9.261308,53.367639],[-9.261237,53.367593],[-9.261197,53.367596],[-9.261108,53.367643],[-9.261036,53.367729],[-9.261016,53.367776],[-9.260977,53.367797],[-9.260947,53.367844],[-9.26096,53.367892],[-9.260946,53.367978],[-9.260918,53.368029],[-9.260953,53.368047],[-9.260938,53.368074],[-9.260889,53.368078],[-9.260837,53.368116],[-9.260647,53.36821],[-9.260549,53.368248],[-9.261287,53.36824],[-9.261295,53.36851],[-9.261303,53.368779],[-9.260852,53.368784],[-9.26086,53.369054],[-9.261311,53.369049],[-9.261318,53.369318],[-9.26222,53.369309],[-9.262212,53.369039],[-9.262663,53.369035],[-9.26267,53.369304],[-9.263121,53.369299],[-9.263129,53.369569],[-9.262228,53.369579],[-9.262236,53.369848],[-9.260433,53.369867],[-9.260425,53.369598],[-9.259524,53.369607],[-9.259516,53.369338],[-9.259508,53.369068],[-9.259959,53.369063],[-9.259951,53.368794],[-9.259943,53.368524],[-9.259634,53.368527],[-9.259601,53.368544],[-9.259492,53.368555],[-9.259406,53.368586],[-9.259308,53.36862],[-9.25924,53.368622],[-9.259189,53.368631],[-9.259131,53.36866],[-9.25908,53.368674],[-9.259046,53.368687],[-9.259049,53.368803],[-9.258649,53.368807],[-9.258598,53.368851],[-9.258573,53.368917],[-9.258557,53.368955],[-9.258449,53.368992],[-9.258317,53.369056],[-9.258195,53.369129],[-9.258054,53.369239],[-9.258,53.369308],[-9.257975,53.369301],[-9.257942,53.369343],[-9.257913,53.369408],[-9.25785,53.369465],[-9.257742,53.369492],[-9.257727,53.369487],[-9.25732,53.369496],[-9.256937,53.369299],[-9.256604,53.369083],[-9.256357,53.36903],[-9.256265,53.369051],[-9.256192,53.369056],[-9.256147,53.369053],[-9.256097,53.36908],[-9.256059,53.369096],[-9.256005,53.369114],[-9.255985,53.369144],[-9.255906,53.369183],[-9.255828,53.369219],[-9.255801,53.369256],[-9.255814,53.369279],[-9.255818,53.369299],[-9.255797,53.369337],[-9.255756,53.369354],[-9.255684,53.369372],[-9.255629,53.369397],[-9.255597,53.369456],[-9.255571,53.36946],[-9.25546,53.369479],[-9.255317,53.36949],[-9.255223,53.36949],[-9.255131,53.369519],[-9.255075,53.369573],[-9.255074,53.369615],[-9.255056,53.369643],[-9.25501,53.369663],[-9.254908,53.369699],[-9.254887,53.369713],[-9.25484,53.369793],[-9.254801,53.369848],[-9.2548,53.369892],[-9.254757,53.369941],[-9.254711,53.369971],[-9.254679,53.36998],[-9.254664,53.370018],[-9.254672,53.370106],[-9.254721,53.37021],[-9.25474,53.370302],[-9.254784,53.370365],[-9.254799,53.370394],[-9.254778,53.37047],[-9.254781,53.370527],[-9.254821,53.370583],[-9.254861,53.370631],[-9.254836,53.370664],[-9.254814,53.370695],[-9.254816,53.370722],[-9.254868,53.37079],[-9.254893,53.370819],[-9.254886,53.370894],[-9.254887,53.37098],[-9.254892,53.371015],[-9.254861,53.371041],[-9.254797,53.371038],[-9.254783,53.371057],[-9.254768,53.371079],[-9.254709,53.371098],[-9.254659,53.37113],[-9.254674,53.37115],[-9.25469,53.371188],[-9.254702,53.371218],[-9.254683,53.371256],[-9.254657,53.371283],[-9.25468,53.371325],[-9.254753,53.37137],[-9.254773,53.371387],[-9.25478,53.371409],[-9.254753,53.371448],[-9.254711,53.371468],[-9.254677,53.371495],[-9.254658,53.371547],[-9.254614,53.371587],[-9.254588,53.371611],[-9.254569,53.371668],[-9.254544,53.371729],[-9.254473,53.371763],[-9.254372,53.371811],[-9.254321,53.371817],[-9.254272,53.371823],[-9.254232,53.371854],[-9.254211,53.371946],[-9.254215,53.372041],[-9.254221,53.372085],[-9.25419,53.372097],[-9.254165,53.372114],[-9.254157,53.372184],[-9.254132,53.372224],[-9.254075,53.372272],[-9.253995,53.372305],[-9.253922,53.372331],[-9.253878,53.372379],[-9.253794,53.372441],[-9.253723,53.372479],[-9.253672,53.372484],[-9.253557,53.372517],[-9.253508,53.372547],[-9.253439,53.372619],[-9.253386,53.372658],[-9.253322,53.372697],[-9.253265,53.372715],[-9.253186,53.372735],[-9.253161,53.372749],[-9.253138,53.372802],[-9.253081,53.372828],[-9.252998,53.372833],[-9.252968,53.372835],[-9.253015,53.372852],[-9.253523,53.373015],[-9.253716,53.37307],[-9.254198,53.373205],[-9.254196,53.373207],[-9.254061,53.37334],[-9.254043,53.373357],[-9.253982,53.373418],[-9.253979,53.373421],[-9.253955,53.373445],[-9.253952,53.373447],[-9.254009,53.373474],[-9.254046,53.373492],[-9.254111,53.373474],[-9.254209,53.373473],[-9.254225,53.373475],[-9.254286,53.373479],[-9.254357,53.373484],[-9.254381,53.373486],[-9.25443,53.373488],[-9.254717,53.373504],[-9.254806,53.373505],[-9.254895,53.373505],[-9.255102,53.373495],[-9.255331,53.373483],[-9.255604,53.373473],[-9.255785,53.373465],[-9.255913,53.373459],[-9.256144,53.373432],[-9.256314,53.373414],[-9.256604,53.373381],[-9.256687,53.373375],[-9.256695,53.373446],[-9.256637,53.373529],[-9.256584,53.373566],[-9.256508,53.373652],[-9.256459,53.373693],[-9.256393,53.373746],[-9.256335,53.373822],[-9.256321,53.373915],[-9.256314,53.373984],[-9.256319,53.374091],[-9.256279,53.374154],[-9.256156,53.374241],[-9.255995,53.374387],[-9.255821,53.374544],[-9.255748,53.374617],[-9.25569,53.374597],[-9.255618,53.37469],[-9.255522,53.374826],[-9.255477,53.374858],[-9.255562,53.374917],[-9.255589,53.37491],[-9.25582,53.374894],[-9.25593,53.374895],[-9.256067,53.374864],[-9.256464,53.374848],[-9.256683,53.374866],[-9.256754,53.374848],[-9.256863,53.374834],[-9.256908,53.374832],[-9.256911,53.374902],[-9.256875,53.374954],[-9.256889,53.375002],[-9.25702,53.375071],[-9.256937,53.375229],[-9.256846,53.375324],[-9.256755,53.37538],[-9.256619,53.375427],[-9.256444,53.375537],[-9.256326,53.375578],[-9.256212,53.375675],[-9.25632,53.375756],[-9.256339,53.375789],[-9.256339,53.375804],[-9.256333,53.375824],[-9.256313,53.375846]],[[-9.263572,53.369295],[-9.263121,53.369299],[-9.263113,53.36903],[-9.263564,53.369025],[-9.263572,53.369295]],[[-9.264015,53.36902],[-9.263564,53.369025],[-9.263556,53.368756],[-9.264007,53.368751],[-9.264015,53.36902]],[[-9.263089,53.368221],[-9.261287,53.36824],[-9.261279,53.367971],[-9.26218,53.367961],[-9.262172,53.367692],[-9.263524,53.367677],[-9.263516,53.367408],[-9.264417,53.367398],[-9.264425,53.367668],[-9.263975,53.367673],[-9.263983,53.367942],[-9.263081,53.367952],[-9.263089,53.368221]],[[-9.27652,53.365112],[-9.27607,53.365117],[-9.276062,53.364848],[-9.276512,53.364843],[-9.27652,53.365112]],[[-9.272046,53.366239],[-9.271145,53.366248],[-9.271137,53.365979],[-9.272038,53.365969],[-9.272046,53.366239]],[[-9.266799,53.371687],[-9.266791,53.371418],[-9.267241,53.371413],[-9.267249,53.371682],[-9.266799,53.371687]],[[-9.265012,53.372245],[-9.264561,53.37225],[-9.264553,53.371981],[-9.265004,53.371976],[-9.265012,53.372245]],[[-9.26411,53.372255],[-9.264561,53.37225],[-9.264569,53.37252],[-9.264118,53.372524],[-9.26411,53.372255]],[[-9.2691,53.37328],[-9.269092,53.373011],[-9.269543,53.373006],[-9.269551,53.373276],[-9.2691,53.37328]],[[-9.266412,53.373848],[-9.26551,53.373858],[-9.265494,53.373319],[-9.266396,53.373309],[-9.266412,53.373848]],[[-9.268239,53.374638],[-9.268247,53.374907],[-9.268255,53.375177],[-9.267804,53.375182],[-9.267796,53.374912],[-9.267345,53.374917],[-9.267337,53.374647],[-9.267788,53.374642],[-9.267772,53.374103],[-9.268223,53.374099],[-9.268215,53.373829],[-9.268665,53.373824],[-9.268673,53.374094],[-9.269575,53.374084],[-9.269591,53.374623],[-9.268239,53.374638]],[[-9.264689,53.376563],[-9.264681,53.376293],[-9.265132,53.376288],[-9.26514,53.376558],[-9.264689,53.376563]],[[-9.262371,53.37443],[-9.262822,53.374425],[-9.26283,53.374695],[-9.262838,53.374965],[-9.263289,53.37496],[-9.263297,53.375229],[-9.262846,53.375234],[-9.262854,53.375504],[-9.262403,53.375508],[-9.262395,53.375239],[-9.262387,53.374969],[-9.261936,53.374974],[-9.261928,53.374705],[-9.261478,53.374709],[-9.26147,53.37444],[-9.261454,53.373901],[-9.261446,53.373631],[-9.261897,53.373626],[-9.261905,53.373896],[-9.262355,53.373891],[-9.262371,53.37443]],[[-9.261083,53.376601],[-9.261534,53.376596],[-9.261541,53.376866],[-9.26064,53.376875],[-9.260632,53.376606],[-9.260181,53.37661],[-9.260173,53.376341],[-9.260165,53.376071],[-9.260616,53.376067],[-9.260624,53.376336],[-9.261075,53.376331],[-9.261083,53.376601]]],[[[-9.26009,53.368362],[-9.259939,53.368414],[-9.259943,53.368524],[-9.260393,53.368519],[-9.260386,53.368263],[-9.260327,53.368254],[-9.260259,53.368275],[-9.260159,53.368347],[-9.26009,53.368362]]],[[[-9.281241,53.370476],[-9.281291,53.370454],[-9.281188,53.370455],[-9.28119,53.370495],[-9.281241,53.370476]]],[[[-9.278004,53.37215],[-9.278079,53.372005],[-9.278074,53.371837],[-9.278058,53.371297],[-9.278034,53.370489],[-9.277583,53.370494],[-9.277575,53.370224],[-9.277124,53.370229],[-9.277116,53.369959],[-9.277108,53.36969],[-9.277092,53.369151],[-9.277076,53.368612],[-9.277068,53.368342],[-9.276617,53.368347],[-9.276609,53.368077],[-9.276601,53.367808],[-9.277052,53.367803],[-9.277044,53.367534],[-9.276593,53.367538],[-9.276585,53.367269],[-9.276577,53.366999],[-9.275676,53.367009],[-9.275684,53.367278],[-9.275233,53.367283],[-9.275241,53.367553],[-9.275692,53.367548],[-9.275708,53.368087],[-9.276158,53.368082],[-9.276166,53.368352],[-9.276175,53.368621],[-9.276183,53.368891],[-9.276191,53.36916],[-9.27574,53.369165],[-9.275748,53.369435],[-9.275756,53.369704],[-9.275305,53.369709],[-9.275313,53.369979],[-9.274863,53.369983],[-9.274871,53.370253],[-9.274879,53.370523],[-9.274428,53.370527],[-9.274436,53.370797],[-9.274444,53.371066],[-9.274895,53.371062],[-9.274903,53.371331],[-9.275354,53.371326],[-9.275362,53.371596],[-9.275812,53.371591],[-9.275829,53.37213],[-9.275845,53.372669],[-9.275394,53.372674],[-9.27541,53.373213],[-9.275861,53.373208],[-9.275869,53.373478],[-9.275885,53.374017],[-9.275434,53.374022],[-9.27545,53.374561],[-9.275901,53.374556],[-9.275917,53.375095],[-9.276062,53.375094],[-9.276281,53.374847],[-9.276556,53.374562],[-9.276625,53.37449],[-9.276852,53.374231],[-9.276994,53.37406],[-9.27706,53.373995],[-9.277149,53.373909],[-9.277218,53.373752],[-9.277371,53.373446],[-9.277391,53.373406],[-9.277533,53.37311],[-9.277651,53.372831],[-9.277776,53.37261],[-9.277885,53.372403],[-9.278004,53.37215]]],[[[-9.271804,53.380781],[-9.271881,53.380531],[-9.270218,53.380548],[-9.27021,53.380279],[-9.269759,53.380284],[-9.269751,53.380014],[-9.269356,53.380018],[-9.269475,53.380057],[-9.269538,53.380093],[-9.269582,53.38015],[-9.269577,53.38024],[-9.269519,53.380321],[-9.269434,53.380425],[-9.269338,53.380482],[-9.269176,53.380496],[-9.269013,53.380482],[-9.268883,53.380487],[-9.268595,53.380509],[-9.268485,53.380506],[-9.268299,53.380466],[-9.268011,53.380396],[-9.267797,53.380355],[-9.267649,53.380327],[-9.267525,53.380313],[-9.267234,53.380279],[-9.267179,53.380275],[-9.267129,53.380268],[-9.266834,53.380242],[-9.266802,53.380239],[-9.266652,53.380236],[-9.26662,53.380233],[-9.266352,53.380216],[-9.266067,53.38017],[-9.265542,53.380153],[-9.265469,53.380113],[-9.265412,53.380074],[-9.265292,53.380002],[-9.265266,53.379964],[-9.265263,53.379916],[-9.26529,53.379881],[-9.265438,53.379817],[-9.265587,53.379725],[-9.265679,53.379623],[-9.265681,53.379621],[-9.265678,53.379518],[-9.265227,53.379523],[-9.265235,53.379792],[-9.264583,53.379799],[-9.264614,53.380847],[-9.264644,53.380844],[-9.264884,53.380832],[-9.265207,53.380817],[-9.265845,53.3809],[-9.266232,53.380962],[-9.266394,53.381009],[-9.266461,53.381055],[-9.266553,53.381071],[-9.266799,53.381114],[-9.266885,53.381094],[-9.267277,53.381144],[-9.267551,53.381177],[-9.267629,53.381176],[-9.267629,53.381192],[-9.267855,53.381239],[-9.268368,53.38132],[-9.268648,53.381364],[-9.268786,53.381476],[-9.268899,53.38155],[-9.269096,53.381703],[-9.269254,53.381897],[-9.269347,53.38202],[-9.269279,53.382057],[-9.27066,53.382042],[-9.270687,53.382941],[-9.27069,53.383026],[-9.270709,53.383036],[-9.270808,53.383154],[-9.270843,53.383127],[-9.270908,53.383033],[-9.271007,53.382884],[-9.271122,53.382725],[-9.27131,53.382497],[-9.271346,53.382328],[-9.271317,53.382146],[-9.271304,53.382064],[-9.271219,53.381902],[-9.271178,53.381754],[-9.27122,53.381688],[-9.271274,53.381641],[-9.271374,53.381607],[-9.271523,53.381561],[-9.271602,53.381523],[-9.271631,53.381442],[-9.271748,53.381038],[-9.271804,53.380781]]],[[[-9.264662,53.379223],[-9.264613,53.37926],[-9.264769,53.379258],[-9.264766,53.379154],[-9.264662,53.379223]]],[[[-9.264745,53.379011],[-9.264762,53.379026],[-9.264761,53.378989],[-9.264701,53.378989],[-9.264745,53.379011]]],[[[-9.269231,53.379972],[-9.2693,53.379998],[-9.269292,53.379749],[-9.269032,53.379752],[-9.269048,53.379764],[-9.269133,53.379801],[-9.269172,53.379863],[-9.26922,53.379933],[-9.269231,53.379972]]],[[[-9.273921,53.368645],[-9.273471,53.36865],[-9.273479,53.36892],[-9.273487,53.369189],[-9.272585,53.369199],[-9.272577,53.368929],[-9.271225,53.368944],[-9.271241,53.369483],[-9.271692,53.369478],[-9.2717,53.369748],[-9.272151,53.369743],[-9.272159,53.370012],[-9.27306,53.370003],[-9.273068,53.370272],[-9.273969,53.370263],[-9.273961,53.369993],[-9.274412,53.369988],[-9.274404,53.369719],[-9.274855,53.369714],[-9.274847,53.369444],[-9.274396,53.369449],[-9.274388,53.36918],[-9.27438,53.36891],[-9.273929,53.368915],[-9.273921,53.368645]]],[[[-9.27302,53.368655],[-9.273471,53.36865],[-9.273462,53.368381],[-9.273012,53.368385],[-9.27302,53.368655]]]]}}]}
