{"type":"FeatureCollection","features":[{"type":"Feature","properties":{"source_fid":2442086,"county":"Galway","bog_geom_ha":179.15872520998983,"low15_pct":90.48572859288933,"low15_ha":162.11307784399179,"overlay_ha":162.45922124956982,"area_delta":0.34614340557803303},"geometry":{"type":"MultiPolygon","coordinates":[[[[-9.513002,53.449075],[-9.512871,53.449172],[-9.512913,53.449282],[-9.512923,53.449307],[-9.513504,53.4493],[-9.513517,53.44967],[-9.513546,53.449678],[-9.513634,53.449704],[-9.513652,53.449735],[-9.513687,53.449736],[-9.513691,53.449727],[-9.513705,53.44971],[-9.513708,53.449682],[-9.513734,53.449658],[-9.513778,53.449671],[-9.513864,53.449725],[-9.513878,53.449763],[-9.513875,53.449789],[-9.513852,53.449801],[-9.513809,53.449804],[-9.513776,53.449835],[-9.51379,53.44988],[-9.51384,53.449921],[-9.513881,53.450017],[-9.513916,53.450079],[-9.513957,53.450114],[-9.514044,53.450121],[-9.514065,53.45014],[-9.514024,53.450176],[-9.513965,53.45018],[-9.513914,53.450195],[-9.51385,53.450231],[-9.513799,53.450244],[-9.513717,53.450248],[-9.51365,53.450245],[-9.513637,53.450229],[-9.513585,53.450216],[-9.513558,53.450233],[-9.513537,53.450241],[-9.513539,53.450281],[-9.51355,53.450301],[-9.51354,53.450303],[-9.513542,53.450358],[-9.513583,53.450392],[-9.513641,53.450443],[-9.513709,53.450458],[-9.513746,53.450487],[-9.513744,53.450513],[-9.513783,53.450517],[-9.513842,53.450514],[-9.513856,53.450485],[-9.513931,53.450484],[-9.514069,53.450488],[-9.51424,53.450447],[-9.514427,53.450405],[-9.514521,53.450392],[-9.51454,53.45045],[-9.51461,53.4505],[-9.514678,53.45052],[-9.514656,53.450549],[-9.514612,53.450604],[-9.514553,53.450614],[-9.514503,53.450629],[-9.514512,53.450655],[-9.514537,53.450673],[-9.514522,53.450695],[-9.514503,53.450702],[-9.51446,53.450703],[-9.514455,53.450689],[-9.514373,53.450696],[-9.514294,53.450699],[-9.514225,53.450729],[-9.514169,53.450789],[-9.514161,53.450853],[-9.514117,53.450969],[-9.514101,53.451042],[-9.514075,53.45109],[-9.515698,53.451069],[-9.515742,53.451018],[-9.515744,53.450971],[-9.515669,53.450911],[-9.515663,53.450867],[-9.515685,53.450836],[-9.515679,53.450803],[-9.515631,53.450787],[-9.515633,53.450759],[-9.515582,53.450631],[-9.515615,53.45059],[-9.515584,53.450522],[-9.515546,53.450481],[-9.515544,53.450439],[-9.515574,53.450417],[-9.515577,53.450396],[-9.515599,53.450374],[-9.515609,53.450348],[-9.515645,53.450354],[-9.515655,53.450354],[-9.515677,53.450354],[-9.515727,53.450334],[-9.515735,53.450345],[-9.51573,53.450388],[-9.515783,53.450488],[-9.515895,53.450587],[-9.516031,53.450629],[-9.516123,53.450657],[-9.516332,53.450655],[-9.516541,53.450636],[-9.516562,53.450634],[-9.516545,53.45016],[-9.51504,53.450179],[-9.515009,53.449281],[-9.518018,53.449243],[-9.518032,53.449646],[-9.51844,53.449641],[-9.51843,53.449371],[-9.519784,53.449354],[-9.519794,53.449623],[-9.519804,53.449893],[-9.520707,53.449881],[-9.520716,53.450151],[-9.521168,53.450145],[-9.521177,53.450415],[-9.523435,53.450386],[-9.523444,53.450655],[-9.523896,53.45065],[-9.523906,53.450919],[-9.524357,53.450913],[-9.524367,53.451183],[-9.527076,53.451148],[-9.527085,53.451418],[-9.527988,53.451406],[-9.527998,53.451676],[-9.528449,53.45167],[-9.528459,53.451939],[-9.528008,53.451945],[-9.528017,53.452215],[-9.527756,53.452218],[-9.5279,53.452263],[-9.527953,53.452299],[-9.52796,53.452353],[-9.527938,53.452518],[-9.527961,53.45264],[-9.527917,53.452702],[-9.527909,53.452711],[-9.529841,53.452686],[-9.529833,53.452461],[-9.529823,53.452192],[-9.532532,53.452157],[-9.532523,53.451887],[-9.533426,53.451876],[-9.533435,53.452145],[-9.534338,53.452134],[-9.534348,53.452403],[-9.535703,53.452386],[-9.535711,53.452611],[-9.536202,53.452605],[-9.536209,53.452798],[-9.536241,53.45281],[-9.536291,53.452827],[-9.53634,53.452835],[-9.536379,53.45285],[-9.536395,53.45287],[-9.536439,53.452856],[-9.536511,53.452846],[-9.536564,53.45286],[-9.536663,53.452858],[-9.53669,53.452869],[-9.536762,53.452881],[-9.536846,53.452902],[-9.536968,53.452925],[-9.53706,53.452934],[-9.537187,53.452921],[-9.537239,53.452905],[-9.537076,53.452907],[-9.537067,53.452638],[-9.537708,53.45263],[-9.537707,53.452585],[-9.53842,53.452576],[-9.538411,53.452351],[-9.538863,53.452345],[-9.538871,53.45257],[-9.539211,53.452566],[-9.539225,53.452933],[-9.539228,53.452933],[-9.539321,53.452965],[-9.539337,53.45297],[-9.539334,53.452878],[-9.539324,53.452609],[-9.539776,53.452603],[-9.539785,53.452873],[-9.540237,53.452867],[-9.540247,53.453136],[-9.540247,53.45315],[-9.541034,53.4533],[-9.541304,53.45274],[-9.54139,53.452322],[-9.541502,53.452122],[-9.541489,53.452112],[-9.541448,53.452047],[-9.541446,53.452009],[-9.541443,53.451964],[-9.541427,53.451948],[-9.541365,53.451994],[-9.541345,53.452031],[-9.541301,53.452054],[-9.541271,53.452055],[-9.54121,53.452052],[-9.541205,53.452022],[-9.541222,53.451997],[-9.541281,53.45196],[-9.541338,53.451903],[-9.541463,53.451776],[-9.541535,53.451698],[-9.541574,53.451654],[-9.541538,53.451623],[-9.541526,53.45161],[-9.541438,53.451596],[-9.541371,53.451597],[-9.541312,53.451569],[-9.541255,53.451548],[-9.541205,53.451544],[-9.54115,53.451469],[-9.541142,53.451424],[-9.541115,53.451347],[-9.541113,53.451309],[-9.541107,53.451266],[-9.541106,53.451253],[-9.541105,53.45123],[-9.541067,53.451222],[-9.541034,53.451234],[-9.541001,53.451259],[-9.54093,53.451272],[-9.540796,53.451311],[-9.540684,53.451335],[-9.54065,53.451343],[-9.540588,53.451371],[-9.540502,53.451395],[-9.540432,53.451426],[-9.540347,53.451464],[-9.540245,53.451533],[-9.540205,53.451572],[-9.540166,53.451605],[-9.540087,53.451622],[-9.540034,53.451623],[-9.540002,53.451644],[-9.53998,53.451669],[-9.539967,53.451699],[-9.53993,53.451711],[-9.539869,53.451716],[-9.539809,53.451718],[-9.539807,53.451745],[-9.539794,53.451752],[-9.53979,53.451754],[-9.539715,53.451794],[-9.539634,53.451831],[-9.53956,53.45186],[-9.539515,53.451865],[-9.539499,53.451859],[-9.539498,53.451834],[-9.539527,53.451818],[-9.539602,53.451798],[-9.539667,53.451752],[-9.539729,53.451701],[-9.539761,53.451662],[-9.539725,53.451631],[-9.539716,53.451611],[-9.539711,53.451584],[-9.539711,53.451573],[-9.539694,53.451544],[-9.539691,53.451534],[-9.539182,53.451451],[-9.538447,53.451258],[-9.537836,53.451076],[-9.537318,53.450944],[-9.537022,53.45089],[-9.536611,53.450824],[-9.535082,53.45059],[-9.534751,53.450629],[-9.534318,53.450488],[-9.533058,53.450208],[-9.532564,53.450141],[-9.532187,53.450122],[-9.531542,53.450027],[-9.531086,53.449826],[-9.531009,53.449793],[-9.530975,53.449481],[-9.530629,53.449485],[-9.53062,53.449216],[-9.530945,53.449211],[-9.530731,53.447283],[-9.52999,53.447293],[-9.529925,53.445497],[-9.531389,53.445478],[-9.531387,53.445431],[-9.531377,53.445161],[-9.530926,53.445167],[-9.530916,53.444898],[-9.530906,53.444628],[-9.530004,53.44464],[-9.529994,53.44437],[-9.530445,53.444364],[-9.530436,53.444095],[-9.529984,53.444101],[-9.529975,53.443831],[-9.530877,53.44382],[-9.530887,53.444089],[-9.531338,53.444083],[-9.531348,53.444353],[-9.531389,53.444352],[-9.531333,53.442783],[-9.534903,53.442737],[-9.534901,53.442689],[-9.535804,53.442678],[-9.535806,53.442725],[-9.535846,53.442725],[-9.535813,53.441827],[-9.536942,53.441812],[-9.536982,53.441689],[-9.537159,53.441053],[-9.53726,53.440687],[-9.537274,53.440603],[-9.537318,53.440407],[-9.537808,53.44035],[-9.538326,53.440311],[-9.539231,53.440101],[-9.539282,53.440185],[-9.539325,53.440268],[-9.539353,53.440292],[-9.540265,53.440359],[-9.54082,53.440369],[-9.541152,53.440375],[-9.542142,53.440418],[-9.542809,53.440433],[-9.54363,53.440319],[-9.543867,53.440294],[-9.543814,53.440065],[-9.543779,53.43992],[-9.543766,53.439804],[-9.543765,53.439685],[-9.543792,53.439522],[-9.543598,53.439487],[-9.543454,53.439437],[-9.543365,53.439387],[-9.543284,53.439318],[-9.543263,53.43928],[-9.543305,53.439237],[-9.543364,53.439199],[-9.543427,53.439156],[-9.543542,53.43911],[-9.543639,53.439059],[-9.543727,53.439009],[-9.54374,53.438943],[-9.543744,53.438912],[-9.543684,53.438862],[-9.543629,53.438799],[-9.543475,53.438665],[-9.543254,53.438564],[-9.543021,53.438443],[-9.542723,53.438332],[-9.542366,53.438148],[-9.542313,53.438149],[-9.542295,53.438162],[-9.542295,53.438162],[-9.542295,53.438162],[-9.542218,53.438206],[-9.542053,53.438229],[-9.541976,53.438207],[-9.541908,53.438186],[-9.541772,53.438177],[-9.541679,53.438195],[-9.541607,53.438162],[-9.541595,53.4382],[-9.541565,53.43822],[-9.541565,53.43822],[-9.541565,53.43822],[-9.54148,53.438165],[-9.541473,53.43816],[-9.540847,53.438168],[-9.540869,53.438186],[-9.540891,53.438221],[-9.540891,53.438254],[-9.540866,53.438282],[-9.540883,53.438292],[-9.540946,53.438295],[-9.541031,53.438307],[-9.541053,53.438376],[-9.541032,53.438449],[-9.541045,53.438512],[-9.541088,53.438538],[-9.541074,53.438557],[-9.541058,53.438581],[-9.541058,53.438581],[-9.541058,53.438581],[-9.54102,53.438596],[-9.540944,53.438596],[-9.540868,53.438632],[-9.540779,53.438672],[-9.540716,53.438718],[-9.54069,53.438756],[-9.54069,53.438756],[-9.54069,53.438756],[-9.540588,53.438721],[-9.540533,53.438706],[-9.540482,53.438681],[-9.540448,53.43862],[-9.540443,53.438564],[-9.540456,53.438496],[-9.540438,53.438435],[-9.540391,53.43839],[-9.540345,53.438344],[-9.540302,53.438311],[-9.540259,53.438288],[-9.5402,53.438296],[-9.540137,53.438317],[-9.540111,53.438355],[-9.540111,53.438355],[-9.540111,53.438355],[-9.540065,53.438375],[-9.539989,53.438378],[-9.539967,53.438368],[-9.539895,53.438345],[-9.53987,53.43836],[-9.539857,53.438391],[-9.539857,53.438391],[-9.539857,53.438391],[-9.539819,53.438391],[-9.539751,53.438371],[-9.539742,53.438343],[-9.539747,53.438305],[-9.539679,53.43833],[-9.539615,53.438345],[-9.539607,53.438389],[-9.539607,53.438389],[-9.539607,53.438389],[-9.539518,53.438389],[-9.539493,53.438396],[-9.53945,53.438407],[-9.539365,53.438404],[-9.539272,53.438402],[-9.539208,53.438384],[-9.539209,53.438407],[-9.539209,53.438407],[-9.539209,53.438407],[-9.539166,53.438407],[-9.539158,53.438417],[-9.539196,53.438437],[-9.5392,53.438463],[-9.539251,53.438475],[-9.539362,53.438488],[-9.539387,53.438526],[-9.539379,53.438551],[-9.539345,53.438576],[-9.539345,53.438576],[-9.539345,53.438576],[-9.539239,53.438577],[-9.539163,53.438557],[-9.539065,53.43858],[-9.539066,53.438607],[-9.539066,53.438607],[-9.539066,53.438607],[-9.539028,53.438628],[-9.538926,53.438628],[-9.538811,53.438623],[-9.538713,53.438555],[-9.53853,53.438375],[-9.538385,53.438219],[-9.538341,53.4382],[-9.537314,53.438213],[-9.537312,53.438221],[-9.537312,53.438221],[-9.537312,53.438221],[-9.537249,53.438239],[-9.537249,53.438214],[-9.537175,53.438215],[-9.537168,53.438224],[-9.537168,53.438224],[-9.537168,53.438224],[-9.537126,53.438241],[-9.53719,53.438264],[-9.53719,53.438264],[-9.53719,53.438264],[-9.537135,53.438284],[-9.537088,53.438277],[-9.537058,53.438269],[-9.537058,53.438292],[-9.537046,53.43833],[-9.537046,53.43833],[-9.537046,53.43833],[-9.536974,53.438333],[-9.536804,53.438326],[-9.536766,53.4383],[-9.536694,53.438313],[-9.536668,53.438321],[-9.536579,53.438321],[-9.536558,53.438306],[-9.536537,53.438265],[-9.536549,53.43824],[-9.536549,53.43824],[-9.536549,53.43824],[-9.536596,53.438225],[-9.536626,53.438222],[-9.53418,53.438253],[-9.534171,53.43803],[-9.534005,53.438082],[-9.533805,53.43811],[-9.53366,53.438111],[-9.533472,53.43807],[-9.533176,53.438045],[-9.533075,53.438078],[-9.533002,53.438108],[-9.53282,53.438161],[-9.532648,53.438186],[-9.532193,53.438209],[-9.531702,53.438229],[-9.531302,53.438261],[-9.530867,53.438303],[-9.530481,53.43831],[-9.530219,53.438346],[-9.529695,53.438489],[-9.52931,53.438492],[-9.52923,53.438505],[-9.528955,53.438516],[-9.528561,53.438531],[-9.528171,53.43851],[-9.527749,53.438484],[-9.527563,53.438477],[-9.527001,53.438532],[-9.526637,53.438631],[-9.526188,53.438701],[-9.526187,53.438701],[-9.525895,53.438746],[-9.525729,53.438772],[-9.525738,53.439032],[-9.525287,53.439038],[-9.525296,53.439307],[-9.525306,53.439577],[-9.524403,53.439588],[-9.524394,53.439319],[-9.523491,53.43933],[-9.523481,53.439061],[-9.524835,53.439044],[-9.524831,53.438917],[-9.524384,53.438991],[-9.523736,53.439036],[-9.522945,53.43908],[-9.521824,53.439137],[-9.521459,53.439107],[-9.521047,53.43905],[-9.521039,53.439049],[-9.52083,53.43902],[-9.520007,53.438906],[-9.519599,53.438849],[-9.51923,53.438798],[-9.519203,53.438924],[-9.519161,53.4391],[-9.519202,53.440242],[-9.519008,53.440244],[-9.519025,53.440735],[-9.518825,53.440738],[-9.518793,53.440914],[-9.518785,53.440955],[-9.518785,53.440955],[-9.518785,53.440955],[-9.518656,53.441449],[-9.518456,53.442117],[-9.518427,53.442209],[-9.518393,53.44231],[-9.518399,53.44231],[-9.518417,53.442293],[-9.51846,53.44229],[-9.518575,53.442297],[-9.518741,53.442299],[-9.518853,53.442341],[-9.518885,53.44234],[-9.518928,53.442335],[-9.518945,53.442358],[-9.519072,53.442369],[-9.519089,53.442407],[-9.519157,53.442424],[-9.519172,53.442466],[-9.519256,53.442495],[-9.519258,53.442521],[-9.519351,53.442573],[-9.519374,53.442624],[-9.51947,53.442714],[-9.519513,53.442793],[-9.519494,53.442864],[-9.519453,53.442909],[-9.519375,53.442979],[-9.519344,53.442996],[-9.519364,53.443008],[-9.519365,53.443026],[-9.519352,53.443064],[-9.519313,53.443136],[-9.519264,53.443186],[-9.519193,53.443237],[-9.519131,53.443257],[-9.519034,53.443282],[-9.51898,53.443239],[-9.518928,53.443219],[-9.518881,53.443208],[-9.518745,53.443201],[-9.518647,53.443208],[-9.518611,53.443199],[-9.518547,53.443177],[-9.518438,53.443132],[-9.518362,53.443115],[-9.51824,53.443113],[-9.518177,53.443117],[-9.518147,53.443134],[-9.518099,53.443116],[-9.518025,53.443073],[-9.51798,53.443043],[-9.517897,53.443035],[-9.517881,53.443029],[-9.517881,53.443029],[-9.517786,53.443081],[-9.517689,53.443135],[-9.517088,53.443961],[-9.516902,53.444216],[-9.516613,53.444605],[-9.516456,53.4448],[-9.516259,53.445044],[-9.516106,53.44523],[-9.515924,53.445448],[-9.515572,53.445873],[-9.515396,53.44611],[-9.515305,53.446234],[-9.515224,53.446308],[-9.515203,53.446327],[-9.515192,53.446342],[-9.51483,53.446826],[-9.514326,53.447455],[-9.514298,53.447491],[-9.5143,53.447536],[-9.514262,53.447537],[-9.514181,53.447638],[-9.514175,53.447646],[-9.514144,53.447686],[-9.514141,53.447688],[-9.514104,53.447721],[-9.513904,53.447963],[-9.513728,53.448173],[-9.513728,53.448174],[-9.513728,53.448174],[-9.513724,53.448179],[-9.513633,53.448287],[-9.51354,53.448405],[-9.513077,53.448986],[-9.513042,53.449043],[-9.513002,53.449075]],[[-9.525316,53.439846],[-9.525306,53.439577],[-9.525757,53.439571],[-9.525767,53.439841],[-9.525316,53.439846]],[[-9.524864,53.439852],[-9.525316,53.439846],[-9.525325,53.440116],[-9.524874,53.440122],[-9.524864,53.439852]],[[-9.524422,53.440127],[-9.524874,53.440122],[-9.524884,53.440391],[-9.524432,53.440397],[-9.524422,53.440127]],[[-9.535781,53.440929],[-9.535813,53.441827],[-9.534309,53.441846],[-9.534301,53.441619],[-9.533508,53.441629],[-9.533498,53.441359],[-9.533047,53.441365],[-9.533037,53.441096],[-9.53394,53.441084],[-9.53393,53.440814],[-9.535736,53.440791],[-9.535741,53.440929],[-9.535781,53.440929]],[[-9.531329,53.443814],[-9.530877,53.44382],[-9.530868,53.44355],[-9.531319,53.443544],[-9.531329,53.443814]],[[-9.539314,53.452339],[-9.538863,53.452345],[-9.538853,53.452076],[-9.539305,53.45207],[-9.539314,53.452339]],[[-9.519522,53.449224],[-9.518018,53.449243],[-9.517986,53.448345],[-9.51949,53.448326],[-9.519522,53.449224]],[[-9.534244,53.44005],[-9.534212,53.439152],[-9.535716,53.439132],[-9.535748,53.44003],[-9.534244,53.44005]],[[-9.5313,53.441885],[-9.531268,53.440987],[-9.532772,53.440967],[-9.532805,53.441865],[-9.532162,53.441874],[-9.532164,53.441916],[-9.531712,53.441921],[-9.531711,53.441879],[-9.5313,53.441885]],[[-9.532183,53.442455],[-9.532164,53.441916],[-9.532615,53.44191],[-9.532634,53.442449],[-9.532183,53.442455]],[[-9.532644,53.442718],[-9.532634,53.442449],[-9.533086,53.442443],[-9.533096,53.442713],[-9.532644,53.442718]],[[-9.531271,53.442197],[-9.530819,53.442203],[-9.530809,53.441933],[-9.530358,53.441939],[-9.530368,53.442208],[-9.529916,53.442214],[-9.529907,53.441945],[-9.529897,53.441675],[-9.529887,53.441406],[-9.53079,53.441394],[-9.5308,53.441664],[-9.531251,53.441658],[-9.531261,53.441927],[-9.531271,53.442197]],[[-9.536567,53.451296],[-9.536115,53.451302],[-9.536105,53.451033],[-9.536557,53.451027],[-9.536567,53.451296]],[[-9.535664,53.451308],[-9.536115,53.451302],[-9.536125,53.451572],[-9.535673,53.451577],[-9.535664,53.451308]],[[-9.528582,53.44277],[-9.528591,53.44304],[-9.530848,53.443011],[-9.530858,53.443281],[-9.529955,53.443292],[-9.529965,53.443562],[-9.528611,53.443579],[-9.528601,53.443309],[-9.52815,53.443315],[-9.528159,53.443585],[-9.527708,53.443591],[-9.527698,53.443321],[-9.527688,53.443052],[-9.526786,53.443063],[-9.526776,53.442794],[-9.527227,53.442788],[-9.527218,53.442518],[-9.527669,53.442513],[-9.527679,53.442782],[-9.528582,53.44277]],[[-9.524519,53.442822],[-9.524509,53.442553],[-9.525864,53.442536],[-9.525873,53.442805],[-9.525883,53.443075],[-9.524529,53.443092],[-9.524538,53.443361],[-9.524548,53.443631],[-9.523645,53.443642],[-9.523655,53.443912],[-9.523203,53.443918],[-9.523194,53.443648],[-9.523184,53.443379],[-9.523635,53.443373],[-9.523626,53.443103],[-9.524077,53.443098],[-9.524068,53.442828],[-9.524519,53.442822]],[[-9.526066,53.448195],[-9.527421,53.448178],[-9.52743,53.448447],[-9.526979,53.448453],[-9.526989,53.448723],[-9.525634,53.44874],[-9.525625,53.448471],[-9.523819,53.448494],[-9.523809,53.448224],[-9.522455,53.448241],[-9.522445,53.447972],[-9.524251,53.447949],[-9.524241,53.447679],[-9.524693,53.447674],[-9.524702,53.447943],[-9.525154,53.447937],[-9.525144,53.447668],[-9.525596,53.447662],[-9.525605,53.447932],[-9.526057,53.447926],[-9.526066,53.448195]],[[-9.527872,53.448172],[-9.527421,53.448178],[-9.527411,53.447908],[-9.527863,53.447903],[-9.527872,53.448172]],[[-9.529265,53.449233],[-9.529256,53.448963],[-9.530159,53.448952],[-9.530168,53.449221],[-9.529265,53.449233]],[[-9.520024,53.443419],[-9.519573,53.443425],[-9.519563,53.443155],[-9.520015,53.443149],[-9.520024,53.443419]],[[-9.520495,53.443952],[-9.520043,53.443958],[-9.520034,53.443688],[-9.520485,53.443683],[-9.520495,53.443952]],[[-9.522301,53.443929],[-9.522291,53.44366],[-9.522742,53.443654],[-9.522752,53.443923],[-9.522301,53.443929]],[[-9.519611,53.444503],[-9.51916,53.444508],[-9.519141,53.443969],[-9.519592,53.443964],[-9.519611,53.444503]],[[-9.51964,53.445311],[-9.519659,53.44585],[-9.519208,53.445856],[-9.519189,53.445317],[-9.51964,53.445311]],[[-9.519669,53.44612],[-9.519659,53.44585],[-9.520111,53.445845],[-9.52012,53.446114],[-9.520572,53.446108],[-9.520582,53.446378],[-9.519679,53.446389],[-9.519669,53.44612]]],[[[-9.532092,53.44457],[-9.531808,53.444574],[-9.531809,53.444617],[-9.531819,53.444886],[-9.532722,53.444874],[-9.532731,53.445144],[-9.532741,53.445413],[-9.531838,53.445425],[-9.531858,53.445964],[-9.531447,53.445969],[-9.531464,53.446424],[-9.536001,53.446191],[-9.536024,53.446063],[-9.536095,53.445631],[-9.53612,53.445469],[-9.536128,53.445417],[-9.535943,53.445419],[-9.535924,53.444887],[-9.535892,53.444887],[-9.535805,53.444925],[-9.535738,53.444936],[-9.535738,53.444961],[-9.535738,53.444984],[-9.535742,53.445004],[-9.535683,53.445029],[-9.535619,53.44505],[-9.535573,53.44505],[-9.535518,53.445042],[-9.535471,53.445032],[-9.535403,53.44505],[-9.535314,53.445043],[-9.535289,53.445068],[-9.535268,53.445083],[-9.535213,53.445099],[-9.535124,53.445091],[-9.53503,53.445081],[-9.535,53.445061],[-9.535,53.445043],[-9.535026,53.445038],[-9.535051,53.445036],[-9.535051,53.44502],[-9.53503,53.445],[-9.534962,53.44501],[-9.534945,53.445033],[-9.534894,53.445036],[-9.534822,53.445028],[-9.534792,53.445011],[-9.534788,53.444985],[-9.534733,53.444996],[-9.534708,53.445013],[-9.534686,53.445034],[-9.534665,53.445031],[-9.534686,53.444998],[-9.534703,53.44496],[-9.534745,53.444953],[-9.534775,53.44495],[-9.534788,53.444937],[-9.534749,53.444927],[-9.534656,53.444925],[-9.534614,53.444943],[-9.534593,53.444968],[-9.534555,53.444968],[-9.534554,53.444943],[-9.534482,53.444953],[-9.534422,53.444975],[-9.534427,53.445122],[-9.53544,53.445109],[-9.53545,53.445379],[-9.534437,53.445392],[-9.534438,53.445439],[-9.532934,53.445458],[-9.532902,53.44456],[-9.532578,53.444564],[-9.532555,53.444579],[-9.532504,53.444607],[-9.532437,53.444582],[-9.532364,53.44459],[-9.532259,53.444623],[-9.532216,53.444633],[-9.532089,53.444611],[-9.532089,53.444593],[-9.532092,53.44457]]],[[[-9.537723,53.453026],[-9.537718,53.452899],[-9.537526,53.452902],[-9.53753,53.452903],[-9.537536,53.452932],[-9.53756,53.45297],[-9.537607,53.452998],[-9.537676,53.453015],[-9.537723,53.453026]]],[[[-9.534311,53.452556],[-9.534354,53.452569],[-9.534348,53.452403],[-9.533594,53.452413],[-9.533609,53.452444],[-9.533882,53.452449],[-9.534052,53.452435],[-9.534211,53.452522],[-9.534311,53.452556]]],[[[-9.532869,53.452492],[-9.532894,53.452422],[-9.532091,53.452432],[-9.532099,53.452655],[-9.532103,53.452656],[-9.53243,53.45263],[-9.532484,53.452586],[-9.532528,53.452568],[-9.532687,53.452558],[-9.532817,53.452517],[-9.532869,53.452492]]],[[[-9.531464,53.452512],[-9.531643,53.452535],[-9.531639,53.452438],[-9.530736,53.45245],[-9.530741,53.452597],[-9.530979,53.452582],[-9.531211,53.452555],[-9.531364,53.45253],[-9.531464,53.452512]]],[[[-9.52754,53.452101],[-9.527562,53.452108],[-9.527556,53.451951],[-9.527304,53.451954],[-9.527379,53.451975],[-9.52754,53.452101]]],[[[-9.526643,53.451778],[-9.526647,53.45178],[-9.526643,53.451693],[-9.526315,53.451697],[-9.526335,53.451705],[-9.526461,53.451768],[-9.52652,53.451762],[-9.526643,53.451778]]],[[[-9.525237,53.451713],[-9.525237,53.451711],[-9.52435,53.451722],[-9.524334,53.451777],[-9.524358,53.451785],[-9.524375,53.451802],[-9.524369,53.451858],[-9.524714,53.451853],[-9.524834,53.451827],[-9.525174,53.451787],[-9.525237,53.451713]]],[[[-9.518499,53.451034],[-9.521198,53.451],[-9.521197,53.450954],[-9.521187,53.450684],[-9.520736,53.45069],[-9.520726,53.45042],[-9.519371,53.450438],[-9.519362,53.450168],[-9.519352,53.449899],[-9.518449,53.44991],[-9.518459,53.45018],[-9.518051,53.450185],[-9.518069,53.450673],[-9.51809,53.45068],[-9.518174,53.450761],[-9.518207,53.450864],[-9.518306,53.450934],[-9.518479,53.450997],[-9.518499,53.451034]]],[[[-9.533123,53.444429],[-9.532953,53.444449],[-9.532898,53.444469],[-9.532902,53.44456],[-9.534067,53.444545],[-9.534073,53.44448],[-9.534094,53.44445],[-9.534098,53.44443],[-9.534043,53.444397],[-9.533962,53.444379],[-9.533932,53.444329],[-9.533974,53.444303],[-9.533894,53.444326],[-9.533881,53.444346],[-9.533818,53.444341],[-9.533784,53.444326],[-9.53372,53.444354],[-9.533559,53.444372],[-9.533504,53.444372],[-9.533474,53.444317],[-9.533414,53.444284],[-9.533351,53.444266],[-9.53327,53.444239],[-9.533232,53.444234],[-9.533198,53.444264],[-9.533177,53.44431],[-9.533131,53.444391],[-9.533123,53.444429]]],[[[-9.533132,53.44376],[-9.533102,53.443679],[-9.53308,53.443659],[-9.532869,53.443662],[-9.532881,53.443974],[-9.532883,53.443973],[-9.532989,53.44393],[-9.53309,53.443841],[-9.533132,53.44376]]],[[[-9.536636,53.4432],[-9.53668,53.442825],[-9.53669,53.442714],[-9.535846,53.442725],[-9.535854,53.442947],[-9.536265,53.442942],[-9.536275,53.443211],[-9.535863,53.443216],[-9.535878,53.443623],[-9.535691,53.443626],[-9.535591,53.443702],[-9.535583,53.443723],[-9.535583,53.443756],[-9.535583,53.443783],[-9.535617,53.443809],[-9.535651,53.443834],[-9.535702,53.443821],[-9.535757,53.443808],[-9.535761,53.44376],[-9.535799,53.44373],[-9.535879,53.44372],[-9.535948,53.44372],[-9.535964,53.443712],[-9.536066,53.443694],[-9.536177,53.443795],[-9.536194,53.44383],[-9.536232,53.44383],[-9.536313,53.443833],[-9.536393,53.443838],[-9.53644,53.443838],[-9.536512,53.443852],[-9.536562,53.443588],[-9.536578,53.443504],[-9.536636,53.4432]]]]}}]}
