{"type":"FeatureCollection","features":[{"type":"Feature","properties":{"source_fid":2482348,"county":"Offaly","bog_geom_ha":133.97157141396733,"low15_pct":100.0,"low15_ha":133.97157141396733,"overlay_ha":133.97157141396733,"area_delta":0.0},"geometry":{"type":"MultiPolygon","coordinates":[[[[-7.174811,53.241458],[-7.174743,53.241463],[-7.174707,53.241466],[-7.174649,53.241493],[-7.174606,53.241523],[-7.174567,53.241591],[-7.174496,53.241651],[-7.174087,53.241782],[-7.173828,53.241855],[-7.173547,53.241915],[-7.173509,53.241921],[-7.173443,53.241931],[-7.173374,53.241915],[-7.173319,53.241889],[-7.173258,53.241892],[-7.173171,53.241912],[-7.173096,53.241914],[-7.173233,53.242243],[-7.173546,53.242992],[-7.173837,53.243661],[-7.174064,53.244232],[-7.174408,53.245023],[-7.17463,53.245561],[-7.174751,53.245822],[-7.17507,53.246571],[-7.175257,53.247001],[-7.175582,53.247782],[-7.175875,53.248462],[-7.175888,53.248491],[-7.176072,53.24892],[-7.176335,53.249509],[-7.176196,53.24993],[-7.175965,53.250636],[-7.175838,53.251053],[-7.175699,53.251513],[-7.175829,53.251516],[-7.176368,53.251528],[-7.177108,53.251545],[-7.177972,53.25156],[-7.178632,53.251568],[-7.179962,53.251591],[-7.181065,53.251617],[-7.182154,53.251639],[-7.183093,53.251661],[-7.184259,53.251685],[-7.185339,53.251713],[-7.18639,53.251735],[-7.187672,53.251766],[-7.18884,53.251786],[-7.190837,53.251831],[-7.191105,53.251835],[-7.191724,53.251844],[-7.191814,53.251855],[-7.191888,53.251864],[-7.192121,53.251864],[-7.192267,53.250716],[-7.192283,53.249876],[-7.192509,53.248053],[-7.192732,53.246374],[-7.192819,53.245653],[-7.193141,53.24299],[-7.193069,53.242973],[-7.192834,53.242919],[-7.192479,53.242834],[-7.192105,53.242749],[-7.191896,53.242699],[-7.191297,53.242495],[-7.19045,53.242231],[-7.189612,53.24197],[-7.189096,53.241813],[-7.188423,53.2416],[-7.188016,53.241483],[-7.187663,53.241411],[-7.187456,53.241385],[-7.187324,53.241373],[-7.186892,53.241383],[-7.186534,53.241394],[-7.186176,53.241399],[-7.185837,53.2414],[-7.185544,53.241402],[-7.185356,53.241404],[-7.185339,53.241404],[-7.185169,53.241438],[-7.184845,53.241504],[-7.184519,53.241568],[-7.184152,53.241632],[-7.184072,53.241633],[-7.183965,53.24163],[-7.18367,53.241608],[-7.18326,53.241573],[-7.182757,53.241478],[-7.182337,53.241389],[-7.181829,53.241286],[-7.181313,53.241176],[-7.180804,53.241081],[-7.180121,53.240967],[-7.179853,53.24092],[-7.179606,53.240885],[-7.179335,53.240866],[-7.179095,53.240853],[-7.178789,53.240883],[-7.178525,53.240906],[-7.178253,53.240932],[-7.178021,53.240946],[-7.177979,53.240928],[-7.177674,53.240771],[-7.177457,53.240664],[-7.177347,53.240625],[-7.177215,53.240626],[-7.177168,53.240643],[-7.17713,53.240656],[-7.176927,53.240737],[-7.17679,53.24082],[-7.176712,53.240858],[-7.176672,53.240891],[-7.176624,53.240946],[-7.176617,53.240951],[-7.176582,53.240975],[-7.17653,53.240968],[-7.176393,53.240953],[-7.176301,53.240948],[-7.176228,53.240973],[-7.176143,53.240998],[-7.176031,53.241011],[-7.176029,53.241011],[-7.175908,53.241027],[-7.1758,53.241064],[-7.175781,53.24107],[-7.17572,53.241122],[-7.175636,53.241224],[-7.175616,53.241242],[-7.175602,53.241254],[-7.175516,53.241274],[-7.175501,53.241277],[-7.175479,53.241286],[-7.175443,53.241301],[-7.175394,53.241329],[-7.175411,53.24137],[-7.175393,53.241438],[-7.175348,53.241494],[-7.175308,53.241537],[-7.175299,53.241547],[-7.175246,53.241558],[-7.175107,53.241517],[-7.17498,53.241475],[-7.174912,53.241459],[-7.174811,53.241458]]]]}}]}
