{"type":"FeatureCollection","features":[{"type":"Feature","properties":{"source_fid":2486580,"county":"Laois","bog_geom_ha":126.04563236568528,"low15_pct":100.0,"low15_ha":126.04563236568528,"overlay_ha":126.04563236568528,"area_delta":0.0},"geometry":{"type":"MultiPolygon","coordinates":[[[[-7.674207,52.78127],[-7.674082,52.781294],[-7.674012,52.78132],[-7.673919,52.781364],[-7.673796,52.78141],[-7.673655,52.781513],[-7.673445,52.781573],[-7.673034,52.78171],[-7.672456,52.781868],[-7.67199,52.782018],[-7.671627,52.782101],[-7.671319,52.782028],[-7.671117,52.782026],[-7.670759,52.782131],[-7.670158,52.782311],[-7.669911,52.78239],[-7.66983,52.782416],[-7.669526,52.782423],[-7.669284,52.782358],[-7.6689,52.782327],[-7.668587,52.782336],[-7.66829,52.782322],[-7.66809,52.782285],[-7.667866,52.782228],[-7.667643,52.782284],[-7.66734,52.782358],[-7.666966,52.782483],[-7.666588,52.7826],[-7.666048,52.782777],[-7.665615,52.78294],[-7.665188,52.783083],[-7.664912,52.783208],[-7.664507,52.783475],[-7.664316,52.783941],[-7.664213,52.784178],[-7.664166,52.784182],[-7.663251,52.784039],[-7.662893,52.783998],[-7.662643,52.784021],[-7.662237,52.784201],[-7.661708,52.784423],[-7.661039,52.784687],[-7.660582,52.784885],[-7.66028,52.785003],[-7.660089,52.785071],[-7.659298,52.78539],[-7.658595,52.785686],[-7.658185,52.785854],[-7.658172,52.78586],[-7.657716,52.786048],[-7.657531,52.786121],[-7.659286,52.789076],[-7.659828,52.789509],[-7.660244,52.78951],[-7.660725,52.78945],[-7.660975,52.789456],[-7.661151,52.789429],[-7.661391,52.789357],[-7.661827,52.789155],[-7.661861,52.78914],[-7.662045,52.789159],[-7.662224,52.789151],[-7.662296,52.789105],[-7.662301,52.788977],[-7.66236,52.788898],[-7.662606,52.788858],[-7.662858,52.788867],[-7.66311,52.788759],[-7.663261,52.788605],[-7.663418,52.788279],[-7.663667,52.787953],[-7.663857,52.78789],[-7.663912,52.787789],[-7.664011,52.787712],[-7.66427,52.787664],[-7.664533,52.787647],[-7.664699,52.787602],[-7.664868,52.787607],[-7.665339,52.787769],[-7.665373,52.787807],[-7.665347,52.787831],[-7.66527,52.787872],[-7.665252,52.787905],[-7.665261,52.787967],[-7.665327,52.788043],[-7.665454,52.788098],[-7.665563,52.788104],[-7.668805,52.788113],[-7.668798,52.789012],[-7.670281,52.789016],[-7.670274,52.789915],[-7.671756,52.789919],[-7.671736,52.792615],[-7.673218,52.792619],[-7.673211,52.793517],[-7.671729,52.793513],[-7.671709,52.796209],[-7.671082,52.796207],[-7.672992,52.799445],[-7.676678,52.798787],[-7.677311,52.799934],[-7.678245,52.801525],[-7.679867,52.801538],[-7.679818,52.801117],[-7.679773,52.800769],[-7.679551,52.799067],[-7.679547,52.798925],[-7.679512,52.798591],[-7.679475,52.798294],[-7.679441,52.797996],[-7.679393,52.797686],[-7.679363,52.797372],[-7.679323,52.797049],[-7.679274,52.79675],[-7.67924,52.796459],[-7.67921,52.796147],[-7.679182,52.79585],[-7.67914,52.795571],[-7.679093,52.795263],[-7.679057,52.794982],[-7.679017,52.794717],[-7.678983,52.794402],[-7.678947,52.794261],[-7.678859,52.794117],[-7.67875,52.793909],[-7.678699,52.793815],[-7.678581,52.793578],[-7.678539,52.793498],[-7.678506,52.793432],[-7.678449,52.793317],[-7.678385,52.793184],[-7.678247,52.792899],[-7.678129,52.792661],[-7.678082,52.792571],[-7.677979,52.792369],[-7.677973,52.792357],[-7.677914,52.792253],[-7.677826,52.792059],[-7.677781,52.791967],[-7.677698,52.791797],[-7.677625,52.791657],[-7.677518,52.791431],[-7.677483,52.791356],[-7.677407,52.791213],[-7.67733,52.791064],[-7.677219,52.790834],[-7.677169,52.790733],[-7.677029,52.790455],[-7.676959,52.79032],[-7.676911,52.790227],[-7.676863,52.790131],[-7.676785,52.78996],[-7.67673,52.789865],[-7.676656,52.78971],[-7.6766,52.789598],[-7.676546,52.789467],[-7.676508,52.789343],[-7.676458,52.789118],[-7.676433,52.789028],[-7.676363,52.788759],[-7.676273,52.788459],[-7.676199,52.788162],[-7.676123,52.787885],[-7.676049,52.787593],[-7.675958,52.787293],[-7.675883,52.787064],[-7.67576,52.786663],[-7.67571,52.786472],[-7.675627,52.786154],[-7.675587,52.786033],[-7.675563,52.785968],[-7.675413,52.785571],[-7.675336,52.785435],[-7.675334,52.785431],[-7.675225,52.785068],[-7.675016,52.784347],[-7.674812,52.783633],[-7.674691,52.783212],[-7.674689,52.783204],[-7.674614,52.782752],[-7.674428,52.781997],[-7.674207,52.78127]]]]}}]}
