{"type":"FeatureCollection","features":[{"type":"Feature","properties":{"source_fid":2512285,"county":"Donegal","bog_geom_ha":295.73069792654479,"low15_pct":96.836020687557038,"low15_ha":286.37383982360575,"overlay_ha":286.12099939341766,"area_delta":-0.25284043018808688},"geometry":{"type":"MultiPolygon","coordinates":[[[[-7.84823,54.612213],[-7.847813,54.611901],[-7.847752,54.61186],[-7.847615,54.611766],[-7.847326,54.611571],[-7.846741,54.611134],[-7.846316,54.61083],[-7.845931,54.610574],[-7.845642,54.610389],[-7.845346,54.610189],[-7.845205,54.610071],[-7.845042,54.609934],[-7.844582,54.609558],[-7.844204,54.609205],[-7.844029,54.609019],[-7.84381,54.608822],[-7.8436,54.608612],[-7.843358,54.608396],[-7.84312,54.608145],[-7.842957,54.607937],[-7.842871,54.607772],[-7.842793,54.607495],[-7.8427,54.607221],[-7.842486,54.606909],[-7.842425,54.606797],[-7.842304,54.606738],[-7.842016,54.606612],[-7.841765,54.606521],[-7.841593,54.606505],[-7.841406,54.606492],[-7.841309,54.606499],[-7.841251,54.60652],[-7.841185,54.606525],[-7.841061,54.606557],[-7.840975,54.606563],[-7.840775,54.606614],[-7.840736,54.606636],[-7.840661,54.606656],[-7.840535,54.606665],[-7.840305,54.606668],[-7.840129,54.606693],[-7.840035,54.606708],[-7.839994,54.606706],[-7.839864,54.606661],[-7.839666,54.606591],[-7.839305,54.606464],[-7.838952,54.606331],[-7.838677,54.606236],[-7.838643,54.606224],[-7.838299,54.606097],[-7.837899,54.605941],[-7.837436,54.60572],[-7.837048,54.605531],[-7.837002,54.605525],[-7.836767,54.605124],[-7.836387,54.604485],[-7.836194,54.60418],[-7.836232,54.604142],[-7.836097,54.603958],[-7.836284,54.603868],[-7.836328,54.603788],[-7.836378,54.603712],[-7.836487,54.603605],[-7.836484,54.603581],[-7.836453,54.603575],[-7.836403,54.603568],[-7.836329,54.603534],[-7.836165,54.603457],[-7.836076,54.603394],[-7.836049,54.603391],[-7.835998,54.603391],[-7.835979,54.603394],[-7.835971,54.603412],[-7.835924,54.603439],[-7.835839,54.603495],[-7.835691,54.603547],[-7.835493,54.603586],[-7.835438,54.603595],[-7.835423,54.603622],[-7.835411,54.603644],[-7.835395,54.603712],[-7.835387,54.603762],[-7.835372,54.603798],[-7.835345,54.603816],[-7.835263,54.603829],[-7.835131,54.603904],[-7.835045,54.603969],[-7.834975,54.60399],[-7.834858,54.604014],[-7.834687,54.604046],[-7.834602,54.604064],[-7.834574,54.604091],[-7.834547,54.60415],[-7.834516,54.604191],[-7.83438,54.604236],[-7.834201,54.604285],[-7.833975,54.604369],[-7.833843,54.604443],[-7.833726,54.604493],[-7.833563,54.604547],[-7.833364,54.604626],[-7.83324,54.604669],[-7.833158,54.604685],[-7.833045,54.604714],[-7.83289,54.604793],[-7.832765,54.604854],[-7.832699,54.604856],[-7.832582,54.604829],[-7.832536,54.604822],[-7.832427,54.604827],[-7.83238,54.604847],[-7.832322,54.604881],[-7.83224,54.604971],[-7.832135,54.605044],[-7.832027,54.605118],[-7.831906,54.605194],[-7.831816,54.605257],[-7.831791,54.605269],[-7.831771,54.605276],[-7.831735,54.605279],[-7.831701,54.605273],[-7.831671,54.605269],[-7.831647,54.605269],[-7.831569,54.605285],[-7.831487,54.605313],[-7.831468,54.605323],[-7.83142,54.605364],[-7.831279,54.605494],[-7.831129,54.605602],[-7.830891,54.605765],[-7.83082,54.60581],[-7.830789,54.60582],[-7.830708,54.60583],[-7.830634,54.60583],[-7.830602,54.60582],[-7.830545,54.605774],[-7.830504,54.605743],[-7.830485,54.605736],[-7.830461,54.605732],[-7.830419,54.605732],[-7.830396,54.605736],[-7.830335,54.60576],[-7.830319,54.605771],[-7.830279,54.60582],[-7.830263,54.605842],[-7.830241,54.605858],[-7.830198,54.605877],[-7.830091,54.605946],[-7.830067,54.605985],[-7.83006,54.606001],[-7.830041,54.606076],[-7.830028,54.606159],[-7.83002,54.606178],[-7.829979,54.606229],[-7.829959,54.606245],[-7.829918,54.606269],[-7.829887,54.606279],[-7.829837,54.606285],[-7.829815,54.606292],[-7.829753,54.606325],[-7.82974,54.606338],[-7.829725,54.606365],[-7.829721,54.606381],[-7.829721,54.606393],[-7.82973,54.60641],[-7.829735,54.606428],[-7.829737,54.606461],[-7.82973,54.606516],[-7.829732,54.606532],[-7.82974,54.606561],[-7.829742,54.60658],[-7.829741,54.606597],[-7.829736,54.606615],[-7.829716,54.606664],[-7.829711,54.60668],[-7.829708,54.606719],[-7.829698,54.606738],[-7.829671,54.606766],[-7.829662,54.606781],[-7.82964,54.606854],[-7.829634,54.606887],[-7.829637,54.606902],[-7.829646,54.606914],[-7.829653,54.606951],[-7.829651,54.60697],[-7.829645,54.606989],[-7.829597,54.607048],[-7.829501,54.60718],[-7.829468,54.607234],[-7.829464,54.60725],[-7.829469,54.607325],[-7.829485,54.607369],[-7.829494,54.607384],[-7.829515,54.607407],[-7.829525,54.607426],[-7.82953,54.607451],[-7.829525,54.607508],[-7.829514,54.607514],[-7.829503,54.607539],[-7.829485,54.607548],[-7.829476,54.607559],[-7.829472,54.607616],[-7.829455,54.607675],[-7.829441,54.60775],[-7.829433,54.607803],[-7.829424,54.607877],[-7.829413,54.607929],[-7.829413,54.60798],[-7.829409,54.607994],[-7.829422,54.608011],[-7.829412,54.608033],[-7.829395,54.608045],[-7.829332,54.608082],[-7.829307,54.608094],[-7.829256,54.608113],[-7.829223,54.608119],[-7.829166,54.608121],[-7.82911,54.608131],[-7.829082,54.608149],[-7.82903,54.608165],[-7.828974,54.608158],[-7.828899,54.608124],[-7.828825,54.608086],[-7.828779,54.608065],[-7.828728,54.608061],[-7.828706,54.608069],[-7.828671,54.608084],[-7.82865,54.608086],[-7.82865,54.6081],[-7.828647,54.608142],[-7.828636,54.608167],[-7.828617,54.608242],[-7.828625,54.608303],[-7.82861,54.60832],[-7.828576,54.608336],[-7.828539,54.608348],[-7.828482,54.608389],[-7.82846,54.608416],[-7.828471,54.608442],[-7.828443,54.60853],[-7.828451,54.608561],[-7.82844,54.608579],[-7.828403,54.608592],[-7.828226,54.608822],[-7.828102,54.608993],[-7.828035,54.609077],[-7.827937,54.609164],[-7.827924,54.609211],[-7.827937,54.609243],[-7.827955,54.609279],[-7.827912,54.609287],[-7.82784,54.609285],[-7.827787,54.609291],[-7.827737,54.60931],[-7.827678,54.609317],[-7.827597,54.60932],[-7.827542,54.60931],[-7.827477,54.609304],[-7.82739,54.609314],[-7.827314,54.609311],[-7.827251,54.609337],[-7.827168,54.609387],[-7.827,54.609463],[-7.826944,54.609475],[-7.826822,54.609467],[-7.82664,54.609427],[-7.826542,54.609416],[-7.826319,54.609489],[-7.826256,54.609547],[-7.826211,54.60957],[-7.826144,54.6096],[-7.82612,54.60961],[-7.826087,54.609601],[-7.82603,54.609577],[-7.82603,54.609589],[-7.825937,54.609774],[-7.825886,54.609876],[-7.825705,54.610218],[-7.825473,54.610638],[-7.825274,54.61098],[-7.825204,54.611089],[-7.825037,54.611268],[-7.824752,54.611579],[-7.82437,54.611973],[-7.824204,54.612139],[-7.824096,54.612234],[-7.82377,54.612551],[-7.823674,54.612643],[-7.823221,54.613078],[-7.822944,54.613354],[-7.822913,54.613382],[-7.822616,54.613655],[-7.822327,54.613929],[-7.822002,54.613987],[-7.821941,54.61401],[-7.821878,54.61402],[-7.821779,54.614063],[-7.821713,54.614072],[-7.821642,54.614079],[-7.821602,54.614102],[-7.821492,54.614125],[-7.821473,54.614133],[-7.821404,54.614188],[-7.821376,54.614217],[-7.821346,54.614236],[-7.821239,54.61424],[-7.821193,54.614257],[-7.821193,54.614294],[-7.821103,54.614294],[-7.82102,54.614337],[-7.820901,54.614369],[-7.82083,54.614409],[-7.82079,54.614457],[-7.820745,54.614558],[-7.820727,54.614629],[-7.820726,54.614832],[-7.820655,54.614832],[-7.820575,54.614989],[-7.820561,54.615022],[-7.820579,54.61506],[-7.820579,54.615107],[-7.82053,54.615181],[-7.820456,54.61525],[-7.820437,54.615376],[-7.82041,54.615469],[-7.820369,54.615536],[-7.820375,54.615584],[-7.820421,54.615668],[-7.820428,54.615808],[-7.820443,54.615944],[-7.820434,54.616051],[-7.820441,54.616222],[-7.820425,54.616286],[-7.820387,54.616409],[-7.820395,54.616478],[-7.82039,54.616653],[-7.820363,54.616777],[-7.82033,54.616876],[-7.820222,54.616941],[-7.820175,54.617039],[-7.820124,54.617189],[-7.820041,54.617304],[-7.81992,54.617395],[-7.819831,54.617456],[-7.819807,54.617486],[-7.819766,54.617614],[-7.819758,54.617694],[-7.819757,54.617828],[-7.819726,54.617936],[-7.819695,54.618044],[-7.819643,54.618145],[-7.819538,54.618248],[-7.819439,54.618327],[-7.819311,54.618379],[-7.819282,54.618394],[-7.819279,54.618405],[-7.819283,54.618457],[-7.819253,54.618513],[-7.819163,54.61857],[-7.81911,54.618595],[-7.819103,54.618641],[-7.81911,54.618827],[-7.819102,54.618913],[-7.81912,54.619051],[-7.819165,54.619248],[-7.819176,54.619303],[-7.819202,54.619412],[-7.819313,54.619412],[-7.819312,54.619682],[-7.819311,54.6198],[-7.819339,54.619837],[-7.819465,54.619986],[-7.819549,54.62016],[-7.819559,54.620328],[-7.819527,54.620381],[-7.819464,54.620434],[-7.819379,54.620524],[-7.81931,54.620562],[-7.819021,54.620619],[-7.818861,54.62064],[-7.818843,54.620652],[-7.818842,54.620759],[-7.818751,54.620759],[-7.818738,54.620777],[-7.818693,54.620827],[-7.818426,54.620863],[-7.818308,54.620888],[-7.818275,54.620897],[-7.818202,54.620935],[-7.818028,54.620988],[-7.817931,54.62102],[-7.817862,54.621078],[-7.817732,54.621161],[-7.817538,54.621238],[-7.817447,54.62125],[-7.817446,54.621296],[-7.817218,54.621296],[-7.817197,54.621307],[-7.817165,54.621356],[-7.817131,54.62141],[-7.817019,54.621454],[-7.816981,54.621466],[-7.816981,54.621565],[-7.81664,54.621565],[-7.816544,54.62159],[-7.816516,54.621604],[-7.816515,54.621834],[-7.816071,54.621833],[-7.81605,54.621845],[-7.816049,54.622103],[-7.815729,54.622102],[-7.815719,54.622115],[-7.815624,54.622232],[-7.815584,54.62229],[-7.815583,54.622524],[-7.815613,54.62257],[-7.815678,54.622616],[-7.815724,54.622646],[-7.815715,54.622695],[-7.81568,54.622764],[-7.815793,54.622777],[-7.815858,54.622801],[-7.815886,54.622844],[-7.815879,54.622911],[-7.815827,54.622984],[-7.815788,54.623042],[-7.815696,54.623082],[-7.815672,54.623091],[-7.81558,54.623124],[-7.81558,54.62318],[-7.815449,54.62318],[-7.815313,54.623203],[-7.815198,54.623305],[-7.815135,54.623346],[-7.815115,54.62335],[-7.815114,54.623449],[-7.814845,54.623449],[-7.814824,54.623481],[-7.814823,54.623499],[-7.814842,54.623541],[-7.814864,54.623587],[-7.814906,54.623687],[-7.814909,54.62378],[-7.814943,54.623869],[-7.814957,54.623886],[-7.814971,54.623896],[-7.81503,54.62391],[-7.8151,54.623951],[-7.815121,54.623973],[-7.815113,54.624035],[-7.815101,54.624089],[-7.815122,54.62411],[-7.815173,54.624144],[-7.815208,54.624216],[-7.815211,54.624255],[-7.815207,54.624261],[-7.815136,54.624273],[-7.815045,54.624305],[-7.815036,54.624352],[-7.81505,54.624414],[-7.815033,54.624469],[-7.814968,54.624548],[-7.814898,54.624604],[-7.814829,54.624655],[-7.814791,54.624722],[-7.814806,54.624768],[-7.814844,54.624828],[-7.814858,54.624878],[-7.814851,54.624932],[-7.81483,54.625031],[-7.814831,54.625083],[-7.814834,54.625128],[-7.814806,54.625197],[-7.814729,54.625283],[-7.814694,54.625302],[-7.814607,54.625311],[-7.814574,54.625335],[-7.814548,54.62542],[-7.814511,54.625467],[-7.814505,54.625525],[-7.814494,54.625577],[-7.814464,54.625615],[-7.814444,54.625626],[-7.814402,54.625636],[-7.814373,54.625638],[-7.814307,54.625634],[-7.814247,54.625617],[-7.814175,54.625601],[-7.814175,54.625604],[-7.813913,54.625604],[-7.813905,54.625612],[-7.813899,54.625622],[-7.813897,54.625639],[-7.813906,54.625668],[-7.813923,54.625694],[-7.813927,54.625712],[-7.81392,54.625736],[-7.81391,54.625752],[-7.813865,54.625801],[-7.813854,54.625818],[-7.813818,54.625878],[-7.813791,54.625935],[-7.813773,54.625962],[-7.813755,54.625975],[-7.813717,54.625988],[-7.813709,54.62599],[-7.813708,54.626143],[-7.813356,54.626142],[-7.813279,54.626199],[-7.813243,54.626219],[-7.813242,54.626411],[-7.812966,54.626411],[-7.812965,54.626414],[-7.813019,54.626437],[-7.813112,54.626442],[-7.813153,54.626457],[-7.813159,54.626533],[-7.813125,54.626571],[-7.813046,54.626583],[-7.812991,54.626587],[-7.812891,54.626594],[-7.812778,54.626601],[-7.812777,54.626601],[-7.812773,54.627489],[-7.812772,54.627758],[-7.812524,54.627758],[-7.812521,54.62776],[-7.812469,54.627797],[-7.812458,54.627813],[-7.812447,54.627868],[-7.812426,54.627918],[-7.812371,54.628],[-7.812306,54.628067],[-7.812305,54.628297],[-7.812044,54.628296],[-7.81203,54.62831],[-7.811932,54.628398],[-7.811912,54.628411],[-7.811839,54.628447],[-7.811839,54.628566],[-7.811837,54.628835],[-7.811381,54.628834],[-7.811373,54.628848],[-7.811372,54.629104],[-7.811089,54.629104],[-7.811061,54.629105],[-7.811055,54.629104],[-7.810907,54.629103],[-7.810906,54.629373],[-7.810441,54.629372],[-7.81044,54.629642],[-7.80998,54.629641],[-7.810132,54.629838],[-7.810293,54.63002],[-7.810362,54.630098],[-7.810384,54.630155],[-7.810394,54.630156],[-7.810408,54.630157],[-7.810475,54.630163],[-7.810565,54.63017],[-7.81066,54.630181],[-7.810782,54.630194],[-7.810938,54.630235],[-7.81112,54.630301],[-7.81118,54.630306],[-7.811253,54.630311],[-7.811621,54.630449],[-7.811919,54.63056],[-7.812683,54.63086],[-7.813099,54.631039],[-7.8132,54.631083],[-7.813337,54.631141],[-7.816574,54.631146],[-7.81657,54.632045],[-7.818137,54.632047],[-7.818137,54.632047],[-7.818298,54.631931],[-7.818378,54.631873],[-7.818741,54.631587],[-7.818877,54.631479],[-7.81918,54.631239],[-7.819504,54.630978],[-7.819928,54.630638],[-7.820149,54.630466],[-7.820348,54.63031],[-7.820688,54.630033],[-7.820837,54.629912],[-7.820901,54.629862],[-7.821226,54.629608],[-7.821227,54.629357],[-7.821524,54.629357],[-7.821795,54.629147],[-7.821997,54.628984],[-7.822368,54.628687],[-7.822568,54.628524],[-7.82265,54.628457],[-7.822732,54.628391],[-7.822948,54.628215],[-7.823155,54.628054],[-7.823246,54.627983],[-7.823433,54.627831],[-7.823519,54.627763],[-7.82362,54.627684],[-7.82383,54.627514],[-7.824088,54.627318],[-7.8242,54.627225],[-7.824292,54.627148],[-7.824442,54.62703],[-7.824572,54.626927],[-7.824668,54.626852],[-7.824842,54.626715],[-7.825148,54.626468],[-7.825189,54.626436],[-7.825464,54.626214],[-7.825769,54.625971],[-7.82587,54.62589],[-7.826109,54.625697],[-7.826487,54.6254],[-7.826781,54.625161],[-7.826946,54.625031],[-7.827162,54.624861],[-7.827232,54.624815],[-7.827186,54.624815],[-7.827187,54.624545],[-7.826723,54.624545],[-7.826725,54.624006],[-7.826261,54.624005],[-7.826265,54.622927],[-7.82673,54.622927],[-7.826733,54.622119],[-7.827198,54.622119],[-7.827194,54.622928],[-7.827659,54.622929],[-7.827654,54.624007],[-7.827652,54.624485],[-7.827711,54.624437],[-7.827792,54.62437],[-7.827968,54.624227],[-7.827991,54.624206],[-7.828063,54.624142],[-7.828108,54.624105],[-7.828166,54.624055],[-7.82824,54.623994],[-7.8283,54.623944],[-7.828365,54.623895],[-7.828411,54.623861],[-7.828435,54.62385],[-7.828483,54.623827],[-7.828639,54.623791],[-7.828704,54.623766],[-7.828769,54.623742],[-7.829027,54.623654],[-7.829134,54.623618],[-7.829489,54.623507],[-7.829824,54.623395],[-7.83003,54.623328],[-7.830247,54.623257],[-7.830537,54.62316],[-7.830677,54.623113],[-7.830807,54.623069],[-7.830891,54.623041],[-7.831197,54.622934],[-7.830911,54.622933],[-7.830912,54.622664],[-7.831376,54.622664],[-7.831375,54.622871],[-7.831424,54.622854],[-7.831725,54.622755],[-7.832052,54.622653],[-7.832384,54.622545],[-7.832654,54.622455],[-7.832825,54.622397],[-7.832771,54.622397],[-7.832773,54.621858],[-7.833238,54.621858],[-7.833236,54.622258],[-7.833285,54.622242],[-7.833409,54.622201],[-7.833561,54.622151],[-7.83377,54.622083],[-7.834129,54.621971],[-7.834456,54.62186],[-7.834807,54.621741],[-7.835051,54.62166],[-7.835188,54.621615],[-7.835538,54.621494],[-7.835717,54.621432],[-7.836155,54.62129],[-7.836268,54.621252],[-7.836498,54.621173],[-7.836848,54.621061],[-7.836953,54.621013],[-7.837024,54.620982],[-7.837237,54.62092],[-7.837237,54.62092],[-7.837146,54.620766],[-7.837029,54.620585],[-7.836934,54.620448],[-7.83684,54.620306],[-7.83673,54.620136],[-7.836636,54.619985],[-7.836556,54.619868],[-7.836439,54.61972],[-7.836337,54.619585],[-7.836254,54.619452],[-7.836197,54.619357],[-7.836068,54.619205],[-7.836015,54.619123],[-7.835951,54.618974],[-7.835804,54.618767],[-7.835736,54.618627],[-7.835611,54.618486],[-7.835509,54.618306],[-7.835373,54.618094],[-7.835153,54.617724],[-7.834976,54.617448],[-7.834847,54.617258],[-7.834737,54.617083],[-7.834826,54.617058],[-7.834972,54.617016],[-7.835255,54.616925],[-7.835511,54.616848],[-7.83577,54.616769],[-7.835791,54.616763],[-7.836116,54.616668],[-7.836527,54.61655],[-7.836635,54.616515],[-7.836681,54.616503],[-7.836908,54.616435],[-7.836976,54.616417],[-7.836976,54.616203],[-7.837725,54.616204],[-7.837879,54.616162],[-7.838127,54.616104],[-7.838189,54.616092],[-7.838149,54.61595],[-7.838113,54.615846],[-7.838097,54.615796],[-7.838049,54.615642],[-7.838004,54.615497],[-7.837975,54.615392],[-7.837934,54.615261],[-7.837906,54.615148],[-7.837882,54.615061],[-7.837836,54.614899],[-7.837818,54.614837],[-7.837811,54.614802],[-7.837811,54.614801],[-7.837848,54.614798],[-7.837892,54.614797],[-7.838006,54.614803],[-7.838106,54.614793],[-7.838168,54.614803],[-7.8382,54.614815],[-7.838271,54.614809],[-7.83838,54.614768],[-7.838457,54.614712],[-7.838485,54.61467],[-7.838534,54.614653],[-7.838626,54.614674],[-7.838718,54.614704],[-7.838907,54.614712],[-7.83894,54.614709],[-7.838989,54.614706],[-7.839102,54.614698],[-7.839378,54.614628],[-7.839564,54.614589],[-7.839765,54.614588],[-7.84017,54.614619],[-7.840402,54.614653],[-7.840755,54.61468],[-7.840962,54.614708],[-7.841228,54.614751],[-7.841685,54.614816],[-7.842044,54.614892],[-7.842286,54.614966],[-7.842347,54.614975],[-7.842397,54.614983],[-7.84255,54.615007],[-7.84271,54.615023],[-7.842774,54.615014],[-7.842959,54.615033],[-7.842978,54.615035],[-7.8432,54.615036],[-7.843343,54.614987],[-7.843442,54.614922],[-7.843493,54.614899],[-7.843652,54.614905],[-7.843896,54.614849],[-7.844003,54.614828],[-7.844073,54.614837],[-7.844089,54.614841],[-7.844238,54.614873],[-7.844335,54.614945],[-7.844412,54.614998],[-7.844554,54.615021],[-7.844634,54.615025],[-7.84474,54.615084],[-7.844798,54.615118],[-7.845082,54.614627],[-7.84513,54.614568],[-7.845188,54.614496],[-7.845322,54.61433],[-7.845468,54.614149],[-7.845495,54.614119],[-7.845747,54.613833],[-7.84575,54.613829],[-7.84606,54.613684],[-7.846303,54.61357],[-7.84671,54.613457],[-7.84722,54.613316],[-7.848595,54.613133],[-7.849164,54.612968],[-7.849084,54.612909],[-7.849017,54.612858],[-7.848698,54.612619],[-7.84846,54.612431],[-7.84823,54.612213]],[[-7.836977,54.615933],[-7.836976,54.616203],[-7.836512,54.616202],[-7.836513,54.615933],[-7.836977,54.615933]],[[-7.832373,54.606223],[-7.832371,54.606762],[-7.83237,54.607032],[-7.832368,54.607301],[-7.83144,54.6073],[-7.831441,54.60703],[-7.830976,54.60703],[-7.830978,54.60676],[-7.831442,54.606761],[-7.831444,54.606222],[-7.831446,54.605683],[-7.831911,54.605683],[-7.831908,54.606222],[-7.832373,54.606223]],[[-7.831436,54.608109],[-7.830972,54.608108],[-7.830973,54.607838],[-7.831437,54.607839],[-7.831436,54.608109]],[[-7.835598,54.612427],[-7.836063,54.612428],[-7.836062,54.612697],[-7.836526,54.612698],[-7.836524,54.613237],[-7.836059,54.613236],[-7.836056,54.614045],[-7.835592,54.614044],[-7.835591,54.614314],[-7.835126,54.614313],[-7.835125,54.614583],[-7.834661,54.614582],[-7.834657,54.615391],[-7.835122,54.615392],[-7.835121,54.615661],[-7.834192,54.61566],[-7.834191,54.615929],[-7.833726,54.615929],[-7.833727,54.615659],[-7.833263,54.615659],[-7.833264,54.615389],[-7.8328,54.615388],[-7.832803,54.61458],[-7.833732,54.614581],[-7.833733,54.614312],[-7.834197,54.614312],[-7.834198,54.614043],[-7.834663,54.614043],[-7.834666,54.613235],[-7.835131,54.613235],[-7.835133,54.612696],[-7.835134,54.612427],[-7.835135,54.612157],[-7.835599,54.612158],[-7.835598,54.612427]],[[-7.832319,54.619431],[-7.831854,54.61943],[-7.831855,54.619161],[-7.83232,54.619161],[-7.832319,54.619431]],[[-7.826736,54.62158],[-7.826737,54.62131],[-7.827201,54.621311],[-7.827202,54.621041],[-7.827667,54.621042],[-7.827666,54.621311],[-7.827665,54.621581],[-7.826736,54.62158]],[[-7.82394,54.623462],[-7.823476,54.623462],[-7.823475,54.623731],[-7.82301,54.623731],[-7.823009,54.624],[-7.822544,54.623999],[-7.822545,54.62373],[-7.822081,54.623729],[-7.822082,54.62346],[-7.822547,54.62346],[-7.822549,54.622921],[-7.823014,54.622922],[-7.823015,54.622652],[-7.823944,54.622654],[-7.823943,54.622923],[-7.82394,54.623462]],[[-7.820685,54.624266],[-7.820681,54.625075],[-7.819752,54.625074],[-7.819756,54.624265],[-7.82022,54.624266],[-7.820223,54.623726],[-7.820687,54.623727],[-7.820685,54.624266]]]]}}]}
