{"type":"FeatureCollection","features":[{"type":"Feature","properties":{"source_fid":2513832,"county":"Donegal","bog_geom_ha":155.95631284610317,"low15_pct":90.23121387283237,"low15_ha":140.7212741923509,"overlay_ha":140.79367093676865,"area_delta":0.072396744417744685},"geometry":{"type":"MultiPolygon","coordinates":[[[[-8.234354,55.126267],[-8.234389,55.126229],[-8.234401,55.126213],[-8.2344,55.126055],[-8.234236,55.126055],[-8.234238,55.126325],[-8.234238,55.126361],[-8.234252,55.126351],[-8.234332,55.12629],[-8.234354,55.126267]]],[[[-8.233998,55.126635],[-8.23403,55.126595],[-8.233769,55.126595],[-8.23377,55.126715],[-8.233909,55.126689],[-8.233966,55.126665],[-8.233998,55.126635]]],[[[-8.233489,55.126899],[-8.233499,55.126865],[-8.2333,55.126866],[-8.233302,55.127135],[-8.232831,55.127136],[-8.232833,55.127406],[-8.232363,55.127407],[-8.232363,55.12753],[-8.232586,55.127524],[-8.232755,55.127513],[-8.23293,55.127499],[-8.233088,55.127463],[-8.233199,55.127437],[-8.233313,55.127384],[-8.233395,55.127347],[-8.233379,55.12732],[-8.233346,55.127239],[-8.233337,55.127193],[-8.233369,55.127125],[-8.233437,55.127006],[-8.233489,55.126899]]],[[[-8.231768,55.127548],[-8.231893,55.127544],[-8.231892,55.127407],[-8.232363,55.127407],[-8.232361,55.127137],[-8.232359,55.126868],[-8.232358,55.126598],[-8.232828,55.126597],[-8.232827,55.126328],[-8.233297,55.126327],[-8.233295,55.126057],[-8.233292,55.125518],[-8.233763,55.125517],[-8.233761,55.125248],[-8.233759,55.124978],[-8.233758,55.124709],[-8.234228,55.124708],[-8.234227,55.124438],[-8.234225,55.124169],[-8.234695,55.124168],[-8.234694,55.123898],[-8.234223,55.123899],[-8.234219,55.123091],[-8.234214,55.122282],[-8.234209,55.121473],[-8.233739,55.121474],[-8.233736,55.120935],[-8.233266,55.120936],[-8.233262,55.120397],[-8.233261,55.120128],[-8.234201,55.120126],[-8.234198,55.119587],[-8.233728,55.119588],[-8.233726,55.119318],[-8.234197,55.119317],[-8.234195,55.119048],[-8.234665,55.119047],[-8.234667,55.119316],[-8.234669,55.119586],[-8.235139,55.119585],[-8.235138,55.119368],[-8.234988,55.119318],[-8.234935,55.119283],[-8.234881,55.119181],[-8.234869,55.119139],[-8.234901,55.119115],[-8.234985,55.119034],[-8.234973,55.119004],[-8.234932,55.118985],[-8.234818,55.118913],[-8.234688,55.118844],[-8.234647,55.118798],[-8.234658,55.118749],[-8.23467,55.118718],[-8.23467,55.11867],[-8.234641,55.118635],[-8.234584,55.118612],[-8.234511,55.118598],[-8.234434,55.118586],[-8.234352,55.118552],[-8.234299,55.118517],[-8.234299,55.118498],[-8.234343,55.118461],[-8.234416,55.118407],[-8.234505,55.118337],[-8.234512,55.118268],[-8.2345,55.118207],[-8.234459,55.118182],[-8.23439,55.118168],[-8.234284,55.118145],[-8.234202,55.118108],[-8.233974,55.117988],[-8.233868,55.117934],[-8.233754,55.117898],[-8.233433,55.117803],[-8.233311,55.117778],[-8.23327,55.117783],[-8.233201,55.117769],[-8.233124,55.117727],[-8.232981,55.117662],[-8.232916,55.117621],[-8.232843,55.117572],[-8.23283,55.117542],[-8.232809,55.117491],[-8.232793,55.117433],[-8.232775,55.117433],[-8.232775,55.117378],[-8.232735,55.117319],[-8.232702,55.117286],[-8.232625,55.117229],[-8.23255,55.117164],[-8.232539,55.117154],[-8.232457,55.117094],[-8.232375,55.117038],[-8.2323,55.117031],[-8.232184,55.116988],[-8.232108,55.116942],[-8.232017,55.116841],[-8.23194,55.116766],[-8.231858,55.116749],[-8.231802,55.116712],[-8.23178,55.116701],[-8.231687,55.116673],[-8.231576,55.116626],[-8.231546,55.116599],[-8.231499,55.116545],[-8.231428,55.116498],[-8.231365,55.116483],[-8.23124,55.116471],[-8.231165,55.11644],[-8.231081,55.116383],[-8.230991,55.116299],[-8.230935,55.116224],[-8.230865,55.116184],[-8.230832,55.11613],[-8.230751,55.11611],[-8.230686,55.116081],[-8.230627,55.115972],[-8.230618,55.115869],[-8.230437,55.115744],[-8.230327,55.115687],[-8.230095,55.115584],[-8.230057,55.115278],[-8.229905,55.115183],[-8.229714,55.115048],[-8.22963,55.11498],[-8.229499,55.114943],[-8.229274,55.114877],[-8.229057,55.114823],[-8.229019,55.114794],[-8.228977,55.11474],[-8.228905,55.114705],[-8.228796,55.114657],[-8.228684,55.114591],[-8.228621,55.114496],[-8.228576,55.114391],[-8.228501,55.114323],[-8.228361,55.114269],[-8.22816,55.114208],[-8.228117,55.114186],[-8.228128,55.114132],[-8.228141,55.114052],[-8.228113,55.113992],[-8.228017,55.113891],[-8.227914,55.113789],[-8.227891,55.113681],[-8.227914,55.113557],[-8.227987,55.11348],[-8.228055,55.113388],[-8.228083,55.113283],[-8.228096,55.113234],[-8.228056,55.113203],[-8.227903,55.11319],[-8.227831,55.11314],[-8.227772,55.113077],[-8.227731,55.113056],[-8.22767,55.113023],[-8.227624,55.11301],[-8.227552,55.112969],[-8.22748,55.112941],[-8.227413,55.112909],[-8.227315,55.112848],[-8.227233,55.11281],[-8.227145,55.112748],[-8.227086,55.112689],[-8.22703,55.112621],[-8.22693,55.112508],[-8.226832,55.112423],[-8.22672,55.112336],[-8.226669,55.112303],[-8.226611,55.112294],[-8.226564,55.112263],[-8.226519,55.11223],[-8.226323,55.11208],[-8.226207,55.111997],[-8.225998,55.111825],[-8.225804,55.111692],[-8.225664,55.111604],[-8.225651,55.111581],[-8.225682,55.111546],[-8.225632,55.111512],[-8.225545,55.111455],[-8.225477,55.111424],[-8.225422,55.111387],[-8.225206,55.111267],[-8.22486,55.111001],[-8.224466,55.110683],[-8.224217,55.110529],[-8.223936,55.110393],[-8.223887,55.110365],[-8.223711,55.110251],[-8.223559,55.110177],[-8.223394,55.110077],[-8.223358,55.109986],[-8.223259,55.109715],[-8.22313,55.10942],[-8.223075,55.109295],[-8.22291,55.109135],[-8.222774,55.109023],[-8.222309,55.108533],[-8.222145,55.10835],[-8.221772,55.107935],[-8.221543,55.107688],[-8.221296,55.107407],[-8.220964,55.107459],[-8.220964,55.107483],[-8.220813,55.107483],[-8.220734,55.107495],[-8.220353,55.107558],[-8.220132,55.107599],[-8.220052,55.107613],[-8.22,55.107624],[-8.219898,55.107693],[-8.219889,55.107718],[-8.219888,55.107747],[-8.219887,55.107773],[-8.219881,55.107796],[-8.219863,55.10783],[-8.219856,55.10784],[-8.219839,55.107856],[-8.219832,55.107906],[-8.219802,55.10792],[-8.219747,55.107914],[-8.219687,55.107928],[-8.219586,55.107963],[-8.219549,55.10798],[-8.219526,55.108002],[-8.219509,55.108023],[-8.219506,55.108046],[-8.219512,55.108073],[-8.219502,55.108089],[-8.219483,55.108112],[-8.21947,55.108124],[-8.21943,55.108133],[-8.219374,55.108181],[-8.219368,55.108213],[-8.219362,55.108236],[-8.219355,55.10826],[-8.219346,55.108286],[-8.219346,55.108294],[-8.219558,55.108294],[-8.219559,55.10856],[-8.219565,55.108568],[-8.219587,55.108602],[-8.219611,55.108621],[-8.219617,55.108656],[-8.219605,55.108682],[-8.219608,55.108721],[-8.219636,55.108781],[-8.219639,55.108838],[-8.219593,55.108942],[-8.219577,55.10897],[-8.219566,55.109011],[-8.219582,55.109083],[-8.219608,55.109128],[-8.219626,55.109164],[-8.219614,55.109201],[-8.219593,55.109234],[-8.21959,55.109279],[-8.219617,55.109371],[-8.219631,55.109402],[-8.219623,55.109446],[-8.219564,55.109506],[-8.219527,55.109537],[-8.219515,55.109563],[-8.219518,55.109598],[-8.219512,55.10963],[-8.219508,55.109655],[-8.219491,55.109692],[-8.219478,55.10971],[-8.219471,55.109729],[-8.219457,55.109768],[-8.219438,55.109813],[-8.219435,55.109862],[-8.219432,55.109897],[-8.219419,55.109941],[-8.219426,55.109999],[-8.219383,55.110081],[-8.219297,55.110167],[-8.219254,55.110198],[-8.219254,55.110221],[-8.219283,55.110261],[-8.219286,55.110286],[-8.21927,55.110312],[-8.21926,55.110344],[-8.219249,55.11037],[-8.21921,55.110414],[-8.219179,55.110441],[-8.219142,55.110452],[-8.219116,55.110473],[-8.219108,55.110494],[-8.2191,55.110512],[-8.219047,55.110515],[-8.219036,55.110518],[-8.21897,55.110538],[-8.218903,55.110575],[-8.218875,55.110591],[-8.218831,55.110609],[-8.218739,55.110666],[-8.218684,55.110697],[-8.218683,55.110717],[-8.218685,55.110739],[-8.218669,55.110762],[-8.218631,55.110792],[-8.218632,55.110991],[-8.21836,55.110991],[-8.218352,55.111002],[-8.218344,55.111026],[-8.218331,55.111043],[-8.218287,55.111051],[-8.218232,55.111042],[-8.218189,55.111047],[-8.218162,55.111049],[-8.218163,55.111261],[-8.218165,55.111531],[-8.217912,55.111531],[-8.217924,55.11156],[-8.217926,55.111589],[-8.217931,55.11162],[-8.217943,55.111645],[-8.217984,55.111667],[-8.21801,55.11167],[-8.218017,55.111683],[-8.218017,55.111701],[-8.218004,55.111724],[-8.217987,55.111742],[-8.217973,55.111755],[-8.217954,55.111787],[-8.217914,55.11182],[-8.217843,55.111886],[-8.217784,55.111934],[-8.217747,55.111949],[-8.217692,55.111967],[-8.217637,55.111974],[-8.21761,55.111989],[-8.217588,55.11203],[-8.217596,55.112065],[-8.217613,55.112091],[-8.217606,55.112124],[-8.217577,55.112122],[-8.217549,55.112135],[-8.217546,55.112157],[-8.21752,55.112176],[-8.217511,55.112188],[-8.21751,55.112222],[-8.217504,55.112247],[-8.217458,55.112265],[-8.217446,55.112276],[-8.217477,55.112323],[-8.217506,55.112352],[-8.217504,55.112385],[-8.217491,55.112401],[-8.217417,55.112442],[-8.217362,55.112474],[-8.217348,55.11251],[-8.217335,55.112542],[-8.217297,55.11256],[-8.217272,55.112566],[-8.217194,55.112576],[-8.217123,55.112584],[-8.217064,55.112585],[-8.217035,55.112585],[-8.216998,55.112584],[-8.216966,55.11259],[-8.216947,55.112606],[-8.21695,55.112625],[-8.216929,55.112643],[-8.2169,55.112637],[-8.216862,55.112631],[-8.216845,55.112639],[-8.216834,55.112656],[-8.216816,55.11267],[-8.216786,55.112687],[-8.216784,55.112713],[-8.216754,55.112764],[-8.216758,55.112784],[-8.216756,55.112797],[-8.216696,55.112867],[-8.216669,55.112935],[-8.216642,55.112979],[-8.216654,55.113007],[-8.216662,55.113035],[-8.216657,55.11305],[-8.216646,55.113077],[-8.216631,55.113098],[-8.216612,55.113126],[-8.216602,55.113152],[-8.216604,55.113213],[-8.216615,55.113237],[-8.216631,55.113252],[-8.216641,55.113285],[-8.216648,55.113321],[-8.21666,55.113352],[-8.216672,55.11337],[-8.216698,55.113404],[-8.216742,55.11343],[-8.216766,55.11345],[-8.216783,55.113481],[-8.216769,55.113511],[-8.216732,55.113568],[-8.216683,55.113629],[-8.216652,55.113638],[-8.216622,55.113654],[-8.216609,55.113668],[-8.216589,55.11369],[-8.216612,55.113714],[-8.216625,55.113735],[-8.216635,55.113755],[-8.216623,55.113795],[-8.216616,55.113866],[-8.216596,55.113916],[-8.216567,55.113966],[-8.216526,55.114008],[-8.216499,55.114043],[-8.21649,55.114063],[-8.21647,55.114092],[-8.216441,55.114114],[-8.216439,55.114133],[-8.216447,55.11416],[-8.216463,55.114173],[-8.216472,55.114208],[-8.216478,55.114229],[-8.216484,55.114256],[-8.216472,55.114279],[-8.216444,55.114301],[-8.216384,55.114341],[-8.216354,55.114383],[-8.216372,55.114414],[-8.216419,55.114448],[-8.216449,55.114474],[-8.216482,55.114504],[-8.216517,55.114533],[-8.216543,55.114559],[-8.216625,55.11459],[-8.216742,55.11463],[-8.216792,55.114647],[-8.216815,55.114669],[-8.216806,55.1147],[-8.216776,55.114714],[-8.216721,55.114728],[-8.216702,55.114737],[-8.216699,55.11475],[-8.216715,55.114776],[-8.216729,55.114795],[-8.216764,55.114853],[-8.21679,55.114886],[-8.216813,55.114915],[-8.216829,55.114945],[-8.216873,55.114994],[-8.216907,55.115022],[-8.216923,55.115037],[-8.216956,55.115064],[-8.216976,55.115091],[-8.216983,55.115108],[-8.21699,55.115129],[-8.217019,55.11515],[-8.217047,55.11517],[-8.217071,55.115193],[-8.217077,55.115215],[-8.217078,55.115234],[-8.21706,55.115249],[-8.217007,55.115258],[-8.216951,55.115271],[-8.216939,55.115282],[-8.216934,55.115296],[-8.216929,55.115309],[-8.21693,55.115322],[-8.216944,55.115333],[-8.216958,55.115345],[-8.216973,55.115369],[-8.216992,55.115376],[-8.217034,55.115376],[-8.217073,55.11539],[-8.217091,55.115396],[-8.217102,55.115411],[-8.21712,55.115422],[-8.217156,55.115437],[-8.217199,55.115463],[-8.217213,55.115471],[-8.21723,55.115486],[-8.217254,55.115518],[-8.217257,55.115551],[-8.217289,55.115595],[-8.217318,55.115619],[-8.217369,55.115647],[-8.217411,55.115675],[-8.217434,55.115697],[-8.217436,55.11571],[-8.217437,55.115728],[-8.217436,55.115743],[-8.217445,55.115756],[-8.217471,55.115797],[-8.217479,55.115835],[-8.217482,55.115913],[-8.217476,55.115936],[-8.217425,55.115991],[-8.217408,55.116008],[-8.217425,55.116032],[-8.21748,55.116073],[-8.217502,55.116096],[-8.2175,55.11611],[-8.217512,55.116129],[-8.217524,55.11614],[-8.217526,55.116149],[-8.217531,55.116156],[-8.217544,55.116162],[-8.217556,55.116167],[-8.217583,55.116186],[-8.217596,55.11621],[-8.217606,55.116229],[-8.217654,55.11626],[-8.217685,55.116281],[-8.217721,55.116316],[-8.217744,55.116345],[-8.217764,55.116371],[-8.217785,55.11639],[-8.217817,55.116409],[-8.217845,55.116455],[-8.217854,55.116487],[-8.217885,55.116518],[-8.217898,55.116536],[-8.217904,55.116571],[-8.217904,55.116586],[-8.217888,55.116604],[-8.217827,55.116677],[-8.217813,55.1167],[-8.217818,55.116721],[-8.217831,55.11674],[-8.217847,55.116755],[-8.217884,55.116814],[-8.217909,55.116846],[-8.217936,55.116874],[-8.217978,55.116892],[-8.218059,55.116919],[-8.218122,55.116944],[-8.218172,55.116967],[-8.218188,55.116979],[-8.218204,55.116995],[-8.218217,55.117014],[-8.218218,55.117028],[-8.218225,55.117039],[-8.218241,55.117057],[-8.21827,55.117151],[-8.218313,55.117173],[-8.218331,55.11719],[-8.218421,55.117279],[-8.218445,55.117315],[-8.218445,55.117348],[-8.218486,55.117442],[-8.218551,55.11755],[-8.218555,55.117577],[-8.218556,55.117611],[-8.218568,55.117633],[-8.218659,55.117704],[-8.218691,55.117737],[-8.21875,55.117761],[-8.218769,55.117781],[-8.218787,55.117865],[-8.218839,55.117928],[-8.21887,55.117936],[-8.219011,55.117986],[-8.219078,55.11803],[-8.219138,55.118097],[-8.219174,55.118157],[-8.219194,55.118192],[-8.21923,55.118246],[-8.219211,55.11827],[-8.219212,55.118293],[-8.219239,55.118319],[-8.21924,55.118348],[-8.219241,55.118375],[-8.219297,55.118451],[-8.219321,55.118482],[-8.219384,55.118555],[-8.219421,55.118612],[-8.219452,55.118621],[-8.219519,55.118658],[-8.219578,55.118703],[-8.219591,55.118752],[-8.219592,55.118832],[-8.219612,55.118859],[-8.219648,55.118885],[-8.219648,55.118912],[-8.219747,55.118994],[-8.219748,55.119018],[-8.219717,55.119036],[-8.219726,55.119083],[-8.219758,55.11915],[-8.219874,55.119278],[-8.219914,55.119338],[-8.219934,55.119376],[-8.219919,55.119417],[-8.219909,55.119481],[-8.219949,55.119537],[-8.219989,55.119577],[-8.220036,55.119605],[-8.220087,55.119612],[-8.22009,55.119612],[-8.220086,55.118804],[-8.220084,55.118535],[-8.219614,55.118536],[-8.219609,55.117727],[-8.22055,55.117725],[-8.220554,55.118534],[-8.220556,55.118804],[-8.221026,55.118803],[-8.221031,55.119611],[-8.221501,55.11961],[-8.221505,55.120419],[-8.221976,55.120418],[-8.221979,55.120957],[-8.222449,55.120956],[-8.22245,55.121226],[-8.222921,55.121225],[-8.222925,55.122034],[-8.223395,55.122033],[-8.223398,55.122572],[-8.223405,55.12365],[-8.222934,55.123651],[-8.222928,55.122573],[-8.222493,55.122573],[-8.222503,55.122587],[-8.222511,55.122622],[-8.222524,55.122712],[-8.222537,55.122763],[-8.222541,55.122798],[-8.222509,55.122815],[-8.222476,55.122824],[-8.222468,55.122857],[-8.222485,55.122882],[-8.222469,55.122912],[-8.222437,55.122938],[-8.222441,55.122957],[-8.222482,55.122982],[-8.222492,55.123005],[-8.222502,55.123029],[-8.222539,55.123059],[-8.222596,55.12307],[-8.222637,55.123091],[-8.22267,55.123126],[-8.222698,55.123156],[-8.222698,55.12317],[-8.222646,55.123193],[-8.222605,55.123205],[-8.222597,55.123228],[-8.222622,55.123312],[-8.222667,55.123375],[-8.222716,55.123396],[-8.222761,55.12344],[-8.222782,55.123474],[-8.222782,55.123488],[-8.222754,55.1235],[-8.222677,55.12351],[-8.222656,55.123514],[-8.222644,55.12354],[-8.222665,55.123572],[-8.222735,55.123633],[-8.222747,55.123679],[-8.222756,55.123751],[-8.222748,55.123821],[-8.222732,55.123861],[-8.222708,55.12391],[-8.222709,55.123961],[-8.222734,55.12404],[-8.222758,55.124068],[-8.222787,55.124123],[-8.222788,55.124161],[-8.222764,55.124203],[-8.222772,55.124244],[-8.222825,55.124286],[-8.222862,55.124337],[-8.222895,55.124384],[-8.222899,55.124437],[-8.222879,55.124486],[-8.222872,55.124528],[-8.222876,55.124574],[-8.222905,55.124611],[-8.222941,55.124618],[-8.223084,55.124627],[-8.223136,55.124639],[-8.223218,55.124671],[-8.223242,55.124704],[-8.223255,55.124731],[-8.223243,55.124762],[-8.223211,55.124801],[-8.223195,55.124867],[-8.223212,55.124992],[-8.223217,55.125099],[-8.223234,55.125178],[-8.223271,55.125229],[-8.223312,55.125313],[-8.223346,55.125399],[-8.223391,55.125461],[-8.223419,55.125503],[-8.223432,55.125571],[-8.223441,55.125675],[-8.223474,55.125757],[-8.223528,55.125854],[-8.223549,55.125919],[-8.223554,55.126031],[-8.223558,55.126119],[-8.223543,55.126224],[-8.223544,55.126289],[-8.223503,55.126347],[-8.223488,55.126403],[-8.223533,55.126459],[-8.223594,55.126535],[-8.22361,55.126566],[-8.22394,55.126525],[-8.224233,55.126511],[-8.224292,55.126632],[-8.224989,55.126925],[-8.226272,55.127344],[-8.227738,55.127802],[-8.228159,55.127919],[-8.22848,55.127878],[-8.22938,55.127782],[-8.229495,55.127769],[-8.230159,55.127695],[-8.230463,55.127659],[-8.230889,55.127618],[-8.231122,55.127596],[-8.231139,55.127595],[-8.23142,55.127574],[-8.231705,55.12755],[-8.231768,55.127548]],[[-8.232305,55.117434],[-8.232775,55.117433],[-8.232778,55.117972],[-8.233248,55.117971],[-8.23325,55.118241],[-8.232309,55.118243],[-8.232308,55.117973],[-8.231838,55.117974],[-8.231834,55.117435],[-8.231833,55.117165],[-8.232303,55.117165],[-8.232305,55.117434]],[[-8.222411,55.114218],[-8.221941,55.114219],[-8.22194,55.11395],[-8.22241,55.113949],[-8.222411,55.114218]],[[-8.228999,55.115015],[-8.229001,55.115284],[-8.229471,55.115283],[-8.229472,55.115553],[-8.229474,55.115822],[-8.229004,55.115823],[-8.229002,55.115554],[-8.228532,55.115555],[-8.22853,55.115285],[-8.22806,55.115286],[-8.228059,55.115016],[-8.228057,55.114747],[-8.228527,55.114746],[-8.228529,55.115016],[-8.228999,55.115015]],[[-8.220979,55.110178],[-8.221449,55.110177],[-8.221453,55.110986],[-8.220983,55.110986],[-8.220984,55.111256],[-8.220514,55.111257],[-8.220513,55.110987],[-8.220508,55.110179],[-8.220038,55.11018],[-8.220026,55.108023],[-8.220967,55.108022],[-8.220979,55.110178]],[[-8.219577,55.111798],[-8.219107,55.111798],[-8.219104,55.111259],[-8.219574,55.111259],[-8.219577,55.111798]],[[-8.220519,55.112065],[-8.220049,55.112066],[-8.220047,55.111797],[-8.220517,55.111796],[-8.220519,55.112065]],[[-8.221937,55.113411],[-8.221938,55.11368],[-8.221468,55.113681],[-8.221467,55.113411],[-8.221937,55.113411]]],[[[-8.222429,55.122499],[-8.222458,55.122529],[-8.222455,55.122034],[-8.222069,55.122035],[-8.222117,55.122095],[-8.222138,55.122116],[-8.222146,55.122139],[-8.222142,55.122174],[-8.222159,55.12223],[-8.222188,55.122267],[-8.222257,55.122318],[-8.222302,55.122341],[-8.222323,55.122378],[-8.222339,55.122434],[-8.222429,55.122499]]],[[[-8.221946,55.121937],[-8.221984,55.121946],[-8.221984,55.12185],[-8.221957,55.121888],[-8.221941,55.121911],[-8.221933,55.121925],[-8.221946,55.121937]]],[[[-8.22196,55.121707],[-8.221983,55.121775],[-8.22198,55.121227],[-8.221563,55.121228],[-8.221571,55.121236],[-8.221669,55.121326],[-8.221742,55.121363],[-8.221758,55.121384],[-8.221795,55.121433],[-8.221812,55.121489],[-8.221812,55.121514],[-8.2218,55.12154],[-8.22176,55.121558],[-8.221764,55.121596],[-8.221777,55.121633],[-8.221801,55.121654],[-8.221813,55.121668],[-8.22183,55.121663],[-8.221882,55.121651],[-8.221907,55.121646],[-8.221935,55.121646],[-8.22196,55.121707]]],[[[-8.22144,55.121099],[-8.221509,55.121172],[-8.221508,55.120958],[-8.221079,55.120959],[-8.221175,55.121039],[-8.2212,55.121058],[-8.22122,55.121067],[-8.221293,55.121067],[-8.221354,55.121064],[-8.221374,55.121064],[-8.22144,55.121099]]],[[[-8.220992,55.120937],[-8.221038,55.120937],[-8.221035,55.12042],[-8.220639,55.120421],[-8.220651,55.120452],[-8.220656,55.120503],[-8.220644,55.120554],[-8.220608,55.120587],[-8.220596,55.120629],[-8.220575,55.120638],[-8.220608,55.120675],[-8.220645,55.120692],[-8.220665,55.120689],[-8.220722,55.120649],[-8.220734,55.120645],[-8.220783,55.120652],[-8.220836,55.120679],[-8.22088,55.12071],[-8.220909,55.120749],[-8.220901,55.120779],[-8.220877,55.120837],[-8.220849,55.120884],[-8.220858,55.120912],[-8.220866,55.120926],[-8.220935,55.120935],[-8.220992,55.120937]]],[[[-8.22056,55.12018],[-8.220563,55.120189],[-8.220563,55.12011],[-8.220551,55.120148],[-8.22056,55.12018]]],[[[-8.220542,55.119961],[-8.220562,55.119969],[-8.22056,55.119612],[-8.220094,55.119613],[-8.220141,55.119622],[-8.220164,55.119631],[-8.220202,55.119655],[-8.220255,55.119672],[-8.220288,55.119685],[-8.220324,55.119706],[-8.220333,55.119746],[-8.220317,55.119832],[-8.220338,55.119864],[-8.220371,55.119901],[-8.220407,55.119932],[-8.22046,55.119955],[-8.220542,55.119961]]],[[[-8.235571,55.119637],[-8.23552,55.119584],[-8.235139,55.119585],[-8.235142,55.120124],[-8.235144,55.120393],[-8.234673,55.120394],[-8.234676,55.120933],[-8.235147,55.120933],[-8.23515,55.121472],[-8.235587,55.121471],[-8.235586,55.12147],[-8.235545,55.121437],[-8.235533,55.121409],[-8.235516,55.121356],[-8.235475,55.121309],[-8.23543,55.121272],[-8.235349,55.121256],[-8.235275,55.121182],[-8.235271,55.121136],[-8.235327,55.121063],[-8.235363,55.12097],[-8.235362,55.120912],[-8.235338,55.12087],[-8.235285,55.120822],[-8.235207,55.120761],[-8.235146,55.120699],[-8.235145,55.120698],[-8.235113,55.120645],[-8.235124,55.120589],[-8.235144,55.120557],[-8.235144,55.120557],[-8.235294,55.120475],[-8.235366,55.120424],[-8.235467,55.120368],[-8.235588,55.120225],[-8.235664,55.120134],[-8.235676,55.120051],[-8.235634,55.119927],[-8.235626,55.119854],[-8.235611,55.119854],[-8.23561,55.119701],[-8.235571,55.119637]]],[[[-8.235631,55.121525],[-8.23562,55.121508],[-8.235621,55.121538],[-8.235631,55.121525]]],[[[-8.235687,55.121883],[-8.235622,55.121849],[-8.235625,55.122279],[-8.236095,55.122278],[-8.236099,55.122874],[-8.23619,55.122838],[-8.236502,55.122737],[-8.236737,55.122674],[-8.236883,55.122668],[-8.237018,55.122629],[-8.237029,55.122626],[-8.237081,55.122575],[-8.237162,55.122505],[-8.237186,55.122474],[-8.237149,55.122414],[-8.23712,55.122365],[-8.237026,55.122259],[-8.236985,55.122201],[-8.236944,55.122185],[-8.236899,55.122175],[-8.236838,55.122162],[-8.236777,55.122136],[-8.236736,55.122106],[-8.236703,55.122062],[-8.236593,55.121972],[-8.236564,55.121948],[-8.236475,55.121949],[-8.236426,55.121946],[-8.236398,55.121926],[-8.236304,55.121886],[-8.236207,55.12187],[-8.236085,55.12188],[-8.235972,55.121906],[-8.235866,55.121943],[-8.235777,55.121925],[-8.235687,55.121883]]],[[[-8.235738,55.123107],[-8.235751,55.123088],[-8.23563,55.123088],[-8.235634,55.123896],[-8.235949,55.123896],[-8.235902,55.123815],[-8.2358,55.123723],[-8.235726,55.123628],[-8.235702,55.123574],[-8.2357,55.123432],[-8.235702,55.123204],[-8.235738,55.123107]]],[[[-8.235876,55.124476],[-8.235897,55.124435],[-8.235638,55.124435],[-8.235639,55.124661],[-8.235662,55.124653],[-8.235755,55.12459],[-8.235823,55.124546],[-8.235876,55.124476]]],[[[-8.235171,55.124991],[-8.235181,55.124975],[-8.23517,55.124975],[-8.235171,55.124991],[-8.235171,55.124991]]],[[[-8.235183,55.125073],[-8.235171,55.125059],[-8.235172,55.125245],[-8.234702,55.125246],[-8.234703,55.125515],[-8.234706,55.125973],[-8.234824,55.125926],[-8.235019,55.125865],[-8.235075,55.125844],[-8.235083,55.125834],[-8.235086,55.125813],[-8.235087,55.125806],[-8.235058,55.12576],[-8.235021,55.125662],[-8.235029,55.125597],[-8.235101,55.12552],[-8.235137,55.125488],[-8.235173,55.125454],[-8.235191,55.125438],[-8.235206,55.125425],[-8.235226,55.125392],[-8.23523,55.125357],[-8.235221,55.125304],[-8.235192,55.125234],[-8.235175,55.125127],[-8.235183,55.125073]]]]}}]}
