{"type":"FeatureCollection","features":[{"type":"Feature","properties":{"source_fid":2521681,"county":"Donegal","bog_geom_ha":134.89231631294442,"low15_pct":100.0,"low15_ha":134.89231631294442,"overlay_ha":134.89231631294442,"area_delta":0.0},"geometry":{"type":"MultiPolygon","coordinates":[[[[-8.392252,54.77749],[-8.392119,54.77737],[-8.392119,54.77737],[-8.390583,54.777693],[-8.390076,54.778105],[-8.390044,54.778131],[-8.389361,54.778685],[-8.389139,54.778865],[-8.389083,54.7789],[-8.38903,54.77893],[-8.388969,54.778954],[-8.388836,54.778997],[-8.388688,54.779068],[-8.388543,54.779165],[-8.388412,54.779304],[-8.38818,54.779614],[-8.388135,54.779675],[-8.38808,54.779748],[-8.38798,54.779882],[-8.387881,54.780058],[-8.387858,54.78009],[-8.387813,54.780144],[-8.387785,54.780173],[-8.38775,54.7802],[-8.387678,54.78025],[-8.387594,54.78033],[-8.387587,54.780336],[-8.387473,54.780438],[-8.38746,54.780449],[-8.387429,54.780475],[-8.387425,54.78048],[-8.3874,54.780541],[-8.387388,54.780566],[-8.387356,54.780609],[-8.387303,54.780663],[-8.387297,54.78067],[-8.387259,54.780703],[-8.387238,54.780717],[-8.387188,54.78075],[-8.387116,54.780797],[-8.387093,54.78081],[-8.387152,54.780863],[-8.387166,54.780976],[-8.387216,54.781097],[-8.387229,54.781168],[-8.387538,54.781634],[-8.38764,54.781839],[-8.387855,54.782192],[-8.387948,54.782337],[-8.387957,54.782418],[-8.388066,54.782589],[-8.388153,54.782739],[-8.388213,54.782823],[-8.388253,54.782878],[-8.388324,54.782978],[-8.388428,54.783143],[-8.388599,54.783362],[-8.388642,54.783424],[-8.388695,54.783499],[-8.388834,54.783642],[-8.389116,54.783895],[-8.389474,54.784231],[-8.389698,54.784404],[-8.389727,54.784426],[-8.389977,54.78465],[-8.390274,54.784746],[-8.390937,54.78501],[-8.391455,54.785259],[-8.391803,54.785375],[-8.391984,54.78547],[-8.392389,54.785657],[-8.393154,54.786072],[-8.39335,54.78618],[-8.393638,54.786435],[-8.39379,54.786596],[-8.393901,54.786674],[-8.394012,54.786733],[-8.394445,54.786869],[-8.394885,54.78711],[-8.395132,54.787226],[-8.395217,54.787328],[-8.395517,54.787544],[-8.39577,54.787743],[-8.396382,54.787937],[-8.39665,54.788059],[-8.396758,54.788098],[-8.396813,54.788123],[-8.396903,54.788162],[-8.39697,54.788191],[-8.397056,54.788224],[-8.397119,54.788239],[-8.397232,54.788269],[-8.397287,54.78828],[-8.397403,54.788316],[-8.397832,54.788492],[-8.397902,54.788522],[-8.398165,54.788634],[-8.398373,54.788726],[-8.398454,54.788759],[-8.398643,54.788834],[-8.399028,54.788994],[-8.399252,54.789114],[-8.399465,54.789242],[-8.399756,54.789399],[-8.399816,54.789423],[-8.399921,54.789467],[-8.40005,54.789519],[-8.400152,54.789548],[-8.4002,54.789555],[-8.400244,54.789562],[-8.400378,54.789582],[-8.400537,54.789607],[-8.400847,54.789691],[-8.401,54.789731],[-8.401237,54.789794],[-8.401311,54.789815],[-8.401313,54.789798],[-8.401298,54.789747],[-8.401277,54.789677],[-8.401224,54.789588],[-8.40118,54.789523],[-8.401143,54.789474],[-8.401143,54.789452],[-8.401174,54.789438],[-8.401215,54.789422],[-8.401327,54.789378],[-8.401489,54.789314],[-8.401545,54.78926],[-8.401568,54.789219],[-8.401578,54.789152],[-8.401616,54.789132],[-8.401639,54.78912],[-8.401744,54.789119],[-8.401958,54.78916],[-8.402221,54.789221],[-8.40247,54.78931],[-8.402681,54.789338],[-8.402976,54.789344],[-8.403298,54.789335],[-8.403425,54.789325],[-8.403429,54.789321],[-8.403482,54.789273],[-8.403494,54.789261],[-8.40355,54.789194],[-8.403599,54.789137],[-8.403685,54.789017],[-8.403749,54.788923],[-8.403771,54.788866],[-8.403815,54.788774],[-8.403886,54.788666],[-8.403991,54.788537],[-8.404032,54.788476],[-8.404062,54.788406],[-8.404068,54.788344],[-8.404055,54.788283],[-8.404003,54.788228],[-8.403885,54.788157],[-8.403786,54.788102],[-8.403672,54.788024],[-8.403442,54.78786],[-8.403323,54.787762],[-8.403181,54.787637],[-8.403295,54.787574],[-8.40341,54.787506],[-8.403505,54.78744],[-8.403684,54.787311],[-8.403746,54.787286],[-8.40385,54.78726],[-8.403958,54.787246],[-8.404067,54.787236],[-8.404314,54.787211],[-8.404461,54.787185],[-8.404643,54.787146],[-8.404886,54.7871],[-8.405271,54.787021],[-8.406019,54.78691],[-8.406547,54.786869],[-8.406849,54.78688],[-8.406996,54.786932],[-8.407099,54.786982],[-8.407193,54.787028],[-8.407309,54.787069],[-8.407401,54.787037],[-8.407541,54.786994],[-8.407666,54.786988],[-8.407862,54.786955],[-8.408071,54.786947],[-8.408306,54.786904],[-8.408432,54.786801],[-8.408454,54.786736],[-8.408467,54.786694],[-8.408524,54.78665],[-8.408599,54.786631],[-8.408707,54.786629],[-8.40889,54.786631],[-8.409073,54.786629],[-8.409147,54.786618],[-8.409197,54.786574],[-8.409231,54.78651],[-8.409209,54.786473],[-8.409218,54.786431],[-8.409279,54.786366],[-8.409277,54.78632],[-8.409313,54.786272],[-8.409398,54.786181],[-8.409423,54.786102],[-8.409449,54.786069],[-8.409451,54.786066],[-8.40947,54.786043],[-8.409481,54.786028],[-8.409507,54.785995],[-8.409624,54.786009],[-8.410083,54.786065],[-8.41015,54.786093],[-8.410291,54.786102],[-8.410394,54.786142],[-8.410523,54.786215],[-8.410702,54.786246],[-8.410758,54.786261],[-8.410924,54.786302],[-8.411091,54.786349],[-8.411259,54.786388],[-8.411534,54.786432],[-8.41179,54.786465],[-8.412076,54.786484],[-8.412248,54.786477],[-8.412323,54.786457],[-8.412468,54.786393],[-8.412554,54.786306],[-8.412642,54.786211],[-8.41282,54.785971],[-8.412994,54.785727],[-8.413208,54.785426],[-8.413302,54.78526],[-8.413404,54.785241],[-8.414007,54.78515],[-8.414159,54.785133],[-8.41431,54.785066],[-8.414616,54.785035],[-8.415079,54.784992],[-8.414998,54.784729],[-8.414948,54.784523],[-8.414917,54.784426],[-8.414908,54.784344],[-8.41498,54.784297],[-8.415145,54.784219],[-8.415072,54.784205],[-8.41473,54.784076],[-8.414374,54.783951],[-8.414089,54.783864],[-8.413952,54.783806],[-8.413532,54.783624],[-8.413111,54.783417],[-8.412928,54.783223],[-8.412633,54.782939],[-8.412242,54.782516],[-8.412216,54.782557],[-8.412005,54.782464],[-8.411894,54.782416],[-8.411663,54.782326],[-8.411209,54.782148],[-8.41083,54.782071],[-8.410724,54.782057],[-8.410731,54.781896],[-8.410732,54.781873],[-8.410723,54.781597],[-8.410723,54.781583],[-8.410658,54.781599],[-8.410658,54.781599],[-8.410411,54.781625],[-8.410093,54.781597],[-8.409675,54.781598],[-8.409588,54.781592],[-8.408976,54.781551],[-8.40893,54.781548],[-8.408429,54.781524],[-8.40831,54.781506],[-8.408226,54.781514],[-8.408263,54.781386],[-8.408265,54.781242],[-8.408652,54.78126],[-8.408638,54.781189],[-8.408697,54.781123],[-8.408727,54.781057],[-8.408856,54.781058],[-8.408858,54.781044],[-8.408992,54.781045],[-8.409098,54.781046],[-8.409245,54.780831],[-8.409379,54.780762],[-8.40943,54.780581],[-8.408694,54.78049],[-8.408008,54.780404],[-8.407417,54.780324],[-8.406987,54.780282],[-8.406608,54.780246],[-8.405907,54.78016],[-8.404815,54.780028],[-8.40396,54.779929],[-8.40344,54.779862],[-8.402416,54.779738],[-8.401903,54.779671],[-8.400571,54.779508],[-8.400063,54.77943],[-8.400009,54.779421],[-8.399977,54.779416],[-8.399629,54.779363],[-8.398927,54.779228],[-8.398062,54.779069],[-8.396888,54.778853],[-8.39566,54.77863],[-8.394323,54.778383],[-8.393411,54.778196],[-8.39299,54.778107],[-8.392252,54.77749]]]]}}]}
