{"type":"FeatureCollection","features":[{"type":"Feature","properties":{"source_fid":2522211,"county":"Donegal","bog_geom_ha":246.88456165197979,"low15_pct":91.359825009114104,"low15_ha":225.55330349976717,"overlay_ha":225.4327306542317,"area_delta":-0.1205728455354631},"geometry":{"type":"MultiPolygon","coordinates":[[[[-8.560891,54.687958],[-8.561096,54.688141],[-8.561105,54.688186],[-8.561163,54.688265],[-8.561269,54.688378],[-8.561269,54.688378],[-8.561277,54.688364],[-8.561313,54.688349],[-8.561372,54.688346],[-8.561417,54.688337],[-8.561428,54.688326],[-8.561427,54.688298],[-8.561351,54.688224],[-8.561295,54.688176],[-8.561164,54.6881],[-8.561105,54.688055],[-8.561079,54.688012],[-8.561056,54.687984],[-8.561016,54.687965],[-8.560958,54.687957],[-8.560961,54.687949],[-8.561022,54.687958],[-8.561067,54.687979],[-8.561092,54.688009],[-8.561118,54.688051],[-8.561175,54.688093],[-8.561307,54.68817],[-8.561364,54.688219],[-8.561443,54.688296],[-8.561444,54.688329],[-8.561428,54.688345],[-8.561375,54.688355],[-8.561319,54.688358],[-8.561291,54.688369],[-8.561279,54.688388],[-8.561283,54.68841],[-8.561324,54.68843],[-8.561399,54.688471],[-8.561431,54.688488],[-8.56147,54.688508],[-8.561525,54.688535],[-8.56159,54.688582],[-8.561632,54.688614],[-8.561675,54.688623],[-8.561922,54.688678],[-8.562029,54.688701],[-8.562079,54.68872],[-8.562171,54.688761],[-8.562195,54.688772],[-8.562285,54.688797],[-8.562303,54.688813],[-8.562318,54.688825],[-8.562345,54.688845],[-8.5624,54.688885],[-8.562477,54.688906],[-8.562563,54.688946],[-8.562589,54.688957],[-8.562658,54.688971],[-8.56274,54.689022],[-8.562769,54.689057],[-8.562794,54.689087],[-8.562852,54.689143],[-8.562918,54.689187],[-8.562949,54.689201],[-8.563,54.689222],[-8.563054,54.689229],[-8.563089,54.689233],[-8.563125,54.689243],[-8.563195,54.689263],[-8.563221,54.689277],[-8.563265,54.6893],[-8.563314,54.689316],[-8.563334,54.689325],[-8.56349,54.689388],[-8.563618,54.689434],[-8.563637,54.689441],[-8.563662,54.68945],[-8.563759,54.689487],[-8.563825,54.689538],[-8.563839,54.689623],[-8.563835,54.689643],[-8.563833,54.68965],[-8.563834,54.68965],[-8.563853,54.689659],[-8.563932,54.689696],[-8.564238,54.689739],[-8.564503,54.68981],[-8.564564,54.689841],[-8.564564,54.68989],[-8.564473,54.689936],[-8.564327,54.690068],[-8.564273,54.690082],[-8.564204,54.690082],[-8.5641,54.690031],[-8.564057,54.690001],[-8.563987,54.689955],[-8.563915,54.689944],[-8.563843,54.689979],[-8.563837,54.689994],[-8.563837,54.689994],[-8.563833,54.690007],[-8.563831,54.690063],[-8.563851,54.690099],[-8.563933,54.690179],[-8.563988,54.690231],[-8.564018,54.690285],[-8.564019,54.690332],[-8.563986,54.69039],[-8.563899,54.690437],[-8.563784,54.690493],[-8.563678,54.690582],[-8.563628,54.690653],[-8.563618,54.690685],[-8.563645,54.69072],[-8.563674,54.690755],[-8.563725,54.690817],[-8.563735,54.690889],[-8.563748,54.690955],[-8.563789,54.690988],[-8.563865,54.691005],[-8.563973,54.691018],[-8.564069,54.691025],[-8.564139,54.691049],[-8.564212,54.691103],[-8.564224,54.691117],[-8.564224,54.691117],[-8.564342,54.691164],[-8.564465,54.691207],[-8.564539,54.691249],[-8.564657,54.691323],[-8.564657,54.691323],[-8.564675,54.691323],[-8.564738,54.691348],[-8.56481,54.691389],[-8.564858,54.691432],[-8.564936,54.691463],[-8.565025,54.691486],[-8.565105,54.691504],[-8.565192,54.69152],[-8.565309,54.691565],[-8.565415,54.691617],[-8.565448,54.691656],[-8.565446,54.691663],[-8.56549,54.691657],[-8.565564,54.691652],[-8.565636,54.691677],[-8.565671,54.691703],[-8.565723,54.691784],[-8.565723,54.691784],[-8.565727,54.691783],[-8.565867,54.691768],[-8.565991,54.691767],[-8.566124,54.69178],[-8.566204,54.691795],[-8.56623,54.691824],[-8.566225,54.691855],[-8.566195,54.691883],[-8.566132,54.691921],[-8.566082,54.69199],[-8.566067,54.692023],[-8.566068,54.692047],[-8.566082,54.692057],[-8.566112,54.692063],[-8.566183,54.692074],[-8.566262,54.692088],[-8.566345,54.692118],[-8.56647,54.692202],[-8.566555,54.69225],[-8.566636,54.692285],[-8.566793,54.692261],[-8.567088,54.692234],[-8.567088,54.692234],[-8.567116,54.692218],[-8.567177,54.692212],[-8.567326,54.692206],[-8.567442,54.692214],[-8.567513,54.692205],[-8.567632,54.692174],[-8.567701,54.692159],[-8.567752,54.692158],[-8.567801,54.692184],[-8.567816,54.692233],[-8.567796,54.692313],[-8.567762,54.692393],[-8.567747,54.692465],[-8.567716,54.692509],[-8.567713,54.692547],[-8.567732,54.692589],[-8.567763,54.692613],[-8.567791,54.692621],[-8.567839,54.692623],[-8.567921,54.692611],[-8.568022,54.692618],[-8.568126,54.692648],[-8.568227,54.692707],[-8.568263,54.69277],[-8.568264,54.692821],[-8.568228,54.692896],[-8.568164,54.692993],[-8.568084,54.693053],[-8.568038,54.693112],[-8.568038,54.693112],[-8.568038,54.693112],[-8.568097,54.693172],[-8.568097,54.693172],[-8.568169,54.693174],[-8.568332,54.69317],[-8.568424,54.693175],[-8.568567,54.693229],[-8.56861,54.693266],[-8.568616,54.693316],[-8.568593,54.693357],[-8.568558,54.693376],[-8.568554,54.693392],[-8.56855,54.693413],[-8.56857,54.693489],[-8.568609,54.693604],[-8.568677,54.693672],[-8.568758,54.693736],[-8.568829,54.693788],[-8.568891,54.693865],[-8.568887,54.693905],[-8.56885,54.69393],[-8.568773,54.693943],[-8.568744,54.69396],[-8.568728,54.693984],[-8.568751,54.694038],[-8.568882,54.694187],[-8.56912,54.694361],[-8.569231,54.694454],[-8.569385,54.694548],[-8.569581,54.694635],[-8.569772,54.694743],[-8.56992,54.694838],[-8.570054,54.694921],[-8.570106,54.694999],[-8.570175,54.695149],[-8.570218,54.695217],[-8.57021,54.695261],[-8.570174,54.695312],[-8.570155,54.695348],[-8.570152,54.695389],[-8.570154,54.695391],[-8.570154,54.695391],[-8.570294,54.69535],[-8.570982,54.695191],[-8.572279,54.694933],[-8.574123,54.694561],[-8.574867,54.694416],[-8.576892,54.694008],[-8.576961,54.693994],[-8.577532,54.693894],[-8.578342,54.693714],[-8.579441,54.693485],[-8.579441,54.693485],[-8.579441,54.693485],[-8.579438,54.69348],[-8.579898,54.693382],[-8.581092,54.693128],[-8.582293,54.692897],[-8.582376,54.69288],[-8.582955,54.692767],[-8.583493,54.692661],[-8.583614,54.692636],[-8.583838,54.692585],[-8.583923,54.692567],[-8.583973,54.692557],[-8.584467,54.692412],[-8.584693,54.692358],[-8.584945,54.692297],[-8.585124,54.692236],[-8.585329,54.692136],[-8.58542,54.692109],[-8.585593,54.692102],[-8.585809,54.692072],[-8.585875,54.692052],[-8.58592,54.692041],[-8.586049,54.691986],[-8.586148,54.69191],[-8.586196,54.691854],[-8.586236,54.691841],[-8.586326,54.691839],[-8.586393,54.691821],[-8.586476,54.691819],[-8.586432,54.691794],[-8.586389,54.691779],[-8.586351,54.69178],[-8.586309,54.69179],[-8.586278,54.691791],[-8.58625,54.691776],[-8.58624,54.69176],[-8.586239,54.691746],[-8.586284,54.691686],[-8.586273,54.691647],[-8.586272,54.691634],[-8.586296,54.691588],[-8.586287,54.691572],[-8.586268,54.691566],[-8.586205,54.691557],[-8.586167,54.691534],[-8.586134,54.691525],[-8.586011,54.691511],[-8.585992,54.691492],[-8.585991,54.691485],[-8.586005,54.691461],[-8.586156,54.691387],[-8.586252,54.691329],[-8.586335,54.69128],[-8.586462,54.691232],[-8.58655,54.691171],[-8.586561,54.69114],[-8.58653,54.691097],[-8.586489,54.691063],[-8.58649,54.691019],[-8.586531,54.690923],[-8.586537,54.690907],[-8.586467,54.690748],[-8.586488,54.690706],[-8.586538,54.690682],[-8.586553,54.690641],[-8.586531,54.690609],[-8.586435,54.690555],[-8.586429,54.690513],[-8.586452,54.690487],[-8.586441,54.690467],[-8.586382,54.690457],[-8.586333,54.690436],[-8.586277,54.69042],[-8.58619,54.690371],[-8.586169,54.690361],[-8.586002,54.69032],[-8.585901,54.690292],[-8.585808,54.690277],[-8.585742,54.690256],[-8.585729,54.690234],[-8.585732,54.690183],[-8.585784,54.690167],[-8.58587,54.690168],[-8.585931,54.690179],[-8.585978,54.690162],[-8.585991,54.690132],[-8.585994,54.690105],[-8.585948,54.690071],[-8.585923,54.690058],[-8.585849,54.690019],[-8.585829,54.689983],[-8.585831,54.689947],[-8.585845,54.689896],[-8.585818,54.689878],[-8.585739,54.689859],[-8.585619,54.689816],[-8.585586,54.689803],[-8.585528,54.689764],[-8.585488,54.689702],[-8.58544,54.689649],[-8.585398,54.68962],[-8.585329,54.689608],[-8.585187,54.689622],[-8.584993,54.689625],[-8.584934,54.689604],[-8.584926,54.689586],[-8.584895,54.689567],[-8.584807,54.689556],[-8.584696,54.689579],[-8.584628,54.689573],[-8.584562,54.689515],[-8.584476,54.689464],[-8.584434,54.689447],[-8.584379,54.689426],[-8.58433,54.689412],[-8.584295,54.689411],[-8.584245,54.689433],[-8.584192,54.689435],[-8.584167,54.689426],[-8.584141,54.689387],[-8.584126,54.689337],[-8.584152,54.689325],[-8.584164,54.689299],[-8.584144,54.689252],[-8.584126,54.689228],[-8.584121,54.689212],[-8.584125,54.689154],[-8.584129,54.689143],[-8.584109,54.689124],[-8.584074,54.689114],[-8.584042,54.689119],[-8.58403,54.689154],[-8.583997,54.689169],[-8.583957,54.68917],[-8.583856,54.689108],[-8.583814,54.689058],[-8.583758,54.689032],[-8.583666,54.689],[-8.583596,54.688977],[-8.58352,54.688962],[-8.583381,54.688962],[-8.583341,54.688946],[-8.583328,54.688899],[-8.583335,54.688857],[-8.583386,54.688817],[-8.583448,54.688784],[-8.583515,54.688749],[-8.583573,54.68872],[-8.583665,54.688682],[-8.583719,54.688638],[-8.583754,54.68862],[-8.583842,54.688605],[-8.583889,54.68859],[-8.583888,54.688563],[-8.583876,54.688538],[-8.583837,54.68852],[-8.583773,54.688505],[-8.583733,54.688474],[-8.583727,54.68845],[-8.583797,54.688401],[-8.583861,54.688363],[-8.583862,54.688337],[-8.583864,54.688297],[-8.58391,54.688279],[-8.583958,54.688267],[-8.58402,54.68824],[-8.58408,54.688208],[-8.584109,54.688126],[-8.584164,54.688115],[-8.584231,54.688104],[-8.584356,54.688071],[-8.584417,54.688026],[-8.58441,54.687999],[-8.584371,54.687956],[-8.584313,54.687904],[-8.584306,54.687872],[-8.58435,54.68783],[-8.5844,54.687799],[-8.584412,54.687779],[-8.584427,54.68775],[-8.584485,54.687707],[-8.584544,54.687657],[-8.584683,54.687568],[-8.584724,54.687523],[-8.584772,54.687424],[-8.584802,54.687406],[-8.584845,54.687305],[-8.584886,54.687228],[-8.584904,54.687188],[-8.584905,54.687117],[-8.584952,54.687057],[-8.585029,54.686976],[-8.585084,54.686952],[-8.585091,54.68692],[-8.58509,54.686868],[-8.58511,54.686796],[-8.585138,54.686724],[-8.585172,54.686672],[-8.58522,54.686616],[-8.585244,54.686593],[-8.585287,54.686573],[-8.585338,54.686544],[-8.585365,54.68651],[-8.585346,54.686469],[-8.585316,54.686429],[-8.585272,54.686403],[-8.585211,54.686391],[-8.585166,54.686366],[-8.58516,54.686187],[-8.5851,54.686134],[-8.585083,54.686121],[-8.585074,54.686115],[-8.58502,54.686079],[-8.584911,54.685974],[-8.584882,54.685927],[-8.584871,54.685873],[-8.584845,54.68582],[-8.584805,54.685717],[-8.584724,54.685641],[-8.584691,54.685606],[-8.584638,54.685564],[-8.584643,54.685514],[-8.584651,54.685466],[-8.584621,54.685445],[-8.584524,54.685424],[-8.584443,54.685365],[-8.584407,54.685285],[-8.584396,54.685224],[-8.584391,54.685195],[-8.584409,54.685141],[-8.584533,54.685116],[-8.584576,54.68511],[-8.584614,54.685087],[-8.584639,54.685041],[-8.584644,54.68501],[-8.584659,54.684942],[-8.584629,54.684819],[-8.584589,54.684757],[-8.584505,54.684715],[-8.584458,54.684683],[-8.584392,54.684676],[-8.584331,54.684655],[-8.584324,54.684631],[-8.584323,54.684581],[-8.584345,54.684571],[-8.584341,54.684537],[-8.58431,54.684508],[-8.584188,54.684496],[-8.584133,54.684482],[-8.584094,54.684453],[-8.584026,54.684405],[-8.584029,54.684388],[-8.584022,54.684378],[-8.583905,54.684333],[-8.583901,54.684303],[-8.583901,54.684282],[-8.583871,54.684249],[-8.583842,54.684233],[-8.583692,54.684211],[-8.583583,54.684188],[-8.583537,54.684141],[-8.583554,54.684092],[-8.58354,54.684072],[-8.583499,54.684042],[-8.583502,54.684016],[-8.583511,54.683986],[-8.583489,54.683937],[-8.583465,54.683907],[-8.583447,54.683887],[-8.583374,54.68386],[-8.583263,54.683839],[-8.583221,54.683837],[-8.583181,54.683844],[-8.583084,54.683844],[-8.583022,54.683815],[-8.583006,54.683799],[-8.582898,54.683764],[-8.582844,54.683757],[-8.582768,54.68376],[-8.582733,54.683746],[-8.582696,54.683697],[-8.582644,54.68367],[-8.582525,54.683604],[-8.582328,54.683546],[-8.582264,54.68353],[-8.582184,54.683509],[-8.58209,54.683467],[-8.582052,54.683457],[-8.581946,54.683459],[-8.581885,54.683435],[-8.581862,54.683407],[-8.581693,54.683324],[-8.581336,54.683189],[-8.581264,54.6832],[-8.581222,54.683199],[-8.581156,54.683179],[-8.581112,54.683162],[-8.58109,54.683143],[-8.581051,54.683134],[-8.58102,54.683129],[-8.580957,54.683104],[-8.5809,54.683096],[-8.580853,54.683092],[-8.580827,54.683082],[-8.580794,54.683064],[-8.580728,54.683064],[-8.580648,54.683108],[-8.580599,54.683119],[-8.580364,54.683113],[-8.580294,54.683118],[-8.580168,54.683127],[-8.580056,54.683128],[-8.57986,54.683023],[-8.579769,54.68298],[-8.579717,54.682977],[-8.579615,54.682951],[-8.579524,54.682912],[-8.579493,54.682883],[-8.579486,54.682563],[-8.57944,54.682477],[-8.57946,54.682398],[-8.579463,54.682368],[-8.57947,54.682357],[-8.579533,54.682287],[-8.579597,54.682157],[-8.579673,54.681916],[-8.579693,54.681842],[-8.579746,54.681723],[-8.579828,54.681611],[-8.579833,54.681591],[-8.579805,54.681499],[-8.579759,54.681391],[-8.579746,54.681361],[-8.579612,54.68114],[-8.579439,54.680914],[-8.579314,54.680882],[-8.579226,54.680801],[-8.579185,54.680762],[-8.579099,54.680654],[-8.579027,54.680582],[-8.579039,54.680562],[-8.579148,54.680544],[-8.579149,54.680526],[-8.579149,54.680495],[-8.57919,54.680478],[-8.579244,54.680468],[-8.579269,54.680448],[-8.579248,54.680424],[-8.579232,54.680388],[-8.579235,54.680375],[-8.579314,54.680327],[-8.579326,54.680307],[-8.579327,54.680268],[-8.579358,54.68023],[-8.579458,54.680153],[-8.579472,54.680114],[-8.57946,54.680071],[-8.579473,54.680055],[-8.579492,54.680057],[-8.579541,54.680048],[-8.579609,54.679999],[-8.579616,54.679965],[-8.579585,54.679932],[-8.579575,54.679893],[-8.579645,54.679762],[-8.579723,54.679682],[-8.579727,54.679677],[-8.57973,54.679673],[-8.579761,54.679609],[-8.57978,54.679555],[-8.579828,54.679517],[-8.579876,54.679488],[-8.579888,54.679453],[-8.579883,54.679432],[-8.579866,54.679402],[-8.579874,54.679378],[-8.579873,54.679354],[-8.579877,54.679329],[-8.580153,54.679089],[-8.580392,54.678907],[-8.58072,54.678627],[-8.580994,54.678407],[-8.580988,54.677994],[-8.58098,54.677455],[-8.580976,54.677186],[-8.58078,54.677187],[-8.580779,54.677191],[-8.580776,54.677217],[-8.580793,54.677247],[-8.580817,54.677264],[-8.580837,54.677319],[-8.580848,54.677357],[-8.580836,54.677376],[-8.580828,54.6774],[-8.580821,54.677428],[-8.580789,54.677452],[-8.580741,54.677464],[-8.580676,54.677469],[-8.580611,54.677481],[-8.580583,54.677489],[-8.580538,54.677496],[-8.580506,54.677496],[-8.580449,54.67748],[-8.580428,54.677459],[-8.580407,54.677429],[-8.580378,54.67738],[-8.580381,54.677351],[-8.580373,54.677342],[-8.580312,54.677338],[-8.580263,54.677333],[-8.58017,54.67732],[-8.58008,54.677307],[-8.580027,54.677286],[-8.579945,54.677254],[-8.57986,54.677231],[-8.57977,54.67722],[-8.579701,54.67722],[-8.579649,54.677235],[-8.579597,54.67724],[-8.579541,54.677275],[-8.579497,54.677311],[-8.579432,54.677335],[-8.57936,54.677347],[-8.579315,54.677347],[-8.579152,54.677306],[-8.579026,54.677288],[-8.578916,54.677249],[-8.578867,54.677243],[-8.578806,54.677238],[-8.578745,54.677211],[-8.578671,54.677164],[-8.578621,54.67712],[-8.578616,54.677059],[-8.578639,54.677016],[-8.57863,54.676972],[-8.578625,54.676944],[-8.578661,54.67692],[-8.578726,54.67691],[-8.578855,54.676871],[-8.578983,54.676816],[-8.579051,54.676778],[-8.579071,54.676764],[-8.579067,54.676736],[-8.579029,54.67671],[-8.579009,54.676701],[-8.578948,54.676699],[-8.578888,54.676714],[-8.578827,54.676714],[-8.578733,54.676684],[-8.578655,54.676643],[-8.578602,54.676615],[-8.578589,54.676591],[-8.578568,54.676556],[-8.578543,54.676502],[-8.578518,54.676472],[-8.578452,54.676411],[-8.578378,54.676389],[-8.578309,54.676354],[-8.578231,54.676326],[-8.57812,54.676275],[-8.578039,54.676252],[-8.577933,54.676241],[-8.577897,54.676239],[-8.577836,54.676242],[-8.577779,54.67624],[-8.577726,54.676236],[-8.577689,54.676213],[-8.577616,54.676211],[-8.577588,54.676192],[-8.577555,54.676174],[-8.577534,54.676141],[-8.577513,54.676125],[-8.577509,54.676099],[-8.577512,54.676075],[-8.577503,54.676049],[-8.577486,54.676017],[-8.5771,54.676216],[-8.576442,54.676568],[-8.57609,54.676768],[-8.574993,54.677378],[-8.574935,54.677401],[-8.574862,54.677429],[-8.57486,54.67743],[-8.574776,54.677461],[-8.573984,54.677893],[-8.573547,54.678162],[-8.573549,54.678299],[-8.573557,54.678838],[-8.572301,54.678844],[-8.572162,54.678908],[-8.572165,54.679114],[-8.571733,54.679117],[-8.5717,54.679133],[-8.571704,54.679386],[-8.571239,54.679388],[-8.571238,54.679365],[-8.571165,54.679402],[-8.56983,54.680204],[-8.569855,54.680204],[-8.569858,54.680473],[-8.569862,54.680743],[-8.569397,54.680745],[-8.569401,54.681014],[-8.56942,54.682362],[-8.569423,54.682632],[-8.568958,54.682634],[-8.568954,54.682364],[-8.568489,54.682366],[-8.56847,54.681019],[-8.568936,54.681017],[-8.568932,54.680747],[-8.56893,54.680587],[-8.566817,54.680192],[-8.566809,54.680165],[-8.566766,54.680081],[-8.566687,54.679995],[-8.566571,54.679864],[-8.566447,54.679752],[-8.566339,54.679645],[-8.566223,54.679531],[-8.566049,54.679355],[-8.566012,54.679314],[-8.565912,54.679206],[-8.565846,54.679134],[-8.56573,54.67901],[-8.56568,54.678947],[-8.565672,54.678929],[-8.565667,54.678917],[-8.565677,54.678884],[-8.565688,54.678875],[-8.565452,54.678876],[-8.565411,54.678893],[-8.565209,54.678947],[-8.565198,54.678951],[-8.565183,54.678954],[-8.56473,54.679057],[-8.564407,54.67913],[-8.564011,54.679215],[-8.563741,54.679276],[-8.563703,54.679285],[-8.563447,54.679348],[-8.563374,54.679382],[-8.563357,54.679395],[-8.563263,54.679465],[-8.563164,54.679578],[-8.563066,54.679734],[-8.562913,54.679975],[-8.562904,54.67999],[-8.562811,54.68015],[-8.562804,54.680148],[-8.56185,54.679971],[-8.561478,54.679973],[-8.561482,54.680243],[-8.561016,54.680245],[-8.56102,54.680514],[-8.561028,54.681053],[-8.560562,54.681056],[-8.560566,54.681325],[-8.560101,54.681327],[-8.560105,54.681597],[-8.55964,54.681599],[-8.559643,54.681868],[-8.559178,54.681871],[-8.559182,54.68214],[-8.558717,54.682142],[-8.558724,54.682681],[-8.558314,54.682683],[-8.55826,54.682787],[-8.558266,54.683223],[-8.558022,54.683224],[-8.557935,54.683363],[-8.55781,54.683564],[-8.557703,54.683735],[-8.557614,54.683879],[-8.557507,54.68405],[-8.5574,54.684222],[-8.557298,54.684386],[-8.557248,54.684465],[-8.557197,54.684547],[-8.557084,54.684729],[-8.556957,54.684933],[-8.556937,54.684966],[-8.556863,54.685085],[-8.556834,54.685132],[-8.556761,54.68525],[-8.556651,54.685426],[-8.556644,54.685438],[-8.556535,54.685574],[-8.5565,54.685618],[-8.556829,54.685786],[-8.557015,54.685882],[-8.55702,54.685885],[-8.557211,54.685984],[-8.557623,54.686197],[-8.557751,54.686263],[-8.557755,54.686265],[-8.558164,54.686477],[-8.558285,54.686541],[-8.558655,54.686738],[-8.558694,54.686758],[-8.558839,54.686835],[-8.558945,54.686892],[-8.559134,54.68699],[-8.559705,54.687287],[-8.559895,54.687386],[-8.559903,54.68739],[-8.559936,54.687407],[-8.560384,54.687617],[-8.560391,54.68762],[-8.560553,54.687697],[-8.560562,54.687701],[-8.560665,54.687749],[-8.560699,54.6878],[-8.560712,54.687836],[-8.56072,54.687861],[-8.560753,54.687887],[-8.560807,54.687924],[-8.560884,54.687952],[-8.560891,54.687958]],[[-8.566105,54.679475],[-8.566114,54.679484],[-8.56611,54.679491],[-8.565845,54.67998],[-8.564077,54.679574],[-8.564068,54.679572],[-8.563407,54.67942],[-8.563423,54.679407],[-8.563564,54.679348],[-8.563851,54.679284],[-8.56397,54.679266],[-8.564035,54.679252],[-8.564043,54.67925],[-8.56421,54.679214],[-8.564488,54.679155],[-8.564734,54.679107],[-8.564759,54.679102],[-8.564785,54.679096],[-8.565005,54.679046],[-8.565428,54.67893],[-8.565529,54.678904],[-8.565569,54.678903],[-8.565598,54.678917],[-8.565619,54.678943],[-8.565619,54.678943],[-8.565735,54.679083],[-8.565794,54.679151],[-8.565897,54.679258],[-8.566001,54.679372],[-8.566105,54.679475]],[[-8.566494,54.679869],[-8.566598,54.679977],[-8.566668,54.680049],[-8.566714,54.680107],[-8.566739,54.680159],[-8.566747,54.680179],[-8.56614,54.680034],[-8.566274,54.679653],[-8.566277,54.679645],[-8.566287,54.679655],[-8.56639,54.679755],[-8.566494,54.679869]],[[-8.579146,54.679351],[-8.578216,54.679355],[-8.57822,54.679625],[-8.577755,54.679627],[-8.577758,54.679897],[-8.577293,54.679899],[-8.577301,54.680438],[-8.577766,54.680436],[-8.57777,54.680705],[-8.5787,54.680701],[-8.578704,54.68097],[-8.578708,54.68124],[-8.578243,54.681242],[-8.578247,54.681512],[-8.577781,54.681514],[-8.577785,54.681783],[-8.576855,54.681788],[-8.576859,54.682057],[-8.575928,54.682062],[-8.575932,54.682331],[-8.575467,54.682333],[-8.575463,54.682064],[-8.575459,54.681794],[-8.575456,54.681525],[-8.57499,54.681527],[-8.574987,54.681258],[-8.575452,54.681255],[-8.575448,54.680986],[-8.576378,54.680981],[-8.576374,54.680712],[-8.575909,54.680714],[-8.575905,54.680445],[-8.575898,54.679905],[-8.576828,54.679901],[-8.576824,54.679631],[-8.577289,54.679629],[-8.577286,54.67936],[-8.577751,54.679358],[-8.577747,54.679088],[-8.577739,54.678549],[-8.5796,54.67854],[-8.579608,54.679079],[-8.579142,54.679081],[-8.579146,54.679351]],[[-8.57827,54.683129],[-8.578266,54.682859],[-8.578731,54.682857],[-8.578727,54.682587],[-8.579192,54.682585],[-8.579196,54.682855],[-8.5792,54.683124],[-8.57827,54.683129]],[[-8.577347,54.683672],[-8.577343,54.683403],[-8.577808,54.683401],[-8.577812,54.68367],[-8.577347,54.683672]],[[-8.58068,54.689047],[-8.580215,54.68905],[-8.580211,54.68878],[-8.580207,54.688511],[-8.578812,54.688517],[-8.578804,54.687978],[-8.579734,54.687974],[-8.57973,54.687704],[-8.580196,54.687702],[-8.580192,54.687432],[-8.581122,54.687428],[-8.581119,54.687158],[-8.582514,54.687152],[-8.582518,54.687421],[-8.582053,54.687423],[-8.582057,54.687693],[-8.582061,54.687963],[-8.581595,54.687965],[-8.581603,54.688504],[-8.581138,54.688506],[-8.581142,54.688776],[-8.580676,54.688778],[-8.58068,54.689047]],[[-8.57975,54.689052],[-8.580215,54.68905],[-8.580219,54.689319],[-8.579754,54.689321],[-8.57975,54.689052]],[[-8.574964,54.67964],[-8.574499,54.679643],[-8.574495,54.679373],[-8.57496,54.679371],[-8.574964,54.67964]],[[-8.572657,54.680999],[-8.571727,54.681003],[-8.571723,54.680734],[-8.572188,54.680732],[-8.572184,54.680462],[-8.572649,54.68046],[-8.572653,54.680729],[-8.572657,54.680999]],[[-8.573145,54.682614],[-8.573149,54.682884],[-8.572218,54.682888],[-8.572214,54.682618],[-8.572211,54.682349],[-8.572676,54.682347],[-8.572668,54.681808],[-8.573599,54.681803],[-8.573606,54.682342],[-8.57361,54.682612],[-8.573145,54.682614]],[[-8.573618,54.683151],[-8.573614,54.682881],[-8.574079,54.682879],[-8.574075,54.68261],[-8.57454,54.682607],[-8.574544,54.682877],[-8.574548,54.683146],[-8.574083,54.683149],[-8.574087,54.683418],[-8.573621,54.68342],[-8.573625,54.68369],[-8.573629,54.683959],[-8.573164,54.683962],[-8.573168,54.684231],[-8.572237,54.684236],[-8.572233,54.683966],[-8.57223,54.683697],[-8.572695,54.683694],[-8.572691,54.683425],[-8.572687,54.683155],[-8.573618,54.683151]],[[-8.576443,54.685563],[-8.575978,54.685566],[-8.575974,54.685296],[-8.57597,54.685027],[-8.576436,54.685024],[-8.576432,54.684755],[-8.576897,54.684753],[-8.576901,54.685022],[-8.576905,54.685292],[-8.576439,54.685294],[-8.576443,54.685563]],[[-8.575513,54.685568],[-8.575978,54.685566],[-8.575982,54.685835],[-8.575517,54.685837],[-8.575513,54.685568]],[[-8.575051,54.68584],[-8.575517,54.685837],[-8.57552,54.686107],[-8.575055,54.686109],[-8.575051,54.68584]],[[-8.574125,54.686114],[-8.575055,54.686109],[-8.575059,54.686379],[-8.575063,54.686648],[-8.574598,54.68665],[-8.574601,54.68692],[-8.574136,54.686922],[-8.57414,54.687192],[-8.573209,54.687196],[-8.573213,54.687466],[-8.572748,54.687468],[-8.572752,54.687737],[-8.572287,54.68774],[-8.57229,54.688009],[-8.571825,54.688011],[-8.571829,54.688281],[-8.570898,54.688285],[-8.570895,54.688016],[-8.57136,54.688013],[-8.571356,54.687744],[-8.56996,54.687751],[-8.569957,54.687481],[-8.570422,54.687479],[-8.570418,54.687209],[-8.570883,54.687207],[-8.570879,54.686938],[-8.570414,54.68694],[-8.57041,54.68667],[-8.570407,54.686401],[-8.569941,54.686403],[-8.569938,54.686133],[-8.570868,54.686129],[-8.570872,54.686398],[-8.572268,54.686392],[-8.572271,54.686661],[-8.573202,54.686657],[-8.573198,54.686387],[-8.574129,54.686383],[-8.574125,54.686114]],[[-8.569896,54.683168],[-8.569431,54.683171],[-8.569427,54.682901],[-8.569892,54.682899],[-8.569896,54.683168]]],[[[-8.566254,54.678668],[-8.566112,54.678707],[-8.566113,54.67875],[-8.566174,54.678734],[-8.56646,54.678655],[-8.566646,54.678601],[-8.566521,54.678602],[-8.566467,54.678617],[-8.566254,54.678668]]],[[[-8.567177,54.678417],[-8.567039,54.678459],[-8.56704,54.678499],[-8.567105,54.678481],[-8.567319,54.678423],[-8.567496,54.678354],[-8.5676,54.678308],[-8.567724,54.678251],[-8.567841,54.678184],[-8.567891,54.678149],[-8.567825,54.678124],[-8.567779,54.678154],[-8.567703,54.678204],[-8.567575,54.678271],[-8.567502,54.678303],[-8.567502,54.678328],[-8.567438,54.678328],[-8.56733,54.678369],[-8.567177,54.678417]]],[[[-8.58049,54.676587],[-8.580503,54.676598],[-8.580499,54.676379],[-8.580492,54.67584],[-8.580957,54.675838],[-8.580949,54.675299],[-8.581414,54.675297],[-8.58141,54.675027],[-8.581407,54.674758],[-8.581872,54.674755],[-8.58187,54.674644],[-8.581649,54.674568],[-8.581345,54.674427],[-8.581205,54.674366],[-8.581067,54.67426],[-8.580945,54.67415],[-8.580846,54.67408],[-8.580538,54.674314],[-8.579722,54.674834],[-8.578857,54.675323],[-8.578697,54.675376],[-8.578774,54.675387],[-8.578798,54.67538],[-8.578851,54.675365],[-8.578911,54.675339],[-8.578975,54.675315],[-8.579032,54.675308],[-8.579084,54.675305],[-8.579129,54.675305],[-8.579174,54.675307],[-8.579246,54.67529],[-8.579287,54.675296],[-8.579332,54.675305],[-8.579352,54.675294],[-8.579424,54.675281],[-8.579497,54.675281],[-8.579558,54.675283],[-8.579587,54.675294],[-8.579587,54.675311],[-8.57962,54.67532],[-8.579705,54.675299],[-8.579733,54.675286],[-8.579842,54.675267],[-8.579894,54.675266],[-8.579915,54.675266],[-8.579947,54.675266],[-8.579963,54.675247],[-8.579999,54.67523],[-8.580043,54.675204],[-8.580079,54.675201],[-8.580124,54.675196],[-8.580173,54.675208],[-8.580197,54.675215],[-8.580234,54.675219],[-8.580291,54.675226],[-8.580315,54.675233],[-8.580348,54.675258],[-8.580357,54.675303],[-8.580378,54.675331],[-8.580395,54.675354],[-8.580432,54.675389],[-8.580453,54.675424],[-8.580423,54.675511],[-8.580427,54.67554],[-8.580431,54.675549],[-8.580436,54.675568],[-8.58046,54.675575],[-8.580465,54.675584],[-8.580436,54.675586],[-8.580416,54.675591],[-8.580396,54.675603],[-8.580341,54.675662],[-8.580321,54.675709],[-8.58027,54.675787],[-8.580239,54.675823],[-8.580208,54.675894],[-8.580212,54.675919],[-8.580224,54.675935],[-8.580237,54.675952],[-8.580227,54.676011],[-8.580209,54.676143],[-8.580198,54.676171],[-8.580199,54.676216],[-8.580216,54.676248],[-8.580198,54.676359],[-8.580223,54.676394],[-8.58026,54.676427],[-8.580301,54.676445],[-8.580334,54.676473],[-8.580413,54.676548],[-8.58049,54.676587]]],[[[-8.582919,54.675372],[-8.582836,54.67529],[-8.58281,54.67529],[-8.582817,54.675829],[-8.582352,54.675831],[-8.58236,54.67637],[-8.582825,54.676368],[-8.582829,54.676638],[-8.583294,54.676635],[-8.583295,54.676698],[-8.583317,54.676682],[-8.58364,54.676494],[-8.58397,54.676269],[-8.583867,54.676173],[-8.583807,54.676118],[-8.583649,54.675995],[-8.58343,54.675796],[-8.583086,54.675519],[-8.582919,54.675372]]],[[[-8.582739,54.677094],[-8.582834,54.677018],[-8.582833,54.676907],[-8.581902,54.676912],[-8.581906,54.677181],[-8.58191,54.677451],[-8.582288,54.677449],[-8.582739,54.677094]]],[[[-8.565137,54.691635],[-8.565251,54.691655],[-8.565317,54.691664],[-8.565414,54.691667],[-8.565414,54.691667],[-8.565414,54.691667],[-8.565414,54.691667],[-8.565416,54.691659],[-8.565391,54.691628],[-8.565291,54.691578],[-8.565179,54.691536],[-8.565095,54.69152],[-8.565013,54.691502],[-8.564922,54.691478],[-8.564864,54.691456],[-8.564945,54.691536],[-8.565057,54.691605],[-8.565137,54.691635]]],[[[-8.56587,54.691785],[-8.565734,54.6918],[-8.565734,54.6918],[-8.565734,54.6918],[-8.565734,54.6918],[-8.565928,54.692003],[-8.566041,54.692104],[-8.566091,54.692079],[-8.566064,54.692071],[-8.566038,54.692053],[-8.566037,54.692021],[-8.566053,54.691984],[-8.566106,54.691911],[-8.566171,54.691873],[-8.566196,54.691849],[-8.566199,54.691828],[-8.566183,54.69181],[-8.566116,54.691797],[-8.565989,54.691784],[-8.56587,54.691785]]],[[[-8.566067,54.692128],[-8.566173,54.692216],[-8.566264,54.692245],[-8.566423,54.692291],[-8.566572,54.692295],[-8.566572,54.692295],[-8.566572,54.692295],[-8.566572,54.692295],[-8.566521,54.692273],[-8.566432,54.692223],[-8.566311,54.692141],[-8.566241,54.692116],[-8.566166,54.692103],[-8.566137,54.692093],[-8.566067,54.692128],[-8.566067,54.692128],[-8.566067,54.692128]]],[[[-8.567472,54.692279],[-8.567471,54.692393],[-8.567472,54.69246],[-8.567472,54.692498],[-8.567544,54.692541],[-8.567669,54.692568],[-8.567661,54.69255],[-8.567664,54.692503],[-8.567696,54.692457],[-8.567711,54.692388],[-8.567745,54.692307],[-8.567763,54.692233],[-8.567753,54.692199],[-8.567735,54.692189],[-8.567711,54.692189],[-8.567652,54.692202],[-8.567529,54.692234],[-8.567452,54.692244],[-8.567452,54.692244],[-8.567452,54.692244],[-8.567472,54.692279]]],[[[-8.567871,54.692647],[-8.567945,54.692721],[-8.567933,54.692776],[-8.567877,54.692842],[-8.567916,54.692945],[-8.568014,54.693079],[-8.568045,54.693039],[-8.568124,54.69298],[-8.568185,54.692888],[-8.568219,54.692818],[-8.568218,54.692775],[-8.568187,54.692721],[-8.5681,54.692669],[-8.568009,54.692644],[-8.567924,54.692638],[-8.567871,54.692647]]],[[[-8.568331,54.693196],[-8.568169,54.6932],[-8.568123,54.693199],[-8.568123,54.693199],[-8.568123,54.693199],[-8.568206,54.693284],[-8.568278,54.693384],[-8.568278,54.693384],[-8.568331,54.693368],[-8.568405,54.693377],[-8.568509,54.693387],[-8.568516,54.693362],[-8.568554,54.693343],[-8.56857,54.693313],[-8.568566,54.693275],[-8.568535,54.693247],[-8.568409,54.6932],[-8.568331,54.693196]]],[[[-8.568566,54.693613],[-8.568527,54.693494],[-8.568506,54.693413],[-8.568397,54.693402],[-8.568338,54.693395],[-8.568294,54.693408],[-8.568693,54.693966],[-8.568706,54.693946],[-8.568749,54.69392],[-8.568825,54.693908],[-8.568844,54.693895],[-8.568846,54.69387],[-8.568792,54.693802],[-8.568723,54.693752],[-8.568639,54.693686],[-8.568566,54.693613]]]]}}]}
