{"type":"FeatureCollection","features":[{"type":"Feature","properties":{"source_fid":2523219,"county":"Sligo","bog_geom_ha":258.63204364118997,"low15_pct":88.361621059923806,"low15_ha":228.53146634176503,"overlay_ha":228.71296338214631,"area_delta":0.18149704038128789},"geometry":{"type":"MultiPolygon","coordinates":[[[[-8.889742,54.140492],[-8.889549,54.140601],[-8.88914,54.140807],[-8.888834,54.14097],[-8.888611,54.141108],[-8.889331,54.141103],[-8.88933,54.141027],[-8.889789,54.141023],[-8.889783,54.140754],[-8.889809,54.140754],[-8.889803,54.140484],[-8.889762,54.140484],[-8.889742,54.140492]]],[[[-8.906684,54.14277],[-8.906673,54.142245],[-8.905426,54.142255],[-8.90542,54.141985],[-8.90588,54.141982],[-8.905874,54.141712],[-8.906333,54.141709],[-8.906327,54.141439],[-8.906949,54.141434],[-8.906643,54.14089],[-8.906629,54.140863],[-8.906594,54.140855],[-8.906575,54.140846],[-8.90655,54.140833],[-8.906451,54.140792],[-8.906405,54.140763],[-8.906401,54.140761],[-8.906362,54.140756],[-8.906354,54.140755],[-8.90634,54.140758],[-8.90628,54.140769],[-8.906216,54.140768],[-8.906143,54.140754],[-8.906143,54.140754],[-8.906143,54.140754],[-8.906127,54.140744],[-8.906089,54.140722],[-8.906033,54.140717],[-8.905944,54.140742],[-8.905943,54.140742],[-8.905921,54.140737],[-8.905893,54.140731],[-8.905762,54.140689],[-8.905681,54.140671],[-8.905614,54.140656],[-8.905505,54.14063],[-8.905478,54.140639],[-8.905434,54.140653],[-8.905368,54.140668],[-8.905344,54.140673],[-8.905284,54.140681],[-8.90524,54.140687],[-8.905224,54.140689],[-8.905224,54.140689],[-8.904645,54.140763],[-8.904476,54.140696],[-8.904103,54.14071],[-8.903881,54.140652],[-8.903861,54.14066],[-8.90373,54.140706],[-8.903627,54.140738],[-8.903599,54.140756],[-8.903587,54.140793],[-8.903509,54.140856],[-8.90341,54.140888],[-8.903311,54.140897],[-8.903222,54.140903],[-8.903165,54.14094],[-8.903165,54.14094],[-8.903165,54.14094],[-8.90214,54.140754],[-8.901645,54.140682],[-8.900888,54.140575],[-8.899364,54.140913],[-8.899108,54.140954],[-8.901265,54.140938],[-8.901271,54.141207],[-8.901277,54.141477],[-8.901736,54.141474],[-8.901742,54.141743],[-8.900365,54.141753],[-8.900359,54.141484],[-8.899441,54.141491],[-8.899447,54.14176],[-8.899452,54.14203],[-8.899458,54.142299],[-8.899917,54.142296],[-8.899923,54.142565],[-8.899464,54.142569],[-8.899482,54.143377],[-8.899941,54.143374],[-8.899958,54.144183],[-8.899499,54.144186],[-8.899511,54.144725],[-8.898593,54.144732],[-8.898599,54.145002],[-8.898139,54.145005],[-8.898145,54.145275],[-8.897686,54.145278],[-8.897692,54.145547],[-8.897698,54.145817],[-8.897239,54.14582],[-8.897245,54.14609],[-8.896326,54.146097],[-8.89632,54.145827],[-8.895861,54.145831],[-8.895856,54.145561],[-8.895838,54.144753],[-8.895832,54.144483],[-8.893996,54.144497],[-8.89399,54.144227],[-8.893531,54.144231],[-8.893525,54.143961],[-8.893519,54.143691],[-8.892933,54.143696],[-8.892934,54.143771],[-8.892603,54.143774],[-8.892607,54.143968],[-8.891689,54.143975],[-8.891695,54.144244],[-8.891235,54.144248],[-8.891241,54.144517],[-8.890323,54.144524],[-8.890329,54.144793],[-8.889896,54.144797],[-8.889907,54.145336],[-8.89034,54.145332],[-8.890346,54.145602],[-8.889887,54.145605],[-8.889887,54.145591],[-8.888963,54.145598],[-8.889027,54.145863],[-8.889051,54.145964],[-8.88909,54.146097],[-8.889094,54.146112],[-8.889152,54.146306],[-8.889236,54.146602],[-8.889299,54.146821],[-8.889379,54.147105],[-8.889428,54.147303],[-8.889435,54.147333],[-8.889524,54.147655],[-8.889596,54.147901],[-8.889638,54.148121],[-8.88972,54.148461],[-8.889809,54.148774],[-8.889828,54.14884],[-8.889852,54.148955],[-8.889903,54.149189],[-8.889931,54.149315],[-8.889965,54.149468],[-8.890013,54.149628],[-8.890036,54.149705],[-8.89006,54.149786],[-8.890092,54.149884],[-8.890124,54.14998],[-8.890187,54.150211],[-8.890251,54.150401],[-8.890338,54.150696],[-8.890411,54.150979],[-8.890427,54.151038],[-8.890479,54.151272],[-8.890506,54.151387],[-8.890517,54.151436],[-8.890575,54.151677],[-8.890656,54.151966],[-8.890677,54.152045],[-8.890711,54.15217],[-8.890751,54.152317],[-8.89079,54.152464],[-8.890852,54.152724],[-8.89088,54.152838],[-8.890904,54.152939],[-8.890912,54.152973],[-8.890922,54.153013],[-8.890988,54.153269],[-8.891061,54.153584],[-8.891087,54.153682],[-8.891112,54.153779],[-8.891172,54.153947],[-8.891202,54.154031],[-8.89128,54.154347],[-8.891325,54.154471],[-8.891348,54.154534],[-8.891377,54.154613],[-8.8914,54.154713],[-8.891447,54.154911],[-8.891455,54.154941],[-8.891528,54.155201],[-8.891591,54.155457],[-8.891674,54.155772],[-8.891707,54.155897],[-8.89174,54.156023],[-8.891802,54.156246],[-8.891848,54.156437],[-8.89187,54.156532],[-8.891878,54.156565],[-8.891921,54.156766],[-8.891943,54.15697],[-8.891949,54.157029],[-8.891971,54.157174],[-8.891981,54.157255],[-8.891981,54.157255],[-8.892012,54.157348],[-8.892042,54.157439],[-8.89213,54.157818],[-8.89219,54.158149],[-8.892226,54.158335],[-8.892237,54.158386],[-8.892287,54.158608],[-8.892335,54.158821],[-8.892349,54.158881],[-8.892432,54.159242],[-8.892505,54.159534],[-8.892788,54.160859],[-8.893239,54.162973],[-8.893265,54.163052],[-8.893271,54.163069],[-8.89328,54.163093],[-8.893311,54.163179],[-8.893311,54.163179],[-8.893588,54.163055],[-8.893786,54.162967],[-8.893942,54.162969],[-8.893966,54.162956],[-8.894017,54.162942],[-8.894164,54.162939],[-8.894249,54.162939],[-8.894322,54.162929],[-8.894398,54.162897],[-8.894426,54.162857],[-8.894487,54.162819],[-8.894542,54.162811],[-8.894721,54.162794],[-8.894834,54.162755],[-8.894976,54.162712],[-8.895129,54.162672],[-8.895209,54.162649],[-8.895337,54.16265],[-8.895388,54.162623],[-8.895479,54.162586],[-8.895595,54.162564],[-8.895706,54.16247],[-8.895841,54.162435],[-8.895986,54.16239],[-8.896134,54.162406],[-8.896286,54.162444],[-8.8964,54.162531],[-8.896498,54.162601],[-8.89668,54.16276],[-8.896873,54.162812],[-8.897143,54.16285],[-8.897317,54.162879],[-8.897512,54.163001],[-8.897664,54.163067],[-8.897929,54.163211],[-8.898094,54.163259],[-8.8982,54.163273],[-8.898296,54.163284],[-8.898418,54.16329],[-8.898566,54.163302],[-8.898694,54.163298],[-8.898835,54.163252],[-8.898949,54.163239],[-8.899123,54.163259],[-8.899295,54.163257],[-8.899442,54.163206],[-8.89958,54.163166],[-8.899685,54.163148],[-8.899777,54.163139],[-8.899826,54.163143],[-8.899872,54.163175],[-8.900002,54.163207],[-8.900146,54.163204],[-8.900187,54.16321],[-8.900252,54.163225],[-8.900272,54.163236],[-8.900344,54.163289],[-8.900412,54.163339],[-8.900492,54.163409],[-8.900553,54.163458],[-8.900601,54.163485],[-8.900665,54.163506],[-8.900798,54.163524],[-8.900872,54.163547],[-8.900962,54.163584],[-8.901044,54.163612],[-8.901086,54.163659],[-8.901108,54.163674],[-8.901179,54.163703],[-8.901379,54.16374],[-8.901472,54.163749],[-8.901571,54.163764],[-8.90158,54.163792],[-8.90161,54.163813],[-8.901662,54.163825],[-8.901707,54.163835],[-8.901715,54.163854],[-8.901722,54.163867],[-8.901741,54.16388],[-8.90179,54.163892],[-8.901842,54.163906],[-8.901893,54.163896],[-8.901904,54.163894],[-8.90193,54.1639],[-8.901948,54.163908],[-8.901971,54.163934],[-8.90202,54.163948],[-8.902094,54.163959],[-8.902175,54.163986],[-8.902162,54.164008],[-8.902162,54.164025],[-8.902185,54.164042],[-8.90223,54.164056],[-8.902267,54.164073],[-8.902318,54.164072],[-8.902381,54.164086],[-8.902397,54.164113],[-8.902369,54.164142],[-8.90237,54.164162],[-8.902404,54.164194],[-8.902449,54.164212],[-8.902457,54.16423],[-8.902428,54.16425],[-8.902433,54.164282],[-8.902459,54.164306],[-8.9025,54.164313],[-8.902544,54.16431],[-8.902592,54.164311],[-8.90264,54.164321],[-8.902689,54.164351],[-8.902727,54.164372],[-8.902727,54.164393],[-8.90274,54.16443],[-8.902781,54.164438],[-8.902801,54.164492],[-8.902844,54.164563],[-8.90289,54.164609],[-8.902938,54.164628],[-8.903006,54.164655],[-8.903051,54.164693],[-8.903009,54.164746],[-8.903028,54.16477],[-8.903063,54.164804],[-8.903034,54.164837],[-8.903036,54.164867],[-8.903029,54.1649],[-8.903076,54.164969],[-8.903124,54.164983],[-8.903174,54.165021],[-8.903168,54.165056],[-8.903203,54.165109],[-8.903229,54.165131],[-8.903259,54.165147],[-8.903318,54.165144],[-8.903366,54.165154],[-8.903374,54.165169],[-8.903386,54.165188],[-8.90343,54.165202],[-8.903508,54.165205],[-8.903592,54.165205],[-8.903671,54.165238],[-8.903724,54.165289],[-8.903732,54.165307],[-8.90384,54.165348],[-8.903912,54.165387],[-8.903928,54.165418],[-8.903903,54.165438],[-8.903904,54.165466],[-8.903938,54.165498],[-8.903987,54.165523],[-8.904011,54.165548],[-8.904117,54.165543],[-8.904719,54.165384],[-8.905312,54.165338],[-8.90575,54.165074],[-8.906307,54.165044],[-8.906646,54.164851],[-8.907156,54.164812],[-8.907691,54.164665],[-8.908961,54.16467],[-8.909167,54.164682],[-8.909532,54.164507],[-8.909569,54.16451],[-8.909593,54.164484],[-8.909585,54.164468],[-8.909732,54.164464],[-8.909784,54.164353],[-8.909789,54.164354],[-8.910572,54.164405],[-8.910992,54.164712],[-8.911058,54.164712],[-8.911099,54.164712],[-8.911114,54.164716],[-8.911129,54.164743],[-8.911137,54.164765],[-8.911101,54.16479],[-8.911057,54.164871],[-8.911036,54.164909],[-8.911012,54.164951],[-8.911371,54.165117],[-8.911412,54.16514],[-8.911448,54.165198],[-8.91146,54.165226],[-8.91149,54.165249],[-8.911539,54.165267],[-8.911561,54.165267],[-8.911606,54.165309],[-8.911586,54.165347],[-8.911608,54.165353],[-8.911683,54.165393],[-8.911746,54.165404],[-8.911864,54.165404],[-8.911893,54.165405],[-8.912125,54.164893],[-8.911932,54.164448],[-8.909846,54.159624],[-8.901868,54.159929],[-8.900359,54.156017],[-8.907259,54.153399],[-8.909259,54.147078],[-8.908746,54.147082],[-8.90874,54.146813],[-8.909199,54.146809],[-8.909193,54.14654],[-8.90943,54.146538],[-8.909568,54.146103],[-8.909508,54.145998],[-8.909182,54.146],[-8.909176,54.145731],[-8.909358,54.14573],[-8.909057,54.145193],[-8.908705,54.145195],[-8.908711,54.145465],[-8.907792,54.145472],[-8.907804,54.146011],[-8.908263,54.146007],[-8.908269,54.146277],[-8.907351,54.146284],[-8.907357,54.146553],[-8.907363,54.146823],[-8.907375,54.147362],[-8.906915,54.147365],[-8.906921,54.147635],[-8.906003,54.147642],[-8.905997,54.147372],[-8.905538,54.147376],[-8.905544,54.147645],[-8.905085,54.147649],[-8.905091,54.147918],[-8.904632,54.147922],[-8.904637,54.148191],[-8.904643,54.148461],[-8.904184,54.148464],[-8.90419,54.148734],[-8.903272,54.148741],[-8.903278,54.14901],[-8.90223,54.149018],[-8.902231,54.149093],[-8.900701,54.149104],[-8.900717,54.149838],[-8.900999,54.149836],[-8.901005,54.150106],[-8.900546,54.150109],[-8.900544,54.150004],[-8.900085,54.150007],[-8.900087,54.150112],[-8.89825,54.150126],[-8.898256,54.150396],[-8.896879,54.150406],[-8.896884,54.150676],[-8.896425,54.150679],[-8.896419,54.150409],[-8.896414,54.15014],[-8.897332,54.150133],[-8.897326,54.149864],[-8.898244,54.149857],[-8.898239,54.149587],[-8.898698,54.149584],[-8.898692,54.149314],[-8.898686,54.149045],[-8.899604,54.149038],[-8.899599,54.148768],[-8.900058,54.148765],[-8.900052,54.148495],[-8.899593,54.148499],[-8.899587,54.148229],[-8.900682,54.148221],[-8.900682,54.148206],[-8.902212,54.148194],[-8.9022,54.14767],[-8.901871,54.147673],[-8.901877,54.147942],[-8.900958,54.147949],[-8.900953,54.14768],[-8.900947,54.14741],[-8.901406,54.147407],[-8.9014,54.147137],[-8.901859,54.147134],[-8.901853,54.146864],[-8.902772,54.146857],[-8.902777,54.147127],[-8.902781,54.147292],[-8.903722,54.147285],[-8.903703,54.146386],[-8.905233,54.146375],[-8.905237,54.146569],[-8.90598,54.146564],[-8.905974,54.146294],[-8.906433,54.146291],[-8.906427,54.146021],[-8.906886,54.146018],[-8.906874,54.145479],[-8.906868,54.145209],[-8.907327,54.145206],[-8.907322,54.144936],[-8.907781,54.144933],[-8.907775,54.144663],[-8.90502,54.144684],[-8.905014,54.144414],[-8.904555,54.144418],[-8.904549,54.144148],[-8.905927,54.144138],[-8.905932,54.144407],[-8.908228,54.14439],[-8.908216,54.143851],[-8.908213,54.143688],[-8.908196,54.143657],[-8.908003,54.143314],[-8.907745,54.143315],[-8.907751,54.143585],[-8.906374,54.143595],[-8.906368,54.143326],[-8.906827,54.143322],[-8.906821,54.143053],[-8.90728,54.143049],[-8.907274,54.14278],[-8.907274,54.142766],[-8.906684,54.14277]],[[-8.901459,54.149833],[-8.900999,54.149836],[-8.900994,54.149567],[-8.901453,54.149563],[-8.901459,54.149833]],[[-8.894542,54.147353],[-8.89458,54.14915],[-8.89305,54.149161],[-8.893012,54.147364],[-8.894542,54.147353]],[[-8.903644,54.143692],[-8.903664,54.14459],[-8.900604,54.144613],[-8.900584,54.143714],[-8.903644,54.143692]],[[-8.903778,54.150878],[-8.90227,54.150889],[-8.902251,54.149991],[-8.903781,54.149979],[-8.903795,54.150624],[-8.904231,54.150621],[-8.904237,54.15089],[-8.904696,54.150887],[-8.904702,54.151156],[-8.905161,54.151153],[-8.905167,54.151422],[-8.905173,54.151692],[-8.904714,54.151695],[-8.904708,54.151426],[-8.904249,54.151429],[-8.904243,54.15116],[-8.903784,54.151163],[-8.903778,54.150894],[-8.903778,54.150878]],[[-8.905562,54.148454],[-8.905556,54.148184],[-8.906015,54.148181],[-8.906021,54.148451],[-8.905562,54.148454]],[[-8.907027,54.152487],[-8.906568,54.15249],[-8.906562,54.152221],[-8.906103,54.152224],[-8.906097,54.151954],[-8.906091,54.151685],[-8.906551,54.151681],[-8.906556,54.151951],[-8.907016,54.151948],[-8.907022,54.152217],[-8.907027,54.152487]],[[-8.909047,54.160828],[-8.909053,54.161098],[-8.909512,54.161095],[-8.909518,54.161364],[-8.909524,54.161634],[-8.909065,54.161637],[-8.909059,54.161368],[-8.9086,54.161371],[-8.908594,54.161101],[-8.908135,54.161105],[-8.908129,54.160835],[-8.907669,54.160839],[-8.907664,54.160569],[-8.908582,54.160562],[-8.908588,54.160832],[-8.909047,54.160828]],[[-8.905832,54.160853],[-8.905826,54.160583],[-8.906286,54.16058],[-8.906292,54.160849],[-8.905832,54.160853]],[[-8.906309,54.161658],[-8.906315,54.161927],[-8.905397,54.161934],[-8.905402,54.162204],[-8.903565,54.162218],[-8.903559,54.161948],[-8.9031,54.161952],[-8.903094,54.161682],[-8.904013,54.161675],[-8.904019,54.161945],[-8.904478,54.161941],[-8.904472,54.161672],[-8.90585,54.161661],[-8.905844,54.161392],[-8.906763,54.161385],[-8.906769,54.161654],[-8.906309,54.161658]],[[-8.907287,54.164346],[-8.907293,54.164616],[-8.906374,54.164623],[-8.906368,54.164353],[-8.906827,54.16435],[-8.906822,54.16408],[-8.906362,54.164084],[-8.906356,54.163814],[-8.907275,54.163807],[-8.907281,54.164077],[-8.90774,54.164073],[-8.907746,54.164343],[-8.907287,54.164346]],[[-8.900394,54.143101],[-8.900388,54.142832],[-8.900847,54.142828],[-8.900853,54.143098],[-8.900394,54.143101]],[[-8.904114,54.14523],[-8.904108,54.14496],[-8.905026,54.144953],[-8.905032,54.145223],[-8.904114,54.14523]],[[-8.904125,54.145769],[-8.905044,54.145762],[-8.90505,54.146032],[-8.90459,54.146035],[-8.904596,54.146305],[-8.904137,54.146308],[-8.904131,54.146038],[-8.904125,54.145769]],[[-8.902301,54.146322],[-8.902295,54.146052],[-8.902754,54.146049],[-8.90276,54.146318],[-8.902301,54.146322]],[[-8.904673,54.149809],[-8.904667,54.149539],[-8.905126,54.149536],[-8.905132,54.149805],[-8.904673,54.149809]],[[-8.902152,54.160611],[-8.902146,54.160341],[-8.90214,54.160072],[-8.903518,54.160061],[-8.903524,54.160331],[-8.902606,54.160338],[-8.902611,54.160607],[-8.902152,54.160611]],[[-8.903153,54.164377],[-8.903147,54.164108],[-8.903606,54.164104],[-8.903612,54.164374],[-8.904072,54.16437],[-8.904083,54.16491],[-8.904089,54.165179],[-8.90363,54.165183],[-8.903624,54.164913],[-8.903165,54.164916],[-8.903153,54.164377]],[[-8.900499,54.147953],[-8.90004,54.147956],[-8.900034,54.147687],[-8.899575,54.14769],[-8.899569,54.147421],[-8.899563,54.147151],[-8.900023,54.147148],[-8.900028,54.147417],[-8.900488,54.147414],[-8.900493,54.147683],[-8.900499,54.147953]],[[-8.89088,54.149103],[-8.890886,54.149372],[-8.890427,54.149376],[-8.890421,54.149106],[-8.890416,54.148836],[-8.890875,54.148833],[-8.890869,54.148564],[-8.890863,54.148294],[-8.892241,54.148284],[-8.892246,54.148553],[-8.891787,54.148557],[-8.891793,54.148826],[-8.891334,54.14883],[-8.89134,54.149099],[-8.89088,54.149103]],[[-8.89367,54.150699],[-8.892752,54.150706],[-8.892746,54.150437],[-8.893205,54.150433],[-8.893199,54.150164],[-8.893659,54.15016],[-8.893653,54.149891],[-8.894112,54.149887],[-8.8941,54.149348],[-8.89456,54.149345],[-8.894571,54.149884],[-8.894577,54.150154],[-8.894118,54.150157],[-8.894124,54.150427],[-8.893664,54.15043],[-8.89367,54.150699]],[[-8.892293,54.15071],[-8.892752,54.150706],[-8.892758,54.150976],[-8.892299,54.150979],[-8.892293,54.15071]],[[-8.891839,54.150983],[-8.892299,54.150979],[-8.892304,54.151249],[-8.891845,54.151252],[-8.891839,54.150983]],[[-8.892316,54.151788],[-8.89231,54.151518],[-8.892769,54.151515],[-8.892775,54.151784],[-8.892316,54.151788]],[[-8.893252,54.15259],[-8.893246,54.15232],[-8.894164,54.152313],[-8.89417,54.152583],[-8.893711,54.152586],[-8.893717,54.152856],[-8.893257,54.152859],[-8.893252,54.15259]]],[[[-8.892904,54.142348],[-8.892915,54.142887],[-8.893961,54.142879],[-8.893967,54.143149],[-8.894451,54.143145],[-8.894445,54.142862],[-8.895797,54.142852],[-8.895792,54.142596],[-8.896251,54.142593],[-8.896245,54.142323],[-8.896704,54.14232],[-8.896698,54.14205],[-8.897157,54.142047],[-8.897151,54.141777],[-8.896692,54.141781],[-8.896686,54.141511],[-8.895946,54.141517],[-8.895955,54.141952],[-8.895319,54.141957],[-8.895321,54.142061],[-8.894862,54.142064],[-8.894859,54.14196],[-8.893941,54.141967],[-8.893944,54.142071],[-8.893025,54.142078],[-8.893031,54.142347],[-8.892904,54.142348]]],[[[-8.891366,54.141986],[-8.891646,54.141984],[-8.891642,54.141818],[-8.890265,54.141828],[-8.890259,54.141559],[-8.890718,54.141556],[-8.890713,54.141286],[-8.889821,54.141293],[-8.889855,54.142896],[-8.891385,54.142884],[-8.891366,54.141986]]],[[[-8.891327,54.14019],[-8.891333,54.140473],[-8.891613,54.140471],[-8.891619,54.14074],[-8.892078,54.140737],[-8.892084,54.141006],[-8.89209,54.141276],[-8.892096,54.141545],[-8.892886,54.141539],[-8.892876,54.141077],[-8.893463,54.141072],[-8.893461,54.140996],[-8.893455,54.140727],[-8.894374,54.14072],[-8.894368,54.14045],[-8.896204,54.140437],[-8.89621,54.140706],[-8.897128,54.140699],[-8.897134,54.140969],[-8.897464,54.140966],[-8.897461,54.140809],[-8.897453,54.140805],[-8.897453,54.140805],[-8.897084,54.140587],[-8.897038,54.140565],[-8.896538,54.140329],[-8.8959,54.140064],[-8.895698,54.13998],[-8.895165,54.139772],[-8.894986,54.139702],[-8.894587,54.139554],[-8.894124,54.139353],[-8.893977,54.139298],[-8.893848,54.13925],[-8.893478,54.139104],[-8.893058,54.139228],[-8.892703,54.139361],[-8.892703,54.139361],[-8.892559,54.139414],[-8.892054,54.139594],[-8.892055,54.139659],[-8.891866,54.13966],[-8.891598,54.139755],[-8.891602,54.139932],[-8.891145,54.139935],[-8.891143,54.139936],[-8.891148,54.140191],[-8.891327,54.14019]]],[[[-8.89861,54.141034],[-8.898055,54.141123],[-8.898058,54.141231],[-8.898976,54.141225],[-8.898972,54.141031],[-8.89861,54.141034]]],[[[-8.904158,54.147281],[-8.903722,54.147285],[-8.903725,54.147389],[-8.904161,54.147386],[-8.904158,54.147281]]],[[[-8.902801,54.14819],[-8.902212,54.148194],[-8.902218,54.148479],[-8.902348,54.148478],[-8.902342,54.148209],[-8.902801,54.148205],[-8.902801,54.14819]]],[[[-8.900701,54.149104],[-8.900699,54.14903],[-8.900523,54.149031],[-8.900517,54.148761],[-8.900058,54.148765],[-8.900064,54.149034],[-8.899604,54.149038],[-8.899606,54.149112],[-8.900701,54.149104]]],[[[-8.899181,54.14958],[-8.899175,54.149311],[-8.899151,54.149311],[-8.899157,54.14958],[-8.899181,54.14958]]],[[[-8.897505,54.142839],[-8.897499,54.142584],[-8.896251,54.142593],[-8.896256,54.142862],[-8.895975,54.142864],[-8.895994,54.143749],[-8.895816,54.14375],[-8.895821,54.143944],[-8.896739,54.143937],[-8.896745,54.144207],[-8.897204,54.144203],[-8.89721,54.144473],[-8.897213,54.144638],[-8.897544,54.144636],[-8.897558,54.145279],[-8.897686,54.145278],[-8.89768,54.145008],[-8.897674,54.144739],[-8.898593,54.144732],[-8.898581,54.144193],[-8.89904,54.14419],[-8.899023,54.143381],[-8.899011,54.142828],[-8.897505,54.142839]]],[[[-8.897233,54.145536],[-8.896773,54.14554],[-8.896774,54.145554],[-8.897233,54.145551],[-8.897233,54.145536]]],[[[-8.888245,54.142712],[-8.888309,54.142915],[-8.888332,54.143246],[-8.888291,54.141303],[-8.887799,54.141576],[-8.887824,54.141636],[-8.888066,54.142228],[-8.888212,54.142618],[-8.888237,54.142685],[-8.888245,54.142712]]],[[[-8.906898,54.146557],[-8.90598,54.146564],[-8.905985,54.146833],[-8.905526,54.146837],[-8.905532,54.147106],[-8.905991,54.147103],[-8.905997,54.147372],[-8.906456,54.147369],[-8.906445,54.14683],[-8.906904,54.146826],[-8.906898,54.146557]]]]}}]}
