{"type":"FeatureCollection","features":[{"type":"Feature","properties":{"source_fid":2526344,"county":"Mayo","bog_geom_ha":263.68926639360905,"low15_pct":94.823448748714441,"low15_ha":250.03925637460495,"overlay_ha":249.74118628388456,"area_delta":-0.29807009072038682},"geometry":{"type":"MultiPolygon","coordinates":[[[[-9.456349,54.214318],[-9.455745,54.21423],[-9.456613,54.214375],[-9.458482,54.214703],[-9.459289,54.214834],[-9.460186,54.214983],[-9.460915,54.214985],[-9.460295,54.214944],[-9.459876,54.214885],[-9.459571,54.214843],[-9.459029,54.214751],[-9.458113,54.214595],[-9.457333,54.214472],[-9.456508,54.214343],[-9.456407,54.214327],[-9.456349,54.214318]]],[[[-9.462359,54.214988],[-9.462557,54.215018],[-9.462551,54.214982],[-9.462019,54.214987],[-9.462359,54.214988]]],[[[-9.470808,54.224319],[-9.469958,54.224034],[-9.470104,54.224104],[-9.470636,54.224289],[-9.470805,54.224327],[-9.470808,54.224319]]],[[[-9.470562,54.224836],[-9.470625,54.224704],[-9.470605,54.224704],[-9.470536,54.224836],[-9.470562,54.224836]]],[[[-9.470384,54.225128],[-9.469493,54.226837],[-9.469128,54.227537],[-9.469306,54.227212],[-9.46975,54.226401],[-9.470326,54.225309],[-9.470387,54.225195],[-9.470384,54.225128]]],[[[-9.468736,54.228383],[-9.469008,54.227766],[-9.468889,54.227994],[-9.468736,54.228383]]],[[[-9.468415,54.229261],[-9.468543,54.228872],[-9.468477,54.22904],[-9.468155,54.23005],[-9.468415,54.229261]]],[[[-9.467485,54.231099],[-9.46689,54.231328],[-9.467502,54.231095],[-9.467485,54.231099]]],[[[-9.45081,54.214264],[-9.451122,54.213608],[-9.450961,54.213869],[-9.450449,54.215017],[-9.450082,54.215858],[-9.450128,54.215763],[-9.450593,54.214715],[-9.45081,54.214264]]],[[[-9.449897,54.216247],[-9.449831,54.216361],[-9.4498,54.216479],[-9.449897,54.216247]]],[[[-9.449714,54.216985],[-9.449756,54.216644],[-9.449717,54.216789],[-9.449669,54.217157],[-9.449714,54.216985]]],[[[-9.449296,54.21791],[-9.449378,54.217667],[-9.449415,54.217577],[-9.449355,54.217681],[-9.449341,54.217723],[-9.449301,54.217851],[-9.44924,54.218052],[-9.44919,54.21818],[-9.449195,54.218206],[-9.449307,54.218248],[-9.449298,54.218444],[-9.449399,54.218599],[-9.449401,54.218554],[-9.449412,54.218435],[-9.449446,54.21833],[-9.449406,54.218242],[-9.449237,54.218134],[-9.449296,54.21791]]],[[[-9.443618,54.233581],[-9.443903,54.233679],[-9.443903,54.233663],[-9.445436,54.233644],[-9.445437,54.23369],[-9.445571,54.23367],[-9.445662,54.233657],[-9.445776,54.23364],[-9.445836,54.233631],[-9.445831,54.233493],[-9.446291,54.233487],[-9.446282,54.233218],[-9.446954,54.23321],[-9.446937,54.232728],[-9.44847,54.232709],[-9.448489,54.233242],[-9.448514,54.233241],[-9.448846,54.233225],[-9.448948,54.23322],[-9.449414,54.233199],[-9.449616,54.233254],[-9.449696,54.233272],[-9.449796,54.23329],[-9.449812,54.23328],[-9.449935,54.233138],[-9.450026,54.232961],[-9.450097,54.232838],[-9.450206,54.232735],[-9.450361,54.232676],[-9.450673,54.232607],[-9.450859,54.232565],[-9.450917,54.232503],[-9.450906,54.232402],[-9.450888,54.232103],[-9.450936,54.23198],[-9.451063,54.23178],[-9.451085,54.231745],[-9.451112,54.231657],[-9.451094,54.231569],[-9.451016,54.231474],[-9.450728,54.23117],[-9.450572,54.231016],[-9.450653,54.230975],[-9.450998,54.230958],[-9.451207,54.230951],[-9.451289,54.230932],[-9.45131,54.230893],[-9.45127,54.230801],[-9.451184,54.23071],[-9.45094,54.230585],[-9.450787,54.230513],[-9.450801,54.230464],[-9.450967,54.2303],[-9.451209,54.23013],[-9.451317,54.230028],[-9.451342,54.229887],[-9.451349,54.229649],[-9.451324,54.229367],[-9.451318,54.229182],[-9.45135,54.229028],[-9.451583,54.228837],[-9.45205,54.228475],[-9.452055,54.228414],[-9.451757,54.228246],[-9.451755,54.22818],[-9.45191,54.228117],[-9.452051,54.228071],[-9.452064,54.228018],[-9.451911,54.227921],[-9.451907,54.227829],[-9.451956,54.22771],[-9.452079,54.227599],[-9.452271,54.2275],[-9.452366,54.227455],[-9.452349,54.227394],[-9.452249,54.22732],[-9.451982,54.227174],[-9.451851,54.227066],[-9.451649,54.226888],[-9.451119,54.226719],[-9.451034,54.226663],[-9.450914,54.22644],[-9.450858,54.226333],[-9.450725,54.226173],[-9.450564,54.226065],[-9.450401,54.225917],[-9.450322,54.225809],[-9.450272,54.225642],[-9.450181,54.225415],[-9.450141,54.225332],[-9.449901,54.225107],[-9.449784,54.224972],[-9.449689,54.224843],[-9.449545,54.224564],[-9.449193,54.22438],[-9.448904,54.224023],[-9.448714,54.223964],[-9.448442,54.22391],[-9.448224,54.223877],[-9.448035,54.223823],[-9.447942,54.223745],[-9.447808,54.223553],[-9.447736,54.223418],[-9.447585,54.22318],[-9.447512,54.22301],[-9.447152,54.222786],[-9.446601,54.222476],[-9.446463,54.222377],[-9.446346,54.222247],[-9.446341,54.222102],[-9.446327,54.221931],[-9.446367,54.221779],[-9.446687,54.221731],[-9.446857,54.221663],[-9.447049,54.221564],[-9.447412,54.22145],[-9.447559,54.221374],[-9.447799,54.221164],[-9.44822,54.220781],[-9.448238,54.220434],[-9.448375,54.220262],[-9.448581,54.219958],[-9.44868,54.21979],[-9.448875,54.219564],[-9.448977,54.219286],[-9.449084,54.219118],[-9.44931,54.218926],[-9.449387,54.218789],[-9.449398,54.218613],[-9.449334,54.218846],[-9.449157,54.219008],[-9.44897,54.219163],[-9.448954,54.219226],[-9.448904,54.219416],[-9.448874,54.219554],[-9.448594,54.219743],[-9.448491,54.220004],[-9.448299,54.220235],[-9.448185,54.220342],[-9.448152,54.220462],[-9.448194,54.220641],[-9.447971,54.220873],[-9.447695,54.221182],[-9.447475,54.221327],[-9.447184,54.221487],[-9.447095,54.221501],[-9.446936,54.221516],[-9.446729,54.221638],[-9.446507,54.221694],[-9.446451,54.221719],[-9.446301,54.221767],[-9.445837,54.222042],[-9.44583,54.222046],[-9.445695,54.222126],[-9.444866,54.222529],[-9.444206,54.22285],[-9.443999,54.222951],[-9.443725,54.223085],[-9.44329,54.223298],[-9.443255,54.223315],[-9.443206,54.223339],[-9.442111,54.223875],[-9.440668,54.224041],[-9.440139,54.224103],[-9.439112,54.224242],[-9.43818,54.224369],[-9.438123,54.224377],[-9.438068,54.224385],[-9.437867,54.224412],[-9.435937,54.224631],[-9.435208,54.224715],[-9.434475,54.224815],[-9.433896,54.224894],[-9.431607,54.225186],[-9.43026,54.225347],[-9.430198,54.225355],[-9.430154,54.22536],[-9.428712,54.225533],[-9.428253,54.225623],[-9.426961,54.225874],[-9.42573,54.226114],[-9.425041,54.226237],[-9.424573,54.22632],[-9.423704,54.226474],[-9.423319,54.226543],[-9.42274,54.226646],[-9.422292,54.226726],[-9.422179,54.22675],[-9.421914,54.226808],[-9.42177,54.226893],[-9.421712,54.226928],[-9.421608,54.227054],[-9.421453,54.227242],[-9.421244,54.227496],[-9.421121,54.227644],[-9.421043,54.227738],[-9.421017,54.227769],[-9.420838,54.227991],[-9.420708,54.22815],[-9.420673,54.228194],[-9.420473,54.228439],[-9.420382,54.228551],[-9.420289,54.228666],[-9.42025,54.228713],[-9.4201,54.228902],[-9.419931,54.229114],[-9.419722,54.229375],[-9.419554,54.229586],[-9.419506,54.229639],[-9.41926,54.229916],[-9.419062,54.230137],[-9.419035,54.230168],[-9.418794,54.230442],[-9.418538,54.230732],[-9.418286,54.231019],[-9.418235,54.231076],[-9.41807,54.231276],[-9.417829,54.231568],[-9.417567,54.231885],[-9.417299,54.232208],[-9.417277,54.232232],[-9.416955,54.232576],[-9.416786,54.232757],[-9.416659,54.232795],[-9.416442,54.232754],[-9.415674,54.232608],[-9.41532,54.232541],[-9.414992,54.232473],[-9.414445,54.23236],[-9.413903,54.232247],[-9.413648,54.232194],[-9.41335,54.232139],[-9.412871,54.23205],[-9.412347,54.231952],[-9.411819,54.231854],[-9.411549,54.231803],[-9.411302,54.231749],[-9.410881,54.231656],[-9.410501,54.231572],[-9.410315,54.231531],[-9.40989,54.23144],[-9.409448,54.231346],[-9.408985,54.231248],[-9.408678,54.231182],[-9.408652,54.231176],[-9.407985,54.231019],[-9.407395,54.23088],[-9.407181,54.230818],[-9.40649,54.230619],[-9.406507,54.230687],[-9.407346,54.232076],[-9.407689,54.233015],[-9.407742,54.233081],[-9.407787,54.233187],[-9.408097,54.233777],[-9.408369,54.234256],[-9.408567,54.234756],[-9.407973,54.23502],[-9.408147,54.235017],[-9.408156,54.235287],[-9.408166,54.235556],[-9.40716,54.235568],[-9.407171,54.235894],[-9.406142,54.235906],[-9.406171,54.235918],[-9.406353,54.235968],[-9.406498,54.235997],[-9.406825,54.236035],[-9.40712,54.236034],[-9.407352,54.236044],[-9.407757,54.2361],[-9.411864,54.236052],[-9.411855,54.235783],[-9.412315,54.235777],[-9.412306,54.235508],[-9.413226,54.235497],[-9.413217,54.235228],[-9.415057,54.235206],[-9.415048,54.234937],[-9.415968,54.234926],[-9.415958,54.234656],[-9.416418,54.234651],[-9.416409,54.234381],[-9.417329,54.234371],[-9.41732,54.234101],[-9.42146,54.234052],[-9.421451,54.233783],[-9.423291,54.233761],[-9.423282,54.233492],[-9.42547,54.233466],[-9.425468,54.233432],[-9.425259,54.233312],[-9.425011,54.233178],[-9.424915,54.233006],[-9.424875,54.232934],[-9.422343,54.232964],[-9.422334,54.232694],[-9.422794,54.232689],[-9.422785,54.232419],[-9.428304,54.232354],[-9.428314,54.232623],[-9.428774,54.232618],[-9.428781,54.232825],[-9.429101,54.232941],[-9.429984,54.23293],[-9.430164,54.232885],[-9.430163,54.232871],[-9.430154,54.232602],[-9.434294,54.232552],[-9.434303,54.232822],[-9.435683,54.232805],[-9.435674,54.232536],[-9.437054,54.232519],[-9.437063,54.232789],[-9.436143,54.2328],[-9.436145,54.232857],[-9.436799,54.232849],[-9.436902,54.232817],[-9.437069,54.232809],[-9.437295,54.232798],[-9.437513,54.23283],[-9.437579,54.23284],[-9.437739,54.232838],[-9.43774,54.232863],[-9.437925,54.23289],[-9.438104,54.232917],[-9.438372,54.232935],[-9.438691,54.232957],[-9.438772,54.232963],[-9.438792,54.232964],[-9.438979,54.232946],[-9.439164,54.232928],[-9.439276,54.232917],[-9.439272,54.23282],[-9.442338,54.232783],[-9.442349,54.23308],[-9.442371,54.23309],[-9.442521,54.233177],[-9.442622,54.233351],[-9.44263,54.233352],[-9.442752,54.233364],[-9.44295,54.233382],[-9.442975,54.233387],[-9.443004,54.233392],[-9.443257,54.233442],[-9.44328,54.233446],[-9.443314,54.233453],[-9.443596,54.233571],[-9.443618,54.233581]],[[-9.438772,54.228994],[-9.438312,54.229],[-9.438302,54.22873],[-9.438293,54.228461],[-9.438753,54.228455],[-9.438762,54.228725],[-9.439222,54.228719],[-9.439232,54.228989],[-9.439692,54.228983],[-9.439701,54.229253],[-9.43971,54.229522],[-9.43925,54.229528],[-9.439241,54.229258],[-9.438781,54.229264],[-9.438772,54.228994]],[[-9.419941,54.230026],[-9.419951,54.230296],[-9.419491,54.230301],[-9.419481,54.230032],[-9.419941,54.230026]],[[-9.419031,54.230307],[-9.419491,54.230301],[-9.4195,54.230571],[-9.41904,54.230576],[-9.419031,54.230307]],[[-9.418617,54.23166],[-9.418626,54.231929],[-9.418166,54.231934],[-9.418157,54.231665],[-9.418617,54.23166]],[[-9.417706,54.23194],[-9.418166,54.231934],[-9.418175,54.232204],[-9.417715,54.232209],[-9.417706,54.23194]],[[-9.417752,54.233287],[-9.417292,54.233293],[-9.417302,54.233562],[-9.417311,54.233832],[-9.416391,54.233843],[-9.4164,54.234112],[-9.41548,54.234123],[-9.415471,54.233853],[-9.415931,54.233848],[-9.415922,54.233578],[-9.416382,54.233573],[-9.416372,54.233304],[-9.416832,54.233298],[-9.416823,54.233029],[-9.417283,54.233023],[-9.417265,54.232484],[-9.417725,54.232479],[-9.417743,54.233018],[-9.417752,54.233287]],[[-9.41502,54.234128],[-9.41548,54.234123],[-9.415489,54.234392],[-9.415029,54.234398],[-9.41502,54.234128]],[[-9.414118,54.234678],[-9.414128,54.234947],[-9.412287,54.234969],[-9.412278,54.2347],[-9.414118,54.234678]],[[-9.411827,54.234974],[-9.412287,54.234969],[-9.412297,54.235239],[-9.411837,54.235244],[-9.411827,54.234974]],[[-9.411377,54.235249],[-9.411837,54.235244],[-9.411846,54.235513],[-9.411386,54.235519],[-9.411377,54.235249]],[[-9.410926,54.235524],[-9.411386,54.235519],[-9.411395,54.235788],[-9.410935,54.235794],[-9.410926,54.235524]]],[[[-9.446481,54.233494],[-9.446526,54.233485],[-9.446291,54.233487],[-9.446293,54.233536],[-9.446304,54.233533],[-9.446481,54.233494]]],[[[-9.425997,54.235095],[-9.425971,54.234873],[-9.425948,54.234624],[-9.425832,54.234359],[-9.425774,54.234212],[-9.42573,54.234098],[-9.425682,54.234003],[-9.42422,54.23402],[-9.424229,54.234289],[-9.422849,54.234306],[-9.422859,54.234575],[-9.421939,54.234586],[-9.421929,54.234316],[-9.421469,54.234322],[-9.421479,54.234591],[-9.418259,54.234629],[-9.418268,54.234899],[-9.417348,54.23491],[-9.417357,54.235179],[-9.416437,54.23519],[-9.416446,54.235459],[-9.414606,54.235481],[-9.414615,54.235751],[-9.413235,54.235767],[-9.413244,54.236036],[-9.412784,54.236042],[-9.412794,54.236311],[-9.411873,54.236322],[-9.411883,54.236591],[-9.409582,54.236618],[-9.409573,54.236349],[-9.407958,54.236368],[-9.407972,54.236385],[-9.408437,54.236698],[-9.409672,54.238097],[-9.410159,54.238557],[-9.410177,54.238581],[-9.410192,54.238602],[-9.410462,54.238967],[-9.410961,54.238934],[-9.411792,54.23892],[-9.413092,54.238844],[-9.413878,54.238778],[-9.414947,54.2386],[-9.415421,54.238538],[-9.415635,54.23851],[-9.416589,54.238385],[-9.417441,54.238293],[-9.417774,54.238258],[-9.418395,54.23817],[-9.419052,54.238076],[-9.419514,54.238024],[-9.420028,54.237965],[-9.420114,54.237956],[-9.420495,54.237912],[-9.421614,54.237784],[-9.422867,54.237675],[-9.422971,54.237666],[-9.42353,54.237614],[-9.424006,54.237569],[-9.424478,54.237525],[-9.424959,54.23748],[-9.425307,54.237448],[-9.425885,54.237396],[-9.426029,54.237292],[-9.426094,54.237245],[-9.426121,54.237161],[-9.426155,54.237056],[-9.426073,54.236902],[-9.425835,54.23668],[-9.425799,54.236573],[-9.425774,54.236498],[-9.425828,54.236339],[-9.425973,54.236114],[-9.426012,54.23601],[-9.426051,54.235906],[-9.426076,54.235758],[-9.426278,54.235643],[-9.426293,54.235534],[-9.426306,54.235443],[-9.426255,54.235346],[-9.426212,54.235262],[-9.425997,54.235095]],[[-9.412389,54.237933],[-9.41238,54.237664],[-9.41376,54.237648],[-9.413769,54.237917],[-9.413309,54.237923],[-9.413318,54.238192],[-9.411938,54.238208],[-9.411929,54.237939],[-9.412389,54.237933]]]]}}]}
