{"type":"FeatureCollection","features":[{"type":"Feature","properties":{"source_fid":2526384,"county":"Mayo","bog_geom_ha":106.2435216389938,"low15_pct":97.802197802197796,"low15_ha":103.90849918538953,"overlay_ha":103.93701972498205,"area_delta":0.028520539592520322},"geometry":{"type":"MultiPolygon","coordinates":[[[[-9.796995,54.24209],[-9.796715,54.241802],[-9.796715,54.241801],[-9.796543,54.241627],[-9.796355,54.241503],[-9.796247,54.241327],[-9.795632,54.240704],[-9.794948,54.239933],[-9.794937,54.239921],[-9.79492,54.239901],[-9.794853,54.239826],[-9.793506,54.238242],[-9.793335,54.238056],[-9.792982,54.237485],[-9.792917,54.237387],[-9.792865,54.237294],[-9.792681,54.236997],[-9.792539,54.236669],[-9.792161,54.236057],[-9.79211,54.235945],[-9.791688,54.235204],[-9.791062,54.234147],[-9.790971,54.23394],[-9.790944,54.233793],[-9.790943,54.233791],[-9.790838,54.233457],[-9.790723,54.233056],[-9.790303,54.231821],[-9.790279,54.231757],[-9.790278,54.231746],[-9.790211,54.231549],[-9.790208,54.231549],[-9.79021,54.231564],[-9.789162,54.231579],[-9.788179,54.231575],[-9.787593,54.231566],[-9.78753,54.231739],[-9.787144,54.232338],[-9.786904,54.232723],[-9.786582,54.233255],[-9.786308,54.233687],[-9.786118,54.234009],[-9.785904,54.234359],[-9.785617,54.234826],[-9.785377,54.235226],[-9.785181,54.235537],[-9.784976,54.235839],[-9.784906,54.235957],[-9.786029,54.235941],[-9.78604,54.23621],[-9.784747,54.236229],[-9.78455,54.236586],[-9.784497,54.236681],[-9.783583,54.238074],[-9.781577,54.241399],[-9.780337,54.243398],[-9.77986,54.243424],[-9.779719,54.243432],[-9.779639,54.243568],[-9.779538,54.243742],[-9.779075,54.244904],[-9.778542,54.246423],[-9.778759,54.246464],[-9.779996,54.246699],[-9.780057,54.246711],[-9.781277,54.246943],[-9.783904,54.247469],[-9.784543,54.247643],[-9.784569,54.247626],[-9.784602,54.247605],[-9.784649,54.24755],[-9.784785,54.247506],[-9.784948,54.247457],[-9.785058,54.247402],[-9.785262,54.247301],[-9.785315,54.247277],[-9.785505,54.247256],[-9.785565,54.247223],[-9.78564,54.247116],[-9.785795,54.246918],[-9.785889,54.246799],[-9.785996,54.246704],[-9.786186,54.246598],[-9.786336,54.246533],[-9.786392,54.246498],[-9.786502,54.246394],[-9.786518,54.246335],[-9.786612,54.246216],[-9.786693,54.246146],[-9.78688,54.246047],[-9.787275,54.245751],[-9.787883,54.245324],[-9.788013,54.245303],[-9.788458,54.245303],[-9.788582,54.245251],[-9.788723,54.245151],[-9.78883,54.245071],[-9.788924,54.24504],[-9.789229,54.244998],[-9.789517,54.244928],[-9.789684,54.244895],[-9.78978,54.244881],[-9.789892,54.244829],[-9.79028,54.244606],[-9.790437,54.244518],[-9.790688,54.244406],[-9.791012,54.244351],[-9.791406,54.244339],[-9.791608,54.2443],[-9.792385,54.244047],[-9.792716,54.243897],[-9.793214,54.243809],[-9.793592,54.243706],[-9.794103,54.243479],[-9.794864,54.24309],[-9.795289,54.24286],[-9.795822,54.242588],[-9.796805,54.242138],[-9.796995,54.24209]],[[-9.787502,54.238076],[-9.78749,54.237806],[-9.78795,54.237799],[-9.787962,54.238069],[-9.787502,54.238076]],[[-9.788916,54.238863],[-9.789836,54.23885],[-9.789848,54.239119],[-9.788928,54.239133],[-9.788916,54.238863]],[[-9.788008,54.239147],[-9.78802,54.239416],[-9.78756,54.239423],[-9.787548,54.239153],[-9.788008,54.239147]],[[-9.788031,54.239685],[-9.78802,54.239416],[-9.78894,54.239402],[-9.788951,54.239672],[-9.788031,54.239685]],[[-9.788515,54.240217],[-9.788975,54.240211],[-9.788986,54.24048],[-9.788526,54.240487],[-9.788515,54.240217]],[[-9.78809,54.241033],[-9.788078,54.240763],[-9.789458,54.240743],[-9.78947,54.241012],[-9.789481,54.241282],[-9.789493,54.241551],[-9.789033,54.241558],[-9.789021,54.241288],[-9.788561,54.241295],[-9.78855,54.241026],[-9.78809,54.241033]],[[-9.788066,54.240494],[-9.788078,54.240763],[-9.787158,54.240777],[-9.787146,54.240507],[-9.788066,54.240494]],[[-9.784672,54.2365],[-9.785132,54.236493],[-9.785155,54.237032],[-9.784695,54.237039],[-9.784672,54.2365]],[[-9.784293,54.238393],[-9.784305,54.238662],[-9.783845,54.238669],[-9.783833,54.2384],[-9.784293,54.238393]],[[-9.784317,54.238932],[-9.784305,54.238662],[-9.785225,54.238649],[-9.785237,54.238918],[-9.784317,54.238932]],[[-9.786605,54.238628],[-9.787525,54.238614],[-9.787537,54.238884],[-9.786617,54.238898],[-9.786605,54.238628]],[[-9.785988,54.245647],[-9.786448,54.24564],[-9.786459,54.24591],[-9.785999,54.245917],[-9.785988,54.245647]]]]}}]}
