{"type":"FeatureCollection","features":[{"type":"Feature","properties":{"source_fid":2528519,"county":"Limerick","bog_geom_ha":100.14764465762494,"low15_pct":100.0,"low15_ha":100.14764465762494,"overlay_ha":100.08741717969308,"area_delta":-0.060227477931860562},"geometry":{"type":"MultiPolygon","coordinates":[[[[-9.254328,52.492183],[-9.254089,52.492359],[-9.253808,52.49254],[-9.253692,52.492588],[-9.253708,52.492588],[-9.253734,52.493486],[-9.252262,52.493502],[-9.252288,52.4944],[-9.251788,52.494406],[-9.251847,52.494507],[-9.25214,52.494972],[-9.252162,52.495007],[-9.253159,52.494737],[-9.254123,52.494465],[-9.254247,52.494429],[-9.255109,52.494196],[-9.255288,52.494144],[-9.256041,52.493948],[-9.257117,52.493665],[-9.257687,52.493503],[-9.257901,52.493439],[-9.258085,52.493722],[-9.258204,52.49399],[-9.258589,52.494594],[-9.25928,52.495662],[-9.259615,52.496118],[-9.259707,52.496246],[-9.259758,52.496318],[-9.259858,52.496465],[-9.259936,52.496583],[-9.259998,52.496696],[-9.260029,52.496733],[-9.260864,52.498151],[-9.261252,52.498944],[-9.261627,52.499712],[-9.262385,52.499704],[-9.262416,52.499687],[-9.262465,52.499667],[-9.262498,52.499654],[-9.26252,52.499649],[-9.262593,52.499633],[-9.262604,52.499626],[-9.262612,52.499622],[-9.262666,52.499595],[-9.262679,52.499589],[-9.262673,52.499576],[-9.262659,52.499547],[-9.262659,52.499547],[-9.262659,52.499547],[-9.262707,52.499537],[-9.262746,52.499529],[-9.262793,52.499541],[-9.262865,52.499559],[-9.262865,52.499559],[-9.262931,52.499575],[-9.263058,52.499587],[-9.263183,52.499577],[-9.263301,52.499534],[-9.263364,52.499472],[-9.263526,52.499451],[-9.263653,52.499304],[-9.263858,52.499298],[-9.263932,52.499281],[-9.264052,52.499175],[-9.264349,52.499209],[-9.264458,52.499148],[-9.264564,52.499192],[-9.2647,52.499181],[-9.264737,52.499163],[-9.264769,52.499114],[-9.264806,52.499085],[-9.264997,52.499094],[-9.265098,52.499087],[-9.265202,52.49907],[-9.265423,52.499123],[-9.265637,52.499137],[-9.265685,52.499136],[-9.265813,52.499165],[-9.265911,52.49918],[-9.266011,52.499168],[-9.266127,52.499162],[-9.266295,52.499158],[-9.266556,52.499138],[-9.266668,52.499128],[-9.26684,52.499135],[-9.266982,52.499137],[-9.267126,52.499126],[-9.267149,52.499168],[-9.26721,52.499172],[-9.267324,52.499192],[-9.267365,52.499194],[-9.26739,52.499195],[-9.267456,52.499204],[-9.267554,52.499203],[-9.2676,52.499189],[-9.267727,52.499149],[-9.267865,52.499141],[-9.26808,52.499124],[-9.268132,52.499131],[-9.268204,52.499152],[-9.268281,52.499156],[-9.268396,52.499134],[-9.268491,52.49913],[-9.268549,52.499101],[-9.26855,52.499093],[-9.268561,52.49901],[-9.268582,52.498976],[-9.268607,52.498971],[-9.26872,52.498958],[-9.268748,52.498959],[-9.268763,52.498972],[-9.268779,52.499038],[-9.268799,52.499081],[-9.268809,52.49912],[-9.268819,52.499159],[-9.268858,52.499169],[-9.268911,52.499163],[-9.268954,52.499159],[-9.26905,52.49917],[-9.2691,52.499154],[-9.269259,52.499151],[-9.269331,52.499128],[-9.269399,52.499083],[-9.269413,52.499075],[-9.269484,52.499052],[-9.269555,52.499052],[-9.269576,52.499057],[-9.269648,52.499076],[-9.269703,52.499076],[-9.269794,52.499051],[-9.269962,52.499021],[-9.270004,52.49904],[-9.270083,52.498936],[-9.270087,52.498934],[-9.27008,52.498704],[-9.274137,52.498661],[-9.274139,52.498659],[-9.274218,52.498579],[-9.274319,52.498569],[-9.274424,52.498591],[-9.274524,52.498556],[-9.274616,52.498487],[-9.274701,52.498447],[-9.27478,52.498474],[-9.275067,52.498433],[-9.275301,52.498371],[-9.275324,52.498366],[-9.275451,52.498395],[-9.275571,52.498363],[-9.275636,52.498338],[-9.27568,52.498312],[-9.275751,52.498231],[-9.275824,52.498198],[-9.275954,52.498127],[-9.275943,52.497742],[-9.27749,52.497726],[-9.277594,52.497631],[-9.277616,52.497612],[-9.277707,52.497526],[-9.277792,52.497509],[-9.27781,52.497506],[-9.277924,52.49749],[-9.277924,52.49749],[-9.278116,52.497472],[-9.278202,52.497452],[-9.278239,52.49744],[-9.278273,52.497427],[-9.278231,52.497379],[-9.278205,52.497348],[-9.278197,52.497234],[-9.278166,52.497118],[-9.278015,52.497041],[-9.277924,52.496981],[-9.277945,52.496877],[-9.277746,52.496718],[-9.277659,52.496621],[-9.277658,52.49662],[-9.277614,52.496584],[-9.277581,52.496535],[-9.277548,52.496507],[-9.277414,52.496369],[-9.277305,52.49618],[-9.277091,52.495931],[-9.277009,52.495811],[-9.276952,52.495782],[-9.276844,52.495646],[-9.276498,52.4952],[-9.276159,52.49476],[-9.276087,52.494727],[-9.275906,52.494491],[-9.27584,52.494412],[-9.275618,52.494098],[-9.2756,52.494047],[-9.275601,52.493965],[-9.274555,52.494047],[-9.274187,52.494105],[-9.274073,52.494104],[-9.273991,52.494123],[-9.2738,52.494154],[-9.273517,52.494199],[-9.272823,52.494306],[-9.272417,52.494349],[-9.272186,52.494373],[-9.271604,52.494447],[-9.271582,52.494423],[-9.271126,52.493952],[-9.270542,52.493349],[-9.270087,52.492888],[-9.269778,52.492553],[-9.26937,52.492038],[-9.268935,52.491465],[-9.268576,52.49099],[-9.268508,52.490925],[-9.268322,52.490659],[-9.268298,52.490627],[-9.266662,52.490929],[-9.265996,52.491063],[-9.265835,52.491084],[-9.26565,52.491079],[-9.264841,52.491045],[-9.263933,52.491002],[-9.2636,52.49099],[-9.263279,52.490984],[-9.262598,52.491146],[-9.262219,52.491212],[-9.261767,52.491234],[-9.261376,52.491238],[-9.261148,52.491196],[-9.261028,52.491125],[-9.260938,52.491072],[-9.2606,52.490993],[-9.260461,52.490904],[-9.26041,52.49084],[-9.260388,52.490708],[-9.26037,52.4904],[-9.260364,52.490289],[-9.260353,52.489997],[-9.260332,52.489836],[-9.260332,52.489835],[-9.260331,52.489822],[-9.259519,52.48983],[-9.258051,52.489846],[-9.258102,52.48997],[-9.25819,52.490182],[-9.258264,52.490334],[-9.258308,52.490439],[-9.258332,52.490483],[-9.258355,52.490523],[-9.258364,52.490541],[-9.258496,52.490868],[-9.258558,52.491033],[-9.25865,52.491181],[-9.258683,52.491342],[-9.258539,52.491311],[-9.258371,52.491357],[-9.258209,52.491433],[-9.258015,52.49148],[-9.257877,52.491477],[-9.257851,52.491485],[-9.257757,52.491478],[-9.257514,52.491491],[-9.257424,52.491522],[-9.257438,52.491603],[-9.257436,52.491604],[-9.257321,52.491637],[-9.257167,52.4916],[-9.256999,52.491646],[-9.256842,52.491701],[-9.256789,52.491719],[-9.256637,52.491756],[-9.256629,52.491756],[-9.256568,52.491756],[-9.256367,52.491729],[-9.256039,52.491716],[-9.255764,52.491705],[-9.255309,52.491696],[-9.255108,52.491678],[-9.25492,52.491797],[-9.254884,52.4918],[-9.254797,52.491869],[-9.254787,52.491877],[-9.254503,52.492085],[-9.254441,52.492122],[-9.254328,52.492183]]]]}}]}
