{"type":"FeatureCollection","features":[{"type":"Feature","properties":{"source_fid":2559616,"county":"Offaly","bog_geom_ha":108.98761018082816,"low15_pct":100.0,"low15_ha":108.98761018082816,"overlay_ha":108.98761018082816,"area_delta":0.0},"geometry":{"type":"MultiPolygon","coordinates":[[[[-7.248717,53.373537],[-7.249087,53.373469],[-7.248853,53.373],[-7.248752,53.372797],[-7.248629,53.372758],[-7.248085,53.372587],[-7.247987,53.372555],[-7.246874,53.372196],[-7.246005,53.371912],[-7.245995,53.371909],[-7.245933,53.371889],[-7.244627,53.371462],[-7.243268,53.371022],[-7.241816,53.370566],[-7.241493,53.370462],[-7.240559,53.37016],[-7.239548,53.369843],[-7.239191,53.36973],[-7.238972,53.369659],[-7.23785,53.369292],[-7.237209,53.369084],[-7.236777,53.368943],[-7.235907,53.368668],[-7.234964,53.368359],[-7.234533,53.36822],[-7.233015,53.367734],[-7.232482,53.367565],[-7.232271,53.367498],[-7.231426,53.367225],[-7.231024,53.367096],[-7.230007,53.366774],[-7.229995,53.366782],[-7.229644,53.366992],[-7.229644,53.366992],[-7.229644,53.366992],[-7.229577,53.367007],[-7.228847,53.367172],[-7.226976,53.367599],[-7.2265,53.367713],[-7.225959,53.36751],[-7.225393,53.367297],[-7.225101,53.367187],[-7.224939,53.367143],[-7.224904,53.367134],[-7.224904,53.367134],[-7.224808,53.367055],[-7.224691,53.36705],[-7.224111,53.366797],[-7.223534,53.366586],[-7.222841,53.366325],[-7.221799,53.365937],[-7.221551,53.365841],[-7.221315,53.36575],[-7.220672,53.365516],[-7.220391,53.365417],[-7.219594,53.366758],[-7.219213,53.367396],[-7.218924,53.367909],[-7.218909,53.36793],[-7.218884,53.367933],[-7.218848,53.367984],[-7.219693,53.368215],[-7.220359,53.368391],[-7.221352,53.368658],[-7.221302,53.369144],[-7.221248,53.369693],[-7.221174,53.370191],[-7.221167,53.370276],[-7.222087,53.370077],[-7.222696,53.369944],[-7.222732,53.369856],[-7.222856,53.369671],[-7.222984,53.369745],[-7.223246,53.3699],[-7.223453,53.370018],[-7.223775,53.370103],[-7.223981,53.370169],[-7.224198,53.370259],[-7.224991,53.370232],[-7.225406,53.370219],[-7.225571,53.370204],[-7.226052,53.370187],[-7.226334,53.370141],[-7.226746,53.370106],[-7.226933,53.370108],[-7.227581,53.370387],[-7.227984,53.3706],[-7.228411,53.370842],[-7.228489,53.370867],[-7.228661,53.370928],[-7.228705,53.370977],[-7.228771,53.371102],[-7.228883,53.3712],[-7.2291,53.371321],[-7.229404,53.371495],[-7.229531,53.371582],[-7.229581,53.371633],[-7.229574,53.371751],[-7.229565,53.371823],[-7.229534,53.371862],[-7.229323,53.372012],[-7.229388,53.372115],[-7.229481,53.372235],[-7.229613,53.372359],[-7.229654,53.372421],[-7.229644,53.372473],[-7.229612,53.37254],[-7.229929,53.372726],[-7.230092,53.372831],[-7.230625,53.373137],[-7.231079,53.373394],[-7.231553,53.373663],[-7.231821,53.373741],[-7.232429,53.373885],[-7.232988,53.374035],[-7.23318,53.374037],[-7.233403,53.374068],[-7.233675,53.374083],[-7.234005,53.374177],[-7.234188,53.374218],[-7.234243,53.374235],[-7.234418,53.37435],[-7.235168,53.374512],[-7.23601,53.374705],[-7.236608,53.374818],[-7.236437,53.375141],[-7.236185,53.375618],[-7.236101,53.375793],[-7.235985,53.375993],[-7.235611,53.376526],[-7.235447,53.376861],[-7.235193,53.377341],[-7.235045,53.377656],[-7.237828,53.378057],[-7.238692,53.377984],[-7.239953,53.377888],[-7.240309,53.377681],[-7.240823,53.37741],[-7.241309,53.377166],[-7.241535,53.377052],[-7.241713,53.37695],[-7.241926,53.376829],[-7.24225,53.376672],[-7.24233,53.376631],[-7.242361,53.376616],[-7.242478,53.3766],[-7.243069,53.376257],[-7.243809,53.376364],[-7.244467,53.376445],[-7.244486,53.376444],[-7.244874,53.376423],[-7.245262,53.376378],[-7.245505,53.376326],[-7.245645,53.376268],[-7.245727,53.376267],[-7.245747,53.376264],[-7.245136,53.375013],[-7.245696,53.374943],[-7.245928,53.374909],[-7.246309,53.374871],[-7.246498,53.374842],[-7.246718,53.374794],[-7.246841,53.37474],[-7.246991,53.374659],[-7.247169,53.37455],[-7.247335,53.374476],[-7.247469,53.374432],[-7.247599,53.374402],[-7.247933,53.374343],[-7.247972,53.374335],[-7.248116,53.374278],[-7.248151,53.374263],[-7.248131,53.374224],[-7.24814,53.374175],[-7.248168,53.374135],[-7.24822,53.374053],[-7.248221,53.373983],[-7.248198,53.37391],[-7.248188,53.373833],[-7.248196,53.373806],[-7.248378,53.373717],[-7.248378,53.373668],[-7.248306,53.373636],[-7.248286,53.373626],[-7.248276,53.373602],[-7.248615,53.373552],[-7.248717,53.373537]]]]}}]}
