{"type":"FeatureCollection","features":[{"type":"Feature","properties":{"source_fid":2565207,"county":"Longford","bog_geom_ha":130.09849483978354,"low15_pct":100.0,"low15_ha":130.09849483978354,"overlay_ha":130.09849483978354,"area_delta":0.0},"geometry":{"type":"MultiPolygon","coordinates":[[[[-7.936088,53.680528],[-7.935501,53.680965],[-7.934805,53.681482],[-7.934955,53.681825],[-7.935126,53.682174],[-7.935241,53.682409],[-7.935324,53.682578],[-7.935576,53.683088],[-7.935677,53.683293],[-7.935772,53.683489],[-7.935772,53.683489],[-7.935917,53.683786],[-7.936313,53.68462],[-7.936365,53.684732],[-7.936527,53.685082],[-7.936803,53.685675],[-7.936821,53.685714],[-7.936828,53.685729],[-7.936921,53.685922],[-7.937307,53.686728],[-7.937324,53.686763],[-7.937342,53.686801],[-7.937459,53.687044],[-7.937771,53.687736],[-7.937775,53.687745],[-7.937901,53.688024],[-7.938028,53.688293],[-7.938236,53.688732],[-7.938268,53.688798],[-7.938303,53.688872],[-7.938314,53.689059],[-7.938703,53.68988],[-7.938851,53.690184],[-7.938943,53.690371],[-7.939037,53.690564],[-7.939071,53.690636],[-7.939097,53.690692],[-7.939166,53.690839],[-7.939339,53.691209],[-7.939573,53.691674],[-7.939594,53.691715],[-7.939596,53.691719],[-7.939663,53.691852],[-7.939684,53.691893],[-7.939687,53.691899],[-7.939918,53.692336],[-7.940033,53.692591],[-7.940051,53.69263],[-7.940117,53.692776],[-7.940141,53.692813],[-7.940192,53.69289],[-7.940799,53.69408],[-7.94083,53.694146],[-7.941157,53.694833],[-7.941319,53.695153],[-7.941456,53.695424],[-7.941632,53.695801],[-7.942034,53.696632],[-7.942835,53.696522],[-7.943075,53.696486],[-7.943206,53.696466],[-7.943331,53.696449],[-7.943462,53.696432],[-7.944225,53.69632],[-7.944708,53.696248],[-7.945814,53.696091],[-7.94642,53.696004],[-7.94663,53.695974],[-7.946724,53.695961],[-7.947092,53.695908],[-7.948495,53.695697],[-7.948818,53.695655],[-7.948863,53.695648],[-7.948901,53.695643],[-7.94965,53.695536],[-7.94965,53.695536],[-7.94965,53.695536],[-7.950556,53.695411],[-7.950559,53.69541],[-7.950759,53.695388],[-7.95127,53.695314],[-7.952476,53.695151],[-7.954016,53.694945],[-7.954588,53.694871],[-7.954877,53.69483],[-7.955714,53.694724],[-7.957633,53.694454],[-7.95824,53.694365],[-7.958419,53.694339],[-7.959679,53.694167],[-7.957828,53.692119],[-7.9578,53.692046],[-7.957748,53.69204],[-7.957448,53.692004],[-7.957401,53.692014],[-7.957324,53.692005],[-7.957271,53.692013],[-7.957266,53.692014],[-7.957263,53.692014],[-7.957252,53.692013],[-7.957233,53.69201],[-7.957229,53.692008],[-7.957209,53.691997],[-7.957199,53.691991],[-7.957149,53.691969],[-7.95713,53.69196],[-7.956972,53.691937],[-7.956952,53.691936],[-7.956851,53.691928],[-7.956806,53.691913],[-7.956785,53.691897],[-7.956755,53.691875],[-7.956719,53.691839],[-7.956666,53.691817],[-7.956509,53.691809],[-7.956157,53.691792],[-7.955806,53.691759],[-7.955371,53.691707],[-7.955205,53.691675],[-7.955201,53.691674],[-7.955215,53.691619],[-7.955221,53.691594],[-7.955238,53.691532],[-7.955235,53.691488],[-7.955234,53.691474],[-7.955234,53.691473],[-7.955189,53.691445],[-7.955149,53.691421],[-7.955095,53.691311],[-7.955052,53.691273],[-7.954836,53.691081],[-7.954572,53.690845],[-7.954543,53.690819],[-7.954234,53.690543],[-7.9542,53.690516],[-7.953492,53.689928],[-7.953172,53.689663],[-7.952858,53.689403],[-7.952224,53.688878],[-7.951468,53.688301],[-7.951142,53.688052],[-7.95053,53.687574],[-7.950031,53.687167],[-7.949683,53.686883],[-7.949059,53.686419],[-7.948815,53.686238],[-7.946756,53.684755],[-7.946233,53.684367],[-7.945561,53.683867],[-7.945096,53.683533],[-7.944511,53.683113],[-7.943895,53.682675],[-7.94388,53.682665],[-7.943305,53.682265],[-7.943281,53.682249],[-7.943211,53.682199],[-7.942329,53.681573],[-7.941365,53.680885],[-7.941057,53.680673],[-7.94092,53.680586],[-7.940761,53.680484],[-7.940608,53.680352],[-7.940351,53.680129],[-7.940345,53.680124],[-7.940211,53.680007],[-7.940097,53.679929],[-7.939785,53.679716],[-7.939116,53.679258],[-7.93843,53.678792],[-7.937337,53.67959],[-7.937171,53.679715],[-7.936562,53.680172],[-7.936088,53.680528]],[[-7.942865,53.688396],[-7.942816,53.687622],[-7.942816,53.687622],[-7.942456,53.6874],[-7.94228,53.687291],[-7.942145,53.687095],[-7.942145,53.687095],[-7.942688,53.686795],[-7.942346,53.68654],[-7.942441,53.686514],[-7.943139,53.686322],[-7.943139,53.686322],[-7.943139,53.686322],[-7.94346,53.686522],[-7.944167,53.686357],[-7.94461,53.68628],[-7.944671,53.686294],[-7.944846,53.686331],[-7.94538,53.686311],[-7.945617,53.686302],[-7.945613,53.686473],[-7.94561,53.686586],[-7.945725,53.68663],[-7.94575,53.68664],[-7.945986,53.6866],[-7.946042,53.686652],[-7.946209,53.686808],[-7.946369,53.686945],[-7.946546,53.687098],[-7.946701,53.687063],[-7.947072,53.686979],[-7.947072,53.686979],[-7.947072,53.686979],[-7.94726,53.687185],[-7.94726,53.687185],[-7.946985,53.687327],[-7.947614,53.687594],[-7.947335,53.687749],[-7.946783,53.688059],[-7.946977,53.688336],[-7.947361,53.688681],[-7.948521,53.688323],[-7.949489,53.689081],[-7.949422,53.689183],[-7.949371,53.689349],[-7.948759,53.68949],[-7.948119,53.689632],[-7.947857,53.689646],[-7.947732,53.689953],[-7.948092,53.689957],[-7.948219,53.690681],[-7.948243,53.690816],[-7.948254,53.690918],[-7.948233,53.691041],[-7.948195,53.691118],[-7.947999,53.691258],[-7.947729,53.691376],[-7.947414,53.691494],[-7.947219,53.691556],[-7.946598,53.691614],[-7.946228,53.691625],[-7.946028,53.691625],[-7.945696,53.691515],[-7.945609,53.691486],[-7.945537,53.691484],[-7.945439,53.691513],[-7.945257,53.691577],[-7.944986,53.691649],[-7.944769,53.691444],[-7.945133,53.691258],[-7.945021,53.691127],[-7.944924,53.691145],[-7.944868,53.691131],[-7.944798,53.691076],[-7.944458,53.690686],[-7.9439,53.689902],[-7.943514,53.689633],[-7.943185,53.689667],[-7.943115,53.689477],[-7.94342,53.689386],[-7.943238,53.68916],[-7.943048,53.688926],[-7.942948,53.688716],[-7.942865,53.688396]]]]}}]}
