{"type":"FeatureCollection","features":[{"type":"Feature","properties":{"source_fid":2603353,"county":"Tipperary","bog_geom_ha":116.30193821926566,"low15_pct":99.766718506998444,"low15_ha":116.03062732139801,"overlay_ha":115.95345248954794,"area_delta":-0.077174831850072678},"geometry":{"type":"MultiPolygon","coordinates":[[[[-7.684213,52.607649],[-7.684054,52.607664],[-7.684047,52.607665],[-7.684046,52.607665],[-7.684046,52.607665],[-7.683069,52.607],[-7.681638,52.605985],[-7.680573,52.605247],[-7.68054,52.605224],[-7.68052,52.60521],[-7.680517,52.605729],[-7.680026,52.605728],[-7.679971,52.605805],[-7.679745,52.606139],[-7.679589,52.606461],[-7.679349,52.606955],[-7.679202,52.607251],[-7.678919,52.607789],[-7.678883,52.607854],[-7.67861,52.608355],[-7.678609,52.608445],[-7.678567,52.608868],[-7.678528,52.609124],[-7.6785,52.609161],[-7.678387,52.609228],[-7.678256,52.609305],[-7.678163,52.609376],[-7.678099,52.609439],[-7.678074,52.609476],[-7.678048,52.609525],[-7.677983,52.609717],[-7.677983,52.609821],[-7.677865,52.610206],[-7.677864,52.610215],[-7.677792,52.610541],[-7.677614,52.61117],[-7.677442,52.611728],[-7.677214,52.612331],[-7.676997,52.612889],[-7.67691,52.613114],[-7.676892,52.613162],[-7.676616,52.613877],[-7.676423,52.614389],[-7.676495,52.61443],[-7.677537,52.615086],[-7.677778,52.615249],[-7.678604,52.615808],[-7.678668,52.615851],[-7.679037,52.616097],[-7.679427,52.616357],[-7.680444,52.617039],[-7.681293,52.617618],[-7.682,52.618108],[-7.682254,52.618304],[-7.682298,52.618338],[-7.682357,52.618384],[-7.68251,52.618504],[-7.682686,52.618641],[-7.682907,52.618786],[-7.683139,52.618933],[-7.683207,52.618977],[-7.68333,52.619056],[-7.68357,52.619232],[-7.683791,52.619388],[-7.684004,52.619538],[-7.68421,52.619685],[-7.684454,52.619859],[-7.684741,52.620029],[-7.685044,52.62022],[-7.685336,52.620421],[-7.685606,52.620631],[-7.685808,52.620763],[-7.686041,52.620915],[-7.686362,52.621122],[-7.686632,52.62131],[-7.686883,52.621481],[-7.68697,52.621545],[-7.68697,52.621545],[-7.687104,52.621644],[-7.687351,52.621803],[-7.687497,52.621899],[-7.687568,52.621945],[-7.6876,52.621972],[-7.687638,52.621973],[-7.687638,52.622004],[-7.687831,52.622165],[-7.687929,52.622243],[-7.688079,52.622243],[-7.688078,52.622361],[-7.68809,52.62237],[-7.688378,52.622596],[-7.688485,52.622682],[-7.688517,52.622665],[-7.688519,52.622664],[-7.688654,52.622584],[-7.688787,52.622505],[-7.688862,52.62246],[-7.688964,52.622404],[-7.688965,52.622246],[-7.688967,52.621976],[-7.68941,52.621977],[-7.689412,52.621708],[-7.689855,52.621709],[-7.689857,52.621439],[-7.690633,52.621441],[-7.690675,52.621417],[-7.691617,52.62085],[-7.691981,52.620629],[-7.692013,52.620609],[-7.691698,52.620375],[-7.691487,52.620231],[-7.691395,52.620168],[-7.691316,52.620114],[-7.691228,52.620067],[-7.691189,52.620047],[-7.691104,52.619961],[-7.691039,52.619896],[-7.691039,52.619896],[-7.691039,52.619896],[-7.691059,52.619883],[-7.691074,52.619873],[-7.692448,52.618971],[-7.692822,52.618707],[-7.69315,52.618474],[-7.693039,52.618293],[-7.69297,52.618181],[-7.692913,52.618097],[-7.692879,52.618027],[-7.69251,52.61741],[-7.6924,52.617226],[-7.692233,52.616939],[-7.692232,52.616937],[-7.692222,52.61692],[-7.691926,52.61641],[-7.691765,52.616133],[-7.691626,52.615921],[-7.691337,52.615482],[-7.691299,52.615426],[-7.691276,52.615392],[-7.691245,52.615336],[-7.691232,52.615314],[-7.69115,52.615179],[-7.690755,52.614529],[-7.690602,52.614278],[-7.69046,52.614044],[-7.69027,52.61373],[-7.688226,52.610243],[-7.687734,52.609428],[-7.687535,52.609077],[-7.687184,52.608492],[-7.687073,52.608308],[-7.687034,52.608245],[-7.686852,52.607954],[-7.686783,52.607846],[-7.686719,52.60775],[-7.686668,52.607666],[-7.686522,52.607428],[-7.68634,52.607446],[-7.6862,52.607459],[-7.686149,52.607464],[-7.686102,52.607469],[-7.686042,52.607474],[-7.685966,52.607482],[-7.68586,52.607492],[-7.685789,52.607498],[-7.685725,52.607505],[-7.685617,52.607515],[-7.685486,52.607527],[-7.685333,52.607542],[-7.685094,52.607565],[-7.684839,52.607589],[-7.684707,52.607602],[-7.684682,52.607604],[-7.684554,52.607616],[-7.684423,52.607629],[-7.684329,52.607638],[-7.684267,52.607644],[-7.684213,52.607649]],[[-7.689131,52.617998],[-7.689475,52.617577],[-7.689733,52.617282],[-7.689965,52.617015],[-7.690184,52.616754],[-7.690301,52.616759],[-7.690312,52.61676],[-7.690311,52.616761],[-7.68946,52.617774],[-7.689457,52.617778],[-7.689457,52.617778],[-7.689457,52.617778],[-7.689178,52.618116],[-7.688899,52.618454],[-7.688891,52.618463],[-7.688303,52.619199],[-7.688137,52.619285],[-7.68813,52.619289],[-7.687962,52.61937],[-7.68796,52.619371],[-7.687831,52.619443],[-7.68762,52.619556],[-7.687371,52.619689],[-7.687242,52.619758],[-7.687204,52.619778],[-7.687201,52.61978],[-7.687196,52.619782],[-7.687155,52.619711],[-7.68776,52.619374],[-7.688159,52.619172],[-7.68838,52.618896],[-7.688764,52.618438],[-7.689131,52.617998]]]]}}]}
