{"type":"FeatureCollection","features":[{"type":"Feature","properties":{"source_fid":2630020,"county":"Mayo","bog_geom_ha":348.95089145296794,"low15_pct":63.963963963963963,"low15_ha":223.20282246090741,"overlay_ha":223.83112252390646,"area_delta":0.62830006299904539},"geometry":{"type":"MultiPolygon","coordinates":[[[[-9.672112,54.128136],[-9.673308,54.12911],[-9.673751,54.129409],[-9.673989,54.129507],[-9.673989,54.129507],[-9.673993,54.129508],[-9.674185,54.12953],[-9.675094,54.129638],[-9.675672,54.129759],[-9.675885,54.129831],[-9.676373,54.129998],[-9.677174,54.130086],[-9.677813,54.130184],[-9.677944,54.13021],[-9.678384,54.130488],[-9.679213,54.130853],[-9.680075,54.131158],[-9.680527,54.131326],[-9.680523,54.131233],[-9.680982,54.131227],[-9.680993,54.131496],[-9.680894,54.131498],[-9.681229,54.13176],[-9.681231,54.131763],[-9.681462,54.131759],[-9.681473,54.132029],[-9.681932,54.132022],[-9.681943,54.132292],[-9.68332,54.132273],[-9.683309,54.132003],[-9.683768,54.131997],[-9.683757,54.131727],[-9.683746,54.131458],[-9.684204,54.131451],[-9.684194,54.131182],[-9.685111,54.131169],[-9.6851,54.1309],[-9.685559,54.130893],[-9.685548,54.130624],[-9.686007,54.130617],[-9.685996,54.130348],[-9.685985,54.130078],[-9.685526,54.130085],[-9.685519,54.129895],[-9.685067,54.129901],[-9.685064,54.129822],[-9.685056,54.129822],[-9.685035,54.129283],[-9.685024,54.129013],[-9.685023,54.129003],[-9.683502,54.129024],[-9.683466,54.128126],[-9.68361,54.128124],[-9.683604,54.127955],[-9.684062,54.127948],[-9.684051,54.127679],[-9.683593,54.127685],[-9.683582,54.127416],[-9.683571,54.127147],[-9.68403,54.12714],[-9.684041,54.12741],[-9.684499,54.127403],[-9.68451,54.127673],[-9.684969,54.127666],[-9.68498,54.127936],[-9.685439,54.127929],[-9.68545,54.128199],[-9.686826,54.128179],[-9.686815,54.12791],[-9.687274,54.127903],[-9.687263,54.127634],[-9.686804,54.12764],[-9.686793,54.127371],[-9.687252,54.127365],[-9.687241,54.127095],[-9.689076,54.127069],[-9.689087,54.127339],[-9.688628,54.127345],[-9.688639,54.127615],[-9.689557,54.127602],[-9.689546,54.127332],[-9.690005,54.127326],[-9.689994,54.127056],[-9.69137,54.127037],[-9.691359,54.126768],[-9.692276,54.126755],[-9.692265,54.126485],[-9.692724,54.126479],[-9.692735,54.126748],[-9.694111,54.126729],[-9.694122,54.126998],[-9.694126,54.127078],[-9.698566,54.127016],[-9.698714,54.126931],[-9.698917,54.127011],[-9.70009,54.126994],[-9.700086,54.126914],[-9.700489,54.126909],[-9.700438,54.126662],[-9.700062,54.12642],[-9.700055,54.126282],[-9.700117,54.126085],[-9.700003,54.125773],[-9.700079,54.125578],[-9.700021,54.125498],[-9.700039,54.125266],[-9.7001,54.124983],[-9.700201,54.124756],[-9.699998,54.124759],[-9.699987,54.124489],[-9.70032,54.124485],[-9.700354,54.124409],[-9.700328,54.124058],[-9.700041,54.123724],[-9.699952,54.123628],[-9.699954,54.123681],[-9.699495,54.123687],[-9.699484,54.123418],[-9.699752,54.123414],[-9.699356,54.122993],[-9.698995,54.122666],[-9.699003,54.122885],[-9.698545,54.122892],[-9.698556,54.123161],[-9.698097,54.123168],[-9.698108,54.123437],[-9.697649,54.123444],[-9.69766,54.123713],[-9.697202,54.12372],[-9.697213,54.123989],[-9.697224,54.124259],[-9.695847,54.124278],[-9.695858,54.124548],[-9.695869,54.124817],[-9.697704,54.124791],[-9.697693,54.124522],[-9.698152,54.124515],[-9.698163,54.124785],[-9.698174,54.125054],[-9.698185,54.125324],[-9.697726,54.12533],[-9.697738,54.125599],[-9.695903,54.125625],[-9.695891,54.125356],[-9.694515,54.125375],[-9.694504,54.125106],[-9.693587,54.125119],[-9.693598,54.125388],[-9.693139,54.125395],[-9.69315,54.125664],[-9.692691,54.125671],[-9.692702,54.12594],[-9.691326,54.125959],[-9.691337,54.126229],[-9.689502,54.126255],[-9.689513,54.126524],[-9.688137,54.126543],[-9.688126,54.126274],[-9.687208,54.126287],[-9.687219,54.126556],[-9.685843,54.126575],[-9.685832,54.126306],[-9.685373,54.126312],[-9.685362,54.126043],[-9.690408,54.125972],[-9.690397,54.125703],[-9.689939,54.125709],[-9.689928,54.12544],[-9.688552,54.125459],[-9.688562,54.125729],[-9.688104,54.125735],[-9.688093,54.125466],[-9.687634,54.125472],[-9.687645,54.125741],[-9.687186,54.125748],[-9.687175,54.125478],[-9.687164,54.125209],[-9.687623,54.125202],[-9.687612,54.124933],[-9.68853,54.12492],[-9.688519,54.124651],[-9.689436,54.124638],[-9.689425,54.124368],[-9.688966,54.124375],[-9.688955,54.124105],[-9.688497,54.124112],[-9.688486,54.123842],[-9.688475,54.123573],[-9.688016,54.123579],[-9.688027,54.123849],[-9.687568,54.123855],[-9.687557,54.123586],[-9.687546,54.123316],[-9.687525,54.122777],[-9.686607,54.12279],[-9.686618,54.12306],[-9.686159,54.123066],[-9.686148,54.122797],[-9.684313,54.122822],[-9.684303,54.122553],[-9.684292,54.122283],[-9.68475,54.122277],[-9.684739,54.122008],[-9.685198,54.122001],[-9.685187,54.121732],[-9.685176,54.121462],[-9.684718,54.121469],[-9.684707,54.121199],[-9.684248,54.121206],[-9.684237,54.120936],[-9.68332,54.120949],[-9.683309,54.12068],[-9.68285,54.120686],[-9.682839,54.120417],[-9.682828,54.120147],[-9.681452,54.120166],[-9.681448,54.120068],[-9.680081,54.120087],[-9.680008,54.118291],[-9.681375,54.118272],[-9.681365,54.118011],[-9.681354,54.117741],[-9.680436,54.117754],[-9.680426,54.117485],[-9.680884,54.117478],[-9.68088,54.11738],[-9.679972,54.117393],[-9.679943,54.116682],[-9.679934,54.116683],[-9.679923,54.116413],[-9.679465,54.11642],[-9.679454,54.11615],[-9.678995,54.116156],[-9.678973,54.11561],[-9.678371,54.115618],[-9.678262,54.112924],[-9.678864,54.112916],[-9.678854,54.112654],[-9.67978,54.112641],[-9.679718,54.111107],[-9.680167,54.111101],[-9.680164,54.111018],[-9.680153,54.110748],[-9.679695,54.110755],[-9.679684,54.110485],[-9.679225,54.110491],[-9.679214,54.110222],[-9.678297,54.110235],[-9.678308,54.110504],[-9.677849,54.110511],[-9.67786,54.11078],[-9.676943,54.110793],[-9.676932,54.110523],[-9.676921,54.110254],[-9.67691,54.109985],[-9.676614,54.109989],[-9.676661,54.11115],[-9.675133,54.111171],[-9.675064,54.109471],[-9.675054,54.109471],[-9.675043,54.109202],[-9.674585,54.109208],[-9.674574,54.108939],[-9.674552,54.1084],[-9.673635,54.108412],[-9.673624,54.108143],[-9.673002,54.108152],[-9.672954,54.108325],[-9.672869,54.108506],[-9.672758,54.108679],[-9.672505,54.109323],[-9.672466,54.109618],[-9.672324,54.110096],[-9.67221,54.110491],[-9.672199,54.110526],[-9.672185,54.110576],[-9.671955,54.11131],[-9.671838,54.111716],[-9.671689,54.112189],[-9.671458,54.112802],[-9.671307,54.113467],[-9.671062,54.114075],[-9.67104,54.114174],[-9.671132,54.114228],[-9.671078,54.114316],[-9.671034,54.114349],[-9.670991,54.114386],[-9.670913,54.114614],[-9.670697,54.1152],[-9.670538,54.115591],[-9.670259,54.116195],[-9.670232,54.116298],[-9.670166,54.116549],[-9.670164,54.116559],[-9.669811,54.117284],[-9.669562,54.117816],[-9.669464,54.118193],[-9.669408,54.11835],[-9.669342,54.118536],[-9.66899,54.119192],[-9.668845,54.119545],[-9.668845,54.119545],[-9.668815,54.11966],[-9.668577,54.120301],[-9.668384,54.12088],[-9.668209,54.121467],[-9.667894,54.122243],[-9.66764,54.123159],[-9.667645,54.123174],[-9.667707,54.123401],[-9.66806,54.124058],[-9.66844,54.12457],[-9.668873,54.125094],[-9.669375,54.125679],[-9.669902,54.126252],[-9.670542,54.12683],[-9.671105,54.127325],[-9.671431,54.127588],[-9.672112,54.128136]],[[-9.693642,54.126466],[-9.692724,54.126479],[-9.692713,54.126209],[-9.693631,54.126197],[-9.693642,54.126466]],[[-9.680335,54.126373],[-9.680299,54.125475],[-9.681828,54.125454],[-9.681864,54.126352],[-9.680335,54.126373]],[[-9.680262,54.124577],[-9.680299,54.125475],[-9.67877,54.125496],[-9.678734,54.124598],[-9.680262,54.124577]],[[-9.683374,54.122296],[-9.683363,54.122027],[-9.683822,54.12202],[-9.683833,54.12229],[-9.683374,54.122296]],[[-9.68261,54.126082],[-9.683068,54.126075],[-9.683079,54.126345],[-9.682621,54.126351],[-9.68261,54.126082]],[[-9.678503,54.126678],[-9.678492,54.126409],[-9.67895,54.126402],[-9.678961,54.126672],[-9.678503,54.126678]],[[-9.682195,54.127166],[-9.682184,54.126896],[-9.682642,54.12689],[-9.682653,54.127159],[-9.682195,54.127166]],[[-9.681277,54.127179],[-9.681736,54.127172],[-9.681747,54.127442],[-9.681288,54.127448],[-9.681277,54.127179]]],[[[-9.673804,54.106123],[-9.673623,54.106256],[-9.674007,54.10625],[-9.674018,54.10652],[-9.674029,54.106789],[-9.676484,54.106755],[-9.67648,54.10666],[-9.678008,54.106638],[-9.678023,54.107003],[-9.678166,54.107001],[-9.678177,54.107271],[-9.679553,54.107252],[-9.679542,54.106982],[-9.679641,54.106981],[-9.679596,54.106915],[-9.679554,54.106855],[-9.679556,54.106817],[-9.679559,54.106807],[-9.679567,54.106781],[-9.679596,54.10674],[-9.679634,54.106687],[-9.679698,54.106653],[-9.679593,54.10657],[-9.679571,54.106554],[-9.679406,54.106437],[-9.679399,54.106431],[-9.678737,54.105889],[-9.678475,54.105789],[-9.67805,54.10579],[-9.677882,54.105803],[-9.677878,54.105804],[-9.677646,54.105821],[-9.676883,54.105712],[-9.676812,54.105629],[-9.676896,54.105552],[-9.676897,54.105551],[-9.676936,54.105516],[-9.677287,54.105396],[-9.677406,54.105286],[-9.677351,54.105184],[-9.676965,54.105043],[-9.676089,54.104916],[-9.675898,54.1049],[-9.675894,54.1049],[-9.675739,54.104887],[-9.675595,54.104875],[-9.675578,54.104875],[-9.675104,54.104963],[-9.674879,54.105031],[-9.674313,54.105622],[-9.673804,54.106123]]],[[[-9.680092,54.10717],[-9.680007,54.107146],[-9.680011,54.107245],[-9.68047,54.107239],[-9.680481,54.107508],[-9.680818,54.107504],[-9.68061,54.107349],[-9.680413,54.107171],[-9.680354,54.107183],[-9.680244,54.107205],[-9.680092,54.10717]]],[[[-9.681121,54.107729],[-9.680943,54.107597],[-9.68095,54.107771],[-9.681172,54.107768],[-9.681121,54.107729]]],[[[-9.687742,54.112799],[-9.687572,54.11266],[-9.687578,54.112801],[-9.687742,54.112799]]],[[[-9.692384,54.116778],[-9.692327,54.116729],[-9.692329,54.116779],[-9.692384,54.116778]]],[[[-9.693126,54.117003],[-9.692795,54.116955],[-9.692798,54.117042],[-9.693169,54.117036],[-9.693126,54.117003]]],[[[-9.693737,54.117485],[-9.69326,54.117109],[-9.693301,54.118113],[-9.693312,54.118382],[-9.694229,54.118369],[-9.694218,54.1181],[-9.69376,54.118106],[-9.693749,54.117837],[-9.693738,54.117568],[-9.693836,54.117566],[-9.693737,54.117485]]],[[[-9.695391,54.118725],[-9.695155,54.118564],[-9.695158,54.118626],[-9.69424,54.118639],[-9.694262,54.119178],[-9.694721,54.119171],[-9.694732,54.119441],[-9.695191,54.119434],[-9.695202,54.119704],[-9.695213,54.119973],[-9.695224,54.120243],[-9.696141,54.12023],[-9.69613,54.11996],[-9.696518,54.119955],[-9.696424,54.119756],[-9.696242,54.119649],[-9.695792,54.119184],[-9.695606,54.118971],[-9.695391,54.118725]],[[-9.696119,54.119691],[-9.69613,54.11996],[-9.695671,54.119967],[-9.69566,54.119697],[-9.696119,54.119691]]],[[[-9.696682,54.120326],[-9.696596,54.120128],[-9.6966,54.120223],[-9.696611,54.120493],[-9.696622,54.120762],[-9.696763,54.12076],[-9.696755,54.12073],[-9.696693,54.120387],[-9.696682,54.120326]]],[[[-9.697152,54.121294],[-9.697101,54.121264],[-9.697103,54.121295],[-9.697152,54.121294]]],[[[-9.698604,54.122352],[-9.69852,54.122292],[-9.698523,54.122353],[-9.698604,54.122352]]],[[[-9.687354,54.129869],[-9.687812,54.129862],[-9.687809,54.129783],[-9.68735,54.12979],[-9.687354,54.129869]]],[[[-9.685177,54.132595],[-9.685628,54.132589],[-9.685625,54.13251],[-9.685166,54.132516],[-9.685177,54.132786],[-9.685184,54.132786],[-9.685177,54.132595]]],[[[-9.68147,54.132029],[-9.681474,54.132033],[-9.681473,54.132029],[-9.68147,54.132029]]],[[[-9.684069,54.128118],[-9.684528,54.128111],[-9.684521,54.127942],[-9.684062,54.127948],[-9.684069,54.128118]]],[[[-9.685009,54.128474],[-9.68502,54.128744],[-9.685472,54.128738],[-9.685461,54.128468],[-9.685009,54.128474]]],[[[-9.681537,54.118278],[-9.68157,54.119086],[-9.682326,54.119076],[-9.682315,54.118806],[-9.682304,54.118537],[-9.681845,54.118543],[-9.681834,54.118274],[-9.681537,54.118278]]],[[[-9.686159,54.119104],[-9.686177,54.119561],[-9.687393,54.119544],[-9.687382,54.119274],[-9.687841,54.119268],[-9.687819,54.118729],[-9.68736,54.118736],[-9.687349,54.118466],[-9.686891,54.118473],[-9.68688,54.118203],[-9.686421,54.11821],[-9.686377,54.117132],[-9.686366,54.116862],[-9.685908,54.116869],[-9.685897,54.116599],[-9.686355,54.116593],[-9.686344,54.116323],[-9.686334,54.116054],[-9.685875,54.11606],[-9.685886,54.11633],[-9.68451,54.116349],[-9.684499,54.11608],[-9.68404,54.116086],[-9.684018,54.115547],[-9.68356,54.115553],[-9.683549,54.115284],[-9.68309,54.11529],[-9.683068,54.114752],[-9.68261,54.114758],[-9.682599,54.114488],[-9.68214,54.114495],[-9.682129,54.114225],[-9.681671,54.114232],[-9.681682,54.114501],[-9.681223,54.114508],[-9.681245,54.115047],[-9.681703,54.11504],[-9.681714,54.11531],[-9.682173,54.115303],[-9.682206,54.116112],[-9.682664,54.116105],[-9.682675,54.116375],[-9.682686,54.116644],[-9.682708,54.117183],[-9.683167,54.117177],[-9.683178,54.117446],[-9.683636,54.11744],[-9.683647,54.117709],[-9.684106,54.117703],[-9.684117,54.117972],[-9.684575,54.117966],[-9.684586,54.118227],[-9.684594,54.118227],[-9.684594,54.118235],[-9.685045,54.118229],[-9.685056,54.118498],[-9.685067,54.118768],[-9.685526,54.118761],[-9.685536,54.119031],[-9.68554,54.119112],[-9.686159,54.119104]]],[[[-9.700623,54.127664],[-9.700661,54.127648],[-9.700573,54.12758],[-9.700576,54.127661],[-9.700689,54.127671],[-9.700689,54.127671],[-9.700689,54.12767],[-9.700623,54.127664]]],[[[-9.689917,54.12517],[-9.689928,54.12544],[-9.690845,54.125427],[-9.690834,54.125157],[-9.690823,54.124888],[-9.690365,54.124894],[-9.690376,54.125164],[-9.689917,54.12517]]],[[[-9.685842,54.115252],[-9.686301,54.115245],[-9.686279,54.114707],[-9.68582,54.114713],[-9.685842,54.115252]]],[[[-9.697114,54.121564],[-9.696655,54.121571],[-9.696666,54.12184],[-9.697125,54.121834],[-9.697114,54.121564]]],[[[-9.695279,54.12159],[-9.69482,54.121596],[-9.694831,54.121866],[-9.69529,54.121859],[-9.695279,54.12159]]],[[[-9.693444,54.121616],[-9.693433,54.121346],[-9.692974,54.121353],[-9.692985,54.121622],[-9.692526,54.121629],[-9.692537,54.121898],[-9.693455,54.121885],[-9.693444,54.121616]]],[[[-9.69173,54.124606],[-9.691719,54.124336],[-9.691708,54.124067],[-9.691249,54.124073],[-9.691238,54.123804],[-9.690779,54.12381],[-9.69079,54.12408],[-9.690801,54.124349],[-9.69126,54.124343],[-9.691271,54.124612],[-9.69173,54.124606]]],[[[-9.695367,54.123746],[-9.695356,54.123476],[-9.695814,54.12347],[-9.695803,54.1232],[-9.694886,54.123213],[-9.694897,54.123483],[-9.694908,54.123752],[-9.695367,54.123746]]],[[[-9.693958,54.122957],[-9.693499,54.122963],[-9.693488,54.122694],[-9.69257,54.122707],[-9.692559,54.122437],[-9.691642,54.12245],[-9.691653,54.122719],[-9.691194,54.122726],[-9.691216,54.123265],[-9.693969,54.123226],[-9.693958,54.122957]]],[[[-9.694405,54.122681],[-9.69624,54.122655],[-9.696218,54.122116],[-9.695301,54.122129],[-9.695312,54.122398],[-9.694394,54.122411],[-9.694405,54.122681]]],[[[-9.697616,54.122635],[-9.698075,54.122629],[-9.698064,54.12236],[-9.698053,54.12209],[-9.697594,54.122097],[-9.697616,54.122635]]],[[[-9.685122,54.131439],[-9.685133,54.131708],[-9.685592,54.131702],[-9.685581,54.131432],[-9.68557,54.131163],[-9.685111,54.131169],[-9.685122,54.131439]]],[[[-9.684674,54.131714],[-9.684685,54.131984],[-9.685144,54.131977],[-9.685133,54.131708],[-9.684674,54.131714]]],[[[-9.684226,54.13199],[-9.684237,54.13226],[-9.684696,54.132253],[-9.684685,54.131984],[-9.684226,54.13199]]],[[[-9.684248,54.132529],[-9.684237,54.13226],[-9.683778,54.132266],[-9.683789,54.132536],[-9.684248,54.132529]]],[[[-9.687776,54.128975],[-9.687765,54.128705],[-9.687755,54.128436],[-9.687296,54.128442],[-9.687307,54.128712],[-9.687318,54.128981],[-9.687776,54.128975]]],[[[-9.682883,54.132818],[-9.682894,54.133087],[-9.683352,54.133081],[-9.683341,54.132812],[-9.682883,54.132818]]]]}}]}
