{"type":"FeatureCollection","features":[{"type":"Feature","properties":{"source_fid":2631185,"county":"Mayo","bog_geom_ha":124.68553536762889,"low15_pct":99.637418419144311,"low15_ha":124.23344858239456,"overlay_ha":124.17867441026,"area_delta":-0.054774172134557375},"geometry":{"type":"MultiPolygon","coordinates":[[[[-9.454277,54.071677],[-9.454559,54.07155],[-9.454745,54.071452],[-9.454745,54.071452],[-9.454752,54.071437],[-9.454865,54.071279],[-9.455097,54.070845],[-9.455143,54.070776],[-9.455201,54.070701],[-9.455237,54.070637],[-9.455263,54.070614],[-9.455254,54.070587],[-9.455252,54.070554],[-9.455281,54.070515],[-9.455294,54.070458],[-9.455311,54.070395],[-9.455305,54.070361],[-9.455349,54.070309],[-9.455382,54.070268],[-9.45539,54.0702],[-9.455376,54.070146],[-9.455315,54.070055],[-9.455291,54.07003],[-9.455282,54.069997],[-9.455246,54.06997],[-9.455219,54.069951],[-9.455232,54.069905],[-9.455279,54.069828],[-9.455342,54.069707],[-9.455376,54.069603],[-9.455365,54.069516],[-9.455341,54.069424],[-9.455362,54.069358],[-9.455443,54.069285],[-9.455524,54.069209],[-9.455589,54.069136],[-9.455619,54.069027],[-9.455659,54.068882],[-9.455697,54.068791],[-9.455716,54.068712],[-9.455699,54.068658],[-9.45568,54.068589],[-9.4557,54.068514],[-9.455721,54.068462],[-9.455805,54.068382],[-9.455894,54.06831],[-9.455947,54.068195],[-9.455969,54.068088],[-9.456002,54.06798],[-9.456026,54.067896],[-9.456066,54.067852],[-9.456078,54.067778],[-9.456047,54.067684],[-9.456064,54.067639],[-9.456389,54.067462],[-9.456478,54.067386],[-9.456536,54.067306],[-9.456594,54.067159],[-9.456664,54.067074],[-9.456883,54.066937],[-9.45722,54.066587],[-9.457571,54.066378],[-9.457849,54.066252],[-9.458043,54.066151],[-9.458234,54.066058],[-9.458458,54.065921],[-9.458575,54.065879],[-9.458853,54.065773],[-9.459457,54.065496],[-9.459662,54.065405],[-9.459843,54.065324],[-9.462478,54.06639],[-9.462469,54.066141],[-9.462927,54.066135],[-9.462937,54.066405],[-9.463395,54.066399],[-9.463404,54.066669],[-9.463173,54.066671],[-9.463366,54.066749],[-9.463588,54.066729],[-9.4636,54.066727],[-9.463692,54.066719],[-9.464336,54.066603],[-9.464501,54.066739],[-9.464783,54.066804],[-9.464675,54.066494],[-9.464967,54.066429],[-9.465343,54.066324],[-9.465502,54.066049],[-9.465523,54.066012],[-9.465686,54.06566],[-9.465892,54.06513],[-9.466072,54.064787],[-9.466202,54.06451],[-9.466202,54.06451],[-9.465795,54.064463],[-9.465685,54.064451],[-9.465555,54.064438],[-9.46552,54.064435],[-9.465522,54.064489],[-9.465115,54.064494],[-9.464763,54.064946],[-9.464029,54.064508],[-9.462468,54.064527],[-9.462449,54.063984],[-9.462393,54.063985],[-9.462384,54.063715],[-9.46244,54.063715],[-9.462437,54.063628],[-9.463963,54.06361],[-9.463932,54.062712],[-9.465458,54.062693],[-9.465474,54.063139],[-9.46603,54.063132],[-9.466038,54.06337],[-9.466096,54.063313],[-9.466223,54.063223],[-9.466433,54.06317],[-9.466491,54.063155],[-9.466599,54.063162],[-9.466632,54.063144],[-9.466656,54.063074],[-9.466674,54.063037],[-9.466913,54.062952],[-9.466928,54.062944],[-9.466941,54.062938],[-9.466956,54.062932],[-9.466962,54.062929],[-9.466981,54.062908],[-9.466994,54.062839],[-9.466987,54.062819],[-9.466993,54.062787],[-9.466984,54.062757],[-9.467015,54.062707],[-9.467087,54.062654],[-9.467094,54.062597],[-9.467134,54.06257],[-9.46719,54.062534],[-9.467239,54.062506],[-9.467253,54.062483],[-9.467253,54.062483],[-9.467253,54.062483],[-9.467253,54.062483],[-9.46729,54.062466],[-9.46731,54.062449],[-9.467336,54.06241],[-9.467372,54.062346],[-9.467442,54.062285],[-9.467492,54.06225],[-9.467554,54.062208],[-9.467576,54.062179],[-9.467615,54.062128],[-9.467637,54.062109],[-9.467637,54.062109],[-9.467637,54.062109],[-9.467716,54.062077],[-9.467787,54.062052],[-9.467857,54.061996],[-9.467884,54.061955],[-9.46789,54.061919],[-9.467951,54.061855],[-9.468017,54.061723],[-9.468059,54.061662],[-9.468173,54.061576],[-9.468268,54.061513],[-9.468357,54.061434],[-9.468357,54.061434],[-9.468357,54.061434],[-9.468458,54.061396],[-9.468516,54.061334],[-9.468521,54.061235],[-9.468578,54.060878],[-9.468643,54.060436],[-9.468682,54.060034],[-9.468718,54.059702],[-9.468753,54.059432],[-9.46877,54.059334],[-9.469067,54.059132],[-9.46924,54.059032],[-9.469321,54.058997],[-9.469917,54.058706],[-9.470804,54.058265],[-9.470849,54.058201],[-9.471052,54.05839],[-9.470502,54.058868],[-9.470802,54.059521],[-9.473598,54.056834],[-9.473598,54.056834],[-9.473598,54.056834],[-9.473448,54.056751],[-9.473438,54.056745],[-9.473099,54.056585],[-9.472901,54.056495],[-9.472585,54.05636],[-9.472098,54.056149],[-9.471955,54.056077],[-9.471955,54.056077],[-9.471932,54.056069],[-9.471641,54.055986],[-9.471368,54.055919],[-9.471259,54.055896],[-9.470922,54.055812],[-9.470213,54.055619],[-9.470114,54.055571],[-9.469976,54.055533],[-9.469829,54.055487],[-9.469622,54.055392],[-9.469054,54.055089],[-9.468444,54.054741],[-9.467954,54.054473],[-9.467508,54.054254],[-9.467508,54.054254],[-9.467459,54.054234],[-9.466769,54.054723],[-9.466626,54.054806],[-9.466243,54.05508],[-9.46664,54.055209],[-9.466817,54.055279],[-9.466646,54.055392],[-9.466339,54.055647],[-9.465571,54.05621],[-9.464692,54.056819],[-9.464133,54.057318],[-9.463752,54.057677],[-9.463484,54.057936],[-9.462924,54.058447],[-9.462361,54.058993],[-9.461867,54.05928],[-9.461067,54.059728],[-9.460379,54.060106],[-9.459761,54.060455],[-9.459314,54.06071],[-9.45927,54.060672],[-9.4592,54.060611],[-9.459161,54.060576],[-9.459134,54.060596],[-9.459518,54.060921],[-9.45971,54.061077],[-9.460172,54.061407],[-9.460277,54.06149],[-9.460678,54.06175],[-9.461021,54.061924],[-9.461295,54.062077],[-9.461273,54.062096],[-9.460974,54.062342],[-9.460784,54.062536],[-9.460688,54.06269],[-9.460294,54.062987],[-9.459995,54.06296],[-9.459095,54.062872],[-9.45825,54.062799],[-9.457769,54.062544],[-9.457291,54.063165],[-9.456945,54.063622],[-9.456883,54.063719],[-9.456849,54.063838],[-9.45649,54.064297],[-9.456245,54.064694],[-9.455913,54.065149],[-9.455476,54.065606],[-9.45529,54.066063],[-9.45511,54.066204],[-9.455005,54.066361],[-9.452088,54.06455],[-9.451242,54.064],[-9.448247,54.062056],[-9.448065,54.062216],[-9.447581,54.062584],[-9.446999,54.063104],[-9.446621,54.063413],[-9.446057,54.063833],[-9.445881,54.063875],[-9.4451,54.064477],[-9.445288,54.06478],[-9.445199,54.064912],[-9.445223,54.065078],[-9.445158,54.065348],[-9.445007,54.065791],[-9.444869,54.066167],[-9.444605,54.066686],[-9.444524,54.066845],[-9.444083,54.067714],[-9.443988,54.067967],[-9.443963,54.068012],[-9.443991,54.068021],[-9.444009,54.068043],[-9.444035,54.068064],[-9.44401,54.068093],[-9.443954,54.068111],[-9.443904,54.068117],[-9.443705,54.06847],[-9.443522,54.068825],[-9.443462,54.068917],[-9.443462,54.068917],[-9.443462,54.068917],[-9.443411,54.069038],[-9.443393,54.06908],[-9.443296,54.069311],[-9.44353,54.069422],[-9.443582,54.069447],[-9.443841,54.069569],[-9.443849,54.069575],[-9.443849,54.069575],[-9.443968,54.069619],[-9.444117,54.069705],[-9.444184,54.069791],[-9.444194,54.069819],[-9.444194,54.069819],[-9.444214,54.069833],[-9.444212,54.069874],[-9.444325,54.070207],[-9.44433,54.070308],[-9.444154,54.07048],[-9.444034,54.070577],[-9.444034,54.070577],[-9.444034,54.070577],[-9.443906,54.070632],[-9.443857,54.070653],[-9.443922,54.070699],[-9.443991,54.070742],[-9.444056,54.070783],[-9.444261,54.070862],[-9.444352,54.070886],[-9.444426,54.070905],[-9.444751,54.070989],[-9.444762,54.070991],[-9.44476,54.070938],[-9.445219,54.070933],[-9.445224,54.071078],[-9.445263,54.071083],[-9.445573,54.071125],[-9.445876,54.071142],[-9.446183,54.071152],[-9.446394,54.071157],[-9.446512,54.071159],[-9.446515,54.071159],[-9.446517,54.071159],[-9.44652,54.071159],[-9.446692,54.071173],[-9.446893,54.071188],[-9.447277,54.07121],[-9.447278,54.07121],[-9.44728,54.07121],[-9.447281,54.07121],[-9.447776,54.071256],[-9.447776,54.071256],[-9.447777,54.071256],[-9.447778,54.071256],[-9.448207,54.071303],[-9.448208,54.071303],[-9.448453,54.07133],[-9.448455,54.071331],[-9.448458,54.071331],[-9.448461,54.071332],[-9.448668,54.071369],[-9.448671,54.07137],[-9.448674,54.071371],[-9.448677,54.071371],[-9.448902,54.071431],[-9.448904,54.071432],[-9.448906,54.071433],[-9.448908,54.071433],[-9.44902,54.071471],[-9.449024,54.071472],[-9.449027,54.071474],[-9.44903,54.071475],[-9.449117,54.071517],[-9.449119,54.071518],[-9.449121,54.071519],[-9.449123,54.071521],[-9.449274,54.071613],[-9.449426,54.07167],[-9.449551,54.071687],[-9.449645,54.071695],[-9.449647,54.071695],[-9.449649,54.071695],[-9.449652,54.071695],[-9.449782,54.071712],[-9.449784,54.071712],[-9.449785,54.071713],[-9.449787,54.071713],[-9.449942,54.071739],[-9.449991,54.071747],[-9.450188,54.071772],[-9.450331,54.071784],[-9.450437,54.071773],[-9.45062,54.071754],[-9.450625,54.071754],[-9.450629,54.071754],[-9.450634,54.071754],[-9.450888,54.071756],[-9.451098,54.071755],[-9.451104,54.071755],[-9.45111,54.071755],[-9.451115,54.071756],[-9.451247,54.071773],[-9.451257,54.071774],[-9.451311,54.071781],[-9.451312,54.071782],[-9.451313,54.071782],[-9.451314,54.071782],[-9.451451,54.071803],[-9.45165,54.0718],[-9.45165,54.0718],[-9.451651,54.0718],[-9.451654,54.0718],[-9.451656,54.0718],[-9.451657,54.0718],[-9.451657,54.0718],[-9.45166,54.0718],[-9.451662,54.071801],[-9.451663,54.071801],[-9.451664,54.071801],[-9.451783,54.071812],[-9.451833,54.071816],[-9.451838,54.071817],[-9.451843,54.071818],[-9.451848,54.071819],[-9.451855,54.07182],[-9.452032,54.071859],[-9.452031,54.071841],[-9.454167,54.071815],[-9.454155,54.071773],[-9.454155,54.071773],[-9.454155,54.071773],[-9.454192,54.071711],[-9.454277,54.071677]],[[-9.461935,54.06399],[-9.462393,54.063985],[-9.462403,54.064254],[-9.461945,54.06426],[-9.461935,54.06399]],[[-9.472701,54.057389],[-9.472243,54.057394],[-9.472234,54.057125],[-9.472692,54.057119],[-9.472701,54.057389]]],[[[-9.466006,54.063436],[-9.466023,54.063401],[-9.465497,54.063408],[-9.465574,54.063442],[-9.465821,54.063565],[-9.465872,54.063513],[-9.465966,54.063487],[-9.466006,54.063436]]],[[[-9.462526,54.06641],[-9.462943,54.066578],[-9.462937,54.066405],[-9.462526,54.06641]]]]}}]}
