{"type":"FeatureCollection","features":[{"type":"Feature","properties":{"source_fid":2632037,"county":"Mayo","bog_geom_ha":382.27516301763944,"low15_pct":76.423340420505554,"low15_ha":292.14744917601314,"overlay_ha":291.59954605272526,"area_delta":-0.54790312328788104},"geometry":{"type":"MultiPolygon","coordinates":[[[[-9.971508,53.96215],[-9.971485,53.962094],[-9.971453,53.962013],[-9.970849,53.962023],[-9.970848,53.96199],[-9.970595,53.96202],[-9.970254,53.962026],[-9.969962,53.961981],[-9.969829,53.961956],[-9.969388,53.961875],[-9.9687,53.961907],[-9.968674,53.962291],[-9.967103,53.962456],[-9.966951,53.962344],[-9.967109,53.962077],[-9.967175,53.96196],[-9.967266,53.961848],[-9.967397,53.961713],[-9.967626,53.961517],[-9.967791,53.961378],[-9.967967,53.961275],[-9.968089,53.961227],[-9.968218,53.96119],[-9.968381,53.961148],[-9.968567,53.961119],[-9.968704,53.961092],[-9.96871,53.961256],[-9.968934,53.961241],[-9.969562,53.961182],[-9.969602,53.961178],[-9.969604,53.961145],[-9.969285,53.96115],[-9.969277,53.960994],[-9.96914,53.960999],[-9.969056,53.961001],[-9.968815,53.96103],[-9.96873,53.961044],[-9.968707,53.960961],[-9.968666,53.960918],[-9.968667,53.960848],[-9.968512,53.960646],[-9.968886,53.960574],[-9.968729,53.960283],[-9.968725,53.960261],[-9.96745,53.960282],[-9.96726,53.960345],[-9.967226,53.960286],[-9.966466,53.960298],[-9.966494,53.960341],[-9.966605,53.960467],[-9.966728,53.960598],[-9.96685,53.960688],[-9.967034,53.960832],[-9.966665,53.961156],[-9.966117,53.961382],[-9.965834,53.9615],[-9.965728,53.961376],[-9.965528,53.961146],[-9.965325,53.960925],[-9.965116,53.960724],[-9.965101,53.960714],[-9.965059,53.960687],[-9.964889,53.960408],[-9.964482,53.960049],[-9.96409,53.960185],[-9.963403,53.960422],[-9.963805,53.960787],[-9.963632,53.960865],[-9.963573,53.960912],[-9.963471,53.960987],[-9.963193,53.961119],[-9.962632,53.960677],[-9.962214,53.960846],[-9.961753,53.960782],[-9.961736,53.960765],[-9.961902,53.960942],[-9.96126,53.961147],[-9.960661,53.960555],[-9.961262,53.960318],[-9.961287,53.960308],[-9.96149,53.960231],[-9.961569,53.960201],[-9.96179,53.960116],[-9.961837,53.960098],[-9.961935,53.960061],[-9.961973,53.960046],[-9.961928,53.959999],[-9.961914,53.959984],[-9.961843,53.959982],[-9.961318,53.960102],[-9.960902,53.960178],[-9.960209,53.960273],[-9.959334,53.960379],[-9.959316,53.960381],[-9.958774,53.960456],[-9.958255,53.960527],[-9.957994,53.960559],[-9.957929,53.960566],[-9.957786,53.960361],[-9.957739,53.960283],[-9.957632,53.960108],[-9.957463,53.959855],[-9.957603,53.959782],[-9.957663,53.959762],[-9.957717,53.959744],[-9.95774,53.959542],[-9.957563,53.959545],[-9.957571,53.959573],[-9.957462,53.959674],[-9.95738,53.959702],[-9.95721,53.959748],[-9.956934,53.959774],[-9.956858,53.959757],[-9.956693,53.959715],[-9.956665,53.959693],[-9.956611,53.959573],[-9.956549,53.959561],[-9.956417,53.959564],[-9.956361,53.959572],[-9.956254,53.959612],[-9.956209,53.959621],[-9.956132,53.959622],[-9.956065,53.959603],[-9.956003,53.95957],[-9.955871,53.959572],[-9.955827,53.959598],[-9.9558,53.959628],[-9.955748,53.959643],[-9.955672,53.959644],[-9.955534,53.959607],[-9.955499,53.95961],[-9.955518,53.96003],[-9.955565,53.960035],[-9.955986,53.960149],[-9.957697,53.960618],[-9.957671,53.96062],[-9.95733,53.960668],[-9.957125,53.960696],[-9.956364,53.960829],[-9.955853,53.960924],[-9.955878,53.96096],[-9.955955,53.961072],[-9.956071,53.961327],[-9.956089,53.961385],[-9.955701,53.961431],[-9.955207,53.961478],[-9.954984,53.961495],[-9.954793,53.96151],[-9.954213,53.96157],[-9.954153,53.961589],[-9.95417,53.961632],[-9.953604,53.961708],[-9.953179,53.961772],[-9.952937,53.961794],[-9.952774,53.961838],[-9.952734,53.961918],[-9.952591,53.962058],[-9.952567,53.962091],[-9.952603,53.962848],[-9.953324,53.962775],[-9.954167,53.962688],[-9.954619,53.962646],[-9.954622,53.962672],[-9.954626,53.962729],[-9.954644,53.96285],[-9.954631,53.963282],[-9.954633,53.963742],[-9.954628,53.964337],[-9.954631,53.964648],[-9.954556,53.964654],[-9.954416,53.964659],[-9.95429,53.964664],[-9.954102,53.96467],[-9.953575,53.964685],[-9.953187,53.964695],[-9.952781,53.964704],[-9.952508,53.964707],[-9.952144,53.964721],[-9.951799,53.964728],[-9.95161,53.964727],[-9.951617,53.9648],[-9.951703,53.965125],[-9.951715,53.965521],[-9.951883,53.965927],[-9.952746,53.965913],[-9.952785,53.966759],[-9.953961,53.966551],[-9.954271,53.96651],[-9.955021,53.966396],[-9.955033,53.966395],[-9.955125,53.96654],[-9.955231,53.966691],[-9.955319,53.966869],[-9.955374,53.966911],[-9.955412,53.966981],[-9.955435,53.967038],[-9.95551,53.967175],[-9.955588,53.967317],[-9.955678,53.967436],[-9.955727,53.967485],[-9.955868,53.967792],[-9.956365,53.968561],[-9.956488,53.96876],[-9.95668,53.969072],[-9.956705,53.969112],[-9.956894,53.969427],[-9.956902,53.969439],[-9.957055,53.969682],[-9.957312,53.970004],[-9.957376,53.970085],[-9.958905,53.969838],[-9.959005,53.969825],[-9.959874,53.969717],[-9.95988,53.969716],[-9.960043,53.969691],[-9.960968,53.969546],[-9.961374,53.969488],[-9.961948,53.969405],[-9.962053,53.969389],[-9.962051,53.969356],[-9.962506,53.969348],[-9.962517,53.969348],[-9.962532,53.968187],[-9.962774,53.968153],[-9.963524,53.968118],[-9.96383,53.968111],[-9.963779,53.968381],[-9.963737,53.968622],[-9.963648,53.969194],[-9.963735,53.969182],[-9.964085,53.969135],[-9.96495,53.968993],[-9.96498,53.968988],[-9.965081,53.96897],[-9.965055,53.968408],[-9.96706,53.968375],[-9.967499,53.968194],[-9.967658,53.968133],[-9.967896,53.967981],[-9.968078,53.967885],[-9.968058,53.967461],[-9.969581,53.967436],[-9.969623,53.968333],[-9.969668,53.968333],[-9.969704,53.968277],[-9.969679,53.968199],[-9.969703,53.968145],[-9.969785,53.968102],[-9.969943,53.968074],[-9.970067,53.96809],[-9.970323,53.967962],[-9.970554,53.968092],[-9.970734,53.968193],[-9.970961,53.968311],[-9.983329,53.968108],[-9.983346,53.968475],[-9.983815,53.968468],[-9.983878,53.968467],[-9.984218,53.968461],[-9.984671,53.968451],[-9.984774,53.968449],[-9.98528,53.968457],[-9.98602,53.968472],[-9.986165,53.968466],[-9.986299,53.968461],[-9.986563,53.968457],[-9.987087,53.968468],[-9.987436,53.968444],[-9.987934,53.968443],[-9.988849,53.968433],[-9.989429,53.968415],[-9.989789,53.968429],[-9.990274,53.968404],[-9.991,53.968408],[-9.991527,53.968402],[-9.992068,53.96839],[-9.992367,53.96839],[-9.992529,53.968385],[-9.99295,53.968413],[-9.993321,53.968426],[-9.993539,53.968433],[-9.993682,53.968446],[-9.993681,53.968433],[-9.993641,53.96838],[-9.99356,53.968283],[-9.993383,53.968164],[-9.993283,53.968082],[-9.99315,53.967972],[-9.993009,53.967893],[-9.992904,53.967816],[-9.992835,53.967767],[-9.992659,53.967634],[-9.992597,53.967609],[-9.992548,53.967426],[-9.992546,53.96738],[-9.992563,53.967294],[-9.992601,53.967231],[-9.992626,53.967194],[-9.992706,53.967093],[-9.9928,53.966939],[-9.992751,53.966888],[-9.992733,53.96683],[-9.992822,53.966677],[-9.992855,53.966573],[-9.992813,53.966465],[-9.992782,53.966363],[-9.992771,53.966296],[-9.992783,53.966217],[-9.992864,53.966194],[-9.992921,53.966204],[-9.992975,53.966233],[-9.993085,53.966296],[-9.993218,53.966325],[-9.993326,53.966355],[-9.993448,53.966398],[-9.993484,53.966438],[-9.993487,53.966479],[-9.993577,53.966477],[-9.993658,53.966455],[-9.993807,53.966443],[-9.993882,53.966448],[-9.994035,53.966405],[-9.994111,53.966358],[-9.99424,53.966303],[-9.994372,53.966254],[-9.994476,53.96624],[-9.994608,53.966193],[-9.994741,53.966181],[-9.994837,53.966215],[-9.994884,53.96622],[-9.994926,53.966143],[-9.995003,53.966051],[-9.995213,53.965744],[-9.995431,53.965428],[-9.995603,53.965198],[-9.99571,53.965055],[-9.995737,53.965027],[-9.995804,53.964914],[-9.99589,53.964774],[-9.99604,53.964542],[-9.996119,53.964429],[-9.996148,53.96437],[-9.996313,53.964124],[-9.996496,53.963921],[-9.99665,53.963686],[-9.996756,53.963537],[-9.996941,53.963274],[-9.996112,53.963288],[-9.996099,53.963019],[-9.996086,53.962749],[-9.995629,53.962757],[-9.995616,53.962488],[-9.995159,53.962495],[-9.995147,53.962226],[-9.993319,53.962256],[-9.993332,53.962526],[-9.992875,53.962533],[-9.992862,53.962264],[-9.992849,53.961994],[-9.992836,53.961725],[-9.99238,53.961732],[-9.992354,53.961194],[-9.991897,53.961201],[-9.991884,53.960932],[-9.991427,53.960939],[-9.991402,53.960401],[-9.990945,53.960408],[-9.990932,53.960139],[-9.991389,53.960131],[-9.991376,53.959862],[-9.990919,53.959869],[-9.990893,53.95933],[-9.990437,53.959338],[-9.990424,53.959069],[-9.989967,53.959076],[-9.98998,53.959346],[-9.989523,53.959353],[-9.989549,53.959892],[-9.989574,53.960431],[-9.989117,53.960438],[-9.98913,53.960708],[-9.988673,53.960715],[-9.98866,53.960446],[-9.988204,53.960454],[-9.988178,53.959915],[-9.988635,53.959907],[-9.988609,53.959368],[-9.988596,53.959099],[-9.98814,53.959106],[-9.988152,53.959376],[-9.987695,53.959383],[-9.987708,53.959653],[-9.987251,53.95966],[-9.987264,53.95993],[-9.986807,53.959937],[-9.98682,53.960207],[-9.986363,53.960214],[-9.986376,53.960484],[-9.985919,53.960491],[-9.985932,53.960761],[-9.985475,53.960768],[-9.985501,53.961307],[-9.985044,53.961315],[-9.985057,53.961584],[-9.984143,53.961599],[-9.984156,53.961869],[-9.982328,53.961899],[-9.982341,53.962168],[-9.981748,53.962178],[-9.981798,53.962215],[-9.98186,53.962289],[-9.981877,53.962397],[-9.981851,53.962511],[-9.981801,53.962652],[-9.981583,53.962762],[-9.981151,53.962793],[-9.9809,53.962811],[-9.980896,53.962904],[-9.980838,53.962935],[-9.980819,53.962945],[-9.980555,53.962991],[-9.980324,53.963007],[-9.980203,53.963004],[-9.980031,53.962991],[-9.979752,53.962977],[-9.979325,53.962937],[-9.979315,53.96298],[-9.979273,53.96318],[-9.979186,53.963535],[-9.979133,53.963735],[-9.979117,53.963798],[-9.978868,53.963888],[-9.978554,53.963988],[-9.97827,53.964083],[-9.977767,53.964237],[-9.97771,53.964252],[-9.97761,53.964163],[-9.977275,53.96385],[-9.977212,53.963882],[-9.977412,53.96406],[-9.977444,53.964088],[-9.977149,53.964315],[-9.977074,53.964267],[-9.977006,53.964164],[-9.97693,53.964026],[-9.976448,53.963941],[-9.976238,53.963897],[-9.976041,53.963866],[-9.975934,53.963862],[-9.975915,53.963864],[-9.975829,53.963873],[-9.97567,53.963927],[-9.975396,53.963893],[-9.975343,53.963896],[-9.975266,53.963884],[-9.975166,53.963889],[-9.975021,53.963831],[-9.974927,53.963771],[-9.974817,53.963732],[-9.974723,53.96372],[-9.974572,53.963726],[-9.974498,53.963707],[-9.974291,53.963616],[-9.973248,53.963848],[-9.973122,53.963803],[-9.972488,53.963977],[-9.972382,53.964011],[-9.972201,53.964097],[-9.971798,53.964066],[-9.971697,53.964147],[-9.971654,53.964174],[-9.971579,53.964113],[-9.971488,53.964154],[-9.971459,53.964169],[-9.97121,53.964296],[-9.970879,53.96445],[-9.970532,53.964611],[-9.970312,53.964707],[-9.970212,53.964537],[-9.970051,53.964256],[-9.969886,53.963947],[-9.970264,53.963819],[-9.970846,53.963604],[-9.971388,53.963413],[-9.971521,53.963357],[-9.971429,53.963269],[-9.971235,53.963083],[-9.971219,53.963071],[-9.971142,53.962967],[-9.971044,53.962833],[-9.971748,53.962598],[-9.971764,53.962592],[-9.971603,53.962268],[-9.971508,53.96215]],[[-9.975608,53.963992],[-9.97567,53.963927],[-9.976852,53.964187],[-9.976879,53.964154],[-9.976907,53.964117],[-9.976925,53.964147],[-9.977008,53.964283],[-9.977107,53.964347],[-9.976969,53.964454],[-9.976756,53.964311],[-9.976633,53.964475],[-9.976082,53.964322],[-9.975597,53.96419],[-9.975608,53.963992]],[[-9.978501,53.964264],[-9.978896,53.964198],[-9.979361,53.964543],[-9.97837,53.964801],[-9.978132,53.964619],[-9.977898,53.964417],[-9.97795,53.964403],[-9.978315,53.964316],[-9.978501,53.964264]],[[-9.984114,53.967214],[-9.983829,53.967244],[-9.984196,53.967859],[-9.983425,53.96791],[-9.983186,53.967918],[-9.982277,53.967956],[-9.982182,53.967962],[-9.982144,53.96792],[-9.981995,53.967771],[-9.981726,53.967503],[-9.981551,53.967344],[-9.981388,53.967195],[-9.981359,53.96717],[-9.98107,53.966918],[-9.981195,53.966912],[-9.981114,53.966838],[-9.981093,53.966818],[-9.981038,53.966762],[-9.980721,53.966493],[-9.980645,53.966444],[-9.980783,53.966422],[-9.981163,53.966399],[-9.981322,53.966387],[-9.981705,53.966359],[-9.982158,53.96633],[-9.982491,53.966309],[-9.982475,53.966217],[-9.982874,53.966192],[-9.982931,53.966211],[-9.982936,53.96625],[-9.982892,53.966494],[-9.982885,53.966657],[-9.982869,53.966772],[-9.982863,53.966825],[-9.983282,53.966811],[-9.98378,53.966788],[-9.984114,53.967214]],[[-9.992444,53.96308],[-9.992901,53.963072],[-9.992926,53.963611],[-9.993383,53.963603],[-9.993409,53.964142],[-9.993448,53.96495],[-9.993461,53.96522],[-9.993917,53.965212],[-9.993943,53.965751],[-9.993029,53.965766],[-9.993004,53.965227],[-9.992991,53.964958],[-9.992534,53.964965],[-9.992495,53.964157],[-9.992038,53.964165],[-9.992013,53.963626],[-9.991556,53.963634],[-9.99153,53.963095],[-9.991073,53.963102],[-9.99106,53.962833],[-9.991048,53.962563],[-9.990591,53.962571],[-9.990578,53.962302],[-9.990121,53.962309],[-9.990108,53.96204],[-9.990095,53.96177],[-9.991009,53.961755],[-9.991022,53.962025],[-9.991479,53.962017],[-9.991492,53.962286],[-9.991948,53.962279],[-9.991961,53.962548],[-9.991974,53.962818],[-9.992431,53.96281],[-9.992444,53.96308]],[[-9.989715,53.963394],[-9.989703,53.963125],[-9.990159,53.963117],[-9.990172,53.963387],[-9.990629,53.963379],[-9.990642,53.963649],[-9.990655,53.963918],[-9.991112,53.963911],[-9.991125,53.96418],[-9.991137,53.964449],[-9.991594,53.964442],[-9.991607,53.964711],[-9.992064,53.964704],[-9.992077,53.964973],[-9.992103,53.965512],[-9.991646,53.965519],[-9.99162,53.964981],[-9.991163,53.964988],[-9.99115,53.964719],[-9.990693,53.964726],[-9.990681,53.964457],[-9.990668,53.964188],[-9.990211,53.964195],[-9.990198,53.963926],[-9.990185,53.963656],[-9.989728,53.963664],[-9.989715,53.963394]],[[-9.98969,53.962856],[-9.989703,53.963125],[-9.988332,53.963148],[-9.988345,53.963417],[-9.98606,53.963455],[-9.986047,53.963185],[-9.987418,53.963163],[-9.987405,53.962893],[-9.988776,53.962871],[-9.988763,53.962601],[-9.98922,53.962594],[-9.989233,53.962863],[-9.98969,53.962856]],[[-9.985603,53.963462],[-9.98606,53.963455],[-9.986073,53.963724],[-9.985616,53.963732],[-9.985603,53.963462]],[[-9.985971,53.961569],[-9.986427,53.961561],[-9.986453,53.9621],[-9.985996,53.962108],[-9.985971,53.961569]],[[-9.986479,53.962639],[-9.986466,53.96237],[-9.987837,53.962347],[-9.987824,53.962078],[-9.989194,53.962055],[-9.989207,53.962324],[-9.988293,53.962339],[-9.988306,53.962609],[-9.986479,53.962639]],[[-9.986568,53.964525],[-9.987025,53.964517],[-9.987051,53.965056],[-9.986594,53.965064],[-9.986568,53.964525]]],[[[-9.980389,53.962122],[-9.980509,53.96211],[-9.980501,53.961939],[-9.980408,53.961962],[-9.980348,53.961941],[-9.980342,53.961932],[-9.979988,53.961937],[-9.979997,53.96213],[-9.979998,53.962131],[-9.980103,53.962145],[-9.98016,53.962151],[-9.980389,53.962122]]],[[[-9.97874,53.961894],[-9.979127,53.961887],[-9.979117,53.961682],[-9.978453,53.961693],[-9.978458,53.96181],[-9.978488,53.961819],[-9.978665,53.961876],[-9.97874,53.961894]]],[[[-9.984169,53.953717],[-9.984198,53.954318],[-9.987909,53.954257],[-9.987922,53.954526],[-9.988179,53.954522],[-9.988184,53.954427],[-9.988155,53.954353],[-9.988069,53.954297],[-9.98804,53.954271],[-9.988115,53.954252],[-9.98815,53.954214],[-9.9881,53.954021],[-9.988085,53.953954],[-9.988169,53.953841],[-9.98829,53.953766],[-9.988377,53.953676],[-9.988482,53.953515],[-9.988602,53.953349],[-9.988743,53.953193],[-9.988706,53.953095],[-9.988817,53.953024],[-9.988806,53.952911],[-9.988707,53.952735],[-9.98868,53.952657],[-9.988684,53.952551],[-9.988747,53.952436],[-9.988854,53.952293],[-9.988839,53.952251],[-9.988873,53.952192],[-9.988949,53.952146],[-9.988896,53.952117],[-9.988899,53.952072],[-9.988958,53.952002],[-9.988932,53.95191],[-9.988934,53.951832],[-9.988908,53.951774],[-9.988881,53.95173],[-9.988949,53.951696],[-9.989018,53.951647],[-9.989024,53.951594],[-9.989083,53.951549],[-9.989117,53.9515],[-9.989199,53.951475],[-9.989326,53.951441],[-9.989397,53.951412],[-9.989437,53.951382],[-9.989468,53.951308],[-9.98948,53.951265],[-9.988224,53.951286],[-9.988237,53.951555],[-9.98825,53.951825],[-9.98551,53.95187],[-9.985497,53.9516],[-9.98504,53.951608],[-9.985027,53.951339],[-9.98457,53.951346],[-9.984558,53.951077],[-9.984101,53.951084],[-9.984114,53.951354],[-9.983657,53.951361],[-9.98367,53.951631],[-9.982547,53.951649],[-9.982562,53.951946],[-9.984084,53.951921],[-9.984169,53.953717]]],[[[-9.983967,53.949469],[-9.984019,53.950546],[-9.984989,53.95053],[-9.985002,53.9508],[-9.985915,53.950785],[-9.985928,53.951054],[-9.986841,53.951039],[-9.986829,53.95077],[-9.988656,53.950739],[-9.988643,53.95047],[-9.987729,53.950485],[-9.987716,53.950216],[-9.985889,53.950246],[-9.985877,53.949976],[-9.984506,53.949999],[-9.984494,53.94973],[-9.984037,53.949737],[-9.984024,53.949468],[-9.983967,53.949469]]],[[[-9.982306,53.946559],[-9.982432,53.949224],[-9.982641,53.949221],[-9.982628,53.948952],[-9.983542,53.948937],[-9.983529,53.948667],[-9.983986,53.94866],[-9.98396,53.948121],[-9.983947,53.947851],[-9.984404,53.947844],[-9.984378,53.947305],[-9.984835,53.947297],[-9.984822,53.947028],[-9.98481,53.946759],[-9.985266,53.946751],[-9.985254,53.946482],[-9.98571,53.946474],[-9.985697,53.946205],[-9.986154,53.946197],[-9.986129,53.945658],[-9.986116,53.945389],[-9.986572,53.945381],[-9.986547,53.944842],[-9.986521,53.944304],[-9.986978,53.944296],[-9.986952,53.943757],[-9.987409,53.94375],[-9.987435,53.944288],[-9.98746,53.944827],[-9.987003,53.944835],[-9.987029,53.945374],[-9.987042,53.945643],[-9.986585,53.945651],[-9.986611,53.946189],[-9.986624,53.946459],[-9.986167,53.946466],[-9.98618,53.946736],[-9.985723,53.946743],[-9.985736,53.947013],[-9.985279,53.94702],[-9.985292,53.94729],[-9.985318,53.947829],[-9.985774,53.947821],[-9.985761,53.947552],[-9.986218,53.947544],[-9.986205,53.947275],[-9.986662,53.947267],[-9.986636,53.946728],[-9.987093,53.946721],[-9.987068,53.946182],[-9.987055,53.945912],[-9.987511,53.945905],[-9.987499,53.945636],[-9.988412,53.94562],[-9.988425,53.94589],[-9.988438,53.946159],[-9.987981,53.946167],[-9.988007,53.946706],[-9.988032,53.947244],[-9.988489,53.947237],[-9.988476,53.946967],[-9.988933,53.94696],[-9.988907,53.946421],[-9.989364,53.946414],[-9.989351,53.946144],[-9.989325,53.945605],[-9.988869,53.945613],[-9.988856,53.945343],[-9.987942,53.945359],[-9.98793,53.945089],[-9.987917,53.94482],[-9.987891,53.944281],[-9.988348,53.944273],[-9.988322,53.943734],[-9.988284,53.942926],[-9.988271,53.942657],[-9.988258,53.942387],[-9.988715,53.94238],[-9.988702,53.94211],[-9.988689,53.941841],[-9.989146,53.941833],[-9.989107,53.941025],[-9.989082,53.940486],[-9.989056,53.939947],[-9.989513,53.93994],[-9.9895,53.939671],[-9.989957,53.939663],[-9.989944,53.939394],[-9.9904,53.939386],[-9.990388,53.939117],[-9.990844,53.939109],[-9.990831,53.93884],[-9.991745,53.938824],[-9.991732,53.938555],[-9.992034,53.93855],[-9.992029,53.938545],[-9.991988,53.938503],[-9.991941,53.938467],[-9.991833,53.938505],[-9.991242,53.93863],[-9.990973,53.938701],[-9.990766,53.938756],[-9.99052,53.938834],[-9.989844,53.939182],[-9.989485,53.939364],[-9.989487,53.939401],[-9.98941,53.939402],[-9.989381,53.939417],[-9.989089,53.939622],[-9.988805,53.93999],[-9.988814,53.940046],[-9.988847,53.940104],[-9.988817,53.940115],[-9.988607,53.940199],[-9.988473,53.940178],[-9.988343,53.940192],[-9.988092,53.940321],[-9.987816,53.94047],[-9.98749,53.940622],[-9.987058,53.940849],[-9.986876,53.940913],[-9.986669,53.941006],[-9.986345,53.941187],[-9.986296,53.941283],[-9.986135,53.941418],[-9.986077,53.941443],[-9.986016,53.941514],[-9.985964,53.941543],[-9.985828,53.941556],[-9.985647,53.941629],[-9.985547,53.941679],[-9.985451,53.941727],[-9.985416,53.941749],[-9.985431,53.941815],[-9.985428,53.941857],[-9.985318,53.941922],[-9.985238,53.942017],[-9.985165,53.942084],[-9.985127,53.94213],[-9.985107,53.942185],[-9.985072,53.942211],[-9.985063,53.942296],[-9.985017,53.942353],[-9.985014,53.942398],[-9.985033,53.94245],[-9.985012,53.942475],[-9.984948,53.942485],[-9.984902,53.94252],[-9.984894,53.942589],[-9.984901,53.94264],[-9.984895,53.942657],[-9.984813,53.942685],[-9.984662,53.942699],[-9.984566,53.942729],[-9.984491,53.94276],[-9.984389,53.94277],[-9.984291,53.942783],[-9.984188,53.942831],[-9.984052,53.942889],[-9.983957,53.94294],[-9.983863,53.942953],[-9.98378,53.942968],[-9.98367,53.943027],[-9.983588,53.943052],[-9.983448,53.943063],[-9.983391,53.943101],[-9.983335,53.943126],[-9.983261,53.94313],[-9.983198,53.94314],[-9.983166,53.943171],[-9.983148,53.943231],[-9.983109,53.943269],[-9.983044,53.943271],[-9.982984,53.943271],[-9.982918,53.943266],[-9.982869,53.943237],[-9.982829,53.943229],[-9.982814,53.943235],[-9.982781,53.943256],[-9.982743,53.943314],[-9.982703,53.943319],[-9.982624,53.943302],[-9.982573,53.943288],[-9.982504,53.943289],[-9.982438,53.943319],[-9.982335,53.943334],[-9.982282,53.943339],[-9.982163,53.943337],[-9.982099,53.943359],[-9.982023,53.94343],[-9.981924,53.943456],[-9.981852,53.943525],[-9.981823,53.943559],[-9.981757,53.943588],[-9.981727,53.943587],[-9.981671,53.943578],[-9.981619,53.943591],[-9.981573,53.943588],[-9.981475,53.943578],[-9.98138,53.943579],[-9.981344,53.943597],[-9.981328,53.94364],[-9.981303,53.9437],[-9.981256,53.943712],[-9.981136,53.943725],[-9.98111,53.943737],[-9.9811,53.943765],[-9.981113,53.943812],[-9.981085,53.943854],[-9.981038,53.943878],[-9.98089,53.943898],[-9.980766,53.943935],[-9.98058,53.943954],[-9.980524,53.943968],[-9.980486,53.944001],[-9.980444,53.944046],[-9.980409,53.944062],[-9.980331,53.944089],[-9.980274,53.944128],[-9.980267,53.94413],[-9.980177,53.944161],[-9.980113,53.944208],[-9.980019,53.944232],[-9.979936,53.944248],[-9.979856,53.944265],[-9.979731,53.944327],[-9.979681,53.944363],[-9.97963,53.944416],[-9.97959,53.944546],[-9.979552,53.944652],[-9.979507,53.944694],[-9.979458,53.944748],[-9.97936,53.944806],[-9.979251,53.944838],[-9.979195,53.944861],[-9.979124,53.944953],[-9.979072,53.94505],[-9.979008,53.945062],[-9.97899,53.945087],[-9.978908,53.945137],[-9.978812,53.945168],[-9.978695,53.945184],[-9.978613,53.945186],[-9.978541,53.945245],[-9.978431,53.945241],[-9.978406,53.945276],[-9.978328,53.945314],[-9.978238,53.945328],[-9.978166,53.945349],[-9.978065,53.945404],[-9.978015,53.945461],[-9.977917,53.945474],[-9.977852,53.945511],[-9.977794,53.945529],[-9.977758,53.945522],[-9.977611,53.945624],[-9.977437,53.945703],[-9.977407,53.945788],[-9.977351,53.945836],[-9.977282,53.945885],[-9.977245,53.945949],[-9.97718,53.946061],[-9.9771,53.946202],[-9.977021,53.946396],[-9.976932,53.946443],[-9.976797,53.946522],[-9.976582,53.946608],[-9.976457,53.946638],[-9.976339,53.946643],[-9.976262,53.946656],[-9.976233,53.9467],[-9.976198,53.946812],[-9.97615,53.946861],[-9.976099,53.946955],[-9.975983,53.947032],[-9.975889,53.947065],[-9.975816,53.947114],[-9.975576,53.947257],[-9.975416,53.947325],[-9.975415,53.947325],[-9.975227,53.94741],[-9.975152,53.947431],[-9.975136,53.947435],[-9.975092,53.947445],[-9.97512,53.947519],[-9.975178,53.947765],[-9.975233,53.947995],[-9.975238,53.948017],[-9.975285,53.948011],[-9.97556,53.947989],[-9.975979,53.947943],[-9.976292,53.947918],[-9.976875,53.948864],[-9.977181,53.949339],[-9.977867,53.949328],[-9.977825,53.94843],[-9.979347,53.948405],[-9.979304,53.947507],[-9.980827,53.947482],[-9.980784,53.946584],[-9.982306,53.946559]],[[-9.986939,53.943488],[-9.986952,53.943757],[-9.986039,53.943772],[-9.986052,53.944042],[-9.985138,53.944057],[-9.985126,53.943787],[-9.985582,53.94378],[-9.985569,53.94351],[-9.986939,53.943488]],[[-9.983781,53.944349],[-9.983794,53.944618],[-9.983337,53.944626],[-9.983324,53.944356],[-9.983299,53.943818],[-9.983755,53.94381],[-9.983743,53.943541],[-9.984656,53.943525],[-9.984669,53.943795],[-9.984212,53.943802],[-9.984238,53.944341],[-9.983781,53.944349]]],[[[-9.992853,53.939382],[-9.992817,53.939346],[-9.991314,53.939371],[-9.991326,53.93964],[-9.991339,53.93991],[-9.991365,53.940448],[-9.991822,53.940441],[-9.991847,53.94098],[-9.992304,53.940972],[-9.992342,53.94178],[-9.992355,53.94205],[-9.992812,53.942042],[-9.992825,53.942312],[-9.992838,53.942581],[-9.992381,53.942589],[-9.992394,53.942858],[-9.99148,53.942873],[-9.991468,53.942604],[-9.991011,53.942611],[-9.990998,53.942342],[-9.990541,53.94235],[-9.990529,53.94208],[-9.990516,53.941811],[-9.989603,53.941826],[-9.989615,53.942095],[-9.989159,53.942103],[-9.989172,53.942372],[-9.989184,53.942642],[-9.988728,53.942649],[-9.98874,53.942919],[-9.989197,53.942911],[-9.989236,53.943719],[-9.989692,53.943712],[-9.989718,53.944251],[-9.988805,53.944266],[-9.98883,53.944805],[-9.989287,53.944797],[-9.9893,53.945066],[-9.989756,53.945059],[-9.989769,53.945328],[-9.990226,53.945321],[-9.990239,53.94559],[-9.990695,53.945583],[-9.990721,53.946121],[-9.990264,53.946129],[-9.990277,53.946398],[-9.989821,53.946406],[-9.989846,53.946945],[-9.98939,53.946952],[-9.989402,53.947222],[-9.988946,53.947229],[-9.988958,53.947499],[-9.988502,53.947506],[-9.988515,53.947776],[-9.987601,53.947791],[-9.987614,53.94806],[-9.987157,53.948068],[-9.98717,53.948337],[-9.986713,53.948345],[-9.986726,53.948614],[-9.985813,53.948629],[-9.985838,53.949168],[-9.986752,53.949153],[-9.986765,53.949422],[-9.988135,53.9494],[-9.988148,53.949669],[-9.989061,53.949654],[-9.989048,53.949385],[-9.989505,53.949377],[-9.989492,53.949108],[-9.989949,53.9491],[-9.989936,53.948831],[-9.99085,53.948816],[-9.990837,53.948546],[-9.991293,53.948539],[-9.991281,53.948269],[-9.991737,53.948262],[-9.991712,53.947723],[-9.992168,53.947715],[-9.992155,53.947446],[-9.992612,53.947438],[-9.992599,53.947169],[-9.992586,53.946899],[-9.993043,53.946892],[-9.99303,53.946622],[-9.993487,53.946615],[-9.993474,53.946345],[-9.993461,53.946076],[-9.993918,53.946068],[-9.993905,53.945799],[-9.994362,53.945791],[-9.994349,53.945522],[-9.994336,53.945253],[-9.994793,53.945245],[-9.99478,53.944976],[-9.995237,53.944968],[-9.995224,53.944699],[-9.995681,53.944691],[-9.995628,53.943587],[-9.995513,53.943346],[-9.99516,53.943351],[-9.995147,53.943082],[-9.995121,53.942543],[-9.99512,53.942513],[-9.99509,53.942444],[-9.994975,53.942218],[-9.994881,53.941997],[-9.994811,53.941858],[-9.9947,53.941672],[-9.994578,53.941398],[-9.99432,53.940999],[-9.994109,53.940662],[-9.993865,53.940333],[-9.993794,53.940213],[-9.993385,53.939841],[-9.993193,53.939691],[-9.992853,53.939382]],[[-9.990644,53.944505],[-9.991101,53.944497],[-9.991114,53.944767],[-9.990657,53.944774],[-9.990644,53.944505]]],[[[-9.997078,53.944596],[-9.997047,53.944585],[-9.997051,53.944668],[-9.996594,53.944676],[-9.996607,53.944945],[-9.99615,53.944953],[-9.996163,53.945222],[-9.995706,53.94523],[-9.995719,53.945499],[-9.995262,53.945507],[-9.995275,53.945776],[-9.995288,53.946046],[-9.995745,53.946038],[-9.995732,53.945769],[-9.996189,53.945761],[-9.996202,53.94603],[-9.996214,53.9463],[-9.996227,53.946569],[-9.995771,53.946577],[-9.995783,53.946846],[-9.995796,53.947116],[-9.99534,53.947123],[-9.995365,53.947662],[-9.994909,53.94767],[-9.994921,53.947939],[-9.994934,53.948209],[-9.994478,53.948216],[-9.994503,53.948755],[-9.994047,53.948763],[-9.994059,53.949032],[-9.993603,53.94904],[-9.993616,53.949309],[-9.993159,53.949317],[-9.993172,53.949586],[-9.992715,53.949594],[-9.992717,53.949642],[-9.992727,53.949642],[-9.992829,53.949672],[-9.993047,53.94974],[-9.993222,53.949779],[-9.993363,53.949777],[-9.993526,53.949756],[-9.993926,53.94968],[-9.994089,53.949651],[-9.994085,53.949571],[-9.994646,53.949561],[-9.994708,53.949552],[-9.995355,53.949491],[-9.995569,53.949501],[-9.99589,53.949555],[-9.996018,53.949582],[-9.99602,53.949562],[-9.996027,53.949478],[-9.996028,53.949468],[-9.99608,53.949339],[-9.996117,53.949122],[-9.996177,53.948862],[-9.996236,53.948453],[-9.996352,53.948002],[-9.996411,53.947756],[-9.996494,53.94742],[-9.996537,53.947189],[-9.996593,53.947014],[-9.996612,53.946969],[-9.996636,53.946811],[-9.996639,53.946657],[-9.996704,53.946322],[-9.996739,53.946188],[-9.996789,53.945951],[-9.996917,53.945454],[-9.996966,53.945238],[-9.996979,53.945177],[-9.997014,53.945047],[-9.997048,53.944814],[-9.997078,53.944596]],[[-9.996645,53.945753],[-9.996189,53.945761],[-9.996176,53.945492],[-9.996633,53.945484],[-9.996645,53.945753]]],[[[-9.991681,53.949782],[-9.991809,53.949756],[-9.991801,53.949609],[-9.990888,53.949624],[-9.990901,53.949893],[-9.991181,53.949889],[-9.991346,53.949849],[-9.991535,53.949809],[-9.991681,53.949782]]],[[[-9.990439,53.950055],[-9.990451,53.950052],[-9.990444,53.949901],[-9.989987,53.949908],[-9.99,53.950178],[-9.990203,53.950174],[-9.990218,53.950161],[-9.990279,53.95012],[-9.990346,53.950088],[-9.990382,53.950073],[-9.990439,53.950055]]],[[[-9.99,53.950541],[-9.990016,53.950517],[-9.990013,53.950447],[-9.99,53.950178],[-9.989543,53.950185],[-9.989556,53.950455],[-9.9891,53.950462],[-9.989112,53.950732],[-9.988656,53.950739],[-9.988668,53.951009],[-9.989478,53.950995],[-9.989458,53.950979],[-9.989444,53.950954],[-9.989455,53.950871],[-9.989559,53.950853],[-9.989575,53.950847],[-9.989569,53.950724],[-9.989816,53.95072],[-9.989846,53.950696],[-9.989892,53.950663],[-9.989941,53.950609],[-9.99,53.950541]]],[[[-9.988054,53.955874],[-9.988057,53.955872],[-9.987986,53.955873],[-9.987998,53.956143],[-9.988011,53.956412],[-9.988037,53.956951],[-9.988343,53.956946],[-9.988316,53.956931],[-9.988254,53.956811],[-9.988294,53.956563],[-9.988369,53.956251],[-9.988376,53.95612],[-9.988313,53.956021],[-9.988054,53.955874]]],[[[-9.997879,53.96199],[-9.997679,53.961914],[-9.997418,53.961918],[-9.997431,53.962188],[-9.996974,53.962195],[-9.996987,53.962465],[-9.997,53.962734],[-9.997013,53.963004],[-9.997146,53.963001],[-9.997248,53.962852],[-9.997506,53.96251],[-9.997757,53.962169],[-9.997881,53.96203],[-9.997879,53.96199]]],[[[-9.966036,53.958477],[-9.966109,53.958444],[-9.96611,53.958445],[-9.966096,53.958157],[-9.96584,53.958116],[-9.965589,53.958313],[-9.965719,53.958515],[-9.965517,53.958601],[-9.965469,53.958621],[-9.965408,53.958643],[-9.965478,53.958707],[-9.965894,53.958546],[-9.966036,53.958477]]],[[[-9.966072,53.959897],[-9.966107,53.959884],[-9.966181,53.959964],[-9.966166,53.959652],[-9.965685,53.959813],[-9.965435,53.959896],[-9.965478,53.959969],[-9.965535,53.960036],[-9.965563,53.960074],[-9.965591,53.960111],[-9.96582,53.960016],[-9.966072,53.959897]]],[[[-9.984468,53.949191],[-9.984442,53.948652],[-9.983986,53.94866],[-9.983998,53.948929],[-9.984011,53.949198],[-9.984468,53.949191]]],[[[-9.98533,53.948098],[-9.985318,53.947829],[-9.984861,53.947836],[-9.984874,53.948106],[-9.984417,53.948113],[-9.984442,53.948652],[-9.984899,53.948644],[-9.984886,53.948375],[-9.985343,53.948367],[-9.98533,53.948098]]],[[[-9.994831,53.946053],[-9.994844,53.946323],[-9.995301,53.946315],[-9.995288,53.946046],[-9.994831,53.946053]]],[[[-9.994857,53.946592],[-9.994844,53.946323],[-9.994388,53.94633],[-9.9944,53.9466],[-9.994857,53.946592]]],[[[-9.988045,53.947514],[-9.988032,53.947244],[-9.987575,53.947252],[-9.987588,53.947521],[-9.988045,53.947514]]],[[[-9.992258,53.949601],[-9.992245,53.949332],[-9.991789,53.949339],[-9.991801,53.949609],[-9.992258,53.949601]]],[[[-9.992689,53.949055],[-9.992676,53.948785],[-9.99222,53.948793],[-9.992233,53.949062],[-9.992245,53.949332],[-9.992702,53.949324],[-9.992689,53.949055]]],[[[-9.993133,53.948778],[-9.993107,53.948239],[-9.992651,53.948246],[-9.992664,53.948516],[-9.992676,53.948785],[-9.993133,53.948778]]],[[[-9.993995,53.947685],[-9.993969,53.947146],[-9.993513,53.947154],[-9.993526,53.947423],[-9.993538,53.947692],[-9.993082,53.9477],[-9.993107,53.948239],[-9.993564,53.948231],[-9.993551,53.947962],[-9.994008,53.947954],[-9.993995,53.947685]]],[[[-9.993957,53.946877],[-9.993969,53.947146],[-9.994426,53.947138],[-9.994413,53.946869],[-9.993957,53.946877]]],[[[-9.996517,53.962203],[-9.996974,53.962195],[-9.996961,53.961926],[-9.996504,53.961934],[-9.996517,53.962203]]],[[[-9.990881,53.959061],[-9.990893,53.95933],[-9.99135,53.959323],[-9.991337,53.959053],[-9.990881,53.959061]]],[[[-9.983977,53.958097],[-9.983964,53.957827],[-9.985334,53.957805],[-9.985322,53.957535],[-9.986235,53.95752],[-9.986222,53.957251],[-9.986679,53.957243],[-9.986666,53.956974],[-9.987123,53.956966],[-9.987098,53.956427],[-9.986184,53.956442],[-9.986171,53.956173],[-9.982517,53.956233],[-9.982504,53.955964],[-9.98159,53.955979],[-9.981603,53.956249],[-9.980689,53.956264],[-9.980702,53.956533],[-9.980245,53.956541],[-9.980258,53.95681],[-9.979801,53.956817],[-9.979814,53.957087],[-9.979827,53.957356],[-9.97984,53.957626],[-9.979852,53.957895],[-9.979865,53.958165],[-9.979878,53.958434],[-9.979891,53.958703],[-9.980804,53.958688],[-9.980792,53.958419],[-9.982619,53.958389],[-9.982606,53.958119],[-9.983977,53.958097]]],[[[-9.982201,53.959205],[-9.982188,53.958935],[-9.981274,53.95895],[-9.981287,53.95922],[-9.9813,53.959489],[-9.98267,53.959466],[-9.982657,53.959197],[-9.982201,53.959205]]],[[[-9.979942,53.959781],[-9.979929,53.959512],[-9.979472,53.959519],[-9.979459,53.95925],[-9.979003,53.959257],[-9.979028,53.959796],[-9.979942,53.959781]]]]}}]}
