{"type":"FeatureCollection","features":[{"type":"Feature","properties":{"source_fid":2634719,"county":"Galway","bog_geom_ha":135.23004951606833,"low15_pct":87.6,"low15_ha":118.46152337607586,"overlay_ha":118.3214546859306,"area_delta":-0.14006869014525591},"geometry":{"type":"MultiPolygon","coordinates":[[[[-9.413603,53.40714],[-9.413507,53.407293],[-9.41344,53.407378],[-9.413362,53.407494],[-9.413344,53.40752],[-9.414059,53.407512],[-9.414068,53.407781],[-9.414519,53.407776],[-9.414528,53.408045],[-9.41543,53.408035],[-9.415439,53.408304],[-9.41589,53.408299],[-9.415899,53.408568],[-9.417252,53.408552],[-9.417243,53.408283],[-9.417234,53.408013],[-9.417685,53.408008],[-9.417694,53.408278],[-9.419047,53.408261],[-9.419056,53.408531],[-9.419065,53.408801],[-9.418614,53.408806],[-9.418623,53.409075],[-9.419074,53.40907],[-9.419083,53.40934],[-9.41916,53.409339],[-9.419221,53.409225],[-9.419238,53.409121],[-9.419333,53.408881],[-9.419436,53.408624],[-9.419496,53.40846],[-9.41957,53.408316],[-9.419684,53.408294],[-9.419662,53.408252],[-9.419654,53.408181],[-9.419668,53.408062],[-9.419667,53.407973],[-9.419652,53.407908],[-9.419578,53.40779],[-9.419517,53.407681],[-9.419515,53.407599],[-9.41954,53.407517],[-9.419426,53.407454],[-9.419233,53.407404],[-9.418928,53.407316],[-9.418326,53.407301],[-9.417834,53.407275],[-9.417481,53.407267],[-9.417367,53.407414],[-9.417277,53.407534],[-9.417183,53.407655],[-9.417116,53.40774],[-9.41693,53.407959],[-9.41678,53.408165],[-9.416692,53.408224],[-9.416629,53.408199],[-9.416289,53.40803],[-9.41602,53.407885],[-9.415594,53.407673],[-9.414693,53.407222],[-9.414175,53.40698],[-9.414157,53.406971],[-9.413703,53.406977],[-9.413603,53.40714]],[[-9.418587,53.407997],[-9.417685,53.408008],[-9.417676,53.407739],[-9.418578,53.407728],[-9.418587,53.407997]]],[[[-9.417703,53.408547],[-9.417252,53.408552],[-9.417261,53.408822],[-9.417712,53.408817],[-9.417703,53.408547]]],[[[-9.413427,53.414728],[-9.413481,53.414671],[-9.413501,53.414649],[-9.413555,53.41461],[-9.413609,53.414559],[-9.413651,53.414527],[-9.413389,53.41453],[-9.413396,53.414749],[-9.413427,53.414728]]],[[[-9.402768,53.415867],[-9.403056,53.416274],[-9.403096,53.416348],[-9.403104,53.416364],[-9.403121,53.416395],[-9.403146,53.416388],[-9.403177,53.41637],[-9.403199,53.416405],[-9.403265,53.416432],[-9.403344,53.416457],[-9.403396,53.416462],[-9.403521,53.416458],[-9.403634,53.41645],[-9.40371,53.416428],[-9.403816,53.416381],[-9.403902,53.416356],[-9.403964,53.416337],[-9.404056,53.416326],[-9.404134,53.416327],[-9.404195,53.416327],[-9.404288,53.416327],[-9.404323,53.416338],[-9.404372,53.416347],[-9.404377,53.416351],[-9.404379,53.416403],[-9.404394,53.416558],[-9.404369,53.416609],[-9.404311,53.416686],[-9.404247,53.416785],[-9.404418,53.416903],[-9.404472,53.416901],[-9.404523,53.416928],[-9.40457,53.417126],[-9.404671,53.417297],[-9.404733,53.417337],[-9.404993,53.41747],[-9.405043,53.417542],[-9.405072,53.417597],[-9.40507,53.417639],[-9.40502,53.417782],[-9.405052,53.41791],[-9.405128,53.418063],[-9.405198,53.418165],[-9.405258,53.418229],[-9.405337,53.418267],[-9.4055,53.418301],[-9.405562,53.418305],[-9.405591,53.418298],[-9.405614,53.418292],[-9.40574,53.418222],[-9.405802,53.418212],[-9.405882,53.418211],[-9.40603,53.418206],[-9.40605,53.418215],[-9.406059,53.418228],[-9.406162,53.418289],[-9.406218,53.418329],[-9.406235,53.418349],[-9.406952,53.418074],[-9.407223,53.418241],[-9.407226,53.418227],[-9.40724,53.418219],[-9.407329,53.418155],[-9.407316,53.418135],[-9.407275,53.418074],[-9.407251,53.417984],[-9.407229,53.417893],[-9.407166,53.417779],[-9.407156,53.417746],[-9.407175,53.417742],[-9.407176,53.417742],[-9.407228,53.417731],[-9.407283,53.417723],[-9.407338,53.417718],[-9.407394,53.417715],[-9.407404,53.417715],[-9.407515,53.417714],[-9.407703,53.4177],[-9.407739,53.417698],[-9.407776,53.417697],[-9.407812,53.417697],[-9.408124,53.417704],[-9.408167,53.417706],[-9.40821,53.417709],[-9.408252,53.417714],[-9.408483,53.417746],[-9.408606,53.417756],[-9.408828,53.417762],[-9.408923,53.41775],[-9.408953,53.417747],[-9.408984,53.417744],[-9.409016,53.417742],[-9.409055,53.417741],[-9.409236,53.417709],[-9.409353,53.417682],[-9.409569,53.417577],[-9.409571,53.417576],[-9.409573,53.417575],[-9.409592,53.417566],[-9.409613,53.417557],[-9.409616,53.417556],[-9.409618,53.417555],[-9.40964,53.417547],[-9.409661,53.417539],[-9.409663,53.417538],[-9.409666,53.417537],[-9.409688,53.41753],[-9.409711,53.417524],[-9.409713,53.417523],[-9.409716,53.417522],[-9.409739,53.417516],[-9.409763,53.417511],[-9.409765,53.41751],[-9.409768,53.41751],[-9.409784,53.417507],[-9.409761,53.417309],[-9.409749,53.41727],[-9.409499,53.417334],[-9.409129,53.417398],[-9.408896,53.417467],[-9.40866,53.41753],[-9.408407,53.417589],[-9.408238,53.417502],[-9.408151,53.417361],[-9.408139,53.417055],[-9.408426,53.416992],[-9.408758,53.416906],[-9.409072,53.416851],[-9.409386,53.416814],[-9.409622,53.416812],[-9.409733,53.416771],[-9.409885,53.416789],[-9.410067,53.416797],[-9.41018,53.416816],[-9.410285,53.416842],[-9.410433,53.416878],[-9.410516,53.416937],[-9.410578,53.417042],[-9.410588,53.417099],[-9.410557,53.417178],[-9.410499,53.417262],[-9.410393,53.417343],[-9.410353,53.417545],[-9.410356,53.417546],[-9.410358,53.417547],[-9.410361,53.417548],[-9.410382,53.417557],[-9.410402,53.417565],[-9.410405,53.417566],[-9.410407,53.417567],[-9.410426,53.417577],[-9.410446,53.417586],[-9.410448,53.417587],[-9.41045,53.417588],[-9.410468,53.417599],[-9.410487,53.417609],[-9.410489,53.417611],[-9.410491,53.417612],[-9.410507,53.417623],[-9.410524,53.417634],[-9.410526,53.417636],[-9.410527,53.417637],[-9.41073,53.417696],[-9.410737,53.417697],[-9.410743,53.417698],[-9.410749,53.4177],[-9.41088,53.417728],[-9.410932,53.41774],[-9.410982,53.417756],[-9.41103,53.417773],[-9.411033,53.417775],[-9.411165,53.417828],[-9.411179,53.417834],[-9.411192,53.41784],[-9.411204,53.417845],[-9.411237,53.417857],[-9.411134,53.417973],[-9.412697,53.418631],[-9.413244,53.41881],[-9.413254,53.418813],[-9.413312,53.418862],[-9.413337,53.418883],[-9.413316,53.418923],[-9.413297,53.418943],[-9.413169,53.419002],[-9.41317,53.419075],[-9.413227,53.419126],[-9.413682,53.419314],[-9.41463,53.419639],[-9.414927,53.41982],[-9.415073,53.420115],[-9.415068,53.420652],[-9.415068,53.420684],[-9.415068,53.4207],[-9.415067,53.420705],[-9.415067,53.42071],[-9.414969,53.420769],[-9.414554,53.421033],[-9.414547,53.421073],[-9.414614,53.421106],[-9.41469,53.421144],[-9.414743,53.421171],[-9.414839,53.421216],[-9.415162,53.421368],[-9.415342,53.421453],[-9.415348,53.421456],[-9.415381,53.421472],[-9.415424,53.421491],[-9.415443,53.4215],[-9.415728,53.42163],[-9.415799,53.421575],[-9.415856,53.421546],[-9.415883,53.421536],[-9.41603,53.421484],[-9.416092,53.421478],[-9.416157,53.421466],[-9.416212,53.421407],[-9.416322,53.421388],[-9.416448,53.421368],[-9.416515,53.421402],[-9.416583,53.421404],[-9.416711,53.421354],[-9.416902,53.421349],[-9.417061,53.421345],[-9.417371,53.421352],[-9.417922,53.421214],[-9.418164,53.421156],[-9.418285,53.421106],[-9.418793,53.420829],[-9.419421,53.420439],[-9.419975,53.420091],[-9.420059,53.42006],[-9.420075,53.42004],[-9.420151,53.419991],[-9.420337,53.41989],[-9.42042,53.419855],[-9.420425,53.419849],[-9.42046,53.419811],[-9.420924,53.419528],[-9.421037,53.419456],[-9.421205,53.419348],[-9.42129,53.419321],[-9.421514,53.419201],[-9.421816,53.419018],[-9.421823,53.419014],[-9.421211,53.419021],[-9.421202,53.418751],[-9.420751,53.418757],[-9.420742,53.418487],[-9.419839,53.418498],[-9.41983,53.418228],[-9.418477,53.418245],[-9.418474,53.418172],[-9.41832,53.418173],[-9.417572,53.418187],[-9.417574,53.418255],[-9.417123,53.418261],[-9.417121,53.41819],[-9.416927,53.41819],[-9.417118,53.418105],[-9.417114,53.417991],[-9.417361,53.417988],[-9.417562,53.417889],[-9.417556,53.417716],[-9.417923,53.417712],[-9.418006,53.417671],[-9.417999,53.417441],[-9.418431,53.417436],[-9.418432,53.417436],[-9.418449,53.417422],[-9.418441,53.417166],[-9.418782,53.417162],[-9.418948,53.417032],[-9.419277,53.417215],[-9.419617,53.417399],[-9.420022,53.417618],[-9.420634,53.417795],[-9.421219,53.417976],[-9.421825,53.418001],[-9.422938,53.41803],[-9.423079,53.418035],[-9.423137,53.417975],[-9.42319,53.417919],[-9.422979,53.417921],[-9.42297,53.417652],[-9.423421,53.417646],[-9.423422,53.417671],[-9.423431,53.417662],[-9.423577,53.417466],[-9.423744,53.417014],[-9.423992,53.416542],[-9.423967,53.416537],[-9.423969,53.416533],[-9.423978,53.416516],[-9.424117,53.416227],[-9.424303,53.415843],[-9.424478,53.41545],[-9.424723,53.414915],[-9.42501,53.414296],[-9.425296,53.413684],[-9.42554,53.41318],[-9.425652,53.412961],[-9.425737,53.412865],[-9.425978,53.412677],[-9.42619,53.412589],[-9.426182,53.412581],[-9.42609,53.412571],[-9.426023,53.41255],[-9.425979,53.412523],[-9.425765,53.412401],[-9.425805,53.412316],[-9.42579,53.412207],[-9.425494,53.412094],[-9.425379,53.412036],[-9.425099,53.411887],[-9.425036,53.411858],[-9.42465,53.411764],[-9.424103,53.411662],[-9.423782,53.41156],[-9.423666,53.411504],[-9.423334,53.411315],[-9.423236,53.41127],[-9.422841,53.411195],[-9.422706,53.41119],[-9.422685,53.411189],[-9.422658,53.411341],[-9.422637,53.41148],[-9.4226,53.411677],[-9.422536,53.411682],[-9.422393,53.411671],[-9.422106,53.41163],[-9.421813,53.411615],[-9.42127,53.411547],[-9.420843,53.411472],[-9.420479,53.41146],[-9.420063,53.411526],[-9.419627,53.41157],[-9.419116,53.411622],[-9.418924,53.41164],[-9.418769,53.411657],[-9.418384,53.411739],[-9.418281,53.411766],[-9.418419,53.411426],[-9.418592,53.410972],[-9.418619,53.410926],[-9.418697,53.410723],[-9.418776,53.410514],[-9.418848,53.410329],[-9.418901,53.410151],[-9.418659,53.410153],[-9.41865,53.409884],[-9.417748,53.409895],[-9.417739,53.409625],[-9.416837,53.409636],[-9.416828,53.409366],[-9.415925,53.409377],[-9.415934,53.409647],[-9.414581,53.409663],[-9.414572,53.409393],[-9.414121,53.409398],[-9.414112,53.409129],[-9.415916,53.409108],[-9.415908,53.408838],[-9.415456,53.408843],[-9.415448,53.408574],[-9.414996,53.408579],[-9.414988,53.40831],[-9.414085,53.40832],[-9.414076,53.408051],[-9.413174,53.408061],[-9.413165,53.407792],[-9.413154,53.407792],[-9.413091,53.407874],[-9.413018,53.408024],[-9.412896,53.408203],[-9.412714,53.408466],[-9.412627,53.408607],[-9.412741,53.408606],[-9.41275,53.408875],[-9.412759,53.409145],[-9.412308,53.40915],[-9.412307,53.409121],[-9.412258,53.409194],[-9.412137,53.409411],[-9.411985,53.409667],[-9.411962,53.409691],[-9.411872,53.409787],[-9.41176,53.409979],[-9.411643,53.41015],[-9.411554,53.410281],[-9.411449,53.410456],[-9.411324,53.410653],[-9.411239,53.410793],[-9.411143,53.410925],[-9.411077,53.411016],[-9.410937,53.411196],[-9.410751,53.41143],[-9.41032,53.411321],[-9.40952,53.411115],[-9.409273,53.411037],[-9.409023,53.410973],[-9.408647,53.41088],[-9.407576,53.410606],[-9.406869,53.410742],[-9.406321,53.410867],[-9.406216,53.411073],[-9.405992,53.411473],[-9.405783,53.411869],[-9.40487,53.411548],[-9.404026,53.411225],[-9.40376,53.411102],[-9.403579,53.411069],[-9.402645,53.41108],[-9.402614,53.41108],[-9.402623,53.411088],[-9.402647,53.411115],[-9.402645,53.411134],[-9.402705,53.411173],[-9.402767,53.411205],[-9.402862,53.411284],[-9.402839,53.411315],[-9.40279,53.411382],[-9.402641,53.411483],[-9.402571,53.411681],[-9.402468,53.411813],[-9.402473,53.411962],[-9.402326,53.411964],[-9.402321,53.411968],[-9.402095,53.412056],[-9.402026,53.412083],[-9.402031,53.412237],[-9.40168,53.412241],[-9.401642,53.412294],[-9.401584,53.412372],[-9.401589,53.412512],[-9.401525,53.412513],[-9.401465,53.412665],[-9.401459,53.412677],[-9.401462,53.412686],[-9.401464,53.412689],[-9.401473,53.412702],[-9.401488,53.41271],[-9.401603,53.412765],[-9.401986,53.412976],[-9.402342,53.413155],[-9.402278,53.413206],[-9.402264,53.413238],[-9.402271,53.413264],[-9.40231,53.413291],[-9.402457,53.413356],[-9.402722,53.413294],[-9.402805,53.413313],[-9.402817,53.413372],[-9.402794,53.413531],[-9.402816,53.413551],[-9.402865,53.413573],[-9.402855,53.413611],[-9.402825,53.413619],[-9.402693,53.413612],[-9.402586,53.413674],[-9.402658,53.413772],[-9.40264,53.413824],[-9.402508,53.413914],[-9.402284,53.413938],[-9.40223,53.414044],[-9.402077,53.414153],[-9.402005,53.414204],[-9.402093,53.414341],[-9.402086,53.414432],[-9.401994,53.414483],[-9.402013,53.414649],[-9.401998,53.41477],[-9.402028,53.414843],[-9.402067,53.414909],[-9.402237,53.415075],[-9.402255,53.415129],[-9.40231,53.415259],[-9.402363,53.415318],[-9.402425,53.415369],[-9.402483,53.415399],[-9.402573,53.415422],[-9.40272,53.415658],[-9.40271,53.415718],[-9.402714,53.415759],[-9.402768,53.415867]],[[-9.412768,53.409414],[-9.412759,53.409145],[-9.41321,53.40914],[-9.413219,53.409409],[-9.412768,53.409414]],[[-9.416854,53.410175],[-9.418659,53.410153],[-9.418668,53.410423],[-9.416863,53.410444],[-9.416854,53.410175]],[[-9.412973,53.415913],[-9.412953,53.415908],[-9.412805,53.41586],[-9.412702,53.415797],[-9.412591,53.415741],[-9.412556,53.415723],[-9.412574,53.415683],[-9.412588,53.415651],[-9.412648,53.415563],[-9.412662,53.415526],[-9.412656,53.41548],[-9.412624,53.415442],[-9.412578,53.415415],[-9.412424,53.415354],[-9.412422,53.415353],[-9.412395,53.415332],[-9.412501,53.415269],[-9.412511,53.415265],[-9.412506,53.415129],[-9.412398,53.415169],[-9.412257,53.415215],[-9.412068,53.415294],[-9.411932,53.41539],[-9.411809,53.41545],[-9.411603,53.415503],[-9.411358,53.415572],[-9.411345,53.415575],[-9.411321,53.415557],[-9.411245,53.415503],[-9.411229,53.415473],[-9.411167,53.41541],[-9.411013,53.415295],[-9.410955,53.415252],[-9.41093,53.415236],[-9.410903,53.415165],[-9.410885,53.415104],[-9.410654,53.414818],[-9.410635,53.414748],[-9.410629,53.414739],[-9.410755,53.414684],[-9.410876,53.414624],[-9.410927,53.414561],[-9.410998,53.414507],[-9.41113,53.414443],[-9.411231,53.414368],[-9.411349,53.414329],[-9.411576,53.414294],[-9.411575,53.414282],[-9.411124,53.414287],[-9.411115,53.414018],[-9.409762,53.414034],[-9.409753,53.413764],[-9.4084,53.41378],[-9.408391,53.413511],[-9.407489,53.413521],[-9.40748,53.413252],[-9.407471,53.412982],[-9.407922,53.412977],[-9.407931,53.413246],[-9.409284,53.41323],[-9.409293,53.4135],[-9.410646,53.413484],[-9.410637,53.413214],[-9.411089,53.413209],[-9.411098,53.413479],[-9.412451,53.413463],[-9.41246,53.413732],[-9.412469,53.414002],[-9.413822,53.413986],[-9.413831,53.414255],[-9.413835,53.414387],[-9.413887,53.414361],[-9.414036,53.414269],[-9.414073,53.414207],[-9.414197,53.414091],[-9.414267,53.414024],[-9.414293,53.413924],[-9.41429,53.413912],[-9.414374,53.413882],[-9.414404,53.413871],[-9.414658,53.413782],[-9.414967,53.413706],[-9.41505,53.413668],[-9.415072,53.413651],[-9.415173,53.413765],[-9.415239,53.41387],[-9.415238,53.413937],[-9.415145,53.414099],[-9.415019,53.414202],[-9.414968,53.414242],[-9.415184,53.414239],[-9.415193,53.414509],[-9.416096,53.414498],[-9.416105,53.414767],[-9.416113,53.415037],[-9.415211,53.415048],[-9.415202,53.414778],[-9.414751,53.414784],[-9.414742,53.414514],[-9.414619,53.414515],[-9.414442,53.414699],[-9.414513,53.414808],[-9.414308,53.414897],[-9.41462,53.415191],[-9.414691,53.415324],[-9.414769,53.415323],[-9.414774,53.415485],[-9.414911,53.415591],[-9.41568,53.415581],[-9.415689,53.415851],[-9.41614,53.415846],[-9.416149,53.416115],[-9.4166,53.41611],[-9.416609,53.416379],[-9.417061,53.416374],[-9.417069,53.416643],[-9.417521,53.416638],[-9.41753,53.416908],[-9.417539,53.417177],[-9.416636,53.417188],[-9.416627,53.416918],[-9.416176,53.416924],[-9.416167,53.416654],[-9.415975,53.416656],[-9.416033,53.416924],[-9.415779,53.417143],[-9.415605,53.41723],[-9.41554,53.417263],[-9.415359,53.417017],[-9.415191,53.416893],[-9.414954,53.416745],[-9.414827,53.41667],[-9.414814,53.41667],[-9.414813,53.416662],[-9.41449,53.41647],[-9.414424,53.416431],[-9.414379,53.416406],[-9.414354,53.416406],[-9.414353,53.416391],[-9.414215,53.416313],[-9.414062,53.416241],[-9.41406,53.41624],[-9.413881,53.416154],[-9.413822,53.416135],[-9.413874,53.416085],[-9.413891,53.416068],[-9.413885,53.415872],[-9.413434,53.415878],[-9.413426,53.415655],[-9.413397,53.41564],[-9.413352,53.415668],[-9.412973,53.415913]],[[-9.414273,53.41398],[-9.413822,53.413986],[-9.413804,53.413447],[-9.414255,53.413441],[-9.414273,53.41398]],[[-9.416881,53.419302],[-9.416824,53.419207],[-9.416817,53.419133],[-9.416888,53.419035],[-9.416898,53.419014],[-9.416941,53.418993],[-9.417124,53.418901],[-9.4173,53.418845],[-9.417593,53.418818],[-9.417583,53.418525],[-9.418035,53.418519],[-9.418061,53.419317],[-9.418073,53.419328],[-9.418964,53.419317],[-9.418973,53.419587],[-9.418982,53.419856],[-9.418079,53.419867],[-9.418076,53.419779],[-9.417671,53.41975],[-9.417651,53.419747],[-9.417425,53.419719],[-9.417361,53.419685],[-9.417225,53.419545],[-9.417134,53.419448],[-9.417115,53.419429],[-9.416976,53.419433],[-9.416941,53.419348],[-9.416881,53.419302]],[[-9.417386,53.412595],[-9.418288,53.412585],[-9.418297,53.412854],[-9.417846,53.412859],[-9.417855,53.413129],[-9.416953,53.41314],[-9.416962,53.413409],[-9.416511,53.413415],[-9.41652,53.413684],[-9.415166,53.4137],[-9.415158,53.413431],[-9.415609,53.413425],[-9.4156,53.413156],[-9.416051,53.41315],[-9.416042,53.412881],[-9.417395,53.412865],[-9.417386,53.412595]],[[-9.418838,53.415544],[-9.419289,53.415539],[-9.419298,53.415808],[-9.419749,53.415803],[-9.419758,53.416072],[-9.419767,53.416342],[-9.419776,53.416611],[-9.420227,53.416606],[-9.420236,53.416875],[-9.421139,53.416865],[-9.421157,53.417404],[-9.42251,53.417388],[-9.422519,53.417657],[-9.420715,53.417679],[-9.420706,53.417409],[-9.419803,53.41742],[-9.419785,53.416881],[-9.419334,53.416886],[-9.419325,53.416617],[-9.418423,53.416627],[-9.418414,53.416358],[-9.417963,53.416363],[-9.417954,53.416094],[-9.417503,53.416099],[-9.417494,53.41583],[-9.417043,53.415835],[-9.417034,53.415565],[-9.416583,53.415571],[-9.416574,53.415301],[-9.418829,53.415274],[-9.418838,53.415544]],[[-9.403393,53.412491],[-9.403384,53.412221],[-9.404286,53.412211],[-9.404295,53.41248],[-9.404746,53.412475],[-9.404764,53.413014],[-9.403862,53.413025],[-9.403844,53.412486],[-9.403393,53.412491]],[[-9.406126,53.413268],[-9.406117,53.412998],[-9.40702,53.412987],[-9.407029,53.413257],[-9.406126,53.413268]],[[-9.404773,53.413284],[-9.405224,53.413278],[-9.405233,53.413548],[-9.404782,53.413553],[-9.404773,53.413284]],[[-9.409815,53.415651],[-9.409807,53.415381],[-9.410709,53.415371],[-9.410718,53.41564],[-9.409815,53.415651]],[[-9.409824,53.41592],[-9.410276,53.415915],[-9.410284,53.416185],[-9.409833,53.41619],[-9.409824,53.41592]]],[[[-9.413265,53.414838],[-9.413321,53.4148],[-9.412947,53.414805],[-9.412955,53.415043],[-9.413265,53.414838]]],[[[-9.414032,53.415237],[-9.413926,53.415333],[-9.414108,53.41533],[-9.414061,53.415279],[-9.414032,53.415237]]]]}}]}
