{"type":"FeatureCollection","features":[{"type":"Feature","properties":{"source_fid":2701234,"county":"Donegal","bog_geom_ha":143.82253738549065,"low15_pct":78.337531486146091,"low15_ha":112.66702550853297,"overlay_ha":112.41883250921015,"area_delta":-0.2481929993228249},"geometry":{"type":"MultiPolygon","coordinates":[[[[-7.118539,55.186335],[-7.118156,55.18641],[-7.11815,55.186701],[-7.118144,55.18697],[-7.118138,55.18724],[-7.118609,55.187243],[-7.118603,55.187513],[-7.118591,55.188052],[-7.118579,55.188591],[-7.118573,55.18886],[-7.118102,55.188857],[-7.118108,55.188587],[-7.117637,55.188584],[-7.117649,55.188045],[-7.117178,55.188041],[-7.11719,55.187502],[-7.116719,55.187499],[-7.116725,55.187229],[-7.116254,55.187226],[-7.11626,55.186957],[-7.115789,55.186953],[-7.115789,55.186942],[-7.115555,55.186988],[-7.115264,55.187053],[-7.114988,55.187115],[-7.114539,55.187224],[-7.114312,55.187267],[-7.113983,55.187315],[-7.113714,55.18735],[-7.113471,55.187395],[-7.113124,55.187435],[-7.112951,55.187466],[-7.112909,55.189358],[-7.112438,55.189355],[-7.112432,55.189624],[-7.11242,55.190163],[-7.111949,55.19016],[-7.111961,55.189621],[-7.11149,55.189617],[-7.111493,55.189462],[-7.110643,55.189456],[-7.110679,55.187824],[-7.110636,55.18783],[-7.110216,55.187885],[-7.109893,55.187934],[-7.109549,55.187989],[-7.109146,55.188051],[-7.108892,55.188091],[-7.108653,55.188135],[-7.10846,55.188165],[-7.108205,55.188176],[-7.108017,55.188201],[-7.107924,55.188232],[-7.107908,55.188231],[-7.107914,55.188296],[-7.10795,55.188331],[-7.107984,55.188342],[-7.108009,55.188345],[-7.108024,55.188374],[-7.108046,55.188396],[-7.108101,55.188459],[-7.108101,55.188472],[-7.108084,55.18849],[-7.108079,55.188525],[-7.108081,55.188587],[-7.108072,55.188629],[-7.108072,55.188653],[-7.108083,55.188663],[-7.108135,55.188675],[-7.108193,55.188695],[-7.108236,55.188741],[-7.108237,55.188784],[-7.108225,55.188848],[-7.108196,55.188889],[-7.108206,55.188934],[-7.108199,55.188967],[-7.108199,55.188981],[-7.108224,55.188999],[-7.108208,55.189016],[-7.108205,55.18905],[-7.108222,55.189081],[-7.108279,55.189138],[-7.108295,55.18916],[-7.108301,55.189195],[-7.108329,55.189233],[-7.108353,55.189268],[-7.108372,55.18929],[-7.108415,55.189359],[-7.108484,55.189403],[-7.108448,55.189437],[-7.108446,55.189463],[-7.10848,55.1895],[-7.108515,55.189537],[-7.108522,55.189574],[-7.108472,55.189626],[-7.108457,55.189655],[-7.108465,55.189677],[-7.108501,55.189734],[-7.108555,55.189846],[-7.108601,55.189891],[-7.108663,55.189926],[-7.108676,55.189948],[-7.10868,55.189993],[-7.108689,55.190017],[-7.108686,55.190039],[-7.108659,55.190081],[-7.108637,55.190116],[-7.108646,55.190127],[-7.108686,55.190162],[-7.10875,55.190214],[-7.10875,55.190221],[-7.108722,55.190286],[-7.108723,55.190332],[-7.10875,55.190373],[-7.108798,55.190401],[-7.108805,55.190424],[-7.108816,55.190474],[-7.10883,55.190498],[-7.10887,55.190528],[-7.108917,55.190574],[-7.109005,55.190606],[-7.109118,55.190629],[-7.109221,55.190643],[-7.109301,55.190671],[-7.109307,55.190691],[-7.109292,55.190716],[-7.10925,55.190756],[-7.109241,55.190781],[-7.109279,55.190803],[-7.10926,55.190839],[-7.10926,55.190856],[-7.109292,55.190875],[-7.109307,55.190901],[-7.109298,55.190917],[-7.109302,55.190928],[-7.109365,55.190948],[-7.109411,55.19097],[-7.10943,55.190994],[-7.109422,55.191024],[-7.109415,55.191058],[-7.109437,55.191096],[-7.109491,55.191154],[-7.109548,55.191164],[-7.109617,55.191166],[-7.109653,55.191189],[-7.109672,55.191223],[-7.109667,55.191261],[-7.109613,55.191308],[-7.109611,55.191325],[-7.109638,55.191344],[-7.109701,55.191391],[-7.10972,55.191433],[-7.109771,55.191463],[-7.109793,55.191471],[-7.109787,55.191486],[-7.10973,55.191508],[-7.109715,55.19153],[-7.109722,55.191558],[-7.109765,55.191587],[-7.109863,55.191644],[-7.10987,55.191666],[-7.109845,55.191706],[-7.109817,55.191732],[-7.109825,55.191759],[-7.109823,55.191798],[-7.109835,55.191843],[-7.109789,55.191873],[-7.109788,55.191891],[-7.109814,55.191904],[-7.109867,55.191913],[-7.109971,55.191934],[-7.109945,55.19197],[-7.109921,55.192009],[-7.109929,55.192029],[-7.109962,55.192074],[-7.110013,55.192126],[-7.110083,55.192124],[-7.110091,55.192131],[-7.110037,55.192163],[-7.110044,55.192204],[-7.110026,55.19224],[-7.109991,55.192321],[-7.109976,55.192361],[-7.109997,55.19238],[-7.110047,55.192384],[-7.110082,55.192404],[-7.110166,55.192415],[-7.110237,55.192455],[-7.110265,55.192459],[-7.110312,55.192461],[-7.110575,55.192479],[-7.110849,55.192524],[-7.111016,55.192543],[-7.111154,55.192545],[-7.111425,55.192544],[-7.11143,55.192312],[-7.111901,55.192316],[-7.111907,55.192046],[-7.111913,55.191777],[-7.113326,55.191787],[-7.11332,55.192056],[-7.113791,55.19206],[-7.113797,55.19179],[-7.11521,55.191801],[-7.115216,55.191531],[-7.117101,55.191545],[-7.117107,55.191275],[-7.118991,55.191289],[-7.118997,55.191019],[-7.119468,55.191023],[-7.11948,55.190484],[-7.119486,55.190214],[-7.119015,55.190211],[-7.119021,55.189941],[-7.119027,55.189672],[-7.119498,55.189675],[-7.119504,55.189406],[-7.119975,55.189409],[-7.119981,55.18914],[-7.121394,55.18915],[-7.1214,55.18888],[-7.121871,55.188884],[-7.121883,55.188345],[-7.122354,55.188348],[-7.122359,55.188079],[-7.12283,55.188082],[-7.122836,55.187813],[-7.123307,55.187816],[-7.123302,55.188086],[-7.123773,55.188089],[-7.123767,55.188358],[-7.123755,55.188897],[-7.123749,55.189167],[-7.123278,55.189163],[-7.123272,55.189433],[-7.123266,55.189702],[-7.122795,55.189699],[-7.122789,55.189969],[-7.121847,55.189962],[-7.121841,55.190231],[-7.120899,55.190224],[-7.120893,55.190494],[-7.120422,55.190491],[-7.12041,55.19103],[-7.120881,55.191033],[-7.120875,55.191302],[-7.120869,55.191572],[-7.120398,55.191569],[-7.120392,55.191838],[-7.11945,55.191831],[-7.119444,55.192101],[-7.118031,55.192091],[-7.118025,55.19236],[-7.118496,55.192363],[-7.11849,55.192633],[-7.118961,55.192636],[-7.118955,55.192906],[-7.119426,55.192909],[-7.11942,55.193179],[-7.119891,55.193182],[-7.119885,55.193452],[-7.121299,55.193462],[-7.121293,55.193731],[-7.121764,55.193735],[-7.121752,55.194274],[-7.122223,55.194277],[-7.122217,55.194547],[-7.122688,55.19455],[-7.122682,55.194819],[-7.122677,55.195089],[-7.122665,55.195628],[-7.122653,55.196167],[-7.122182,55.196164],[-7.12217,55.196703],[-7.121699,55.196699],[-7.121693,55.196969],[-7.121222,55.196965],[-7.121216,55.197235],[-7.120745,55.197231],[-7.120751,55.196962],[-7.120756,55.196692],[-7.120285,55.196689],[-7.120297,55.19615],[-7.120309,55.195611],[-7.119838,55.195608],[-7.11985,55.195069],[-7.118908,55.195062],[-7.118902,55.195331],[-7.118431,55.195328],[-7.118425,55.195597],[-7.118419,55.195867],[-7.117948,55.195863],[-7.117942,55.196133],[-7.11747,55.19613],[-7.117476,55.19586],[-7.115592,55.195846],[-7.115586,55.196116],[-7.114644,55.196109],[-7.11465,55.19584],[-7.115121,55.195843],[-7.115127,55.195573],[-7.115217,55.195574],[-7.115252,55.193981],[-7.114691,55.193977],[-7.114686,55.194223],[-7.113743,55.194216],[-7.113737,55.194485],[-7.113266,55.194482],[-7.11326,55.194751],[-7.112789,55.194748],[-7.112783,55.195017],[-7.112312,55.195014],[-7.112306,55.195283],[-7.1123,55.195553],[-7.111054,55.195544],[-7.11099,55.195857],[-7.110816,55.196276],[-7.110699,55.196651],[-7.110629,55.196829],[-7.110678,55.196846],[-7.110885,55.196915],[-7.111187,55.197031],[-7.111488,55.197067],[-7.111573,55.197082],[-7.111783,55.197119],[-7.112139,55.197192],[-7.112231,55.197207],[-7.112341,55.197226],[-7.112716,55.19731],[-7.112951,55.197368],[-7.113193,55.197434],[-7.113495,55.197525],[-7.113749,55.197605],[-7.11392,55.197659],[-7.114077,55.1977],[-7.114153,55.197722],[-7.114155,55.197723],[-7.114608,55.197726],[-7.114614,55.197457],[-7.117441,55.197477],[-7.117435,55.197746],[-7.117906,55.19775],[-7.1179,55.198019],[-7.117894,55.198289],[-7.117882,55.198828],[-7.117511,55.198825],[-7.117523,55.19883],[-7.117636,55.198889],[-7.117765,55.198945],[-7.118023,55.199072],[-7.118198,55.199149],[-7.118366,55.199217],[-7.118536,55.199286],[-7.118685,55.199344],[-7.118761,55.199379],[-7.118782,55.199391],[-7.118807,55.199397],[-7.118918,55.199447],[-7.119026,55.199492],[-7.119262,55.199601],[-7.119382,55.199654],[-7.11957,55.199739],[-7.11972,55.199798],[-7.119745,55.199807],[-7.119767,55.198841],[-7.120238,55.198845],[-7.120214,55.199923],[-7.120033,55.199922],[-7.120079,55.19994],[-7.120294,55.200032],[-7.120477,55.200126],[-7.12058,55.200166],[-7.120649,55.200193],[-7.120802,55.200266],[-7.120902,55.200309],[-7.121001,55.200352],[-7.121133,55.200404],[-7.121166,55.200416],[-7.121298,55.200464],[-7.121846,55.200689],[-7.122199,55.200829],[-7.122712,55.201047],[-7.123371,55.201332],[-7.123875,55.201577],[-7.124259,55.201787],[-7.12463,55.201736],[-7.12563,55.201537],[-7.126439,55.201366],[-7.126827,55.201292],[-7.127013,55.201226],[-7.127154,55.201121],[-7.127495,55.200836],[-7.127929,55.200462],[-7.127863,55.200155],[-7.127823,55.199906],[-7.127782,55.199562],[-7.127756,55.199335],[-7.127728,55.199107],[-7.127699,55.198842],[-7.127691,55.198622],[-7.127673,55.198385],[-7.127663,55.19814],[-7.127658,55.197905],[-7.127626,55.197551],[-7.1276,55.197185],[-7.127571,55.19683],[-7.127531,55.19658],[-7.127503,55.196341],[-7.127424,55.195877],[-7.127415,55.19578],[-7.127387,55.195634],[-7.127377,55.195387],[-7.127371,55.195145],[-7.127386,55.194966],[-7.127376,55.194531],[-7.127349,55.194086],[-7.127349,55.194083],[-7.127291,55.193616],[-7.127205,55.193136],[-7.127164,55.192934],[-7.127113,55.192677],[-7.127053,55.192212],[-7.12698,55.19173],[-7.126916,55.191281],[-7.126845,55.190823],[-7.126795,55.190566],[-7.126775,55.190479],[-7.12672,55.190349],[-7.126602,55.190152],[-7.126428,55.189891],[-7.126115,55.189434],[-7.125835,55.188981],[-7.125812,55.188912],[-7.125639,55.188911],[-7.125645,55.188641],[-7.125651,55.188372],[-7.125651,55.188365],[-7.125621,55.188246],[-7.125584,55.188102],[-7.124715,55.188096],[-7.124721,55.187826],[-7.124726,55.187557],[-7.125493,55.187562],[-7.125426,55.187122],[-7.125322,55.186573],[-7.125231,55.186018],[-7.125083,55.185376],[-7.124963,55.184921],[-7.124944,55.184849],[-7.124806,55.184884],[-7.123492,55.185218],[-7.123364,55.185247],[-7.123361,55.185391],[-7.12289,55.185387],[-7.122884,55.185657],[-7.122413,55.185653],[-7.122407,55.185923],[-7.121936,55.185919],[-7.12193,55.186189],[-7.121912,55.186997],[-7.121894,55.187806],[-7.120952,55.187799],[-7.12097,55.186991],[-7.120499,55.186987],[-7.120517,55.186179],[-7.120046,55.186175],[-7.12005,55.185994],[-7.119865,55.18604],[-7.119578,55.186108],[-7.11922,55.186182],[-7.118858,55.186267],[-7.118539,55.186335]],[[-7.126033,55.192418],[-7.126021,55.192957],[-7.12555,55.192953],[-7.125562,55.192414],[-7.125091,55.192411],[-7.125103,55.191872],[-7.125121,55.191063],[-7.125592,55.191067],[-7.125574,55.191875],[-7.126045,55.191879],[-7.126033,55.192418]],[[-7.126846,55.198353],[-7.126375,55.19835],[-7.126369,55.198619],[-7.124955,55.198609],[-7.124949,55.198879],[-7.124943,55.199148],[-7.12353,55.199138],[-7.123536,55.198869],[-7.124478,55.198875],[-7.124484,55.198606],[-7.124013,55.198603],[-7.124019,55.198333],[-7.124025,55.198064],[-7.125438,55.198074],[-7.125444,55.197804],[-7.125915,55.197808],[-7.125909,55.198077],[-7.126852,55.198084],[-7.126846,55.198353]]],[[[-7.115271,55.193149],[-7.115252,55.193981],[-7.116822,55.193992],[-7.116803,55.19489],[-7.117969,55.194899],[-7.117971,55.194785],[-7.118442,55.194789],[-7.118448,55.194519],[-7.118454,55.19425],[-7.118466,55.193711],[-7.117995,55.193707],[-7.118001,55.193438],[-7.118007,55.193169],[-7.117536,55.193165],[-7.117542,55.192896],[-7.1166,55.192889],[-7.116594,55.193158],[-7.115271,55.193149]],[[-7.117518,55.193974],[-7.117047,55.19397],[-7.117053,55.193701],[-7.117524,55.193704],[-7.117518,55.193974]]]]}}]}
