{"type":"FeatureCollection","features":[{"type":"Feature","properties":{"source_fid":2707082,"county":"Donegal","bog_geom_ha":146.30294983917946,"low15_pct":80.896805896805901,"low15_ha":118.35441335270231,"overlay_ha":118.60219714881111,"area_delta":0.24778379610880563},"geometry":{"type":"MultiPolygon","coordinates":[[[[-8.005453,55.111816],[-8.005453,55.111841],[-8.005475,55.111851],[-8.005497,55.111859],[-8.005532,55.111867],[-8.005428,55.111757],[-8.005329,55.111641],[-8.005296,55.111618],[-8.005292,55.111633],[-8.005243,55.111651],[-8.005251,55.111689],[-8.005316,55.111687],[-8.005336,55.1117],[-8.005427,55.111763],[-8.005446,55.111792],[-8.005453,55.111816]]],[[[-8.006235,55.11239],[-8.006423,55.112585],[-8.006778,55.113063],[-8.006785,55.113073],[-8.007053,55.113073],[-8.007053,55.113343],[-8.007523,55.113343],[-8.007523,55.113612],[-8.009404,55.113612],[-8.009404,55.113555],[-8.009327,55.113426],[-8.009347,55.113356],[-8.00928,55.113302],[-8.009361,55.113168],[-8.009352,55.113081],[-8.009258,55.112836],[-8.00921,55.112771],[-8.009035,55.112738],[-8.008316,55.112589],[-8.007848,55.11247],[-8.007316,55.112372],[-8.006713,55.11245],[-8.006406,55.112367],[-8.006208,55.112347],[-8.006113,55.112282],[-8.005943,55.11211],[-8.005821,55.112019],[-8.005678,55.11197],[-8.005684,55.111984],[-8.005758,55.112034],[-8.005706,55.112134],[-8.005721,55.112152],[-8.005751,55.112158],[-8.005793,55.112141],[-8.005849,55.112136],[-8.005867,55.112151],[-8.0059,55.112173],[-8.005931,55.112178],[-8.005982,55.112203],[-8.006026,55.11228],[-8.006118,55.112306],[-8.006186,55.112335],[-8.006235,55.11239]]],[[[-8.022868,55.114764],[-8.022571,55.114889],[-8.022571,55.115228],[-8.022571,55.115497],[-8.022571,55.115767],[-8.022571,55.116036],[-8.022101,55.116036],[-8.022101,55.115767],[-8.02116,55.115767],[-8.021161,55.116037],[-8.01975,55.116037],[-8.01975,55.115767],[-8.01928,55.115767],[-8.01928,55.116037],[-8.018809,55.116037],[-8.01881,55.116306],[-8.018339,55.116307],[-8.018339,55.116576],[-8.016458,55.116576],[-8.016458,55.116307],[-8.012696,55.116307],[-8.012696,55.116038],[-8.011756,55.116038],[-8.011756,55.115768],[-8.010815,55.115768],[-8.010815,55.115499],[-8.009875,55.115499],[-8.009875,55.115229],[-8.008934,55.115229],[-8.008934,55.115499],[-8.008466,55.115499],[-8.008635,55.115736],[-8.008845,55.116026],[-8.009067,55.116368],[-8.009181,55.11658],[-8.009262,55.116715],[-8.009321,55.116839],[-8.009405,55.116963],[-8.009405,55.116847],[-8.010345,55.116847],[-8.010345,55.117116],[-8.010816,55.117116],[-8.010816,55.117386],[-8.010816,55.117655],[-8.010346,55.117655],[-8.010346,55.117925],[-8.010006,55.117925],[-8.010127,55.118122],[-8.010243,55.11831],[-8.010271,55.118355],[-8.010346,55.118477],[-8.010346,55.118464],[-8.013638,55.118463],[-8.013638,55.118733],[-8.015989,55.118733],[-8.015989,55.118463],[-8.015989,55.118194],[-8.016459,55.118193],[-8.016459,55.117924],[-8.0174,55.117924],[-8.017399,55.117654],[-8.01834,55.117654],[-8.01834,55.117924],[-8.01834,55.118193],[-8.01787,55.118193],[-8.01787,55.118463],[-8.0174,55.118463],[-8.0174,55.118732],[-8.01693,55.118732],[-8.01693,55.119002],[-8.016459,55.119002],[-8.01646,55.119272],[-8.01646,55.119541],[-8.015989,55.119541],[-8.01599,55.119811],[-8.015519,55.119811],[-8.015519,55.12008],[-8.015049,55.12008],[-8.015049,55.12035],[-8.014579,55.12035],[-8.014579,55.120619],[-8.014109,55.12062],[-8.014109,55.120889],[-8.013168,55.120889],[-8.013168,55.121159],[-8.011996,55.121159],[-8.012175,55.121449],[-8.012249,55.12157],[-8.012276,55.121613],[-8.012349,55.121732],[-8.012458,55.121667],[-8.012547,55.121615],[-8.012597,55.121618],[-8.01268,55.121622],[-8.012706,55.121623],[-8.013165,55.121551],[-8.013193,55.121528],[-8.013161,55.12147],[-8.013139,55.121429],[-8.013121,55.121397],[-8.01316,55.12133],[-8.013467,55.121282],[-8.013735,55.121234],[-8.014015,55.1212],[-8.014156,55.121186],[-8.014342,55.121138],[-8.014533,55.121089],[-8.014712,55.121068],[-8.014883,55.121038],[-8.015309,55.12082],[-8.015429,55.120731],[-8.015612,55.12067],[-8.015845,55.120584],[-8.016023,55.120528],[-8.016125,55.120517],[-8.01635,55.120491],[-8.016521,55.120462],[-8.01672,55.120434],[-8.016743,55.120396],[-8.016875,55.120382],[-8.016906,55.120353],[-8.017034,55.120318],[-8.017271,55.120254],[-8.017788,55.120156],[-8.017967,55.120118],[-8.018095,55.120073],[-8.0182,55.120045],[-8.01832,55.119956],[-8.018394,55.11994],[-8.018491,55.11992],[-8.018577,55.119919],[-8.018651,55.119977],[-8.018819,55.119954],[-8.018857,55.119916],[-8.018923,55.1199],[-8.019009,55.119902],[-8.019075,55.119877],[-8.019215,55.119846],[-8.019258,55.119826],[-8.019324,55.119816],[-8.019464,55.119805],[-8.019592,55.11978],[-8.019647,55.119789],[-8.019674,55.119809],[-8.019694,55.119811],[-8.019717,55.119791],[-8.019721,55.119764],[-8.019756,55.119755],[-8.019775,55.119766],[-8.019799,55.119784],[-8.019826,55.119784],[-8.019873,55.119783],[-8.019931,55.119777],[-8.019954,55.119752],[-8.019989,55.119736],[-8.020024,55.119707],[-8.020113,55.119689],[-8.020156,55.119682],[-8.020187,55.119682],[-8.020207,55.119655],[-8.020241,55.119644],[-8.020474,55.119554],[-8.020632,55.119471],[-8.020682,55.119375],[-8.020732,55.119204],[-8.020862,55.119077],[-8.020991,55.118986],[-8.021048,55.118946],[-8.021101,55.118921],[-8.02131,55.118821],[-8.021546,55.118801],[-8.021756,55.118807],[-8.021984,55.118844],[-8.022125,55.118937],[-8.022336,55.119226],[-8.02238,55.119228],[-8.022458,55.119253],[-8.022497,55.119277],[-8.022501,55.119311],[-8.022502,55.11942],[-8.022518,55.11944],[-8.022592,55.119431],[-8.022627,55.119435],[-8.022627,55.119466],[-8.022628,55.119516],[-8.022663,55.119553],[-8.022729,55.1196],[-8.022773,55.119671],[-8.022785,55.11972],[-8.022801,55.119745],[-8.022852,55.119774],[-8.022879,55.119834],[-8.022899,55.119859],[-8.022868,55.11993],[-8.022877,55.119968],[-8.022927,55.119983],[-8.022994,55.119981],[-8.02304,55.119992],[-8.023103,55.119983],[-8.023157,55.119965],[-8.023246,55.119929],[-8.023278,55.119956],[-8.023348,55.120045],[-8.023356,55.120078],[-8.023871,55.120101],[-8.02479,55.120138],[-8.025616,55.120167],[-8.025702,55.120165],[-8.026247,55.12015],[-8.026691,55.12015],[-8.026828,55.120149],[-8.027085,55.120153],[-8.02748,55.120152],[-8.02785,55.120141],[-8.028399,55.120132],[-8.028799,55.120121],[-8.029444,55.120094],[-8.02973,55.120089],[-8.030069,55.120083],[-8.030381,55.120069],[-8.030462,55.120066],[-8.030469,55.120066],[-8.030633,55.120068],[-8.031014,55.120057],[-8.03138,55.120045],[-8.031729,55.120037],[-8.032094,55.120026],[-8.032541,55.120014],[-8.033062,55.119999],[-8.033627,55.119982],[-8.034405,55.119965],[-8.035031,55.119947],[-8.035768,55.119921],[-8.036517,55.119909],[-8.037084,55.119892],[-8.037638,55.119874],[-8.037943,55.119865],[-8.038558,55.119852],[-8.039357,55.119823],[-8.039958,55.11979],[-8.040152,55.119784],[-8.040481,55.11978],[-8.041166,55.119779],[-8.041868,55.119783],[-8.042229,55.119804],[-8.042815,55.119819],[-8.042963,55.119822],[-8.043448,55.11983],[-8.043679,55.119845],[-8.043624,55.119766],[-8.043596,55.119712],[-8.043574,55.11967],[-8.043556,55.119637],[-8.042926,55.118507],[-8.042656,55.118095],[-8.042397,55.117647],[-8.042261,55.117379],[-8.042192,55.117244],[-8.041956,55.116653],[-8.041751,55.116051],[-8.041425,55.115088],[-8.041255,55.114456],[-8.041173,55.114152],[-8.041164,55.114118],[-8.041085,55.113836],[-8.041,55.11355],[-8.040923,55.113285],[-8.040863,55.113008],[-8.040845,55.112922],[-8.040535,55.111944],[-8.040402,55.111553],[-8.040282,55.111288],[-8.039891,55.110411],[-8.0398,55.110234],[-8.039585,55.109699],[-8.039571,55.109669],[-8.03944,55.109733],[-8.039262,55.109819],[-8.03918,55.109869],[-8.039047,55.109932],[-8.038974,55.109942],[-8.038908,55.109948],[-8.038818,55.10995],[-8.038728,55.109953],[-8.038655,55.109963],[-8.038578,55.109977],[-8.038501,55.109987],[-8.038446,55.11],[-8.03843,55.110004],[-8.038418,55.110014],[-8.038396,55.110033],[-8.038379,55.110043],[-8.037647,55.110372],[-8.039024,55.110372],[-8.039025,55.110911],[-8.038084,55.110911],[-8.038084,55.111181],[-8.037144,55.111181],[-8.037144,55.110912],[-8.036674,55.110912],[-8.036674,55.110785],[-8.035891,55.111086],[-8.035382,55.111283],[-8.03214,55.112688],[-8.032056,55.113156],[-8.031844,55.113649],[-8.031613,55.114005],[-8.031567,55.114092],[-8.031373,55.114193],[-8.031003,55.114305],[-8.030744,55.114422],[-8.030611,55.11454],[-8.026585,55.11432],[-8.024778,55.114248],[-8.023857,55.114249],[-8.02338,55.114522],[-8.023041,55.114683],[-8.023041,55.114689],[-8.023028,55.114689],[-8.022868,55.114764]],[[-8.039967,55.112797],[-8.039497,55.112798],[-8.039497,55.113067],[-8.039027,55.113067],[-8.039027,55.113337],[-8.038557,55.113337],[-8.038557,55.113607],[-8.038087,55.113607],[-8.038087,55.113876],[-8.036676,55.113877],[-8.036676,55.113607],[-8.035736,55.113607],[-8.035735,55.113338],[-8.036206,55.113338],[-8.036205,55.113068],[-8.036676,55.113068],[-8.036675,55.112799],[-8.037616,55.112798],[-8.037616,55.112529],[-8.038086,55.112529],[-8.038086,55.112798],[-8.039026,55.112798],[-8.039026,55.112528],[-8.039967,55.112528],[-8.039967,55.112797]],[[-8.039968,55.113606],[-8.039497,55.113606],[-8.039497,55.113337],[-8.039967,55.113337],[-8.039968,55.113606]],[[-8.022102,55.117114],[-8.021631,55.117115],[-8.021631,55.116845],[-8.021631,55.116576],[-8.021631,55.116306],[-8.022571,55.116306],[-8.022572,55.116575],[-8.023042,55.116575],[-8.023042,55.116306],[-8.023042,55.116036],[-8.023041,55.115767],[-8.023041,55.115497],[-8.023511,55.115497],[-8.023512,55.115767],[-8.024922,55.115766],[-8.024922,55.115497],[-8.027273,55.115496],[-8.027273,55.115766],[-8.030565,55.115765],[-8.030565,55.116035],[-8.029155,55.116035],[-8.029155,55.116304],[-8.028214,55.116305],[-8.028215,55.116574],[-8.027274,55.116574],[-8.027274,55.116305],[-8.026333,55.116305],[-8.026334,55.116575],[-8.025393,55.116575],[-8.025393,55.116844],[-8.022102,55.116845],[-8.022102,55.117114]],[[-8.020691,55.117115],[-8.021631,55.117115],[-8.021632,55.117384],[-8.021632,55.117654],[-8.020691,55.117654],[-8.020691,55.117923],[-8.020221,55.117923],[-8.020221,55.118193],[-8.019751,55.118193],[-8.019751,55.117923],[-8.019751,55.117654],[-8.019751,55.117384],[-8.020691,55.117384],[-8.020691,55.117115]],[[-8.03668,55.11765],[-8.03668,55.11792],[-8.03668,55.118189],[-8.03574,55.118189],[-8.03574,55.118459],[-8.0348,55.118459],[-8.0348,55.118729],[-8.033859,55.118729],[-8.033859,55.118998],[-8.031978,55.118999],[-8.031978,55.118729],[-8.031978,55.11846],[-8.032918,55.11846],[-8.032918,55.11819],[-8.034329,55.11819],[-8.034329,55.11792],[-8.035269,55.11792],[-8.035269,55.11765],[-8.035739,55.11765],[-8.035739,55.117381],[-8.03668,55.117381],[-8.03668,55.11765]],[[-8.026805,55.117653],[-8.026805,55.117922],[-8.025864,55.117922],[-8.025864,55.117653],[-8.025864,55.117383],[-8.026334,55.117383],[-8.026334,55.117653],[-8.026805,55.117653]],[[-8.023513,55.117923],[-8.022572,55.117923],[-8.022572,55.117653],[-8.023513,55.117653],[-8.023513,55.117923]]],[[[-8.010504,55.118733],[-8.011499,55.12035],[-8.012227,55.12035],[-8.012227,55.120081],[-8.012698,55.120081],[-8.012698,55.119811],[-8.011757,55.119811],[-8.011757,55.119542],[-8.011757,55.119272],[-8.014108,55.119272],[-8.014108,55.119002],[-8.010816,55.119003],[-8.010816,55.118733],[-8.010504,55.118733]]],[[[-8.009674,55.117386],[-8.009875,55.117712],[-8.009875,55.117655],[-8.010346,55.117655],[-8.010346,55.117386],[-8.009875,55.117386],[-8.009875,55.117116],[-8.009501,55.117116],[-8.009536,55.117172],[-8.009591,55.117251],[-8.009674,55.117386]]]]}}]}
