{"type":"FeatureCollection","features":[{"type":"Feature","properties":{"source_fid":2709430,"county":"Donegal","bog_geom_ha":131.98576986509366,"low15_pct":80.33898305084746,"low15_ha":106.03602528144812,"overlay_ha":106.14536078188033,"area_delta":0.10933550043220919},"geometry":{"type":"MultiPolygon","coordinates":[[[[-7.875006,54.763611],[-7.874753,54.763707],[-7.875005,54.763855],[-7.875006,54.763611]]],[[[-7.878294,54.762584],[-7.87823,54.762502],[-7.87816,54.762413],[-7.87771,54.762592],[-7.876834,54.762925],[-7.876561,54.76303],[-7.876558,54.763962],[-7.876938,54.763962],[-7.876939,54.763423],[-7.877405,54.763423],[-7.877406,54.763154],[-7.877407,54.762884],[-7.877873,54.762885],[-7.877874,54.762615],[-7.878319,54.762616],[-7.878294,54.762584]]],[[[-7.879433,54.764044],[-7.878804,54.763239],[-7.878804,54.763425],[-7.878338,54.763424],[-7.878336,54.763963],[-7.878335,54.764233],[-7.878335,54.764502],[-7.877868,54.764502],[-7.877869,54.764232],[-7.876937,54.764231],[-7.876936,54.764501],[-7.876557,54.764501],[-7.876553,54.765686],[-7.879433,54.764044]]],[[[-7.876552,54.765967],[-7.876711,54.765967],[-7.876553,54.765755],[-7.876552,54.765967]]],[[[-7.874801,54.765965],[-7.874999,54.765965],[-7.874999,54.765782],[-7.874801,54.765965]]],[[[-7.876921,54.769561],[-7.878095,54.769562],[-7.878096,54.769084],[-7.877855,54.769084],[-7.877855,54.768815],[-7.877856,54.768663],[-7.876923,54.768662],[-7.876921,54.769353],[-7.876921,54.769561]]],[[[-7.871612,54.768873],[-7.871495,54.768992],[-7.871377,54.769116],[-7.871244,54.76926],[-7.87103,54.769485],[-7.87096,54.769554],[-7.87188,54.769555],[-7.871883,54.768667],[-7.871713,54.768809],[-7.871612,54.768873]]],[[[-7.87015,54.770177],[-7.870112,54.77025],[-7.870077,54.770322],[-7.870095,54.770348],[-7.870049,54.770395],[-7.869986,54.770452],[-7.869853,54.770571],[-7.869693,54.7707],[-7.869438,54.770887],[-7.86941,54.770924],[-7.869288,54.771079],[-7.869222,54.771103],[-7.868725,54.771272],[-7.868648,54.771309],[-7.868496,54.771385],[-7.868364,54.77149],[-7.868356,54.771509],[-7.868316,54.771521],[-7.867982,54.771812],[-7.867828,54.771911],[-7.867425,54.77216],[-7.867401,54.772177],[-7.867261,54.772271],[-7.867063,54.772389],[-7.867002,54.772381],[-7.866704,54.772343],[-7.866417,54.772306],[-7.865871,54.772233],[-7.865847,54.77223],[-7.865548,54.7722],[-7.865252,54.772173],[-7.865291,54.772282],[-7.865315,54.772364],[-7.865378,54.772546],[-7.865439,54.772734],[-7.865534,54.773006],[-7.865535,54.773024],[-7.865547,54.773057],[-7.865552,54.773076],[-7.865563,54.77309],[-7.865573,54.773113],[-7.865572,54.773126],[-7.865575,54.773142],[-7.867207,54.773143],[-7.867204,54.774042],[-7.870312,54.774045],[-7.870309,54.774943],[-7.86906,54.774942],[-7.869254,54.775005],[-7.869444,54.775005],[-7.869444,54.775067],[-7.869707,54.775153],[-7.869822,54.775191],[-7.870073,54.775275],[-7.870204,54.775319],[-7.870217,54.775323],[-7.870303,54.775347],[-7.870308,54.775349],[-7.870505,54.775413],[-7.870661,54.775464],[-7.870974,54.775562],[-7.871501,54.775737],[-7.87183,54.775843],[-7.87186,54.775843],[-7.87186,54.775853],[-7.871895,54.775864],[-7.872359,54.776006],[-7.872926,54.776178],[-7.873538,54.776365],[-7.874026,54.776512],[-7.874588,54.776678],[-7.874889,54.776769],[-7.875085,54.776829],[-7.875581,54.776979],[-7.876253,54.777191],[-7.876429,54.777244],[-7.877079,54.777449],[-7.877174,54.77747],[-7.878363,54.777821],[-7.878995,54.777994],[-7.879649,54.778175],[-7.880703,54.77845],[-7.880769,54.77847],[-7.880975,54.778559],[-7.880936,54.778644],[-7.880918,54.778754],[-7.880877,54.778879],[-7.880811,54.778998],[-7.880837,54.779044],[-7.880806,54.779117],[-7.881671,54.778581],[-7.882072,54.778339],[-7.882483,54.778113],[-7.883284,54.777635],[-7.884098,54.777149],[-7.884893,54.776661],[-7.885698,54.776186],[-7.886516,54.775714],[-7.887295,54.775238],[-7.888128,54.774756],[-7.888562,54.774498],[-7.888562,54.774485],[-7.888096,54.774485],[-7.888097,54.774215],[-7.887631,54.774215],[-7.887631,54.773945],[-7.886699,54.773945],[-7.8867,54.773675],[-7.886233,54.773675],[-7.886234,54.773405],[-7.884369,54.773403],[-7.88437,54.773134],[-7.882971,54.773132],[-7.882972,54.772863],[-7.882506,54.772862],[-7.882506,54.772593],[-7.88204,54.772592],[-7.882041,54.772323],[-7.881109,54.772322],[-7.881108,54.772592],[-7.880641,54.772591],[-7.880641,54.772861],[-7.881107,54.772861],[-7.881106,54.773131],[-7.881572,54.773131],[-7.881572,54.773401],[-7.882504,54.773401],[-7.882503,54.773671],[-7.88297,54.773671],[-7.882969,54.773941],[-7.882036,54.77394],[-7.882037,54.773671],[-7.881105,54.77367],[-7.881105,54.7734],[-7.880639,54.7734],[-7.880638,54.773669],[-7.880638,54.773939],[-7.880171,54.773938],[-7.880172,54.773669],[-7.879706,54.773668],[-7.879707,54.773399],[-7.879707,54.773129],[-7.879708,54.77286],[-7.880174,54.77286],[-7.880175,54.772591],[-7.880176,54.772321],[-7.878777,54.77232],[-7.878778,54.77205],[-7.878312,54.77205],[-7.878313,54.77178],[-7.877846,54.77178],[-7.877847,54.77151],[-7.877848,54.771241],[-7.877382,54.77124],[-7.877383,54.770971],[-7.876916,54.77097],[-7.876915,54.771509],[-7.876913,54.772048],[-7.876912,54.772318],[-7.876446,54.772317],[-7.876447,54.772048],[-7.875981,54.772047],[-7.875982,54.771508],[-7.875516,54.771508],[-7.875518,54.770969],[-7.875519,54.770699],[-7.875519,54.770457],[-7.874121,54.770456],[-7.87412,54.770698],[-7.873187,54.770697],[-7.873188,54.770455],[-7.870324,54.770452],[-7.870325,54.770049],[-7.87028,54.770082],[-7.87015,54.770177]],[[-7.872255,54.770696],[-7.873187,54.770697],[-7.873187,54.770966],[-7.873186,54.771236],[-7.873652,54.771236],[-7.873651,54.771506],[-7.872719,54.771505],[-7.87272,54.771235],[-7.87272,54.770966],[-7.872254,54.770965],[-7.872255,54.770696]],[[-7.87365,54.772045],[-7.873651,54.771506],[-7.874584,54.771507],[-7.874582,54.772046],[-7.87365,54.772045]],[[-7.871971,54.772808],[-7.871525,54.773201],[-7.871077,54.773069],[-7.871248,54.772851],[-7.87085,54.772851],[-7.870851,54.772311],[-7.870852,54.772042],[-7.871318,54.772042],[-7.871317,54.772312],[-7.871784,54.772312],[-7.871782,54.77271],[-7.87189,54.772763],[-7.871971,54.772808]],[[-7.8839,54.774481],[-7.883434,54.774481],[-7.883434,54.774211],[-7.883901,54.774211],[-7.8839,54.774481]]],[[[-7.87785,54.77046],[-7.877384,54.770459],[-7.877383,54.770701],[-7.87785,54.770701],[-7.87785,54.77046]]],[[[-7.878095,54.769562],[-7.878092,54.770432],[-7.878317,54.770432],[-7.878318,54.770163],[-7.878318,54.769893],[-7.878319,54.769562],[-7.878095,54.769562]]],[[[-7.884245,54.765186],[-7.882525,54.766159],[-7.882524,54.766393],[-7.882524,54.766663],[-7.88299,54.766663],[-7.882989,54.766933],[-7.882988,54.767202],[-7.882522,54.767202],[-7.882521,54.767741],[-7.88252,54.768011],[-7.882986,54.768011],[-7.882985,54.768281],[-7.882984,54.76855],[-7.882518,54.76855],[-7.882519,54.76828],[-7.882053,54.76828],[-7.882054,54.76801],[-7.881587,54.76801],[-7.881587,54.768279],[-7.88112,54.768279],[-7.88112,54.768548],[-7.880653,54.768548],[-7.880653,54.768817],[-7.881119,54.768818],[-7.881118,54.769087],[-7.880652,54.769087],[-7.880649,54.769896],[-7.881116,54.769896],[-7.881115,54.770166],[-7.881581,54.770166],[-7.88158,54.770436],[-7.882513,54.770437],[-7.882512,54.770706],[-7.883444,54.770707],[-7.883444,54.770977],[-7.883443,54.771246],[-7.883442,54.771516],[-7.882976,54.771515],[-7.882975,54.771785],[-7.882974,54.772054],[-7.88344,54.772055],[-7.88344,54.772324],[-7.883906,54.772325],[-7.883907,54.772055],[-7.885772,54.772057],[-7.885772,54.771787],[-7.88484,54.771786],[-7.884841,54.771517],[-7.886239,54.771518],[-7.886239,54.771788],[-7.886238,54.772057],[-7.886704,54.772058],[-7.886703,54.772327],[-7.88717,54.772328],[-7.887169,54.772597],[-7.888101,54.772598],[-7.888101,54.772868],[-7.888567,54.772868],[-7.888566,54.773138],[-7.888565,54.773407],[-7.887633,54.773406],[-7.887632,54.773676],[-7.888098,54.773676],[-7.888098,54.773946],[-7.888564,54.773946],[-7.888563,54.774216],[-7.889029,54.774216],[-7.889029,54.774222],[-7.88973,54.77382],[-7.889868,54.773742],[-7.890558,54.773357],[-7.891383,54.772901],[-7.891436,54.772871],[-7.891364,54.772871],[-7.891365,54.772601],[-7.889966,54.7726],[-7.889967,54.77233],[-7.889968,54.772061],[-7.890434,54.772061],[-7.890433,54.772331],[-7.8909,54.772331],[-7.8909,54.772062],[-7.890901,54.771792],[-7.890435,54.771792],[-7.890435,54.771522],[-7.890436,54.771253],[-7.890902,54.771253],[-7.890902,54.771523],[-7.891368,54.771523],[-7.891367,54.771792],[-7.891833,54.771793],[-7.891833,54.772062],[-7.892822,54.772063],[-7.893004,54.771957],[-7.893534,54.771649],[-7.893987,54.771419],[-7.893855,54.771353],[-7.893703,54.771282],[-7.89331,54.77106],[-7.892726,54.77075],[-7.892314,54.770516],[-7.891743,54.770217],[-7.89168,54.770182],[-7.890908,54.769752],[-7.890211,54.769382],[-7.889938,54.769215],[-7.889787,54.769149],[-7.889665,54.769066],[-7.889388,54.768922],[-7.888677,54.768529],[-7.888517,54.768462],[-7.888238,54.768309],[-7.887847,54.768086],[-7.887021,54.767644],[-7.886915,54.767548],[-7.886717,54.767375],[-7.886395,54.767095],[-7.886284,54.766991],[-7.886129,54.766875],[-7.885073,54.765912],[-7.884675,54.765525],[-7.884561,54.765454],[-7.884418,54.765362],[-7.884245,54.765186]],[[-7.88532,54.766935],[-7.883921,54.766934],[-7.883922,54.766664],[-7.885321,54.766666],[-7.88532,54.766935]]],[[[-7.880654,54.768278],[-7.880655,54.768009],[-7.880189,54.768008],[-7.880188,54.768278],[-7.880654,54.768278]]]]}}]}
