{"type":"FeatureCollection","features":[{"type":"Feature","properties":{"source_fid":2709400,"county":"Donegal","bog_geom_ha":312.97437908220661,"low15_pct":83.499857265201257,"low15_ha":261.33315981029244,"overlay_ha":261.17352344519469,"area_delta":-0.1596363650977537},"geometry":{"type":"MultiPolygon","coordinates":[[[[-7.840786,54.881073],[-7.840727,54.881014],[-7.840696,54.88099],[-7.840679,54.880905],[-7.840367,54.880904],[-7.84037,54.880006],[-7.841928,54.880008],[-7.841942,54.876415],[-7.838827,54.876411],[-7.83883,54.875513],[-7.840388,54.875515],[-7.840395,54.873718],[-7.838837,54.873716],[-7.838841,54.872818],[-7.841956,54.872822],[-7.84196,54.871924],[-7.843517,54.871926],[-7.843514,54.872824],[-7.844823,54.872826],[-7.844823,54.87282],[-7.845758,54.872821],[-7.845759,54.872552],[-7.846226,54.872552],[-7.846225,54.872822],[-7.846225,54.872828],[-7.851302,54.872834],[-7.851282,54.878223],[-7.851277,54.879727],[-7.851482,54.879833],[-7.851731,54.879956],[-7.851932,54.880016],[-7.851949,54.880021],[-7.853575,54.880023],[-7.853883,54.879991],[-7.854068,54.879928],[-7.854356,54.879934],[-7.854363,54.879915],[-7.85439,54.87985],[-7.854392,54.879849],[-7.854395,54.879125],[-7.856953,54.879129],[-7.856953,54.879034],[-7.859758,54.879038],[-7.859759,54.878768],[-7.860694,54.878769],[-7.860693,54.879039],[-7.861628,54.87904],[-7.861627,54.879309],[-7.863497,54.879311],[-7.863498,54.879042],[-7.863966,54.879042],[-7.863966,54.878773],[-7.864434,54.878773],[-7.864435,54.878504],[-7.866305,54.878506],[-7.866304,54.878775],[-7.865836,54.878775],[-7.865836,54.878973],[-7.865958,54.878945],[-7.866704,54.878757],[-7.866747,54.878727],[-7.866814,54.87868],[-7.86704,54.878513],[-7.867075,54.878487],[-7.867084,54.87848],[-7.867581,54.878133],[-7.867839,54.877953],[-7.868378,54.877577],[-7.868899,54.877199],[-7.868987,54.877141],[-7.869028,54.877114],[-7.869418,54.876854],[-7.870209,54.87638],[-7.870328,54.876315],[-7.870615,54.876157],[-7.87101,54.875966],[-7.871644,54.87566],[-7.871775,54.875598],[-7.872265,54.87543],[-7.872359,54.875407],[-7.872364,54.875397],[-7.872406,54.875237],[-7.872413,54.875107],[-7.872379,54.875092],[-7.872286,54.875079],[-7.872281,54.875068],[-7.872298,54.875047],[-7.872312,54.875032],[-7.872395,54.874987],[-7.872517,54.874962],[-7.87262,54.874946],[-7.872733,54.874918],[-7.872792,54.874905],[-7.872845,54.874877],[-7.872917,54.874875],[-7.872984,54.874855],[-7.873063,54.874833],[-7.873103,54.874818],[-7.873104,54.874655],[-7.873349,54.874655],[-7.873364,54.874607],[-7.873438,54.874555],[-7.873535,54.874508],[-7.87358,54.874451],[-7.873686,54.874384],[-7.873713,54.874344],[-7.873683,54.87432],[-7.873626,54.874308],[-7.873648,54.874254],[-7.873664,54.874243],[-7.87371,54.87421],[-7.873803,54.874206],[-7.874005,54.874186],[-7.87415,54.87413],[-7.874271,54.874074],[-7.87429,54.873988],[-7.874302,54.873932],[-7.873798,54.873932],[-7.873799,54.873662],[-7.874384,54.873663],[-7.874399,54.873645],[-7.874402,54.873602],[-7.874348,54.873572],[-7.874327,54.873555],[-7.874281,54.873532],[-7.874275,54.873514],[-7.874294,54.873492],[-7.874342,54.87347],[-7.874375,54.873435],[-7.874381,54.873398],[-7.874359,54.873354],[-7.874347,54.873309],[-7.874399,54.873265],[-7.874436,54.873172],[-7.874443,54.873097],[-7.87449,54.872988],[-7.874518,54.872904],[-7.874584,54.872762],[-7.874663,54.872699],[-7.874732,54.872615],[-7.874764,54.872555],[-7.874773,54.872511],[-7.874828,54.872479],[-7.874839,54.872435],[-7.874798,54.872402],[-7.874768,54.872362],[-7.874791,54.872307],[-7.87485,54.872277],[-7.874935,54.872255],[-7.875014,54.872193],[-7.875056,54.872136],[-7.875044,54.872096],[-7.875073,54.87207],[-7.87526,54.871923],[-7.875398,54.871876],[-7.875457,54.871835],[-7.875508,54.871771],[-7.875574,54.871669],[-7.875617,54.871611],[-7.875751,54.871537],[-7.875795,54.871404],[-7.875855,54.871376],[-7.875941,54.871308],[-7.876036,54.871239],[-7.87614,54.871157],[-7.876264,54.871053],[-7.876429,54.870894],[-7.876514,54.870827],[-7.876717,54.870767],[-7.876729,54.870764],[-7.876809,54.870705],[-7.876975,54.870584],[-7.877079,54.870451],[-7.877239,54.870357],[-7.87736,54.870121],[-7.877404,54.870028],[-7.877395,54.869922],[-7.877389,54.869828],[-7.877456,54.86975],[-7.877582,54.869588],[-7.87764,54.869572],[-7.877641,54.869572],[-7.877768,54.869191],[-7.878202,54.867913],[-7.876157,54.866897],[-7.876157,54.866926],[-7.876156,54.867196],[-7.875689,54.867195],[-7.875687,54.867734],[-7.87522,54.867734],[-7.875219,54.868003],[-7.875218,54.868273],[-7.875217,54.868542],[-7.873815,54.868541],[-7.873814,54.86881],[-7.87288,54.868809],[-7.872881,54.86854],[-7.872413,54.868539],[-7.872414,54.86827],[-7.872881,54.86827],[-7.872882,54.868001],[-7.873125,54.868001],[-7.873126,54.867469],[-7.873819,54.86747],[-7.873819,54.867193],[-7.874287,54.867194],[-7.874288,54.866924],[-7.874755,54.866925],[-7.874756,54.866655],[-7.875223,54.866656],[-7.875224,54.866518],[-7.874747,54.86639],[-7.874153,54.866241],[-7.873872,54.866171],[-7.873708,54.866129],[-7.873423,54.866072],[-7.873218,54.866049],[-7.873034,54.866021],[-7.872763,54.865981],[-7.872374,54.865924],[-7.872041,54.865885],[-7.8711,54.86577],[-7.870368,54.865684],[-7.869969,54.865638],[-7.86938,54.865561],[-7.868852,54.865481],[-7.868341,54.86543],[-7.867544,54.865316],[-7.866686,54.865207],[-7.866104,54.865137],[-7.865542,54.865059],[-7.865217,54.865022],[-7.86509,54.865001],[-7.864906,54.864987],[-7.864557,54.865002],[-7.86419,54.865031],[-7.863378,54.865128],[-7.862794,54.865192],[-7.862189,54.865263],[-7.861632,54.86532],[-7.861024,54.86539],[-7.860459,54.865434],[-7.859864,54.865489],[-7.859296,54.865554],[-7.858709,54.865637],[-7.858523,54.865659],[-7.85834,54.865696],[-7.858043,54.865742],[-7.857954,54.865769],[-7.857752,54.865793],[-7.857361,54.865827],[-7.856981,54.865888],[-7.856619,54.865943],[-7.856261,54.866004],[-7.855739,54.866095],[-7.855283,54.866188],[-7.855136,54.866217],[-7.855121,54.866221],[-7.855042,54.866307],[-7.853251,54.866193],[-7.853191,54.866173],[-7.852965,54.866162],[-7.852734,54.866128],[-7.852473,54.86609],[-7.852449,54.866087],[-7.851841,54.865955],[-7.851295,54.865864],[-7.850709,54.865754],[-7.850314,54.865689],[-7.84981,54.865589],[-7.849204,54.865474],[-7.849054,54.865446],[-7.848043,54.865247],[-7.846977,54.865043],[-7.846867,54.865022],[-7.846862,54.865025],[-7.846469,54.865281],[-7.846124,54.865495],[-7.845566,54.865831],[-7.845008,54.866145],[-7.844791,54.866256],[-7.84426,54.866526],[-7.844224,54.866543],[-7.844042,54.866629],[-7.843681,54.866799],[-7.843497,54.866886],[-7.843435,54.866936],[-7.843324,54.866991],[-7.843124,54.86709],[-7.843118,54.867093],[-7.842988,54.867157],[-7.843443,54.867158],[-7.843442,54.867427],[-7.844376,54.867429],[-7.844375,54.867698],[-7.843908,54.867698],[-7.843907,54.867967],[-7.84344,54.867967],[-7.843441,54.867697],[-7.842973,54.867696],[-7.842974,54.867427],[-7.842507,54.867426],[-7.842507,54.867378],[-7.842377,54.867421],[-7.842302,54.867449],[-7.842082,54.86753],[-7.842046,54.867543],[-7.84183,54.867618],[-7.841745,54.867651],[-7.841861,54.867732],[-7.84221,54.867966],[-7.841206,54.868373],[-7.840815,54.868083],[-7.840792,54.868067],[-7.840757,54.868041],[-7.839995,54.86837],[-7.839984,54.868375],[-7.839094,54.868758],[-7.838716,54.868913],[-7.837777,54.869297],[-7.836634,54.869764],[-7.83438,54.870659],[-7.834218,54.870698],[-7.83416,54.87071],[-7.834109,54.870751],[-7.834024,54.870771],[-7.833942,54.870793],[-7.833904,54.870791],[-7.833764,54.870883],[-7.833722,54.870909],[-7.833689,54.87093],[-7.833551,54.870961],[-7.833435,54.870974],[-7.833268,54.871032],[-7.833163,54.871046],[-7.83431,54.871636],[-7.836952,54.872954],[-7.837875,54.873497],[-7.838144,54.873637],[-7.838517,54.873824],[-7.839005,54.874085],[-7.839488,54.874322],[-7.839292,54.874616],[-7.839013,54.87499],[-7.8388,54.875328],[-7.838556,54.875646],[-7.838505,54.875726],[-7.83809,54.876345],[-7.837807,54.876735],[-7.83765,54.876946],[-7.8373,54.87745],[-7.837026,54.877852],[-7.836926,54.877956],[-7.8367,54.878164],[-7.8364,54.878441],[-7.836225,54.878616],[-7.836188,54.878653],[-7.834527,54.880282],[-7.834283,54.88052],[-7.833752,54.881046],[-7.833422,54.881402],[-7.83312,54.881726],[-7.832893,54.881922],[-7.832816,54.881927],[-7.832784,54.881952],[-7.832347,54.882052],[-7.832139,54.882077],[-7.832255,54.882199],[-7.832352,54.882349],[-7.832467,54.882463],[-7.832846,54.882783],[-7.833252,54.883103],[-7.833481,54.883275],[-7.833779,54.883537],[-7.834167,54.884022],[-7.834462,54.884545],[-7.834551,54.884722],[-7.834725,54.884964],[-7.834939,54.885169],[-7.835019,54.88525],[-7.835056,54.885263],[-7.835083,54.885241],[-7.835282,54.885067],[-7.835379,54.885013],[-7.835546,54.884926],[-7.835662,54.884888],[-7.835706,54.884878],[-7.836112,54.884885],[-7.836178,54.884873],[-7.83624,54.884836],[-7.836307,54.884737],[-7.836428,54.884589],[-7.836454,54.884579],[-7.836486,54.884574],[-7.836601,54.884554],[-7.836697,54.884546],[-7.836849,54.884529],[-7.837126,54.884452],[-7.837242,54.884394],[-7.837357,54.884321],[-7.837437,54.884246],[-7.837508,54.884135],[-7.837554,54.884058],[-7.837593,54.883995],[-7.837687,54.883915],[-7.837819,54.883811],[-7.837857,54.883766],[-7.837932,54.883653],[-7.837981,54.883623],[-7.838001,54.883596],[-7.837301,54.883595],[-7.837299,54.884131],[-7.836832,54.88413],[-7.83683,54.8844],[-7.836363,54.884399],[-7.836364,54.88413],[-7.836366,54.88359],[-7.836834,54.883591],[-7.836836,54.883052],[-7.837242,54.883053],[-7.837243,54.882697],[-7.837772,54.882697],[-7.837773,54.882514],[-7.838241,54.882515],[-7.83824,54.882698],[-7.838801,54.882699],[-7.838801,54.882755],[-7.838808,54.882744],[-7.838795,54.882644],[-7.838768,54.882594],[-7.838766,54.882433],[-7.838802,54.882381],[-7.838841,54.882278],[-7.838886,54.882208],[-7.838977,54.882136],[-7.83911,54.882066],[-7.839297,54.881965],[-7.839454,54.881895],[-7.839529,54.881862],[-7.839704,54.881778],[-7.839873,54.881708],[-7.840059,54.881598],[-7.840199,54.881498],[-7.84042,54.881391],[-7.840571,54.881327],[-7.840711,54.88125],[-7.840825,54.881182],[-7.840828,54.881162],[-7.840786,54.881073]],[[-7.835895,54.884398],[-7.836363,54.884399],[-7.836362,54.884669],[-7.835894,54.884668],[-7.835895,54.884398]],[[-7.856954,54.878765],[-7.856953,54.879034],[-7.856019,54.879033],[-7.85602,54.878764],[-7.855552,54.878763],[-7.855553,54.878494],[-7.856488,54.878495],[-7.856487,54.878764],[-7.856954,54.878765]],[[-7.855554,54.878224],[-7.855553,54.878494],[-7.854618,54.878492],[-7.854619,54.878223],[-7.855554,54.878224]],[[-7.865309,54.876443],[-7.862194,54.87644],[-7.86219,54.877338],[-7.859075,54.877334],[-7.859081,54.875538],[-7.860639,54.87554],[-7.860642,54.874641],[-7.865315,54.874647],[-7.865309,54.876443]],[[-7.870549,54.86692],[-7.870547,54.867459],[-7.871015,54.86746],[-7.871014,54.867729],[-7.871481,54.86773],[-7.87148,54.867999],[-7.870546,54.867998],[-7.870546,54.867729],[-7.870079,54.867728],[-7.87008,54.867459],[-7.870082,54.86692],[-7.869147,54.866919],[-7.869149,54.86638],[-7.86915,54.86611],[-7.870084,54.866111],[-7.870083,54.866381],[-7.870551,54.866381],[-7.870549,54.86692]],[[-7.866329,54.871228],[-7.866796,54.871229],[-7.866795,54.871498],[-7.867263,54.871499],[-7.867262,54.871768],[-7.86726,54.872307],[-7.866793,54.872307],[-7.866792,54.872577],[-7.868661,54.872579],[-7.86866,54.872848],[-7.869128,54.872849],[-7.869127,54.873118],[-7.870062,54.873119],[-7.870061,54.873389],[-7.870528,54.873389],[-7.870529,54.87312],[-7.870531,54.872581],[-7.870532,54.872311],[-7.870999,54.872312],[-7.871,54.872042],[-7.871935,54.872043],[-7.871936,54.871773],[-7.872403,54.871774],[-7.872405,54.871235],[-7.872872,54.871235],[-7.872874,54.870696],[-7.872406,54.870696],[-7.872407,54.870426],[-7.872408,54.870157],[-7.873343,54.870158],[-7.873342,54.870427],[-7.873809,54.870428],[-7.87381,54.870158],[-7.874278,54.870159],[-7.874278,54.869889],[-7.874746,54.86989],[-7.874745,54.870159],[-7.874744,54.870429],[-7.874277,54.870428],[-7.874276,54.870698],[-7.874274,54.871237],[-7.874273,54.871776],[-7.87474,54.871776],[-7.874739,54.872046],[-7.874272,54.872045],[-7.874271,54.872315],[-7.87427,54.872584],[-7.873803,54.872584],[-7.873801,54.873123],[-7.873334,54.873123],[-7.873333,54.873392],[-7.872865,54.873392],[-7.872864,54.873661],[-7.872864,54.873931],[-7.872396,54.87393],[-7.872395,54.8742],[-7.871928,54.874199],[-7.871927,54.874469],[-7.87146,54.874468],[-7.871459,54.874738],[-7.871458,54.875007],[-7.870991,54.875007],[-7.87099,54.875276],[-7.870055,54.875275],[-7.870054,54.875545],[-7.869119,54.875544],[-7.86912,54.875274],[-7.868653,54.875274],[-7.868653,54.875004],[-7.868186,54.875004],[-7.868187,54.874734],[-7.868654,54.874735],[-7.868655,54.874465],[-7.868188,54.874465],[-7.868189,54.874195],[-7.867721,54.874195],[-7.867722,54.873925],[-7.866787,54.873924],[-7.866788,54.873655],[-7.866789,54.873385],[-7.867256,54.873386],[-7.867256,54.873655],[-7.867723,54.873656],[-7.867724,54.873386],[-7.867725,54.873117],[-7.866323,54.873115],[-7.866323,54.872846],[-7.866324,54.872576],[-7.866325,54.872306],[-7.865858,54.872306],[-7.86586,54.871767],[-7.866327,54.871767],[-7.866328,54.871498],[-7.866329,54.871228]],[[-7.867264,54.871229],[-7.866796,54.871229],[-7.866797,54.870959],[-7.867264,54.87096],[-7.867264,54.871229]],[[-7.864011,54.865565],[-7.86588,54.865567],[-7.865879,54.865837],[-7.865878,54.866107],[-7.865411,54.866106],[-7.86541,54.866376],[-7.864943,54.866375],[-7.864942,54.866645],[-7.864475,54.866644],[-7.864474,54.866914],[-7.863539,54.866913],[-7.86354,54.866643],[-7.863073,54.866643],[-7.863074,54.866373],[-7.862139,54.866372],[-7.86214,54.866102],[-7.861673,54.866102],[-7.861673,54.865832],[-7.862141,54.865833],[-7.862142,54.865563],[-7.863076,54.865564],[-7.863075,54.865834],[-7.86401,54.865835],[-7.864011,54.865565]],[[-7.861201,54.867179],[-7.861201,54.867449],[-7.860266,54.867448],[-7.860265,54.867717],[-7.859798,54.867717],[-7.859797,54.867986],[-7.860264,54.867987],[-7.860263,54.868257],[-7.860262,54.868526],[-7.860261,54.868796],[-7.86026,54.869065],[-7.859793,54.869065],[-7.859792,54.869334],[-7.859791,54.869604],[-7.859324,54.869603],[-7.859325,54.869334],[-7.85839,54.869333],[-7.858389,54.869602],[-7.857454,54.869601],[-7.857453,54.869871],[-7.856986,54.86987],[-7.856987,54.8696],[-7.85652,54.8696],[-7.856519,54.869869],[-7.856051,54.869869],[-7.856052,54.869599],[-7.854183,54.869597],[-7.854184,54.869328],[-7.854185,54.869058],[-7.854186,54.868788],[-7.854653,54.868789],[-7.854652,54.869059],[-7.856054,54.86906],[-7.856055,54.868791],[-7.856522,54.868791],[-7.856521,54.869061],[-7.856989,54.869061],[-7.85699,54.868792],[-7.857924,54.868793],[-7.857925,54.868523],[-7.858393,54.868524],[-7.858394,54.868254],[-7.858861,54.868255],[-7.858862,54.867985],[-7.858863,54.867716],[-7.858864,54.867446],[-7.859331,54.867447],[-7.859332,54.867177],[-7.860734,54.867179],[-7.860735,54.866909],[-7.86167,54.86691],[-7.861669,54.86718],[-7.861201,54.867179]],[[-7.850902,54.872019],[-7.850903,54.871749],[-7.851371,54.87175],[-7.851372,54.87148],[-7.851374,54.870941],[-7.851376,54.870402],[-7.851843,54.870403],[-7.851841,54.870942],[-7.852308,54.870943],[-7.852306,54.871482],[-7.852774,54.871482],[-7.852773,54.871752],[-7.853708,54.871753],[-7.853707,54.872022],[-7.854641,54.872024],[-7.854642,54.871754],[-7.85511,54.871755],[-7.855111,54.871485],[-7.855112,54.871215],[-7.854644,54.871215],[-7.854645,54.870945],[-7.854178,54.870945],[-7.854179,54.870675],[-7.853711,54.870675],[-7.853712,54.870405],[-7.853245,54.870405],[-7.853246,54.870135],[-7.852779,54.870134],[-7.85278,54.869865],[-7.851845,54.869864],[-7.851846,54.869594],[-7.850911,54.869593],[-7.850912,54.869324],[-7.850913,54.869054],[-7.850914,54.868785],[-7.851382,54.868785],[-7.851383,54.868516],[-7.851386,54.867707],[-7.851853,54.867708],[-7.851855,54.867168],[-7.852322,54.867169],[-7.85232,54.867708],[-7.852317,54.868517],[-7.853252,54.868518],[-7.853251,54.868787],[-7.852784,54.868787],[-7.852783,54.869056],[-7.852315,54.869056],[-7.852314,54.869325],[-7.852782,54.869326],[-7.852781,54.869595],[-7.853248,54.869596],[-7.853247,54.869866],[-7.853714,54.869866],[-7.853713,54.870136],[-7.854648,54.870137],[-7.854647,54.870406],[-7.854646,54.870676],[-7.855114,54.870676],[-7.855113,54.870946],[-7.85558,54.870946],[-7.855579,54.871216],[-7.857916,54.871219],[-7.857917,54.870949],[-7.858384,54.87095],[-7.858385,54.87068],[-7.858853,54.870681],[-7.858854,54.870142],[-7.859789,54.870143],[-7.859787,54.870682],[-7.860255,54.870682],[-7.860254,54.870952],[-7.860253,54.871221],[-7.860252,54.871491],[-7.859785,54.87149],[-7.859784,54.87176],[-7.860251,54.871761],[-7.86025,54.87203],[-7.861185,54.872031],[-7.861184,54.872301],[-7.861651,54.872301],[-7.86165,54.872571],[-7.860248,54.872569],[-7.860247,54.872839],[-7.85978,54.872838],[-7.859779,54.873108],[-7.858844,54.873107],[-7.858843,54.873376],[-7.858376,54.873376],[-7.858375,54.873645],[-7.856038,54.873642],[-7.856039,54.873373],[-7.854169,54.873371],[-7.85417,54.873101],[-7.853235,54.8731],[-7.853236,54.87283],[-7.852301,54.872829],[-7.852302,54.87256],[-7.851835,54.872559],[-7.851836,54.87229],[-7.851369,54.872289],[-7.85137,54.87202],[-7.850902,54.872019]],[[-7.853719,54.868518],[-7.853252,54.868518],[-7.853253,54.868248],[-7.85372,54.868249],[-7.853719,54.868518]],[[-7.852789,54.86717],[-7.852322,54.867169],[-7.852324,54.86663],[-7.852791,54.86663],[-7.852789,54.86717]],[[-7.850904,54.87148],[-7.850903,54.871749],[-7.850436,54.871749],[-7.850437,54.871479],[-7.850904,54.87148]],[[-7.850438,54.87121],[-7.850437,54.871479],[-7.849969,54.871479],[-7.84997,54.871209],[-7.850438,54.87121]],[[-7.863524,54.871495],[-7.863524,54.871225],[-7.863992,54.871226],[-7.863991,54.871495],[-7.863524,54.871495]],[[-7.86071,54.874187],[-7.860711,54.873917],[-7.861646,54.873918],[-7.861645,54.874188],[-7.86071,54.874187]],[[-7.857891,54.878227],[-7.857892,54.877957],[-7.858827,54.877958],[-7.858826,54.878228],[-7.857891,54.878227]],[[-7.847651,54.866624],[-7.847653,54.866085],[-7.84812,54.866086],[-7.848118,54.866625],[-7.847651,54.866624]],[[-7.849512,54.868783],[-7.849513,54.868513],[-7.850448,54.868514],[-7.850447,54.868784],[-7.849512,54.868783]],[[-7.849042,54.869591],[-7.849041,54.86986],[-7.848573,54.86986],[-7.848572,54.870129],[-7.847638,54.870128],[-7.847637,54.870398],[-7.847169,54.870397],[-7.847168,54.870667],[-7.845766,54.870665],[-7.845767,54.870395],[-7.8453,54.870395],[-7.845301,54.870125],[-7.845302,54.869856],[-7.844834,54.869855],[-7.844836,54.869586],[-7.846705,54.869588],[-7.846706,54.869318],[-7.847641,54.86932],[-7.847642,54.86905],[-7.848576,54.869051],[-7.848575,54.869321],[-7.849043,54.869321],[-7.849042,54.869591]],[[-7.841563,54.869851],[-7.841096,54.86985],[-7.841095,54.87012],[-7.840627,54.870119],[-7.840626,54.870389],[-7.839691,54.870387],[-7.839692,54.870118],[-7.84016,54.870119],[-7.840161,54.869849],[-7.840162,54.869579],[-7.840164,54.86904],[-7.841099,54.869042],[-7.841097,54.869581],[-7.841564,54.869581],[-7.841563,54.869851]],[[-7.850442,54.870132],[-7.850441,54.870401],[-7.850908,54.870402],[-7.850907,54.870671],[-7.849972,54.87067],[-7.849971,54.87094],[-7.849037,54.870939],[-7.849038,54.870669],[-7.849039,54.870399],[-7.849506,54.8704],[-7.849507,54.87013],[-7.850442,54.870132]]],[[[-7.865235,54.87909],[-7.86539,54.879044],[-7.864901,54.879043],[-7.8649,54.879177],[-7.865235,54.87909]]],[[[-7.863964,54.879425],[-7.86438,54.879312],[-7.863965,54.879312],[-7.863964,54.879425]]],[[[-7.863247,54.879633],[-7.863417,54.879581],[-7.863029,54.87958],[-7.863029,54.879604],[-7.863247,54.879633]]],[[[-7.860654,54.879452],[-7.860692,54.879446],[-7.860692,54.879308],[-7.859068,54.879306],[-7.859067,54.879438],[-7.859873,54.879448],[-7.860654,54.879452]]],[[[-7.848167,54.87822],[-7.848163,54.879118],[-7.849721,54.87912],[-7.849721,54.879026],[-7.849007,54.879025],[-7.849008,54.878755],[-7.84854,54.878755],[-7.848541,54.878485],[-7.849723,54.878486],[-7.849724,54.878222],[-7.848167,54.87822]]],[[[-7.844675,54.880005],[-7.844912,54.880121],[-7.844954,54.880141],[-7.844965,54.88014],[-7.845043,54.880126],[-7.845044,54.880012],[-7.845604,54.880013],[-7.845845,54.879927],[-7.846054,54.879892],[-7.846163,54.879879],[-7.846244,54.879869],[-7.84633,54.879846],[-7.846331,54.879846],[-7.846345,54.879842],[-7.846477,54.879773],[-7.84657,54.879692],[-7.846636,54.879628],[-7.846679,54.879547],[-7.846752,54.879496],[-7.846861,54.87948],[-7.846954,54.879498],[-7.847062,54.879529],[-7.847186,54.879572],[-7.84726,54.879623],[-7.847338,54.87969],[-7.847384,54.879715],[-7.847501,54.879737],[-7.847605,54.879737],[-7.847733,54.879712],[-7.847861,54.879692],[-7.848032,54.87967],[-7.84813,54.879654],[-7.848156,54.87965],[-7.848161,54.879649],[-7.848163,54.879118],[-7.843489,54.879112],[-7.843486,54.88001],[-7.841928,54.880008],[-7.841927,54.88035],[-7.84226,54.880363],[-7.842488,54.880361],[-7.842668,54.880365],[-7.842955,54.880381],[-7.843052,54.880397],[-7.843126,54.8804],[-7.843241,54.880405],[-7.843402,54.880402],[-7.843483,54.880393],[-7.843608,54.880356],[-7.84375,54.880296],[-7.843887,54.880229],[-7.84402,54.880157],[-7.84417,54.880066],[-7.844172,54.880065],[-7.844174,54.880063],[-7.84428,54.88],[-7.844311,54.87998],[-7.844432,54.879939],[-7.844522,54.879942],[-7.844594,54.879956],[-7.844675,54.880005]]]]}}]}
