{"type":"FeatureCollection","features":[{"type":"Feature","properties":{"source_fid":2710243,"county":"Donegal","bog_geom_ha":146.28951501129768,"low15_pct":91.980259099321401,"low15_ha":134.55747494253228,"overlay_ha":134.72704083364258,"area_delta":0.1695658911102953},"geometry":{"type":"MultiPolygon","coordinates":[[[[-8.019116,54.883761],[-8.018934,54.883703],[-8.018912,54.883696],[-8.018889,54.883703],[-8.018631,54.883778],[-8.017993,54.883796],[-8.017977,54.883796],[-8.017897,54.883795],[-8.017905,54.883771],[-8.017905,54.883771],[-8.017889,54.883776],[-8.017777,54.883765],[-8.017646,54.883777],[-8.017546,54.883766],[-8.017494,54.883745],[-8.017442,54.883715],[-8.017362,54.883711],[-8.017202,54.883721],[-8.016986,54.883696],[-8.01679,54.88369],[-8.016595,54.883676],[-8.016475,54.883656],[-8.016243,54.883624],[-8.015987,54.883593],[-8.015935,54.883579],[-8.015896,54.883557],[-8.015896,54.8837],[-8.014961,54.8837],[-8.014961,54.88343],[-8.014493,54.88343],[-8.014493,54.883161],[-8.013091,54.883161],[-8.01309,54.882913],[-8.01289,54.882857],[-8.012789,54.882841],[-8.012552,54.882884],[-8.012382,54.882861],[-8.012281,54.88287],[-8.012111,54.882885],[-8.011337,54.88278],[-8.011226,54.882784],[-8.011015,54.882794],[-8.01089,54.882811],[-8.010688,54.88284],[-8.010334,54.882848],[-8.010022,54.882894],[-8.009632,54.882924],[-8.009435,54.882918],[-8.009107,54.882945],[-8.00883,54.882936],[-8.008734,54.882945],[-8.008576,54.88296],[-8.0083,54.882954],[-8.007921,54.882913],[-8.007604,54.882829],[-8.00748,54.882784],[-8.00748,54.882892],[-8.006545,54.882892],[-8.006545,54.882622],[-8.006078,54.882622],[-8.006078,54.882353],[-8.004675,54.882353],[-8.004675,54.882622],[-8.004208,54.882622],[-8.004208,54.882892],[-8.00374,54.882892],[-8.00374,54.883162],[-8.003273,54.883162],[-8.003273,54.883431],[-8.003273,54.883701],[-8.002805,54.883701],[-8.002805,54.88397],[-8.002338,54.88397],[-8.002338,54.88424],[-8.001403,54.88424],[-8.001403,54.884509],[-8.000935,54.884509],[-8.000935,54.884779],[-8.000468,54.884779],[-8.000468,54.885048],[-8.0,54.885048],[-8.0,54.885318],[-7.999532,54.885318],[-7.999532,54.885587],[-7.999065,54.885587],[-7.999065,54.885857],[-7.998597,54.885857],[-7.998597,54.886126],[-7.99813,54.886126],[-7.99813,54.886396],[-7.997195,54.886396],[-7.997195,54.886666],[-7.99626,54.886666],[-7.996259,54.886935],[-7.995324,54.886935],[-7.995324,54.886665],[-7.994887,54.886665],[-7.994858,54.886739],[-7.994834,54.886797],[-7.99429,54.887768],[-7.994145,54.888031],[-7.994145,54.888031],[-7.994273,54.888058],[-7.99447,54.888219],[-7.994574,54.888347],[-7.995026,54.888832],[-7.995597,54.889482],[-7.995873,54.889792],[-7.996572,54.890668],[-7.99661,54.890719],[-7.996621,54.890735],[-7.996703,54.890837],[-7.996842,54.891011],[-7.996883,54.891062],[-7.996937,54.891145],[-7.997265,54.891648],[-7.997651,54.892231],[-7.997835,54.892471],[-7.997911,54.892566],[-7.997913,54.892567],[-7.997937,54.892603],[-7.997884,54.892598],[-7.99795,54.892622],[-7.998503,54.892681],[-7.998963,54.892643],[-7.999175,54.892714],[-7.999462,54.892702],[-7.999778,54.892738],[-7.9999,54.892775],[-8.0,54.892806],[-8.000271,54.892889],[-8.000555,54.892895],[-8.001296,54.892909],[-8.001473,54.893068],[-8.001713,54.893254],[-8.001821,54.893322],[-8.001928,54.893387],[-8.002065,54.893484],[-8.002229,54.893559],[-8.002394,54.893653],[-8.002615,54.893737],[-8.00274,54.893834],[-8.002752,54.893893],[-8.002713,54.893941],[-8.002612,54.894026],[-8.002612,54.894062],[-8.002743,54.894202],[-8.003102,54.894543],[-8.00321,54.894656],[-8.003182,54.894715],[-8.003194,54.894738],[-8.003216,54.894741],[-8.003278,54.89476],[-8.003426,54.894867],[-8.003659,54.895043],[-8.003836,54.895234],[-8.003939,54.895433],[-8.003996,54.895491],[-8.004155,54.895592],[-8.004178,54.895618],[-8.00419,54.895712],[-8.004287,54.895774],[-8.004445,54.895838],[-8.004581,54.895896],[-8.004724,54.896052],[-8.004832,54.896143],[-8.005013,54.896231],[-8.005138,54.896256],[-8.005444,54.896321],[-8.005704,54.896408],[-8.005998,54.89651],[-8.00611,54.896569],[-8.006158,54.896608],[-8.006204,54.896729],[-8.006305,54.896657],[-8.006541,54.896451],[-8.006933,54.896079],[-8.007253,54.895863],[-8.007545,54.895579],[-8.007864,54.895246],[-8.007959,54.895099],[-8.00797,54.895057],[-8.008049,54.895018],[-8.008116,54.894972],[-8.008424,54.894662],[-8.008491,54.894577],[-8.008525,54.894551],[-8.00857,54.894531],[-8.008615,54.894489],[-8.009057,54.894032],[-8.009399,54.89365],[-8.009634,54.893366],[-8.009829,54.893053],[-8.010018,54.892775],[-8.010091,54.892668],[-8.010432,54.892149],[-8.010672,54.891856],[-8.010705,54.891735],[-8.010765,54.8915],[-8.010894,54.891328],[-8.011118,54.891099],[-8.011214,54.891029],[-8.011297,54.890968],[-8.011411,54.89089],[-8.010188,54.89089],[-8.010188,54.889992],[-8.011747,54.889992],[-8.011746,54.889094],[-8.013305,54.889093],[-8.013304,54.888195],[-8.012157,54.888195],[-8.012157,54.888282],[-8.011689,54.888282],[-8.011689,54.888195],[-8.010188,54.888195],[-8.010187,54.885501],[-8.013303,54.8855],[-8.013304,54.886399],[-8.014862,54.886398],[-8.014863,54.889093],[-8.016511,54.889093],[-8.016625,54.889049],[-8.016743,54.889009],[-8.0168,54.889012],[-8.016896,54.889009],[-8.016941,54.888996],[-8.017081,54.888898],[-8.017318,54.888816],[-8.017577,54.88873],[-8.017859,54.888651],[-8.017979,54.888636],[-8.017979,54.888195],[-8.019416,54.888194],[-8.019492,54.888158],[-8.019537,54.888148],[-8.019537,54.887296],[-8.020352,54.887296],[-8.020359,54.887262],[-8.020366,54.887239],[-8.020347,54.88724],[-8.020346,54.88724],[-8.020346,54.88724],[-8.020344,54.88724],[-8.020344,54.88724],[-8.020343,54.88724],[-8.020342,54.88724],[-8.020341,54.887241],[-8.02034,54.887241],[-8.020339,54.887241],[-8.020338,54.887241],[-8.020337,54.887241],[-8.020336,54.887241],[-8.020335,54.887241],[-8.020334,54.887241],[-8.020333,54.887241],[-8.020332,54.887241],[-8.020331,54.887241],[-8.02033,54.887241],[-8.020329,54.887241],[-8.020328,54.887241],[-8.020327,54.887241],[-8.020326,54.887241],[-8.020325,54.887241],[-8.020324,54.887241],[-8.020323,54.887241],[-8.020322,54.887241],[-8.020321,54.887241],[-8.02032,54.887241],[-8.02032,54.887241],[-8.020319,54.887241],[-8.020318,54.887241],[-8.020317,54.887241],[-8.020316,54.887241],[-8.020315,54.887241],[-8.020314,54.887241],[-8.020313,54.887241],[-8.020312,54.887241],[-8.020311,54.887241],[-8.02031,54.887241],[-8.020309,54.887241],[-8.020308,54.887241],[-8.020307,54.887241],[-8.020306,54.887241],[-8.020305,54.887241],[-8.020304,54.887241],[-8.020303,54.887241],[-8.020302,54.887241],[-8.020301,54.887241],[-8.0203,54.887241],[-8.020299,54.887241],[-8.020298,54.887241],[-8.020297,54.887241],[-8.020296,54.887241],[-8.020295,54.887241],[-8.020294,54.887241],[-8.020293,54.887241],[-8.020292,54.887241],[-8.020292,54.887241],[-8.02029,54.887241],[-8.02029,54.887241],[-8.020289,54.887241],[-8.020288,54.887241],[-8.020287,54.887241],[-8.020286,54.887241],[-8.020285,54.887241],[-8.020284,54.887241],[-8.020283,54.887241],[-8.020282,54.887241],[-8.020281,54.887241],[-8.02028,54.887241],[-8.020279,54.887241],[-8.020278,54.88724],[-8.020277,54.88724],[-8.020276,54.88724],[-8.020275,54.88724],[-8.020274,54.88724],[-8.020273,54.88724],[-8.020272,54.88724],[-8.020271,54.88724],[-8.02027,54.88724],[-8.020269,54.88724],[-8.020268,54.88724],[-8.020267,54.88724],[-8.020266,54.88724],[-8.020266,54.88724],[-8.020265,54.88724],[-8.020264,54.887239],[-8.020263,54.887239],[-8.020262,54.887239],[-8.020261,54.887239],[-8.02026,54.887239],[-8.020259,54.887239],[-8.020258,54.887239],[-8.020257,54.887239],[-8.020256,54.887239],[-8.020255,54.887239],[-8.020254,54.887239],[-8.020253,54.887238],[-8.020252,54.887238],[-8.020238,54.887237],[-8.020148,54.887227],[-8.020147,54.887227],[-8.020146,54.887227],[-8.020145,54.887227],[-8.020144,54.887227],[-8.020144,54.887227],[-8.020143,54.887226],[-8.020142,54.887226],[-8.020141,54.887226],[-8.02014,54.887226],[-8.020139,54.887226],[-8.020138,54.887226],[-8.020137,54.887226],[-8.020136,54.887226],[-8.020135,54.887226],[-8.020134,54.887225],[-8.020133,54.887225],[-8.020132,54.887225],[-8.020131,54.887225],[-8.02013,54.887225],[-8.020129,54.887225],[-8.020128,54.887225],[-8.020127,54.887224],[-8.020127,54.887224],[-8.020126,54.887224],[-8.020125,54.887224],[-8.020124,54.887224],[-8.020123,54.887224],[-8.020122,54.887224],[-8.020121,54.887223],[-8.02012,54.887223],[-8.020119,54.887223],[-8.020118,54.887223],[-8.020117,54.887223],[-8.020116,54.887223],[-8.020115,54.887223],[-8.020114,54.887222],[-8.020114,54.887222],[-8.020113,54.887222],[-8.020112,54.887222],[-8.020111,54.887222],[-8.02011,54.887222],[-8.020109,54.887221],[-8.020108,54.887221],[-8.020107,54.887221],[-8.020106,54.887221],[-8.020105,54.887221],[-8.020104,54.88722],[-8.020103,54.88722],[-8.020103,54.88722],[-8.020102,54.88722],[-8.020101,54.88722],[-8.0201,54.88722],[-8.020099,54.887219],[-8.020098,54.887219],[-8.020097,54.887219],[-8.020096,54.887219],[-8.020095,54.887219],[-8.020094,54.887218],[-8.020093,54.887218],[-8.020093,54.887218],[-8.020092,54.887218],[-8.020091,54.887218],[-8.02009,54.887217],[-8.020089,54.887217],[-8.020088,54.887217],[-8.020087,54.887217],[-8.020086,54.887216],[-8.020085,54.887216],[-8.020084,54.887216],[-8.020084,54.887216],[-8.020083,54.887216],[-8.020082,54.887215],[-8.020081,54.887215],[-8.02008,54.887215],[-8.020079,54.887215],[-8.020078,54.887215],[-8.020077,54.887214],[-8.020076,54.887214],[-8.020076,54.887214],[-8.020075,54.887214],[-8.020074,54.887213],[-8.020073,54.887213],[-8.020072,54.887213],[-8.020071,54.887213],[-8.02007,54.887212],[-8.02007,54.887212],[-8.020069,54.887212],[-8.020068,54.887212],[-8.020067,54.887211],[-8.020066,54.887211],[-8.020065,54.887211],[-8.020064,54.887211],[-8.020063,54.88721],[-8.020063,54.88721],[-8.020062,54.88721],[-8.020061,54.88721],[-8.02006,54.887209],[-8.020059,54.887209],[-8.020058,54.887209],[-8.020057,54.887209],[-8.020057,54.887208],[-8.020056,54.887208],[-8.020055,54.887208],[-8.020054,54.887208],[-8.020053,54.887207],[-8.020052,54.887207],[-8.020052,54.887207],[-8.020051,54.887206],[-8.02005,54.887206],[-8.020049,54.887206],[-8.020048,54.887206],[-8.020047,54.887205],[-8.020046,54.887205],[-8.020046,54.887205],[-8.020045,54.887204],[-8.020044,54.887204],[-8.020043,54.887204],[-8.020042,54.887204],[-8.020042,54.887203],[-8.020041,54.887203],[-8.02004,54.887203],[-8.020039,54.887202],[-8.020038,54.887202],[-8.020037,54.887202],[-8.020037,54.887201],[-8.020036,54.887201],[-8.020035,54.887201],[-8.020034,54.887201],[-8.020033,54.8872],[-8.020033,54.8872],[-8.020032,54.8872],[-8.020031,54.887199],[-8.02003,54.887199],[-8.020029,54.887199],[-8.020029,54.887198],[-8.020028,54.887198],[-8.020027,54.887198],[-8.020026,54.887197],[-8.020025,54.887197],[-8.020025,54.887197],[-8.020024,54.887196],[-8.020023,54.887196],[-8.020022,54.887196],[-8.020022,54.887195],[-8.020021,54.887195],[-8.02002,54.887195],[-8.020019,54.887194],[-8.020018,54.887194],[-8.020018,54.887194],[-8.020017,54.887194],[-8.020016,54.887193],[-8.020015,54.887193],[-8.020015,54.887193],[-8.020014,54.887192],[-8.020013,54.887192],[-8.020012,54.887191],[-8.020012,54.887191],[-8.020011,54.887191],[-8.02001,54.88719],[-8.020009,54.88719],[-8.020008,54.88719],[-8.020008,54.887189],[-8.020007,54.887189],[-8.020006,54.887189],[-8.020005,54.887188],[-8.020005,54.887188],[-8.020004,54.887188],[-8.020003,54.887187],[-8.020003,54.887187],[-8.020002,54.887186],[-8.020001,54.887186],[-8.02,54.887186],[-8.02,54.887185],[-8.019999,54.887185],[-8.019998,54.887185],[-8.019998,54.887184],[-8.019997,54.887184],[-8.019996,54.887184],[-8.019995,54.887183],[-8.019995,54.887183],[-8.019994,54.887182],[-8.019993,54.887182],[-8.019992,54.887182],[-8.019992,54.887181],[-8.019991,54.887181],[-8.01999,54.88718],[-8.01999,54.88718],[-8.019989,54.88718],[-8.019988,54.887179],[-8.019988,54.887179],[-8.019987,54.887179],[-8.019986,54.887178],[-8.019986,54.887178],[-8.019899,54.887178],[-8.019898,54.887178],[-8.019897,54.887178],[-8.019896,54.887178],[-8.019895,54.887178],[-8.019894,54.887178],[-8.019893,54.887178],[-8.019892,54.887178],[-8.019891,54.887178],[-8.019891,54.887178],[-8.01989,54.887178],[-8.019889,54.887178],[-8.019888,54.887178],[-8.019887,54.887178],[-8.019886,54.887178],[-8.019885,54.887178],[-8.019884,54.887178],[-8.019883,54.887178],[-8.019882,54.887178],[-8.019881,54.887178],[-8.01988,54.887178],[-8.019879,54.887178],[-8.019878,54.887178],[-8.019877,54.887178],[-8.019876,54.887178],[-8.019875,54.887178],[-8.019874,54.887178],[-8.019873,54.887178],[-8.019872,54.887178],[-8.019871,54.887177],[-8.01987,54.887177],[-8.019869,54.887177],[-8.019868,54.887177],[-8.019868,54.887177],[-8.019867,54.887177],[-8.019866,54.887177],[-8.019865,54.887177],[-8.019864,54.887177],[-8.019863,54.887177],[-8.019862,54.887177],[-8.019861,54.887177],[-8.01986,54.887177],[-8.019859,54.887177],[-8.019858,54.887177],[-8.019857,54.887177],[-8.019856,54.887177],[-8.019855,54.887176],[-8.019854,54.887176],[-8.019853,54.887176],[-8.019852,54.887176],[-8.019851,54.887176],[-8.01985,54.887176],[-8.019849,54.887176],[-8.019848,54.887176],[-8.019847,54.887176],[-8.019847,54.887176],[-8.019846,54.887176],[-8.019845,54.887175],[-8.019844,54.887175],[-8.019843,54.887175],[-8.019842,54.887175],[-8.019841,54.887175],[-8.01984,54.887175],[-8.019839,54.887175],[-8.019838,54.887175],[-8.019837,54.887175],[-8.019836,54.887175],[-8.019835,54.887174],[-8.019834,54.887174],[-8.019833,54.887174],[-8.019832,54.887174],[-8.019831,54.887174],[-8.019831,54.887174],[-8.01983,54.887174],[-8.019829,54.887174],[-8.019828,54.887174],[-8.019624,54.887146],[-8.019623,54.887146],[-8.019622,54.887146],[-8.019621,54.887146],[-8.01962,54.887146],[-8.019619,54.887146],[-8.019618,54.887146],[-8.019617,54.887146],[-8.019616,54.887146],[-8.019616,54.887145],[-8.019615,54.887145],[-8.019614,54.887145],[-8.019613,54.887145],[-8.019612,54.887145],[-8.019611,54.887145],[-8.01961,54.887145],[-8.019609,54.887144],[-8.019608,54.887144],[-8.019607,54.887144],[-8.019606,54.887144],[-8.019606,54.887144],[-8.019605,54.887144],[-8.019604,54.887143],[-8.019603,54.887143],[-8.019602,54.887143],[-8.019601,54.887143],[-8.0196,54.887143],[-8.019599,54.887143],[-8.019598,54.887142],[-8.019597,54.887142],[-8.019597,54.887142],[-8.019333,54.887092],[-8.019332,54.887092],[-8.019331,54.887092],[-8.01933,54.887092],[-8.019329,54.887092],[-8.019328,54.887091],[-8.019327,54.887091],[-8.019326,54.887091],[-8.019325,54.887091],[-8.019324,54.887091],[-8.019324,54.88709],[-8.019323,54.88709],[-8.019322,54.88709],[-8.019321,54.88709],[-8.01932,54.88709],[-8.019319,54.887089],[-8.019318,54.887089],[-8.019317,54.887089],[-8.019316,54.887089],[-8.019316,54.887089],[-8.019315,54.887088],[-8.019314,54.887088],[-8.019313,54.887088],[-8.019312,54.887088],[-8.019311,54.887088],[-8.01931,54.887087],[-8.019309,54.887087],[-8.019308,54.887087],[-8.019308,54.887087],[-8.019307,54.887087],[-8.019306,54.887086],[-8.019305,54.887086],[-8.019304,54.887086],[-8.019303,54.887086],[-8.019302,54.887085],[-8.019301,54.887085],[-8.0193,54.887085],[-8.0193,54.887085],[-8.019299,54.887085],[-8.019298,54.887084],[-8.019297,54.887084],[-8.019296,54.887084],[-8.019295,54.887084],[-8.019294,54.887083],[-8.019294,54.887083],[-8.019293,54.887083],[-8.019292,54.887083],[-8.019291,54.887082],[-8.01929,54.887082],[-8.019289,54.887082],[-8.019289,54.887082],[-8.019288,54.887081],[-8.019287,54.887081],[-8.019286,54.887081],[-8.019285,54.887081],[-8.019284,54.88708],[-8.019283,54.88708],[-8.019282,54.88708],[-8.019282,54.88708],[-8.019281,54.887079],[-8.01928,54.887079],[-8.019279,54.887079],[-8.019278,54.887079],[-8.019277,54.887078],[-8.019277,54.887078],[-8.019276,54.887078],[-8.019275,54.887077],[-8.019274,54.887077],[-8.019273,54.887077],[-8.019273,54.887077],[-8.019272,54.887076],[-8.019271,54.887076],[-8.01927,54.887076],[-8.019269,54.887076],[-8.019268,54.887075],[-8.019268,54.887075],[-8.019163,54.887038],[-8.019163,54.887038],[-8.019162,54.887038],[-8.019161,54.887038],[-8.01916,54.887037],[-8.019159,54.887037],[-8.019159,54.887037],[-8.019158,54.887036],[-8.019157,54.887036],[-8.019156,54.887036],[-8.019155,54.887035],[-8.019154,54.887035],[-8.019154,54.887035],[-8.019153,54.887035],[-8.019152,54.887034],[-8.019151,54.887034],[-8.01915,54.887034],[-8.01915,54.887033],[-8.019149,54.887033],[-8.019148,54.887033],[-8.019147,54.887032],[-8.019146,54.887032],[-8.019146,54.887032],[-8.019145,54.887031],[-8.019144,54.887031],[-8.019143,54.887031],[-8.019143,54.88703],[-8.019142,54.88703],[-8.019141,54.88703],[-8.01914,54.887029],[-8.019139,54.887029],[-8.019139,54.887029],[-8.019138,54.887028],[-8.019137,54.887028],[-8.019136,54.887028],[-8.019136,54.887027],[-8.019135,54.887027],[-8.019134,54.887027],[-8.019133,54.887026],[-8.019133,54.887026],[-8.019132,54.887026],[-8.019131,54.887025],[-8.01913,54.887025],[-8.019129,54.887025],[-8.019129,54.887024],[-8.019128,54.887024],[-8.019127,54.887024],[-8.019127,54.887023],[-8.019126,54.887023],[-8.019125,54.887022],[-8.019006,54.886965],[-8.018922,54.886932],[-8.018622,54.886844],[-8.018318,54.886766],[-8.018317,54.886766],[-8.018316,54.886766],[-8.018316,54.886766],[-8.018315,54.886765],[-8.018314,54.886765],[-8.018313,54.886765],[-8.018312,54.886765],[-8.018311,54.886764],[-8.018311,54.886764],[-8.01831,54.886764],[-8.018309,54.886764],[-8.018308,54.886763],[-8.018307,54.886763],[-8.018306,54.886763],[-8.018305,54.886763],[-8.018305,54.886763],[-8.018304,54.886762],[-8.018303,54.886762],[-8.018302,54.886762],[-8.018301,54.886762],[-8.0183,54.886761],[-8.018299,54.886761],[-8.018299,54.886761],[-8.018298,54.886761],[-8.018297,54.88676],[-8.018296,54.88676],[-8.018295,54.88676],[-8.018295,54.886759],[-8.018294,54.886759],[-8.018293,54.886759],[-8.018292,54.886759],[-8.018291,54.886758],[-8.018291,54.886758],[-8.01829,54.886758],[-8.018061,54.886683],[-8.018061,54.886682],[-8.01806,54.886682],[-8.018059,54.886682],[-8.018058,54.886682],[-8.018057,54.886681],[-8.018056,54.886681],[-8.018055,54.886681],[-8.018055,54.88668],[-8.018054,54.88668],[-8.018053,54.88668],[-8.018052,54.886679],[-8.018051,54.886679],[-8.018051,54.886679],[-8.01805,54.886679],[-8.018049,54.886678],[-8.018048,54.886678],[-8.018047,54.886678],[-8.018046,54.886677],[-8.018046,54.886677],[-8.018045,54.886677],[-8.018044,54.886676],[-8.018043,54.886676],[-8.018043,54.886676],[-8.018042,54.886676],[-8.018041,54.886675],[-8.01804,54.886675],[-8.018039,54.886675],[-8.018039,54.886674],[-8.018038,54.886674],[-8.018037,54.886674],[-8.018036,54.886673],[-8.018035,54.886673],[-8.018035,54.886673],[-8.018034,54.886672],[-8.018033,54.886672],[-8.018032,54.886672],[-8.018032,54.886671],[-8.018031,54.886671],[-8.01803,54.886671],[-8.018029,54.88667],[-8.018028,54.88667],[-8.018028,54.88667],[-8.018027,54.886669],[-8.018026,54.886669],[-8.018025,54.886669],[-8.018025,54.886668],[-8.018024,54.886668],[-8.018023,54.886668],[-8.018022,54.886667],[-8.018022,54.886667],[-8.018021,54.886667],[-8.01802,54.886666],[-8.018019,54.886666],[-8.018019,54.886666],[-8.018018,54.886665],[-8.018017,54.886665],[-8.018016,54.886665],[-8.018016,54.886664],[-8.018015,54.886664],[-8.018014,54.886663],[-8.018013,54.886663],[-8.018013,54.886663],[-8.018012,54.886662],[-8.018011,54.886662],[-8.01801,54.886662],[-8.01801,54.886661],[-8.018009,54.886661],[-8.018008,54.886661],[-8.018008,54.88666],[-8.018007,54.88666],[-8.018006,54.886659],[-8.017978,54.886645],[-8.017919,54.886613],[-8.017918,54.886613],[-8.017917,54.886613],[-8.017916,54.886613],[-8.017915,54.886613],[-8.017914,54.886612],[-8.017913,54.886612],[-8.017912,54.886612],[-8.017911,54.886612],[-8.01791,54.886612],[-8.01791,54.886611],[-8.017909,54.886611],[-8.017908,54.886611],[-8.017907,54.886611],[-8.017906,54.886611],[-8.017905,54.88661],[-8.017904,54.88661],[-8.017903,54.88661],[-8.017902,54.88661],[-8.017901,54.88661],[-8.017901,54.886609],[-8.0179,54.886609],[-8.017899,54.886609],[-8.017898,54.886609],[-8.017897,54.886608],[-8.017896,54.886608],[-8.017895,54.886608],[-8.017894,54.886608],[-8.017893,54.886607],[-8.017893,54.886607],[-8.017892,54.886607],[-8.017891,54.886607],[-8.01789,54.886607],[-8.017889,54.886606],[-8.017888,54.886606],[-8.017887,54.886606],[-8.017887,54.886606],[-8.017886,54.886605],[-8.017885,54.886605],[-8.017884,54.886605],[-8.017883,54.886605],[-8.017882,54.886604],[-8.017881,54.886604],[-8.017881,54.886604],[-8.01788,54.886604],[-8.017879,54.886603],[-8.017878,54.886603],[-8.017877,54.886603],[-8.017876,54.886603],[-8.017875,54.886602],[-8.017874,54.886602],[-8.017874,54.886602],[-8.017873,54.886601],[-8.017872,54.886601],[-8.017871,54.886601],[-8.01787,54.886601],[-8.017869,54.8866],[-8.017869,54.8866],[-8.017868,54.8866],[-8.017867,54.8866],[-8.017866,54.886599],[-8.017865,54.886599],[-8.017864,54.886599],[-8.017864,54.886598],[-8.017863,54.886598],[-8.017862,54.886598],[-8.017861,54.886598],[-8.01786,54.886597],[-8.017859,54.886597],[-8.017859,54.886597],[-8.017858,54.886596],[-8.017857,54.886596],[-8.017856,54.886596],[-8.017855,54.886595],[-8.017855,54.886595],[-8.017854,54.886595],[-8.017853,54.886595],[-8.017852,54.886594],[-8.017851,54.886594],[-8.01785,54.886594],[-8.01785,54.886593],[-8.017849,54.886593],[-8.017848,54.886593],[-8.017847,54.886592],[-8.017846,54.886592],[-8.017846,54.886592],[-8.017845,54.886591],[-8.017844,54.886591],[-8.017843,54.886591],[-8.017843,54.886591],[-8.017842,54.88659],[-8.017841,54.88659],[-8.01784,54.88659],[-8.017839,54.886589],[-8.017839,54.886589],[-8.017838,54.886589],[-8.017837,54.886588],[-8.017836,54.886588],[-8.017836,54.886587],[-8.017835,54.886587],[-8.017834,54.886587],[-8.017833,54.886586],[-8.017832,54.886586],[-8.017832,54.886586],[-8.017831,54.886585],[-8.01783,54.886585],[-8.017829,54.886585],[-8.017829,54.886584],[-8.017828,54.886584],[-8.017827,54.886584],[-8.017826,54.886583],[-8.017826,54.886583],[-8.017825,54.886583],[-8.017824,54.886582],[-8.017823,54.886582],[-8.017823,54.886582],[-8.017822,54.886581],[-8.017821,54.886581],[-8.01782,54.88658],[-8.01782,54.88658],[-8.017819,54.88658],[-8.017818,54.886579],[-8.017818,54.886579],[-8.017817,54.886579],[-8.017816,54.886578],[-8.017815,54.886578],[-8.017815,54.886578],[-8.017814,54.886577],[-8.017813,54.886577],[-8.017812,54.886576],[-8.017812,54.886576],[-8.017811,54.886576],[-8.01781,54.886575],[-8.01781,54.886575],[-8.017809,54.886575],[-8.017808,54.886574],[-8.017808,54.886574],[-8.017807,54.886573],[-8.017806,54.886573],[-8.017806,54.886573],[-8.017805,54.886572],[-8.017804,54.886572],[-8.017803,54.886571],[-8.017803,54.886571],[-8.017802,54.886571],[-8.017801,54.88657],[-8.017801,54.88657],[-8.0178,54.886569],[-8.017799,54.886569],[-8.017799,54.886569],[-8.017798,54.886568],[-8.017797,54.886568],[-8.017797,54.886567],[-8.017796,54.886567],[-8.017795,54.886567],[-8.017795,54.886566],[-8.017794,54.886566],[-8.017793,54.886565],[-8.017793,54.886565],[-8.017792,54.886565],[-8.017791,54.886564],[-8.017791,54.886564],[-8.01779,54.886563],[-8.017789,54.886563],[-8.017789,54.886562],[-8.017788,54.886562],[-8.017788,54.886562],[-8.017787,54.886561],[-8.017786,54.886561],[-8.017786,54.88656],[-8.017785,54.88656],[-8.017784,54.886559],[-8.017784,54.886559],[-8.017783,54.886559],[-8.017783,54.886558],[-8.017782,54.886558],[-8.017781,54.886557],[-8.017781,54.886557],[-8.01778,54.886556],[-8.01778,54.886556],[-8.017779,54.886556],[-8.017778,54.886555],[-8.017778,54.886555],[-8.017777,54.886554],[-8.017777,54.886554],[-8.017776,54.886553],[-8.017775,54.886553],[-8.017775,54.886552],[-8.017774,54.886552],[-8.017774,54.886552],[-8.017773,54.886551],[-8.017773,54.886551],[-8.017772,54.88655],[-8.017771,54.88655],[-8.017771,54.886549],[-8.01777,54.886549],[-8.01777,54.886548],[-8.017769,54.886548],[-8.017769,54.886547],[-8.017768,54.886547],[-8.017767,54.886547],[-8.017767,54.886546],[-8.017766,54.886546],[-8.017766,54.886545],[-8.017765,54.886545],[-8.017765,54.886544],[-8.017764,54.886544],[-8.017764,54.886543],[-8.017763,54.886543],[-8.017763,54.886542],[-8.017762,54.886542],[-8.017762,54.886541],[-8.017761,54.886541],[-8.017761,54.886541],[-8.01776,54.88654],[-8.01776,54.88654],[-8.017759,54.886539],[-8.017758,54.886539],[-8.017758,54.886538],[-8.017757,54.886538],[-8.017757,54.886537],[-8.017756,54.886537],[-8.017756,54.886536],[-8.017756,54.886536],[-8.017755,54.886535],[-8.017755,54.886535],[-8.017754,54.886534],[-8.017754,54.886534],[-8.017753,54.886533],[-8.017753,54.886533],[-8.017752,54.886532],[-8.017752,54.886532],[-8.017751,54.886531],[-8.017751,54.886531],[-8.01775,54.88653],[-8.01775,54.88653],[-8.017749,54.88653],[-8.017749,54.886529],[-8.017748,54.886529],[-8.017748,54.886528],[-8.017747,54.886528],[-8.017747,54.886527],[-8.017747,54.886527],[-8.017746,54.886526],[-8.017746,54.886525],[-8.017745,54.886525],[-8.017745,54.886524],[-8.017744,54.886524],[-8.017744,54.886524],[-8.017744,54.886523],[-8.017743,54.886523],[-8.017743,54.886522],[-8.017742,54.886522],[-8.017742,54.886521],[-8.017742,54.886521],[-8.017741,54.88652],[-8.017741,54.886519],[-8.01774,54.886519],[-8.01774,54.886518],[-8.017739,54.886518],[-8.017739,54.886517],[-8.017739,54.886517],[-8.017738,54.886516],[-8.017738,54.886516],[-8.017738,54.886515],[-8.017737,54.886515],[-8.017737,54.886514],[-8.017736,54.886514],[-8.017736,54.886513],[-8.017736,54.886513],[-8.017735,54.886512],[-8.017735,54.886512],[-8.017735,54.886511],[-8.017734,54.886511],[-8.017734,54.88651],[-8.017733,54.88651],[-8.017733,54.886509],[-8.017733,54.886509],[-8.017732,54.886508],[-8.01772,54.88649],[-8.01772,54.886489],[-8.01772,54.886489],[-8.017719,54.886488],[-8.017719,54.886488],[-8.017719,54.886487],[-8.017718,54.886487],[-8.017718,54.886486],[-8.017718,54.886486],[-8.017717,54.886485],[-8.017717,54.886485],[-8.017717,54.886484],[-8.017716,54.886484],[-8.017716,54.886483],[-8.017716,54.886482],[-8.017716,54.886482],[-8.017715,54.886481],[-8.017715,54.886481],[-8.017715,54.88648],[-8.017714,54.88648],[-8.017714,54.886479],[-8.017714,54.886479],[-8.017713,54.886478],[-8.017713,54.886478],[-8.017713,54.886477],[-8.017713,54.886477],[-8.017712,54.886476],[-8.017712,54.886476],[-8.017712,54.886475],[-8.017712,54.886475],[-8.017711,54.886474],[-8.017711,54.886473],[-8.017711,54.886473],[-8.017711,54.886472],[-8.01771,54.886472],[-8.01771,54.886471],[-8.01771,54.886471],[-8.01771,54.88647],[-8.017709,54.88647],[-8.017709,54.886469],[-8.017709,54.886469],[-8.017709,54.886468],[-8.017708,54.886468],[-8.017708,54.886467],[-8.017708,54.886466],[-8.017708,54.886466],[-8.017708,54.886465],[-8.017707,54.886465],[-8.017707,54.886464],[-8.017707,54.886464],[-8.017707,54.886463],[-8.017707,54.886463],[-8.017706,54.886462],[-8.017706,54.886462],[-8.017706,54.886461],[-8.017706,54.886461],[-8.017706,54.88646],[-8.017705,54.886459],[-8.017705,54.886459],[-8.017696,54.886432],[-8.017696,54.886432],[-8.017695,54.886431],[-8.017695,54.886431],[-8.017694,54.88643],[-8.017693,54.88643],[-8.017693,54.886429],[-8.017692,54.886429],[-8.017692,54.886429],[-8.017691,54.886428],[-8.01769,54.886428],[-8.01769,54.886427],[-8.017689,54.886427],[-8.017689,54.886426],[-8.017688,54.886426],[-8.017687,54.886425],[-8.017687,54.886425],[-8.017686,54.886425],[-8.017685,54.886424],[-8.017685,54.886424],[-8.017684,54.886423],[-8.017684,54.886423],[-8.017683,54.886422],[-8.017682,54.886422],[-8.017682,54.886422],[-8.017681,54.886421],[-8.017681,54.886421],[-8.01768,54.88642],[-8.01768,54.88642],[-8.017679,54.886419],[-8.017678,54.886419],[-8.017678,54.886418],[-8.017677,54.886418],[-8.017677,54.886417],[-8.017676,54.886417],[-8.017676,54.886417],[-8.017675,54.886416],[-8.017675,54.886416],[-8.017674,54.886415],[-8.017673,54.886415],[-8.017673,54.886414],[-8.017672,54.886414],[-8.017672,54.886413],[-8.017671,54.886413],[-8.017671,54.886412],[-8.01767,54.886412],[-8.01767,54.886411],[-8.017669,54.886411],[-8.017669,54.886411],[-8.017668,54.88641],[-8.017668,54.88641],[-8.017667,54.886409],[-8.017667,54.886409],[-8.017666,54.886408],[-8.017666,54.886408],[-8.017665,54.886407],[-8.017665,54.886407],[-8.017664,54.886406],[-8.017664,54.886406],[-8.017663,54.886405],[-8.017663,54.886405],[-8.017662,54.886404],[-8.017662,54.886404],[-8.017661,54.886403],[-8.017661,54.886403],[-8.01766,54.886402],[-8.01766,54.886402],[-8.017659,54.886402],[-8.017659,54.886401],[-8.017658,54.886401],[-8.017658,54.8864],[-8.017657,54.8864],[-8.017657,54.886399],[-8.017656,54.886399],[-8.017656,54.886398],[-8.017656,54.886398],[-8.017655,54.886398],[-8.017655,54.886397],[-8.017655,54.886397],[-8.017654,54.886396],[-8.017654,54.886396],[-8.017653,54.886395],[-8.017653,54.886395],[-8.017652,54.886394],[-8.017652,54.886394],[-8.017651,54.886393],[-8.017651,54.886393],[-8.017651,54.886392],[-8.01765,54.886392],[-8.01765,54.886391],[-8.017649,54.886391],[-8.017649,54.88639],[-8.017649,54.88639],[-8.017648,54.886389],[-8.017648,54.886389],[-8.017647,54.886388],[-8.017647,54.886388],[-8.017647,54.886387],[-8.017646,54.886387],[-8.017646,54.886386],[-8.017645,54.886386],[-8.017645,54.886385],[-8.017645,54.886385],[-8.017644,54.886384],[-8.017644,54.886384],[-8.017644,54.886383],[-8.017643,54.886382],[-8.017643,54.886382],[-8.017642,54.886381],[-8.017642,54.886381],[-8.017642,54.88638],[-8.017641,54.88638],[-8.017641,54.886379],[-8.017641,54.886379],[-8.01764,54.886378],[-8.01764,54.886378],[-8.01764,54.886377],[-8.017639,54.886377],[-8.017639,54.886376],[-8.017638,54.886376],[-8.017638,54.886375],[-8.017638,54.886375],[-8.017637,54.886374],[-8.017637,54.886374],[-8.017637,54.886373],[-8.017637,54.886373],[-8.017636,54.886372],[-8.017636,54.886372],[-8.017636,54.886371],[-8.017635,54.886371],[-8.017635,54.88637],[-8.017635,54.886369],[-8.017634,54.886369],[-8.017634,54.886368],[-8.017634,54.886368],[-8.017633,54.886367],[-8.017633,54.886367],[-8.017633,54.886366],[-8.017633,54.886366],[-8.017632,54.886365],[-8.017632,54.886365],[-8.017632,54.886364],[-8.017587,54.886277],[-8.017587,54.886276],[-8.017586,54.886276],[-8.017585,54.886276],[-8.017584,54.886276],[-8.017583,54.886276],[-8.017582,54.886276],[-8.017581,54.886276],[-8.01758,54.886276],[-8.017579,54.886276],[-8.017578,54.886275],[-8.017577,54.886275],[-8.017576,54.886275],[-8.017575,54.886275],[-8.017574,54.886275],[-8.017573,54.886275],[-8.017573,54.886275],[-8.017572,54.886275],[-8.017571,54.886274],[-8.01757,54.886274],[-8.017569,54.886274],[-8.017568,54.886274],[-8.017567,54.886274],[-8.017566,54.886274],[-8.017565,54.886274],[-8.017564,54.886273],[-8.017563,54.886273],[-8.017562,54.886273],[-8.017561,54.886273],[-8.01756,54.886273],[-8.017559,54.886273],[-8.017558,54.886273],[-8.017558,54.886272],[-8.017557,54.886272],[-8.017556,54.886272],[-8.017555,54.886272],[-8.017554,54.886272],[-8.017553,54.886272],[-8.017552,54.886271],[-8.017551,54.886271],[-8.01755,54.886271],[-8.017549,54.886271],[-8.017548,54.886271],[-8.017547,54.886271],[-8.017547,54.88627],[-8.017546,54.88627],[-8.017545,54.88627],[-8.017544,54.88627],[-8.017543,54.88627],[-8.017542,54.88627],[-8.017541,54.886269],[-8.01754,54.886269],[-8.017539,54.886269],[-8.017538,54.886269],[-8.017537,54.886269],[-8.017537,54.886268],[-8.017536,54.886268],[-8.017535,54.886268],[-8.017534,54.886268],[-8.017533,54.886268],[-8.017532,54.886267],[-8.017531,54.886267],[-8.01753,54.886267],[-8.017529,54.886267],[-8.017528,54.886267],[-8.017528,54.886266],[-8.017527,54.886266],[-8.017526,54.886266],[-8.017525,54.886266],[-8.017524,54.886265],[-8.017523,54.886265],[-8.017522,54.886265],[-8.017521,54.886265],[-8.01752,54.886265],[-8.01752,54.886264],[-8.017519,54.886264],[-8.017518,54.886264],[-8.017517,54.886264],[-8.017516,54.886264],[-8.017515,54.886263],[-8.017514,54.886263],[-8.017513,54.886263],[-8.017512,54.886263],[-8.017512,54.886262],[-8.017511,54.886262],[-8.01751,54.886262],[-8.017509,54.886262],[-8.017508,54.886261],[-8.017507,54.886261],[-8.017506,54.886261],[-8.017506,54.886261],[-8.017505,54.88626],[-8.017504,54.88626],[-8.017503,54.88626],[-8.017502,54.88626],[-8.017501,54.886259],[-8.0175,54.886259],[-8.0175,54.886259],[-8.017499,54.886259],[-8.017498,54.886258],[-8.017497,54.886258],[-8.017496,54.886258],[-8.017495,54.886258],[-8.017494,54.886257],[-8.017494,54.886257],[-8.017493,54.886257],[-8.017492,54.886256],[-8.017491,54.886256],[-8.01749,54.886256],[-8.017489,54.886256],[-8.017489,54.886255],[-8.017488,54.886255],[-8.017487,54.886255],[-8.017486,54.886254],[-8.017485,54.886254],[-8.017484,54.886254],[-8.017484,54.886254],[-8.017483,54.886253],[-8.017482,54.886253],[-8.017481,54.886253],[-8.01748,54.886252],[-8.01748,54.886252],[-8.017479,54.886252],[-8.017478,54.886252],[-8.017477,54.886251],[-8.017476,54.886251],[-8.017475,54.886251],[-8.017475,54.88625],[-8.017474,54.88625],[-8.017473,54.88625],[-8.017472,54.886249],[-8.017471,54.886249],[-8.017471,54.886249],[-8.017395,54.886219],[-8.017394,54.886219],[-8.017393,54.886218],[-8.017392,54.886218],[-8.017391,54.886218],[-8.017391,54.886218],[-8.01739,54.886217],[-8.017389,54.886217],[-8.017388,54.886217],[-8.017387,54.886216],[-8.017387,54.886216],[-8.017386,54.886216],[-8.017385,54.886215],[-8.017384,54.886215],[-8.017384,54.886215],[-8.017383,54.886214],[-8.017382,54.886214],[-8.017381,54.886214],[-8.01738,54.886213],[-8.01738,54.886213],[-8.017379,54.886213],[-8.017378,54.886212],[-8.017377,54.886212],[-8.017377,54.886212],[-8.017376,54.886211],[-8.017375,54.886211],[-8.017374,54.886211],[-8.017374,54.88621],[-8.017373,54.88621],[-8.017372,54.886209],[-8.017371,54.886209],[-8.017371,54.886209],[-8.01737,54.886208],[-8.017369,54.886208],[-8.017368,54.886208],[-8.017368,54.886207],[-8.017367,54.886207],[-8.017366,54.886207],[-8.017366,54.886206],[-8.017365,54.886206],[-8.017364,54.886206],[-8.017363,54.886205],[-8.017363,54.886205],[-8.017362,54.886204],[-8.017361,54.886204],[-8.017361,54.886204],[-8.01736,54.886203],[-8.017359,54.886203],[-8.017358,54.886203],[-8.017358,54.886202],[-8.017357,54.886202],[-8.017356,54.886201],[-8.017355,54.886201],[-8.017355,54.886201],[-8.017354,54.8862],[-8.017353,54.8862],[-8.017353,54.8862],[-8.017352,54.886199],[-8.017351,54.886199],[-8.017351,54.886198],[-8.01735,54.886198],[-8.017349,54.886198],[-8.017349,54.886197],[-8.017348,54.886197],[-8.017347,54.886196],[-8.017347,54.886196],[-8.017346,54.886196],[-8.017345,54.886195],[-8.017345,54.886195],[-8.017344,54.886194],[-8.017343,54.886194],[-8.017343,54.886194],[-8.017342,54.886193],[-8.017341,54.886193],[-8.017341,54.886192],[-8.01734,54.886192],[-8.017339,54.886192],[-8.017339,54.886191],[-8.017338,54.886191],[-8.017337,54.88619],[-8.017337,54.88619],[-8.017336,54.88619],[-8.017335,54.886189],[-8.017335,54.886189],[-8.017334,54.886188],[-8.017334,54.886188],[-8.017333,54.886187],[-8.017332,54.886187],[-8.017332,54.886187],[-8.017331,54.886186],[-8.01733,54.886186],[-8.01733,54.886185],[-8.017329,54.886185],[-8.017329,54.886184],[-8.017328,54.886184],[-8.017327,54.886184],[-8.017327,54.886183],[-8.017326,54.886183],[-8.017326,54.886182],[-8.017325,54.886182],[-8.017324,54.886181],[-8.017324,54.886181],[-8.017323,54.886181],[-8.017323,54.88618],[-8.017322,54.88618],[-8.017321,54.886179],[-8.017321,54.886179],[-8.017273,54.886142],[-8.017272,54.886142],[-8.017272,54.886141],[-8.017271,54.886141],[-8.01727,54.88614],[-8.01727,54.88614],[-8.017269,54.886139],[-8.017269,54.886139],[-8.017268,54.886139],[-8.017268,54.886138],[-8.017267,54.886138],[-8.017266,54.886137],[-8.017266,54.886137],[-8.017265,54.886136],[-8.017265,54.886136],[-8.017264,54.886135],[-8.017264,54.886135],[-8.017263,54.886134],[-8.017263,54.886134],[-8.017262,54.886134],[-8.017262,54.886133],[-8.017261,54.886133],[-8.01726,54.886132],[-8.01726,54.886132],[-8.017259,54.886131],[-8.017259,54.886131],[-8.017258,54.88613],[-8.017258,54.88613],[-8.017257,54.886129],[-8.017257,54.886129],[-8.017256,54.886128],[-8.017256,54.886128],[-8.017255,54.886128],[-8.017255,54.886127],[-8.017254,54.886127],[-8.017254,54.886126],[-8.017253,54.886126],[-8.017253,54.886125],[-8.017252,54.886125],[-8.017252,54.886124],[-8.017251,54.886124],[-8.017251,54.886123],[-8.01725,54.886123],[-8.01725,54.886122],[-8.017249,54.886122],[-8.017249,54.886121],[-8.017249,54.886121],[-8.017248,54.88612],[-8.017247,54.88612],[-8.017247,54.886119],[-8.017247,54.886119],[-8.017246,54.886118],[-8.017246,54.886118],[-8.017245,54.886117],[-8.017245,54.886117],[-8.017244,54.886116],[-8.017244,54.886116],[-8.017244,54.886115],[-8.017243,54.886115],[-8.017243,54.886114],[-8.017242,54.886114],[-8.017242,54.886113],[-8.017241,54.886113],[-8.017241,54.886112],[-8.017241,54.886112],[-8.01724,54.886111],[-8.01724,54.886111],[-8.017239,54.88611],[-8.017239,54.88611],[-8.017238,54.886109],[-8.017238,54.886109],[-8.017238,54.886108],[-8.017237,54.886108],[-8.017237,54.886107],[-8.017236,54.886107],[-8.017236,54.886106],[-8.017236,54.886106],[-8.017235,54.886105],[-8.017235,54.886105],[-8.017234,54.886104],[-8.017234,54.886104],[-8.017234,54.886103],[-8.017233,54.886103],[-8.017233,54.886102],[-8.017233,54.886102],[-8.017232,54.886101],[-8.017232,54.886101],[-8.017232,54.8861],[-8.017231,54.8861],[-8.017231,54.886099],[-8.017231,54.886099],[-8.01723,54.886098],[-8.01723,54.886098],[-8.017229,54.886097],[-8.017229,54.886097],[-8.017229,54.886096],[-8.017228,54.886096],[-8.017228,54.886095],[-8.017228,54.886095],[-8.017227,54.886094],[-8.017227,54.886093],[-8.017227,54.886093],[-8.017227,54.886092],[-8.017226,54.886092],[-8.017226,54.886091],[-8.017226,54.886091],[-8.017225,54.88609],[-8.017225,54.88609],[-8.017225,54.886089],[-8.017224,54.886089],[-8.017185,54.886019],[-8.017172,54.885994],[-8.017171,54.885994],[-8.017171,54.885993],[-8.017171,54.885993],[-8.01717,54.885992],[-8.01717,54.885992],[-8.01717,54.885991],[-8.01717,54.885991],[-8.017169,54.88599],[-8.017169,54.88599],[-8.017169,54.885989],[-8.017169,54.885989],[-8.017168,54.885988],[-8.017168,54.885988],[-8.017168,54.885987],[-8.017168,54.885986],[-8.017167,54.885986],[-8.017167,54.885985],[-8.017167,54.885985],[-8.017167,54.885984],[-8.017166,54.885984],[-8.017166,54.885983],[-8.017166,54.885983],[-8.017166,54.885982],[-8.017165,54.885982],[-8.017165,54.885981],[-8.017165,54.885981],[-8.017165,54.88598],[-8.017165,54.885979],[-8.017164,54.885979],[-8.017164,54.885978],[-8.017164,54.885978],[-8.017164,54.885977],[-8.017163,54.885977],[-8.017163,54.885976],[-8.017163,54.885976],[-8.017163,54.885975],[-8.017163,54.885975],[-8.017162,54.885974],[-8.017162,54.885974],[-8.017162,54.885973],[-8.017162,54.885972],[-8.017162,54.885972],[-8.017162,54.885971],[-8.017161,54.885971],[-8.017161,54.88597],[-8.017161,54.88597],[-8.017161,54.885969],[-8.017161,54.885969],[-8.017161,54.885968],[-8.017161,54.885968],[-8.01716,54.885967],[-8.01716,54.885966],[-8.01716,54.885966],[-8.01716,54.885965],[-8.01716,54.885965],[-8.01716,54.885964],[-8.01716,54.885964],[-8.017159,54.885963],[-8.017159,54.885963],[-8.017159,54.885962],[-8.017159,54.885961],[-8.017159,54.885961],[-8.017159,54.88596],[-8.017159,54.88596],[-8.017159,54.885959],[-8.017158,54.885959],[-8.017158,54.885958],[-8.017158,54.885958],[-8.017158,54.885957],[-8.017158,54.885956],[-8.017158,54.885956],[-8.017158,54.885955],[-8.017158,54.885955],[-8.017158,54.885954],[-8.017158,54.885954],[-8.017158,54.885953],[-8.017157,54.885953],[-8.017157,54.885952],[-8.017157,54.885952],[-8.017157,54.885951],[-8.017157,54.88595],[-8.017157,54.88595],[-8.017157,54.885949],[-8.017157,54.885949],[-8.017157,54.885948],[-8.017157,54.885948],[-8.017157,54.885947],[-8.017157,54.885946],[-8.017157,54.885946],[-8.017157,54.885945],[-8.017157,54.885945],[-8.017157,54.885944],[-8.017157,54.885944],[-8.017157,54.885943],[-8.017157,54.885943],[-8.017157,54.885942],[-8.017157,54.885941],[-8.017157,54.885941],[-8.017157,54.88594],[-8.017157,54.88594],[-8.017157,54.885939],[-8.017157,54.885939],[-8.017157,54.885938],[-8.017157,54.885938],[-8.017157,54.885937],[-8.017157,54.885937],[-8.017157,54.885936],[-8.017157,54.885935],[-8.017157,54.885935],[-8.017157,54.885934],[-8.017157,54.885934],[-8.017157,54.885933],[-8.017157,54.885933],[-8.017157,54.885932],[-8.017157,54.885931],[-8.017157,54.885931],[-8.017157,54.88593],[-8.017157,54.88593],[-8.017157,54.885929],[-8.017157,54.885929],[-8.017157,54.885928],[-8.017157,54.885928],[-8.017157,54.885927],[-8.017157,54.885927],[-8.017157,54.885926],[-8.017158,54.885925],[-8.017158,54.885925],[-8.017158,54.885924],[-8.017158,54.885924],[-8.017158,54.885923],[-8.017158,54.885923],[-8.017158,54.885922],[-8.017158,54.885922],[-8.017158,54.885921],[-8.017158,54.88592],[-8.017158,54.88592],[-8.017159,54.885919],[-8.017159,54.885919],[-8.017159,54.885918],[-8.017159,54.885918],[-8.017159,54.885917],[-8.017159,54.885917],[-8.017159,54.885916],[-8.017159,54.885916],[-8.017159,54.885915],[-8.01716,54.885914],[-8.01716,54.885914],[-8.01716,54.885913],[-8.01716,54.885913],[-8.01716,54.885912],[-8.01716,54.885912],[-8.017161,54.885911],[-8.017161,54.885911],[-8.017161,54.88591],[-8.017161,54.885909],[-8.017161,54.885909],[-8.017161,54.885908],[-8.017161,54.885908],[-8.017162,54.885907],[-8.017162,54.885907],[-8.017162,54.885906],[-8.017162,54.885906],[-8.017162,54.885905],[-8.017163,54.885905],[-8.017163,54.885904],[-8.017163,54.885903],[-8.017172,54.885878],[-8.01718,54.885856],[-8.016832,54.885856],[-8.016832,54.885317],[-8.016832,54.885047],[-8.017299,54.885047],[-8.017299,54.884778],[-8.017766,54.884778],[-8.017766,54.884508],[-8.018234,54.884508],[-8.018234,54.884238],[-8.018701,54.884238],[-8.018701,54.884396],[-8.018855,54.884289],[-8.019064,54.884096],[-8.019221,54.883873],[-8.019231,54.883858],[-8.019232,54.883858],[-8.019232,54.883857],[-8.019232,54.883857],[-8.019233,54.883856],[-8.019233,54.883856],[-8.019233,54.883855],[-8.019234,54.883855],[-8.019243,54.883842],[-8.019288,54.883782],[-8.019116,54.883761]],[[-8.012157,54.888552],[-8.012157,54.888282],[-8.013092,54.888282],[-8.013092,54.888552],[-8.013092,54.888821],[-8.012625,54.888821],[-8.012625,54.888552],[-8.012157,54.888552]]],[[[-8.018234,54.884696],[-8.018538,54.884508],[-8.018234,54.884508],[-8.018234,54.884696]]],[[[-8.018061,54.884791],[-8.018089,54.884777],[-8.017766,54.884778],[-8.017767,54.884906],[-8.017878,54.884855],[-8.017878,54.884855],[-8.017879,54.884855],[-8.01788,54.884854],[-8.017881,54.884854],[-8.017881,54.884854],[-8.017882,54.884853],[-8.017883,54.884853],[-8.017884,54.884853],[-8.017884,54.884852],[-8.017885,54.884852],[-8.017886,54.884852],[-8.017887,54.884851],[-8.017888,54.884851],[-8.017888,54.884851],[-8.017889,54.88485],[-8.01789,54.88485],[-8.017891,54.88485],[-8.017892,54.884849],[-8.017892,54.884849],[-8.017893,54.884849],[-8.017894,54.884848],[-8.017895,54.884848],[-8.017896,54.884848],[-8.017896,54.884847],[-8.017897,54.884847],[-8.017898,54.884847],[-8.017899,54.884846],[-8.0179,54.884846],[-8.0179,54.884846],[-8.017901,54.884845],[-8.017902,54.884845],[-8.017903,54.884845],[-8.017904,54.884845],[-8.017904,54.884844],[-8.017905,54.884844],[-8.017906,54.884844],[-8.017907,54.884843],[-8.017908,54.884843],[-8.017909,54.884843],[-8.017909,54.884843],[-8.01791,54.884842],[-8.017911,54.884842],[-8.017912,54.884842],[-8.017913,54.884841],[-8.017913,54.884841],[-8.017978,54.884819],[-8.018061,54.884791]]],[[[-8.0174,54.885317],[-8.0174,54.885317],[-8.017299,54.885317],[-8.017299,54.885604],[-8.017326,54.885518],[-8.017326,54.885518],[-8.017326,54.885517],[-8.017327,54.885516],[-8.017327,54.885516],[-8.017327,54.885515],[-8.017327,54.885515],[-8.017327,54.885514],[-8.017327,54.885514],[-8.017328,54.885513],[-8.017328,54.885513],[-8.017332,54.8855],[-8.017394,54.885331],[-8.017394,54.88533],[-8.017394,54.88533],[-8.017395,54.885329],[-8.017395,54.885329],[-8.017395,54.885328],[-8.017395,54.885328],[-8.017395,54.885327],[-8.017396,54.885327],[-8.017396,54.885326],[-8.017396,54.885325],[-8.017396,54.885325],[-8.017397,54.885324],[-8.017397,54.885324],[-8.017397,54.885323],[-8.017397,54.885323],[-8.017398,54.885322],[-8.017398,54.885322],[-8.017398,54.885321],[-8.017398,54.885321],[-8.017399,54.88532],[-8.017399,54.88532],[-8.017399,54.885319],[-8.017399,54.885318],[-8.0174,54.885318],[-8.0174,54.885317],[-8.0174,54.885317]]],[[[-7.995356,54.885314],[-7.995285,54.885587],[-7.995792,54.885587],[-7.995792,54.885318],[-7.99626,54.885318],[-7.99626,54.885048],[-7.997662,54.885048],[-7.997662,54.884779],[-7.99813,54.884779],[-7.99813,54.884509],[-7.999532,54.884509],[-7.999532,54.88424],[-8.0,54.88424],[-8.0,54.88397],[-8.0,54.883701],[-8.000468,54.883701],[-8.000468,54.883431],[-8.000935,54.883431],[-8.000935,54.883162],[-8.001403,54.883162],[-8.001403,54.882892],[-8.00187,54.882892],[-8.00187,54.882622],[-8.00187,54.882353],[-8.002338,54.882353],[-8.002338,54.882083],[-8.002805,54.882083],[-8.002805,54.881814],[-8.003273,54.881814],[-8.003273,54.881544],[-8.00374,54.881544],[-8.00374,54.881278],[-8.003467,54.881148],[-8.002875,54.880922],[-8.002138,54.88131],[-8.001397,54.881681],[-8.001058,54.88185],[-8.000749,54.882004],[-8.0,54.882378],[-7.999362,54.882697],[-7.998543,54.883097],[-7.998292,54.883234],[-7.99755,54.883666],[-7.997386,54.883761],[-7.997096,54.883957],[-7.996492,54.884316],[-7.996114,54.884566],[-7.995781,54.884794],[-7.995394,54.885085],[-7.995394,54.885085],[-7.995356,54.885314],[-7.995356,54.885314]]],[[[-8.005705,54.882083],[-8.00561,54.882039],[-8.00561,54.882083],[-8.005705,54.882083]]],[[[-8.006267,54.882318],[-8.006078,54.882241],[-8.006078,54.882353],[-8.006344,54.882353],[-8.006267,54.882318]]],[[[-8.014505,54.883125],[-8.014493,54.883118],[-8.014493,54.883161],[-8.01494,54.883161],[-8.014929,54.883158],[-8.014801,54.883159],[-8.014769,54.883157],[-8.014709,54.883136],[-8.014609,54.883113],[-8.014505,54.883125]]],[[[-8.015442,54.883385],[-8.015428,54.883385],[-8.015428,54.88343],[-8.015653,54.88343],[-8.015534,54.883396],[-8.015442,54.883385]]],[[[-8.002338,54.882892],[-8.00187,54.882892],[-8.00187,54.883162],[-8.002805,54.883162],[-8.002805,54.882892],[-8.002805,54.882622],[-8.002338,54.882622],[-8.002338,54.882892]]],[[[-8.004208,54.882353],[-8.004208,54.882083],[-8.00374,54.882083],[-8.00374,54.882353],[-8.004208,54.882353]]],[[[-8.004208,54.881814],[-8.004208,54.882083],[-8.004675,54.882083],[-8.004675,54.881814],[-8.004208,54.881814]]]]}}]}
