{"type":"FeatureCollection","features":[{"type":"Feature","properties":{"source_fid":2715487,"county":"Donegal","bog_geom_ha":173.00942961705198,"low15_pct":79.874869655891558,"low15_ha":138.1910563990217,"overlay_ha":138.1875928923636,"area_delta":-0.0034635066581074625},"geometry":{"type":"MultiPolygon","coordinates":[[[[-8.563835,54.689643],[-8.563833,54.68965],[-8.563833,54.68965],[-8.563835,54.689643]]],[[[-8.564473,54.689936],[-8.564564,54.68989],[-8.564564,54.689841],[-8.564503,54.68981],[-8.564238,54.689739],[-8.563932,54.689696],[-8.563853,54.689659],[-8.563834,54.68965],[-8.563853,54.689659],[-8.563841,54.689703],[-8.563809,54.68975],[-8.563825,54.689806],[-8.56385,54.689849],[-8.563847,54.689902],[-8.563849,54.689959],[-8.563837,54.689994],[-8.563843,54.689979],[-8.563915,54.689944],[-8.563987,54.689955],[-8.564057,54.690001],[-8.5641,54.690031],[-8.564204,54.690082],[-8.564273,54.690082],[-8.564327,54.690068],[-8.564473,54.689936]]],[[[-8.564568,54.691324],[-8.564657,54.691323],[-8.564657,54.691323],[-8.564657,54.691323],[-8.564539,54.691249],[-8.564465,54.691207],[-8.564342,54.691164],[-8.564224,54.691117],[-8.564256,54.691157],[-8.564245,54.691218],[-8.564242,54.69127],[-8.564265,54.691308],[-8.564328,54.691337],[-8.564387,54.691341],[-8.564568,54.691324]]],[[[-8.565426,54.691842],[-8.565564,54.691806],[-8.565723,54.691784],[-8.565671,54.691703],[-8.565636,54.691677],[-8.565564,54.691652],[-8.56549,54.691657],[-8.565446,54.691663],[-8.565446,54.691663],[-8.565427,54.691714],[-8.56538,54.691781],[-8.565362,54.691818],[-8.565368,54.691835],[-8.565405,54.691846],[-8.565426,54.691842]]],[[[-8.566874,54.692355],[-8.566917,54.692355],[-8.567,54.692328],[-8.56703,54.692274],[-8.567065,54.692248],[-8.567088,54.692234],[-8.566793,54.692261],[-8.566636,54.692285],[-8.566636,54.692285],[-8.566679,54.692305],[-8.566786,54.69234],[-8.566874,54.692355]]],[[[-8.568022,54.69314],[-8.568045,54.693154],[-8.568091,54.693172],[-8.568097,54.693172],[-8.568097,54.693172],[-8.568097,54.693172],[-8.568038,54.693112],[-8.568038,54.693112],[-8.568034,54.693117],[-8.568022,54.69314]]],[[[-8.57308,54.69809],[-8.573106,54.698091],[-8.573182,54.698094],[-8.573312,54.698102],[-8.573405,54.698106],[-8.573458,54.698118],[-8.573573,54.698131],[-8.573601,54.698074],[-8.573592,54.698065],[-8.57356,54.698028],[-8.573614,54.697938],[-8.57368,54.697874],[-8.573756,54.697842],[-8.573831,54.697844],[-8.573899,54.697829],[-8.573921,54.697804],[-8.573916,54.697735],[-8.573892,54.697696],[-8.573805,54.697651],[-8.573715,54.697599],[-8.573634,54.697557],[-8.573371,54.697478],[-8.573276,54.697432],[-8.573193,54.697362],[-8.573076,54.697286],[-8.573021,54.697262],[-8.572955,54.697258],[-8.572792,54.697255],[-8.572625,54.697267],[-8.572548,54.697265],[-8.572436,54.697224],[-8.572252,54.697144],[-8.572187,54.697085],[-8.57215,54.697036],[-8.57217,54.696986],[-8.572152,54.6969],[-8.572106,54.696794],[-8.572043,54.696678],[-8.571983,54.696611],[-8.571905,54.696562],[-8.571715,54.696485],[-8.571571,54.696435],[-8.571538,54.696424],[-8.571451,54.696371],[-8.571351,54.696274],[-8.571234,54.696163],[-8.571142,54.696035],[-8.571091,54.695981],[-8.570992,54.695932],[-8.570896,54.695895],[-8.5708,54.695822],[-8.570742,54.695789],[-8.570686,54.695757],[-8.570553,54.69568],[-8.570475,54.695615],[-8.5704,54.695575],[-8.570287,54.695534],[-8.570186,54.695491],[-8.570135,54.695452],[-8.570108,54.695392],[-8.570111,54.695343],[-8.570132,54.695303],[-8.570167,54.695255],[-8.570173,54.69522],[-8.570132,54.695157],[-8.570064,54.695007],[-8.570016,54.694935],[-8.569887,54.694856],[-8.56974,54.694761],[-8.569552,54.694655],[-8.569356,54.694567],[-8.569197,54.69447],[-8.569085,54.694376],[-8.568845,54.694201],[-8.56871,54.694047],[-8.568682,54.693983],[-8.568693,54.693966],[-8.568693,54.693966],[-8.568294,54.693408],[-8.568294,54.693408],[-8.568278,54.693413],[-8.56818,54.693414],[-8.568058,54.693395],[-8.567903,54.693376],[-8.567783,54.693383],[-8.56767,54.693399],[-8.567442,54.6934],[-8.567051,54.693385],[-8.566917,54.693405],[-8.566811,54.693402],[-8.566672,54.693415],[-8.566526,54.693416],[-8.566228,54.693399],[-8.566022,54.693391],[-8.565916,54.69339],[-8.565778,54.69343],[-8.565554,54.693509],[-8.565356,54.693573],[-8.565208,54.693602],[-8.565083,54.6936],[-8.564946,54.693571],[-8.564862,54.693574],[-8.564711,54.693577],[-8.564467,54.693555],[-8.564324,54.693524],[-8.564058,54.693465],[-8.564002,54.693459],[-8.563841,54.693429],[-8.563611,54.69337],[-8.563431,54.693308],[-8.563354,54.693286],[-8.563258,54.693304],[-8.563093,54.693337],[-8.562933,54.693418],[-8.56269,54.693519],[-8.562417,54.693628],[-8.561991,54.693745],[-8.561559,54.693815],[-8.561254,54.693857],[-8.561002,54.693887],[-8.560994,54.693863],[-8.561244,54.693833],[-8.561548,54.69379],[-8.561976,54.693722],[-8.562395,54.693606],[-8.562665,54.693498],[-8.562906,54.693398],[-8.56307,54.693315],[-8.563244,54.69328],[-8.563357,54.693258],[-8.563451,54.693286],[-8.563622,54.693336],[-8.563875,54.693396],[-8.564022,54.693428],[-8.564075,54.693441],[-8.56434,54.6935],[-8.564478,54.69353],[-8.564714,54.693552],[-8.56486,54.693548],[-8.564953,54.693545],[-8.565091,54.693575],[-8.565201,54.693576],[-8.565338,54.69355],[-8.565532,54.693487],[-8.565757,54.693408],[-8.565906,54.693365],[-8.566024,54.693366],[-8.566231,54.693374],[-8.566519,54.693386],[-8.566807,54.69337],[-8.567062,54.693352],[-8.567455,54.693363],[-8.567666,54.693373],[-8.567776,54.693358],[-8.567905,54.69335],[-8.568068,54.69337],[-8.568186,54.693388],[-8.568267,54.693388],[-8.568278,54.693384],[-8.568206,54.693284],[-8.568123,54.693199],[-8.568123,54.693199],[-8.568077,54.693198],[-8.568016,54.693174],[-8.567972,54.693146],[-8.567992,54.693108],[-8.568014,54.693079],[-8.568014,54.693079],[-8.567916,54.692945],[-8.567877,54.692842],[-8.567933,54.692776],[-8.567945,54.692721],[-8.567871,54.692647],[-8.567871,54.692647],[-8.567835,54.692653],[-8.567776,54.692651],[-8.567729,54.692636],[-8.567684,54.692603],[-8.567669,54.692568],[-8.567669,54.692568],[-8.567544,54.692541],[-8.567472,54.692498],[-8.567472,54.69246],[-8.567471,54.692393],[-8.567472,54.692279],[-8.567452,54.692244],[-8.567452,54.692244],[-8.567445,54.692245],[-8.567325,54.692236],[-8.567183,54.692242],[-8.567141,54.692246],[-8.567104,54.692268],[-8.567077,54.692288],[-8.567044,54.692348],[-8.566931,54.692385],[-8.566866,54.692385],[-8.566765,54.692368],[-8.566651,54.69233],[-8.566572,54.692295],[-8.566572,54.692295],[-8.566572,54.692295],[-8.566423,54.692291],[-8.566264,54.692245],[-8.566173,54.692216],[-8.566067,54.692128],[-8.566067,54.692128],[-8.565995,54.692164],[-8.565875,54.692197],[-8.565743,54.692198],[-8.565621,54.692173],[-8.565458,54.692174],[-8.565316,54.692168],[-8.565119,54.692129],[-8.564921,54.69211],[-8.564669,54.692117],[-8.564492,54.692134],[-8.564369,54.692168],[-8.564284,54.692212],[-8.56418,54.692235],[-8.564027,54.692238],[-8.563813,54.692263],[-8.563713,54.692284],[-8.563638,54.692315],[-8.563567,54.692374],[-8.563411,54.692454],[-8.563219,54.692522],[-8.563032,54.692572],[-8.562846,54.692581],[-8.562842,54.692553],[-8.56302,54.692544],[-8.563196,54.692497],[-8.563382,54.692431],[-8.563531,54.692355],[-8.563603,54.692295],[-8.56369,54.692259],[-8.5638,54.692236],[-8.564022,54.69221],[-8.564169,54.692207],[-8.564259,54.692187],[-8.564342,54.692145],[-8.564477,54.692107],[-8.564664,54.692088],[-8.564924,54.692082],[-8.565131,54.692102],[-8.565326,54.69214],[-8.56546,54.692146],[-8.565629,54.692145],[-8.565751,54.69217],[-8.565863,54.692169],[-8.565968,54.69214],[-8.566041,54.692104],[-8.566041,54.692104],[-8.565928,54.692003],[-8.565734,54.6918],[-8.565734,54.6918],[-8.565734,54.6918],[-8.565574,54.691822],[-8.565437,54.691858],[-8.565402,54.691864],[-8.565342,54.691847],[-8.565331,54.691818],[-8.565352,54.691775],[-8.565399,54.691709],[-8.565414,54.691667],[-8.565414,54.691667],[-8.565414,54.691667],[-8.565317,54.691664],[-8.565251,54.691655],[-8.565137,54.691635],[-8.565057,54.691605],[-8.564945,54.691536],[-8.564864,54.691456],[-8.564864,54.691456],[-8.564837,54.691445],[-8.564786,54.6914],[-8.564718,54.691361],[-8.564666,54.69134],[-8.564571,54.691341],[-8.564388,54.691359],[-8.564306,54.691355],[-8.564236,54.69132],[-8.564208,54.691273],[-8.564211,54.691217],[-8.564221,54.69116],[-8.564183,54.691113],[-8.564116,54.691064],[-8.564058,54.691044],[-8.563968,54.691038],[-8.563855,54.691024],[-8.563767,54.691004],[-8.563715,54.690962],[-8.563701,54.690891],[-8.563692,54.690822],[-8.563643,54.690763],[-8.563614,54.690728],[-8.563582,54.690688],[-8.563595,54.690648],[-8.563648,54.690572],[-8.563758,54.69048],[-8.563876,54.690422],[-8.563956,54.690379],[-8.563985,54.690329],[-8.563984,54.690288],[-8.563956,54.69024],[-8.563904,54.690189],[-8.563815,54.690105],[-8.563793,54.690066],[-8.563795,54.690004],[-8.563811,54.689958],[-8.563809,54.689902],[-8.563812,54.689852],[-8.563788,54.689811],[-8.563766,54.68975],[-8.563726,54.689683],[-8.563696,54.689669],[-8.563654,54.689657],[-8.563592,54.689653],[-8.563447,54.689656],[-8.563308,54.689655],[-8.563219,54.689653],[-8.56316,54.689646],[-8.563085,54.68964],[-8.563026,54.689645],[-8.562931,54.689646],[-8.562711,54.689638],[-8.562583,54.689634],[-8.56248,54.68964],[-8.562374,54.689647],[-8.562261,54.689653],[-8.562193,54.689631],[-8.562156,54.689606],[-8.562088,54.689583],[-8.562059,54.689577],[-8.562,54.68958],[-8.561916,54.689587],[-8.561813,54.689597],[-8.56175,54.689598],[-8.561648,54.689596],[-8.561484,54.68959],[-8.56135,54.689581],[-8.561298,54.689555],[-8.561284,54.689529],[-8.561252,54.689497],[-8.561228,54.689489],[-8.561161,54.689494],[-8.561064,54.68951],[-8.560929,54.689548],[-8.560825,54.689576],[-8.560714,54.689591],[-8.560646,54.689587],[-8.560586,54.6896],[-8.560547,54.689615],[-8.560495,54.689619],[-8.560472,54.689619],[-8.560455,54.689629],[-8.560404,54.689657],[-8.560265,54.689703],[-8.56018,54.689731],[-8.560073,54.689743],[-8.560041,54.689757],[-8.560036,54.689772],[-8.559962,54.689785],[-8.559932,54.689785],[-8.559841,54.689796],[-8.559776,54.689817],[-8.559648,54.68986],[-8.559606,54.689874],[-8.559566,54.689874],[-8.55952,54.689881],[-8.55939,54.6899],[-8.559339,54.689917],[-8.559313,54.689945],[-8.559256,54.689979],[-8.559196,54.690002],[-8.559124,54.690018],[-8.55908,54.690019],[-8.559004,54.690009],[-8.558988,54.690007],[-8.558838,54.689999],[-8.558784,54.689996],[-8.558733,54.689997],[-8.558665,54.689997],[-8.558623,54.690007],[-8.558592,54.690018],[-8.55854,54.690049],[-8.558513,54.690058],[-8.558489,54.690069],[-8.55848,54.690085],[-8.558475,54.690112],[-8.558479,54.690139],[-8.558461,54.690176],[-8.558418,54.690203],[-8.558304,54.690259],[-8.558236,54.69027],[-8.558195,54.690287],[-8.558112,54.690366],[-8.558052,54.690407],[-8.557915,54.690481],[-8.557772,54.690538],[-8.557674,54.690556],[-8.557637,54.69057],[-8.557618,54.690592],[-8.557588,54.690628],[-8.557548,54.690658],[-8.557492,54.690682],[-8.557444,54.690691],[-8.557357,54.69069],[-8.557308,54.690683],[-8.557262,54.690703],[-8.557195,54.690791],[-8.557171,54.690799],[-8.557136,54.690811],[-8.557098,54.690819],[-8.557054,54.690825],[-8.557006,54.69083],[-8.55698,54.690836],[-8.556962,54.690845],[-8.556948,54.690864],[-8.556918,54.690885],[-8.556683,54.690995],[-8.556593,54.691001],[-8.556512,54.691002],[-8.556471,54.691001],[-8.556414,54.691015],[-8.556293,54.691078],[-8.556282,54.691108],[-8.556217,54.691143],[-8.555961,54.691235],[-8.55574,54.691305],[-8.555501,54.691357],[-8.55541,54.691406],[-8.55538,54.691422],[-8.555195,54.69156],[-8.555145,54.691661],[-8.555143,54.691719],[-8.554961,54.691799],[-8.554856,54.691872],[-8.554676,54.691982],[-8.554512,54.692086],[-8.554476,54.692123],[-8.554443,54.692182],[-8.554414,54.692288],[-8.55438,54.692422],[-8.554336,54.692556],[-8.554326,54.692595],[-8.55426,54.692699],[-8.554295,54.692917],[-8.554289,54.692919],[-8.554252,54.692698],[-8.554317,54.692598],[-8.55437,54.692434],[-8.554434,54.692183],[-8.554472,54.692119],[-8.55451,54.69208],[-8.554672,54.691978],[-8.554847,54.691874],[-8.554959,54.691796],[-8.555138,54.691716],[-8.555137,54.691662],[-8.55519,54.691558],[-8.555371,54.691421],[-8.555499,54.691354],[-8.555605,54.691332],[-8.555736,54.691302],[-8.555954,54.691233],[-8.556211,54.69114],[-8.556275,54.691105],[-8.556286,54.691074],[-8.556328,54.69105],[-8.556402,54.691011],[-8.556437,54.690999],[-8.556471,54.690989],[-8.556444,54.690893],[-8.556429,54.690875],[-8.556408,54.690876],[-8.556375,54.690867],[-8.556218,54.690867],[-8.556149,54.690869],[-8.556075,54.690864],[-8.55596,54.690882],[-8.555752,54.690891],[-8.555481,54.690897],[-8.555111,54.690899],[-8.554652,54.69086],[-8.554655,54.690857],[-8.555105,54.690896],[-8.55528,54.690895],[-8.555653,54.69089],[-8.555962,54.690878],[-8.556071,54.690858],[-8.556137,54.690864],[-8.556377,54.690863],[-8.55641,54.690871],[-8.556432,54.69087],[-8.556452,54.690895],[-8.556474,54.690975],[-8.556598,54.690974],[-8.556663,54.690969],[-8.556885,54.690867],[-8.556905,54.690853],[-8.556921,54.690835],[-8.556944,54.69082],[-8.556961,54.69081],[-8.556991,54.690804],[-8.557077,54.690795],[-8.557114,54.690788],[-8.557162,54.690771],[-8.557226,54.690687],[-8.557297,54.690655],[-8.557366,54.690663],[-8.557431,54.690665],[-8.557469,54.690659],[-8.557514,54.690639],[-8.557547,54.690615],[-8.557601,54.690553],[-8.557654,54.690532],[-8.557752,54.690514],[-8.557887,54.690461],[-8.558019,54.690389],[-8.558075,54.69035],[-8.558161,54.690268],[-8.558217,54.690246],[-8.558282,54.690235],[-8.558386,54.690183],[-8.55842,54.690163],[-8.558433,54.690136],[-8.558429,54.690112],[-8.558436,54.690079],[-8.558449,54.690053],[-8.558488,54.690035],[-8.558512,54.690028],[-8.558563,54.689997],[-8.558603,54.689983],[-8.558656,54.689971],[-8.558732,54.689971],[-8.558785,54.68997],[-8.558842,54.689972],[-8.558987,54.689977],[-8.559015,54.689981],[-8.559085,54.68999],[-8.559114,54.689989],[-8.559172,54.689976],[-8.559224,54.689956],[-8.559272,54.689928],[-8.559301,54.689896],[-8.559371,54.689873],[-8.559508,54.689853],[-8.559559,54.689845],[-8.559592,54.689845],[-8.559623,54.689835],[-8.559752,54.689792],[-8.559824,54.689769],[-8.559927,54.689756],[-8.559954,54.689756],[-8.559993,54.689749],[-8.559995,54.68974],[-8.560052,54.689716],[-8.560163,54.689703],[-8.56024,54.689678],[-8.560374,54.689633],[-8.56042,54.689608],[-8.560451,54.68959],[-8.560492,54.68959],[-8.560529,54.689587],[-8.560563,54.689574],[-8.56064,54.689558],[-8.56071,54.689562],[-8.560809,54.689548],[-8.560907,54.689522],[-8.561046,54.689483],[-8.561151,54.689465],[-8.561238,54.689459],[-8.561288,54.689475],[-8.56133,54.689517],[-8.561341,54.689538],[-8.561371,54.689553],[-8.561489,54.689561],[-8.56165,54.689567],[-8.56175,54.689569],[-8.561809,54.689568],[-8.561908,54.689559],[-8.561994,54.689551],[-8.562065,54.689548],[-8.562109,54.689556],[-8.562189,54.689583],[-8.562225,54.689609],[-8.562272,54.689624],[-8.562369,54.689619],[-8.562474,54.689611],[-8.562582,54.689605],[-8.562714,54.689609],[-8.562932,54.689617],[-8.563023,54.689616],[-8.563085,54.689611],[-8.563175,54.689618],[-8.563234,54.689625],[-8.563309,54.689627],[-8.563446,54.689628],[-8.563593,54.689625],[-8.563668,54.689629],[-8.563723,54.689645],[-8.563767,54.689667],[-8.563794,54.689711],[-8.563804,54.689698],[-8.563817,54.689648],[-8.563824,54.689622],[-8.56381,54.689541],[-8.563749,54.689494],[-8.563628,54.689448],[-8.563481,54.689395],[-8.563416,54.689369],[-8.563366,54.689349],[-8.563324,54.689333],[-8.563305,54.689324],[-8.563256,54.689307],[-8.563186,54.68927],[-8.563084,54.689242],[-8.562993,54.68923],[-8.562907,54.689194],[-8.562839,54.689149],[-8.56278,54.689092],[-8.562727,54.689027],[-8.562649,54.688979],[-8.562587,54.688966],[-8.562501,54.688971],[-8.562427,54.688977],[-8.562357,54.688953],[-8.562329,54.688917],[-8.562312,54.688871],[-8.562303,54.688828],[-8.562274,54.688804],[-8.562193,54.688781],[-8.562154,54.688785],[-8.562132,54.688814],[-8.562066,54.688839],[-8.561982,54.688832],[-8.561935,54.688821],[-8.561891,54.688786],[-8.561834,54.688743],[-8.561712,54.688683],[-8.56162,54.68862],[-8.561514,54.688541],[-8.561421,54.688495],[-8.561314,54.688437],[-8.561269,54.688414],[-8.561263,54.688387],[-8.561269,54.688378],[-8.561269,54.688378],[-8.561269,54.688378],[-8.561163,54.688265],[-8.561105,54.688186],[-8.561096,54.688141],[-8.560891,54.687958],[-8.560884,54.687952],[-8.560807,54.687924],[-8.560753,54.687887],[-8.56072,54.687861],[-8.560712,54.687836],[-8.560699,54.6878],[-8.560665,54.687749],[-8.560562,54.687701],[-8.560553,54.687697],[-8.560391,54.68762],[-8.560384,54.687617],[-8.559936,54.687407],[-8.559903,54.68739],[-8.559895,54.687386],[-8.559705,54.687287],[-8.559134,54.68699],[-8.558945,54.686892],[-8.558839,54.686835],[-8.558694,54.686758],[-8.558655,54.686738],[-8.558285,54.686541],[-8.558164,54.686477],[-8.557755,54.686265],[-8.557751,54.686263],[-8.557623,54.686197],[-8.557211,54.685984],[-8.55702,54.685885],[-8.557015,54.685882],[-8.556829,54.685786],[-8.5565,54.685618],[-8.556497,54.685617],[-8.555612,54.685165],[-8.554927,54.684815],[-8.554802,54.68475],[-8.554564,54.684626],[-8.554567,54.684857],[-8.55457,54.685126],[-8.554105,54.685129],[-8.554109,54.685398],[-8.553644,54.6854],[-8.553647,54.68567],[-8.553182,54.685672],[-8.553186,54.685941],[-8.55272,54.685944],[-8.552724,54.686213],[-8.552259,54.686215],[-8.552263,54.686485],[-8.551797,54.686487],[-8.551794,54.686217],[-8.55179,54.685948],[-8.552255,54.685946],[-8.552252,54.685676],[-8.552717,54.685674],[-8.552713,54.685404],[-8.553178,54.685402],[-8.553175,54.685133],[-8.55364,54.685131],[-8.553636,54.684861],[-8.554101,54.684859],[-8.554098,54.684589],[-8.554489,54.684588],[-8.554058,54.684365],[-8.553967,54.684321],[-8.553164,54.684324],[-8.553167,54.684594],[-8.552237,54.684598],[-8.552241,54.684867],[-8.550845,54.684874],[-8.550849,54.685143],[-8.550383,54.685145],[-8.550391,54.685685],[-8.550394,54.685954],[-8.55086,54.685952],[-8.550863,54.686222],[-8.550398,54.686224],[-8.550402,54.686493],[-8.549471,54.686497],[-8.549475,54.686767],[-8.54901,54.686769],[-8.549013,54.687039],[-8.548548,54.687041],[-8.548559,54.687849],[-8.548562,54.688119],[-8.547632,54.688123],[-8.547636,54.688393],[-8.54717,54.688395],[-8.547174,54.688664],[-8.546709,54.688666],[-8.546712,54.688936],[-8.545782,54.68894],[-8.545785,54.68921],[-8.54532,54.689212],[-8.545331,54.69002],[-8.545335,54.69029],[-8.544869,54.690292],[-8.544873,54.690561],[-8.544877,54.690831],[-8.54488,54.6911],[-8.544415,54.691103],[-8.544418,54.691372],[-8.544422,54.691642],[-8.543491,54.691646],[-8.543495,54.691915],[-8.542638,54.691919],[-8.542646,54.69192],[-8.542693,54.691971],[-8.542761,54.691999],[-8.542825,54.691985],[-8.542876,54.691989],[-8.542917,54.691993],[-8.543017,54.692062],[-8.543292,54.692177],[-8.543449,54.692239],[-8.543529,54.692258],[-8.54372,54.692325],[-8.54385,54.692361],[-8.544067,54.692428],[-8.544281,54.692483],[-8.544601,54.692573],[-8.544841,54.692699],[-8.54495,54.692757],[-8.54537,54.692903],[-8.545526,54.692933],[-8.545587,54.69295],[-8.545663,54.692951],[-8.547903,54.693635],[-8.548901,54.693843],[-8.549439,54.694031],[-8.550506,54.694464],[-8.552042,54.694958],[-8.552083,54.694971],[-8.552172,54.694997],[-8.552241,54.695017],[-8.552263,54.695024],[-8.552803,54.69518],[-8.553173,54.695314],[-8.553387,54.69539],[-8.553688,54.695562],[-8.553751,54.695602],[-8.554054,54.695898],[-8.55421,54.696087],[-8.554294,54.696187],[-8.554308,54.696184],[-8.55452,54.696146],[-8.554871,54.696152],[-8.555145,54.696121],[-8.555513,54.696057],[-8.555906,54.69596],[-8.556228,54.695913],[-8.556454,54.695909],[-8.556857,54.695958],[-8.556906,54.695964],[-8.557925,54.696129],[-8.558296,54.696171],[-8.559072,54.696162],[-8.559764,54.696156],[-8.56145,54.696114],[-8.56177,54.696107],[-8.563186,54.696079],[-8.564291,54.696056],[-8.565531,54.696031],[-8.566485,54.695983],[-8.566585,54.696097],[-8.566667,54.69615],[-8.566757,54.696194],[-8.56686,54.696229],[-8.567048,54.69631],[-8.56715,54.696356],[-8.567274,54.696433],[-8.567418,54.696563],[-8.567472,54.696605],[-8.567533,54.696635],[-8.56766,54.696667],[-8.56779,54.69669],[-8.567891,54.696694],[-8.568078,54.69669],[-8.568175,54.696689],[-8.568225,54.6967],[-8.568253,54.696705],[-8.56842,54.696751],[-8.568595,54.696759],[-8.568712,54.696754],[-8.568765,54.696763],[-8.568814,54.696791],[-8.568935,54.696942],[-8.568993,54.697013],[-8.56899,54.697041],[-8.568968,54.697135],[-8.56901,54.69721],[-8.56906,54.697266],[-8.56913,54.697324],[-8.569187,54.697359],[-8.569257,54.697375],[-8.56933,54.697384],[-8.569387,54.6974],[-8.569412,54.697425],[-8.569474,54.69751],[-8.56952,54.697547],[-8.569553,54.697563],[-8.56963,54.697565],[-8.569743,54.697559],[-8.569869,54.69757],[-8.569955,54.6976],[-8.570037,54.697651],[-8.570041,54.697653],[-8.570099,54.697702],[-8.570148,54.697721],[-8.570201,54.697725],[-8.570286,54.697732],[-8.570413,54.69778],[-8.57054,54.697817],[-8.570666,54.697839],[-8.570739,54.697848],[-8.570877,54.697842],[-8.570958,54.697833],[-8.571018,54.697804],[-8.571074,54.697773],[-8.571106,54.697773],[-8.571172,54.697791],[-8.571274,54.697818],[-8.571323,54.697839],[-8.571437,54.697857],[-8.57151,54.697861],[-8.571567,54.697877],[-8.571678,54.697926],[-8.571751,54.69794],[-8.57182,54.697951],[-8.571873,54.697976],[-8.571931,54.698004],[-8.572045,54.698017],[-8.572134,54.698017],[-8.572312,54.698011],[-8.572389,54.698008],[-8.572552,54.698028],[-8.572768,54.698073],[-8.572845,54.698084],[-8.572886,54.698098],[-8.572971,54.698105],[-8.57308,54.69809]]],[[[-8.538897,54.690537],[-8.539096,54.690587],[-8.53929,54.690586],[-8.539286,54.690317],[-8.540217,54.690313],[-8.540213,54.690043],[-8.540678,54.690041],[-8.540667,54.689232],[-8.541133,54.68923],[-8.541129,54.688961],[-8.541126,54.688703],[-8.540924,54.688861],[-8.54062,54.688822],[-8.540308,54.688648],[-8.539845,54.688644],[-8.538905,54.688503],[-8.538896,54.688508],[-8.538908,54.689377],[-8.537319,54.689384],[-8.536873,54.689632],[-8.537934,54.690004],[-8.538649,54.690295],[-8.538897,54.690537]]],[[[-8.541223,54.688627],[-8.541141,54.688691],[-8.541591,54.688689],[-8.541587,54.68842],[-8.541584,54.68815],[-8.54158,54.687881],[-8.542045,54.687879],[-8.542035,54.68707],[-8.5425,54.687068],[-8.542496,54.686798],[-8.542064,54.6868],[-8.541975,54.686846],[-8.541985,54.687567],[-8.540579,54.687573],[-8.540436,54.687653],[-8.540443,54.688242],[-8.540484,54.68827],[-8.540496,54.688325],[-8.540528,54.688382],[-8.54059,54.688467],[-8.540624,54.688474],[-8.540892,54.688581],[-8.540991,54.688583],[-8.541044,54.688595],[-8.541143,54.688595],[-8.541256,54.688594],[-8.541223,54.688627]]],[[[-8.547984,54.683611],[-8.547574,54.683832],[-8.547578,54.68408],[-8.547581,54.68435],[-8.548512,54.684345],[-8.548508,54.684076],[-8.548973,54.684074],[-8.548969,54.683804],[-8.549435,54.683802],[-8.549431,54.683532],[-8.549896,54.68353],[-8.549893,54.683261],[-8.548666,54.683266],[-8.548581,54.683309],[-8.547984,54.683611]]],[[[-8.549884,54.68265],[-8.54974,54.682722],[-8.549885,54.682722],[-8.549884,54.68265]]],[[[-8.550327,54.682426],[-8.550278,54.68245],[-8.550381,54.68245],[-8.550327,54.682426]]],[[[-8.56147,54.688508],[-8.561431,54.688488],[-8.561399,54.688471],[-8.561431,54.688488],[-8.56147,54.688508]]],[[[-8.562195,54.688772],[-8.562143,54.688777],[-8.562119,54.688808],[-8.562063,54.688829],[-8.561985,54.688823],[-8.561945,54.688814],[-8.561904,54.688781],[-8.561846,54.688737],[-8.561723,54.688677],[-8.561632,54.688614],[-8.56159,54.688582],[-8.561632,54.688614],[-8.561675,54.688623],[-8.561922,54.688678],[-8.562029,54.688701],[-8.562079,54.68872],[-8.562171,54.688761],[-8.562195,54.688772]]],[[[-8.562658,54.688971],[-8.562589,54.688957],[-8.562563,54.688946],[-8.562477,54.688906],[-8.5624,54.688885],[-8.562345,54.688845],[-8.562318,54.688825],[-8.562303,54.688813],[-8.562318,54.688825],[-8.562327,54.68887],[-8.562344,54.688914],[-8.562369,54.688947],[-8.562431,54.688968],[-8.562499,54.688962],[-8.562589,54.688957],[-8.562658,54.688971],[-8.56274,54.689022],[-8.562769,54.689057],[-8.56274,54.689022],[-8.562658,54.688971]]],[[[-8.563,54.689222],[-8.563054,54.689229],[-8.563,54.689222],[-8.562949,54.689201],[-8.563,54.689222]]],[[[-8.563195,54.689263],[-8.563221,54.689277],[-8.563195,54.689263],[-8.563125,54.689243],[-8.563195,54.689263]]],[[[-8.563637,54.689441],[-8.563618,54.689434],[-8.563637,54.689441],[-8.563662,54.68945],[-8.563637,54.689441]]]]}}]}
