{"type":"FeatureCollection","features":[{"type":"Feature","properties":{"source_fid":2719298,"county":"Mayo","bog_geom_ha":188.61363509880789,"low15_pct":88.412017167381975,"low15_ha":166.75711944358122,"overlay_ha":166.54295315451844,"area_delta":-0.21416628906277424},"geometry":{"type":"MultiPolygon","coordinates":[[[[-9.411965,54.264089],[-9.411938,54.263976],[-9.411833,54.263623],[-9.411819,54.263582],[-9.411734,54.263337],[-9.411679,54.263195],[-9.411549,54.262863],[-9.411518,54.262809],[-9.411482,54.262747],[-9.411395,54.262748],[-9.411389,54.262574],[-9.411243,54.262349],[-9.411175,54.262108],[-9.411155,54.261952],[-9.411149,54.261908],[-9.411156,54.26187],[-9.411196,54.261654],[-9.411323,54.260732],[-9.411339,54.260363],[-9.411341,54.260322],[-9.411312,54.260322],[-9.411294,54.259783],[-9.410833,54.259789],[-9.410824,54.259519],[-9.411381,54.259513],[-9.411449,54.258877],[-9.411467,54.258708],[-9.41149,54.258457],[-9.41149,54.258457],[-9.411487,54.258432],[-9.411385,54.25859],[-9.411429,54.258325],[-9.41143,54.258209],[-9.411386,54.257982],[-9.411341,54.25774],[-9.41127,54.257513],[-9.411237,54.257371],[-9.409882,54.257645],[-9.409547,54.257716],[-9.409029,54.257825],[-9.408398,54.257955],[-9.40782,54.258079],[-9.407483,54.258146],[-9.406982,54.258213],[-9.406687,54.258265],[-9.406032,54.258388],[-9.404427,54.258712],[-9.403424,54.258861],[-9.401277,54.259132],[-9.400488,54.259233],[-9.40048,54.259234],[-9.400163,54.259264],[-9.400082,54.259272],[-9.399555,54.259442],[-9.39955,54.259444],[-9.398677,54.259728],[-9.397862,54.259987],[-9.397448,54.260118],[-9.397105,54.260217],[-9.397043,54.260237],[-9.396938,54.260271],[-9.396198,54.260508],[-9.396184,54.260513],[-9.395966,54.260583],[-9.395796,54.260638],[-9.395708,54.260666],[-9.395624,54.260693],[-9.395405,54.260763],[-9.395355,54.260781],[-9.395181,54.260841],[-9.395125,54.26086],[-9.395091,54.260885],[-9.394882,54.261067],[-9.394737,54.261193],[-9.39468,54.261238],[-9.394432,54.261428],[-9.394261,54.26156],[-9.39423,54.261582],[-9.39396,54.261774],[-9.393647,54.261997],[-9.393581,54.262044],[-9.393494,54.262108],[-9.394251,54.262099],[-9.394281,54.262997],[-9.392747,54.263015],[-9.392777,54.263913],[-9.391542,54.263927],[-9.391518,54.263991],[-9.391469,54.264084],[-9.391307,54.264393],[-9.391261,54.264463],[-9.391273,54.264829],[-9.391067,54.264831],[-9.391017,54.264946],[-9.390904,54.265156],[-9.390807,54.265353],[-9.390543,54.265905],[-9.390196,54.266577],[-9.39016,54.266638],[-9.390102,54.26674],[-9.39002,54.266893],[-9.389884,54.267171],[-9.38986,54.267218],[-9.389835,54.267357],[-9.389874,54.267537],[-9.389948,54.267748],[-9.389993,54.267876],[-9.390162,54.268275],[-9.390201,54.268474],[-9.390218,54.26856],[-9.390216,54.268648],[-9.390229,54.26873],[-9.390289,54.268889],[-9.390368,54.269147],[-9.390453,54.269454],[-9.390504,54.269511],[-9.390548,54.269625],[-9.390647,54.269885],[-9.39081,54.270284],[-9.390357,54.270514],[-9.390386,54.270588],[-9.390425,54.270681],[-9.390462,54.270813],[-9.390535,54.270973],[-9.390587,54.271077],[-9.390952,54.271073],[-9.390934,54.270534],[-9.391394,54.270529],[-9.391385,54.270259],[-9.391846,54.270254],[-9.391827,54.269715],[-9.392288,54.26971],[-9.392279,54.26944],[-9.392739,54.269435],[-9.39273,54.269165],[-9.39319,54.26916],[-9.393172,54.268621],[-9.392712,54.268626],[-9.392704,54.268406],[-9.391394,54.268421],[-9.391364,54.267523],[-9.392898,54.267505],[-9.392927,54.268354],[-9.393163,54.268351],[-9.393154,54.268082],[-9.393145,54.267812],[-9.393605,54.267807],[-9.393614,54.268077],[-9.394075,54.268071],[-9.394066,54.267802],[-9.394526,54.267797],[-9.394508,54.267258],[-9.395429,54.267247],[-9.395447,54.267786],[-9.395456,54.268055],[-9.394996,54.268061],[-9.395005,54.26833],[-9.394544,54.268335],[-9.394553,54.268605],[-9.394093,54.26861],[-9.394111,54.269149],[-9.39412,54.269419],[-9.394129,54.269688],[-9.394148,54.270227],[-9.394157,54.270497],[-9.393696,54.270502],[-9.393714,54.271041],[-9.393254,54.271046],[-9.393263,54.271316],[-9.392803,54.271321],[-9.392812,54.271591],[-9.391891,54.271601],[-9.3919,54.271871],[-9.390979,54.271881],[-9.39097,54.271612],[-9.390853,54.271613],[-9.391016,54.271965],[-9.391157,54.272258],[-9.391328,54.27261],[-9.391812,54.272497],[-9.392244,54.272398],[-9.392717,54.272295],[-9.393057,54.272205],[-9.39305,54.271996],[-9.393746,54.271988],[-9.393742,54.271849],[-9.394528,54.27184],[-9.394661,54.271805],[-9.394654,54.271569],[-9.395658,54.271558],[-9.396047,54.271476],[-9.396173,54.271456],[-9.396231,54.271447],[-9.396186,54.271378],[-9.396162,54.271329],[-9.396036,54.271169],[-9.395892,54.271017],[-9.395781,54.270895],[-9.395601,54.270692],[-9.395439,54.270501],[-9.39537,54.270422],[-9.395345,54.27035],[-9.395204,54.270174],[-9.394523,54.270182],[-9.394493,54.269284],[-9.395827,54.269268],[-9.396055,54.269054],[-9.396108,54.269004],[-9.396399,54.268704],[-9.396395,54.268584],[-9.396518,54.268582],[-9.396664,54.268435],[-9.396705,54.268402],[-9.396764,54.268347],[-9.396813,54.268305],[-9.396844,54.268245],[-9.396819,54.2675],[-9.396359,54.267506],[-9.39634,54.266967],[-9.396331,54.266697],[-9.396792,54.266692],[-9.396773,54.266153],[-9.397234,54.266148],[-9.397225,54.265878],[-9.397216,54.265609],[-9.397206,54.265339],[-9.397667,54.265334],[-9.397658,54.265064],[-9.398118,54.265059],[-9.398109,54.26479],[-9.398569,54.264784],[-9.398578,54.265054],[-9.399039,54.265048],[-9.39903,54.264779],[-9.39949,54.264773],[-9.399481,54.264504],[-9.399941,54.264499],[-9.399923,54.26396],[-9.400383,54.263954],[-9.400402,54.264493],[-9.400411,54.264763],[-9.40042,54.265032],[-9.40088,54.265027],[-9.400889,54.265296],[-9.40135,54.265291],[-9.401359,54.265561],[-9.401368,54.26583],[-9.400908,54.265835],[-9.400926,54.266374],[-9.400466,54.26638],[-9.400484,54.266919],[-9.399103,54.266935],[-9.399084,54.266396],[-9.399545,54.26639],[-9.399527,54.265851],[-9.399517,54.265582],[-9.399057,54.265587],[-9.399066,54.265857],[-9.398606,54.265862],[-9.398615,54.266132],[-9.398633,54.266671],[-9.398642,54.26694],[-9.398182,54.266945],[-9.3982,54.267484],[-9.3982,54.267485],[-9.398294,54.267462],[-9.3984,54.267442],[-9.398439,54.267435],[-9.39857,54.267362],[-9.398688,54.267322],[-9.398876,54.267337],[-9.399069,54.267352],[-9.399173,54.267438],[-9.39927,54.267485],[-9.399368,54.267447],[-9.399417,54.267421],[-9.399467,54.26739],[-9.399499,54.26737],[-9.399596,54.267331],[-9.399635,54.267305],[-9.399682,54.26727],[-9.399997,54.267212],[-9.400213,54.267171],[-9.400233,54.267168],[-9.400611,54.26711],[-9.400615,54.267105],[-9.400668,54.267127],[-9.400763,54.267204],[-9.400765,54.267232],[-9.400703,54.267292],[-9.400547,54.267478],[-9.400483,54.267526],[-9.400492,54.267591],[-9.40067,54.267687],[-9.400716,54.267718],[-9.400708,54.267794],[-9.400659,54.267883],[-9.400579,54.26797],[-9.400706,54.268135],[-9.400834,54.268249],[-9.400824,54.2683],[-9.4008,54.268426],[-9.400721,54.268535],[-9.400762,54.268772],[-9.400832,54.26906],[-9.400926,54.269153],[-9.400955,54.269183],[-9.400965,54.269244],[-9.400903,54.269295],[-9.400863,54.269416],[-9.40083,54.269525],[-9.40089,54.269607],[-9.400947,54.269665],[-9.400928,54.269783],[-9.400871,54.269882],[-9.400757,54.269962],[-9.400721,54.269989],[-9.400643,54.270009],[-9.40059,54.270019],[-9.400501,54.270038],[-9.400339,54.27008],[-9.400228,54.270166],[-9.400177,54.270251],[-9.400091,54.27033],[-9.399973,54.2704],[-9.399958,54.270414],[-9.399921,54.27045],[-9.399875,54.270498],[-9.399796,54.270672],[-9.399758,54.270727],[-9.399723,54.270808],[-9.399647,54.270888],[-9.399503,54.270997],[-9.399418,54.271087],[-9.399306,54.271205],[-9.399306,54.271205],[-9.399639,54.271179],[-9.399707,54.271173],[-9.3997,54.270972],[-9.40016,54.270966],[-9.400166,54.271137],[-9.400253,54.27113],[-9.400426,54.271233],[-9.40109,54.271225],[-9.4011,54.271495],[-9.40156,54.271489],[-9.401569,54.271759],[-9.40203,54.271753],[-9.402039,54.272023],[-9.402048,54.272292],[-9.402508,54.272287],[-9.402527,54.272826],[-9.402536,54.273095],[-9.402193,54.273099],[-9.402215,54.273159],[-9.402273,54.273309],[-9.402325,54.27344],[-9.402332,54.273471],[-9.402337,54.27349],[-9.402406,54.273684],[-9.40244,54.273736],[-9.402479,54.273796],[-9.402544,54.273929],[-9.402556,54.273952],[-9.402565,54.273964],[-9.40262,54.274038],[-9.402687,54.274128],[-9.402889,54.274337],[-9.402987,54.274438],[-9.403042,54.274438],[-9.403044,54.274496],[-9.403256,54.274705],[-9.403512,54.274702],[-9.403521,54.274964],[-9.403527,54.274971],[-9.403981,54.274966],[-9.40399,54.275235],[-9.40379,54.275238],[-9.403882,54.27534],[-9.403935,54.275385],[-9.404034,54.27548],[-9.404217,54.275655],[-9.404226,54.275664],[-9.404231,54.27567],[-9.404273,54.275711],[-9.404317,54.275755],[-9.404329,54.275769],[-9.404367,54.275813],[-9.404518,54.275942],[-9.404582,54.276016],[-9.404732,54.276206],[-9.404761,54.276258],[-9.404889,54.276413],[-9.404947,54.276444],[-9.405021,54.276552],[-9.405192,54.276726],[-9.405227,54.276746],[-9.405328,54.276689],[-9.405493,54.276568],[-9.405645,54.276426],[-9.405711,54.276322],[-9.405733,54.276199],[-9.405724,54.276097],[-9.405663,54.276056],[-9.405536,54.275984],[-9.40541,54.275911],[-9.405335,54.27585],[-9.405311,54.275806],[-9.40529,54.275758],[-9.405324,54.275675],[-9.405363,54.275599],[-9.405401,54.275523],[-9.405468,54.275401],[-9.405512,54.275338],[-9.405558,54.275262],[-9.405686,54.275235],[-9.405823,54.275208],[-9.405919,54.275139],[-9.406016,54.275005],[-9.406064,54.274851],[-9.406087,54.27466],[-9.406083,54.274509],[-9.406099,54.274429],[-9.406151,54.274343],[-9.406251,54.274288],[-9.406376,54.274246],[-9.406691,54.27419],[-9.407052,54.274107],[-9.407244,54.274059],[-9.407365,54.273999],[-9.407518,54.273971],[-9.407727,54.273933],[-9.407986,54.273887],[-9.408156,54.273865],[-9.408397,54.273847],[-9.408471,54.273837],[-9.408646,54.273813],[-9.408779,54.273778],[-9.409115,54.273666],[-9.409263,54.273604],[-9.409972,54.27339],[-9.410178,54.27334],[-9.410338,54.273325],[-9.410531,54.273293],[-9.410703,54.273249],[-9.410904,54.273176],[-9.411052,54.273069],[-9.411294,54.272857],[-9.411335,54.27282],[-9.411433,54.272793],[-9.411474,54.272779],[-9.41161,54.272745],[-9.411795,54.272722],[-9.411912,54.272714],[-9.412022,54.272716],[-9.41209,54.272724],[-9.41228,54.27275],[-9.412432,54.272769],[-9.412425,54.272732],[-9.412423,54.272719],[-9.412418,54.27271],[-9.412196,54.272713],[-9.41218,54.272258],[-9.412135,54.27219],[-9.412125,54.272175],[-9.411717,54.27218],[-9.411708,54.27191],[-9.41169,54.271371],[-9.411801,54.27137],[-9.4118,54.271322],[-9.411799,54.271237],[-9.411788,54.271173],[-9.411766,54.271049],[-9.411763,54.270991],[-9.411757,54.270875],[-9.411843,54.27056],[-9.411662,54.270563],[-9.411625,54.269485],[-9.412075,54.269479],[-9.412159,54.26934],[-9.412273,54.269081],[-9.412341,54.268926],[-9.412515,54.268579],[-9.412444,54.26651],[-9.412455,54.266509],[-9.412387,54.266241],[-9.411975,54.266245],[-9.411956,54.265706],[-9.411947,54.265437],[-9.411487,54.265442],[-9.411496,54.265712],[-9.411036,54.265717],[-9.411045,54.265987],[-9.410124,54.265998],[-9.410133,54.266267],[-9.409213,54.266278],[-9.409203,54.266008],[-9.408743,54.266014],[-9.408752,54.266283],[-9.407371,54.266299],[-9.407362,54.26603],[-9.407353,54.26576],[-9.407344,54.265491],[-9.407334,54.265221],[-9.407325,54.264952],[-9.406405,54.264963],[-9.406395,54.264693],[-9.406856,54.264688],[-9.406847,54.264418],[-9.407307,54.264413],[-9.407298,54.264143],[-9.407289,54.263874],[-9.407279,54.263604],[-9.40727,54.263335],[-9.407731,54.26333],[-9.40774,54.263599],[-9.4082,54.263594],[-9.408209,54.263863],[-9.40867,54.263858],[-9.408679,54.264127],[-9.411965,54.264089]],[[-9.409728,54.267889],[-9.409268,54.267895],[-9.409259,54.267625],[-9.409719,54.26762],[-9.409728,54.267889]],[[-9.407445,54.268455],[-9.406524,54.268466],[-9.406515,54.268196],[-9.406054,54.268202],[-9.406045,54.267932],[-9.406966,54.267922],[-9.406975,54.268191],[-9.407435,54.268186],[-9.407445,54.268455]],[[-9.403642,54.264995],[-9.403182,54.265],[-9.403173,54.264731],[-9.403633,54.264725],[-9.403642,54.264995]],[[-9.405484,54.264973],[-9.405493,54.265243],[-9.404572,54.265254],[-9.404563,54.264984],[-9.405484,54.264973]],[[-9.405502,54.265512],[-9.405493,54.265243],[-9.405953,54.265237],[-9.405963,54.265507],[-9.405502,54.265512]],[[-9.404664,54.267948],[-9.404655,54.267679],[-9.405115,54.267674],[-9.405106,54.267404],[-9.405566,54.267399],[-9.405576,54.267668],[-9.405585,54.267938],[-9.404664,54.267948]]],[[[-9.408255,54.265211],[-9.409636,54.265194],[-9.409627,54.264925],[-9.408246,54.264941],[-9.408255,54.265211]]],[[[-9.39996,54.265038],[-9.399969,54.265307],[-9.400429,54.265302],[-9.40042,54.265032],[-9.39996,54.265038]]],[[[-9.399508,54.265312],[-9.399517,54.265582],[-9.399978,54.265577],[-9.399969,54.265307],[-9.399508,54.265312]]]]}}]}
