{"type":"FeatureCollection","features":[{"type":"Feature","properties":{"source_fid":2719415,"county":"Mayo","bog_geom_ha":184.26465533602857,"low15_pct":60.68292682926829,"low15_ha":111.81718596976563,"overlay_ha":111.72610747502935,"area_delta":-0.091078494736279936},"geometry":{"type":"MultiPolygon","coordinates":[[[[-9.841755,54.192688],[-9.841742,54.192716],[-9.841711,54.192738],[-9.841709,54.192743],[-9.841789,54.192821],[-9.841862,54.192894],[-9.841882,54.192905],[-9.841907,54.19292],[-9.84195,54.192947],[-9.841981,54.192967],[-9.84201,54.192988],[-9.842051,54.19302],[-9.8421,54.193053],[-9.84213,54.193071],[-9.842171,54.193092],[-9.842194,54.193111],[-9.842213,54.19314],[-9.842233,54.193161],[-9.842236,54.193191],[-9.842256,54.193221],[-9.84227,54.193243],[-9.842299,54.193264],[-9.842327,54.193301],[-9.842357,54.193328],[-9.842444,54.193404],[-9.842478,54.193445],[-9.842509,54.193472],[-9.842529,54.1935],[-9.842629,54.193562],[-9.842661,54.193585],[-9.842694,54.193604],[-9.842726,54.193626],[-9.842755,54.19365],[-9.842782,54.193676],[-9.842794,54.193708],[-9.842824,54.193762],[-9.842864,54.19382],[-9.842881,54.19384],[-9.842908,54.19386],[-9.842932,54.193885],[-9.84294,54.193904],[-9.842951,54.193945],[-9.842957,54.193975],[-9.842985,54.194017],[-9.843025,54.194035],[-9.843066,54.194059],[-9.843074,54.194063],[-9.843108,54.194118],[-9.843114,54.194136],[-9.843106,54.194164],[-9.843094,54.194202],[-9.843094,54.194241],[-9.8431,54.194273],[-9.843117,54.194315],[-9.843127,54.19435],[-9.843138,54.194408],[-9.843163,54.19445],[-9.843196,54.194499],[-9.843213,54.194541],[-9.843227,54.194568],[-9.843238,54.194608],[-9.843241,54.194654],[-9.843252,54.194695],[-9.843273,54.194704],[-9.843298,54.194715],[-9.84334,54.194739],[-9.843362,54.194757],[-9.843395,54.194785],[-9.843421,54.194808],[-9.843452,54.194833],[-9.843473,54.194856],[-9.84348,54.194881],[-9.843474,54.194906],[-9.843465,54.194946],[-9.843433,54.194984],[-9.843416,54.195014],[-9.8434,54.195036],[-9.843384,54.195061],[-9.843374,54.1951],[-9.843369,54.195125],[-9.843384,54.195164],[-9.84341,54.195195],[-9.843246,54.195309],[-9.842961,54.195227],[-9.842585,54.195177],[-9.842136,54.195274],[-9.841605,54.195506],[-9.841272,54.195654],[-9.841094,54.195755],[-9.841069,54.195764],[-9.841013,54.195773],[-9.84095,54.195775],[-9.840913,54.195773],[-9.840887,54.195766],[-9.840867,54.195759],[-9.839477,54.195596],[-9.839001,54.19552],[-9.838463,54.195434],[-9.83825,54.195557],[-9.838005,54.195563],[-9.8368,54.195317],[-9.836685,54.195288],[-9.836562,54.195241],[-9.836496,54.195226],[-9.836451,54.195219],[-9.836386,54.195214],[-9.836327,54.195209],[-9.836074,54.195178],[-9.835616,54.195171],[-9.835357,54.19519],[-9.834881,54.195327],[-9.834543,54.195414],[-9.833849,54.195455],[-9.833304,54.195475],[-9.833113,54.195481],[-9.832625,54.195508],[-9.832096,54.195573],[-9.831682,54.195636],[-9.831354,54.195658],[-9.830815,54.195669],[-9.830085,54.195663],[-9.829767,54.19569],[-9.829452,54.195725],[-9.828994,54.195782],[-9.828534,54.1958],[-9.827748,54.195792],[-9.826947,54.195754],[-9.826601,54.195729],[-9.826728,54.195994],[-9.826945,54.196353],[-9.827053,54.196531],[-9.827128,54.196689],[-9.827195,54.196802],[-9.827277,54.19695],[-9.827391,54.197171],[-9.827529,54.197412],[-9.827685,54.197553],[-9.827989,54.197818],[-9.828316,54.198079],[-9.828638,54.198342],[-9.82897,54.198617],[-9.829221,54.198824],[-9.829544,54.199043],[-9.829904,54.19926],[-9.830533,54.199628],[-9.830788,54.199772],[-9.831214,54.200021],[-9.831451,54.200145],[-9.831856,54.20027],[-9.832446,54.200458],[-9.833019,54.200667],[-9.83387,54.200981],[-9.834451,54.201197],[-9.834833,54.201357],[-9.835125,54.201506],[-9.835664,54.201811],[-9.836129,54.202069],[-9.836652,54.202353],[-9.836974,54.202558],[-9.8371,54.202612],[-9.837375,54.202689],[-9.837527,54.202723],[-9.837845,54.202792],[-9.838289,54.202901],[-9.83841,54.20293],[-9.838404,54.202799],[-9.837945,54.202806],[-9.837933,54.202537],[-9.837014,54.202551],[-9.83699,54.202012],[-9.83653,54.202019],[-9.836518,54.20175],[-9.836059,54.201757],[-9.836035,54.201218],[-9.835575,54.201225],[-9.835563,54.200955],[-9.835104,54.200962],[-9.835092,54.200693],[-9.834173,54.200707],[-9.834161,54.200438],[-9.833701,54.200445],[-9.833689,54.200175],[-9.83277,54.200189],[-9.832758,54.19992],[-9.832299,54.199927],[-9.832287,54.199657],[-9.831827,54.199664],[-9.831815,54.199395],[-9.831356,54.199402],[-9.831344,54.199132],[-9.830425,54.199146],[-9.830413,54.198877],[-9.829953,54.198884],[-9.829942,54.198614],[-9.829482,54.198621],[-9.82947,54.198352],[-9.829011,54.198359],[-9.828999,54.19809],[-9.828539,54.198097],[-9.828527,54.197827],[-9.828068,54.197834],[-9.828056,54.197565],[-9.828044,54.197295],[-9.828503,54.197288],[-9.828492,54.197019],[-9.82848,54.196749],[-9.82802,54.196756],[-9.828008,54.196487],[-9.829387,54.196466],[-9.829399,54.196735],[-9.830318,54.196721],[-9.83033,54.196991],[-9.831708,54.19697],[-9.83172,54.197239],[-9.833099,54.197218],[-9.83311,54.197488],[-9.83403,54.197474],[-9.834041,54.197743],[-9.834501,54.197736],[-9.834513,54.198006],[-9.836351,54.197978],[-9.836363,54.198247],[-9.836822,54.19824],[-9.836834,54.19851],[-9.838213,54.198489],[-9.838225,54.198758],[-9.839144,54.198744],[-9.839132,54.198475],[-9.840051,54.19846],[-9.840063,54.19873],[-9.840982,54.198716],[-9.840994,54.198985],[-9.841454,54.198978],[-9.841466,54.199248],[-9.841925,54.199241],[-9.841937,54.19951],[-9.842397,54.199503],[-9.842409,54.199773],[-9.842868,54.199765],[-9.84288,54.200035],[-9.841961,54.200049],[-9.841973,54.200318],[-9.842433,54.200311],[-9.842445,54.200581],[-9.843364,54.200567],[-9.843376,54.200836],[-9.843835,54.200829],[-9.843847,54.201099],[-9.843878,54.201098],[-9.844205,54.200739],[-9.844564,54.200343],[-9.844567,54.200339],[-9.844688,54.200199],[-9.844687,54.200085],[-9.844658,54.199784],[-9.844643,54.199707],[-9.844619,54.199524],[-9.844597,54.199285],[-9.844567,54.199039],[-9.844646,54.198981],[-9.844785,54.198887],[-9.844938,54.198804],[-9.845059,54.198731],[-9.845425,54.198576],[-9.845614,54.19853],[-9.845861,54.198484],[-9.846095,54.198296],[-9.846328,54.198316],[-9.846557,54.198337],[-9.846668,54.198344],[-9.8468,54.198363],[-9.84694,54.198373],[-9.846975,54.198374],[-9.84705,54.198385],[-9.847119,54.198406],[-9.847216,54.19845],[-9.847309,54.198481],[-9.847465,54.198532],[-9.847584,54.19858],[-9.847637,54.198605],[-9.847793,54.19864],[-9.847856,54.198657],[-9.847983,54.198706],[-9.848112,54.19876],[-9.848327,54.198856],[-9.848468,54.198921],[-9.84856,54.198974],[-9.848663,54.199027],[-9.848713,54.199047],[-9.84879,54.199076],[-9.848816,54.199097],[-9.84884,54.199129],[-9.84886,54.199162],[-9.84888,54.199192],[-9.848921,54.199224],[-9.848944,54.199241],[-9.849001,54.199278],[-9.849066,54.199317],[-9.849128,54.199349],[-9.849179,54.1994],[-9.849214,54.199435],[-9.849258,54.1995],[-9.849331,54.199565],[-9.849384,54.199606],[-9.849499,54.199626],[-9.849553,54.199664],[-9.849632,54.199733],[-9.849674,54.199768],[-9.849768,54.199796],[-9.849848,54.199832],[-9.849983,54.19989],[-9.850086,54.199942],[-9.850233,54.200013],[-9.850329,54.200068],[-9.850412,54.200118],[-9.850486,54.200165],[-9.850589,54.200242],[-9.850882,54.200479],[-9.850979,54.200586],[-9.851048,54.200653],[-9.85115,54.200746],[-9.851286,54.200855],[-9.851368,54.200904],[-9.851534,54.200979],[-9.851656,54.201028],[-9.851729,54.201031],[-9.85189,54.201028],[-9.852012,54.201037],[-9.852163,54.201063],[-9.852226,54.201083],[-9.852256,54.201106],[-9.852314,54.201163],[-9.852343,54.201192],[-9.852401,54.201215],[-9.852494,54.201247],[-9.852581,54.20131],[-9.852693,54.20137],[-9.852815,54.201413],[-9.852947,54.201479],[-9.853068,54.201557],[-9.853189,54.201614],[-9.853333,54.201563],[-9.853448,54.201499],[-9.853792,54.201355],[-9.854314,54.201151],[-9.854933,54.200949],[-9.855476,54.200755],[-9.855776,54.200648],[-9.856155,54.200496],[-9.856553,54.200442],[-9.856906,54.200429],[-9.85698,54.200448],[-9.85699,54.200445],[-9.857247,54.200368],[-9.85802,54.200132],[-9.858194,54.200087],[-9.858708,54.199955],[-9.859016,54.199866],[-9.858942,54.199753],[-9.858929,54.199653],[-9.859088,54.199408],[-9.859142,54.199322],[-9.859173,54.199274],[-9.859339,54.199009],[-9.859476,54.198771],[-9.859579,54.198582],[-9.859728,54.198327],[-9.859899,54.198061],[-9.860176,54.197612],[-9.859786,54.197618],[-9.859798,54.197888],[-9.85981,54.198157],[-9.859351,54.198164],[-9.859363,54.198434],[-9.858903,54.198441],[-9.858915,54.19871],[-9.858927,54.198979],[-9.858468,54.198987],[-9.85848,54.199256],[-9.858021,54.199263],[-9.858033,54.199532],[-9.857114,54.199547],[-9.857101,54.199277],[-9.857089,54.199008],[-9.85663,54.199015],[-9.856618,54.198745],[-9.856158,54.198753],[-9.856146,54.198483],[-9.854308,54.198511],[-9.85432,54.198781],[-9.853861,54.198788],[-9.853849,54.198519],[-9.853389,54.198526],[-9.853377,54.198256],[-9.852918,54.198263],[-9.852905,54.197994],[-9.852446,54.198001],[-9.852434,54.197731],[-9.851974,54.197739],[-9.851962,54.197469],[-9.851503,54.197476],[-9.851515,54.197746],[-9.851055,54.197753],[-9.851043,54.197483],[-9.850584,54.19749],[-9.850572,54.197221],[-9.850112,54.197228],[-9.8501,54.196958],[-9.849641,54.196966],[-9.849629,54.196696],[-9.849617,54.196427],[-9.849157,54.196434],[-9.849145,54.196164],[-9.848686,54.196171],[-9.848674,54.195902],[-9.847755,54.195916],[-9.847743,54.195647],[-9.847283,54.195654],[-9.847271,54.195384],[-9.847259,54.195115],[-9.848178,54.195101],[-9.84819,54.19537],[-9.849569,54.195349],[-9.849581,54.195618],[-9.851419,54.19559],[-9.851431,54.19586],[-9.851443,54.196129],[-9.852362,54.196115],[-9.852374,54.196384],[-9.852386,54.196654],[-9.853305,54.19664],[-9.853317,54.196909],[-9.854236,54.196895],[-9.854248,54.197164],[-9.854707,54.197157],[-9.854695,54.196888],[-9.855155,54.196881],[-9.855143,54.196611],[-9.855131,54.196342],[-9.855119,54.196072],[-9.854659,54.19608],[-9.854647,54.19581],[-9.854187,54.195817],[-9.854175,54.195548],[-9.853716,54.195555],[-9.853704,54.195285],[-9.852325,54.195307],[-9.852313,54.195037],[-9.851854,54.195044],[-9.851842,54.194775],[-9.850923,54.194789],[-9.850911,54.194519],[-9.849992,54.194534],[-9.84998,54.194264],[-9.849061,54.194278],[-9.849049,54.194009],[-9.848589,54.194016],[-9.848577,54.193746],[-9.847658,54.193761],[-9.847646,54.193491],[-9.847187,54.193498],[-9.847175,54.193229],[-9.846716,54.193236],[-9.846703,54.192966],[-9.845785,54.19298],[-9.845773,54.192711],[-9.845313,54.192718],[-9.845301,54.192449],[-9.844842,54.192456],[-9.84483,54.192186],[-9.84437,54.192193],[-9.844358,54.191924],[-9.844818,54.191917],[-9.844806,54.191647],[-9.845265,54.19164],[-9.845277,54.19191],[-9.846655,54.191889],[-9.846667,54.192158],[-9.848505,54.19213],[-9.848517,54.192399],[-9.853112,54.192329],[-9.853124,54.192598],[-9.854962,54.19257],[-9.854974,54.192839],[-9.85773,54.192797],[-9.857743,54.193066],[-9.858202,54.193059],[-9.858214,54.193329],[-9.859133,54.193314],[-9.859145,54.193584],[-9.859157,54.193853],[-9.859169,54.194123],[-9.857331,54.194151],[-9.857343,54.19442],[-9.856884,54.194428],[-9.856896,54.194697],[-9.856908,54.194966],[-9.857368,54.194959],[-9.85738,54.195229],[-9.857392,54.195498],[-9.857851,54.195491],[-9.857863,54.195761],[-9.858323,54.195753],[-9.858335,54.196023],[-9.860173,54.195994],[-9.860161,54.195725],[-9.86108,54.195711],[-9.861092,54.19598],[-9.861335,54.195977],[-9.86136,54.195945],[-9.861495,54.195743],[-9.861609,54.195561],[-9.86168,54.195439],[-9.861847,54.19524],[-9.862065,54.19498],[-9.862244,54.194738],[-9.862343,54.19457],[-9.862446,54.194435],[-9.862657,54.194231],[-9.862823,54.194058],[-9.862811,54.193911],[-9.862793,54.193634],[-9.862783,54.193275],[-9.862776,54.192951],[-9.862759,54.1927],[-9.862766,54.192455],[-9.862763,54.192144],[-9.862748,54.191849],[-9.862424,54.191844],[-9.861269,54.191826],[-9.860922,54.191806],[-9.8608,54.191883],[-9.860704,54.19195],[-9.860572,54.191952],[-9.860418,54.191949],[-9.860318,54.191942],[-9.860228,54.19193],[-9.860092,54.191923],[-9.859972,54.191913],[-9.859886,54.191916],[-9.859733,54.191901],[-9.859577,54.191892],[-9.859472,54.191893],[-9.859359,54.19189],[-9.859177,54.191926],[-9.858979,54.191944],[-9.858818,54.191955],[-9.858681,54.191955],[-9.858581,54.191952],[-9.858436,54.191952],[-9.858235,54.191948],[-9.857902,54.191925],[-9.85751,54.191911],[-9.857061,54.191921],[-9.856604,54.191904],[-9.856132,54.191918],[-9.856018,54.19191],[-9.855926,54.191908],[-9.855823,54.191897],[-9.855546,54.191889],[-9.855241,54.191832],[-9.854812,54.19178],[-9.854381,54.191735],[-9.853832,54.191685],[-9.853575,54.19165],[-9.853195,54.191628],[-9.85263,54.191598],[-9.851957,54.191567],[-9.851359,54.191541],[-9.850661,54.191414],[-9.850586,54.1914],[-9.850373,54.191359],[-9.850193,54.191305],[-9.849994,54.191246],[-9.849821,54.191175],[-9.849643,54.191087],[-9.849488,54.190999],[-9.849352,54.190871],[-9.84929,54.190796],[-9.849258,54.19074],[-9.84922,54.190646],[-9.849189,54.190527],[-9.849136,54.190393],[-9.849118,54.190273],[-9.849109,54.190152],[-9.849116,54.190058],[-9.849131,54.189952],[-9.849142,54.189852],[-9.849144,54.189764],[-9.849134,54.189717],[-9.849129,54.189667],[-9.849153,54.189627],[-9.84917,54.189518],[-9.849183,54.189457],[-9.849187,54.1894],[-9.849176,54.189371],[-9.849151,54.189336],[-9.849081,54.189303],[-9.848991,54.189264],[-9.848896,54.189216],[-9.848802,54.189162],[-9.84871,54.189112],[-9.848624,54.189079],[-9.848556,54.189051],[-9.848538,54.189064],[-9.848445,54.189118],[-9.848405,54.189149],[-9.848367,54.189167],[-9.848304,54.189199],[-9.848255,54.189229],[-9.848221,54.189251],[-9.848183,54.189276],[-9.848118,54.189318],[-9.848053,54.189372],[-9.848004,54.189422],[-9.847957,54.189457],[-9.847925,54.189469],[-9.847866,54.189466],[-9.84781,54.18947],[-9.847768,54.189479],[-9.847736,54.189501],[-9.847708,54.189523],[-9.847691,54.189542],[-9.847683,54.189562],[-9.847669,54.189591],[-9.847663,54.18961],[-9.847667,54.189643],[-9.84767,54.18968],[-9.847673,54.189691],[-9.847674,54.1897],[-9.847678,54.189729],[-9.847685,54.189772],[-9.847692,54.189803],[-9.847716,54.189845],[-9.847734,54.189883],[-9.847725,54.189939],[-9.847697,54.189986],[-9.847641,54.190042],[-9.847605,54.190082],[-9.84741,54.190125],[-9.847173,54.190118],[-9.847022,54.19004],[-9.846849,54.190018],[-9.84672,54.190042],[-9.846639,54.190092],[-9.846595,54.190132],[-9.846512,54.190141],[-9.846424,54.190126],[-9.846331,54.190118],[-9.846192,54.190147],[-9.845395,54.190117],[-9.845363,54.190145],[-9.845313,54.190168],[-9.845252,54.190193],[-9.845217,54.190204],[-9.845167,54.190211],[-9.845094,54.19022],[-9.845032,54.19023],[-9.844973,54.190249],[-9.844927,54.190251],[-9.844873,54.190257],[-9.84479,54.190277],[-9.844706,54.1903],[-9.844652,54.190316],[-9.844604,54.190317],[-9.844526,54.190316],[-9.844503,54.190318],[-9.844473,54.190327],[-9.844449,54.190333],[-9.844437,54.190353],[-9.844416,54.190368],[-9.844386,54.190397],[-9.844371,54.190412],[-9.844346,54.190442],[-9.844303,54.190478],[-9.844259,54.190529],[-9.844237,54.190555],[-9.844196,54.190575],[-9.844157,54.190596],[-9.844137,54.190611],[-9.844114,54.190627],[-9.844086,54.190639],[-9.844023,54.190658],[-9.843993,54.190669],[-9.843941,54.190693],[-9.843899,54.190701],[-9.843847,54.19071],[-9.843814,54.190709],[-9.843774,54.190698],[-9.84374,54.190685],[-9.843701,54.190676],[-9.843646,54.190671],[-9.843617,54.190677],[-9.843609,54.190697],[-9.843605,54.190716],[-9.843562,54.190746],[-9.843491,54.19077],[-9.843453,54.190789],[-9.843388,54.190818],[-9.843318,54.190846],[-9.84325,54.190864],[-9.843163,54.1909],[-9.843074,54.190932],[-9.843011,54.190965],[-9.842968,54.190997],[-9.842937,54.19103],[-9.842924,54.191069],[-9.842911,54.191117],[-9.842854,54.191193],[-9.842835,54.191224],[-9.842805,54.191262],[-9.842784,54.191313],[-9.842731,54.191372],[-9.842682,54.191401],[-9.842629,54.191429],[-9.842597,54.191466],[-9.842535,54.191495],[-9.842501,54.191517],[-9.842508,54.191683],[-9.842296,54.191686],[-9.842289,54.191693],[-9.84226,54.191737],[-9.842225,54.191763],[-9.842194,54.191817],[-9.842176,54.191879],[-9.842197,54.191931],[-9.842152,54.191989],[-9.842101,54.192029],[-9.842057,54.192057],[-9.842015,54.192091],[-9.841972,54.192122],[-9.841937,54.192165],[-9.841907,54.192194],[-9.841897,54.192215],[-9.841887,54.192257],[-9.841881,54.192311],[-9.841876,54.192348],[-9.84186,54.192388],[-9.841853,54.192413],[-9.841838,54.19243],[-9.841822,54.192448],[-9.841784,54.192468],[-9.841734,54.192508],[-9.841718,54.192534],[-9.841721,54.192581],[-9.841744,54.192614],[-9.841754,54.19264],[-9.841763,54.192661],[-9.841755,54.192688]]],[[[-9.861105,54.196272],[-9.861123,54.196249],[-9.861104,54.19625],[-9.861105,54.196272]]],[[[-9.860844,54.196599],[-9.860907,54.196522],[-9.860657,54.196526],[-9.860669,54.196796],[-9.860672,54.196858],[-9.860682,54.196842],[-9.860844,54.196599]]],[[[-9.860473,54.197154],[-9.860531,54.197067],[-9.860221,54.197072],[-9.860233,54.197342],[-9.860241,54.197509],[-9.860473,54.197154]]],[[[-9.842087,54.202282],[-9.843089,54.201919],[-9.842045,54.201935],[-9.842033,54.201666],[-9.840654,54.201687],[-9.840666,54.201956],[-9.84069,54.202495],[-9.840702,54.202764],[-9.840836,54.202762],[-9.840865,54.202751],[-9.841504,54.202479],[-9.842087,54.202282]]],[[[-9.837825,54.200112],[-9.837366,54.200119],[-9.837378,54.200389],[-9.837837,54.200382],[-9.837825,54.200112]]]]}}]}
