{"type":"FeatureCollection","features":[{"type":"Feature","properties":{"source_fid":2748575,"county":"Kildare","bog_geom_ha":203.24482386836027,"low15_pct":100.0,"low15_ha":203.24482386836027,"overlay_ha":203.24482386836027,"area_delta":0.0},"geometry":{"type":"MultiPolygon","coordinates":[[[[-6.859522,53.369041],[-6.859546,53.368962],[-6.859572,53.368875],[-6.859581,53.368846],[-6.859584,53.368837],[-6.859604,53.36877],[-6.859945,53.367496],[-6.860116,53.366887],[-6.8603,53.36623],[-6.860313,53.366183],[-6.86032,53.366158],[-6.860336,53.366101],[-6.860647,53.364979],[-6.860851,53.364264],[-6.861042,53.363592],[-6.86105,53.363564],[-6.861052,53.363557],[-6.861054,53.363551],[-6.861062,53.363524],[-6.861197,53.363047],[-6.861298,53.362694],[-6.861509,53.361961],[-6.861804,53.360937],[-6.861818,53.360889],[-6.861819,53.360883],[-6.861852,53.360771],[-6.861933,53.360399],[-6.862019,53.36001],[-6.86204,53.359904],[-6.862067,53.359774],[-6.862161,53.359304],[-6.862221,53.359007],[-6.862316,53.358521],[-6.862401,53.358087],[-6.859285,53.358069],[-6.854136,53.358055],[-6.849105,53.358042],[-6.848714,53.358041],[-6.848514,53.358041],[-6.847701,53.358038],[-6.84415,53.359127],[-6.84268,53.359587],[-6.841948,53.359817],[-6.841401,53.35998],[-6.840572,53.360222],[-6.840412,53.36027],[-6.840305,53.360301],[-6.839939,53.360409],[-6.839106,53.360659],[-6.838363,53.36088],[-6.837778,53.361051],[-6.83708,53.361246],[-6.836947,53.361286],[-6.836871,53.361309],[-6.836398,53.361453],[-6.835719,53.361657],[-6.835223,53.361807],[-6.834884,53.361909],[-6.83432,53.362077],[-6.834007,53.362175],[-6.833716,53.362259],[-6.833709,53.362515],[-6.834051,53.362715],[-6.834526,53.363],[-6.835102,53.363349],[-6.835168,53.36338],[-6.835228,53.363405],[-6.835228,53.363405],[-6.836006,53.363873],[-6.836252,53.364011],[-6.836537,53.36417],[-6.836813,53.364357],[-6.837146,53.364548],[-6.837879,53.365026],[-6.837879,53.365026],[-6.837879,53.365026],[-6.838999,53.364518],[-6.838999,53.364518],[-6.840444,53.363864],[-6.840574,53.363942],[-6.843871,53.365938],[-6.84737,53.368046],[-6.850296,53.369853],[-6.853818,53.371976],[-6.855003,53.372684],[-6.856229,53.373417],[-6.859136,53.375245],[-6.859136,53.375245],[-6.859136,53.375245],[-6.859403,53.375133],[-6.859836,53.374966],[-6.860213,53.374826],[-6.860577,53.374681],[-6.861063,53.374495],[-6.861513,53.374316],[-6.86189,53.374168],[-6.862156,53.374068],[-6.862452,53.373951],[-6.862717,53.37384],[-6.862746,53.373829],[-6.862798,53.373808],[-6.862904,53.373766],[-6.863134,53.373678],[-6.86336,53.37359],[-6.863605,53.373503],[-6.864243,53.373277],[-6.865799,53.372676],[-6.865895,53.372639],[-6.865937,53.372623],[-6.86712,53.372163],[-6.868163,53.37177],[-6.868122,53.371757],[-6.865092,53.370792],[-6.862537,53.369992],[-6.860656,53.36941],[-6.860418,53.369332],[-6.860258,53.36928],[-6.859522,53.369041]]]]}}]}
