{"type":"FeatureCollection","features":[{"type":"Feature","properties":{"source_fid":2815813,"county":"Galway","bog_geom_ha":548.51730576888747,"low15_pct":92.723390275952681,"low15_ha":508.6038421592263,"overlay_ha":509.14186497561838,"area_delta":0.53802281639207195},"geometry":{"type":"MultiPolygon","coordinates":[[[[-8.491029,53.018135],[-8.490932,53.018117],[-8.490934,53.018269],[-8.491172,53.018268],[-8.491171,53.018261],[-8.491157,53.018221],[-8.491122,53.018164],[-8.491105,53.018155],[-8.491029,53.018135]]],[[[-8.490996,53.018883],[-8.491107,53.018808],[-8.49094,53.018808],[-8.490941,53.018915],[-8.490996,53.018883]]],[[[-8.49057,53.019174],[-8.4907,53.019079],[-8.490496,53.01908],[-8.490498,53.019231],[-8.490517,53.019216],[-8.49057,53.019174]]],[[[-8.490305,53.020059],[-8.490312,53.019889],[-8.490058,53.01989],[-8.490061,53.02016],[-8.489167,53.020164],[-8.489164,53.019894],[-8.489611,53.019892],[-8.489602,53.019083],[-8.490049,53.019082],[-8.490046,53.018812],[-8.490493,53.01881],[-8.490487,53.018271],[-8.49004,53.018273],[-8.490037,53.018003],[-8.48959,53.018005],[-8.489587,53.017735],[-8.489585,53.017604],[-8.489553,53.017604],[-8.489563,53.018502],[-8.486466,53.018515],[-8.486466,53.018557],[-8.486019,53.018559],[-8.486019,53.018517],[-8.485093,53.018521],[-8.485073,53.016724],[-8.486563,53.016717],[-8.486562,53.016669],[-8.486445,53.01667],[-8.486442,53.016406],[-8.486426,53.016406],[-8.486264,53.016393],[-8.486164,53.01639],[-8.486083,53.016391],[-8.486047,53.016391],[-8.485953,53.016363],[-8.485955,53.016354],[-8.485812,53.016304],[-8.4857,53.016255],[-8.485641,53.016222],[-8.485576,53.016171],[-8.485533,53.016133],[-8.485401,53.01603],[-8.485276,53.015942],[-8.485198,53.015879],[-8.485184,53.015846],[-8.485193,53.015761],[-8.485263,53.015522],[-8.485288,53.015428],[-8.485354,53.015186],[-8.485431,53.014944],[-8.485436,53.014925],[-8.485053,53.014927],[-8.485033,53.013129],[-8.484617,53.013131],[-8.484617,53.013172],[-8.48417,53.013174],[-8.484173,53.013444],[-8.483726,53.013445],[-8.483729,53.013715],[-8.483067,53.013718],[-8.482927,53.013818],[-8.482913,53.013815],[-8.482847,53.013802],[-8.482836,53.013801],[-8.482841,53.014258],[-8.482394,53.01426],[-8.482397,53.014529],[-8.482844,53.014527],[-8.482847,53.014797],[-8.4824,53.014799],[-8.482403,53.015068],[-8.481956,53.01507],[-8.481953,53.014801],[-8.48195,53.014531],[-8.481947,53.014261],[-8.481941,53.013722],[-8.481938,53.013453],[-8.482385,53.013451],[-8.482379,53.012912],[-8.482826,53.01291],[-8.482832,53.013415],[-8.482837,53.013408],[-8.482972,53.01307],[-8.483062,53.013031],[-8.483138,53.012845],[-8.483205,53.012693],[-8.483407,53.012328],[-8.483548,53.012092],[-8.483494,53.011873],[-8.483453,53.011649],[-8.483451,53.011623],[-8.483253,53.01161],[-8.483291,53.011192],[-8.483339,53.011133],[-8.483424,53.011122],[-8.483537,53.011133],[-8.483579,53.010718],[-8.483627,53.01044],[-8.483513,53.01044],[-8.483504,53.009672],[-8.483237,53.009673],[-8.483234,53.009403],[-8.483501,53.009402],[-8.483483,53.007744],[-8.483663,53.007744],[-8.48366,53.007514],[-8.484107,53.007512],[-8.484107,53.007503],[-8.484049,53.00745],[-8.484046,53.007433],[-8.484035,53.007297],[-8.484035,53.007151],[-8.484012,53.007025],[-8.484006,53.006871],[-8.484002,53.00679],[-8.48396,53.00658],[-8.483916,53.00639],[-8.483878,53.006184],[-8.483861,53.005991],[-8.483814,53.005697],[-8.483804,53.005626],[-8.482745,53.00563],[-8.482742,53.005361],[-8.482295,53.005362],[-8.482292,53.005093],[-8.483633,53.005087],[-8.48363,53.004818],[-8.483737,53.004817],[-8.483745,53.004727],[-8.483765,53.004508],[-8.48372,53.004035],[-8.483683,53.003519],[-8.48366,53.002922],[-8.483563,53.002864],[-8.483545,53.002779],[-8.483528,53.002699],[-8.483515,53.002637],[-8.483511,53.002468],[-8.483493,53.002272],[-8.483472,53.002076],[-8.483437,53.001782],[-8.483383,53.001548],[-8.483361,53.0013],[-8.483328,53.001107],[-8.483307,53.000876],[-8.48332,53.000803],[-8.483291,53.000555],[-8.483235,53.000068],[-8.483091,52.999014],[-8.482923,52.998003],[-8.482781,52.996652],[-8.482749,52.996218],[-8.482812,52.995995],[-8.482939,52.9955],[-8.483073,52.9951],[-8.482116,52.995561],[-8.481591,52.995863],[-8.481006,52.996129],[-8.48055,52.996348],[-8.480257,52.996497],[-8.479957,52.996662],[-8.479615,52.996826],[-8.479086,52.997091],[-8.478804,52.997235],[-8.478528,52.99737],[-8.478083,52.997568],[-8.477594,52.997803],[-8.477333,52.997927],[-8.476936,52.998117],[-8.476578,52.998294],[-8.476141,52.998499],[-8.475723,52.998692],[-8.475324,52.998886],[-8.474794,52.99915],[-8.474635,52.999126],[-8.474569,52.999119],[-8.474498,52.999152],[-8.473897,52.999439],[-8.473744,52.999523],[-8.473202,52.999771],[-8.472809,52.999963],[-8.472554,53.000092],[-8.472391,53.000179],[-8.472274,53.000242],[-8.471942,53.000475],[-8.471785,53.000601],[-8.471192,53.001037],[-8.47061,53.001479],[-8.470244,53.001775],[-8.470059,53.001936],[-8.469891,53.00213],[-8.469787,53.002488],[-8.469727,53.002687],[-8.469561,53.003121],[-8.469439,53.003518],[-8.469172,53.004288],[-8.46903,53.004786],[-8.46903,53.004787],[-8.468921,53.005213],[-8.468839,53.0055],[-8.468759,53.005781],[-8.468672,53.005917],[-8.468594,53.006226],[-8.468516,53.006521],[-8.468353,53.007033],[-8.468298,53.007262],[-8.46832,53.007419],[-8.468542,53.007443],[-8.46855,53.00761],[-8.468648,53.008013],[-8.468654,53.008053],[-8.468723,53.008394],[-8.468787,53.008707],[-8.46883,53.008931],[-8.468954,53.009471],[-8.469003,53.009735],[-8.46906,53.00996],[-8.469097,53.010164],[-8.469192,53.010579],[-8.469277,53.011066],[-8.469384,53.011509],[-8.46944,53.011816],[-8.469454,53.011885],[-8.46985,53.011883],[-8.469853,53.012153],[-8.469503,53.012154],[-8.469501,53.012159],[-8.46917,53.012515],[-8.469098,53.012588],[-8.468405,53.013341],[-8.468345,53.013406],[-8.468228,53.013546],[-8.468001,53.013791],[-8.467753,53.014049],[-8.468085,53.014047],[-8.468088,53.014317],[-8.467641,53.014319],[-8.467644,53.014588],[-8.467197,53.01459],[-8.467195,53.014442],[-8.466854,53.014552],[-8.466211,53.014721],[-8.46566,53.014905],[-8.46535,53.014996],[-8.464997,53.015106],[-8.464725,53.01518],[-8.464203,53.015337],[-8.464017,53.015392],[-8.463864,53.015437],[-8.463619,53.015515],[-8.463368,53.015582],[-8.463199,53.015641],[-8.46297,53.015721],[-8.462233,53.015979],[-8.461368,53.016225],[-8.460552,53.01645],[-8.459954,53.016636],[-8.459536,53.016853],[-8.459014,53.017113],[-8.458627,53.017283],[-8.458611,53.017292],[-8.458552,53.01732],[-8.458731,53.017319],[-8.458734,53.017589],[-8.458287,53.01759],[-8.458286,53.017442],[-8.458174,53.017486],[-8.458046,53.017532],[-8.457984,53.017554],[-8.457748,53.017665],[-8.457678,53.017696],[-8.457543,53.017755],[-8.457426,53.017802],[-8.457376,53.017822],[-8.457265,53.017862],[-8.4572,53.017893],[-8.456767,53.01804],[-8.456513,53.018135],[-8.456509,53.018137],[-8.456952,53.018135],[-8.456954,53.018404],[-8.456507,53.018406],[-8.456505,53.018138],[-8.455979,53.018321],[-8.455691,53.018422],[-8.455352,53.01849],[-8.454956,53.018547],[-8.454601,53.01859],[-8.454246,53.018645],[-8.454074,53.018663],[-8.453312,53.018754],[-8.4524,53.018835],[-8.451626,53.018899],[-8.450727,53.018967],[-8.44963,53.019064],[-8.448914,53.019128],[-8.448915,53.019244],[-8.448021,53.019247],[-8.44802,53.019208],[-8.447765,53.019231],[-8.447127,53.019279],[-8.446568,53.019321],[-8.446137,53.019366],[-8.447136,53.0202],[-8.447199,53.020252],[-8.447781,53.020776],[-8.447934,53.020897],[-8.447989,53.02094],[-8.448134,53.021057],[-8.448453,53.021312],[-8.449183,53.021911],[-8.449501,53.022187],[-8.449583,53.022254],[-8.45235,53.022244],[-8.452341,53.021345],[-8.459791,53.021317],[-8.459782,53.020418],[-8.464252,53.020401],[-8.464262,53.021299],[-8.465752,53.021293],[-8.465761,53.022192],[-8.467252,53.022186],[-8.46726,53.022948],[-8.467287,53.022948],[-8.467289,53.023085],[-8.468751,53.023079],[-8.468761,53.023977],[-8.470251,53.023971],[-8.470261,53.02487],[-8.479203,53.024834],[-8.479212,53.025733],[-8.480703,53.025727],[-8.480713,53.026625],[-8.482203,53.026619],[-8.482213,53.027518],[-8.483884,53.027511],[-8.483883,53.027465],[-8.48388,53.027196],[-8.483877,53.026926],[-8.483862,53.025578],[-8.483415,53.02558],[-8.483412,53.02531],[-8.48207,53.025316],[-8.482067,53.025046],[-8.483856,53.025039],[-8.483859,53.025308],[-8.484306,53.025307],[-8.484309,53.025576],[-8.484324,53.026924],[-8.484771,53.026922],[-8.484768,53.026653],[-8.484759,53.025844],[-8.484756,53.025574],[-8.484753,53.025305],[-8.486095,53.025299],[-8.486098,53.025569],[-8.485204,53.025572],[-8.485207,53.025842],[-8.485654,53.02584],[-8.485663,53.026649],[-8.48611,53.026647],[-8.486113,53.026917],[-8.486116,53.027187],[-8.486563,53.027185],[-8.486566,53.027454],[-8.487013,53.027452],[-8.487016,53.027722],[-8.487464,53.02772],[-8.487467,53.02799],[-8.486572,53.027994],[-8.486575,53.028263],[-8.486578,53.028533],[-8.485684,53.028536],[-8.485681,53.028267],[-8.485202,53.028269],[-8.485214,53.029303],[-8.476271,53.029339],[-8.476281,53.030237],[-8.474791,53.030243],[-8.474801,53.031142],[-8.468839,53.031165],[-8.468829,53.030267],[-8.464358,53.030284],[-8.464368,53.031183],[-8.462877,53.031189],[-8.462887,53.032087],[-8.461396,53.032093],[-8.461405,53.032947],[-8.461581,53.032946],[-8.461578,53.032677],[-8.462025,53.032675],[-8.462028,53.032945],[-8.462029,53.032989],[-8.462896,53.032986],[-8.462905,53.03375],[-8.462931,53.03375],[-8.462934,53.03402],[-8.462487,53.034021],[-8.462485,53.033886],[-8.461415,53.03389],[-8.461411,53.033486],[-8.461139,53.033487],[-8.461137,53.033218],[-8.461134,53.032993],[-8.459915,53.032997],[-8.459923,53.033762],[-8.460248,53.03376],[-8.460245,53.033491],[-8.460692,53.033489],[-8.460695,53.033759],[-8.460698,53.034028],[-8.460251,53.03403],[-8.460253,53.0343],[-8.459929,53.034301],[-8.459934,53.034794],[-8.459811,53.034795],[-8.459812,53.034841],[-8.458917,53.034844],[-8.458917,53.034798],[-8.458444,53.0348],[-8.45845,53.035385],[-8.458476,53.035385],[-8.458479,53.035655],[-8.458482,53.035924],[-8.458456,53.035924],[-8.458463,53.036597],[-8.456972,53.036603],[-8.456982,53.037501],[-8.456262,53.037504],[-8.456271,53.038359],[-8.455823,53.038361],[-8.455814,53.037506],[-8.455491,53.037507],[-8.454165,53.037512],[-8.454172,53.037643],[-8.454189,53.037886],[-8.454166,53.038012],[-8.454174,53.038164],[-8.454163,53.038274],[-8.454164,53.038348],[-8.454165,53.038365],[-8.454178,53.038403],[-8.454181,53.038411],[-8.455501,53.038406],[-8.45551,53.039304],[-8.457001,53.039298],[-8.458491,53.039293],[-8.458494,53.039501],[-8.458652,53.039449],[-8.458652,53.039449],[-8.459233,53.039271],[-8.459341,53.03924],[-8.459551,53.039172],[-8.459573,53.039165],[-8.4597,53.039124],[-8.459711,53.039121],[-8.45967,53.039065],[-8.459557,53.038913],[-8.459557,53.038913],[-8.459557,53.038913],[-8.459592,53.038902],[-8.459717,53.038862],[-8.459743,53.038853],[-8.459744,53.038853],[-8.459744,53.038853],[-8.459744,53.038853],[-8.459775,53.038845],[-8.459942,53.038803],[-8.459959,53.038799],[-8.459964,53.038798],[-8.459979,53.038794],[-8.460001,53.038787],[-8.46003,53.03878],[-8.460008,53.038724],[-8.460008,53.038724],[-8.460008,53.038724],[-8.460066,53.038714],[-8.460107,53.038691],[-8.460112,53.038662],[-8.460133,53.038633],[-8.460162,53.03861],[-8.460185,53.038596],[-8.460074,53.038349],[-8.460058,53.037974],[-8.460157,53.037759],[-8.460164,53.037759],[-8.460181,53.03776],[-8.460273,53.037755],[-8.460365,53.037716],[-8.460431,53.037686],[-8.460474,53.037666],[-8.460513,53.037662],[-8.460535,53.03764],[-8.460574,53.0376],[-8.460681,53.037511],[-8.460733,53.037478],[-8.460767,53.037457],[-8.460794,53.037434],[-8.460824,53.037408],[-8.460857,53.037388],[-8.46089,53.037367],[-8.460937,53.037327],[-8.460963,53.037304],[-8.461021,53.03728],[-8.461065,53.037269],[-8.461262,53.03722],[-8.46128,53.037216],[-8.461296,53.037213],[-8.461312,53.03721],[-8.461609,53.037209],[-8.461741,53.037199],[-8.461851,53.037191],[-8.462263,53.037165],[-8.462622,53.037106],[-8.462751,53.037089],[-8.462964,53.037062],[-8.463046,53.037057],[-8.4631,53.037054],[-8.463292,53.037035],[-8.46359,53.037004],[-8.463638,53.036983],[-8.463413,53.036984],[-8.46341,53.036714],[-8.462516,53.036717],[-8.462514,53.036582],[-8.461444,53.036586],[-8.461435,53.035687],[-8.46161,53.035687],[-8.461607,53.035373],[-8.461604,53.035103],[-8.462051,53.035102],[-8.462048,53.034832],[-8.462496,53.03483],[-8.462498,53.0351],[-8.463393,53.035096],[-8.463396,53.035366],[-8.462501,53.035369],[-8.462505,53.035683],[-8.462925,53.035681],[-8.465906,53.03567],[-8.465897,53.034771],[-8.470369,53.034754],[-8.470372,53.035069],[-8.470997,53.035066],[-8.471,53.035336],[-8.470552,53.035338],[-8.470555,53.035607],[-8.470378,53.035608],[-8.470378,53.035652],[-8.470108,53.035653],[-8.47011,53.035755],[-8.470397,53.035673],[-8.470625,53.035611],[-8.470917,53.035531],[-8.471383,53.03541],[-8.471949,53.03527],[-8.472421,53.035152],[-8.472786,53.03506],[-8.472786,53.035059],[-8.47279,53.035059],[-8.47306,53.034991],[-8.473678,53.034852],[-8.473677,53.034786],[-8.473971,53.034785],[-8.47416,53.034739],[-8.474655,53.034617],[-8.474839,53.034575],[-8.474895,53.034562],[-8.475548,53.034411],[-8.476291,53.034228],[-8.477087,53.034037],[-8.477155,53.034021],[-8.477401,53.033962],[-8.477622,53.033909],[-8.477729,53.033883],[-8.477911,53.033839],[-8.478392,53.033729],[-8.47885,53.033615],[-8.479215,53.033535],[-8.479536,53.033454],[-8.479614,53.033434],[-8.479628,53.033431],[-8.479684,53.033417],[-8.479684,53.033417],[-8.479878,53.033372],[-8.480523,53.033225],[-8.481164,53.033062],[-8.481645,53.032954],[-8.482096,53.03285],[-8.482502,53.032755],[-8.482759,53.032691],[-8.483356,53.032559],[-8.483662,53.032493],[-8.484204,53.032396],[-8.48487,53.032283],[-8.485326,53.032217],[-8.485424,53.032203],[-8.485799,53.032153],[-8.486171,53.032108],[-8.486171,53.03204],[-8.486618,53.032038],[-8.486618,53.032055],[-8.486735,53.032041],[-8.48683,53.03203],[-8.487359,53.031967],[-8.487835,53.031907],[-8.488195,53.03187],[-8.488611,53.031829],[-8.488879,53.031802],[-8.489393,53.031746],[-8.489989,53.031693],[-8.490791,53.031617],[-8.491129,53.031598],[-8.491436,53.03156],[-8.491588,53.031549],[-8.492086,53.031478],[-8.492553,53.031417],[-8.492992,53.03136],[-8.49335,53.031289],[-8.49391,53.031171],[-8.494158,53.031121],[-8.494063,53.030608],[-8.493974,53.030147],[-8.493939,53.029713],[-8.493888,53.029311],[-8.493743,53.029312],[-8.493746,53.029582],[-8.493299,53.029584],[-8.493296,53.029314],[-8.493293,53.029044],[-8.49329,53.028775],[-8.492842,53.028777],[-8.492836,53.028237],[-8.491942,53.028241],[-8.491939,53.027971],[-8.49328,53.027966],[-8.493283,53.028235],[-8.49373,53.028234],[-8.493612,53.027625],[-8.493587,53.02746],[-8.493557,53.027323],[-8.493497,53.027057],[-8.493409,53.026665],[-8.493408,53.026657],[-8.493405,53.026647],[-8.493402,53.026631],[-8.493324,53.026323],[-8.493279,53.026122],[-8.493251,53.02602],[-8.493202,53.025889],[-8.493188,53.025809],[-8.492809,53.025811],[-8.492805,53.025541],[-8.493142,53.02554],[-8.493088,53.025187],[-8.493025,53.024853],[-8.493024,53.024847],[-8.492983,53.024611],[-8.49298,53.024595],[-8.492972,53.024547],[-8.492952,53.02443],[-8.49291,53.024217],[-8.492903,53.024193],[-8.492343,53.024195],[-8.49234,53.023925],[-8.492787,53.023924],[-8.492786,53.023808],[-8.492785,53.023806],[-8.492786,53.023801],[-8.492784,53.023654],[-8.492811,53.023654],[-8.492839,53.023545],[-8.492852,53.023377],[-8.492983,53.023153],[-8.493141,53.023009],[-8.493375,53.022573],[-8.493219,53.022574],[-8.493216,53.022304],[-8.493556,53.022303],[-8.493604,53.022243],[-8.493651,53.022205],[-8.493662,53.022197],[-8.493662,53.022194],[-8.493637,53.022182],[-8.493503,53.022122],[-8.493405,53.022054],[-8.493368,53.022034],[-8.493213,53.022034],[-8.493212,53.021976],[-8.493161,53.021965],[-8.492994,53.021945],[-8.492881,53.021921],[-8.49273,53.021886],[-8.492691,53.021892],[-8.492613,53.021895],[-8.492536,53.021889],[-8.492457,53.021861],[-8.492406,53.021828],[-8.492336,53.021803],[-8.492261,53.021807],[-8.492034,53.02183],[-8.491906,53.021851],[-8.491833,53.021863],[-8.491756,53.02185],[-8.491666,53.021827],[-8.491617,53.02181],[-8.491547,53.021757],[-8.491412,53.021688],[-8.491307,53.021652],[-8.491239,53.021646],[-8.491174,53.021624],[-8.491066,53.021579],[-8.491033,53.021577],[-8.490981,53.021578],[-8.490967,53.021567],[-8.490954,53.021537],[-8.490912,53.021511],[-8.490746,53.021465],[-8.490673,53.021424],[-8.490561,53.021309],[-8.490457,53.021253],[-8.490436,53.021237],[-8.490074,53.021239],[-8.490077,53.021508],[-8.49008,53.021778],[-8.489185,53.021781],[-8.489182,53.021512],[-8.489629,53.02151],[-8.489626,53.02124],[-8.489623,53.020971],[-8.489176,53.020973],[-8.489173,53.020703],[-8.48917,53.020433],[-8.490064,53.02043],[-8.490067,53.020699],[-8.490168,53.020699],[-8.490147,53.020684],[-8.490116,53.020631],[-8.490116,53.020604],[-8.490149,53.020561],[-8.490184,53.020521],[-8.49023,53.02051],[-8.490353,53.020475],[-8.490366,53.020448],[-8.490346,53.0203],[-8.490346,53.020169],[-8.490305,53.020059]],[[-8.491495,53.028243],[-8.491942,53.028241],[-8.491945,53.028511],[-8.491498,53.028513],[-8.491495,53.028243]],[[-8.489709,53.02852],[-8.491498,53.028513],[-8.491501,53.028782],[-8.491054,53.028784],[-8.491057,53.029054],[-8.490162,53.029057],[-8.490159,53.028788],[-8.489712,53.02879],[-8.489709,53.02852]],[[-8.489268,53.029061],[-8.490162,53.029057],[-8.490165,53.029327],[-8.49106,53.029323],[-8.491063,53.029593],[-8.49151,53.029591],[-8.491513,53.029861],[-8.491516,53.03013],[-8.491069,53.030132],[-8.491066,53.029862],[-8.490171,53.029866],[-8.490168,53.029596],[-8.489721,53.029598],[-8.489718,53.029329],[-8.488824,53.029332],[-8.488821,53.029063],[-8.488373,53.029065],[-8.48837,53.028795],[-8.489265,53.028791],[-8.489268,53.029061]],[[-8.488367,53.028525],[-8.48837,53.028795],[-8.487923,53.028797],[-8.48792,53.028527],[-8.488367,53.028525]],[[-8.45847,53.034846],[-8.458917,53.034844],[-8.45892,53.035114],[-8.458473,53.035115],[-8.45847,53.034846]],[[-8.46204,53.034023],[-8.462487,53.034021],[-8.46249,53.034291],[-8.462043,53.034293],[-8.46204,53.034023]],[[-8.461595,53.034294],[-8.462043,53.034293],[-8.462045,53.034562],[-8.461598,53.034564],[-8.461595,53.034294]],[[-8.461151,53.034566],[-8.461598,53.034564],[-8.461601,53.034834],[-8.461154,53.034835],[-8.461151,53.034566]],[[-8.482064,53.024776],[-8.482067,53.025046],[-8.481173,53.02505],[-8.481176,53.025319],[-8.480729,53.025321],[-8.480726,53.025051],[-8.480279,53.025053],[-8.480276,53.024784],[-8.480273,53.024514],[-8.48072,53.024512],[-8.480723,53.024782],[-8.48117,53.02478],[-8.481167,53.02451],[-8.481614,53.024509],[-8.481617,53.024778],[-8.482064,53.024776]],[[-8.45606,53.018408],[-8.456507,53.018406],[-8.45651,53.018676],[-8.456063,53.018678],[-8.45606,53.018408]],[[-8.469856,53.012422],[-8.469853,53.012153],[-8.470747,53.012149],[-8.47075,53.012419],[-8.469856,53.012422]],[[-8.485572,53.018561],[-8.486019,53.018559],[-8.486022,53.018829],[-8.485575,53.01883],[-8.485572,53.018561]],[[-8.474114,53.03384],[-8.470359,53.033855],[-8.470349,53.032957],[-8.474821,53.032939],[-8.474829,53.033703],[-8.475902,53.033699],[-8.475899,53.033429],[-8.476346,53.033427],[-8.476349,53.033697],[-8.476352,53.033967],[-8.475905,53.033968],[-8.475908,53.034238],[-8.474119,53.034245],[-8.474122,53.034515],[-8.47278,53.03452],[-8.472783,53.03479],[-8.471441,53.034795],[-8.471438,53.034525],[-8.471435,53.034256],[-8.472777,53.034251],[-8.472774,53.033981],[-8.474116,53.033976],[-8.474114,53.03384]],[[-8.490977,53.022044],[-8.492766,53.022036],[-8.492769,53.022306],[-8.49098,53.022313],[-8.490977,53.022044]],[[-8.490107,53.024204],[-8.491449,53.024199],[-8.491452,53.024468],[-8.49011,53.024474],[-8.490107,53.024204]],[[-8.488328,53.02502],[-8.488325,53.024751],[-8.488772,53.024749],[-8.488769,53.024479],[-8.489663,53.024476],[-8.489666,53.024745],[-8.489219,53.024747],[-8.489222,53.025017],[-8.488328,53.02502]],[[-8.486992,53.025565],[-8.487887,53.025562],[-8.48789,53.025831],[-8.486995,53.025835],[-8.486992,53.025565]],[[-8.491933,53.027432],[-8.492827,53.027429],[-8.49283,53.027698],[-8.491936,53.027702],[-8.491933,53.027432]],[[-8.488355,53.027447],[-8.488802,53.027445],[-8.488805,53.027715],[-8.488358,53.027717],[-8.488355,53.027447]],[[-8.490153,53.028248],[-8.489706,53.02825],[-8.489703,53.027981],[-8.4897,53.027711],[-8.491041,53.027706],[-8.491044,53.027975],[-8.49015,53.027979],[-8.490153,53.028248]],[[-8.488385,53.030143],[-8.488833,53.030141],[-8.488836,53.030411],[-8.488389,53.030413],[-8.488385,53.030143]],[[-8.475173,53.008087],[-8.475167,53.007548],[-8.476061,53.007545],[-8.476067,53.008084],[-8.476961,53.00808],[-8.476964,53.00835],[-8.477858,53.008346],[-8.477861,53.008616],[-8.478755,53.008612],[-8.478752,53.008343],[-8.480093,53.008337],[-8.48009,53.008068],[-8.480984,53.008064],[-8.480981,53.007794],[-8.482769,53.007787],[-8.482772,53.008057],[-8.481878,53.00806],[-8.481881,53.00833],[-8.480987,53.008334],[-8.48099,53.008603],[-8.480096,53.008607],[-8.480099,53.008876],[-8.478758,53.008882],[-8.478761,53.009151],[-8.477867,53.009155],[-8.477864,53.008885],[-8.47697,53.008889],[-8.476967,53.008619],[-8.476073,53.008623],[-8.47607,53.008353],[-8.474729,53.008359],[-8.474726,53.008089],[-8.475173,53.008087]],[[-8.476508,53.007543],[-8.476061,53.007545],[-8.476058,53.007275],[-8.476505,53.007273],[-8.476508,53.007543]],[[-8.475164,53.007278],[-8.475167,53.007548],[-8.474273,53.007552],[-8.47427,53.007282],[-8.472929,53.007287],[-8.472926,53.007018],[-8.474714,53.007011],[-8.474717,53.00728],[-8.475164,53.007278]],[[-8.480546,53.008875],[-8.480993,53.008873],[-8.480996,53.009142],[-8.480549,53.009144],[-8.480546,53.008875]],[[-8.482349,53.010215],[-8.483243,53.010212],[-8.483246,53.010481],[-8.482799,53.010483],[-8.482802,53.010753],[-8.482355,53.010755],[-8.482358,53.011024],[-8.482361,53.011294],[-8.481467,53.011298],[-8.481464,53.011028],[-8.481911,53.011026],[-8.481908,53.010756],[-8.481905,53.010487],[-8.482352,53.010485],[-8.482349,53.010215]],[[-8.482817,53.012101],[-8.483264,53.012099],[-8.483267,53.012369],[-8.48282,53.012371],[-8.482817,53.012101]],[[-8.482856,53.015606],[-8.482853,53.015336],[-8.4833,53.015334],[-8.483303,53.015604],[-8.483306,53.015874],[-8.482412,53.015877],[-8.482409,53.015608],[-8.482856,53.015606]],[[-8.483315,53.016683],[-8.483312,53.016413],[-8.485548,53.016404],[-8.485551,53.016673],[-8.483315,53.016683]],[[-8.481248,53.03179],[-8.482142,53.031786],[-8.482145,53.032056],[-8.481698,53.032058],[-8.481701,53.032327],[-8.480359,53.032333],[-8.480356,53.032063],[-8.481251,53.03206],[-8.481248,53.03179]],[[-8.47647,53.004038],[-8.476916,53.004036],[-8.476919,53.004306],[-8.476473,53.004307],[-8.47647,53.004038]],[[-8.47559,53.005389],[-8.476931,53.005384],[-8.476934,53.005654],[-8.475593,53.005659],[-8.47559,53.005389]],[[-8.476952,53.007271],[-8.477399,53.00727],[-8.477402,53.007539],[-8.476955,53.007541],[-8.476952,53.007271]],[[-8.474732,53.008628],[-8.475179,53.008627],[-8.475182,53.008896],[-8.474735,53.008898],[-8.474732,53.008628]],[[-8.476079,53.009162],[-8.476526,53.00916],[-8.476529,53.00943],[-8.476082,53.009432],[-8.476079,53.009162]],[[-8.475197,53.010244],[-8.475194,53.009975],[-8.474747,53.009976],[-8.47475,53.010246],[-8.474303,53.010248],[-8.4743,53.009978],[-8.474297,53.009709],[-8.474744,53.009707],[-8.474741,53.009437],[-8.475635,53.009434],[-8.475638,53.009703],[-8.475641,53.009973],[-8.475644,53.010242],[-8.475197,53.010244]],[[-8.476979,53.009698],[-8.478767,53.009691],[-8.47877,53.00996],[-8.476982,53.009967],[-8.476979,53.009698]],[[-8.476106,53.011589],[-8.477,53.011585],[-8.477003,53.011855],[-8.476556,53.011857],[-8.476559,53.012126],[-8.475218,53.012132],[-8.475215,53.011862],[-8.474768,53.011864],[-8.474765,53.011594],[-8.474762,53.011324],[-8.475209,53.011323],[-8.475212,53.011592],[-8.475659,53.011591],[-8.475662,53.01186],[-8.476109,53.011858],[-8.476106,53.011589]],[[-8.477447,53.011583],[-8.477,53.011585],[-8.476997,53.011316],[-8.477444,53.011314],[-8.477447,53.011583]],[[-8.479685,53.011844],[-8.478791,53.011848],[-8.478788,53.011578],[-8.479682,53.011574],[-8.479685,53.011844]],[[-8.477897,53.011851],[-8.478791,53.011848],[-8.478794,53.012117],[-8.4779,53.012121],[-8.477897,53.011851]],[[-8.480615,53.015076],[-8.481062,53.015074],[-8.481065,53.015344],[-8.480618,53.015345],[-8.480615,53.015076]],[[-8.480633,53.016693],[-8.480186,53.016695],[-8.48018,53.016156],[-8.480627,53.016154],[-8.480633,53.016693]],[[-8.479739,53.016697],[-8.480186,53.016695],[-8.480189,53.016965],[-8.479742,53.016967],[-8.479739,53.016697]],[[-8.476168,53.017251],[-8.476615,53.017249],[-8.476618,53.017518],[-8.476171,53.01752],[-8.476168,53.017251]],[[-8.475295,53.019141],[-8.475292,53.018872],[-8.475739,53.01887],[-8.475742,53.01914],[-8.475295,53.019141]],[[-8.477578,53.023446],[-8.478025,53.023445],[-8.478028,53.023714],[-8.477581,53.023716],[-8.477578,53.023446]],[[-8.479819,53.023977],[-8.479816,53.023707],[-8.478922,53.023711],[-8.478919,53.023441],[-8.480261,53.023436],[-8.480264,53.023705],[-8.480267,53.023975],[-8.479819,53.023977]],[[-8.476239,53.023721],[-8.476242,53.023991],[-8.476245,53.024261],[-8.475351,53.024264],[-8.475354,53.024534],[-8.474012,53.024539],[-8.474009,53.024269],[-8.472668,53.024275],[-8.472665,53.024005],[-8.472662,53.023736],[-8.472215,53.023737],[-8.472212,53.023468],[-8.472659,53.023466],[-8.472656,53.023196],[-8.473103,53.023195],[-8.473106,53.023464],[-8.473109,53.023734],[-8.473556,53.023732],[-8.473559,53.024002],[-8.475348,53.023995],[-8.475345,53.023725],[-8.476239,53.023721]],[[-8.478553,53.030722],[-8.477658,53.030726],[-8.477655,53.030456],[-8.478102,53.030454],[-8.478099,53.030185],[-8.478547,53.030183],[-8.478544,53.029913],[-8.478991,53.029912],[-8.478994,53.030181],[-8.478997,53.030451],[-8.47855,53.030453],[-8.478553,53.030722]],[[-8.480341,53.030715],[-8.479894,53.030717],[-8.4799,53.031256],[-8.479453,53.031258],[-8.479456,53.031528],[-8.478562,53.031531],[-8.478565,53.031801],[-8.476776,53.031808],[-8.476773,53.031538],[-8.476325,53.03154],[-8.476322,53.03127],[-8.479006,53.03126],[-8.479,53.03072],[-8.479447,53.030719],[-8.479444,53.030449],[-8.479438,53.02991],[-8.479885,53.029908],[-8.479891,53.030447],[-8.480338,53.030445],[-8.480341,53.030715]],[[-8.470647,53.002982],[-8.471541,53.002979],[-8.471544,53.003249],[-8.47065,53.003252],[-8.470647,53.002982]],[[-8.469336,53.005684],[-8.46933,53.005145],[-8.469777,53.005143],[-8.469783,53.005682],[-8.470677,53.005679],[-8.47068,53.005948],[-8.470683,53.006218],[-8.470236,53.00622],[-8.470233,53.00595],[-8.469339,53.005953],[-8.469336,53.005684]],[[-8.474326,53.012405],[-8.473879,53.012406],[-8.473876,53.012137],[-8.474323,53.012135],[-8.474326,53.012405]],[[-8.473432,53.012408],[-8.473879,53.012406],[-8.473882,53.012676],[-8.473435,53.012678],[-8.473432,53.012408]],[[-8.472106,53.013762],[-8.472103,53.013492],[-8.47255,53.01349],[-8.472553,53.01376],[-8.472106,53.013762]],[[-8.465859,53.014865],[-8.466306,53.014863],[-8.466309,53.015133],[-8.465862,53.015134],[-8.465859,53.014865]],[[-8.467653,53.015397],[-8.4681,53.015395],[-8.468103,53.015665],[-8.467656,53.015667],[-8.467653,53.015397]],[[-8.469006,53.01647],[-8.469009,53.01674],[-8.468562,53.016742],[-8.468559,53.016472],[-8.469006,53.01647]],[[-8.469012,53.017009],[-8.469009,53.01674],[-8.469456,53.016738],[-8.469459,53.017008],[-8.469012,53.017009]],[[-8.467267,53.021061],[-8.46727,53.02133],[-8.465928,53.021336],[-8.465926,53.021066],[-8.467267,53.021061]],[[-8.467273,53.0216],[-8.46727,53.02133],[-8.469058,53.021323],[-8.469061,53.021593],[-8.469956,53.021589],[-8.469959,53.021859],[-8.470853,53.021855],[-8.470856,53.022125],[-8.47175,53.022121],[-8.471753,53.022391],[-8.4722,53.022389],[-8.472203,53.022659],[-8.47265,53.022657],[-8.472653,53.022927],[-8.471759,53.02293],[-8.471756,53.022661],[-8.471309,53.022662],[-8.471306,53.022393],[-8.470412,53.022396],[-8.470409,53.022127],[-8.469514,53.02213],[-8.469511,53.021861],[-8.468617,53.021864],[-8.468614,53.021595],[-8.467273,53.0216]],[[-8.472644,53.022118],[-8.473091,53.022116],[-8.473094,53.022386],[-8.472647,53.022388],[-8.472644,53.022118]],[[-8.471326,53.02428],[-8.471774,53.024278],[-8.471776,53.024548],[-8.471329,53.02455],[-8.471326,53.02428]],[[-8.456966,53.019483],[-8.456072,53.019486],[-8.456074,53.019756],[-8.455627,53.019758],[-8.455625,53.019488],[-8.455622,53.019218],[-8.456069,53.019217],[-8.456066,53.018947],[-8.457407,53.018942],[-8.45741,53.019212],[-8.456963,53.019213],[-8.456966,53.019483]],[[-8.453836,53.019495],[-8.452942,53.019498],[-8.452945,53.019768],[-8.45205,53.019771],[-8.452048,53.019502],[-8.452495,53.0195],[-8.452492,53.01923],[-8.453386,53.019227],[-8.453383,53.018957],[-8.454278,53.018954],[-8.45428,53.019224],[-8.453833,53.019225],[-8.453836,53.019495]],[[-8.448923,53.020053],[-8.448029,53.020056],[-8.448026,53.019787],[-8.447579,53.019788],[-8.447576,53.019519],[-8.448471,53.019515],[-8.448474,53.019785],[-8.448921,53.019783],[-8.448923,53.020053]],[[-8.451159,53.020044],[-8.450712,53.020046],[-8.450709,53.019776],[-8.451156,53.019775],[-8.451159,53.020044]],[[-8.450265,53.020048],[-8.450712,53.020046],[-8.450715,53.020316],[-8.450268,53.020317],[-8.450265,53.020048]],[[-8.450718,53.020585],[-8.450715,53.020316],[-8.451162,53.020314],[-8.451165,53.020584],[-8.450718,53.020585]],[[-8.455633,53.020297],[-8.455186,53.020299],[-8.455183,53.020029],[-8.45563,53.020027],[-8.455633,53.020297]],[[-8.454739,53.0203],[-8.455186,53.020299],[-8.455189,53.020568],[-8.454742,53.02057],[-8.454739,53.0203]],[[-8.454295,53.020572],[-8.454742,53.02057],[-8.454744,53.02084],[-8.454297,53.020841],[-8.454295,53.020572]],[[-8.457424,53.02056],[-8.457872,53.020558],[-8.457874,53.020828],[-8.457427,53.020829],[-8.457424,53.02056]],[[-8.4534,53.020575],[-8.453403,53.020845],[-8.452956,53.020846],[-8.452953,53.020577],[-8.4534,53.020575]],[[-8.453406,53.021114],[-8.453403,53.020845],[-8.45385,53.020843],[-8.453853,53.021113],[-8.453406,53.021114]],[[-8.46202,53.032136],[-8.462467,53.032134],[-8.46247,53.032404],[-8.462022,53.032405],[-8.46202,53.032136]]],[[[-8.493765,53.028416],[-8.493731,53.028239],[-8.493737,53.028773],[-8.49374,53.029042],[-8.493853,53.029042],[-8.493823,53.028808],[-8.493765,53.028416]]],[[[-8.469677,53.035884],[-8.469689,53.03588],[-8.468322,53.035886],[-8.468325,53.036155],[-8.46743,53.036159],[-8.467433,53.036429],[-8.466538,53.036432],[-8.466541,53.036702],[-8.464305,53.03671],[-8.464307,53.036933],[-8.464381,53.036929],[-8.465159,53.036885],[-8.465249,53.037284],[-8.465258,53.037311],[-8.465332,53.037287],[-8.465654,53.037184],[-8.465966,53.037084],[-8.466484,53.03691],[-8.466617,53.036866],[-8.467085,53.03671],[-8.467914,53.036445],[-8.468469,53.036258],[-8.468729,53.036174],[-8.469086,53.03606],[-8.469239,53.036011],[-8.469434,53.035948],[-8.469677,53.035884]]],[[[-8.485194,53.027506],[-8.485196,53.02773],[-8.485228,53.027729],[-8.485231,53.027999],[-8.486572,53.027994],[-8.486569,53.027724],[-8.486122,53.027726],[-8.486119,53.027456],[-8.485672,53.027458],[-8.485669,53.027188],[-8.485222,53.02719],[-8.485219,53.026921],[-8.484771,53.026922],[-8.484774,53.027192],[-8.484327,53.027194],[-8.48433,53.027463],[-8.484777,53.027462],[-8.484778,53.027507],[-8.485194,53.027506]]],[[[-8.467598,53.014312],[-8.467577,53.014319],[-8.467641,53.014319],[-8.46764,53.014228],[-8.467598,53.014312]]],[[[-8.483553,53.013394],[-8.48347,53.013446],[-8.483726,53.013445],[-8.483724,53.013277],[-8.483558,53.013391],[-8.483553,53.013394]]],[[[-8.490081,53.017602],[-8.490032,53.017602],[-8.490034,53.017734],[-8.490176,53.017733],[-8.490175,53.01773],[-8.4901,53.017674],[-8.490081,53.017602]]],[[[-8.467397,53.035664],[-8.465906,53.03567],[-8.465912,53.036165],[-8.466088,53.036164],[-8.466085,53.035895],[-8.467427,53.035889],[-8.467425,53.035664],[-8.467397,53.035664]]],[[[-8.453749,53.030197],[-8.453738,53.030613],[-8.453741,53.030642],[-8.453789,53.031031],[-8.453809,53.03118],[-8.453827,53.031259],[-8.453836,53.031301],[-8.453836,53.031301],[-8.453906,53.031623],[-8.453955,53.031956],[-8.453977,53.031952],[-8.453984,53.031984],[-8.454066,53.03267],[-8.454154,53.033193],[-8.45418,53.0333],[-8.454199,53.033426],[-8.454259,53.033827],[-8.454316,53.034435],[-8.454317,53.034592],[-8.454442,53.034592],[-8.454444,53.034816],[-8.455339,53.034812],[-8.455336,53.034588],[-8.45546,53.034588],[-8.455453,53.033913],[-8.456944,53.033907],[-8.456934,53.033009],[-8.455444,53.033015],[-8.455415,53.030319],[-8.453925,53.030325],[-8.453919,53.02974],[-8.453708,53.029741],[-8.453709,53.029746],[-8.453723,53.029822],[-8.453749,53.030197]],[[-8.454869,53.032703],[-8.455317,53.032701],[-8.455319,53.03297],[-8.454872,53.032972],[-8.454869,53.032703]]],[[[-8.454145,53.035715],[-8.454141,53.035746],[-8.454131,53.035921],[-8.454106,53.036123],[-8.4541,53.036171],[-8.454111,53.036614],[-8.455482,53.036609],[-8.455472,53.03571],[-8.454145,53.035715]]]]}}]}
