{"type":"FeatureCollection","features":[{"type":"Feature","properties":{"source_fid":2822829,"county":"Mayo","bog_geom_ha":157.97963290908069,"low15_pct":75.070982396365707,"low15_ha":118.59686241101913,"overlay_ha":119.08527477022649,"area_delta":0.48841235920735926},"geometry":{"type":"MultiPolygon","coordinates":[[[[-9.60784,53.717599],[-9.607764,53.717524],[-9.607736,53.717492],[-9.607695,53.717444],[-9.607691,53.717421],[-9.607685,53.717379],[-9.607681,53.71736],[-9.607614,53.717335],[-9.607584,53.717314],[-9.607555,53.717248],[-9.607548,53.717232],[-9.607526,53.71721],[-9.607472,53.717157],[-9.607474,53.717145],[-9.607475,53.71714],[-9.607477,53.717126],[-9.607478,53.71712],[-9.607481,53.717083],[-9.607476,53.717039],[-9.607475,53.717027],[-9.607444,53.716986],[-9.607392,53.716969],[-9.607322,53.716968],[-9.607317,53.716963],[-9.607285,53.716934],[-9.607254,53.716886],[-9.607234,53.716767],[-9.607235,53.716751],[-9.607235,53.716748],[-9.606681,53.716755],[-9.606681,53.716766],[-9.606691,53.717036],[-9.606413,53.71704],[-9.606437,53.717657],[-9.605462,53.71767],[-9.605455,53.717714],[-9.605466,53.717751],[-9.605469,53.717758],[-9.605469,53.71778],[-9.605453,53.717799],[-9.605393,53.717823],[-9.605343,53.717852],[-9.605332,53.71788],[-9.605329,53.717931],[-9.605318,53.717982],[-9.605312,53.718031],[-9.605314,53.718141],[-9.605317,53.71818],[-9.605304,53.718177],[-9.605304,53.718082],[-9.605302,53.718027],[-9.60532,53.717929],[-9.605322,53.717878],[-9.605334,53.717849],[-9.605388,53.717816],[-9.60544,53.717799],[-9.605458,53.717779],[-9.605459,53.717752],[-9.605445,53.717712],[-9.605453,53.71767],[-9.604923,53.717677],[-9.604957,53.718575],[-9.603443,53.718595],[-9.603511,53.720392],[-9.601997,53.720412],[-9.602004,53.720604],[-9.60319,53.720588],[-9.6032,53.720857],[-9.605472,53.720827],[-9.605462,53.720557],[-9.607653,53.720528],[-9.60764,53.720488],[-9.607605,53.720426],[-9.60759,53.720318],[-9.607575,53.720222],[-9.607515,53.720102],[-9.607396,53.719979],[-9.607381,53.719894],[-9.607384,53.719794],[-9.607481,53.719519],[-9.607517,53.719398],[-9.607637,53.718905],[-9.607699,53.71864],[-9.607662,53.718641],[-9.607651,53.718371],[-9.607641,53.718102],[-9.607836,53.718099],[-9.607862,53.717967],[-9.607864,53.717873],[-9.60788,53.717853],[-9.607915,53.717836],[-9.607959,53.717796],[-9.608,53.717783],[-9.608004,53.717768],[-9.607987,53.717716],[-9.607942,53.717669],[-9.607896,53.717637],[-9.60784,53.717599]]],[[[-9.609732,53.721534],[-9.60965,53.72158],[-9.610047,53.721574],[-9.610036,53.721305],[-9.610491,53.721299],[-9.610501,53.721568],[-9.61141,53.721556],[-9.61142,53.721826],[-9.613692,53.721795],[-9.613702,53.722064],[-9.611885,53.722089],[-9.611895,53.722358],[-9.610532,53.722377],[-9.610542,53.722646],[-9.610088,53.722652],[-9.610077,53.722383],[-9.609169,53.722395],[-9.609179,53.722665],[-9.608725,53.722671],[-9.608714,53.722401],[-9.60826,53.722407],[-9.60825,53.722138],[-9.607341,53.72215],[-9.607351,53.722419],[-9.605988,53.722438],[-9.605978,53.722168],[-9.605523,53.722174],[-9.605513,53.721905],[-9.605084,53.721911],[-9.605094,53.722168],[-9.603579,53.722188],[-9.602065,53.722208],[-9.602086,53.72276],[-9.602818,53.72275],[-9.602828,53.723019],[-9.603737,53.723007],[-9.603747,53.723277],[-9.603757,53.723546],[-9.606484,53.72351],[-9.606494,53.723779],[-9.606514,53.724318],[-9.607423,53.724306],[-9.607403,53.723767],[-9.607392,53.723497],[-9.608301,53.723485],[-9.608311,53.723755],[-9.608766,53.723749],[-9.608786,53.724288],[-9.608797,53.724557],[-9.612432,53.724508],[-9.612421,53.724239],[-9.61333,53.724226],[-9.613341,53.724496],[-9.614704,53.724478],[-9.614714,53.724747],[-9.614724,53.725017],[-9.61427,53.725023],[-9.61428,53.725292],[-9.613826,53.725298],[-9.613816,53.725029],[-9.612452,53.725047],[-9.612463,53.725317],[-9.610645,53.725341],[-9.610655,53.725611],[-9.60702,53.725659],[-9.60701,53.72539],[-9.606556,53.725396],[-9.606545,53.725127],[-9.606091,53.725133],[-9.606081,53.724863],[-9.603354,53.7249],[-9.603344,53.72463],[-9.602435,53.724642],[-9.602425,53.724373],[-9.60197,53.724379],[-9.60195,53.72384],[-9.602404,53.723834],[-9.602394,53.723564],[-9.602849,53.723558],[-9.602838,53.723289],[-9.601475,53.723307],[-9.601485,53.723577],[-9.600632,53.723588],[-9.600621,53.72365],[-9.600592,53.723805],[-9.600579,53.723942],[-9.60056,53.724101],[-9.600537,53.724291],[-9.600498,53.724505],[-9.600469,53.724722],[-9.600436,53.724921],[-9.600415,53.725079],[-9.600353,53.725479],[-9.600314,53.725679],[-9.600277,53.725877],[-9.60025,53.72604],[-9.600228,53.726127],[-9.600244,53.726153],[-9.600233,53.72626],[-9.600233,53.726273],[-9.600232,53.726329],[-9.600214,53.726365],[-9.600159,53.726512],[-9.600154,53.726579],[-9.600143,53.726688],[-9.600146,53.726755],[-9.600111,53.726881],[-9.600088,53.72695],[-9.600075,53.72702],[-9.600065,53.727076],[-9.600057,53.727126],[-9.600048,53.727223],[-9.600047,53.727293],[-9.600048,53.727326],[-9.600066,53.727327],[-9.600219,53.72734],[-9.6003,53.727329],[-9.600336,53.727327],[-9.600409,53.727324],[-9.600536,53.727292],[-9.600555,53.727283],[-9.600673,53.727229],[-9.600731,53.727195],[-9.600762,53.727176],[-9.600821,53.727123],[-9.600868,53.727081],[-9.600942,53.726957],[-9.601012,53.726873],[-9.60103,53.726851],[-9.601298,53.726888],[-9.601397,53.726901],[-9.601445,53.726909],[-9.60204,53.727002],[-9.602609,53.727093],[-9.602673,53.727102],[-9.602837,53.727126],[-9.602968,53.727145],[-9.603075,53.727161],[-9.603298,53.727193],[-9.603434,53.727213],[-9.603545,53.72723],[-9.603701,53.727254],[-9.603919,53.727302],[-9.603943,53.727308],[-9.604,53.727322],[-9.604155,53.72736],[-9.604372,53.727414],[-9.604663,53.727486],[-9.604884,53.727542],[-9.605567,53.727704],[-9.605661,53.727726],[-9.605739,53.727745],[-9.606374,53.727896],[-9.606749,53.727991],[-9.606826,53.728009],[-9.606874,53.72802],[-9.607642,53.728194],[-9.607813,53.728229],[-9.608258,53.728318],[-9.608693,53.728409],[-9.611391,53.728373],[-9.611407,53.728787],[-9.61183,53.728845],[-9.612081,53.728877],[-9.612338,53.72891],[-9.61321,53.729035],[-9.613661,53.729094],[-9.614114,53.729155],[-9.614262,53.729198],[-9.614369,53.729229],[-9.614377,53.729231],[-9.614391,53.729235],[-9.614547,53.729272],[-9.614559,53.729307],[-9.614587,53.729385],[-9.614592,53.7294],[-9.614592,53.729741],[-9.614593,53.729797],[-9.615181,53.729702],[-9.61584,53.729595],[-9.617181,53.729378],[-9.618683,53.729134],[-9.619179,53.729046],[-9.619762,53.728942],[-9.620279,53.728857],[-9.620816,53.728769],[-9.622016,53.728577],[-9.622247,53.728546],[-9.622864,53.728464],[-9.623886,53.728216],[-9.624395,53.728093],[-9.62501,53.727936],[-9.625539,53.727801],[-9.625994,53.727686],[-9.626509,53.727551],[-9.62699,53.727416],[-9.627599,53.727264],[-9.628081,53.727153],[-9.628603,53.727026],[-9.629313,53.726856],[-9.629881,53.7267],[-9.630363,53.726589],[-9.630731,53.726488],[-9.63088,53.726457],[-9.631055,53.726412],[-9.630862,53.725607],[-9.630659,53.72561],[-9.630639,53.725071],[-9.630184,53.725077],[-9.630174,53.724807],[-9.629265,53.72482],[-9.629255,53.72455],[-9.630048,53.724539],[-9.629728,53.724431],[-9.629499,53.724305],[-9.629082,53.724154],[-9.628457,53.723917],[-9.62806,53.723784],[-9.627981,53.723759],[-9.627406,53.723766],[-9.627398,53.723563],[-9.627365,53.723552],[-9.626831,53.723329],[-9.626577,53.723238],[-9.626476,53.72324],[-9.626487,53.723509],[-9.626032,53.723516],[-9.626043,53.723785],[-9.625588,53.723791],[-9.625578,53.723522],[-9.624215,53.72354],[-9.624225,53.72381],[-9.623771,53.723816],[-9.623781,53.724085],[-9.623792,53.724355],[-9.623802,53.724624],[-9.625165,53.724606],[-9.625155,53.724336],[-9.626972,53.724312],[-9.626983,53.724581],[-9.626074,53.724593],[-9.626084,53.724863],[-9.624721,53.724881],[-9.624731,53.725151],[-9.624277,53.725157],[-9.624267,53.724888],[-9.623358,53.7249],[-9.623348,53.72463],[-9.623337,53.724361],[-9.622883,53.724367],[-9.622872,53.724098],[-9.622418,53.724104],[-9.622428,53.724373],[-9.621974,53.724379],[-9.621964,53.72411],[-9.621953,53.72384],[-9.621943,53.723571],[-9.621034,53.723583],[-9.621024,53.723314],[-9.620569,53.72332],[-9.620559,53.72305],[-9.620105,53.723057],[-9.620094,53.722787],[-9.619186,53.722799],[-9.619175,53.72253],[-9.618266,53.722542],[-9.618256,53.722273],[-9.617347,53.722285],[-9.617337,53.722015],[-9.616883,53.722022],[-9.616872,53.721752],[-9.615964,53.721764],[-9.615974,53.722034],[-9.61552,53.72204],[-9.61553,53.722309],[-9.615076,53.722316],[-9.615065,53.722046],[-9.615055,53.721777],[-9.614601,53.721783],[-9.61459,53.721513],[-9.61458,53.721244],[-9.614576,53.721142],[-9.61263,53.721168],[-9.612596,53.72027],[-9.611927,53.720279],[-9.611522,53.72042],[-9.611318,53.720534],[-9.611219,53.720589],[-9.611123,53.720642],[-9.611123,53.720642],[-9.611123,53.720642],[-9.611119,53.720644],[-9.611118,53.720645],[-9.611117,53.720645],[-9.611106,53.720652],[-9.610963,53.720728],[-9.61068,53.720841],[-9.610481,53.720921],[-9.610413,53.720947],[-9.61041,53.720948],[-9.610406,53.72095],[-9.610406,53.72095],[-9.610394,53.720954],[-9.610296,53.720997],[-9.610243,53.721083],[-9.610168,53.721167],[-9.610005,53.721313],[-9.609892,53.721408],[-9.609732,53.721534]],[[-9.61554,53.722579],[-9.61553,53.722309],[-9.615984,53.722303],[-9.615995,53.722573],[-9.61554,53.722579]],[[-9.621065,53.724392],[-9.621974,53.724379],[-9.621984,53.724649],[-9.62153,53.724655],[-9.62154,53.724925],[-9.620632,53.724937],[-9.620621,53.724667],[-9.618804,53.724692],[-9.618793,53.724422],[-9.618339,53.724429],[-9.618329,53.724159],[-9.618318,53.72389],[-9.619227,53.723877],[-9.619237,53.724147],[-9.621055,53.724122],[-9.621065,53.724392]],[[-9.627881,53.724299],[-9.626972,53.724312],[-9.626962,53.724042],[-9.627871,53.72403],[-9.627881,53.724299]],[[-9.628811,53.724826],[-9.629265,53.72482],[-9.629275,53.725089],[-9.628821,53.725095],[-9.628811,53.724826]],[[-9.617007,53.725255],[-9.617017,53.725525],[-9.616108,53.725537],[-9.616119,53.725807],[-9.615664,53.725813],[-9.615654,53.725543],[-9.615199,53.725549],[-9.615189,53.72528],[-9.615179,53.72501],[-9.616542,53.724992],[-9.616552,53.725262],[-9.617007,53.725255]],[[-9.618422,53.726584],[-9.618401,53.726045],[-9.618855,53.726039],[-9.618876,53.726578],[-9.618422,53.726584]]],[[[-9.62122,53.718356],[-9.620379,53.718368],[-9.620383,53.718469],[-9.620393,53.718739],[-9.620404,53.719008],[-9.620858,53.719002],[-9.620848,53.718733],[-9.620837,53.718463],[-9.621165,53.718459],[-9.62122,53.718356]]],[[[-9.620353,53.720118],[-9.620439,53.719941],[-9.620435,53.719817],[-9.619526,53.719829],[-9.619536,53.720098],[-9.619991,53.720092],[-9.620001,53.720362],[-9.620455,53.720356],[-9.620454,53.720326],[-9.620288,53.720263],[-9.620353,53.720118]]],[[[-9.62224,53.721196],[-9.622145,53.721142],[-9.621395,53.721152],[-9.621385,53.720882],[-9.62093,53.720888],[-9.62092,53.720619],[-9.620466,53.720625],[-9.620476,53.720895],[-9.620486,53.721164],[-9.620941,53.721158],[-9.620951,53.721427],[-9.62186,53.721415],[-9.62187,53.721685],[-9.622779,53.721672],[-9.622789,53.721942],[-9.621881,53.721954],[-9.621891,53.722224],[-9.621437,53.72223],[-9.621447,53.722499],[-9.621457,53.722769],[-9.621912,53.722762],[-9.621922,53.723032],[-9.621933,53.723301],[-9.621943,53.723571],[-9.622397,53.723565],[-9.622387,53.723295],[-9.622377,53.723026],[-9.622831,53.72302],[-9.622821,53.72275],[-9.623729,53.722738],[-9.62374,53.723007],[-9.625829,53.722979],[-9.62568,53.72293],[-9.625506,53.722853],[-9.625307,53.722742],[-9.624918,53.722552],[-9.624539,53.72238],[-9.624219,53.722227],[-9.623904,53.722053],[-9.623587,53.721867],[-9.623421,53.72178],[-9.623017,53.72158],[-9.622648,53.721404],[-9.622314,53.721409],[-9.622307,53.721231],[-9.62224,53.721196]]],[[[-9.602031,53.72131],[-9.602308,53.721306],[-9.602302,53.721139],[-9.602025,53.721143],[-9.602031,53.72131]]],[[[-9.607979,53.717796],[-9.607998,53.717789],[-9.607998,53.717789],[-9.607998,53.717789],[-9.607979,53.717796]]],[[[-9.607667,53.718946],[-9.607705,53.718703],[-9.607706,53.718698],[-9.607721,53.71864],[-9.607708,53.71864],[-9.607525,53.719406],[-9.607493,53.719519],[-9.607393,53.719793],[-9.607393,53.719841],[-9.607405,53.719976],[-9.607526,53.720079],[-9.607489,53.720034],[-9.607448,53.719971],[-9.607436,53.71989],[-9.607441,53.719834],[-9.607465,53.719756],[-9.607513,53.719657],[-9.607505,53.719636],[-9.60753,53.71953],[-9.607578,53.719341],[-9.607633,53.719104],[-9.607667,53.718946]]],[[[-9.607873,53.717967],[-9.607845,53.718099],[-9.607862,53.718099],[-9.607904,53.717916],[-9.607916,53.717862],[-9.60789,53.717854],[-9.60789,53.717854],[-9.607873,53.717878],[-9.607871,53.717911],[-9.607873,53.717967]]],[[[-9.607603,53.720289],[-9.607584,53.72023],[-9.607603,53.720289],[-9.607607,53.720344],[-9.607603,53.720289]]]]}}]}
