{"type":"FeatureCollection","features":[{"type":"Feature","properties":{"source_fid":2823507,"county":"Mayo","bog_geom_ha":343.13350295725957,"low15_pct":98.291272344900108,"low15_ha":337.27028589831588,"overlay_ha":337.35266508095378,"area_delta":0.082379182637907888},"geometry":{"type":"MultiPolygon","coordinates":[[[[-10.014236,53.989192],[-10.014294,53.989261],[-10.014305,53.98927],[-10.014387,53.989288],[-10.014555,53.989476],[-10.014563,53.989482],[-10.014614,53.989541],[-10.014653,53.989584],[-10.014787,53.989734],[-10.014925,53.989869],[-10.015042,53.990021],[-10.015104,53.990091],[-10.015176,53.990178],[-10.015256,53.990251],[-10.015385,53.990338],[-10.01565,53.990455],[-10.015837,53.990534],[-10.015841,53.990536],[-10.016007,53.990596],[-10.016261,53.990702],[-10.016414,53.990754],[-10.016608,53.990824],[-10.01669,53.9909],[-10.016735,53.990959],[-10.016805,53.991019],[-10.01684,53.991058],[-10.016909,53.99112],[-10.017066,53.991269],[-10.017157,53.991301],[-10.017284,53.991319],[-10.01731,53.99133],[-10.017382,53.991332],[-10.017432,53.991318],[-10.01753,53.991279],[-10.017613,53.991246],[-10.017751,53.991243],[-10.017868,53.991298],[-10.017903,53.991334],[-10.017943,53.991339],[-10.017958,53.991341],[-10.017981,53.991343],[-10.01803,53.991349],[-10.018144,53.991347],[-10.018316,53.991336],[-10.018387,53.991335],[-10.0185,53.991326],[-10.018605,53.991329],[-10.018662,53.991331],[-10.018694,53.991332],[-10.018788,53.991372],[-10.018823,53.991389],[-10.018858,53.991405],[-10.018896,53.991422],[-10.018944,53.991448],[-10.01902,53.991462],[-10.019089,53.99148],[-10.019154,53.991479],[-10.019168,53.991479],[-10.019191,53.991485],[-10.019339,53.991527],[-10.019477,53.991594],[-10.019627,53.99165],[-10.019738,53.991678],[-10.01985,53.991651],[-10.019904,53.991623],[-10.019926,53.991578],[-10.019993,53.991562],[-10.020005,53.991562],[-10.020085,53.991563],[-10.020161,53.991559],[-10.020254,53.991565],[-10.020309,53.991573],[-10.020355,53.99158],[-10.020499,53.991592],[-10.020597,53.991625],[-10.02071,53.991653],[-10.020811,53.991678],[-10.020899,53.991676],[-10.020962,53.991672],[-10.021016,53.991664],[-10.021173,53.991609],[-10.021227,53.991603],[-10.021289,53.991572],[-10.021351,53.991566],[-10.021419,53.991572],[-10.02146,53.991554],[-10.021478,53.991502],[-10.021502,53.991477],[-10.021579,53.991495],[-10.021649,53.991465],[-10.021672,53.991432],[-10.021748,53.991438],[-10.021781,53.991423],[-10.021796,53.991388],[-10.021821,53.991387],[-10.021893,53.991388],[-10.021981,53.991387],[-10.022057,53.991385],[-10.022108,53.991397],[-10.022206,53.991437],[-10.02273,53.991467],[-10.022837,53.991455],[-10.022933,53.991453],[-10.022968,53.991452],[-10.023047,53.99145],[-10.023263,53.991491],[-10.023342,53.99151],[-10.023481,53.991514],[-10.023562,53.991502],[-10.023671,53.991485],[-10.023703,53.991479],[-10.023877,53.991451],[-10.024004,53.991445],[-10.024116,53.991442],[-10.024218,53.991451],[-10.024293,53.99145],[-10.024365,53.991466],[-10.024414,53.991477],[-10.024444,53.991474],[-10.024488,53.991458],[-10.024517,53.991455],[-10.024559,53.991455],[-10.024594,53.991424],[-10.024581,53.991402],[-10.024604,53.991359],[-10.024651,53.991325],[-10.024703,53.991323],[-10.024752,53.991325],[-10.024777,53.99131],[-10.024875,53.99134],[-10.025067,53.991396],[-10.025379,53.991535],[-10.025406,53.991548],[-10.025462,53.991574],[-10.025869,53.991767],[-10.025884,53.991779],[-10.025952,53.991831],[-10.026026,53.991888],[-10.026041,53.991951],[-10.025992,53.992087],[-10.026019,53.99217],[-10.026032,53.992227],[-10.026088,53.992471],[-10.026121,53.992593],[-10.026131,53.992629],[-10.026145,53.992647],[-10.026224,53.992744],[-10.026372,53.992845],[-10.02648,53.992902],[-10.026535,53.992931],[-10.026654,53.992995],[-10.026919,53.993109],[-10.027016,53.993151],[-10.027022,53.993153],[-10.027553,53.993354],[-10.027581,53.993358],[-10.027891,53.993406],[-10.028147,53.993482],[-10.028172,53.993489],[-10.028243,53.99351],[-10.028765,53.993657],[-10.028815,53.993691],[-10.028863,53.993723],[-10.028992,53.993811],[-10.029167,53.993854],[-10.029666,53.993673],[-10.029996,53.99356],[-10.030319,53.993464],[-10.030594,53.993367],[-10.030689,53.993332],[-10.030963,53.993231],[-10.031527,53.993016],[-10.031591,53.992994],[-10.031938,53.992817],[-10.032033,53.992782],[-10.03209,53.992763],[-10.032203,53.992722],[-10.032668,53.992544],[-10.032909,53.992452],[-10.033274,53.992323],[-10.033612,53.992196],[-10.033705,53.99216],[-10.033907,53.992084],[-10.034437,53.991872],[-10.03468,53.991757],[-10.034736,53.99173],[-10.03494,53.991633],[-10.035158,53.991496],[-10.035452,53.991326],[-10.03537,53.990937],[-10.035264,53.990437],[-10.035169,53.989993],[-10.035074,53.989545],[-10.034984,53.98912],[-10.034972,53.989064],[-10.035331,53.98879],[-10.035755,53.988465],[-10.036197,53.988128],[-10.036545,53.987862],[-10.036587,53.987829],[-10.037045,53.987479],[-10.037454,53.987167],[-10.03798,53.986764],[-10.038125,53.986653],[-10.038128,53.986641],[-10.038122,53.986604],[-10.03834,53.986322],[-10.038602,53.985984],[-10.038811,53.985715],[-10.038926,53.985588],[-10.039192,53.985293],[-10.039388,53.985077],[-10.039401,53.984805],[-10.039407,53.984659],[-10.039427,53.984238],[-10.039129,53.984189],[-10.038339,53.984072],[-10.037975,53.984011],[-10.038001,53.983789],[-10.037987,53.983416],[-10.037051,53.983223],[-10.036961,53.983229],[-10.036892,53.983211],[-10.036497,53.983134],[-10.036441,53.983123],[-10.035482,53.982953],[-10.035145,53.98288],[-10.035187,53.982834],[-10.035266,53.982748],[-10.035277,53.982736],[-10.035392,53.982603],[-10.035434,53.982573],[-10.035485,53.982538],[-10.035549,53.982495],[-10.035662,53.982445],[-10.035942,53.982501],[-10.036098,53.982529],[-10.036496,53.982594],[-10.036502,53.982595],[-10.036642,53.98252],[-10.036746,53.982488],[-10.036813,53.982449],[-10.036856,53.982407],[-10.036909,53.982384],[-10.037032,53.982347],[-10.037158,53.982332],[-10.037339,53.982198],[-10.037644,53.98205],[-10.037944,53.981997],[-10.038024,53.981983],[-10.038087,53.982024],[-10.038159,53.982041],[-10.038311,53.982048],[-10.038415,53.982045],[-10.038473,53.981948],[-10.038532,53.981958],[-10.038681,53.981913],[-10.038781,53.981921],[-10.038984,53.981745],[-10.038857,53.98161],[-10.038759,53.981571],[-10.038801,53.981454],[-10.038788,53.981375],[-10.038771,53.981265],[-10.03878,53.981228],[-10.038816,53.98118],[-10.038915,53.981105],[-10.038981,53.981078],[-10.039146,53.98102],[-10.039335,53.980999],[-10.039337,53.980999],[-10.039641,53.980963],[-10.039704,53.98093],[-10.03975,53.980881],[-10.039812,53.980781],[-10.039806,53.980741],[-10.039763,53.980704],[-10.039675,53.980658],[-10.039595,53.980593],[-10.039555,53.980502],[-10.039554,53.980447],[-10.039572,53.980426],[-10.039609,53.980384],[-10.039632,53.98032],[-10.039001,53.980413],[-10.038957,53.98042],[-10.03896,53.980449],[-10.038962,53.98048],[-10.038701,53.980823],[-10.038331,53.981323],[-10.038167,53.981566],[-10.038079,53.981712],[-10.037971,53.981867],[-10.037848,53.981754],[-10.037786,53.981726],[-10.037699,53.981712],[-10.037609,53.98171],[-10.03752,53.981772],[-10.037307,53.981936],[-10.037133,53.982032],[-10.037124,53.982038],[-10.037072,53.982073],[-10.036862,53.982214],[-10.03663,53.982323],[-10.036556,53.982338],[-10.036514,53.98232],[-10.036452,53.982354],[-10.036404,53.982254],[-10.036343,53.982183],[-10.036279,53.982117],[-10.036198,53.982022],[-10.0359,53.981941],[-10.035901,53.981951],[-10.035844,53.981982],[-10.035555,53.982003],[-10.035475,53.982021],[-10.035419,53.982049],[-10.035334,53.982117],[-10.035323,53.982128],[-10.035102,53.982327],[-10.034966,53.982458],[-10.034721,53.982465],[-10.034762,53.982646],[-10.034786,53.982789],[-10.03479,53.98281],[-10.034658,53.982845],[-10.034646,53.982868],[-10.034645,53.982902],[-10.03462,53.982907],[-10.03418,53.982944],[-10.033653,53.983],[-10.033007,53.983073],[-10.030725,53.98324],[-10.029889,53.981069],[-10.029862,53.980998],[-10.029974,53.98098],[-10.030585,53.980906],[-10.031926,53.980767],[-10.032138,53.980748],[-10.032793,53.980688],[-10.033609,53.980641],[-10.033645,53.980641],[-10.033729,53.980642],[-10.033667,53.980274],[-10.033591,53.979807],[-10.03357,53.979676],[-10.033539,53.979324],[-10.033487,53.979064],[-10.033491,53.978993],[-10.033496,53.97889],[-10.034034,53.978845],[-10.034057,53.978613],[-10.034099,53.978191],[-10.03413,53.977872],[-10.03417,53.977473],[-10.034213,53.977029],[-10.034221,53.976955],[-10.032021,53.976481],[-10.031934,53.976462],[-10.031598,53.97639],[-10.031948,53.975688],[-10.031087,53.975375],[-10.030994,53.975376],[-10.030992,53.97534],[-10.030962,53.975329],[-10.030001,53.976029],[-10.02991,53.976096],[-10.029496,53.976433],[-10.029007,53.976833],[-10.028861,53.976852],[-10.028785,53.976862],[-10.028659,53.976879],[-10.028119,53.976077],[-10.026976,53.976556],[-10.026383,53.976806],[-10.025526,53.977147],[-10.025454,53.977176],[-10.025451,53.977177],[-10.02533,53.977226],[-10.024889,53.977764],[-10.023496,53.97721],[-10.022522,53.976823],[-10.022551,53.976807],[-10.022691,53.976772],[-10.022853,53.976712],[-10.022874,53.976663],[-10.022943,53.976616],[-10.022992,53.976584],[-10.023095,53.976551],[-10.023118,53.976515],[-10.023023,53.976461],[-10.023021,53.976421],[-10.023212,53.976319],[-10.023547,53.976157],[-10.02365,53.976187],[-10.023667,53.976176],[-10.023701,53.976128],[-10.023817,53.976123],[-10.023953,53.976112],[-10.024028,53.976101],[-10.024184,53.976052],[-10.024279,53.976],[-10.024293,53.975993],[-10.024361,53.975984],[-10.024478,53.975991],[-10.024551,53.976006],[-10.024661,53.976051],[-10.024717,53.97607],[-10.024973,53.976054],[-10.025075,53.975967],[-10.024904,53.975769],[-10.025025,53.975642],[-10.025132,53.97574],[-10.025268,53.975798],[-10.025577,53.975683],[-10.025572,53.97541],[-10.02576,53.97548],[-10.025898,53.975532],[-10.02612,53.975474],[-10.026337,53.975417],[-10.026565,53.975357],[-10.026877,53.975379],[-10.027156,53.975398],[-10.02734,53.975324],[-10.027416,53.975301],[-10.02748,53.975237],[-10.027478,53.975209],[-10.027483,53.975197],[-10.027828,53.975098],[-10.028012,53.975067],[-10.028237,53.975016],[-10.028285,53.974992],[-10.02833,53.974924],[-10.028328,53.97484],[-10.028373,53.974792],[-10.028452,53.974757],[-10.028731,53.97468],[-10.028811,53.974645],[-10.028869,53.974603],[-10.028212,53.974614],[-10.028199,53.974345],[-10.028656,53.974337],[-10.028643,53.974068],[-10.028932,53.974063],[-10.028702,53.973252],[-10.028696,53.973233],[-10.029279,53.973137],[-10.029266,53.973098],[-10.028619,53.971089],[-10.027635,53.971324],[-10.027596,53.971333],[-10.027598,53.971389],[-10.027343,53.971393],[-10.027144,53.971441],[-10.027154,53.971666],[-10.026241,53.971682],[-10.026267,53.97222],[-10.027181,53.972205],[-10.027194,53.972474],[-10.022493,53.972554],[-10.02244,53.972566],[-10.021617,53.972763],[-10.020921,53.97293],[-10.020402,53.973054],[-10.020139,53.973117],[-10.019312,53.973314],[-10.018429,53.973523],[-10.017404,53.973767],[-10.016808,53.973909],[-10.01627,53.974036],[-10.01574,53.974162],[-10.015174,53.974297],[-10.0146,53.974433],[-10.013815,53.97462],[-10.014083,53.975327],[-10.013864,53.975431],[-10.012036,53.976295],[-10.011769,53.977407],[-10.011575,53.978216],[-10.011314,53.978342],[-10.010191,53.978704],[-10.009988,53.978769],[-10.009019,53.979166],[-10.008658,53.979256],[-10.00841,53.979318],[-10.00764,53.979626],[-10.007479,53.979619],[-10.007412,53.979622],[-10.007128,53.979621],[-10.006504,53.979619],[-10.006073,53.979701],[-10.005906,53.979742],[-10.004862,53.98002],[-10.004227,53.980198],[-10.003601,53.979999],[-10.003451,53.979941],[-10.003227,53.979915],[-10.002658,53.979967],[-10.001966,53.980061],[-10.000697,53.980171],[-9.999651,53.980262],[-9.999006,53.980298],[-9.998464,53.980316],[-9.997228,53.980385],[-9.996723,53.980387],[-9.996437,53.980391],[-9.996625,53.98051],[-9.996849,53.980626],[-9.99696,53.980659],[-9.99754,53.980814],[-9.99772,53.980855],[-9.997942,53.980892],[-9.998328,53.980927],[-9.998321,53.980777],[-9.998308,53.980508],[-10.000593,53.98047],[-10.000606,53.980739],[-10.00152,53.980724],[-10.001533,53.980994],[-10.00199,53.980986],[-10.001977,53.980717],[-10.001964,53.980447],[-10.004707,53.980401],[-10.00472,53.980671],[-10.005634,53.980656],[-10.005647,53.980925],[-10.007475,53.980894],[-10.007462,53.980625],[-10.007919,53.980617],[-10.007932,53.980887],[-10.008846,53.980872],[-10.008859,53.981141],[-10.003374,53.981233],[-10.003361,53.980963],[-10.002447,53.980978],[-10.00246,53.981248],[-10.002003,53.981255],[-10.002016,53.981525],[-10.001102,53.98154],[-10.001089,53.981271],[-10.00089,53.981274],[-10.00077,53.981586],[-10.000704,53.981723],[-10.000629,53.981805],[-10.000567,53.981863],[-10.000457,53.98194],[-10.000452,53.981955],[-9.999837,53.981845],[-9.999849,53.981831],[-9.999743,53.981832],[-9.99973,53.981563],[-10.00007,53.981557],[-10.000405,53.981142],[-10.000626,53.981161],[-10.000619,53.981009],[-9.998705,53.981041],[-9.99858,53.98129],[-9.998374,53.98171],[-9.998003,53.98226],[-9.997891,53.982479],[-9.997829,53.982571],[-9.997785,53.982612],[-9.997729,53.982652],[-9.997659,53.982745],[-9.997526,53.983017],[-9.99742,53.983215],[-9.997439,53.983219],[-9.997414,53.983257],[-9.997311,53.983429],[-9.997226,53.983588],[-9.996812,53.984308],[-9.996663,53.984637],[-9.996595,53.984782],[-9.996495,53.984981],[-9.996436,53.985101],[-9.997286,53.984936],[-9.998602,53.984674],[-9.999445,53.984502],[-10.000717,53.984401],[-10.001395,53.984412],[-10.002369,53.984427],[-10.003762,53.984458],[-10.005043,53.984488],[-10.006288,53.984536],[-10.007465,53.984623],[-10.008288,53.984691],[-10.009095,53.98472],[-10.009573,53.984751],[-10.009747,53.984961],[-10.010198,53.985394],[-10.010717,53.985851],[-10.011252,53.986247],[-10.011634,53.986602],[-10.011911,53.986846],[-10.012957,53.987758],[-10.01316,53.987907],[-10.013629,53.98849],[-10.013919,53.988771],[-10.014109,53.988977],[-10.014227,53.989124],[-10.014236,53.989192]],[[-10.033319,53.978968],[-10.033325,53.979488],[-10.033394,53.980596],[-10.033318,53.980599],[-10.032864,53.980636],[-10.032674,53.980654],[-10.032242,53.979747],[-10.031907,53.979018],[-10.031897,53.978995],[-10.032205,53.978987],[-10.033077,53.978955],[-10.033315,53.978967],[-10.033319,53.978968]],[[-10.022754,53.987989],[-10.021518,53.98714],[-10.021732,53.986965],[-10.021734,53.986963],[-10.021781,53.986919],[-10.023306,53.987963],[-10.024382,53.988711],[-10.024129,53.988911],[-10.022754,53.987989]],[[-10.025573,53.981174],[-10.02635,53.981219],[-10.026253,53.981956],[-10.026106,53.981993],[-10.025666,53.982069],[-10.02543,53.982087],[-10.025573,53.981174]],[[-9.998306,53.981871],[-9.998418,53.981719],[-9.998503,53.981544],[-9.999394,53.98205],[-9.99933,53.982169],[-9.999171,53.982355],[-9.998306,53.981871]],[[-10.008454,53.982226],[-10.008911,53.982219],[-10.008924,53.982488],[-10.008467,53.982496],[-10.008454,53.982226]]]]}}]}
