{"type":"FeatureCollection","features":[{"type":"Feature","properties":{"source_fid":2829971,"county":"Galway","bog_geom_ha":130.85070447747898,"low15_pct":93.689986282578872,"low15_ha":122.59400707560788,"overlay_ha":122.57671470580266,"area_delta":-0.017292369805218755},"geometry":{"type":"MultiPolygon","coordinates":[[[[-9.746509,53.485556],[-9.746517,53.485553],[-9.7468,53.485437],[-9.746789,53.485161],[-9.746338,53.485195],[-9.746323,53.485247],[-9.746325,53.485287],[-9.746325,53.485289],[-9.746325,53.485291],[-9.746325,53.485293],[-9.746324,53.485294],[-9.746323,53.485296],[-9.746279,53.485361],[-9.746278,53.485363],[-9.746276,53.485365],[-9.746275,53.485366],[-9.746274,53.485367],[-9.746168,53.485448],[-9.746166,53.485449],[-9.746164,53.48545],[-9.746162,53.485451],[-9.746069,53.485498],[-9.746067,53.4855],[-9.746064,53.485501],[-9.746062,53.485502],[-9.746059,53.485502],[-9.746056,53.485503],[-9.745969,53.485519],[-9.745968,53.485519],[-9.745966,53.485519],[-9.745965,53.485519],[-9.745812,53.485536],[-9.745808,53.48554],[-9.745807,53.485559],[-9.745807,53.485561],[-9.745806,53.485562],[-9.745806,53.485564],[-9.745805,53.485566],[-9.745803,53.485568],[-9.745802,53.485569],[-9.7458,53.485571],[-9.745799,53.485572],[-9.745796,53.485574],[-9.745794,53.485575],[-9.745792,53.485576],[-9.745789,53.485577],[-9.745789,53.485577],[-9.745764,53.485586],[-9.745763,53.485596],[-9.745762,53.485598],[-9.745762,53.4856],[-9.745761,53.485601],[-9.745725,53.485669],[-9.745724,53.485671],[-9.745723,53.485672],[-9.745721,53.485674],[-9.74572,53.485676],[-9.745718,53.485677],[-9.745716,53.485679],[-9.745713,53.48568],[-9.745711,53.485681],[-9.745695,53.485688],[-9.745692,53.485689],[-9.745689,53.48569],[-9.745686,53.48569],[-9.745683,53.485691],[-9.74568,53.485691],[-9.745677,53.485692],[-9.745676,53.485692],[-9.745582,53.485696],[-9.745558,53.485738],[-9.745533,53.485781],[-9.74556,53.485825],[-9.745561,53.485827],[-9.745562,53.485828],[-9.745562,53.48583],[-9.745562,53.485832],[-9.745562,53.485834],[-9.745562,53.485836],[-9.745561,53.485838],[-9.745561,53.485839],[-9.74555,53.48586],[-9.745549,53.485862],[-9.745548,53.485864],[-9.745546,53.485865],[-9.745545,53.485867],[-9.745544,53.485867],[-9.745514,53.485892],[-9.745512,53.485893],[-9.74551,53.485895],[-9.745507,53.485896],[-9.745505,53.485897],[-9.745502,53.485898],[-9.7455,53.485899],[-9.745497,53.4859],[-9.745494,53.4859],[-9.745491,53.485901],[-9.745488,53.485901],[-9.745486,53.485901],[-9.745387,53.485905],[-9.745361,53.485925],[-9.745364,53.485983],[-9.745366,53.486008],[-9.745392,53.486017],[-9.745413,53.48602],[-9.745416,53.486021],[-9.745419,53.486022],[-9.745421,53.486022],[-9.745424,53.486024],[-9.745426,53.486025],[-9.745429,53.486026],[-9.745431,53.486027],[-9.745432,53.486028],[-9.745487,53.486072],[-9.745488,53.486073],[-9.745489,53.486074],[-9.74549,53.486075],[-9.745567,53.486164],[-9.745568,53.486165],[-9.745569,53.486167],[-9.74557,53.486168],[-9.745598,53.486224],[-9.745598,53.486226],[-9.745599,53.486228],[-9.745599,53.48623],[-9.745599,53.486232],[-9.745592,53.486313],[-9.745599,53.486345],[-9.745599,53.486345],[-9.7456,53.486347],[-9.7456,53.486349],[-9.745608,53.486383],[-9.745608,53.486384],[-9.745608,53.486385],[-9.745616,53.486419],[-9.745659,53.486558],[-9.745659,53.48656],[-9.745659,53.486562],[-9.745659,53.486564],[-9.745659,53.486565],[-9.745659,53.486567],[-9.745635,53.486636],[-9.745634,53.486638],[-9.745633,53.48664],[-9.745632,53.486641],[-9.745631,53.486643],[-9.745629,53.486644],[-9.745627,53.486646],[-9.745625,53.486647],[-9.745623,53.486649],[-9.745621,53.486649],[-9.745581,53.486668],[-9.745578,53.486725],[-9.745619,53.486934],[-9.745688,53.4871],[-9.745738,53.4872],[-9.745738,53.487202],[-9.745739,53.487203],[-9.745739,53.487204],[-9.745761,53.487325],[-9.74577,53.487372],[-9.74577,53.487374],[-9.74577,53.487375],[-9.74577,53.487376],[-9.745759,53.487469],[-9.745757,53.487651],[-9.745756,53.487653],[-9.745756,53.487655],[-9.745755,53.487657],[-9.745754,53.487659],[-9.745753,53.48766],[-9.745752,53.487662],[-9.74575,53.487664],[-9.745748,53.487665],[-9.745746,53.487667],[-9.745744,53.487668],[-9.745742,53.487669],[-9.745739,53.48767],[-9.745738,53.487671],[-9.745732,53.487673],[-9.745732,53.487678],[-9.745732,53.48768],[-9.745731,53.487682],[-9.745731,53.487684],[-9.745731,53.487684],[-9.745656,53.487836],[-9.745655,53.487837],[-9.745654,53.487839],[-9.745652,53.487841],[-9.745651,53.487842],[-9.74565,53.487848],[-9.74565,53.487856],[-9.74568,53.487942],[-9.745778,53.488066],[-9.745779,53.488068],[-9.74578,53.488069],[-9.745781,53.488071],[-9.745781,53.488073],[-9.745782,53.488075],[-9.745781,53.488077],[-9.745781,53.488079],[-9.745781,53.488079],[-9.745748,53.488194],[-9.745748,53.488196],[-9.745747,53.488198],[-9.745746,53.488199],[-9.745744,53.488201],[-9.745743,53.488203],[-9.745741,53.488204],[-9.74574,53.488205],[-9.745658,53.488264],[-9.745665,53.48833],[-9.74587,53.488327],[-9.745859,53.488057],[-9.745837,53.487518],[-9.747192,53.487499],[-9.747214,53.488038],[-9.746762,53.488044],[-9.746773,53.488314],[-9.746322,53.48832],[-9.746344,53.488859],[-9.745892,53.488866],[-9.745903,53.489135],[-9.745451,53.489142],[-9.745442,53.488929],[-9.745433,53.488937],[-9.745431,53.488939],[-9.745429,53.48894],[-9.745192,53.490081],[-9.745215,53.490133],[-9.745216,53.490135],[-9.745216,53.490136],[-9.745216,53.490138],[-9.745216,53.49014],[-9.745216,53.490142],[-9.745215,53.490144],[-9.745215,53.490145],[-9.745127,53.49033],[-9.745127,53.49033],[-9.745127,53.49033],[-9.745126,53.490331],[-9.745092,53.49039],[-9.745094,53.490479],[-9.745105,53.49053],[-9.745105,53.490532],[-9.745106,53.490534],[-9.745105,53.490536],[-9.745105,53.490537],[-9.745071,53.49064],[-9.745071,53.490641],[-9.745071,53.490642],[-9.74507,53.490643],[-9.745034,53.490708],[-9.745033,53.49071],[-9.745032,53.490711],[-9.74503,53.490713],[-9.745029,53.490714],[-9.745028,53.490715],[-9.744968,53.490758],[-9.744923,53.490857],[-9.744947,53.490937],[-9.744947,53.490938],[-9.744948,53.49094],[-9.744948,53.490942],[-9.744947,53.490944],[-9.744947,53.490945],[-9.744914,53.491042],[-9.744877,53.491116],[-9.745025,53.491133],[-9.745145,53.491147],[-9.745221,53.491156],[-9.745181,53.491279],[-9.745274,53.491321],[-9.745329,53.491344],[-9.74552,53.49138],[-9.745641,53.491381],[-9.746031,53.491568],[-9.746083,53.491589],[-9.746132,53.491612],[-9.746177,53.491638],[-9.746218,53.491666],[-9.74623,53.491675],[-9.746249,53.491689],[-9.746258,53.491696],[-9.746264,53.491702],[-9.74628,53.491715],[-9.746283,53.491718],[-9.746285,53.49172],[-9.746299,53.491734],[-9.746312,53.491747],[-9.746315,53.49175],[-9.746317,53.491752],[-9.746328,53.491766],[-9.74634,53.49178],[-9.746342,53.491783],[-9.746344,53.491785],[-9.746354,53.4918],[-9.746363,53.491815],[-9.746365,53.491818],[-9.746366,53.49182],[-9.746374,53.491835],[-9.746381,53.49185],[-9.746382,53.491853],[-9.746384,53.491856],[-9.746389,53.491871],[-9.746395,53.491887],[-9.746395,53.491889],[-9.746396,53.491892],[-9.746399,53.491908],[-9.746403,53.491924],[-9.746412,53.491982],[-9.746414,53.492002],[-9.746415,53.492022],[-9.746414,53.492043],[-9.746409,53.4921],[-9.746409,53.492105],[-9.746408,53.49211],[-9.746408,53.492115],[-9.746394,53.492215],[-9.746393,53.492219],[-9.746393,53.492223],[-9.746392,53.492227],[-9.746356,53.492423],[-9.746347,53.49246],[-9.746333,53.492496],[-9.746314,53.492531],[-9.746289,53.492565],[-9.746261,53.492598],[-9.746257,53.492606],[-9.746238,53.492732],[-9.746236,53.492747],[-9.746232,53.492761],[-9.746228,53.492776],[-9.746193,53.492888],[-9.746197,53.492998],[-9.746196,53.493029],[-9.746192,53.49306],[-9.746184,53.493091],[-9.746125,53.493331],[-9.746139,53.493363],[-9.746171,53.493446],[-9.746183,53.493482],[-9.746189,53.493519],[-9.746191,53.493556],[-9.746187,53.493594],[-9.746179,53.493628],[-9.74615,53.493723],[-9.746158,53.493909],[-9.746158,53.49393],[-9.746156,53.493951],[-9.746153,53.493972],[-9.746148,53.493997],[-9.746161,53.494057],[-9.746162,53.494062],[-9.746163,53.494066],[-9.746164,53.494071],[-9.74617,53.494108],[-9.746235,53.494249],[-9.746237,53.494253],[-9.746565,53.494249],[-9.746598,53.495057],[-9.746409,53.49506],[-9.746432,53.495088],[-9.746455,53.495122],[-9.746473,53.495158],[-9.746485,53.495191],[-9.746515,53.49529],[-9.746524,53.495327],[-9.746524,53.495328],[-9.746609,53.495327],[-9.746618,53.495543],[-9.747215,53.495534],[-9.747178,53.494636],[-9.748389,53.494618],[-9.748373,53.494222],[-9.748351,53.493683],[-9.747899,53.49369],[-9.747888,53.49342],[-9.748339,53.493414],[-9.748328,53.493144],[-9.748624,53.49314],[-9.748611,53.492818],[-9.749671,53.492802],[-9.749662,53.492586],[-9.750108,53.492579],[-9.750079,53.491898],[-9.751441,53.491878],[-9.751436,53.491751],[-9.75158,53.491749],[-9.751558,53.49121],[-9.750962,53.491218],[-9.750951,53.490949],[-9.750499,53.490955],[-9.750488,53.490686],[-9.75094,53.490679],[-9.750929,53.490417],[-9.750914,53.490411],[-9.750913,53.49041],[-9.750477,53.490417],[-9.750467,53.490189],[-9.750438,53.490165],[-9.75042,53.490148],[-9.750014,53.490154],[-9.750012,53.490101],[-9.750006,53.490101],[-9.749986,53.489615],[-9.74954,53.489621],[-9.749529,53.489352],[-9.749518,53.489082],[-9.749066,53.489089],[-9.749055,53.48882],[-9.749044,53.48855],[-9.748592,53.488557],[-9.748582,53.488325],[-9.748426,53.488327],[-9.748424,53.488289],[-9.748129,53.488294],[-9.748107,53.487755],[-9.748085,53.487216],[-9.747633,53.487223],[-9.747622,53.486953],[-9.747617,53.486848],[-9.74761,53.486843],[-9.747556,53.486809],[-9.747523,53.486787],[-9.747494,53.486763],[-9.747467,53.486739],[-9.747416,53.486691],[-9.747385,53.486658],[-9.747359,53.486624],[-9.747337,53.486589],[-9.747321,53.486553],[-9.747319,53.486546],[-9.746846,53.486553],[-9.746826,53.486067],[-9.746804,53.486042],[-9.7468,53.486037],[-9.746731,53.485951],[-9.746717,53.485933],[-9.746706,53.485916],[-9.746695,53.485898],[-9.746538,53.485614],[-9.746535,53.485608],[-9.746532,53.485603],[-9.74653,53.485598],[-9.746509,53.485556]],[[-9.748714,53.491521],[-9.748703,53.491251],[-9.749155,53.491245],[-9.749166,53.491514],[-9.749188,53.492053],[-9.74921,53.492592],[-9.748758,53.492599],[-9.748736,53.49206],[-9.748284,53.492066],[-9.748262,53.491528],[-9.748714,53.491521]],[[-9.748692,53.490982],[-9.748703,53.491251],[-9.748251,53.491258],[-9.74824,53.490989],[-9.748692,53.490982]]],[[[-9.745604,53.498844],[-9.745659,53.49885],[-9.745713,53.498859],[-9.745765,53.498869],[-9.745844,53.498887],[-9.745846,53.498887],[-9.745822,53.498297],[-9.745771,53.498313],[-9.745713,53.498327],[-9.745654,53.498339],[-9.745593,53.498348],[-9.745532,53.498354],[-9.745469,53.498357],[-9.745427,53.498359],[-9.745367,53.498369],[-9.745305,53.498375],[-9.745249,53.498379],[-9.745191,53.498393],[-9.745131,53.498404],[-9.74507,53.498412],[-9.745008,53.498416],[-9.744987,53.498417],[-9.74482,53.498423],[-9.744781,53.498424],[-9.744743,53.498424],[-9.744704,53.498422],[-9.744612,53.498417],[-9.744609,53.498417],[-9.744605,53.498417],[-9.744602,53.498417],[-9.74449,53.49841],[-9.744468,53.498408],[-9.744447,53.498406],[-9.744427,53.498404],[-9.744391,53.498404],[-9.744328,53.498403],[-9.744266,53.498399],[-9.744205,53.498391],[-9.744145,53.498381],[-9.744087,53.498368],[-9.74403,53.498352],[-9.743976,53.498333],[-9.74393,53.498314],[-9.743865,53.498284],[-9.743816,53.49826],[-9.743771,53.498234],[-9.74373,53.498206],[-9.743693,53.498176],[-9.74366,53.498145],[-9.743632,53.498111],[-9.743608,53.498077],[-9.743604,53.49807],[-9.743578,53.498023],[-9.743562,53.497993],[-9.743551,53.497963],[-9.743543,53.497932],[-9.743527,53.497855],[-9.743467,53.497627],[-9.743463,53.497609],[-9.74346,53.497591],[-9.743458,53.497573],[-9.743457,53.497554],[-9.743435,53.497526],[-9.743411,53.497521],[-9.743354,53.497505],[-9.7433,53.497487],[-9.743256,53.497469],[-9.743219,53.497454],[-9.74317,53.49743],[-9.743124,53.497405],[-9.743103,53.497391],[-9.742821,53.497395],[-9.742791,53.497469],[-9.742774,53.497504],[-9.742752,53.497539],[-9.742745,53.497571],[-9.74274,53.497749],[-9.742737,53.497786],[-9.742728,53.497823],[-9.742714,53.497859],[-9.742707,53.497875],[-9.742675,53.497948],[-9.74269,53.497976],[-9.742741,53.498082],[-9.742755,53.498118],[-9.742765,53.498155],[-9.742769,53.498192],[-9.742768,53.498224],[-9.74276,53.498343],[-9.742755,53.498379],[-9.742744,53.498416],[-9.742729,53.498452],[-9.742731,53.498458],[-9.742751,53.498493],[-9.742767,53.498529],[-9.742777,53.498566],[-9.742779,53.498576],[-9.742783,53.498601],[-9.742813,53.498612],[-9.742866,53.498634],[-9.742914,53.498657],[-9.742961,53.498677],[-9.742972,53.49868],[-9.742985,53.49868],[-9.743028,53.498678],[-9.743099,53.498673],[-9.743161,53.49867],[-9.743224,53.49867],[-9.743286,53.498673],[-9.743347,53.498679],[-9.743408,53.498689],[-9.743467,53.498701],[-9.743524,53.498716],[-9.743579,53.498734],[-9.743616,53.498747],[-9.743636,53.498756],[-9.743716,53.498762],[-9.743777,53.498769],[-9.743837,53.498779],[-9.743894,53.498791],[-9.743993,53.498815],[-9.744129,53.498844],[-9.744188,53.498858],[-9.744244,53.498875],[-9.744297,53.498894],[-9.744348,53.498916],[-9.744374,53.498929],[-9.744403,53.498944],[-9.744423,53.498952],[-9.744524,53.498975],[-9.744532,53.498976],[-9.744621,53.498976],[-9.744683,53.498978],[-9.74473,53.498973],[-9.744779,53.498951],[-9.744832,53.49893],[-9.744843,53.498927],[-9.744925,53.498899],[-9.74498,53.498882],[-9.745038,53.498868],[-9.745097,53.498856],[-9.745152,53.498849],[-9.745221,53.49884],[-9.745283,53.498835],[-9.745345,53.498832],[-9.745408,53.498832],[-9.745417,53.498833],[-9.745475,53.498835],[-9.745494,53.498836],[-9.745514,53.498837],[-9.745532,53.498838],[-9.745604,53.498844]]],[[[-9.747257,53.499569],[-9.747275,53.499605],[-9.747275,53.499606],[-9.747352,53.499709],[-9.747388,53.499734],[-9.747363,53.499126],[-9.74658,53.499137],[-9.746622,53.499158],[-9.746727,53.499208],[-9.746784,53.499235],[-9.7468,53.499243],[-9.746814,53.499251],[-9.746828,53.499258],[-9.74687,53.499281],[-9.747055,53.499384],[-9.7471,53.49941],[-9.74714,53.499439],[-9.747176,53.499469],[-9.747208,53.499501],[-9.747235,53.499535],[-9.747257,53.499569]]],[[[-9.757401,53.516791],[-9.757386,53.516827],[-9.757367,53.516862],[-9.757343,53.516896],[-9.757315,53.51693],[-9.75729,53.516952],[-9.757524,53.516949],[-9.757526,53.516948],[-9.757539,53.516938],[-9.757587,53.516905],[-9.757629,53.516878],[-9.757676,53.516853],[-9.757725,53.516831],[-9.757778,53.516811],[-9.757833,53.516793],[-9.75789,53.516778],[-9.75795,53.516767],[-9.75801,53.516758],[-9.758072,53.516752],[-9.758102,53.51675],[-9.758164,53.516747],[-9.758313,53.516738],[-9.758376,53.516736],[-9.758438,53.516736],[-9.7585,53.51674],[-9.758561,53.516747],[-9.758756,53.516773],[-9.758817,53.516783],[-9.758875,53.516796],[-9.758932,53.516811],[-9.758987,53.51683],[-9.759001,53.516835],[-9.759317,53.516958],[-9.759352,53.516972],[-9.759384,53.516987],[-9.759414,53.517003],[-9.759579,53.517093],[-9.759611,53.517111],[-9.75964,53.51713],[-9.759667,53.517149],[-9.759736,53.517202],[-9.759772,53.517233],[-9.759804,53.517265],[-9.759831,53.517298],[-9.759854,53.517333],[-9.759872,53.517369],[-9.75988,53.517391],[-9.759913,53.517491],[-9.759916,53.517502],[-9.759919,53.517513],[-9.759921,53.517523],[-9.759958,53.517706],[-9.759963,53.517743],[-9.759963,53.51778],[-9.759958,53.517817],[-9.75994,53.517898],[-9.759991,53.517946],[-9.760005,53.51796],[-9.760019,53.517975],[-9.760031,53.517989],[-9.760115,53.518091],[-9.76014,53.518126],[-9.76016,53.518161],[-9.760175,53.518197],[-9.760185,53.518234],[-9.76019,53.51827],[-9.760194,53.518341],[-9.760194,53.518378],[-9.760189,53.518415],[-9.760178,53.518452],[-9.760163,53.518488],[-9.760142,53.518523],[-9.760219,53.518572],[-9.760269,53.518595],[-9.760315,53.51862],[-9.760358,53.518647],[-9.760397,53.518676],[-9.760415,53.518692],[-9.760567,53.518829],[-9.7606,53.518862],[-9.760628,53.518895],[-9.76065,53.51893],[-9.760657,53.518941],[-9.760715,53.51905],[-9.760724,53.519069],[-9.760732,53.519088],[-9.760738,53.519106],[-9.76075,53.519147],[-9.760753,53.519155],[-9.760755,53.519163],[-9.760756,53.519171],[-9.760765,53.519213],[-9.760765,53.519214],[-9.760766,53.519214],[-9.760766,53.519215],[-9.760772,53.519244],[-9.760971,53.519316],[-9.761023,53.519337],[-9.761072,53.51936],[-9.761118,53.519386],[-9.76116,53.519413],[-9.761177,53.519425],[-9.76124,53.519475],[-9.761257,53.519487],[-9.761343,53.51955],[-9.761364,53.519566],[-9.761383,53.519582],[-9.761401,53.519598],[-9.761455,53.51965],[-9.761477,53.51966],[-9.761532,53.519677],[-9.761585,53.519697],[-9.761635,53.51972],[-9.761681,53.519745],[-9.761724,53.519772],[-9.761763,53.519801],[-9.761796,53.51983],[-9.761799,53.519833],[-9.761834,53.519828],[-9.762226,53.519755],[-9.762172,53.519617],[-9.762039,53.519309],[-9.761945,53.519142],[-9.761839,53.518921],[-9.761756,53.518658],[-9.761593,53.518301],[-9.761513,53.51812],[-9.761526,53.51807],[-9.761773,53.517908],[-9.761625,53.517626],[-9.761594,53.517551],[-9.7617,53.517405],[-9.761806,53.517252],[-9.761792,53.517128],[-9.761738,53.516989],[-9.761651,53.51682],[-9.761524,53.516623],[-9.761436,53.516437],[-9.761342,53.516284],[-9.761347,53.516134],[-9.761382,53.516068],[-9.761444,53.516008],[-9.761476,53.515991],[-9.76153,53.515961],[-9.761646,53.515913],[-9.761766,53.515871],[-9.761849,53.515841],[-9.761881,53.515821],[-9.761904,53.515779],[-9.761939,53.515703],[-9.762002,53.515646],[-9.762077,53.515622],[-9.762129,53.51561],[-9.76216,53.515598],[-9.762169,53.51559],[-9.76217,53.515581],[-9.76216,53.515559],[-9.762147,53.515531],[-9.762141,53.515511],[-9.762125,53.515493],[-9.76209,53.515458],[-9.762052,53.515404],[-9.762039,53.515349],[-9.76206,53.5153],[-9.762109,53.515267],[-9.762163,53.515248],[-9.762199,53.515235],[-9.762218,53.515221],[-9.762226,53.515209],[-9.762227,53.515184],[-9.762219,53.515145],[-9.7622,53.515113],[-9.762161,53.515079],[-9.762096,53.515028],[-9.762042,53.514965],[-9.762025,53.514896],[-9.762054,53.514823],[-9.76213,53.514746],[-9.762226,53.514673],[-9.762311,53.514622],[-9.762389,53.514583],[-9.762471,53.514551],[-9.76256,53.514527],[-9.762643,53.514513],[-9.762724,53.514506],[-9.762821,53.514503],[-9.762934,53.514511],[-9.763057,53.514527],[-9.763195,53.514543],[-9.763347,53.51455],[-9.763482,53.514546],[-9.763561,53.514535],[-9.763597,53.514521],[-9.763618,53.5145],[-9.763643,53.514451],[-9.763667,53.514387],[-9.763818,53.514293],[-9.763969,53.514236],[-9.764082,53.514208],[-9.764242,53.514154],[-9.763058,53.514172],[-9.763021,53.513274],[-9.761514,53.513296],[-9.76144,53.5115],[-9.759933,53.511522],[-9.759896,53.510624],[-9.758389,53.510646],[-9.758315,53.50885],[-9.756808,53.508872],[-9.756734,53.507076],[-9.755228,53.507098],[-9.755204,53.506525],[-9.753855,53.506545],[-9.753844,53.506276],[-9.755193,53.506256],[-9.755191,53.5062],[-9.753684,53.506222],[-9.753647,53.505324],[-9.752141,53.505346],[-9.752104,53.504448],[-9.750597,53.50447],[-9.75056,53.503572],[-9.749054,53.503594],[-9.749017,53.502696],[-9.748424,53.502705],[-9.748431,53.502718],[-9.748472,53.502802],[-9.748478,53.502815],[-9.748483,53.502828],[-9.748487,53.50284],[-9.748499,53.502876],[-9.748522,53.502944],[-9.748531,53.502981],[-9.748536,53.503018],[-9.748535,53.503055],[-9.748532,53.503078],[-9.748524,53.503122],[-9.748543,53.503199],[-9.748549,53.503236],[-9.74855,53.503273],[-9.748546,53.503311],[-9.748538,53.503343],[-9.748517,53.503415],[-9.748521,53.50348],[-9.74854,53.503553],[-9.748544,53.503571],[-9.748547,53.503588],[-9.748549,53.503606],[-9.748549,53.50361],[-9.748566,53.50367],[-9.748573,53.503703],[-9.748576,53.503735],[-9.748576,53.503768],[-9.748569,53.503849],[-9.748567,53.503863],[-9.748565,53.503878],[-9.748561,53.503893],[-9.748513,53.504084],[-9.748509,53.5041],[-9.748504,53.504116],[-9.748501,53.504129],[-9.7485,53.504166],[-9.748496,53.504194],[-9.748468,53.504336],[-9.74846,53.50441],[-9.748463,53.504425],[-9.748468,53.504446],[-9.74847,53.504467],[-9.748472,53.504488],[-9.748473,53.504571],[-9.748471,53.504608],[-9.748463,53.504645],[-9.748451,53.504681],[-9.748434,53.504717],[-9.748412,53.504752],[-9.748385,53.504785],[-9.748353,53.504817],[-9.748321,53.504845],[-9.748272,53.504884],[-9.748235,53.504911],[-9.748194,53.504937],[-9.748148,53.504961],[-9.747996,53.505047],[-9.747957,53.505077],[-9.747914,53.505103],[-9.747868,53.505128],[-9.747818,53.505151],[-9.747757,53.505191],[-9.747731,53.505224],[-9.747701,53.505257],[-9.747665,53.505287],[-9.74763,53.505314],[-9.747572,53.505353],[-9.74753,53.50538],[-9.747484,53.505405],[-9.747434,53.505427],[-9.747381,53.505447],[-9.747326,53.505464],[-9.747269,53.505479],[-9.747227,53.505501],[-9.74718,53.505578],[-9.747167,53.505597],[-9.747164,53.505602],[-9.747145,53.505627],[-9.747123,53.505651],[-9.747071,53.505704],[-9.747041,53.505732],[-9.747008,53.505758],[-9.746972,53.505784],[-9.746944,53.505801],[-9.74691,53.505823],[-9.746866,53.505849],[-9.746826,53.505869],[-9.746819,53.505873],[-9.746779,53.505914],[-9.746787,53.505932],[-9.746796,53.50596],[-9.74683,53.505981],[-9.74687,53.50601],[-9.746906,53.50604],[-9.746937,53.506072],[-9.746952,53.50609],[-9.746986,53.506133],[-9.746991,53.506139],[-9.747015,53.506173],[-9.747035,53.506209],[-9.747049,53.506245],[-9.747058,53.506282],[-9.747063,53.506314],[-9.747082,53.506398],[-9.747096,53.506434],[-9.747106,53.506471],[-9.747111,53.506508],[-9.747138,53.506539],[-9.747149,53.506551],[-9.747209,53.506616],[-9.747237,53.50665],[-9.74726,53.506684],[-9.747274,53.506712],[-9.747278,53.50672],[-9.747291,53.506756],[-9.747299,53.506793],[-9.747302,53.50683],[-9.747302,53.506839],[-9.747298,53.506965],[-9.747299,53.507105],[-9.747297,53.507142],[-9.747289,53.507179],[-9.747277,53.507216],[-9.747259,53.507251],[-9.747256,53.507257],[-9.747194,53.50736],[-9.747201,53.507402],[-9.747218,53.507438],[-9.74723,53.507474],[-9.747236,53.507511],[-9.747238,53.507524],[-9.74724,53.507562],[-9.74724,53.507592],[-9.747237,53.507621],[-9.747231,53.507651],[-9.747215,53.50771],[-9.747203,53.507746],[-9.747186,53.507781],[-9.747164,53.507816],[-9.747098,53.507908],[-9.747088,53.507935],[-9.747095,53.507963],[-9.747097,53.507968],[-9.747098,53.507973],[-9.747099,53.507978],[-9.747102,53.507992],[-9.74713,53.507992],[-9.747132,53.508043],[-9.747225,53.508151],[-9.747253,53.508184],[-9.747276,53.508219],[-9.747294,53.508255],[-9.747307,53.508291],[-9.74731,53.508304],[-9.747348,53.508468],[-9.747352,53.508483],[-9.747354,53.508498],[-9.747355,53.508513],[-9.747368,53.50871],[-9.747368,53.508735],[-9.747366,53.508761],[-9.747361,53.508787],[-9.747323,53.508952],[-9.747319,53.508968],[-9.747314,53.508985],[-9.747307,53.509002],[-9.747244,53.509148],[-9.747227,53.509184],[-9.747204,53.509218],[-9.747182,53.509245],[-9.747186,53.509339],[-9.747157,53.50934],[-9.747157,53.509348],[-9.747151,53.509385],[-9.74714,53.509421],[-9.747137,53.509429],[-9.747105,53.509511],[-9.747101,53.50952],[-9.747096,53.50953],[-9.747092,53.50954],[-9.747084,53.509553],[-9.747087,53.509555],[-9.747126,53.509584],[-9.747161,53.509615],[-9.747191,53.509648],[-9.747217,53.509681],[-9.747238,53.509716],[-9.747254,53.509752],[-9.747265,53.509789],[-9.747269,53.509813],[-9.747271,53.509826],[-9.747271,53.509839],[-9.747272,53.509863],[-9.747268,53.5099],[-9.747258,53.509937],[-9.747252,53.509951],[-9.747243,53.509973],[-9.747232,53.509993],[-9.747224,53.510008],[-9.747199,53.510043],[-9.74717,53.510075],[-9.747137,53.510107],[-9.747136,53.510107],[-9.747105,53.510134],[-9.747068,53.510163],[-9.747026,53.510191],[-9.74698,53.510216],[-9.746932,53.510239],[-9.74688,53.51026],[-9.746825,53.510278],[-9.74679,53.510288],[-9.746773,53.510292],[-9.746777,53.510392],[-9.746777,53.510393],[-9.746782,53.51043],[-9.746782,53.510467],[-9.746782,53.510468],[-9.746781,53.510492],[-9.746789,53.510693],[-9.74673,53.510694],[-9.746726,53.510701],[-9.746709,53.510725],[-9.746653,53.510798],[-9.746625,53.51083],[-9.746592,53.510862],[-9.746555,53.510892],[-9.746532,53.510908],[-9.746443,53.510968],[-9.746401,53.510994],[-9.746354,53.511019],[-9.746304,53.511041],[-9.746251,53.511061],[-9.746246,53.511063],[-9.746091,53.511115],[-9.74607,53.511121],[-9.746048,53.511128],[-9.746025,53.511134],[-9.745918,53.511162],[-9.74586,53.511175],[-9.745877,53.511219],[-9.74588,53.511224],[-9.745881,53.511228],[-9.745883,53.511232],[-9.745888,53.511246],[-9.745907,53.511245],[-9.745909,53.511303],[-9.745959,53.511435],[-9.745971,53.511471],[-9.745977,53.511507],[-9.745978,53.511544],[-9.745976,53.511602],[-9.745971,53.511639],[-9.745962,53.511676],[-9.745948,53.511712],[-9.745929,53.511748],[-9.745928,53.511749],[-9.745931,53.511837],[-9.745933,53.511838],[-9.745966,53.51187],[-9.745972,53.511877],[-9.746071,53.511985],[-9.746078,53.511993],[-9.746084,53.512],[-9.746089,53.512007],[-9.746125,53.512051],[-9.746392,53.512047],[-9.746403,53.512317],[-9.746415,53.512586],[-9.746427,53.512898],[-9.746528,53.512949],[-9.746697,53.51301],[-9.74675,53.513031],[-9.746798,53.513054],[-9.746844,53.513079],[-9.746886,53.513107],[-9.746908,53.513123],[-9.746976,53.513177],[-9.747012,53.513208],[-9.747044,53.51324],[-9.74707,53.513274],[-9.747092,53.513309],[-9.747109,53.513345],[-9.747121,53.513381],[-9.747128,53.513417],[-9.747137,53.513496],[-9.747154,53.513605],[-9.747157,53.513642],[-9.747155,53.51368],[-9.747147,53.513717],[-9.747135,53.513753],[-9.747117,53.513789],[-9.747095,53.513823],[-9.747068,53.513857],[-9.747062,53.513864],[-9.747016,53.513913],[-9.746984,53.513945],[-9.746947,53.513975],[-9.746925,53.51399],[-9.746933,53.514196],[-9.746728,53.514199],[-9.74671,53.514232],[-9.746706,53.514269],[-9.746696,53.514306],[-9.746693,53.514317],[-9.746646,53.514448],[-9.74663,53.514483],[-9.74661,53.514518],[-9.746586,53.51455],[-9.746585,53.514562],[-9.746641,53.514579],[-9.746695,53.514598],[-9.746745,53.51462],[-9.746792,53.514644],[-9.746836,53.514671],[-9.746876,53.514699],[-9.746912,53.51473],[-9.746918,53.514736],[-9.746955,53.514735],[-9.746957,53.514779],[-9.74697,53.514795],[-9.746991,53.514828],[-9.74705,53.514931],[-9.747156,53.514931],[-9.747219,53.514933],[-9.747281,53.514937],[-9.747342,53.514945],[-9.74736,53.514948],[-9.747645,53.514995],[-9.747871,53.514992],[-9.747872,53.515036],[-9.747917,53.515044],[-9.747994,53.515054],[-9.748055,53.515063],[-9.748114,53.515076],[-9.748171,53.515091],[-9.748226,53.515109],[-9.748278,53.515129],[-9.748327,53.515152],[-9.748341,53.515159],[-9.748438,53.515211],[-9.7485,53.515241],[-9.748552,53.515261],[-9.748601,53.515284],[-9.748647,53.51531],[-9.748689,53.515337],[-9.748707,53.51535],[-9.748761,53.515392],[-9.748773,53.515393],[-9.748834,53.515401],[-9.748894,53.515412],[-9.748952,53.515426],[-9.749008,53.515443],[-9.749062,53.515462],[-9.749112,53.515484],[-9.74916,53.515508],[-9.749203,53.515534],[-9.749243,53.515563],[-9.749279,53.515593],[-9.749311,53.515625],[-9.749338,53.515659],[-9.74936,53.515694],[-9.749378,53.515729],[-9.749383,53.515744],[-9.749401,53.515796],[-9.749404,53.515804],[-9.749407,53.515812],[-9.749409,53.51582],[-9.749418,53.515856],[-9.749427,53.515871],[-9.749452,53.515898],[-9.749696,53.516044],[-9.749724,53.516043],[-9.749724,53.516058],[-9.749928,53.516163],[-9.749975,53.516188],[-9.750017,53.516216],[-9.750028,53.516225],[-9.750074,53.516236],[-9.750129,53.516251],[-9.750181,53.516269],[-9.75023,53.516288],[-9.750338,53.516335],[-9.750348,53.516339],[-9.750357,53.516343],[-9.750366,53.516347],[-9.750478,53.516401],[-9.750493,53.516405],[-9.750643,53.516405],[-9.750639,53.516299],[-9.750895,53.516296],[-9.75094,53.516276],[-9.751082,53.516221],[-9.751079,53.516145],[-9.751333,53.516141],[-9.751379,53.516133],[-9.75144,53.516125],[-9.751478,53.516122],[-9.751616,53.516112],[-9.751678,53.516109],[-9.751741,53.516109],[-9.751803,53.516112],[-9.751864,53.516118],[-9.751905,53.516124],[-9.751954,53.516132],[-9.752441,53.516125],[-9.752436,53.516003],[-9.753019,53.515995],[-9.753086,53.515972],[-9.753141,53.515955],[-9.753198,53.515941],[-9.753258,53.515929],[-9.753316,53.515921],[-9.753514,53.515897],[-9.753576,53.515892],[-9.753638,53.515889],[-9.7537,53.515889],[-9.753713,53.51589],[-9.753874,53.515897],[-9.753936,53.515901],[-9.753998,53.515908],[-9.754058,53.515918],[-9.754116,53.515931],[-9.754146,53.515909],[-9.754164,53.515896],[-9.754223,53.515856],[-9.754239,53.515846],[-9.754234,53.515707],[-9.754674,53.515701],[-9.754811,53.515673],[-9.754824,53.515671],[-9.754836,53.515668],[-9.75485,53.515666],[-9.755108,53.515623],[-9.755168,53.515614],[-9.75523,53.515609],[-9.755292,53.515606],[-9.755355,53.515607],[-9.755417,53.51561],[-9.755479,53.515617],[-9.755539,53.515627],[-9.755598,53.515639],[-9.755637,53.515649],[-9.755775,53.515688],[-9.755832,53.515693],[-9.75585,53.515694],[-9.755868,53.515696],[-9.755885,53.515698],[-9.755956,53.515706],[-9.756017,53.515715],[-9.756077,53.515727],[-9.756134,53.515741],[-9.756189,53.515758],[-9.756242,53.515778],[-9.756292,53.515801],[-9.756338,53.515826],[-9.756381,53.515853],[-9.75642,53.515882],[-9.756462,53.515884],[-9.756504,53.515885],[-9.756576,53.515888],[-9.756638,53.515892],[-9.756699,53.515899],[-9.75676,53.515909],[-9.756818,53.515922],[-9.756875,53.515938],[-9.756929,53.515956],[-9.75698,53.515978],[-9.757029,53.516001],[-9.757073,53.516027],[-9.757114,53.516054],[-9.757151,53.516082],[-9.757189,53.516112],[-9.757222,53.516144],[-9.75725,53.516177],[-9.757274,53.516211],[-9.757285,53.516231],[-9.757309,53.516277],[-9.757312,53.516283],[-9.757315,53.516289],[-9.757318,53.516294],[-9.757361,53.516391],[-9.75737,53.516411],[-9.757376,53.516431],[-9.757381,53.516451],[-9.75741,53.516587],[-9.757414,53.516609],[-9.757416,53.516631],[-9.757416,53.516654],[-9.757414,53.516717],[-9.75741,53.516754],[-9.757401,53.516791]],[[-9.752058,53.506841],[-9.751154,53.506854],[-9.751143,53.506585],[-9.750691,53.506592],[-9.750702,53.506861],[-9.749798,53.506874],[-9.749809,53.507144],[-9.749357,53.50715],[-9.749346,53.506881],[-9.749335,53.506612],[-9.750239,53.506598],[-9.750228,53.506329],[-9.75294,53.506289],[-9.752951,53.506559],[-9.752047,53.506572],[-9.752058,53.506841]],[[-9.759006,53.510784],[-9.759017,53.511053],[-9.758565,53.51106],[-9.758554,53.51079],[-9.759006,53.510784]],[[-9.759028,53.511323],[-9.759017,53.511053],[-9.759469,53.511047],[-9.75948,53.511316],[-9.759028,53.511323]],[[-9.752236,53.511153],[-9.751784,53.511159],[-9.751795,53.511429],[-9.751343,53.511436],[-9.751332,53.511166],[-9.751321,53.510897],[-9.752225,53.510883],[-9.752236,53.511153]],[[-9.762294,53.513701],[-9.761841,53.513708],[-9.76183,53.513439],[-9.762282,53.513432],[-9.762294,53.513701]],[[-9.761389,53.513715],[-9.761841,53.513708],[-9.761853,53.513977],[-9.761401,53.513984],[-9.761389,53.513715]],[[-9.760496,53.513997],[-9.761401,53.513984],[-9.761412,53.514254],[-9.76096,53.51426],[-9.760971,53.51453],[-9.760519,53.514536],[-9.76053,53.514806],[-9.759174,53.514826],[-9.759162,53.514556],[-9.75871,53.514563],[-9.758699,53.514294],[-9.757343,53.514314],[-9.757332,53.514044],[-9.75732,53.513775],[-9.759129,53.513748],[-9.75914,53.514017],[-9.759592,53.514011],[-9.759603,53.51428],[-9.760508,53.514267],[-9.760496,53.513997]],[[-9.756483,53.515405],[-9.756031,53.515411],[-9.75602,53.515142],[-9.755568,53.515149],[-9.755557,53.514879],[-9.756461,53.514866],[-9.756472,53.515135],[-9.756483,53.515405]],[[-9.750372,53.509832],[-9.749468,53.509845],[-9.749457,53.509576],[-9.750361,53.509562],[-9.750372,53.509832]],[[-9.749942,53.510378],[-9.749038,53.510391],[-9.749027,53.510121],[-9.749931,53.510108],[-9.749942,53.510378]],[[-9.751035,53.514945],[-9.750583,53.514952],[-9.750572,53.514682],[-9.751024,53.514676],[-9.751035,53.514945]],[[-9.748575,53.510128],[-9.748123,53.510135],[-9.748112,53.509865],[-9.748564,53.509858],[-9.748575,53.510128]]]]}}]}
