{"type":"FeatureCollection","features":[{"type":"Feature","properties":{"source_fid":2842839,"county":"Westmeath","bog_geom_ha":123.31462342294685,"low15_pct":100.0,"low15_ha":123.31462342294685,"overlay_ha":123.31462342294685,"area_delta":0.0},"geometry":{"type":"MultiPolygon","coordinates":[[[[-7.050587,53.559706],[-7.050587,53.559706],[-7.050587,53.559706],[-7.050837,53.559721],[-7.051087,53.559736],[-7.051142,53.55974],[-7.051193,53.559743],[-7.051964,53.559793],[-7.054142,53.559933],[-7.055892,53.560039],[-7.057441,53.560133],[-7.057555,53.56014],[-7.057741,53.560156],[-7.057978,53.56017],[-7.059213,53.560244],[-7.061331,53.560372],[-7.064494,53.55966],[-7.06631,53.559225],[-7.066322,53.559222],[-7.066359,53.559213],[-7.066386,53.559206],[-7.066418,53.559197],[-7.066464,53.559185],[-7.069888,53.558397],[-7.070585,53.558234],[-7.07297,53.557679],[-7.073816,53.557477],[-7.073873,53.557474],[-7.073873,53.557474],[-7.073873,53.557474],[-7.074122,53.557462],[-7.076661,53.557373],[-7.078016,53.557315],[-7.079834,53.557231],[-7.077001,53.552736],[-7.075963,53.553095],[-7.075668,53.553197],[-7.075309,53.553323],[-7.075181,53.55336],[-7.075067,53.553383],[-7.074827,53.553414],[-7.074364,53.553464],[-7.073735,53.553532],[-7.073101,53.553602],[-7.069367,53.553996],[-7.068642,53.554077],[-7.067321,53.554225],[-7.067319,53.554225],[-7.067251,53.554234],[-7.066388,53.554333],[-7.065335,53.554446],[-7.063961,53.554578],[-7.06395,53.55458],[-7.062483,53.554748],[-7.062334,53.554761],[-7.062234,53.554755],[-7.062142,53.554744],[-7.062013,53.554714],[-7.060917,53.554386],[-7.06005,53.554128],[-7.059255,53.55389],[-7.059076,53.553837],[-7.05906,53.553832],[-7.058323,53.553612],[-7.058013,53.553686],[-7.05643,53.554063],[-7.053047,53.55487],[-7.051658,53.555201],[-7.050038,53.555587],[-7.048912,53.555855],[-7.04779,53.556127],[-7.046275,53.556494],[-7.045912,53.556581],[-7.04562,53.556652],[-7.045708,53.556833],[-7.046152,53.557539],[-7.046152,53.557539],[-7.046152,53.557539],[-7.045652,53.557723],[-7.045485,53.557784],[-7.044894,53.55797],[-7.043407,53.557647],[-7.043407,53.557647],[-7.043496,53.557443],[-7.043554,53.557308],[-7.043664,53.557114],[-7.042999,53.557277],[-7.038325,53.558425],[-7.036825,53.558836],[-7.037017,53.558849],[-7.03709,53.55885],[-7.038628,53.558954],[-7.038676,53.558956],[-7.038678,53.558956],[-7.03907,53.558981],[-7.04302,53.559231],[-7.04379,53.559279],[-7.044336,53.559312],[-7.046445,53.559441],[-7.046445,53.559441],[-7.046912,53.55947],[-7.047882,53.559534],[-7.047963,53.559541],[-7.049005,53.559608],[-7.049129,53.559617],[-7.050587,53.559706]]]]}}]}
