{"type":"FeatureCollection","features":[{"type":"Feature","properties":{"source_fid":2900532,"county":"Donegal","bog_geom_ha":179.888411971099,"low15_pct":71.580010095911149,"low15_ha":128.76414345028692,"overlay_ha":128.98593575525763,"area_delta":0.22179230497070535},"geometry":{"type":"MultiPolygon","coordinates":[[[[-8.012354,55.121764],[-8.012246,55.121841],[-8.012007,55.122029],[-8.011284,55.122181],[-8.010029,55.122443],[-8.009355,55.12284],[-8.009358,55.122888],[-8.00936,55.122907],[-8.009356,55.12296],[-8.009318,55.123007],[-8.009291,55.123041],[-8.009194,55.123092],[-8.009139,55.123122],[-8.009126,55.123134],[-8.009093,55.123164],[-8.009038,55.123208],[-8.008977,55.123258],[-8.008849,55.123361],[-8.008678,55.123486],[-8.008678,55.123537],[-8.008605,55.123537],[-8.00859,55.123546],[-8.008547,55.123572],[-8.008365,55.123673],[-8.008345,55.123686],[-8.008283,55.123725],[-8.00819,55.123779],[-8.008159,55.123808],[-8.008136,55.12383],[-8.008086,55.123888],[-8.007997,55.123989],[-8.007928,55.124081],[-8.007913,55.124186],[-8.007809,55.124282],[-8.007739,55.124309],[-8.007741,55.124326],[-8.007743,55.124343],[-8.007706,55.124388],[-8.007689,55.124408],[-8.007593,55.124498],[-8.00755,55.124538],[-8.00741,55.124645],[-8.00741,55.124645],[-8.00741,55.124645],[-8.007363,55.124664],[-8.007309,55.124686],[-8.00731,55.124687],[-8.007317,55.124708],[-8.007269,55.124741],[-8.007252,55.124753],[-8.007091,55.124827],[-8.007042,55.124849],[-8.007042,55.124849],[-8.006929,55.124881],[-8.006876,55.124898],[-8.006723,55.124946],[-8.006642,55.124989],[-8.006494,55.125045],[-8.0064,55.125086],[-8.006374,55.125097],[-8.006137,55.125174],[-8.006098,55.125207],[-8.005982,55.125284],[-8.005905,55.125335],[-8.005869,55.125342],[-8.005831,55.125349],[-8.005761,55.125379],[-8.005703,55.125405],[-8.005604,55.125456],[-8.005594,55.125461],[-8.005415,55.125535],[-8.005369,55.125553],[-8.005295,55.125583],[-8.005218,55.125617],[-8.005159,55.125643],[-8.005066,55.125691],[-8.004942,55.125803],[-8.004877,55.125856],[-8.004825,55.125869],[-8.004811,55.125872],[-8.004663,55.125953],[-8.004659,55.125955],[-8.00452,55.126029],[-8.00448,55.126134],[-8.00447,55.126159],[-8.004468,55.126162],[-8.004416,55.126224],[-8.004409,55.126232],[-8.004704,55.126232],[-8.004704,55.126011],[-8.005644,55.126011],[-8.005644,55.125741],[-8.008937,55.125741],[-8.008937,55.126011],[-8.008937,55.12628],[-8.007526,55.12628],[-8.007526,55.12655],[-8.006585,55.12655],[-8.006585,55.126819],[-8.006115,55.126819],[-8.006115,55.127089],[-8.005644,55.127089],[-8.005644,55.127358],[-8.004704,55.127358],[-8.004704,55.127628],[-8.003763,55.127628],[-8.003763,55.127898],[-8.003763,55.128167],[-8.003763,55.128437],[-8.002822,55.128437],[-8.002822,55.128706],[-8.002409,55.128706],[-8.002409,55.128927],[-8.002352,55.128927],[-8.002352,55.128976],[-8.000941,55.128976],[-8.000941,55.129245],[-8.00047,55.129245],[-8.00047,55.129515],[-8.000941,55.129515],[-8.000941,55.129784],[-8.001882,55.129784],[-8.001882,55.129515],[-8.002822,55.129515],[-8.002822,55.129245],[-8.004234,55.129245],[-8.004233,55.128976],[-8.004704,55.128976],[-8.004704,55.128706],[-8.004704,55.128437],[-8.004704,55.128167],[-8.005544,55.128167],[-8.005544,55.128028],[-8.005645,55.128028],[-8.005644,55.127897],[-8.008467,55.127897],[-8.008467,55.127628],[-8.009407,55.127628],[-8.009407,55.127897],[-8.008937,55.127897],[-8.008937,55.128028],[-8.011759,55.128028],[-8.011759,55.127897],[-8.011814,55.127897],[-8.011814,55.12713],[-8.013381,55.12713],[-8.013382,55.127358],[-8.013641,55.127358],[-8.013641,55.127088],[-8.014581,55.127088],[-8.014581,55.126819],[-8.015052,55.126819],[-8.015052,55.127088],[-8.015052,55.127358],[-8.014581,55.127358],[-8.014582,55.127627],[-8.014582,55.127897],[-8.015052,55.127897],[-8.015052,55.127627],[-8.015522,55.127627],[-8.015522,55.127358],[-8.015993,55.127358],[-8.015992,55.127088],[-8.015992,55.126818],[-8.016463,55.126818],[-8.016463,55.126549],[-8.016933,55.126549],[-8.016933,55.126279],[-8.017874,55.126279],[-8.017873,55.12601],[-8.018084,55.12601],[-8.018083,55.125333],[-8.020225,55.125332],[-8.020225,55.125201],[-8.020695,55.125201],[-8.020695,55.124931],[-8.021165,55.124931],[-8.021165,55.124661],[-8.022576,55.124661],[-8.022576,55.124392],[-8.022106,55.124392],[-8.022106,55.124122],[-8.021635,55.124122],[-8.021635,55.123853],[-8.021635,55.123583],[-8.023046,55.123583],[-8.023046,55.123853],[-8.023516,55.123852],[-8.023517,55.124122],[-8.023517,55.124391],[-8.023987,55.124391],[-8.023987,55.124661],[-8.023517,55.124661],[-8.023517,55.124931],[-8.023517,55.1252],[-8.022576,55.1252],[-8.022577,55.12547],[-8.022106,55.12547],[-8.022106,55.125739],[-8.021636,55.125739],[-8.021636,55.126009],[-8.021219,55.126009],[-8.021219,55.12623],[-8.02133,55.12623],[-8.021381,55.126153],[-8.021463,55.126137],[-8.02154,55.126123],[-8.021591,55.126085],[-8.021629,55.126056],[-8.021742,55.125998],[-8.021843,55.125988],[-8.02189,55.125993],[-8.021968,55.12599],[-8.02203,55.125959],[-8.022084,55.125912],[-8.022142,55.125898],[-8.02224,55.125884],[-8.022446,55.125837],[-8.022519,55.125812],[-8.022609,55.125778],[-8.022721,55.125731],[-8.022786,55.125708],[-8.022786,55.125332],[-8.023478,55.125332],[-8.023489,55.125329],[-8.023571,55.125311],[-8.023613,55.125291],[-8.02366,55.125244],[-8.023702,55.125185],[-8.023756,55.125158],[-8.023846,55.125142],[-8.023928,55.12514],[-8.024048,55.125124],[-8.024149,55.12509],[-8.024211,55.12503],[-8.024253,55.124958],[-8.0243,55.124922],[-8.024353,55.124904],[-8.024353,55.124433],[-8.025718,55.124433],[-8.025787,55.124393],[-8.025849,55.124381],[-8.02597,55.124392],[-8.026118,55.124414],[-8.026356,55.1244],[-8.026569,55.124343],[-8.026756,55.124311],[-8.026857,55.124313],[-8.026982,55.124308],[-8.027176,55.124274],[-8.02734,55.124251],[-8.027487,55.124256],[-8.027487,55.123534],[-8.029339,55.123534],[-8.031007,55.122699],[-8.030918,55.122699],[-8.03089,55.122688],[-8.03075,55.122651],[-8.030562,55.122613],[-8.030325,55.122569],[-8.030219,55.122527],[-8.030149,55.122485],[-8.030051,55.122425],[-8.03,55.122425],[-8.029961,55.122423],[-8.02984,55.122408],[-8.029764,55.122443],[-8.029685,55.122471],[-8.029676,55.122474],[-8.029557,55.122509],[-8.029483,55.122525],[-8.029378,55.122535],[-8.029319,55.122508],[-8.029249,55.122497],[-8.029112,55.122448],[-8.029069,55.12244],[-8.028972,55.122429],[-8.028952,55.122386],[-8.028901,55.122355],[-8.02878,55.122324],[-8.028741,55.122302],[-8.028643,55.122247],[-8.028593,55.122225],[-8.028495,55.122241],[-8.028449,55.12225],[-8.028375,55.122259],[-8.028324,55.122254],[-8.028184,55.122224],[-8.028113,55.122206],[-8.028094,55.122175],[-8.028004,55.122135],[-8.027937,55.122126],[-8.027801,55.122124],[-8.027665,55.122118],[-8.027637,55.122103],[-8.02761,55.122078],[-8.027571,55.122074],[-8.027548,55.122105],[-8.027579,55.122134],[-8.027529,55.122145],[-8.027498,55.122146],[-8.027474,55.122139],[-8.027431,55.122115],[-8.027365,55.122092],[-8.027295,55.122093],[-8.027213,55.12212],[-8.027089,55.122142],[-8.026968,55.12215],[-8.026929,55.12215],[-8.026886,55.122136],[-8.026863,55.122121],[-8.026808,55.12213],[-8.026762,55.122161],[-8.026699,55.12217],[-8.026606,55.122146],[-8.026539,55.122097],[-8.026441,55.122055],[-8.02648,55.122019],[-8.026492,55.121993],[-8.026476,55.121972],[-8.026437,55.12195],[-8.026401,55.121933],[-8.0263,55.121922],[-8.026238,55.121915],[-8.026214,55.1219],[-8.026218,55.121882],[-8.026249,55.121859],[-8.026241,55.121824],[-8.026221,55.121788],[-8.02619,55.121757],[-8.026108,55.121715],[-8.026057,55.121684],[-8.025994,55.121673],[-8.025963,55.121682],[-8.025956,55.121713],[-8.025956,55.121749],[-8.025906,55.121773],[-8.025824,55.121776],[-8.025796,55.121763],[-8.025773,55.121743],[-8.025718,55.121734],[-8.025632,55.121703],[-8.025523,55.121685],[-8.025496,55.121668],[-8.025464,55.121643],[-8.025414,55.121614],[-8.025374,55.121588],[-8.025366,55.121567],[-8.025289,55.121577],[-8.025238,55.121566],[-8.025211,55.121552],[-8.025206,55.121526],[-8.025257,55.121501],[-8.025331,55.121485],[-8.025346,55.121467],[-8.025346,55.12144],[-8.02535,55.121418],[-8.025342,55.121378],[-8.025302,55.121342],[-8.025216,55.121291],[-8.025161,55.121244],[-8.025052,55.121185],[-8.024997,55.121167],[-8.02495,55.121151],[-8.024911,55.121172],[-8.024861,55.121181],[-8.024795,55.121183],[-8.024763,55.121159],[-8.024763,55.121134],[-8.024755,55.121072],[-8.024743,55.121036],[-8.024739,55.121011],[-8.024738,55.120976],[-8.024719,55.120951],[-8.02466,55.120938],[-8.024551,55.120934],[-8.024544,55.120958],[-8.024482,55.120992],[-8.024404,55.120999],[-8.024357,55.120995],[-8.024318,55.12099],[-8.024283,55.120961],[-8.024251,55.120924],[-8.024208,55.120872],[-8.024138,55.120857],[-8.024095,55.120839],[-8.024048,55.120831],[-8.024021,55.120804],[-8.024005,55.120759],[-8.023981,55.120737],[-8.023973,55.120724],[-8.024004,55.120708],[-8.024082,55.120694],[-8.024101,55.120674],[-8.024124,55.120645],[-8.024093,55.120621],[-8.024023,55.120594],[-8.023913,55.120565],[-8.023828,55.120534],[-8.023816,55.120508],[-8.023741,55.120479],[-8.023678,55.120479],[-8.023671,55.120479],[-8.023617,55.120479],[-8.023562,55.120466],[-8.023531,55.120453],[-8.023529,55.120445],[-8.023527,55.120433],[-8.02355,55.120403],[-8.023573,55.120365],[-8.023506,55.120301],[-8.023377,55.120176],[-8.023365,55.120118],[-8.023362,55.120105],[-8.02317,55.120094],[-8.022414,55.120068],[-8.022009,55.120069],[-8.021633,55.120091],[-8.021633,55.120349],[-8.021163,55.120349],[-8.021163,55.12012],[-8.020534,55.120197],[-8.020184,55.120262],[-8.01963,55.120364],[-8.018974,55.120481],[-8.018272,55.120598],[-8.01792,55.120652],[-8.017741,55.120679],[-8.017337,55.120738],[-8.017038,55.120795],[-8.016573,55.120886],[-8.016319,55.120936],[-8.015743,55.121031],[-8.015474,55.121071],[-8.015253,55.121104],[-8.014973,55.121152],[-8.014124,55.121303],[-8.013822,55.121356],[-8.013253,55.121453],[-8.013161,55.12147],[-8.013193,55.121528],[-8.013165,55.121551],[-8.012706,55.121623],[-8.01268,55.121622],[-8.012597,55.121618],[-8.012547,55.121615],[-8.012458,55.121667],[-8.012349,55.121732],[-8.012354,55.121764],[-8.012354,55.121764],[-8.012354,55.121764]],[[-8.022104,55.121157],[-8.022104,55.120888],[-8.023044,55.120888],[-8.023044,55.121157],[-8.022104,55.121157]],[[-8.017873,55.125201],[-8.017873,55.124931],[-8.019284,55.124931],[-8.019284,55.125201],[-8.017873,55.125201]],[[-8.009407,55.126011],[-8.011288,55.12601],[-8.011289,55.12628],[-8.009877,55.12628],[-8.009878,55.12655],[-8.009407,55.12655],[-8.009407,55.12628],[-8.009407,55.126011]],[[-8.010818,55.127358],[-8.010818,55.127089],[-8.011289,55.127089],[-8.011289,55.127358],[-8.010818,55.127358]]],[[[-8.018084,55.127542],[-8.018084,55.127357],[-8.017874,55.127357],[-8.017874,55.127617],[-8.017913,55.127601],[-8.018084,55.127542]]],[[[-8.017396,55.127813],[-8.017851,55.127627],[-8.016933,55.127627],[-8.016933,55.127896],[-8.016463,55.127896],[-8.016463,55.128166],[-8.015993,55.128166],[-8.015993,55.128372],[-8.016517,55.128166],[-8.016517,55.128027],[-8.016864,55.128027],[-8.017314,55.127847],[-8.017396,55.127813]]],[[[-8.015743,55.12847],[-8.01583,55.128436],[-8.015052,55.128436],[-8.015052,55.128705],[-8.013641,55.128705],[-8.013641,55.128926],[-8.014541,55.128926],[-8.014597,55.128903],[-8.014892,55.128785],[-8.015351,55.128615],[-8.015743,55.12847]]],[[[-8.013382,55.129418],[-8.013382,55.128975],[-8.0127,55.128975],[-8.012701,55.129245],[-8.01176,55.129245],[-8.01176,55.129514],[-8.009878,55.129514],[-8.009878,55.129784],[-8.009878,55.130053],[-8.009408,55.130053],[-8.009408,55.130323],[-8.008938,55.130323],[-8.008938,55.130593],[-8.007997,55.130593],[-8.007997,55.130862],[-8.007527,55.130862],[-8.007527,55.131132],[-8.006586,55.131132],[-8.006586,55.131401],[-8.005645,55.131401],[-8.005645,55.131671],[-8.005175,55.131671],[-8.005175,55.13194],[-8.004704,55.13194],[-8.004704,55.13221],[-8.004234,55.13221],[-8.004234,55.13248],[-8.003763,55.13248],[-8.003763,55.132749],[-8.003293,55.132749],[-8.003293,55.133019],[-8.002823,55.133019],[-8.002823,55.133288],[-8.002352,55.133288],[-8.002352,55.133558],[-8.001882,55.133558],[-8.001882,55.133827],[-8.00047,55.133827],[-8.00047,55.134097],[-8.0,55.134097],[-8.0,55.134366],[-7.999059,55.134366],[-7.999059,55.134636],[-7.998589,55.134636],[-7.998589,55.134905],[-7.998118,55.134905],[-7.998118,55.135175],[-7.997177,55.135175],[-7.997177,55.135444],[-7.996707,55.135444],[-7.996707,55.135714],[-7.996236,55.135714],[-7.996236,55.135983],[-7.995295,55.135983],[-7.995295,55.136253],[-7.993884,55.136253],[-7.993884,55.136522],[-7.993413,55.136522],[-7.993413,55.136792],[-7.992472,55.136792],[-7.992472,55.137061],[-7.991531,55.137061],[-7.991531,55.137331],[-7.991531,55.1376],[-7.99012,55.1376],[-7.99012,55.137331],[-7.989179,55.137331],[-7.989179,55.137061],[-7.989649,55.137061],[-7.989649,55.136792],[-7.989866,55.136792],[-7.989866,55.136112],[-7.991061,55.136112],[-7.991061,55.135983],[-7.991434,55.135983],[-7.991434,55.135214],[-7.993002,55.135214],[-7.993002,55.135983],[-7.993413,55.135983],[-7.993413,55.135714],[-7.993884,55.135714],[-7.993884,55.135444],[-7.994825,55.135444],[-7.994825,55.135175],[-7.995766,55.135175],[-7.995766,55.134905],[-7.996707,55.134905],[-7.996707,55.134636],[-7.996707,55.134366],[-7.996707,55.134097],[-7.996707,55.133827],[-7.996707,55.133558],[-7.996707,55.133288],[-7.996707,55.133019],[-7.997177,55.133019],[-7.997177,55.132749],[-7.998118,55.132749],[-7.998118,55.13248],[-7.998589,55.13248],[-7.998589,55.13221],[-7.99953,55.13221],[-7.99953,55.131941],[-8.0,55.131941],[-8.0,55.131671],[-8.0,55.131401],[-7.99953,55.131401],[-7.99953,55.131671],[-7.999059,55.131671],[-7.999059,55.131401],[-7.999059,55.131132],[-7.99953,55.131132],[-7.99953,55.130862],[-8.0,55.130862],[-8.0,55.130593],[-8.00047,55.130593],[-8.00047,55.130323],[-8.00047,55.130054],[-8.00047,55.129784],[-7.998589,55.129784],[-7.998589,55.130054],[-7.998118,55.130054],[-7.998118,55.130323],[-7.998118,55.130593],[-7.996707,55.130593],[-7.996707,55.130862],[-7.996237,55.130862],[-7.996237,55.131132],[-7.995766,55.131132],[-7.995766,55.131401],[-7.995296,55.131401],[-7.995296,55.131671],[-7.994825,55.131671],[-7.994825,55.13194],[-7.994355,55.13194],[-7.994355,55.13221],[-7.993884,55.13221],[-7.993884,55.132479],[-7.993414,55.132479],[-7.993414,55.132749],[-7.993414,55.133018],[-7.993002,55.133018],[-7.993002,55.133418],[-7.992473,55.133418],[-7.992473,55.133557],[-7.992002,55.133557],[-7.992002,55.133827],[-7.992002,55.134096],[-7.992002,55.134366],[-7.991061,55.134366],[-7.991061,55.134635],[-7.99012,55.134635],[-7.99012,55.134905],[-7.989866,55.134905],[-7.989866,55.135214],[-7.98965,55.135214],[-7.98965,55.135444],[-7.98965,55.135713],[-7.988709,55.135713],[-7.988709,55.135983],[-7.988298,55.135983],[-7.988298,55.136112],[-7.988238,55.136112],[-7.988238,55.136252],[-7.987297,55.136252],[-7.987297,55.136112],[-7.986827,55.136112],[-7.986827,55.136252],[-7.986356,55.136252],[-7.986356,55.136791],[-7.985886,55.136791],[-7.985886,55.136901],[-7.985964,55.136941],[-7.986104,55.137013],[-7.986216,55.137071],[-7.986371,55.137155],[-7.986678,55.137311],[-7.987038,55.137506],[-7.987582,55.137795],[-7.987985,55.138019],[-7.988172,55.13811],[-7.988536,55.13829],[-7.989048,55.138585],[-7.989361,55.13875],[-7.991089,55.139604],[-7.991735,55.139948],[-7.991807,55.139986],[-7.991842,55.139971],[-7.992322,55.139773],[-7.992373,55.139751],[-7.992846,55.139552],[-7.992994,55.139489],[-7.993363,55.139332],[-7.993617,55.139229],[-7.993911,55.139111],[-7.994493,55.13887],[-7.994524,55.138857],[-7.99491,55.138697],[-7.995064,55.138632],[-7.995288,55.138535],[-7.9956,55.138399],[-7.995898,55.138274],[-7.996078,55.138198],[-7.996517,55.138019],[-7.997056,55.137782],[-7.997214,55.137719],[-7.997557,55.137582],[-7.997851,55.137447],[-7.99812,55.137324],[-7.99835,55.137228],[-7.998478,55.137175],[-7.999083,55.136915],[-7.999236,55.136844],[-7.999576,55.136688],[-7.999677,55.136642],[-8.0,55.136496],[-8.0004,55.136314],[-8.000489,55.136272],[-8.000749,55.13615],[-8.001133,55.135966],[-8.001146,55.135974],[-8.00118,55.135957],[-8.001235,55.135932],[-8.001285,55.13591],[-8.001318,55.135892],[-8.001572,55.135753],[-8.001715,55.135683],[-8.001882,55.135591],[-8.002204,55.135411],[-8.00239,55.135293],[-8.002409,55.13528],[-8.002409,55.135214],[-8.002508,55.135214],[-8.002575,55.13517],[-8.002677,55.135102],[-8.003008,55.134872],[-8.003096,55.13481],[-8.00332,55.134631],[-8.003381,55.134582],[-8.003626,55.134385],[-8.003938,55.134158],[-8.004102,55.13401],[-8.004253,55.133898],[-8.004256,55.133896],[-8.004377,55.133813],[-8.004443,55.133766],[-8.004474,55.133742],[-8.00459,55.133654],[-8.004726,55.133555],[-8.004912,55.133412],[-8.005067,55.133297],[-8.005211,55.133185],[-8.005249,55.133156],[-8.005493,55.132992],[-8.005515,55.13298],[-8.005706,55.132876],[-8.005888,55.132783],[-8.006067,55.132694],[-8.006312,55.132579],[-8.006478,55.132504],[-8.006804,55.132356],[-8.007076,55.132217],[-8.007112,55.132198],[-8.007112,55.131621],[-8.00834,55.131621],[-8.008357,55.131613],[-8.00859,55.131502],[-8.008912,55.131359],[-8.009459,55.131091],[-8.009602,55.13103],[-8.010235,55.130761],[-8.010247,55.130757],[-8.010247,55.130723],[-8.01035,55.130723],[-8.010539,55.130641],[-8.010681,55.13058],[-8.011478,55.130235],[-8.011588,55.130187],[-8.011815,55.130089],[-8.011815,55.129824],[-8.012428,55.129824],[-8.012856,55.129643],[-8.013279,55.129463],[-8.013382,55.129418]],[[-7.996138,55.133418],[-7.99457,55.133418],[-7.99457,55.13252],[-7.996138,55.13252],[-7.996138,55.133418]],[[-7.997648,55.13221],[-7.997177,55.13221],[-7.997177,55.13194],[-7.997648,55.13194],[-7.997648,55.13221]],[[-7.996707,55.13221],[-7.997177,55.13221],[-7.997177,55.13248],[-7.996707,55.13248],[-7.996707,55.13221]],[[-7.996237,55.13248],[-7.996707,55.13248],[-7.996707,55.132749],[-7.996237,55.132749],[-7.996237,55.13248]]],[[[-7.988298,55.135444],[-7.988298,55.135713],[-7.988709,55.135713],[-7.988709,55.135444],[-7.988298,55.135444]]],[[[-7.989179,55.135214],[-7.988709,55.135214],[-7.988709,55.135444],[-7.989179,55.135444],[-7.989179,55.135214]]],[[[-7.989866,55.134316],[-7.989866,55.134366],[-7.990121,55.134366],[-7.990121,55.134181],[-7.990064,55.134198],[-7.989982,55.13422],[-7.989901,55.134236],[-7.989866,55.134242],[-7.989741,55.134263],[-7.989589,55.134282],[-7.989461,55.134306],[-7.989376,55.134316],[-7.989866,55.134316]]],[[[-7.990433,55.13404],[-7.990332,55.134096],[-7.990591,55.134096],[-7.990591,55.133852],[-7.990572,55.133872],[-7.990495,55.133971],[-7.990433,55.13404]]],[[[-7.990676,55.13376],[-7.990614,55.133827],[-7.991062,55.133827],[-7.991062,55.133557],[-7.991062,55.133288],[-7.991062,55.133254],[-7.991048,55.133271],[-7.991008,55.133322],[-7.99095,55.133393],[-7.990929,55.133418],[-7.990881,55.133474],[-7.990796,55.133588],[-7.990676,55.13376]]],[[[-7.996707,55.130038],[-7.99669,55.130054],[-7.996707,55.130054],[-7.996707,55.130038]]],[[[-7.99712,55.129782],[-7.997117,55.129784],[-7.997178,55.129784],[-7.997178,55.129761],[-7.99712,55.129782]]],[[[-8.001759,55.127939],[-8.001882,55.128015],[-8.001881,55.127898],[-8.002352,55.127898],[-8.002352,55.127628],[-8.002822,55.127628],[-8.002822,55.127359],[-8.003293,55.127359],[-8.003293,55.127104],[-8.003278,55.127109],[-8.003225,55.127118],[-8.003173,55.127127],[-8.00301,55.12719],[-8.002962,55.127214],[-8.002885,55.127251],[-8.002792,55.127298],[-8.002701,55.127371],[-8.00268,55.127388],[-8.00268,55.127388],[-8.002571,55.127417],[-8.002541,55.127442],[-8.002517,55.127462],[-8.002443,55.127489],[-8.002404,55.127503],[-8.002144,55.127568],[-8.002125,55.127577],[-8.002062,55.127606],[-8.002025,55.127631],[-8.001981,55.12766],[-8.001841,55.127739],[-8.001792,55.127785],[-8.001764,55.127811],[-8.001733,55.127875],[-8.001716,55.127896],[-8.001705,55.127909],[-8.001705,55.127909],[-8.001759,55.127939]]],[[[-8.003389,55.127068],[-8.003333,55.127089],[-8.003763,55.127089],[-8.003763,55.126883],[-8.003677,55.126912],[-8.003596,55.126972],[-8.003503,55.127026],[-8.003389,55.127068]]],[[[-8.003904,55.126794],[-8.003874,55.126819],[-8.003976,55.126819],[-8.003976,55.12673],[-8.003945,55.126759],[-8.003904,55.126794]]],[[[-7.991061,55.13701],[-7.99012,55.13701],[-7.99012,55.137061],[-7.99012,55.137331],[-7.99059,55.137331],[-7.99059,55.137061],[-7.991061,55.137061],[-7.991061,55.13701]]],[[[-7.991434,55.136522],[-7.991434,55.136792],[-7.991531,55.136792],[-7.991531,55.136522],[-7.991434,55.136522]]],[[[-7.992472,55.136112],[-7.991532,55.136112],[-7.991531,55.136522],[-7.992002,55.136522],[-7.992002,55.136253],[-7.992472,55.136253],[-7.992472,55.136112]]],[[[-8.007526,55.128927],[-8.006115,55.128927],[-8.006115,55.128976],[-8.005645,55.128976],[-8.005645,55.129245],[-8.005174,55.129245],[-8.005174,55.129515],[-8.004234,55.129515],[-8.004234,55.129784],[-8.003763,55.129784],[-8.003763,55.130054],[-8.004704,55.130054],[-8.004704,55.129784],[-8.005645,55.129784],[-8.005645,55.129515],[-8.006115,55.129515],[-8.006115,55.129245],[-8.006585,55.129245],[-8.006585,55.128976],[-8.007526,55.128975],[-8.007526,55.128927]]],[[[-8.020983,55.126534],[-8.021037,55.126527],[-8.021096,55.126489],[-8.021158,55.126453],[-8.021192,55.126408],[-8.0212,55.126368],[-8.021219,55.126356],[-8.021219,55.12623],[-8.021166,55.12623],[-8.021166,55.126279],[-8.020696,55.126279],[-8.020696,55.126548],[-8.020225,55.126548],[-8.020226,55.126741],[-8.02033,55.126699],[-8.02054,55.126613],[-8.020625,55.126564],[-8.020722,55.126548],[-8.020983,55.126534]]],[[[-8.019841,55.126872],[-8.020007,55.126818],[-8.019755,55.126818],[-8.019755,55.126904],[-8.019841,55.126872]]],[[[-8.000941,55.131401],[-8.000941,55.131132],[-8.0,55.131132],[-8.0,55.131401],[-8.000941,55.131401]]],[[[-8.001411,55.131132],[-8.001411,55.130862],[-8.000941,55.130862],[-8.000941,55.131132],[-8.001411,55.131132]]],[[[-8.002352,55.130862],[-8.002352,55.130593],[-8.001411,55.130593],[-8.001411,55.130862],[-8.002352,55.130862]]],[[[-8.002822,55.130593],[-8.002822,55.130323],[-8.002352,55.130323],[-8.002352,55.130593],[-8.002822,55.130593]]],[[[-8.002822,55.130054],[-8.002822,55.130323],[-8.003293,55.130323],[-8.003293,55.130054],[-8.002822,55.130054]]],[[[-8.003293,55.131671],[-8.003293,55.131401],[-8.002822,55.131401],[-8.002823,55.131671],[-8.003293,55.131671]]],[[[-8.00047,55.132749],[-8.00047,55.133019],[-8.001411,55.133019],[-8.001411,55.132749],[-8.00047,55.132749]]],[[[-7.998118,55.133827],[-7.998118,55.134097],[-7.999059,55.134097],[-7.999059,55.133827],[-7.99953,55.133827],[-7.99953,55.133558],[-8.0,55.133558],[-8.0,55.133288],[-8.00047,55.133288],[-8.00047,55.133019],[-7.99953,55.133019],[-7.99953,55.133288],[-7.999059,55.133288],[-7.999059,55.133558],[-7.998589,55.133558],[-7.998589,55.133827],[-7.998118,55.133827]]],[[[-7.998118,55.134366],[-7.998118,55.134097],[-7.997648,55.134097],[-7.997648,55.134366],[-7.998118,55.134366]]]]}}]}
