{"type":"FeatureCollection","features":[{"type":"Feature","properties":{"source_fid":2908107,"county":"Longford","bog_geom_ha":113.01710228548963,"low15_pct":99.760956175298816,"low15_ha":112.74694188161993,"overlay_ha":112.7167079866243,"area_delta":-0.030233894995632227},"geometry":{"type":"MultiPolygon","coordinates":[[[[-7.950556,53.695411],[-7.94965,53.695536],[-7.949415,53.696013],[-7.949237,53.696374],[-7.948793,53.697204],[-7.948303,53.698162],[-7.948303,53.698162],[-7.947749,53.699257],[-7.947497,53.699764],[-7.947245,53.700272],[-7.947044,53.70067],[-7.946887,53.700984],[-7.946445,53.701276],[-7.946341,53.701346],[-7.946341,53.701346],[-7.946176,53.701455],[-7.946318,53.701455],[-7.946318,53.701625],[-7.946999,53.702354],[-7.949345,53.702355],[-7.949344,53.703253],[-7.952372,53.703255],[-7.952371,53.703996],[-7.952664,53.703909],[-7.952484,53.703707],[-7.952523,53.703705],[-7.952711,53.703645],[-7.952873,53.703846],[-7.953212,53.703746],[-7.953634,53.703616],[-7.954107,53.70347],[-7.954196,53.703454],[-7.954303,53.703436],[-7.954463,53.703434],[-7.954558,53.703432],[-7.954643,53.703433],[-7.954911,53.703435],[-7.955064,53.703437],[-7.955086,53.703437],[-7.955189,53.703427],[-7.955344,53.703413],[-7.9554,53.703404],[-7.955401,53.703256],[-7.958429,53.703257],[-7.958427,53.705054],[-7.959941,53.705054],[-7.95994,53.706851],[-7.961454,53.706852],[-7.961453,53.707457],[-7.961615,53.707323],[-7.961704,53.707261],[-7.961832,53.707171],[-7.961832,53.707044],[-7.961832,53.706774],[-7.962286,53.706774],[-7.962287,53.706505],[-7.96269,53.706505],[-7.962741,53.706463],[-7.962741,53.706235],[-7.963027,53.706235],[-7.963044,53.706222],[-7.963196,53.706102],[-7.963196,53.705696],[-7.96365,53.705696],[-7.963651,53.705427],[-7.964031,53.705427],[-7.964105,53.705372],[-7.964105,53.705157],[-7.964393,53.705157],[-7.964484,53.705091],[-7.964484,53.705056],[-7.964532,53.705056],[-7.96456,53.705036],[-7.96456,53.704888],[-7.964763,53.704888],[-7.964785,53.704872],[-7.964941,53.704741],[-7.965049,53.704649],[-7.965428,53.704368],[-7.965741,53.704147],[-7.965878,53.704048],[-7.966081,53.703902],[-7.966137,53.703859],[-7.966178,53.703828],[-7.966388,53.703668],[-7.966437,53.703637],[-7.966437,53.703636],[-7.966445,53.70363],[-7.966575,53.703514],[-7.966167,53.703318],[-7.96613,53.7033],[-7.966017,53.703239],[-7.965972,53.70322],[-7.965948,53.703209],[-7.965978,53.703093],[-7.966037,53.702973],[-7.966118,53.702756],[-7.966199,53.70249],[-7.966285,53.70238],[-7.966313,53.702355],[-7.966365,53.702311],[-7.966471,53.702241],[-7.966672,53.702131],[-7.967021,53.70197],[-7.966998,53.701949],[-7.966987,53.701939],[-7.966747,53.701683],[-7.966091,53.700992],[-7.959868,53.694369],[-7.959862,53.694362],[-7.959854,53.694353],[-7.959851,53.69435],[-7.959839,53.694338],[-7.959679,53.694167],[-7.958419,53.694339],[-7.95824,53.694365],[-7.957633,53.694454],[-7.955714,53.694724],[-7.954877,53.69483],[-7.954588,53.694871],[-7.954016,53.694945],[-7.952476,53.695151],[-7.95127,53.695314],[-7.950759,53.695388],[-7.950559,53.69541],[-7.950556,53.695411]]],[[[-7.96365,53.705741],[-7.963703,53.705696],[-7.96365,53.705696],[-7.96365,53.705741]]]]}}]}
