{"type":"FeatureCollection","features":[{"type":"Feature","properties":{"source_fid":2909635,"county":"Sligo","bog_geom_ha":271.20627572671299,"low15_pct":100.0,"low15_ha":271.20627572671299,"overlay_ha":271.20627572671299,"area_delta":0.0},"geometry":{"type":"MultiPolygon","coordinates":[[[[-8.971258,54.174362],[-8.971636,54.17429],[-8.971691,54.174279],[-8.971684,54.173986],[-8.971633,54.173923],[-8.971579,54.173854],[-8.971553,54.17382],[-8.971497,54.173737],[-8.971463,54.173673],[-8.971435,54.173633],[-8.97138,54.173554],[-8.971343,54.173503],[-8.971292,54.173429],[-8.971236,54.173348],[-8.971167,54.173294],[-8.97112,54.173248],[-8.971054,54.173183],[-8.970969,54.173108],[-8.970867,54.173001],[-8.970789,54.172922],[-8.970749,54.172888],[-8.970684,54.172834],[-8.970632,54.172786],[-8.970503,54.172678],[-8.970339,54.172544],[-8.970301,54.172513],[-8.970152,54.172409],[-8.970008,54.172308],[-8.969987,54.172287],[-8.969975,54.172274],[-8.969942,54.172228],[-8.969835,54.172075],[-8.969663,54.17204],[-8.969543,54.172015],[-8.969445,54.172001],[-8.969391,54.171989],[-8.969312,54.171972],[-8.969235,54.171948],[-8.969097,54.171877],[-8.968956,54.1718],[-8.968836,54.171731],[-8.968637,54.171621],[-8.968581,54.171594],[-8.968537,54.171574],[-8.968438,54.171529],[-8.968342,54.17148],[-8.968214,54.171404],[-8.968145,54.171372],[-8.968113,54.171297],[-8.968088,54.171257],[-8.968087,54.171216],[-8.968074,54.171107],[-8.968069,54.171],[-8.968072,54.170864],[-8.968086,54.170804],[-8.9681,54.170758],[-8.968124,54.170586],[-8.968174,54.170442],[-8.968229,54.170302],[-8.96827,54.170181],[-8.968339,54.170141],[-8.9684,54.170071],[-8.968515,54.169939],[-8.968593,54.169824],[-8.968679,54.169733],[-8.968782,54.169665],[-8.968872,54.1696],[-8.968907,54.16956],[-8.968929,54.169534],[-8.968937,54.169525],[-8.969086,54.169326],[-8.969107,54.169291],[-8.969033,54.16926],[-8.968823,54.169199],[-8.968697,54.16917],[-8.968628,54.169102],[-8.968532,54.169055],[-8.968391,54.169037],[-8.968258,54.169047],[-8.968083,54.169066],[-8.967993,54.169058],[-8.967807,54.169005],[-8.967751,54.168981],[-8.967239,54.168826],[-8.966775,54.168686],[-8.966721,54.168655],[-8.966921,54.167292],[-8.967171,54.165392],[-8.967217,54.165042],[-8.967132,54.164506],[-8.967124,54.164452],[-8.967009,54.163729],[-8.966936,54.163658],[-8.966862,54.163646],[-8.966691,54.163689],[-8.96634,54.163714],[-8.966277,54.163699],[-8.966154,54.163655],[-8.966084,54.163663],[-8.965988,54.1637],[-8.965677,54.163741],[-8.965622,54.163735],[-8.965492,54.163712],[-8.965362,54.163662],[-8.965345,54.163656],[-8.965222,54.163596],[-8.965131,54.163565],[-8.964906,54.163522],[-8.964796,54.163514],[-8.96471,54.163499],[-8.96467,54.163465],[-8.964649,54.163426],[-8.964581,54.1634],[-8.964415,54.163363],[-8.964274,54.163355],[-8.964136,54.163302],[-8.963833,54.163145],[-8.963658,54.163088],[-8.963469,54.163051],[-8.963395,54.163036],[-8.961924,54.162614],[-8.961639,54.162531],[-8.96094,54.162326],[-8.960173,54.162105],[-8.959639,54.161952],[-8.959155,54.161833],[-8.958557,54.161699],[-8.957748,54.16149],[-8.956948,54.161263],[-8.956506,54.161141],[-8.95636,54.1611],[-8.956067,54.161019],[-8.955201,54.160772],[-8.953811,54.160359],[-8.953649,54.160301],[-8.952209,54.162799],[-8.952233,54.163197],[-8.952478,54.164503],[-8.952549,54.164828],[-8.952622,54.165128],[-8.952669,54.165335],[-8.952715,54.165409],[-8.952845,54.165717],[-8.953003,54.166021],[-8.953131,54.166277],[-8.953248,54.166523],[-8.95334,54.166718],[-8.953492,54.167087],[-8.953636,54.167413],[-8.95377,54.167724],[-8.95393,54.167998],[-8.954081,54.168392],[-8.954212,54.168712],[-8.954351,54.16903],[-8.954711,54.169785],[-8.954855,54.170179],[-8.954881,54.170249],[-8.954881,54.17025],[-8.955236,54.170955],[-8.955807,54.172206],[-8.956226,54.173128],[-8.956317,54.173355],[-8.956403,54.173569],[-8.956492,54.173792],[-8.956578,54.174005],[-8.956622,54.174115],[-8.956765,54.174473],[-8.956768,54.174479],[-8.95677,54.174484],[-8.956788,54.174531],[-8.956803,54.174567],[-8.957198,54.175434],[-8.95729,54.175595],[-8.957355,54.175708],[-8.957422,54.175839],[-8.957546,54.176082],[-8.957653,54.176293],[-8.957833,54.176685],[-8.957875,54.176776],[-8.957934,54.176904],[-8.958008,54.177064],[-8.958063,54.177185],[-8.958111,54.177289],[-8.958229,54.177546],[-8.958349,54.177795],[-8.958444,54.177992],[-8.958469,54.178044],[-8.958848,54.178832],[-8.959068,54.179157],[-8.95936,54.179746],[-8.95949,54.179973],[-8.959513,54.180013],[-8.959609,54.18018],[-8.959719,54.180373],[-8.959798,54.180502],[-8.959995,54.180827],[-8.960146,54.181078],[-8.960228,54.181181],[-8.96049,54.181513],[-8.960543,54.18158],[-8.960759,54.181885],[-8.960807,54.181952],[-8.961095,54.182236],[-8.961142,54.182283],[-8.961413,54.182498],[-8.961629,54.182668],[-8.961718,54.182734],[-8.962171,54.183068],[-8.962371,54.183215],[-8.962568,54.183343],[-8.962942,54.183588],[-8.963053,54.18366],[-8.963429,54.183952],[-8.963602,54.184087],[-8.963822,54.184261],[-8.963951,54.184363],[-8.964151,54.18453],[-8.964282,54.184656],[-8.964568,54.184932],[-8.965026,54.185393],[-8.965414,54.185811],[-8.965768,54.186171],[-8.966018,54.186425],[-8.966108,54.186537],[-8.96637,54.18686],[-8.966397,54.186893],[-8.96664,54.187193],[-8.966726,54.187298],[-8.966903,54.187489],[-8.967222,54.187833],[-8.967295,54.187911],[-8.967392,54.188011],[-8.967535,54.188206],[-8.967595,54.188287],[-8.967832,54.188577],[-8.968039,54.188859],[-8.968281,54.18914],[-8.96842,54.189344],[-8.968455,54.189394],[-8.968468,54.189412],[-8.968473,54.189419],[-8.968494,54.189449],[-8.968599,54.189429],[-8.969647,54.189237],[-8.970344,54.18911],[-8.970877,54.189021],[-8.971052,54.18899],[-8.971511,54.188914],[-8.971802,54.188857],[-8.971925,54.188838],[-8.972122,54.188809],[-8.972577,54.188733],[-8.973784,54.188526],[-8.974291,54.188429],[-8.974851,54.188325],[-8.975161,54.188266],[-8.975252,54.188248],[-8.975548,54.188202],[-8.97561,54.188203],[-8.975644,54.188202],[-8.975677,54.188201],[-8.975828,54.188281],[-8.975926,54.188349],[-8.976285,54.1885],[-8.97636,54.188526],[-8.976376,54.1885],[-8.976822,54.188188],[-8.976969,54.188203],[-8.977143,54.188249],[-8.977379,54.188293],[-8.97762,54.188319],[-8.977893,54.188344],[-8.978034,54.188357],[-8.97819,54.188381],[-8.978245,54.188398],[-8.978469,54.188477],[-8.978678,54.188549],[-8.978746,54.188575],[-8.978783,54.188596],[-8.978832,54.18864],[-8.978848,54.18868],[-8.978909,54.188677],[-8.978853,54.188584],[-8.978824,54.188536],[-8.978779,54.188315],[-8.978717,54.188026],[-8.978141,54.18803],[-8.978119,54.187132],[-8.978446,54.187129],[-8.978398,54.187006],[-8.978264,54.186649],[-8.978217,54.186528],[-8.978162,54.18632],[-8.978133,54.186234],[-8.978098,54.186234],[-8.978096,54.186123],[-8.978077,54.186069],[-8.978056,54.186017],[-8.978059,54.185977],[-8.977919,54.185797],[-8.977873,54.185729],[-8.977761,54.185586],[-8.977708,54.185499],[-8.977685,54.185392],[-8.97771,54.185348],[-8.977711,54.185339],[-8.976545,54.185348],[-8.976524,54.18445],[-8.97744,54.184442],[-8.97743,54.184419],[-8.97739,54.184326],[-8.977389,54.184325],[-8.977318,54.184187],[-8.977297,54.184143],[-8.977245,54.184006],[-8.977215,54.18394],[-8.977095,54.183708],[-8.977069,54.183606],[-8.976941,54.183613],[-8.976886,54.183466],[-8.97681,54.183477],[-8.976729,54.183328],[-8.976727,54.183267],[-8.977074,54.182812],[-8.977223,54.182647],[-8.977223,54.182647],[-8.976482,54.182653],[-8.976461,54.181755],[-8.976939,54.181751],[-8.976953,54.181593],[-8.97698,54.181379],[-8.977005,54.181211],[-8.977024,54.181094],[-8.977047,54.180979],[-8.977058,54.180852],[-8.977058,54.180852],[-8.97644,54.180857],[-8.976427,54.180302],[-8.97634,54.180285],[-8.976324,54.180283],[-8.976308,54.180279],[-8.975791,54.180225],[-8.975621,54.180215],[-8.974834,54.180163],[-8.974816,54.180096],[-8.974816,54.180012],[-8.974798,54.179833],[-8.975179,54.17973],[-8.975306,54.179696],[-8.975356,54.17969],[-8.975335,54.179646],[-8.975328,54.179631],[-8.975309,54.179582],[-8.97528,54.179478],[-8.97525,54.179368],[-8.975243,54.179301],[-8.975229,54.179226],[-8.975217,54.179116],[-8.975208,54.17907],[-8.974866,54.179073],[-8.974845,54.178175],[-8.973314,54.178187],[-8.973272,54.17639],[-8.973261,54.175947],[-8.973223,54.175895],[-8.973177,54.175838],[-8.973118,54.175762],[-8.973037,54.175648],[-8.973,54.175653],[-8.972943,54.17566],[-8.972786,54.175688],[-8.972678,54.175723],[-8.972439,54.175809],[-8.972223,54.175877],[-8.972001,54.175938],[-8.971861,54.175975],[-8.971798,54.175992],[-8.971767,54.175949],[-8.97166,54.175817],[-8.971582,54.175708],[-8.971485,54.17558],[-8.97139,54.175467],[-8.971326,54.175361],[-8.971293,54.175318],[-8.97124,54.175249],[-8.970999,54.175308],[-8.970803,54.175382],[-8.970613,54.17545],[-8.970528,54.175451],[-8.970291,54.175532],[-8.970194,54.175561],[-8.97013,54.175488],[-8.970069,54.175429],[-8.970011,54.175352],[-8.969927,54.175261],[-8.969882,54.175212],[-8.969743,54.175052],[-8.969594,54.174886],[-8.969518,54.174798],[-8.969471,54.174748],[-8.969693,54.174687],[-8.969794,54.174667],[-8.970078,54.174607],[-8.970319,54.174565],[-8.970591,54.174505],[-8.970823,54.174455],[-8.971258,54.174362]],[[-8.975438,54.18635],[-8.975293,54.186383],[-8.975285,54.186384],[-8.975125,54.186324],[-8.975124,54.18625],[-8.97503,54.186104],[-8.975064,54.185991],[-8.975062,54.185812],[-8.97496,54.185749],[-8.974784,54.185634],[-8.974812,54.185455],[-8.97483,54.18542],[-8.974855,54.185351],[-8.974854,54.185314],[-8.97478,54.185235],[-8.974779,54.185214],[-8.974803,54.185124],[-8.974792,54.185094],[-8.974859,54.185034],[-8.97489,54.185034],[-8.974922,54.185027],[-8.974872,54.184976],[-8.97474,54.184895],[-8.97458,54.184801],[-8.974568,54.184767],[-8.974565,54.184741],[-8.974548,54.18468],[-8.974507,54.184587],[-8.974501,54.184553],[-8.974526,54.184468],[-8.974575,54.184311],[-8.974583,54.184282],[-8.974835,54.184225],[-8.975084,54.184177],[-8.975173,54.184336],[-8.975241,54.184457],[-8.9753,54.184617],[-8.975367,54.184727],[-8.975428,54.184873],[-8.97545,54.184917],[-8.975605,54.185224],[-8.97575,54.185507],[-8.975752,54.185539],[-8.975678,54.185738],[-8.975627,54.186037],[-8.975532,54.186299],[-8.975484,54.186334],[-8.975438,54.18635]],[[-8.969789,54.176041],[-8.968959,54.175977],[-8.969312,54.175629],[-8.96949,54.175776],[-8.969692,54.175953],[-8.969789,54.176041]]],[[[-8.974867,54.17805],[-8.974842,54.177996],[-8.974841,54.177994],[-8.974845,54.178175],[-8.974939,54.178174],[-8.974867,54.17805]]]]}}]}
