{"type":"FeatureCollection","features":[{"type":"Feature","properties":{"source_fid":2912687,"county":"Mayo","bog_geom_ha":126.70538772304356,"low15_pct":91.899641577060933,"low15_ha":116.44179717630239,"overlay_ha":116.44622184181586,"area_delta":0.0044246655134685398},"geometry":{"type":"MultiPolygon","coordinates":[[[[-9.772596,54.236145],[-9.773143,54.235978],[-9.773115,54.235322],[-9.772655,54.235329],[-9.772644,54.23506],[-9.771724,54.235073],[-9.771701,54.234534],[-9.772161,54.234528],[-9.772149,54.234258],[-9.771689,54.234265],[-9.771678,54.233996],[-9.769838,54.234023],[-9.769826,54.233753],[-9.770286,54.233746],[-9.770275,54.233477],[-9.771195,54.233463],[-9.771206,54.233733],[-9.771666,54.233726],[-9.771655,54.233457],[-9.771631,54.232918],[-9.772091,54.232911],[-9.772068,54.232372],[-9.772057,54.232103],[-9.772977,54.232089],[-9.772988,54.232359],[-9.773448,54.232352],[-9.773436,54.232082],[-9.773896,54.232076],[-9.773873,54.231537],[-9.774333,54.23153],[-9.774287,54.230452],[-9.774609,54.230448],[-9.774549,54.230202],[-9.774392,54.229502],[-9.774061,54.228276],[-9.773836,54.227283],[-9.773845,54.227219],[-9.773421,54.227128],[-9.772465,54.226967],[-9.772332,54.226948],[-9.771813,54.226895],[-9.771439,54.226872],[-9.771063,54.226831],[-9.770519,54.226741],[-9.769935,54.226662],[-9.769576,54.226611],[-9.769191,54.226542],[-9.768831,54.226482],[-9.768671,54.226457],[-9.768487,54.226427],[-9.768294,54.226378],[-9.76814,54.226325],[-9.767963,54.226276],[-9.767785,54.226204],[-9.767455,54.226093],[-9.767156,54.225976],[-9.766987,54.225922],[-9.766941,54.225908],[-9.766293,54.225793],[-9.765953,54.225735],[-9.765921,54.225733],[-9.76573,54.225717],[-9.765547,54.22572],[-9.765356,54.225704],[-9.764972,54.225659],[-9.764451,54.225564],[-9.764106,54.225481],[-9.763761,54.225398],[-9.763406,54.225282],[-9.763091,54.225175],[-9.762767,54.22503],[-9.76249,54.224876],[-9.762439,54.22484],[-9.762323,54.225273],[-9.762293,54.225385],[-9.762262,54.225528],[-9.762236,54.225652],[-9.762158,54.225776],[-9.762079,54.225843],[-9.762019,54.225897],[-9.761826,54.226015],[-9.761598,54.22613],[-9.761511,54.226184],[-9.76151,54.22652],[-9.761484,54.226885],[-9.76139,54.227371],[-9.761356,54.227439],[-9.76125,54.227623],[-9.761089,54.227846],[-9.760902,54.228096],[-9.760593,54.228398],[-9.760453,54.228552],[-9.760211,54.228788],[-9.759918,54.229059],[-9.759721,54.229213],[-9.759118,54.229596],[-9.758732,54.229839],[-9.758468,54.229855],[-9.758528,54.230506],[-9.758625,54.231626],[-9.758742,54.232507],[-9.759473,54.232654],[-9.75952,54.234941],[-9.758677,54.234921],[-9.758708,54.234974],[-9.758708,54.235036],[-9.758702,54.235117],[-9.758536,54.235236],[-9.758526,54.235243],[-9.758346,54.235417],[-9.758233,54.235546],[-9.758311,54.235655],[-9.758515,54.235726],[-9.758711,54.235726],[-9.758897,54.235701],[-9.759232,54.235553],[-9.759444,54.2355],[-9.759561,54.235498],[-9.759688,54.235525],[-9.7598,54.235583],[-9.759805,54.235632],[-9.759853,54.235696],[-9.759907,54.235743],[-9.760027,54.235793],[-9.760271,54.235866],[-9.760363,54.235884],[-9.760417,54.235885],[-9.760537,54.235917],[-9.760681,54.235957],[-9.760927,54.236012],[-9.761084,54.236022],[-9.761194,54.236017],[-9.761294,54.235994],[-9.7614,54.235948],[-9.761781,54.23596],[-9.761935,54.235977],[-9.762087,54.236024],[-9.762301,54.236113],[-9.762419,54.236247],[-9.762462,54.236414],[-9.762499,54.236558],[-9.762528,54.236647],[-9.762643,54.236722],[-9.762839,54.236789],[-9.763046,54.236803],[-9.763173,54.236811],[-9.763457,54.236832],[-9.763557,54.236869],[-9.76363,54.236962],[-9.763633,54.237072],[-9.763638,54.237144],[-9.763779,54.237258],[-9.76394,54.237378],[-9.764071,54.237474],[-9.764159,54.237547],[-9.76425,54.237622],[-9.764376,54.237704],[-9.764548,54.237746],[-9.764845,54.237797],[-9.765087,54.237851],[-9.765162,54.237909],[-9.765217,54.237952],[-9.76527,54.237993],[-9.765236,54.238267],[-9.765195,54.238465],[-9.765257,54.23857],[-9.765368,54.238655],[-9.765443,54.238717],[-9.765442,54.238773],[-9.765383,54.238944],[-9.765314,54.239194],[-9.765259,54.239364],[-9.765276,54.239451],[-9.765371,54.239516],[-9.76538,54.239578],[-9.765423,54.23963],[-9.765472,54.239664],[-9.765529,54.239694],[-9.765589,54.239702],[-9.765913,54.239901],[-9.766012,54.239979],[-9.76612,54.240071],[-9.766183,54.240235],[-9.766137,54.240307],[-9.766104,54.240356],[-9.766109,54.240389],[-9.766143,54.240413],[-9.766189,54.240434],[-9.766249,54.240444],[-9.766274,54.240445],[-9.766494,54.240374],[-9.766633,54.240358],[-9.766797,54.240427],[-9.766864,54.24054],[-9.766819,54.240626],[-9.766707,54.240702],[-9.766623,54.240758],[-9.766482,54.240854],[-9.766464,54.24094],[-9.766508,54.241036],[-9.76654,54.241072],[-9.766631,54.241166],[-9.769119,54.239668],[-9.771898,54.238014],[-9.772425,54.237719],[-9.771972,54.237264],[-9.771501,54.236871],[-9.7713,54.236649],[-9.771893,54.236377],[-9.771819,54.236152],[-9.772259,54.235928],[-9.772596,54.236145]],[[-9.769734,54.231598],[-9.770654,54.231584],[-9.770677,54.232123],[-9.771137,54.232116],[-9.77116,54.232655],[-9.771172,54.232925],[-9.770712,54.232931],[-9.7707,54.232662],[-9.77024,54.232669],[-9.770217,54.23213],[-9.769757,54.232137],[-9.769734,54.231598]]]]}}]}
