{"type":"FeatureCollection","features":[{"type":"Feature","properties":{"source_fid":2912843,"county":"Mayo","bog_geom_ha":119.73102816398202,"low15_pct":95.273818454613661,"low15_ha":114.07232240679457,"overlay_ha":114.03965383402833,"area_delta":-0.0326685727662408},"geometry":{"type":"MultiPolygon","coordinates":[[[[-9.966626,54.275918],[-9.966514,54.276033],[-9.966514,54.276033],[-9.966514,54.276033],[-9.966393,54.276107],[-9.966068,54.276345],[-9.966078,54.276546],[-9.966538,54.276538],[-9.966525,54.276269],[-9.966985,54.276261],[-9.966998,54.276531],[-9.967011,54.2768],[-9.966551,54.276808],[-9.966564,54.277077],[-9.966576,54.277346],[-9.966589,54.277616],[-9.966129,54.277623],[-9.966153,54.278123],[-9.966232,54.278153],[-9.966246,54.278161],[-9.966615,54.278155],[-9.966624,54.278354],[-9.96668,54.27838],[-9.967493,54.278367],[-9.967508,54.278679],[-9.967561,54.278678],[-9.967567,54.278807],[-9.967584,54.278815],[-9.967855,54.278943],[-9.968035,54.27894],[-9.968039,54.27903],[-9.968114,54.279065],[-9.968499,54.279248],[-9.968522,54.279258],[-9.969065,54.279412],[-9.969069,54.279413],[-9.969449,54.279544],[-9.969977,54.279731],[-9.970344,54.279828],[-9.970508,54.279999],[-9.98571,54.274737],[-9.992698,54.272289],[-9.992191,54.271974],[-9.991655,54.271694],[-9.990423,54.271052],[-9.989055,54.270337],[-9.988098,54.269836],[-9.987677,54.269615],[-9.98743,54.269476],[-9.987242,54.26937],[-9.986055,54.268763],[-9.985845,54.268635],[-9.985165,54.268704],[-9.984704,54.268799],[-9.983939,54.269649],[-9.981185,54.269749],[-9.973073,54.269975],[-9.969455,54.27008],[-9.969465,54.270289],[-9.969925,54.270282],[-9.969938,54.270551],[-9.970398,54.270543],[-9.970411,54.270813],[-9.970871,54.270805],[-9.970897,54.271344],[-9.970923,54.271883],[-9.970936,54.272152],[-9.970475,54.27216],[-9.970488,54.272429],[-9.969568,54.272444],[-9.969555,54.272175],[-9.969094,54.272183],[-9.969082,54.271913],[-9.969542,54.271906],[-9.969516,54.271367],[-9.969056,54.271374],[-9.96903,54.270835],[-9.969017,54.270566],[-9.969005,54.270297],[-9.968996,54.270117],[-9.968874,54.270452],[-9.968789,54.271006],[-9.968718,54.272032],[-9.968667,54.272412],[-9.968626,54.272854],[-9.968164,54.274183],[-9.968044,54.274321],[-9.967986,54.274342],[-9.967862,54.274438],[-9.967691,54.274584],[-9.967547,54.274691],[-9.967417,54.274832],[-9.967393,54.27497],[-9.967391,54.275071],[-9.967333,54.275139],[-9.967228,54.2752],[-9.967017,54.275513],[-9.966874,54.275693],[-9.966687,54.275855],[-9.966634,54.27591],[-9.966626,54.275918]],[[-9.967446,54.276254],[-9.966985,54.276261],[-9.966973,54.275992],[-9.96696,54.275722],[-9.96742,54.275715],[-9.967407,54.275445],[-9.968328,54.27543],[-9.968341,54.2757],[-9.96788,54.275707],[-9.967893,54.275977],[-9.967433,54.275984],[-9.967446,54.276254]],[[-9.972227,54.270244],[-9.972239,54.270513],[-9.97316,54.270498],[-9.973211,54.271576],[-9.972751,54.271583],[-9.972803,54.272661],[-9.972342,54.272669],[-9.972355,54.272938],[-9.971895,54.272946],[-9.971882,54.272676],[-9.971831,54.271599],[-9.971779,54.270521],[-9.971766,54.270252],[-9.972227,54.270244]]],[[[-9.965649,54.278124],[-9.965692,54.278119],[-9.965669,54.277631],[-9.965656,54.277361],[-9.965528,54.277363],[-9.965538,54.277465],[-9.965528,54.277503],[-9.965506,54.277544],[-9.96547,54.277614],[-9.965453,54.277639],[-9.965422,54.277677],[-9.965309,54.27781],[-9.965297,54.277825],[-9.965295,54.277837],[-9.965297,54.277852],[-9.965314,54.277972],[-9.965321,54.277994],[-9.965333,54.278017],[-9.965367,54.278052],[-9.965392,54.278069],[-9.965536,54.278129],[-9.965649,54.278124]]],[[[-9.96581,54.276983],[-9.965732,54.27709],[-9.966103,54.277084],[-9.96609,54.276815],[-9.966078,54.276546],[-9.96585,54.276549],[-9.965792,54.276599],[-9.965792,54.276599],[-9.965752,54.276631],[-9.965722,54.276655],[-9.965724,54.276701],[-9.965803,54.276836],[-9.965834,54.276863],[-9.965851,54.276927],[-9.96581,54.276983]]]]}}]}
