{"type":"FeatureCollection","features":[{"type":"Feature","properties":{"source_fid":3016368,"county":"Mayo","bog_geom_ha":259.85359110926981,"low15_pct":98.131487889273359,"low15_ha":254.99819528923501,"overlay_ha":255.17345289070536,"area_delta":0.1752576014703493},"geometry":{"type":"MultiPolygon","coordinates":[[[[-9.637803,54.163409],[-9.63947,54.165105],[-9.63947,54.165105],[-9.639778,54.16468],[-9.639778,54.16468],[-9.639778,54.16468],[-9.639778,54.16468],[-9.640126,54.164495],[-9.640691,54.164124],[-9.641627,54.163462],[-9.641819,54.163335],[-9.641821,54.163274],[-9.641802,54.163259],[-9.641761,54.163228],[-9.641768,54.163183],[-9.641815,54.16312],[-9.641929,54.163121],[-9.64201,54.1631],[-9.642082,54.163055],[-9.642097,54.162998],[-9.642047,54.162953],[-9.64205,54.16288],[-9.642237,54.162845],[-9.642337,54.162856],[-9.642356,54.162836],[-9.642413,54.162778],[-9.642426,54.162764],[-9.642519,54.162668],[-9.642904,54.162272],[-9.643242,54.161939],[-9.643503,54.161671],[-9.643166,54.161675],[-9.643155,54.161406],[-9.642696,54.161412],[-9.642686,54.161143],[-9.643604,54.16113],[-9.643615,54.1614],[-9.64362,54.16155],[-9.643787,54.161379],[-9.644361,54.160782],[-9.645041,54.160061],[-9.645203,54.159896],[-9.645441,54.159655],[-9.64609,54.158946],[-9.646552,54.158451],[-9.646664,54.158337],[-9.646671,54.158329],[-9.646702,54.158298],[-9.647148,54.15784],[-9.647661,54.15729],[-9.648147,54.156762],[-9.648609,54.156308],[-9.64905,54.155819],[-9.649609,54.15525],[-9.650152,54.154672],[-9.650192,54.154629],[-9.651142,54.153602],[-9.651753,54.152954],[-9.651807,54.152814],[-9.651272,54.152377],[-9.650542,54.152044],[-9.650333,54.15191],[-9.650333,54.15191],[-9.65005,54.151795],[-9.648994,54.151229],[-9.647989,54.150795],[-9.647638,54.150621],[-9.647038,54.150283],[-9.647038,54.150283],[-9.646739,54.150161],[-9.64653,54.150076],[-9.64541,54.149547],[-9.645017,54.149346],[-9.644204,54.148932],[-9.643447,54.148478],[-9.64272,54.148581],[-9.641475,54.148759],[-9.640587,54.149021],[-9.639523,54.149387],[-9.639068,54.149545],[-9.638539,54.149729],[-9.637609,54.150075],[-9.636883,54.150323],[-9.636645,54.150393],[-9.636039,54.150573],[-9.635627,54.150724],[-9.635843,54.150721],[-9.635853,54.150991],[-9.635394,54.150997],[-9.635387,54.150812],[-9.634519,54.151125],[-9.633903,54.151329],[-9.632946,54.15163],[-9.632288,54.151805],[-9.631718,54.151943],[-9.631477,54.152092],[-9.631061,54.152135],[-9.630849,54.152201],[-9.630857,54.152407],[-9.630398,54.152413],[-9.630395,54.152333],[-9.62994,54.152445],[-9.629949,54.152688],[-9.62949,54.152695],[-9.629484,54.152528],[-9.629124,54.152589],[-9.628556,54.152707],[-9.628572,54.152707],[-9.628583,54.152977],[-9.627665,54.152989],[-9.627661,54.152893],[-9.627581,54.15291],[-9.626565,54.153105],[-9.625575,54.153296],[-9.624621,54.153531],[-9.623704,54.15372],[-9.623039,54.153873],[-9.621805,54.154168],[-9.620648,54.15446],[-9.62066,54.154354],[-9.62066,54.154354],[-9.620619,54.154365],[-9.620566,54.154379],[-9.620561,54.15443],[-9.620556,54.154474],[-9.620542,54.154606],[-9.620535,54.154663],[-9.620521,54.154787],[-9.620497,54.155002],[-9.620445,54.155557],[-9.620433,54.15567],[-9.620433,54.15567],[-9.620433,54.15567],[-9.618411,54.15493],[-9.618411,54.15493],[-9.618411,54.15493],[-9.61834,54.154948],[-9.616628,54.155322],[-9.615839,54.155526],[-9.615243,54.155639],[-9.614449,54.155647],[-9.614448,54.155647],[-9.614456,54.155863],[-9.613997,54.155869],[-9.614008,54.156138],[-9.614029,54.156677],[-9.614039,54.15693],[-9.614215,54.156928],[-9.61425,54.157826],[-9.614074,54.157828],[-9.614081,54.158025],[-9.61454,54.158019],[-9.614551,54.158288],[-9.615928,54.15827],[-9.615939,54.158539],[-9.616398,54.158533],[-9.616408,54.158802],[-9.616868,54.158796],[-9.616878,54.159066],[-9.617796,54.159053],[-9.617806,54.159312],[-9.617947,54.159349],[-9.618026,54.15938],[-9.618116,54.159416],[-9.618116,54.159416],[-9.618116,54.159416],[-9.618012,54.159488],[-9.617902,54.159578],[-9.617895,54.159584],[-9.617758,54.159705],[-9.617581,54.159783],[-9.61742,54.159802],[-9.617412,54.159761],[-9.617343,54.159681],[-9.617265,54.159694],[-9.617246,54.159697],[-9.616952,54.159737],[-9.616787,54.15976],[-9.616787,54.15976],[-9.616613,54.159827],[-9.616486,54.159861],[-9.616486,54.159861],[-9.616486,54.159861],[-9.616453,54.159857],[-9.616387,54.159849],[-9.61616,54.159795],[-9.616073,54.159858],[-9.616073,54.159858],[-9.616073,54.159858],[-9.616001,54.159856],[-9.616,54.159856],[-9.6159,54.159852],[-9.615704,54.159886],[-9.615695,54.15989],[-9.61691,54.159874],[-9.61692,54.160143],[-9.615543,54.160162],[-9.615535,54.159963],[-9.615489,54.159984],[-9.615274,54.159945],[-9.615186,54.159931],[-9.615012,54.159905],[-9.614966,54.159906],[-9.614865,54.159909],[-9.614532,54.159795],[-9.6144,54.159764],[-9.61418,54.159771],[-9.614123,54.159773],[-9.613928,54.159862],[-9.613904,54.159873],[-9.613723,54.159917],[-9.613598,54.159916],[-9.613539,54.159915],[-9.613507,54.159902],[-9.613423,54.159867],[-9.61334,54.159816],[-9.613316,54.159805],[-9.613304,54.1598],[-9.613075,54.159789],[-9.612979,54.159757],[-9.612979,54.159757],[-9.612845,54.159658],[-9.612726,54.159596],[-9.612695,54.159579],[-9.612397,54.159599],[-9.612387,54.159623],[-9.612366,54.159677],[-9.612031,54.159844],[-9.611848,54.159875],[-9.611814,54.159892],[-9.611708,54.159943],[-9.611708,54.159943],[-9.611708,54.159943],[-9.611703,54.159944],[-9.611859,54.159942],[-9.611869,54.160211],[-9.61141,54.160217],[-9.611404,54.160053],[-9.611304,54.160069],[-9.611158,54.160129],[-9.611075,54.160137],[-9.611,54.160145],[-9.610877,54.160187],[-9.61078,54.160192],[-9.61072,54.160227],[-9.610951,54.160223],[-9.610962,54.160493],[-9.610502,54.160499],[-9.610494,54.160289],[-9.610254,54.160343],[-9.609886,54.160423],[-9.609818,54.160474],[-9.609708,54.160555],[-9.609588,54.160713],[-9.609586,54.160725],[-9.61177,54.160942],[-9.612862,54.16105],[-9.615124,54.161312],[-9.615253,54.161329],[-9.616071,54.16144],[-9.617483,54.161589],[-9.618106,54.161655],[-9.618137,54.16166],[-9.618179,54.161667],[-9.618843,54.161766],[-9.62594,54.162457],[-9.631594,54.162911],[-9.633126,54.163034],[-9.63436,54.163133],[-9.637803,54.163409]],[[-9.643726,54.161337],[-9.643714,54.161342],[-9.643713,54.161342],[-9.643692,54.161342],[-9.643677,54.161335],[-9.643672,54.161328],[-9.643672,54.161319],[-9.643678,54.161312],[-9.643696,54.161308],[-9.643717,54.161309],[-9.643732,54.161317],[-9.643734,54.16133],[-9.643726,54.161337]],[[-9.62272,54.155752],[-9.62271,54.155482],[-9.623169,54.155476],[-9.623179,54.155746],[-9.62272,54.155752]],[[-9.62319,54.156015],[-9.623179,54.155746],[-9.623638,54.155739],[-9.623649,54.156009],[-9.62319,54.156015]],[[-9.62366,54.156278],[-9.623649,54.156009],[-9.624567,54.155996],[-9.624578,54.156266],[-9.62366,54.156278]],[[-9.624588,54.156535],[-9.624578,54.156266],[-9.625037,54.15626],[-9.625047,54.156529],[-9.624588,54.156535]],[[-9.622699,54.155213],[-9.62271,54.155482],[-9.622251,54.155488],[-9.62224,54.155219],[-9.622699,54.155213]],[[-9.626435,54.15678],[-9.625517,54.156792],[-9.625507,54.156523],[-9.626425,54.156511],[-9.626435,54.15678]],[[-9.63157,54.158867],[-9.631581,54.159137],[-9.631122,54.159143],[-9.631111,54.158874],[-9.63157,54.158867]],[[-9.635254,54.159087],[-9.635265,54.159356],[-9.634806,54.159363],[-9.634795,54.159093],[-9.635254,54.159087]],[[-9.628378,54.15945],[-9.628388,54.159719],[-9.627929,54.159725],[-9.62794,54.159995],[-9.62748,54.160001],[-9.627491,54.160271],[-9.627032,54.160277],[-9.627021,54.160007],[-9.627011,54.159738],[-9.62747,54.159732],[-9.627459,54.159462],[-9.627918,54.159456],[-9.627908,54.159187],[-9.628826,54.159174],[-9.628837,54.159444],[-9.628378,54.15945]],[[-9.641276,54.160353],[-9.641287,54.160623],[-9.640828,54.160629],[-9.640817,54.160359],[-9.641276,54.160353]],[[-9.620947,54.157393],[-9.620958,54.157663],[-9.620498,54.157669],[-9.620488,54.157399],[-9.620947,54.157393]],[[-9.62053,54.158477],[-9.620071,54.158483],[-9.62005,54.157945],[-9.620509,54.157938],[-9.62053,54.158477]],[[-9.613696,54.159917],[-9.613706,54.160187],[-9.613247,54.160193],[-9.613236,54.159923],[-9.613696,54.159917]],[[-9.619247,54.160921],[-9.618788,54.160927],[-9.618778,54.160658],[-9.619237,54.160652],[-9.619247,54.160921]]],[[[-9.615857,54.15881],[-9.61595,54.158832],[-9.615949,54.158808],[-9.615857,54.15881]]],[[[-9.612616,54.158029],[-9.612704,54.158047],[-9.612704,54.158043],[-9.612697,54.157875],[-9.612617,54.158029],[-9.612616,54.158029]]]]}}]}
