{"type":"FeatureCollection","features":[{"type":"Feature","properties":{"source_fid":3017713,"county":"Mayo","bog_geom_ha":181.74501921300421,"low15_pct":87.164179104477611,"low15_ha":158.41655406029025,"overlay_ha":158.72089034767083,"area_delta":0.30433628738057905},"geometry":{"type":"MultiPolygon","coordinates":[[[[-9.339021,53.924573],[-9.338906,53.924618],[-9.339204,53.924527],[-9.339294,53.924496],[-9.339277,53.924497],[-9.339021,53.924573]]],[[[-9.340523,53.92475],[-9.340426,53.924726],[-9.34054,53.924761],[-9.340523,53.92475]]],[[[-9.333495,53.926281],[-9.333543,53.926333],[-9.333759,53.926602],[-9.333793,53.926648],[-9.333792,53.926635],[-9.333963,53.926633],[-9.333606,53.926245],[-9.333495,53.926281]]],[[[-9.334264,53.92697],[-9.33426,53.926965],[-9.33426,53.926972],[-9.334264,53.92697]]],[[[-9.334085,53.927171],[-9.334071,53.927176],[-9.33403,53.927204],[-9.33394,53.927282],[-9.333877,53.927334],[-9.333793,53.927406],[-9.333708,53.927459],[-9.333663,53.927496],[-9.333752,53.927484],[-9.33412,53.927273],[-9.334118,53.927204],[-9.334105,53.927171],[-9.334085,53.927171]]],[[[-9.334431,53.929287],[-9.334416,53.929249],[-9.334423,53.92946],[-9.334424,53.92946],[-9.334727,53.929533],[-9.334738,53.929535],[-9.334763,53.929541],[-9.334883,53.929558],[-9.335088,53.929587],[-9.335193,53.92961],[-9.335315,53.929689],[-9.335373,53.929726],[-9.335529,53.929797],[-9.335683,53.929825],[-9.335789,53.929813],[-9.335882,53.929802],[-9.335902,53.929807],[-9.336171,53.929873],[-9.336454,53.929937],[-9.336732,53.929958],[-9.336893,53.92997],[-9.337106,53.930009],[-9.337273,53.930107],[-9.337322,53.930132],[-9.33744,53.930193],[-9.337684,53.93024],[-9.337791,53.930237],[-9.337828,53.930236],[-9.337938,53.930224],[-9.338154,53.930204],[-9.338262,53.930194],[-9.338307,53.93022],[-9.338352,53.930247],[-9.338466,53.93033],[-9.338741,53.930542],[-9.33888,53.930648],[-9.33902,53.930754],[-9.339051,53.93078],[-9.339181,53.930892],[-9.339273,53.930972],[-9.339354,53.930931],[-9.339245,53.930802],[-9.33918,53.930694],[-9.33914,53.930596],[-9.339052,53.930517],[-9.338957,53.930438],[-9.338897,53.930283],[-9.338604,53.930177],[-9.338455,53.930128],[-9.338222,53.930156],[-9.337824,53.93019],[-9.337654,53.930086],[-9.337385,53.929948],[-9.33715,53.929914],[-9.337156,53.929896],[-9.336884,53.929834],[-9.336643,53.929811],[-9.336502,53.929813],[-9.335939,53.92971],[-9.335848,53.929751],[-9.335799,53.929759],[-9.335624,53.929684],[-9.335375,53.929578],[-9.335114,53.929512],[-9.334867,53.929479],[-9.334644,53.929423],[-9.334545,53.929391],[-9.334488,53.929356],[-9.334431,53.929287]]],[[[-9.337169,53.931889],[-9.337158,53.931897],[-9.337159,53.931924],[-9.337295,53.931927],[-9.337367,53.931928],[-9.337358,53.931918],[-9.337289,53.93184],[-9.337245,53.93181],[-9.33721,53.931787],[-9.337154,53.931762],[-9.337155,53.931778],[-9.337174,53.931798],[-9.337169,53.931889]]],[[[-9.339837,53.931612],[-9.339707,53.931403],[-9.339556,53.931281],[-9.339313,53.931051],[-9.339264,53.931075],[-9.339145,53.931077],[-9.339074,53.931079],[-9.339075,53.93108],[-9.339077,53.931082],[-9.339135,53.931139],[-9.339151,53.931174],[-9.339192,53.931265],[-9.33925,53.931319],[-9.339253,53.931322],[-9.339373,53.931379],[-9.339392,53.931388],[-9.339464,53.931424],[-9.339522,53.931467],[-9.339529,53.93148],[-9.339551,53.931518],[-9.339556,53.931574],[-9.339557,53.931595],[-9.339547,53.931632],[-9.339558,53.931711],[-9.339559,53.931713],[-9.339573,53.931723],[-9.339618,53.931757],[-9.339661,53.931789],[-9.339733,53.931843],[-9.339745,53.931852],[-9.339785,53.931917],[-9.339816,53.931938],[-9.339855,53.931964],[-9.339986,53.932006],[-9.340089,53.932027],[-9.340135,53.932044],[-9.340211,53.932115],[-9.340242,53.932143],[-9.340246,53.932148],[-9.340246,53.932148],[-9.340246,53.932148],[-9.340197,53.932188],[-9.340086,53.93226],[-9.340068,53.932272],[-9.340045,53.932287],[-9.339901,53.93238],[-9.33986,53.932444],[-9.339819,53.932488],[-9.339816,53.932491],[-9.339614,53.932558],[-9.339342,53.932634],[-9.339194,53.932672],[-9.339513,53.932615],[-9.33984,53.932509],[-9.340047,53.932371],[-9.340272,53.9322],[-9.340384,53.932165],[-9.340539,53.93223],[-9.340557,53.932249],[-9.340557,53.932185],[-9.340456,53.932109],[-9.340292,53.932002],[-9.340111,53.93191],[-9.339967,53.931835],[-9.339941,53.931799],[-9.339837,53.931612]]],[[[-9.337433,53.932079],[-9.337437,53.932072],[-9.337446,53.932056],[-9.337449,53.932042],[-9.337382,53.932078],[-9.337418,53.932096],[-9.337422,53.932092],[-9.33743,53.932085],[-9.337433,53.932079]]],[[[-9.337877,53.932226],[-9.337792,53.932294],[-9.337831,53.932306],[-9.337932,53.932305],[-9.338112,53.932194],[-9.338159,53.932157],[-9.338018,53.93218],[-9.33794,53.932199],[-9.337937,53.9322],[-9.337909,53.932211],[-9.33788,53.932223],[-9.337877,53.932226]]],[[[-9.34539,53.931625],[-9.345405,53.931559],[-9.345398,53.931481],[-9.345526,53.931175],[-9.345562,53.93115],[-9.345571,53.931097],[-9.345563,53.93107],[-9.345444,53.930962],[-9.345446,53.931026],[-9.345401,53.931161],[-9.345315,53.931344],[-9.345167,53.931345],[-9.345256,53.931453],[-9.345162,53.931559],[-9.344946,53.93174],[-9.344854,53.93193],[-9.344754,53.932072],[-9.344575,53.932256],[-9.344481,53.932391],[-9.344459,53.932457],[-9.344476,53.932609],[-9.34462,53.933068],[-9.344759,53.933379],[-9.344788,53.933509],[-9.344781,53.933754],[-9.344933,53.933546],[-9.34486,53.93344],[-9.34481,53.933329],[-9.344742,53.933245],[-9.344731,53.933151],[-9.344741,53.933067],[-9.344663,53.932948],[-9.344645,53.932764],[-9.344635,53.932668],[-9.344591,53.932616],[-9.344605,53.932576],[-9.344603,53.932517],[-9.344587,53.932477],[-9.344603,53.932442],[-9.344685,53.932409],[-9.344768,53.932401],[-9.344868,53.932252],[-9.344855,53.932197],[-9.344997,53.93207],[-9.34504,53.931938],[-9.345113,53.931846],[-9.34533,53.931715],[-9.34539,53.931625]]],[[[-9.344888,53.934838],[-9.34489,53.934634],[-9.344888,53.934362],[-9.34486,53.934236],[-9.344934,53.934143],[-9.344916,53.934047],[-9.344813,53.933937],[-9.344782,53.933855],[-9.34479,53.933966],[-9.344758,53.934134],[-9.34475,53.934243],[-9.344792,53.934424],[-9.344807,53.934503],[-9.344768,53.934609],[-9.344681,53.93477],[-9.344611,53.93489],[-9.344295,53.935217],[-9.344021,53.935478],[-9.343931,53.935566],[-9.343971,53.935663],[-9.344093,53.935814],[-9.344456,53.936209],[-9.345017,53.93682],[-9.345105,53.936888],[-9.345222,53.937076],[-9.345377,53.937299],[-9.345492,53.937446],[-9.34558,53.937495],[-9.345531,53.937415],[-9.345243,53.936919],[-9.344722,53.936347],[-9.344383,53.935967],[-9.34415,53.935711],[-9.344149,53.935654],[-9.344197,53.935567],[-9.344409,53.935354],[-9.344531,53.935285],[-9.344694,53.935136],[-9.344832,53.934951],[-9.344888,53.934838]]],[[[-9.348189,53.939418],[-9.347901,53.939193],[-9.347905,53.939298],[-9.348073,53.939465],[-9.348237,53.939582],[-9.348325,53.93964],[-9.348361,53.93964],[-9.348186,53.939486],[-9.348189,53.939418]]],[[[-9.317257,53.916159],[-9.317285,53.917057],[-9.317295,53.917381],[-9.317513,53.917379],[-9.317521,53.917648],[-9.31753,53.917918],[-9.317986,53.917913],[-9.317987,53.917948],[-9.318835,53.917938],[-9.318842,53.918173],[-9.320278,53.918157],[-9.320269,53.917888],[-9.321639,53.917873],[-9.321647,53.918142],[-9.322104,53.918137],[-9.322095,53.917868],[-9.322552,53.917863],[-9.32256,53.918132],[-9.322706,53.918131],[-9.322762,53.918093],[-9.322905,53.917746],[-9.323134,53.917193],[-9.323197,53.917134],[-9.323217,53.917025],[-9.323215,53.916957],[-9.323313,53.916897],[-9.323434,53.916851],[-9.32347,53.916758],[-9.323436,53.916643],[-9.323425,53.916543],[-9.32349,53.916407],[-9.323513,53.916314],[-9.323545,53.916182],[-9.323435,53.915968],[-9.323236,53.915733],[-9.323242,53.915568],[-9.32333,53.915401],[-9.323312,53.915343],[-9.323212,53.915201],[-9.323198,53.914984],[-9.323155,53.914817],[-9.323096,53.914664],[-9.323228,53.914434],[-9.323289,53.914377],[-9.323286,53.914296],[-9.323381,53.914295],[-9.323512,53.914182],[-9.323559,53.914089],[-9.323544,53.913969],[-9.323549,53.913718],[-9.323513,53.913708],[-9.323491,53.913634],[-9.323415,53.913536],[-9.323398,53.913496],[-9.323338,53.91338],[-9.323314,53.913227],[-9.323316,53.913027],[-9.323361,53.912833],[-9.323329,53.912794],[-9.323334,53.912764],[-9.323368,53.912732],[-9.323375,53.912688],[-9.323401,53.912623],[-9.323477,53.912575],[-9.323617,53.912461],[-9.323782,53.912312],[-9.32402,53.912057],[-9.32429,53.911757],[-9.324426,53.911665],[-9.324854,53.911425],[-9.324856,53.911398],[-9.324332,53.91069],[-9.324286,53.91064],[-9.324021,53.910387],[-9.323568,53.909871],[-9.323316,53.909608],[-9.323237,53.909479],[-9.323002,53.909004],[-9.322882,53.908786],[-9.322566,53.908168],[-9.322169,53.907432],[-9.321863,53.906831],[-9.32149,53.906716],[-9.321198,53.906629],[-9.320549,53.906432],[-9.320159,53.906312],[-9.319937,53.906246],[-9.318989,53.906256],[-9.318991,53.906309],[-9.318534,53.906314],[-9.318533,53.906261],[-9.318467,53.906262],[-9.318494,53.907123],[-9.319016,53.907117],[-9.319025,53.907387],[-9.319481,53.907382],[-9.31949,53.907651],[-9.319946,53.907646],[-9.319955,53.907916],[-9.320411,53.907911],[-9.32042,53.90818],[-9.320428,53.90845],[-9.319972,53.908455],[-9.320006,53.909533],[-9.319549,53.909538],[-9.319515,53.90846],[-9.319507,53.90819],[-9.31905,53.908195],[-9.319042,53.907926],[-9.318129,53.907936],[-9.31812,53.907666],[-9.317664,53.907671],[-9.317655,53.907402],[-9.317648,53.90717],[-9.317192,53.907175],[-9.317199,53.907407],[-9.316982,53.907409],[-9.317031,53.908973],[-9.31551,53.90899],[-9.315538,53.909888],[-9.317059,53.909872],[-9.317087,53.91077],[-9.315566,53.910786],[-9.315623,53.912583],[-9.314101,53.912599],[-9.31413,53.913498],[-9.314158,53.914396],[-9.315679,53.914379],[-9.315689,53.914703],[-9.316058,53.914699],[-9.316067,53.914968],[-9.316523,53.914963],[-9.316532,53.915233],[-9.31654,53.915502],[-9.315715,53.915511],[-9.315736,53.916176],[-9.317257,53.916159]]],[[[-9.322474,53.91834],[-9.322564,53.918242],[-9.32256,53.918132],[-9.322104,53.918137],[-9.322112,53.918407],[-9.322372,53.918404],[-9.322368,53.918376],[-9.322474,53.91834]]],[[[-9.321601,53.918807],[-9.321669,53.918817],[-9.321664,53.918681],[-9.319382,53.918706],[-9.319373,53.918437],[-9.318851,53.918443],[-9.318863,53.918837],[-9.317559,53.918851],[-9.317564,53.918996],[-9.317346,53.918998],[-9.31737,53.919752],[-9.314392,53.919784],[-9.3144,53.920056],[-9.314419,53.920072],[-9.314577,53.920218],[-9.314618,53.920263],[-9.314635,53.920376],[-9.314867,53.920374],[-9.314875,53.920643],[-9.314664,53.920645],[-9.314762,53.920744],[-9.314794,53.920802],[-9.314835,53.92087],[-9.314988,53.921046],[-9.315123,53.921185],[-9.315284,53.921338],[-9.31542,53.921472],[-9.315554,53.921598],[-9.315612,53.921653],[-9.315756,53.921757],[-9.315903,53.921881],[-9.316015,53.922007],[-9.316102,53.92215],[-9.316219,53.922303],[-9.316395,53.922507],[-9.316424,53.922542],[-9.316757,53.922906],[-9.316859,53.923027],[-9.317035,53.923246],[-9.317092,53.923349],[-9.317143,53.92344],[-9.317222,53.923541],[-9.317426,53.923746],[-9.317499,53.923831],[-9.317483,53.923344],[-9.319005,53.923328],[-9.319062,53.925124],[-9.318208,53.925133],[-9.318186,53.925174],[-9.318169,53.925216],[-9.318144,53.925257],[-9.318062,53.925378],[-9.317985,53.925485],[-9.317868,53.925644],[-9.317554,53.925583],[-9.317596,53.926937],[-9.316074,53.926954],[-9.316103,53.927852],[-9.314101,53.927874],[-9.314065,53.928052],[-9.314032,53.928157],[-9.314023,53.928186],[-9.313995,53.928203],[-9.313965,53.928217],[-9.313878,53.928243],[-9.313381,53.92808],[-9.313373,53.928078],[-9.313356,53.928072],[-9.313328,53.928064],[-9.313209,53.928027],[-9.313112,53.92799],[-9.313067,53.927965],[-9.313017,53.927945],[-9.312964,53.927929],[-9.31296,53.927886],[-9.310015,53.927918],[-9.31002,53.928074],[-9.310251,53.928176],[-9.310329,53.928176],[-9.310409,53.92819],[-9.310479,53.928232],[-9.310568,53.928298],[-9.310775,53.928399],[-9.310811,53.928475],[-9.310845,53.928581],[-9.310907,53.928774],[-9.310988,53.929101],[-9.311015,53.92924],[-9.311099,53.929231],[-9.311406,53.929181],[-9.31143,53.929174],[-9.311606,53.929279],[-9.311704,53.929315],[-9.311726,53.929322],[-9.311872,53.929391],[-9.311909,53.929431],[-9.312006,53.929445],[-9.312112,53.929483],[-9.312244,53.929569],[-9.312383,53.929689],[-9.312397,53.929701],[-9.312496,53.929842],[-9.312493,53.929859],[-9.312574,53.929843],[-9.31254,53.930037],[-9.312534,53.930094],[-9.312512,53.930221],[-9.312482,53.930402],[-9.312472,53.930575],[-9.312444,53.930772],[-9.312422,53.930944],[-9.31239,53.931179],[-9.312364,53.931327],[-9.312321,53.931485],[-9.312276,53.931602],[-9.312189,53.931798],[-9.312107,53.931958],[-9.312012,53.932148],[-9.311968,53.932259],[-9.311925,53.932349],[-9.311891,53.932437],[-9.311882,53.932511],[-9.31188,53.932598],[-9.311894,53.932675],[-9.311928,53.932809],[-9.311961,53.932951],[-9.312033,53.933215],[-9.312078,53.933367],[-9.312133,53.933543],[-9.312174,53.933667],[-9.312214,53.933824],[-9.312242,53.933947],[-9.312274,53.934063],[-9.312292,53.934202],[-9.312322,53.934326],[-9.31234,53.934404],[-9.312358,53.934484],[-9.312401,53.934628],[-9.312401,53.934628],[-9.312414,53.93463],[-9.312547,53.934684],[-9.312573,53.934686],[-9.312573,53.934686],[-9.312573,53.934686],[-9.312726,53.93484],[-9.312726,53.93484],[-9.312726,53.93484],[-9.31273,53.934846],[-9.312753,53.934886],[-9.312785,53.93494],[-9.312887,53.935117],[-9.312936,53.935208],[-9.312937,53.935306],[-9.313024,53.935503],[-9.313118,53.935634],[-9.31313,53.935648],[-9.313103,53.935652],[-9.313044,53.935661],[-9.313079,53.935736],[-9.313116,53.935785],[-9.313176,53.935862],[-9.313186,53.935895],[-9.313181,53.93593],[-9.313217,53.935982],[-9.313264,53.936031],[-9.313343,53.936083],[-9.313415,53.93619],[-9.313451,53.9363],[-9.313432,53.936408],[-9.313466,53.936439],[-9.313495,53.936465],[-9.313481,53.936468],[-9.3134,53.936536],[-9.31332,53.936619],[-9.313255,53.936735],[-9.313234,53.936772],[-9.313183,53.936813],[-9.313107,53.936932],[-9.313107,53.937027],[-9.313097,53.937105],[-9.313075,53.937182],[-9.313087,53.937227],[-9.313094,53.937305],[-9.31305,53.937377],[-9.31299,53.937401],[-9.312919,53.937495],[-9.312867,53.93755],[-9.312857,53.937571],[-9.31297,53.937596],[-9.313001,53.937622],[-9.313031,53.937677],[-9.313011,53.937741],[-9.312988,53.937769],[-9.312988,53.937769],[-9.313586,53.937763],[-9.313582,53.937642],[-9.313548,53.936564],[-9.31354,53.936295],[-9.313996,53.93629],[-9.313954,53.934942],[-9.314411,53.934937],[-9.314453,53.936285],[-9.314462,53.936554],[-9.314918,53.936549],[-9.314928,53.936849],[-9.317021,53.936827],[-9.316964,53.936686],[-9.316797,53.936336],[-9.317047,53.936255],[-9.31718,53.936212],[-9.317325,53.936154],[-9.317283,53.936046],[-9.317215,53.935889],[-9.317193,53.935819],[-9.317214,53.93578],[-9.317241,53.935757],[-9.317289,53.935753],[-9.31736,53.935747],[-9.317471,53.935743],[-9.317544,53.935734],[-9.317666,53.93572],[-9.317791,53.935752],[-9.318081,53.935749],[-9.318288,53.935721],[-9.318372,53.935668],[-9.318396,53.935604],[-9.318372,53.935536],[-9.31833,53.935434],[-9.318325,53.935417],[-9.318502,53.935329],[-9.318731,53.935175],[-9.318832,53.935037],[-9.318845,53.93501],[-9.318888,53.934923],[-9.318936,53.934743],[-9.319004,53.934676],[-9.319125,53.934599],[-9.319319,53.934524],[-9.319357,53.934501],[-9.319345,53.934106],[-9.319585,53.934103],[-9.319678,53.93396],[-9.319929,53.933822],[-9.320045,53.933747],[-9.320107,53.933634],[-9.320119,53.933508],[-9.3201,53.933393],[-9.320196,53.933323],[-9.320513,53.933273],[-9.320839,53.933218],[-9.320838,53.933191],[-9.320951,53.933189],[-9.3212,53.933121],[-9.321308,53.933067],[-9.321491,53.933019],[-9.321679,53.933011],[-9.32189,53.932987],[-9.321962,53.932936],[-9.321972,53.932835],[-9.322094,53.932812],[-9.322179,53.932733],[-9.322226,53.932667],[-9.32221,53.932615],[-9.322146,53.932528],[-9.322113,53.932443],[-9.322108,53.932404],[-9.322151,53.932359],[-9.322127,53.932343],[-9.321863,53.932217],[-9.321673,53.932133],[-9.32128,53.931968],[-9.320995,53.931864],[-9.320739,53.931765],[-9.320707,53.931749],[-9.320712,53.931902],[-9.320255,53.931907],[-9.320246,53.931638],[-9.320238,53.931368],[-9.320229,53.931099],[-9.320686,53.931094],[-9.320677,53.930824],[-9.321591,53.930814],[-9.321582,53.930545],[-9.321126,53.93055],[-9.321117,53.93028],[-9.32203,53.93027],[-9.322039,53.93054],[-9.322048,53.930809],[-9.322056,53.931079],[-9.321599,53.931084],[-9.321608,53.931353],[-9.321483,53.931355],[-9.321752,53.931479],[-9.321778,53.931491],[-9.321824,53.931512],[-9.322211,53.931192],[-9.322311,53.931111],[-9.322357,53.93107],[-9.322415,53.930943],[-9.322486,53.93082],[-9.322642,53.930593],[-9.322664,53.930557],[-9.322779,53.93038],[-9.322925,53.930231],[-9.323123,53.930035],[-9.323217,53.929979],[-9.32332,53.929931],[-9.323301,53.929903],[-9.323256,53.929873],[-9.323208,53.929726],[-9.323175,53.92957],[-9.323161,53.929463],[-9.323157,53.929364],[-9.323165,53.929292],[-9.323229,53.92918],[-9.323281,53.929122],[-9.323363,53.929068],[-9.323427,53.929034],[-9.323565,53.928997],[-9.323765,53.928964],[-9.324157,53.928966],[-9.324174,53.928966],[-9.324253,53.928969],[-9.324434,53.928922],[-9.324746,53.928864],[-9.324862,53.928836],[-9.32506,53.928787],[-9.325181,53.928764],[-9.325176,53.928618],[-9.325168,53.928348],[-9.324711,53.928353],[-9.324702,53.928084],[-9.324694,53.927814],[-9.325607,53.927804],[-9.325599,53.927535],[-9.326055,53.92753],[-9.326047,53.92726],[-9.326503,53.927255],[-9.326495,53.926986],[-9.326469,53.926177],[-9.326926,53.926172],[-9.326917,53.925903],[-9.327374,53.925898],[-9.327382,53.926167],[-9.327408,53.926976],[-9.326951,53.926981],[-9.32696,53.92725],[-9.326969,53.92752],[-9.326975,53.927732],[-9.328289,53.927718],[-9.328349,53.927713],[-9.328358,53.927717],[-9.329799,53.927701],[-9.329771,53.926803],[-9.330001,53.9268],[-9.329959,53.926713],[-9.330099,53.926676],[-9.329683,53.926681],[-9.329674,53.926411],[-9.330115,53.926406],[-9.330099,53.92634],[-9.330313,53.926352],[-9.330348,53.926297],[-9.330496,53.926323],[-9.330585,53.926341],[-9.330611,53.926229],[-9.330622,53.926142],[-9.330624,53.926112],[-9.330468,53.92606],[-9.330452,53.926027],[-9.330361,53.925865],[-9.330114,53.925867],[-9.330105,53.925598],[-9.329648,53.925603],[-9.32964,53.925333],[-9.329631,53.925064],[-9.330014,53.92506],[-9.330013,53.925054],[-9.330035,53.925009],[-9.33004,53.925003],[-9.329714,53.925006],[-9.32971,53.92487],[-9.329666,53.924853],[-9.3295,53.924785],[-9.329475,53.924787],[-9.329407,53.924786],[-9.329367,53.924786],[-9.329341,53.924777],[-9.32927,53.924753],[-9.329157,53.924709],[-9.329061,53.924678],[-9.32896,53.924645],[-9.328804,53.924559],[-9.328702,53.924483],[-9.328607,53.924384],[-9.328563,53.924343],[-9.328444,53.924213],[-9.328393,53.924123],[-9.328164,53.924125],[-9.32816,53.924016],[-9.327908,53.923923],[-9.327388,53.923857],[-9.327309,53.923847],[-9.327314,53.924011],[-9.327771,53.924006],[-9.327779,53.924276],[-9.326866,53.924286],[-9.326857,53.924016],[-9.325488,53.924031],[-9.325479,53.923762],[-9.325022,53.923767],[-9.325014,53.923497],[-9.325005,53.923228],[-9.324549,53.923233],[-9.32454,53.922963],[-9.324084,53.922968],[-9.324066,53.922429],[-9.324058,53.92216],[-9.323601,53.922165],[-9.323584,53.921626],[-9.323567,53.921087],[-9.323559,53.920817],[-9.323102,53.920822],[-9.323094,53.920553],[-9.32218,53.920563],[-9.322172,53.920293],[-9.321715,53.920298],[-9.321707,53.920029],[-9.321698,53.919759],[-9.321242,53.919764],[-9.321233,53.919495],[-9.319407,53.919515],[-9.319399,53.919245],[-9.318942,53.91925],[-9.318933,53.918981],[-9.321501,53.918953],[-9.321475,53.918935],[-9.321443,53.918866],[-9.321432,53.918843],[-9.321432,53.918813],[-9.321441,53.918808],[-9.32148,53.918787],[-9.321512,53.918792],[-9.321601,53.918807]],[[-9.327788,53.924545],[-9.327779,53.924276],[-9.328236,53.92427],[-9.328244,53.92454],[-9.327788,53.924545]],[[-9.328253,53.924809],[-9.328244,53.92454],[-9.328701,53.924535],[-9.32871,53.924804],[-9.328253,53.924809]],[[-9.316556,53.932519],[-9.316619,53.93251],[-9.316601,53.931947],[-9.317058,53.931942],[-9.317032,53.931134],[-9.316576,53.931139],[-9.316567,53.930869],[-9.316559,53.9306],[-9.31655,53.93033],[-9.317464,53.93032],[-9.317472,53.93059],[-9.317929,53.930585],[-9.317937,53.930854],[-9.318394,53.930849],[-9.318403,53.931119],[-9.318428,53.931927],[-9.318462,53.933005],[-9.318487,53.933814],[-9.318031,53.933819],[-9.318056,53.934628],[-9.318065,53.934897],[-9.317608,53.934902],[-9.3176,53.934633],[-9.317143,53.934638],[-9.317117,53.933829],[-9.317092,53.93302],[-9.316832,53.933023],[-9.316921,53.933573],[-9.317013,53.934131],[-9.317015,53.93414],[-9.316985,53.9342],[-9.316947,53.934277],[-9.316916,53.934449],[-9.316919,53.934483],[-9.316967,53.934594],[-9.316991,53.934636],[-9.31701,53.93467],[-9.317014,53.934681],[-9.317021,53.934706],[-9.317027,53.934752],[-9.317034,53.934805],[-9.317058,53.93496],[-9.317062,53.934984],[-9.317123,53.935092],[-9.317151,53.935129],[-9.317142,53.935148],[-9.317122,53.935169],[-9.3171,53.935193],[-9.317102,53.9352],[-9.317114,53.935239],[-9.317144,53.935284],[-9.317149,53.935292],[-9.31715,53.935293],[-9.317152,53.935295],[-9.317152,53.935295],[-9.317152,53.935295],[-9.317102,53.935318],[-9.317054,53.935343],[-9.316982,53.935384],[-9.316873,53.935447],[-9.316716,53.935598],[-9.316508,53.935517],[-9.316332,53.935372],[-9.316102,53.935587],[-9.315985,53.935702],[-9.315774,53.93555],[-9.315732,53.935522],[-9.315499,53.93537],[-9.315458,53.935331],[-9.31566,53.935121],[-9.315884,53.934895],[-9.316028,53.934735],[-9.316053,53.93468],[-9.316074,53.934649],[-9.316074,53.934649],[-9.316026,53.934623],[-9.315978,53.934597],[-9.315856,53.93454],[-9.315829,53.934532],[-9.315701,53.934493],[-9.315581,53.93449],[-9.315521,53.934488],[-9.315389,53.934489],[-9.315255,53.93449],[-9.315128,53.934497],[-9.314844,53.934512],[-9.314655,53.934518],[-9.314563,53.934521],[-9.314264,53.934554],[-9.314178,53.934575],[-9.314083,53.934598],[-9.314024,53.934613],[-9.31381,53.934668],[-9.313496,53.934738],[-9.313244,53.93479],[-9.313093,53.93482],[-9.312935,53.934852],[-9.312866,53.934864],[-9.312823,53.934872],[-9.312797,53.934791],[-9.312757,53.934669],[-9.312636,53.93456],[-9.312555,53.934487],[-9.312429,53.934342],[-9.312429,53.934342],[-9.312429,53.934342],[-9.312473,53.934326],[-9.312563,53.934294],[-9.312723,53.934223],[-9.312943,53.934131],[-9.31305,53.934087],[-9.313145,53.934045],[-9.31339,53.933935],[-9.313628,53.933818],[-9.313916,53.933656],[-9.31432,53.933427],[-9.314373,53.933402],[-9.314521,53.933332],[-9.314474,53.933298],[-9.314464,53.93329],[-9.314464,53.93329],[-9.314464,53.93329],[-9.314451,53.933235],[-9.314477,53.933192],[-9.3145,53.933154],[-9.314603,53.933134],[-9.314663,53.933122],[-9.314752,53.933133],[-9.314745,53.933014],[-9.314695,53.932964],[-9.314695,53.932964],[-9.314695,53.932964],[-9.314704,53.932943],[-9.314721,53.932901],[-9.314765,53.932849],[-9.314802,53.932803],[-9.31484,53.932757],[-9.314981,53.932652],[-9.31517,53.932646],[-9.315259,53.932651],[-9.315392,53.932658],[-9.315647,53.932651],[-9.316064,53.932599],[-9.316093,53.932595],[-9.316115,53.932592],[-9.316251,53.932569],[-9.316556,53.932519]],[[-9.312746,53.929685],[-9.312803,53.929655],[-9.312902,53.929642],[-9.313311,53.929637],[-9.313346,53.929679],[-9.313477,53.929834],[-9.313567,53.929917],[-9.313672,53.93003],[-9.313696,53.930071],[-9.313929,53.93022],[-9.31402,53.930279],[-9.31406,53.930298],[-9.314155,53.930459],[-9.3142,53.930574],[-9.314237,53.930637],[-9.314293,53.930698],[-9.314234,53.930773],[-9.313921,53.930841],[-9.313633,53.930918],[-9.313408,53.93086],[-9.313211,53.93078],[-9.313051,53.930592],[-9.312978,53.93046],[-9.312869,53.930211],[-9.312795,53.930042],[-9.31271,53.929782],[-9.312702,53.929709],[-9.312746,53.929685]],[[-9.322328,53.928425],[-9.322163,53.928518],[-9.322126,53.928549],[-9.321881,53.92866],[-9.321583,53.928786],[-9.321449,53.928837],[-9.321244,53.928914],[-9.321156,53.928953],[-9.321066,53.929024],[-9.320998,53.929072],[-9.320798,53.929117],[-9.320627,53.92915],[-9.320513,53.929157],[-9.320212,53.929133],[-9.320167,53.929126],[-9.32017,53.929212],[-9.319256,53.929222],[-9.31925,53.929023],[-9.319203,53.929015],[-9.319103,53.928965],[-9.319085,53.928955],[-9.318335,53.928963],[-9.318326,53.928693],[-9.318309,53.928154],[-9.318631,53.928151],[-9.318632,53.928143],[-9.318676,53.928128],[-9.318752,53.928135],[-9.318863,53.928114],[-9.318917,53.928092],[-9.31897,53.928058],[-9.318899,53.928001],[-9.318958,53.927959],[-9.319152,53.927845],[-9.319401,53.92771],[-9.319589,53.927592],[-9.319751,53.927476],[-9.319784,53.927443],[-9.319832,53.927392],[-9.320026,53.927306],[-9.320346,53.927242],[-9.320481,53.927222],[-9.320782,53.927173],[-9.321053,53.927101],[-9.321292,53.927213],[-9.321612,53.927383],[-9.321983,53.927553],[-9.322224,53.927671],[-9.322299,53.927711],[-9.322309,53.927736],[-9.322399,53.927788],[-9.32245,53.927795],[-9.322684,53.927931],[-9.322883,53.928053],[-9.32282,53.928115],[-9.322649,53.928222],[-9.322563,53.928282],[-9.322328,53.928425]],[[-9.321188,53.932519],[-9.321085,53.932535],[-9.321052,53.93253],[-9.321013,53.932499],[-9.320948,53.932409],[-9.320928,53.932344],[-9.320998,53.932312],[-9.321013,53.932246],[-9.321027,53.932214],[-9.321089,53.932182],[-9.321139,53.932155],[-9.321165,53.932164],[-9.321239,53.932226],[-9.321331,53.932288],[-9.321401,53.932302],[-9.321445,53.932321],[-9.321446,53.932347],[-9.321413,53.932384],[-9.321403,53.932415],[-9.321401,53.932449],[-9.321301,53.932492],[-9.321188,53.932519]],[[-9.320355,53.932081],[-9.320494,53.931926],[-9.320587,53.93194],[-9.320669,53.931984],[-9.320723,53.932042],[-9.320751,53.932101],[-9.320773,53.932127],[-9.320806,53.932164],[-9.320765,53.932214],[-9.320679,53.932249],[-9.320627,53.932256],[-9.320566,53.932218],[-9.320432,53.932132],[-9.320355,53.932081]],[[-9.325133,53.92727],[-9.325142,53.92754],[-9.324229,53.92755],[-9.32422,53.92728],[-9.323763,53.927285],[-9.323772,53.927555],[-9.323315,53.92756],[-9.323307,53.927291],[-9.323298,53.927021],[-9.324212,53.927011],[-9.324203,53.926741],[-9.32466,53.926736],[-9.324651,53.926467],[-9.325108,53.926462],[-9.325116,53.926731],[-9.325125,53.927001],[-9.325133,53.92727]],[[-9.31945,53.920862],[-9.319458,53.921132],[-9.319001,53.921137],[-9.318993,53.920867],[-9.318536,53.920872],[-9.318528,53.920603],[-9.318984,53.920598],[-9.318967,53.920059],[-9.319881,53.920049],[-9.319898,53.920588],[-9.319441,53.920593],[-9.31945,53.920862]],[[-9.320972,53.925699],[-9.320964,53.925429],[-9.320955,53.92516],[-9.321412,53.925155],[-9.321421,53.925424],[-9.321877,53.925419],[-9.321886,53.925689],[-9.320972,53.925699]],[[-9.318258,53.926537],[-9.318267,53.926807],[-9.31781,53.926812],[-9.317801,53.926542],[-9.317793,53.926273],[-9.318706,53.926263],[-9.318715,53.926532],[-9.318258,53.926537]],[[-9.319849,53.933529],[-9.319392,53.933534],[-9.319384,53.933265],[-9.319375,53.932995],[-9.320289,53.932985],[-9.320297,53.933255],[-9.319841,53.93326],[-9.319849,53.933529]],[[-9.31518,53.930345],[-9.315637,53.93034],[-9.315645,53.93061],[-9.315654,53.930879],[-9.31474,53.930889],[-9.314732,53.93062],[-9.314275,53.930625],[-9.314267,53.930355],[-9.314258,53.930086],[-9.313802,53.930091],[-9.313793,53.929821],[-9.315163,53.929806],[-9.315172,53.930076],[-9.31518,53.930345]]],[[[-9.321727,53.919031],[-9.321675,53.919019],[-9.321681,53.91922],[-9.322138,53.919215],[-9.322132,53.919032],[-9.322106,53.91903],[-9.322002,53.919018],[-9.321913,53.919025],[-9.321913,53.919025],[-9.32189,53.919026],[-9.321814,53.919037],[-9.321727,53.919031]]],[[[-9.322583,53.919246],[-9.322595,53.919235],[-9.322594,53.91921],[-9.322138,53.919215],[-9.322146,53.919485],[-9.322155,53.919754],[-9.322398,53.919752],[-9.322363,53.919738],[-9.3223,53.919697],[-9.322273,53.91968],[-9.322262,53.91961],[-9.322264,53.919547],[-9.322311,53.919496],[-9.32242,53.919399],[-9.322545,53.919309],[-9.322583,53.919246]]],[[[-9.322624,53.919799],[-9.322613,53.919798],[-9.32262,53.920019],[-9.323077,53.920014],[-9.32307,53.919803],[-9.322997,53.919797],[-9.322811,53.919799],[-9.322689,53.919801],[-9.322624,53.919799]]],[[[-9.323535,53.920059],[-9.323489,53.920009],[-9.323077,53.920014],[-9.323085,53.920283],[-9.323542,53.920278],[-9.323535,53.920059]]],[[[-9.323858,53.920356],[-9.32371,53.920276],[-9.323542,53.920278],[-9.32355,53.920548],[-9.324007,53.920543],[-9.324002,53.920401],[-9.323969,53.920385],[-9.323858,53.920356]]],[[[-9.324279,53.920595],[-9.324223,53.92054],[-9.324007,53.920543],[-9.324015,53.920812],[-9.324024,53.921082],[-9.32448,53.921077],[-9.324473,53.920839],[-9.324279,53.920595]]],[[[-9.324858,53.921102],[-9.324808,53.921073],[-9.32448,53.921077],[-9.324497,53.921616],[-9.324897,53.921611],[-9.324951,53.9215],[-9.32494,53.92115],[-9.324858,53.921102]]],[[[-9.325085,53.922184],[-9.324969,53.922077],[-9.324971,53.92215],[-9.32498,53.922419],[-9.325436,53.922414],[-9.325453,53.922953],[-9.32591,53.922948],[-9.325919,53.923218],[-9.326263,53.923214],[-9.326163,53.922957],[-9.326134,53.922888],[-9.325911,53.922679],[-9.325901,53.922679],[-9.325901,53.92267],[-9.325882,53.922651],[-9.325085,53.922184]]],[[[-9.326398,53.923482],[-9.326383,53.923451],[-9.326384,53.923482],[-9.326398,53.923482]]],[[[-9.314891,53.937748],[-9.314888,53.937628],[-9.314496,53.937632],[-9.314499,53.937753],[-9.314891,53.937748]]],[[[-9.317314,53.917955],[-9.317531,53.917953],[-9.31753,53.917918],[-9.317312,53.91792],[-9.317314,53.917955]]],[[[-9.333044,53.927665],[-9.333044,53.927659],[-9.33285,53.927655],[-9.332849,53.927667],[-9.333044,53.927665]]],[[[-9.309763,53.928853],[-9.309563,53.928895],[-9.309302,53.928889],[-9.309154,53.928826],[-9.307136,53.928848],[-9.30712,53.928859],[-9.307014,53.928891],[-9.307001,53.928896],[-9.307017,53.929422],[-9.307243,53.929611],[-9.307578,53.929886],[-9.307613,53.929941],[-9.307625,53.92996],[-9.307685,53.929997],[-9.307774,53.930053],[-9.307863,53.930021],[-9.307933,53.930067],[-9.308217,53.930285],[-9.308514,53.93051],[-9.30896,53.930156],[-9.308974,53.930146],[-9.308929,53.930088],[-9.308925,53.930079],[-9.308951,53.930054],[-9.309159,53.929926],[-9.309245,53.929871],[-9.309226,53.929871],[-9.309218,53.929602],[-9.309747,53.929596],[-9.309848,53.929549],[-9.309982,53.929492],[-9.310027,53.929468],[-9.310005,53.929353],[-9.30998,53.929275],[-9.309981,53.929087],[-9.309989,53.928991],[-9.309964,53.928905],[-9.309926,53.928818],[-9.309836,53.928819],[-9.309763,53.928853]]]]}}]}
