{"type":"FeatureCollection","features":[{"type":"Feature","properties":{"source_fid":3018177,"county":"Mayo","bog_geom_ha":154.76557152119943,"low15_pct":72.319347319347315,"low15_ha":111.9254511991891,"overlay_ha":111.83151507655511,"area_delta":-0.093936122633991204},"geometry":{"type":"MultiPolygon","coordinates":[[[[-9.873155,53.922475],[-9.873314,53.922665],[-9.87449,53.922647],[-9.874502,53.922917],[-9.874514,53.923186],[-9.87375,53.923198],[-9.873758,53.923208],[-9.873767,53.923219],[-9.873769,53.923222],[-9.873771,53.923225],[-9.873866,53.92338],[-9.873885,53.923423],[-9.873907,53.923472],[-9.873987,53.923605],[-9.874014,53.923649],[-9.874126,53.923936],[-9.874168,53.924088],[-9.874225,53.924297],[-9.874281,53.924454],[-9.874358,53.924673],[-9.874521,53.925159],[-9.874582,53.925374],[-9.874665,53.925667],[-9.874754,53.925959],[-9.874787,53.926066],[-9.874827,53.926214],[-9.874859,53.926331],[-9.874891,53.926416],[-9.875115,53.926412],[-9.875103,53.926143],[-9.875079,53.925604],[-9.875536,53.925597],[-9.875524,53.925327],[-9.875511,53.925058],[-9.875968,53.925051],[-9.875956,53.924781],[-9.875944,53.924512],[-9.8764,53.924505],[-9.876388,53.924235],[-9.877758,53.924214],[-9.877746,53.923944],[-9.878202,53.923937],[-9.87819,53.923668],[-9.878646,53.923661],[-9.878634,53.923391],[-9.879091,53.923384],[-9.879079,53.923115],[-9.879535,53.923107],[-9.879523,53.922838],[-9.881349,53.922809],[-9.881337,53.92254],[-9.88225,53.922526],[-9.882238,53.922256],[-9.885433,53.922206],[-9.885421,53.921937],[-9.885877,53.92193],[-9.885889,53.922199],[-9.886767,53.922185],[-9.88676,53.92204],[-9.887252,53.922032],[-9.887247,53.921908],[-9.88679,53.921915],[-9.886778,53.921646],[-9.886766,53.921376],[-9.886309,53.921383],[-9.886297,53.921114],[-9.885384,53.921128],[-9.885372,53.920859],[-9.884916,53.920866],[-9.884928,53.921136],[-9.884015,53.92115],[-9.884003,53.92088],[-9.881721,53.920916],[-9.881733,53.921186],[-9.881276,53.921193],[-9.881288,53.921462],[-9.880375,53.921477],[-9.880388,53.921746],[-9.879018,53.921767],[-9.879006,53.921498],[-9.87855,53.921505],[-9.878538,53.921236],[-9.878525,53.920966],[-9.879438,53.920952],[-9.879427,53.920701],[-9.879383,53.920683],[-9.87897,53.92069],[-9.878963,53.920546],[-9.87894,53.920539],[-9.87851,53.920453],[-9.878087,53.920388],[-9.877763,53.920328],[-9.877383,53.920311],[-9.877067,53.920324],[-9.876462,53.920353],[-9.876243,53.920356],[-9.87608,53.920332],[-9.87587,53.920268],[-9.875474,53.920104],[-9.874821,53.919856],[-9.873887,53.920339],[-9.872585,53.920247],[-9.872379,53.920332],[-9.872481,53.920315],[-9.872529,53.920323],[-9.872541,53.920336],[-9.872557,53.920378],[-9.872579,53.920396],[-9.872634,53.920402],[-9.8727,53.920405],[-9.872763,53.920418],[-9.872792,53.920449],[-9.872822,53.920491],[-9.872859,53.920517],[-9.872928,53.920532],[-9.872965,53.920547],[-9.872967,53.920562],[-9.872934,53.920571],[-9.872894,53.92059],[-9.872866,53.920612],[-9.872836,53.920642],[-9.872779,53.920712],[-9.872695,53.92078],[-9.872584,53.920808],[-9.872449,53.920839],[-9.872314,53.92087],[-9.872159,53.920934],[-9.872084,53.920994],[-9.871996,53.921131],[-9.871971,53.921157],[-9.871978,53.921161],[-9.87201,53.921178],[-9.872131,53.921267],[-9.872145,53.921277],[-9.872267,53.921422],[-9.872375,53.921559],[-9.87252,53.921721],[-9.872681,53.921908],[-9.873155,53.922475]],[[-9.878513,53.920697],[-9.878525,53.920966],[-9.878069,53.920973],[-9.878057,53.920704],[-9.878513,53.920697]],[[-9.883583,53.921696],[-9.883571,53.921426],[-9.88494,53.921405],[-9.884952,53.921674],[-9.883583,53.921696]],[[-9.875775,53.92074],[-9.875318,53.920747],[-9.875306,53.920477],[-9.875763,53.92047],[-9.875775,53.92074]],[[-9.878586,53.922313],[-9.878598,53.922583],[-9.877229,53.922604],[-9.877241,53.922874],[-9.876328,53.922888],[-9.876316,53.922619],[-9.876772,53.922611],[-9.87676,53.922342],[-9.876748,53.922073],[-9.878117,53.922051],[-9.878129,53.922321],[-9.878586,53.922313]]],[[[-9.879921,53.920999],[-9.879842,53.920946],[-9.879438,53.920952],[-9.87945,53.921221],[-9.88082,53.9212],[-9.880808,53.920931],[-9.880404,53.920937],[-9.880318,53.920959],[-9.880209,53.920977],[-9.879921,53.920999]]],[[[-9.880804,53.920813],[-9.880802,53.920814],[-9.880808,53.920931],[-9.881264,53.920923],[-9.881252,53.920654],[-9.881137,53.920656],[-9.881057,53.920728],[-9.881057,53.920728],[-9.881057,53.920728],[-9.880965,53.920769],[-9.880872,53.920777],[-9.880804,53.920813]]],[[[-9.881312,53.920491],[-9.881247,53.920552],[-9.881252,53.920654],[-9.881709,53.920647],[-9.881696,53.920377],[-9.881473,53.920381],[-9.881312,53.920491]]],[[[-9.881826,53.920223],[-9.881691,53.920262],[-9.881696,53.920377],[-9.882609,53.920363],[-9.882597,53.920094],[-9.883331,53.920082],[-9.883266,53.920078],[-9.883208,53.920061],[-9.88315,53.920028],[-9.883111,53.919989],[-9.883033,53.919865],[-9.882986,53.919802],[-9.88291,53.919754],[-9.882863,53.919754],[-9.882792,53.919777],[-9.882744,53.919794],[-9.882744,53.919794],[-9.882744,53.919794],[-9.882679,53.919818],[-9.882574,53.919842],[-9.882443,53.919911],[-9.882197,53.920039],[-9.882064,53.920134],[-9.882064,53.920134],[-9.882064,53.920134],[-9.881979,53.920175],[-9.881826,53.920223]]],[[[-9.883414,53.92007],[-9.883341,53.920082],[-9.883504,53.920079],[-9.883492,53.920074],[-9.883414,53.92007]]],[[[-9.883558,53.920106],[-9.88351,53.920083],[-9.883522,53.920349],[-9.886261,53.920306],[-9.886273,53.920575],[-9.887036,53.920563],[-9.886967,53.920523],[-9.886488,53.920279],[-9.886118,53.920156],[-9.88563,53.920064],[-9.885435,53.920049],[-9.88504,53.920055],[-9.884831,53.920065],[-9.884796,53.920059],[-9.884767,53.92006],[-9.884671,53.920095],[-9.884525,53.920158],[-9.884464,53.920187],[-9.884319,53.920224],[-9.884156,53.920247],[-9.884051,53.920254],[-9.883932,53.920255],[-9.883829,53.920235],[-9.883721,53.920209],[-9.883634,53.920188],[-9.883593,53.920156],[-9.883558,53.920106]]],[[[-9.88748,53.920826],[-9.88719,53.920654],[-9.887198,53.92083],[-9.88748,53.920826]]],[[[-9.88767,53.920938],[-9.887659,53.920932],[-9.887667,53.921093],[-9.887941,53.921088],[-9.88767,53.920938]]],[[[-9.888165,53.921212],[-9.888128,53.921192],[-9.888135,53.921355],[-9.888147,53.921624],[-9.889973,53.921595],[-9.889986,53.921865],[-9.890898,53.921851],[-9.890896,53.921803],[-9.890878,53.921797],[-9.890806,53.921761],[-9.890739,53.921745],[-9.890717,53.921708],[-9.890671,53.921691],[-9.89061,53.921675],[-9.890512,53.92163],[-9.890474,53.921588],[-9.89043,53.921588],[-9.890428,53.921551],[-9.890401,53.921551],[-9.890327,53.921535],[-9.890264,53.921484],[-9.890209,53.921441],[-9.890134,53.921426],[-9.890058,53.92144],[-9.889951,53.921471],[-9.889812,53.921476],[-9.889648,53.921461],[-9.889484,53.92145],[-9.889337,53.921464],[-9.889206,53.921448],[-9.889132,53.921463],[-9.889038,53.921494],[-9.888947,53.921479],[-9.888871,53.921435],[-9.888593,53.921362],[-9.888473,53.921318],[-9.888165,53.921212]]],[[[-9.891077,53.921881],[-9.891014,53.921849],[-9.890898,53.921851],[-9.890911,53.92212],[-9.891367,53.922113],[-9.891365,53.922061],[-9.891343,53.922058],[-9.8913,53.92202],[-9.891286,53.922001],[-9.891234,53.921984],[-9.891178,53.921968],[-9.891126,53.92192],[-9.891077,53.921881]]],[[[-9.891666,53.922124],[-9.891616,53.922109],[-9.891367,53.922113],[-9.891379,53.922382],[-9.892292,53.922368],[-9.892289,53.922289],[-9.89223,53.922291],[-9.892165,53.922286],[-9.892093,53.922262],[-9.891937,53.922202],[-9.891859,53.922163],[-9.8918,53.92216],[-9.891735,53.922147],[-9.891666,53.922124]]],[[[-9.892672,53.922387],[-9.892606,53.922363],[-9.892292,53.922368],[-9.892304,53.922637],[-9.892761,53.92263],[-9.892773,53.9229],[-9.892797,53.923438],[-9.89281,53.923708],[-9.892822,53.923977],[-9.892834,53.924247],[-9.892378,53.924254],[-9.89239,53.924523],[-9.892402,53.924793],[-9.891945,53.9248],[-9.891958,53.925069],[-9.89197,53.925339],[-9.891513,53.925346],[-9.891525,53.925615],[-9.891069,53.925623],[-9.891057,53.925353],[-9.890144,53.925368],[-9.890156,53.925637],[-9.889699,53.925644],[-9.889712,53.925914],[-9.889255,53.925921],[-9.889267,53.92619],[-9.889279,53.92646],[-9.888823,53.926467],[-9.888835,53.926736],[-9.888379,53.926743],[-9.888391,53.927013],[-9.888403,53.927282],[-9.888415,53.927552],[-9.887959,53.927559],[-9.887983,53.928098],[-9.888007,53.928637],[-9.888032,53.929176],[-9.888488,53.929168],[-9.8885,53.929438],[-9.888044,53.929445],[-9.888117,53.931062],[-9.888153,53.93187],[-9.887697,53.931877],[-9.887709,53.932147],[-9.887721,53.932416],[-9.887264,53.932423],[-9.887277,53.932693],[-9.887241,53.932693],[-9.887287,53.933713],[-9.888808,53.933689],[-9.888727,53.931893],[-9.890249,53.931869],[-9.890894,53.931859],[-9.890893,53.931827],[-9.891349,53.93182],[-9.891313,53.931011],[-9.891769,53.931004],[-9.891806,53.931812],[-9.891807,53.931844],[-9.893292,53.931821],[-9.893333,53.932719],[-9.894854,53.932695],[-9.894849,53.93259],[-9.894839,53.932554],[-9.894835,53.93252],[-9.894837,53.932486],[-9.894843,53.932458],[-9.894844,53.932458],[-9.894814,53.931797],[-9.896335,53.931773],[-9.896294,53.930875],[-9.896254,53.929977],[-9.897775,53.929953],[-9.897734,53.929055],[-9.898405,53.929045],[-9.898454,53.928977],[-9.898472,53.928775],[-9.898348,53.928216],[-9.89836,53.928088],[-9.898409,53.928088],[-9.898944,53.928084],[-9.899022,53.928074],[-9.899465,53.928113],[-9.89958,53.928126],[-9.899652,53.92815],[-9.89969,53.928176],[-9.899974,53.928351],[-9.900135,53.92841],[-9.900491,53.928566],[-9.900544,53.928591],[-9.900233,53.928855],[-9.900098,53.92897],[-9.900044,53.929019],[-9.900777,53.929007],[-9.900737,53.928109],[-9.902258,53.928085],[-9.902221,53.927271],[-9.901953,53.927186],[-9.902043,53.926944],[-9.902148,53.926714],[-9.902027,53.926691],[-9.901775,53.926633],[-9.901471,53.926568],[-9.901123,53.926492],[-9.90062,53.926388],[-9.900652,53.92634],[-9.900664,53.92633],[-9.9007,53.926273],[-9.900709,53.926244],[-9.90084,53.926039],[-9.90083,53.92603],[-9.900841,53.926003],[-9.901057,53.925369],[-9.901877,53.925456],[-9.902455,53.925506],[-9.90265,53.925526],[-9.902689,53.92553],[-9.902746,53.925539],[-9.902759,53.925506],[-9.9028,53.925408],[-9.902822,53.925352],[-9.902953,53.925039],[-9.903001,53.924933],[-9.903092,53.924732],[-9.903115,53.924671],[-9.903179,53.924505],[-9.903198,53.924454],[-9.903249,53.92432],[-9.903254,53.924309],[-9.903191,53.924305],[-9.901327,53.924193],[-9.901661,53.923561],[-9.903162,53.923663],[-9.903569,53.92369],[-9.903603,53.923627],[-9.903619,53.923597],[-9.903645,53.92355],[-9.903649,53.923544],[-9.903766,53.923357],[-9.903865,53.923213],[-9.903933,53.923112],[-9.903964,53.923066],[-9.903133,53.923034],[-9.900944,53.92295],[-9.895049,53.922658],[-9.893144,53.922594],[-9.893052,53.922521],[-9.892928,53.922469],[-9.892802,53.922447],[-9.892712,53.92241],[-9.892672,53.922387]],[[-9.896042,53.924466],[-9.895129,53.92448],[-9.895141,53.92475],[-9.893771,53.924771],[-9.893784,53.925041],[-9.892871,53.925055],[-9.892858,53.924786],[-9.892846,53.924516],[-9.893303,53.924509],[-9.893278,53.92397],[-9.894648,53.923948],[-9.894636,53.923679],[-9.895092,53.923672],[-9.89508,53.923402],[-9.895993,53.923388],[-9.896005,53.923657],[-9.896017,53.923927],[-9.896042,53.924466]],[[-9.88987,53.929416],[-9.889846,53.928877],[-9.890302,53.92887],[-9.890326,53.929409],[-9.88987,53.929416]],[[-9.893583,53.930706],[-9.893632,53.931784],[-9.893176,53.931791],[-9.893127,53.930713],[-9.893583,53.930706]],[[-9.893656,53.932323],[-9.893632,53.931784],[-9.894089,53.931776],[-9.894113,53.932315],[-9.893656,53.932323]],[[-9.894125,53.932585],[-9.894113,53.932315],[-9.89457,53.932308],[-9.894582,53.932578],[-9.894125,53.932585]]],[[[-9.887206,53.931917],[-9.887216,53.932154],[-9.887252,53.932154],[-9.88724,53.931884],[-9.887204,53.931076],[-9.88766,53.931069],[-9.887587,53.929452],[-9.887575,53.929183],[-9.887551,53.928644],[-9.887094,53.928651],[-9.887106,53.928921],[-9.88665,53.928928],[-9.886662,53.929197],[-9.886674,53.929467],[-9.886686,53.929736],[-9.88623,53.929743],[-9.886254,53.930282],[-9.886266,53.930551],[-9.88581,53.930559],[-9.885822,53.930828],[-9.885365,53.930835],[-9.885388,53.931347],[-9.885426,53.931363],[-9.885573,53.931438],[-9.885595,53.931469],[-9.885555,53.931607],[-9.885548,53.93168],[-9.885499,53.931725],[-9.885325,53.931811],[-9.88509,53.931872],[-9.884966,53.931931],[-9.884918,53.931953],[-9.887206,53.931917]]],[[[-9.884738,53.931142],[-9.884924,53.931173],[-9.884909,53.930842],[-9.884896,53.930573],[-9.884884,53.930304],[-9.885341,53.930296],[-9.885317,53.929758],[-9.885773,53.92975],[-9.885761,53.929481],[-9.886218,53.929474],[-9.886205,53.929204],[-9.885749,53.929211],[-9.885737,53.928942],[-9.885725,53.928673],[-9.8857,53.928134],[-9.885244,53.928141],[-9.885256,53.92841],[-9.884799,53.928417],[-9.884824,53.928956],[-9.884367,53.928964],[-9.884391,53.929502],[-9.883935,53.92951],[-9.883947,53.929779],[-9.883995,53.930857],[-9.883539,53.930864],[-9.883541,53.930909],[-9.883744,53.930998],[-9.883854,53.931049],[-9.884101,53.931127],[-9.884307,53.931181],[-9.884391,53.931187],[-9.884462,53.931176],[-9.884572,53.931159],[-9.884674,53.931134],[-9.884738,53.931142]]],[[[-9.883114,53.931177],[-9.883156,53.93114],[-9.883094,53.931141],[-9.883096,53.931178],[-9.883114,53.931177]]],[[[-9.891367,53.922922],[-9.891391,53.923461],[-9.891428,53.92346],[-9.891404,53.922921],[-9.891367,53.922922]]],[[[-9.886801,53.922938],[-9.886791,53.922724],[-9.88637,53.922731],[-9.88638,53.922944],[-9.886801,53.922938]]],[[[-9.88007,53.92484],[-9.880526,53.924833],[-9.880521,53.92471],[-9.880064,53.924717],[-9.88007,53.92484]]],[[[-9.879356,53.926649],[-9.879281,53.924999],[-9.879163,53.925001],[-9.879176,53.92527],[-9.878719,53.925277],[-9.878731,53.925547],[-9.878275,53.925554],[-9.878299,53.926093],[-9.878755,53.926086],[-9.878767,53.926355],[-9.878311,53.926362],[-9.878323,53.926632],[-9.878325,53.926665],[-9.879356,53.926649]]],[[[-9.877915,53.928468],[-9.877845,53.926909],[-9.877422,53.926915],[-9.87741,53.926646],[-9.876953,53.926653],[-9.876941,53.926384],[-9.876485,53.926391],[-9.876509,53.92693],[-9.876053,53.926937],[-9.876065,53.927206],[-9.876077,53.927476],[-9.87562,53.927483],[-9.875632,53.927752],[-9.875335,53.927757],[-9.87535,53.927818],[-9.875361,53.927862],[-9.875393,53.927995],[-9.875426,53.928142],[-9.875446,53.928228],[-9.875494,53.928446],[-9.875488,53.928563],[-9.876125,53.928553],[-9.876101,53.928014],[-9.876557,53.928007],[-9.876545,53.927738],[-9.877458,53.927724],[-9.87747,53.927993],[-9.877492,53.928475],[-9.877915,53.928468]]],[[[-9.876434,53.92939],[-9.87642,53.929088],[-9.876149,53.929092],[-9.876161,53.929362],[-9.875502,53.929372],[-9.875497,53.929405],[-9.876434,53.92939]]],[[[-9.900191,53.931044],[-9.900213,53.931031],[-9.900298,53.930951],[-9.900393,53.930862],[-9.900453,53.930833],[-9.900496,53.930809],[-9.899338,53.930827],[-9.899365,53.931435],[-9.899379,53.931397],[-9.899389,53.931366],[-9.899418,53.931335],[-9.899431,53.931329],[-9.89954,53.931292],[-9.899647,53.931255],[-9.899746,53.931223],[-9.899805,53.931204],[-9.899878,53.931183],[-9.89993,53.931169],[-9.899934,53.931157],[-9.899943,53.931124],[-9.899917,53.931095],[-9.899952,53.931084],[-9.90002,53.931064],[-9.900012,53.931054],[-9.900014,53.931042],[-9.900022,53.931039],[-9.900042,53.931041],[-9.900109,53.931045],[-9.900165,53.931049],[-9.900191,53.931044]]],[[[-9.897233,53.935424],[-9.897232,53.935441],[-9.897228,53.935475],[-9.897265,53.935631],[-9.896927,53.936165],[-9.896531,53.936083],[-9.896539,53.936263],[-9.896579,53.937161],[-9.898101,53.937137],[-9.899522,53.937114],[-9.899484,53.937004],[-9.898978,53.936714],[-9.89855,53.936377],[-9.898388,53.936277],[-9.898312,53.936223],[-9.898277,53.936184],[-9.898241,53.936138],[-9.898185,53.936096],[-9.898104,53.93605],[-9.898067,53.936021],[-9.898044,53.935986],[-9.898057,53.935954],[-9.898105,53.935924],[-9.898146,53.935905],[-9.898154,53.935878],[-9.898183,53.935818],[-9.898369,53.935707],[-9.898816,53.935448],[-9.898614,53.935445],[-9.898583,53.935444],[-9.898268,53.935439],[-9.897918,53.935437],[-9.897572,53.93543],[-9.897233,53.935424]]],[[[-9.895855,53.937938],[-9.895907,53.938004],[-9.895949,53.937991],[-9.89612,53.93795],[-9.896387,53.93789],[-9.89661,53.937838],[-9.896579,53.937161],[-9.895058,53.937185],[-9.895017,53.936287],[-9.893495,53.936311],[-9.893577,53.938107],[-9.892055,53.938131],[-9.892095,53.939028],[-9.893231,53.939011],[-9.893253,53.938982],[-9.893386,53.938849],[-9.893452,53.938784],[-9.893481,53.938764],[-9.89352,53.938753],[-9.893575,53.938746],[-9.893621,53.938744],[-9.893741,53.938775],[-9.893805,53.938792],[-9.893895,53.938787],[-9.893994,53.938747],[-9.894089,53.938704],[-9.894123,53.938693],[-9.894272,53.938667],[-9.894311,53.938615],[-9.894291,53.938558],[-9.894255,53.938502],[-9.894229,53.938474],[-9.894231,53.938444],[-9.894264,53.938376],[-9.894329,53.938262],[-9.894369,53.938233],[-9.894461,53.938192],[-9.894551,53.938144],[-9.894651,53.938106],[-9.894768,53.938045],[-9.894814,53.938011],[-9.894872,53.937989],[-9.895015,53.937925],[-9.895192,53.937805],[-9.895318,53.937724],[-9.895461,53.937638],[-9.895513,53.937669],[-9.895652,53.937764],[-9.895767,53.937852],[-9.895855,53.937938]],[[-9.894321,53.936896],[-9.894308,53.936626],[-9.894765,53.936619],[-9.894777,53.936888],[-9.894321,53.936896]]],[[[-9.88957,53.940126],[-9.889506,53.940219],[-9.889485,53.940247],[-9.88944,53.940258],[-9.889314,53.940254],[-9.889104,53.94023],[-9.889108,53.940313],[-9.889302,53.940346],[-9.889381,53.940358],[-9.88948,53.940369],[-9.889601,53.940378],[-9.889737,53.940384],[-9.890027,53.940393],[-9.890331,53.940395],[-9.890559,53.9404],[-9.890587,53.9404],[-9.890635,53.940402],[-9.890614,53.93995],[-9.889802,53.939963],[-9.889708,53.940028],[-9.88957,53.940126]]],[[[-9.893318,53.940125],[-9.893316,53.940062],[-9.893326,53.939975],[-9.89334,53.939968],[-9.893381,53.939907],[-9.893381,53.939907],[-9.892136,53.939926],[-9.892164,53.940541],[-9.89252,53.940596],[-9.893047,53.94068],[-9.893057,53.940681],[-9.893265,53.940712],[-9.893265,53.940664],[-9.893264,53.940601],[-9.893285,53.940444],[-9.893297,53.940321],[-9.893287,53.940276],[-9.893298,53.940169],[-9.893318,53.940125]]]]}}]}
