{"type":"FeatureCollection","features":[{"type":"Feature","properties":{"source_fid":3018422,"county":"Mayo","bog_geom_ha":290.89465542436159,"low15_pct":64.28130783466996,"low15_ha":186.99088892793631,"overlay_ha":188.02187245003734,"area_delta":1.0309835221010246},"geometry":{"type":"MultiPolygon","coordinates":[[[[-10.00973,53.913791],[-10.0097,53.913755],[-10.009671,53.913755],[-10.009714,53.914653],[-10.010724,53.914636],[-10.010721,53.914636],[-10.010566,53.914561],[-10.010445,53.914502],[-10.010263,53.914362],[-10.010158,53.914256],[-10.009968,53.914045],[-10.010118,53.913966],[-10.010371,53.91385],[-10.010512,53.913778],[-10.010593,53.91374],[-10.010474,53.913742],[-10.01028,53.913829],[-10.010114,53.91392],[-10.009973,53.913997],[-10.00993,53.913999],[-10.00973,53.913791]]],[[[-10.010891,53.914634],[-10.011235,53.914628],[-10.011224,53.914419],[-10.011158,53.914465],[-10.011015,53.914551],[-10.010915,53.914613],[-10.010893,53.914633],[-10.010891,53.914634]]],[[[-10.011275,53.915562],[-10.01128,53.915565],[-10.011278,53.915526],[-10.011239,53.915526],[-10.011275,53.915562]]],[[[-10.010867,53.919286],[-10.010745,53.919418],[-10.01071,53.919448],[-10.010647,53.919484],[-10.0106,53.919504],[-10.010535,53.919533],[-10.010507,53.919553],[-10.010668,53.919647],[-10.010708,53.919678],[-10.010631,53.919748],[-10.010538,53.919828],[-10.010533,53.919871],[-10.010538,53.919902],[-10.010488,53.919956],[-10.010461,53.920024],[-10.010453,53.920032],[-10.010587,53.92003],[-10.010636,53.91994],[-10.010667,53.919896],[-10.01075,53.91985],[-10.010768,53.919817],[-10.010832,53.91984],[-10.011315,53.920018],[-10.011493,53.920015],[-10.011485,53.919836],[-10.011245,53.919781],[-10.01095,53.919703],[-10.011015,53.919626],[-10.011046,53.919579],[-10.011115,53.919455],[-10.011137,53.919422],[-10.011155,53.919394],[-10.011199,53.919307],[-10.011208,53.919308],[-10.011427,53.91939],[-10.011464,53.919405],[-10.011462,53.91935],[-10.011396,53.919327],[-10.011458,53.919285],[-10.011454,53.919195],[-10.011346,53.919298],[-10.011338,53.919295],[-10.011179,53.91922],[-10.01116,53.919152],[-10.011147,53.919042],[-10.01114,53.918958],[-10.011163,53.91886],[-10.011185,53.918798],[-10.011205,53.918766],[-10.011209,53.91874],[-10.011168,53.918725],[-10.01112,53.918709],[-10.011108,53.918647],[-10.011105,53.918575],[-10.011113,53.918435],[-10.011101,53.918342],[-10.011076,53.918317],[-10.01104,53.918294],[-10.011031,53.918264],[-10.011082,53.918202],[-10.011173,53.918091],[-10.011188,53.918073],[-10.011245,53.918017],[-10.01139,53.917859],[-10.011382,53.917696],[-10.011379,53.917732],[-10.011329,53.91782],[-10.011171,53.917992],[-10.011047,53.918116],[-10.010938,53.918219],[-10.01092,53.918287],[-10.010967,53.918394],[-10.010986,53.918505],[-10.010976,53.918634],[-10.010995,53.918675],[-10.010937,53.918672],[-10.010944,53.918692],[-10.010972,53.918717],[-10.01098,53.918757],[-10.011013,53.918797],[-10.011009,53.918845],[-10.010975,53.918897],[-10.010963,53.918962],[-10.010967,53.919014],[-10.010969,53.919071],[-10.010929,53.919169],[-10.010867,53.919286]]],[[[-10.017621,53.920811],[-10.01751,53.920813],[-10.017625,53.92089],[-10.017621,53.920811]]],[[[-10.010431,53.922866],[-10.010284,53.92286],[-10.010199,53.922837],[-10.010028,53.92284],[-10.009917,53.92285],[-10.009818,53.922831],[-10.009698,53.922836],[-10.009587,53.922843],[-10.009465,53.922846],[-10.009357,53.922858],[-10.009336,53.922855],[-10.009277,53.922876],[-10.009147,53.92282],[-10.009038,53.922752],[-10.008581,53.92276],[-10.008614,53.923444],[-10.009837,53.923424],[-10.009921,53.923317],[-10.009965,53.923245],[-10.009992,53.923192],[-10.010004,53.923169],[-10.010028,53.923095],[-10.010038,53.923058],[-10.010122,53.922941],[-10.010202,53.92292],[-10.010545,53.922947],[-10.010633,53.922948],[-10.01071,53.922961],[-10.010963,53.92299],[-10.01104,53.923006],[-10.011167,53.923016],[-10.011317,53.923041],[-10.011414,53.92306],[-10.011487,53.923104],[-10.011553,53.923118],[-10.011541,53.922856],[-10.011534,53.92271],[-10.010581,53.922726],[-10.010523,53.922779],[-10.010431,53.922866]]],[[[-10.011665,53.92358],[-10.011647,53.923607],[-10.011666,53.923606],[-10.011665,53.92358]]],[[[-10.014762,53.925183],[-10.014786,53.925169],[-10.014781,53.925069],[-10.014659,53.925034],[-10.014577,53.925025],[-10.014443,53.92501],[-10.014356,53.924987],[-10.014312,53.924966],[-10.013927,53.924973],[-10.013939,53.925242],[-10.014396,53.925235],[-10.014397,53.925266],[-10.014691,53.925199],[-10.014762,53.925183]]],[[[-10.01447,53.926642],[-10.014481,53.926593],[-10.014485,53.926481],[-10.014507,53.926341],[-10.014565,53.926135],[-10.014832,53.926118],[-10.014825,53.925967],[-10.014623,53.926035],[-10.014437,53.926091],[-10.014448,53.926312],[-10.014465,53.926665],[-10.01447,53.926642]]],[[[-10.013346,53.92687],[-10.013561,53.926866],[-10.013535,53.926328],[-10.01332,53.926331],[-10.013346,53.92687]]],[[[-10.015916,53.927549],[-10.01643,53.927688],[-10.016428,53.92764],[-10.016228,53.927589],[-10.015899,53.927505],[-10.015881,53.92754],[-10.015916,53.927549]]],[[[-10.0384,53.927871],[-10.038373,53.927781],[-10.038336,53.927746],[-10.038325,53.927655],[-10.03837,53.927654],[-10.038482,53.92765],[-10.03851,53.92765],[-10.038577,53.927646],[-10.038269,53.927651],[-10.03829,53.928067],[-10.038348,53.928066],[-10.038376,53.927991],[-10.0384,53.927871]]],[[[-10.01431,53.928032],[-10.014133,53.927856],[-10.01383,53.92763],[-10.014066,53.927487],[-10.014105,53.927461],[-10.014186,53.927407],[-10.01439,53.927272],[-10.014462,53.927205],[-10.014476,53.927136],[-10.014632,53.927169],[-10.014787,53.92721],[-10.015039,53.927298],[-10.01513,53.927152],[-10.01511,53.927143],[-10.014882,53.927147],[-10.014876,53.927033],[-10.014473,53.926844],[-10.014474,53.926851],[-10.013561,53.926866],[-10.013574,53.927136],[-10.013359,53.927139],[-10.013363,53.92723],[-10.013691,53.927515],[-10.013594,53.92758],[-10.013386,53.927717],[-10.013403,53.92807],[-10.013443,53.928896],[-10.01376,53.928808],[-10.01392,53.928943],[-10.014039,53.928891],[-10.014342,53.928758],[-10.014501,53.928717],[-10.014837,53.928633],[-10.015157,53.928588],[-10.015459,53.928537],[-10.015592,53.928483],[-10.015559,53.928416],[-10.01564,53.928379],[-10.01586,53.928301],[-10.015942,53.928272],[-10.016159,53.928192],[-10.016485,53.928019],[-10.016446,53.928019],[-10.01644,53.927889],[-10.016196,53.927981],[-10.016089,53.928024],[-10.01568,53.928177],[-10.015635,53.928192],[-10.015318,53.928299],[-10.014767,53.928484],[-10.01431,53.928032]]],[[[-10.03784,53.928713],[-10.037937,53.928712],[-10.037969,53.928648],[-10.037987,53.928611],[-10.037859,53.928613],[-10.037857,53.928569],[-10.037748,53.928581],[-10.037321,53.928618],[-10.037131,53.928586],[-10.037044,53.92857],[-10.036364,53.928582],[-10.036366,53.928624],[-10.036953,53.928644],[-10.037508,53.92874],[-10.03784,53.928713]]],[[[-10.035771,53.929629],[-10.035894,53.929708],[-10.035959,53.929754],[-10.036015,53.929763],[-10.036082,53.929755],[-10.036179,53.929783],[-10.036224,53.929822],[-10.036246,53.929876],[-10.036331,53.92991],[-10.036427,53.929938],[-10.036559,53.929962],[-10.03664,53.929981],[-10.036792,53.930016],[-10.036823,53.930023],[-10.036901,53.930041],[-10.036984,53.929926],[-10.03698,53.929925],[-10.036971,53.929921],[-10.036895,53.929905],[-10.03674,53.929909],[-10.036632,53.929917],[-10.03654,53.929907],[-10.036416,53.929877],[-10.036351,53.929836],[-10.036281,53.929792],[-10.036196,53.929748],[-10.036088,53.929728],[-10.036004,53.929722],[-10.035979,53.92971],[-10.035956,53.929699],[-10.035801,53.929601],[-10.035679,53.929527],[-10.035583,53.929505],[-10.035559,53.929494],[-10.035437,53.929496],[-10.035521,53.929528],[-10.035654,53.929567],[-10.035771,53.929629]]],[[[-10.033227,53.9319],[-10.033844,53.932097],[-10.033948,53.93213],[-10.033227,53.9319]]],[[[-10.030438,53.933974],[-10.030452,53.934249],[-10.030727,53.934283],[-10.031051,53.93431],[-10.031363,53.934335],[-10.031439,53.934341],[-10.031472,53.934349],[-10.03153,53.934245],[-10.031539,53.934215],[-10.031302,53.934175],[-10.030897,53.934078],[-10.030583,53.934001],[-10.030438,53.933974]]],[[[-10.030459,53.934399],[-10.031481,53.934632],[-10.031481,53.934631],[-10.031457,53.934549],[-10.031479,53.934434],[-10.031314,53.934398],[-10.03123,53.934377],[-10.031066,53.934363],[-10.03091,53.934362],[-10.030719,53.934364],[-10.03057,53.934349],[-10.030456,53.934335],[-10.030459,53.934399]]],[[[-10.0292,53.937534],[-10.029266,53.937453],[-10.02935,53.937206],[-10.029435,53.936867],[-10.02926,53.936845],[-10.029209,53.936839],[-10.02913,53.936883],[-10.029057,53.936893],[-10.029091,53.937588],[-10.0292,53.937534]]],[[[-10.029148,53.938776],[-10.029651,53.938947],[-10.02951,53.938899],[-10.029148,53.938776]]],[[[-9.977872,53.896712],[-9.977727,53.896876],[-9.97758,53.897068],[-9.977382,53.89725],[-9.977137,53.897474],[-9.977047,53.89756],[-9.976946,53.897635],[-9.976955,53.897815],[-9.97701,53.897814],[-9.977023,53.898084],[-9.977935,53.898069],[-9.977922,53.897799],[-9.978379,53.897792],[-9.978366,53.897522],[-9.978822,53.897515],[-9.978809,53.897245],[-9.979722,53.89723],[-9.979709,53.896961],[-9.981077,53.896938],[-9.981074,53.896873],[-9.980351,53.896795],[-9.978015,53.896542],[-9.977999,53.896541],[-9.977872,53.896712]]],[[[-9.975667,53.898376],[-9.975656,53.898146],[-9.975449,53.898149],[-9.975334,53.898151],[-9.975261,53.898172],[-9.975161,53.898199],[-9.975075,53.898217],[-9.975322,53.898381],[-9.975667,53.898376]]],[[[-9.990889,53.90115],[-9.990799,53.901147],[-9.990775,53.901136],[-9.99062,53.901133],[-9.990619,53.901075],[-9.990624,53.900972],[-9.990635,53.900948],[-9.990637,53.900825],[-9.990577,53.900826],[-9.990581,53.900883],[-9.99056,53.90096],[-9.990555,53.901003],[-9.990525,53.901051],[-9.99037,53.901063],[-9.990164,53.901078],[-9.990134,53.901081],[-9.989944,53.901096],[-9.989912,53.901005],[-9.989895,53.900854],[-9.989895,53.900837],[-9.989807,53.900838],[-9.989821,53.900916],[-9.989847,53.901053],[-9.989892,53.901192],[-9.989774,53.901207],[-9.98965,53.901186],[-9.98963,53.901188],[-9.989584,53.901209],[-9.989357,53.901241],[-9.989299,53.901245],[-9.989248,53.901252],[-9.989219,53.901256],[-9.989046,53.901287],[-9.988948,53.901289],[-9.988941,53.901245],[-9.988908,53.901166],[-9.988845,53.900993],[-9.988811,53.900886],[-9.98881,53.900855],[-9.988573,53.900859],[-9.988613,53.900934],[-9.988627,53.90096],[-9.988737,53.901194],[-9.988775,53.90127],[-9.988703,53.90128],[-9.988686,53.90128],[-9.988637,53.901279],[-9.9885,53.901306],[-9.988401,53.901326],[-9.988307,53.901366],[-9.988259,53.901385],[-9.98823,53.901401],[-9.988131,53.901456],[-9.98806,53.901485],[-9.987932,53.901505],[-9.987877,53.901511],[-9.987869,53.901538],[-9.988072,53.901515],[-9.988148,53.901495],[-9.988199,53.901461],[-9.988263,53.901422],[-9.988323,53.901395],[-9.988437,53.901347],[-9.988577,53.90132],[-9.988664,53.901299],[-9.98873,53.901333],[-9.988766,53.901378],[-9.988785,53.901395],[-9.988828,53.901438],[-9.988839,53.901476],[-9.988803,53.901487],[-9.98882,53.901511],[-9.988835,53.901522],[-9.988876,53.901554],[-9.988905,53.901576],[-9.98898,53.901608],[-9.989076,53.901631],[-9.989133,53.901625],[-9.989214,53.901562],[-9.989233,53.901548],[-9.989278,53.901514],[-9.989298,53.9015],[-9.989379,53.90144],[-9.98942,53.901426],[-9.989418,53.90142],[-9.989747,53.901409],[-9.989801,53.901388],[-9.989877,53.901374],[-9.98987,53.901363],[-9.989894,53.901349],[-9.989857,53.901273],[-9.990296,53.901253],[-9.990442,53.901232],[-9.99062,53.901224],[-9.990746,53.901213],[-9.991038,53.901199],[-9.991293,53.901215],[-9.99126,53.901246],[-9.991227,53.901334],[-9.991225,53.901364],[-9.991236,53.901414],[-9.991219,53.901482],[-9.991207,53.901531],[-9.991192,53.901578],[-9.991196,53.901633],[-9.991186,53.901716],[-9.991175,53.901773],[-9.991163,53.90186],[-9.991158,53.901924],[-9.991162,53.901967],[-9.991173,53.902015],[-9.991223,53.902094],[-9.991361,53.902379],[-9.991836,53.902371],[-9.991826,53.902153],[-9.992282,53.902146],[-9.992269,53.901876],[-9.992256,53.901607],[-9.99235,53.901605],[-9.992343,53.901464],[-9.992706,53.901458],[-9.9927,53.90133],[-9.992687,53.90106],[-9.993143,53.901053],[-9.99313,53.900783],[-9.991761,53.900806],[-9.991751,53.900575],[-9.991689,53.900576],[-9.991651,53.900703],[-9.991628,53.900767],[-9.99161,53.900863],[-9.99158,53.901109],[-9.991574,53.901172],[-9.991446,53.901173],[-9.991343,53.90117],[-9.991241,53.901152],[-9.991119,53.901127],[-9.99109,53.901121],[-9.990982,53.901142],[-9.990944,53.901148],[-9.990889,53.90115]]],[[[-9.98539,53.90112],[-9.985438,53.901106],[-9.985553,53.90109],[-9.985604,53.901112],[-9.985658,53.901146],[-9.985773,53.901207],[-9.985849,53.901142],[-9.985788,53.901034],[-9.985709,53.900906],[-9.985375,53.900912],[-9.985362,53.900642],[-9.984906,53.90065],[-9.984893,53.900381],[-9.981243,53.900441],[-9.981244,53.900458],[-9.981411,53.900677],[-9.981637,53.900972],[-9.981706,53.901048],[-9.981855,53.901242],[-9.981877,53.90127],[-9.982133,53.901567],[-9.982194,53.901632],[-9.982294,53.901756],[-9.982302,53.901835],[-9.982372,53.901973],[-9.982488,53.902085],[-9.982512,53.902143],[-9.982577,53.902224],[-9.982662,53.902329],[-9.982696,53.902392],[-9.982749,53.902441],[-9.982802,53.902509],[-9.982856,53.90256],[-9.982999,53.902632],[-9.983018,53.902693],[-9.983055,53.902736],[-9.98316,53.902827],[-9.983174,53.902872],[-9.983193,53.902929],[-9.98324,53.903014],[-9.98329,53.903069],[-9.983431,53.903031],[-9.983495,53.903015],[-9.983555,53.903001],[-9.983602,53.902992],[-9.983654,53.902973],[-9.983682,53.902963],[-9.983716,53.902952],[-9.983779,53.902938],[-9.983848,53.902916],[-9.983878,53.902907],[-9.983945,53.902891],[-9.983988,53.902881],[-9.984126,53.902845],[-9.9843,53.902799],[-9.984369,53.902782],[-9.984545,53.902731],[-9.984764,53.902668],[-9.984803,53.902659],[-9.984787,53.90263],[-9.984748,53.902585],[-9.984738,53.90257],[-9.984615,53.902392],[-9.984453,53.902158],[-9.984288,53.901922],[-9.984151,53.901726],[-9.984072,53.9016],[-9.98403,53.901532],[-9.983985,53.901423],[-9.983798,53.901358],[-9.983547,53.901224],[-9.983438,53.901124],[-9.983594,53.901022],[-9.983735,53.900959],[-9.984012,53.900813],[-9.98425,53.900914],[-9.984358,53.900957],[-9.984449,53.900992],[-9.984557,53.901029],[-9.984729,53.901095],[-9.984795,53.901147],[-9.984861,53.901237],[-9.984957,53.901384],[-9.985015,53.90135],[-9.985158,53.901234],[-9.985325,53.901139],[-9.98539,53.90112]]],[[[-9.980891,53.901653],[-9.980902,53.901636],[-9.980635,53.901415],[-9.980461,53.901276],[-9.980304,53.901135],[-9.980169,53.9011],[-9.980131,53.901063],[-9.980134,53.901034],[-9.980139,53.900998],[-9.9799,53.901002],[-9.979913,53.901272],[-9.979,53.901287],[-9.979004,53.901363],[-9.979197,53.901591],[-9.979277,53.90168],[-9.979408,53.901824],[-9.979475,53.901898],[-9.979506,53.901933],[-9.979903,53.902383],[-9.980476,53.90221],[-9.980745,53.902458],[-9.980859,53.902424],[-9.981046,53.902363],[-9.981283,53.902305],[-9.981296,53.902325],[-9.981425,53.902491],[-9.981542,53.90265],[-9.981682,53.902805],[-9.981815,53.902982],[-9.981882,53.903072],[-9.982085,53.90332],[-9.982146,53.903386],[-9.982259,53.903354],[-9.982381,53.903321],[-9.982464,53.903295],[-9.982514,53.903281],[-9.982469,53.903237],[-9.982338,53.903115],[-9.982178,53.902943],[-9.982028,53.902802],[-9.981914,53.902695],[-9.981845,53.902642],[-9.981664,53.902436],[-9.981546,53.902318],[-9.981423,53.902177],[-9.981388,53.902129],[-9.981351,53.902091],[-9.981236,53.901976],[-9.981062,53.901816],[-9.980891,53.901653]]],[[[-10.001478,53.913048],[-10.001022,53.913055],[-10.001035,53.913325],[-10.000578,53.913332],[-10.000591,53.913602],[-10.000598,53.913746],[-10.000897,53.913735],[-10.001342,53.913707],[-10.001699,53.91369],[-10.002197,53.913659],[-10.002802,53.913627],[-10.003614,53.913585],[-10.003889,53.913571],[-10.005089,53.913433],[-10.005065,53.912934],[-10.006586,53.912908],[-10.006629,53.913806],[-10.00815,53.913781],[-10.008064,53.911985],[-10.006543,53.912011],[-10.006511,53.911346],[-10.00642,53.911347],[-10.006409,53.911114],[-10.003458,53.911164],[-10.003501,53.912061],[-10.002345,53.912081],[-10.002352,53.912224],[-10.001987,53.91223],[-10.002023,53.912985],[-10.001476,53.912994],[-10.001478,53.913048]]],[[[-10.00521,53.914461],[-10.005146,53.914463],[-10.004907,53.914531],[-10.004525,53.91467],[-10.004273,53.914744],[-10.006672,53.914704],[-10.006629,53.913806],[-10.00543,53.913826],[-10.005688,53.914227],[-10.00521,53.914461]]],[[[-10.001035,53.91585],[-10.000519,53.915856],[-10.000344,53.915821],[-10.000295,53.915812],[-9.99994,53.915724],[-9.99987,53.915678],[-9.999808,53.915561],[-9.999789,53.915502],[-9.999769,53.915503],[-9.999782,53.915772],[-9.999807,53.916311],[-9.999351,53.916319],[-9.999366,53.916623],[-10.002195,53.916576],[-10.002152,53.915678],[-10.003673,53.915653],[-10.00364,53.914956],[-10.003474,53.915012],[-10.002812,53.915261],[-10.001942,53.915599],[-10.001421,53.915808],[-10.001344,53.915811],[-10.001215,53.915842],[-10.001035,53.91585]]],[[[-10.00959,53.917812],[-10.009606,53.917785],[-10.00962,53.917754],[-10.009773,53.917542],[-10.009953,53.917296],[-10.010121,53.917278],[-10.010218,53.917305],[-10.010233,53.917258],[-10.010246,53.917036],[-10.010567,53.916889],[-10.010662,53.916842],[-10.010807,53.916767],[-10.011095,53.916602],[-10.011215,53.916654],[-10.011329,53.916591],[-10.011324,53.916491],[-10.011221,53.916541],[-10.011191,53.916547],[-10.010993,53.916405],[-10.010791,53.91626],[-10.010475,53.91604],[-10.010202,53.915803],[-10.010058,53.915683],[-10.01031,53.915542],[-10.009757,53.915551],[-10.009843,53.917347],[-10.008322,53.917372],[-10.008368,53.918325],[-10.008582,53.918322],[-10.008569,53.918052],[-10.009025,53.918044],[-10.009012,53.917775],[-10.009469,53.917767],[-10.009475,53.917901],[-10.009541,53.917806],[-10.00959,53.917812]],[[-10.010723,53.916675],[-10.010667,53.916657],[-10.010328,53.916232],[-10.010511,53.916142],[-10.010726,53.916261],[-10.011046,53.916486],[-10.011032,53.916524],[-10.010985,53.916573],[-10.010861,53.916634],[-10.010723,53.916675]]],[[[-10.009025,53.918044],[-10.009038,53.918314],[-10.009048,53.918509],[-10.009185,53.91833],[-10.009196,53.918316],[-10.009205,53.918304],[-10.009043,53.918275],[-10.009103,53.91808],[-10.009127,53.918043],[-10.009025,53.918044]]],[[[-10.008635,53.918805],[-10.008715,53.918825],[-10.00879,53.918841],[-10.008808,53.918821],[-10.008824,53.918804],[-10.008892,53.918719],[-10.008942,53.91866],[-10.008991,53.918584],[-10.008595,53.918591],[-10.008605,53.918798],[-10.008635,53.918805]]],[[[-9.991,53.920536],[-9.991013,53.920702],[-9.991081,53.921195],[-9.991164,53.921662],[-9.991355,53.923046],[-9.991491,53.923727],[-9.991608,53.924675],[-9.991661,53.924805],[-9.99199,53.9248],[-9.991977,53.92453],[-9.992434,53.924523],[-9.992421,53.924253],[-9.992878,53.924246],[-9.992865,53.923976],[-9.993321,53.923969],[-9.993308,53.923699],[-9.993765,53.923692],[-9.993752,53.923422],[-9.993739,53.923153],[-9.993726,53.922883],[-9.992357,53.922906],[-9.992344,53.922637],[-9.992318,53.922098],[-9.991862,53.922105],[-9.991849,53.921836],[-9.991836,53.921566],[-9.992293,53.921559],[-9.992267,53.92102],[-9.992241,53.920481],[-9.992698,53.920474],[-9.992685,53.920204],[-9.992672,53.919935],[-9.992659,53.919665],[-9.992647,53.919396],[-9.992634,53.919127],[-9.992621,53.918857],[-9.992164,53.918865],[-9.992126,53.918056],[-9.992113,53.917787],[-9.992049,53.91644],[-9.992505,53.916432],[-9.99248,53.915894],[-9.992936,53.915886],[-9.992923,53.915617],[-9.992467,53.915624],[-9.992454,53.915355],[-9.991998,53.915362],[-9.991985,53.915093],[-9.991528,53.9151],[-9.991516,53.914831],[-9.991059,53.914839],[-9.991046,53.914569],[-9.99059,53.914577],[-9.990577,53.914307],[-9.988021,53.91435],[-9.988072,53.914464],[-9.98809,53.91476],[-9.988035,53.915014],[-9.988003,53.915342],[-9.988001,53.915556],[-9.988533,53.915609],[-9.989205,53.915646],[-9.989431,53.915649],[-9.990032,53.915694],[-9.990118,53.91572],[-9.990397,53.915931],[-9.990713,53.916166],[-9.991171,53.916626],[-9.991161,53.917119],[-9.991165,53.91726],[-9.991146,53.917645],[-9.991,53.9187],[-9.990892,53.919486],[-9.99089,53.919974],[-9.990965,53.92028],[-9.991,53.920536]],[[-9.990147,53.914854],[-9.990159,53.915123],[-9.989703,53.915131],[-9.98969,53.914861],[-9.990147,53.914854]]],[[[-10.009808,53.920312],[-10.009792,53.920305],[-10.009767,53.920295],[-10.009301,53.920054],[-10.008761,53.919753],[-10.008711,53.919786],[-10.008567,53.919856],[-10.00833,53.919949],[-10.008238,53.91996],[-10.008204,53.919965],[-10.008216,53.920215],[-10.008218,53.920247],[-10.008245,53.920209],[-10.008291,53.920125],[-10.008341,53.920039],[-10.008363,53.920001],[-10.008485,53.919965],[-10.008633,53.919921],[-10.008745,53.919933],[-10.008937,53.91996],[-10.009007,53.919965],[-10.009138,53.92002],[-10.009277,53.920111],[-10.009383,53.920182],[-10.009459,53.920226],[-10.009485,53.920263],[-10.009515,53.920334],[-10.009579,53.920424],[-10.009636,53.920423],[-10.009689,53.920419],[-10.009712,53.920417],[-10.009919,53.92059],[-10.009998,53.920662],[-10.009925,53.920702],[-10.009821,53.92077],[-10.009486,53.920947],[-10.009722,53.920943],[-10.00979,53.920896],[-10.009904,53.920809],[-10.009929,53.92079],[-10.010007,53.920751],[-10.009988,53.920372],[-10.009908,53.920352],[-10.009808,53.920312]]],[[[-10.008484,53.920832],[-10.009082,53.920605],[-10.009016,53.920599],[-10.008876,53.920582],[-10.008741,53.92051],[-10.008588,53.920458],[-10.008388,53.920405],[-10.008293,53.920376],[-10.008222,53.920342],[-10.008242,53.920754],[-10.007786,53.920762],[-10.007786,53.920775],[-10.007842,53.920774],[-10.008484,53.920832]]],[[[-10.007814,53.921354],[-10.007825,53.921323],[-10.007824,53.921299],[-10.007804,53.921141],[-10.007811,53.9213],[-10.007814,53.921354]]],[[[-10.007776,53.921691],[-10.007848,53.921857],[-10.007858,53.921873],[-10.007961,53.921871],[-10.00783,53.921705],[-10.007842,53.921701],[-10.007817,53.921582],[-10.007815,53.92157],[-10.007722,53.921571],[-10.007735,53.921596],[-10.007776,53.921691]]],[[[-9.99072,53.930141],[-9.990346,53.930517],[-9.989911,53.930825],[-9.98975,53.931],[-9.989636,53.931347],[-9.989515,53.931521],[-9.989459,53.931714],[-9.989335,53.932124],[-9.989598,53.932119],[-9.989585,53.93185],[-9.990041,53.931842],[-9.990028,53.931573],[-9.990016,53.931303],[-9.990472,53.931296],[-9.990459,53.931026],[-9.990916,53.931019],[-9.990903,53.930749],[-9.99089,53.93048],[-9.991347,53.930472],[-9.991334,53.930203],[-9.991321,53.929934],[-9.991778,53.929926],[-9.991765,53.929657],[-9.992163,53.92965],[-9.992147,53.929323],[-9.992662,53.929315],[-9.992652,53.929103],[-9.992639,53.928833],[-9.993096,53.928826],[-9.993083,53.928556],[-9.993539,53.928549],[-9.993527,53.928279],[-9.993983,53.928272],[-9.99397,53.928002],[-9.994427,53.927995],[-9.994414,53.927725],[-9.99487,53.927718],[-9.994858,53.927448],[-9.995771,53.927433],[-9.995758,53.927164],[-9.996214,53.927156],[-9.996201,53.926887],[-9.996658,53.926879],[-9.996632,53.92634],[-9.996176,53.926348],[-9.996163,53.926078],[-9.99525,53.926094],[-9.995263,53.926363],[-9.994806,53.926371],[-9.994819,53.92664],[-9.994832,53.926909],[-9.994375,53.926917],[-9.994387,53.92717],[-9.994444,53.927219],[-9.993042,53.92831],[-9.992401,53.928818],[-9.991665,53.92942],[-9.991306,53.929692],[-9.991005,53.929951],[-9.99072,53.930141]]],[[[-10.010533,53.931713],[-10.01049,53.930815],[-10.008969,53.93084],[-10.009012,53.931738],[-10.00749,53.931764],[-10.007447,53.930866],[-10.005926,53.930891],[-10.00592,53.930769],[-10.005068,53.930783],[-10.005081,53.931053],[-10.004625,53.93106],[-10.004638,53.93133],[-10.003268,53.931353],[-10.003281,53.931622],[-10.002824,53.93163],[-10.002837,53.931899],[-10.001468,53.931922],[-10.001481,53.932191],[-10.000111,53.932214],[-10.000124,53.932484],[-9.999667,53.932491],[-9.99968,53.932761],[-9.999224,53.932768],[-9.999237,53.933038],[-9.99878,53.933045],[-9.998806,53.933584],[-9.998349,53.933592],[-9.998362,53.933861],[-9.997906,53.933869],[-9.997931,53.934408],[-9.997018,53.934423],[-9.997031,53.934692],[-9.996574,53.9347],[-9.996562,53.93443],[-9.996536,53.933891],[-9.996523,53.933622],[-9.996497,53.933083],[-9.996041,53.933091],[-9.996054,53.93336],[-9.995597,53.933368],[-9.99561,53.933637],[-9.995153,53.933645],[-9.995179,53.934184],[-9.994722,53.934191],[-9.994748,53.93473],[-9.994292,53.934738],[-9.994317,53.935276],[-9.993861,53.935284],[-9.993886,53.935823],[-9.99343,53.93583],[-9.993443,53.9361],[-9.992986,53.936107],[-9.992999,53.936377],[-9.992542,53.936384],[-9.992568,53.936923],[-9.992111,53.936931],[-9.992124,53.9372],[-9.992137,53.93747],[-9.99168,53.937477],[-9.991693,53.937747],[-9.991237,53.937754],[-9.991249,53.938024],[-9.990793,53.938031],[-9.99081,53.938384],[-9.990833,53.938426],[-9.990893,53.938541],[-9.990973,53.938701],[-9.991242,53.93863],[-9.991833,53.938505],[-9.991941,53.938467],[-9.991988,53.938503],[-9.992029,53.938545],[-9.992034,53.93855],[-9.992645,53.93854],[-9.992632,53.93827],[-9.993089,53.938263],[-9.993076,53.937993],[-9.994902,53.937963],[-9.994915,53.938233],[-9.995372,53.938225],[-9.995385,53.938494],[-9.995841,53.938487],[-9.995854,53.938756],[-9.996311,53.938749],[-9.996324,53.939018],[-9.995867,53.939026],[-9.99588,53.939295],[-9.996337,53.939287],[-9.996362,53.939826],[-9.996414,53.940904],[-9.995957,53.940911],[-9.995983,53.94145],[-9.996439,53.941443],[-9.996427,53.941173],[-9.996883,53.941166],[-9.99687,53.940896],[-9.997327,53.940889],[-9.997314,53.940619],[-9.997771,53.940612],[-9.997784,53.940881],[-9.997797,53.941151],[-9.997809,53.94142],[-9.997822,53.941689],[-9.997366,53.941697],[-9.99739,53.942198],[-9.997674,53.94209],[-9.997954,53.941974],[-9.99837,53.941799],[-9.998669,53.941706],[-9.99912,53.941545],[-9.999427,53.941429],[-9.999788,53.941292],[-10.000652,53.940934],[-10.000669,53.940927],[-10.001532,53.940562],[-10.002467,53.940186],[-10.003191,53.939897],[-10.003427,53.939794],[-10.003707,53.939675],[-10.004701,53.93925],[-10.00528,53.938979],[-10.005505,53.938894],[-10.005554,53.938876],[-10.00569,53.938825],[-10.006052,53.93868],[-10.00622,53.938608],[-10.006481,53.938496],[-10.006833,53.938331],[-10.006951,53.938235],[-10.007137,53.938094],[-10.007537,53.937823],[-10.008053,53.937501],[-10.008657,53.937083],[-10.008778,53.937011],[-10.008883,53.936948],[-10.008864,53.936937],[-10.008946,53.936873],[-10.009316,53.936624],[-10.00958,53.936441],[-10.00977,53.936327],[-10.009923,53.936215],[-10.010133,53.936118],[-10.010435,53.936007],[-10.010657,53.935943],[-10.010886,53.935871],[-10.011173,53.935844],[-10.011209,53.935838],[-10.011364,53.935811],[-10.011479,53.935757],[-10.011608,53.935743],[-10.01185,53.935764],[-10.011971,53.93574],[-10.012136,53.93569],[-10.012267,53.935636],[-10.012392,53.935619],[-10.012448,53.935632],[-10.012536,53.935628],[-10.012601,53.935585],[-10.012653,53.935535],[-10.012754,53.935538],[-10.012884,53.935548],[-10.012935,53.935543],[-10.012988,53.935524],[-10.013024,53.935491],[-10.013026,53.935446],[-10.012988,53.935371],[-10.012956,53.935319],[-10.012999,53.935264],[-10.013157,53.935153],[-10.013264,53.935099],[-10.013418,53.934997],[-10.013571,53.93495],[-10.013689,53.934881],[-10.013781,53.934788],[-10.013848,53.934715],[-10.013918,53.934682],[-10.014069,53.93461],[-10.01414,53.93457],[-10.014183,53.934545],[-10.014294,53.934497],[-10.014513,53.934426],[-10.014807,53.934347],[-10.015063,53.934268],[-10.015207,53.934211],[-10.015291,53.934202],[-10.015425,53.93419],[-10.015552,53.934143],[-10.015593,53.93412],[-10.015677,53.934126],[-10.015745,53.934134],[-10.015899,53.934102],[-10.015935,53.934069],[-10.015967,53.934041],[-10.01603,53.934053],[-10.016115,53.934058],[-10.016252,53.934036],[-10.016296,53.933993],[-10.016354,53.93398],[-10.016472,53.933993],[-10.016619,53.933992],[-10.016703,53.933981],[-10.016875,53.933904],[-10.016976,53.933823],[-10.017069,53.933754],[-10.017129,53.933706],[-10.017224,53.93368],[-10.017353,53.933648],[-10.017455,53.933592],[-10.017552,53.933518],[-10.017656,53.933425],[-10.017765,53.933413],[-10.017825,53.933439],[-10.017897,53.933448],[-10.017967,53.933427],[-10.018012,53.933399],[-10.018134,53.933409],[-10.018232,53.933365],[-10.018388,53.933288],[-10.018559,53.933262],[-10.018696,53.933248],[-10.018806,53.933181],[-10.018895,53.933194],[-10.019044,53.933308],[-10.019207,53.933445],[-10.019378,53.933511],[-10.019772,53.933571],[-10.019975,53.933606],[-10.020162,53.93364],[-10.020508,53.933668],[-10.020739,53.933681],[-10.021024,53.933679],[-10.021054,53.933678],[-10.021039,53.9337],[-10.021,53.933794],[-10.020924,53.933912],[-10.020891,53.933951],[-10.020823,53.934024],[-10.020713,53.934095],[-10.02061,53.934149],[-10.020559,53.934207],[-10.020537,53.934306],[-10.020504,53.934351],[-10.020444,53.934379],[-10.020407,53.934432],[-10.020416,53.934496],[-10.020438,53.934533],[-10.020531,53.934544],[-10.02061,53.934525],[-10.020724,53.934462],[-10.020789,53.934416],[-10.020827,53.934405],[-10.020877,53.934432],[-10.020939,53.934499],[-10.020942,53.93458],[-10.020928,53.934637],[-10.020876,53.934672],[-10.020769,53.934708],[-10.020725,53.93474],[-10.020752,53.934803],[-10.020842,53.93487],[-10.020971,53.934934],[-10.02113,53.93499],[-10.021173,53.935019],[-10.021158,53.935052],[-10.021125,53.935096],[-10.021064,53.935139],[-10.021051,53.935203],[-10.021109,53.935269],[-10.021231,53.935348],[-10.02141,53.935404],[-10.021609,53.935425],[-10.021834,53.935471],[-10.021999,53.935493],[-10.022148,53.935477],[-10.022273,53.935453],[-10.022418,53.935442],[-10.022485,53.935441],[-10.022577,53.935477],[-10.022644,53.935529],[-10.022669,53.935564],[-10.022671,53.935705],[-10.022685,53.9358],[-10.022719,53.935856],[-10.022789,53.935904],[-10.022812,53.93597],[-10.022843,53.936038],[-10.02283,53.93607],[-10.022777,53.936108],[-10.022773,53.936158],[-10.022824,53.936204],[-10.0229,53.936223],[-10.023084,53.93626],[-10.023094,53.936263],[-10.023139,53.936274],[-10.023179,53.936308],[-10.02325,53.936367],[-10.023339,53.936406],[-10.023461,53.936494],[-10.023486,53.936535],[-10.023494,53.936579],[-10.023498,53.936604],[-10.023466,53.93669],[-10.023416,53.936771],[-10.023398,53.936892],[-10.023382,53.936937],[-10.023391,53.937006],[-10.023447,53.937059],[-10.023472,53.93711],[-10.023463,53.937161],[-10.023445,53.937205],[-10.023404,53.937254],[-10.023391,53.93729],[-10.023419,53.937318],[-10.023443,53.937345],[-10.023394,53.937384],[-10.023418,53.937416],[-10.023441,53.937468],[-10.023463,53.937519],[-10.023473,53.937565],[-10.023445,53.937696],[-10.023423,53.937873],[-10.023464,53.937925],[-10.023501,53.93797],[-10.023512,53.93803],[-10.02348,53.938056],[-10.023427,53.938097],[-10.023299,53.938192],[-10.02321,53.938265],[-10.023172,53.938354],[-10.023122,53.938401],[-10.02308,53.93843],[-10.02301,53.938456],[-10.022946,53.93845],[-10.022901,53.93845],[-10.022865,53.938469],[-10.02285,53.938517],[-10.022858,53.938579],[-10.022873,53.938641],[-10.022827,53.938722],[-10.023953,53.939088],[-10.023881,53.93917],[-10.024021,53.939248],[-10.024122,53.939312],[-10.024205,53.93938],[-10.024405,53.939467],[-10.024547,53.939564],[-10.026139,53.939538],[-10.026096,53.93864],[-10.027618,53.938614],[-10.0274,53.934125],[-10.026922,53.934133],[-10.026906,53.934184],[-10.026892,53.934259],[-10.026664,53.934231],[-10.026499,53.934202],[-10.026231,53.93416],[-10.026168,53.934146],[-10.025878,53.934151],[-10.025871,53.933999],[-10.025862,53.933989],[-10.025803,53.933949],[-10.025641,53.933925],[-10.025451,53.933878],[-10.025334,53.933864],[-10.025163,53.933872],[-10.02489,53.933869],[-10.024664,53.933842],[-10.024432,53.93379],[-10.024578,53.933458],[-10.024576,53.93345],[-10.024563,53.933424],[-10.024403,53.933399],[-10.023543,53.933251],[-10.023638,53.933125],[-10.022893,53.932795],[-10.023001,53.932739],[-10.023061,53.93268],[-10.023079,53.932619],[-10.023062,53.932524],[-10.02304,53.932456],[-10.023033,53.932436],[-10.02304,53.932375],[-10.023066,53.932279],[-10.023076,53.932242],[-10.02314,53.932185],[-10.023201,53.932151],[-10.02326,53.932086],[-10.023329,53.932009],[-10.023479,53.931908],[-10.023488,53.931889],[-10.023525,53.931809],[-10.023537,53.931699],[-10.023566,53.931662],[-10.023644,53.931577],[-10.023659,53.931553],[-10.023686,53.931508],[-10.023749,53.931465],[-10.023827,53.931408],[-10.023929,53.93136],[-10.024144,53.931198],[-10.02425,53.931153],[-10.024342,53.93113],[-10.024425,53.931127],[-10.024561,53.931135],[-10.024702,53.931148],[-10.024858,53.931192],[-10.025206,53.93129],[-10.025327,53.93133],[-10.025395,53.931237],[-10.024338,53.931013],[-10.02445,53.930838],[-10.024527,53.930688],[-10.024531,53.930681],[-10.02462,53.930541],[-10.024761,53.930374],[-10.024814,53.930314],[-10.024826,53.9303],[-10.024856,53.930204],[-10.024995,53.929966],[-10.025327,53.930013],[-10.025559,53.930024],[-10.025633,53.93002],[-10.025676,53.929962],[-10.025661,53.929661],[-10.024578,53.92968],[-10.024532,53.929765],[-10.024843,53.929888],[-10.0248,53.92999],[-10.024707,53.930115],[-10.024614,53.930226],[-10.024542,53.930263],[-10.02452,53.930333],[-10.024467,53.930374],[-10.024355,53.930428],[-10.024309,53.930473],[-10.024256,53.930573],[-10.024228,53.930653],[-10.024247,53.930721],[-10.024225,53.93078],[-10.024202,53.930878],[-10.024211,53.930893],[-10.024135,53.930896],[-10.024075,53.931024],[-10.02404,53.931064],[-10.023915,53.931136],[-10.023778,53.93122],[-10.023641,53.931267],[-10.023568,53.931279],[-10.023454,53.931317],[-10.023518,53.931334],[-10.023455,53.93146],[-10.023371,53.931588],[-10.02331,53.931683],[-10.02326,53.931756],[-10.023251,53.931834],[-10.023245,53.931914],[-10.023242,53.931954],[-10.023215,53.931995],[-10.023139,53.932045],[-10.023129,53.932044],[-10.023033,53.932128],[-10.022947,53.932199],[-10.022905,53.932254],[-10.02289,53.932282],[-10.022826,53.932408],[-10.022764,53.932599],[-10.022756,53.9326],[-10.022212,53.932504],[-10.021456,53.932342],[-10.02137,53.93232],[-10.02133,53.932308],[-10.02108,53.932234],[-10.02056,53.932067],[-10.020097,53.931915],[-10.019323,53.931636],[-10.019256,53.931608],[-10.019911,53.931013],[-10.020633,53.931182],[-10.021375,53.931361],[-10.021947,53.931505],[-10.02205,53.931465],[-10.022617,53.931615],[-10.022653,53.931603],[-10.02273,53.931489],[-10.022768,53.931418],[-10.022898,53.931237],[-10.022935,53.931175],[-10.022939,53.931168],[-10.022335,53.930991],[-10.021867,53.93086],[-10.021425,53.930733],[-10.021401,53.930748],[-10.021366,53.930755],[-10.021256,53.930783],[-10.021171,53.930762],[-10.02044,53.930578],[-10.020316,53.930531],[-10.020297,53.930145],[-10.02031,53.93005],[-10.020341,53.930027],[-10.020428,53.929997],[-10.020461,53.92991],[-10.020519,53.929841],[-10.02063,53.929682],[-10.02071,53.929561],[-10.020731,53.929529],[-10.020837,53.92937],[-10.020312,53.929205],[-10.020363,53.929165],[-10.020573,53.929003],[-10.020651,53.928931],[-10.020737,53.928874],[-10.020799,53.928845],[-10.019532,53.928866],[-10.019489,53.927968],[-10.017739,53.927997],[-10.017828,53.928089],[-10.017917,53.928218],[-10.017904,53.92822],[-10.017334,53.928426],[-10.016697,53.928579],[-10.016677,53.928655],[-10.016646,53.928674],[-10.016533,53.928703],[-10.016266,53.928748],[-10.016226,53.928755],[-10.016093,53.92878],[-10.015974,53.928788],[-10.01582,53.928794],[-10.01575,53.928824],[-10.015764,53.928874],[-10.01572,53.928922],[-10.015616,53.929018],[-10.015504,53.92912],[-10.015441,53.929162],[-10.015245,53.929258],[-10.014941,53.929383],[-10.014667,53.929494],[-10.014663,53.929598],[-10.01463,53.929893],[-10.014486,53.929883],[-10.014258,53.929875],[-10.014059,53.929878],[-10.013957,53.929883],[-10.013846,53.92987],[-10.013786,53.92987],[-10.013666,53.92986],[-10.013589,53.929841],[-10.01358,53.929829],[-10.013486,53.929786],[-10.01349,53.929866],[-10.013576,53.931662],[-10.010533,53.931713]],[[-10.016647,53.929174],[-10.017033,53.928931],[-10.017333,53.928692],[-10.017461,53.928599],[-10.017981,53.928518],[-10.018142,53.928567],[-10.018284,53.928216],[-10.018473,53.928251],[-10.018578,53.928105],[-10.018676,53.928113],[-10.018724,53.9281],[-10.01875,53.92811],[-10.018905,53.928162],[-10.019041,53.928204],[-10.019349,53.928302],[-10.019367,53.928676],[-10.019282,53.929149],[-10.019025,53.929412],[-10.017876,53.929689],[-10.017354,53.92949],[-10.017349,53.929488],[-10.01679,53.929276],[-10.016606,53.929203],[-10.016647,53.929174]],[[-10.019651,53.931125],[-10.019359,53.931376],[-10.019086,53.931576],[-10.019047,53.931605],[-10.018979,53.931608],[-10.018732,53.931481],[-10.018311,53.931269],[-10.017869,53.931041],[-10.017743,53.930955],[-10.017754,53.930947],[-10.017844,53.930871],[-10.018043,53.930725],[-10.018298,53.93056],[-10.018674,53.930359],[-10.018713,53.93034],[-10.019241,53.930624],[-10.019577,53.930811],[-10.019805,53.93095],[-10.019651,53.931125]],[[-10.017983,53.929908],[-10.018038,53.929848],[-10.018101,53.929792],[-10.018193,53.929742],[-10.018346,53.929654],[-10.018357,53.929648],[-10.01843,53.929609],[-10.018507,53.929579],[-10.01866,53.929545],[-10.018817,53.929522],[-10.018931,53.929502],[-10.018945,53.929528],[-10.018923,53.929552],[-10.019237,53.929659],[-10.019537,53.929746],[-10.019343,53.929921],[-10.019207,53.930015],[-10.01906,53.930098],[-10.01877,53.930243],[-10.018595,53.930328],[-10.017993,53.930156],[-10.017859,53.93012],[-10.01788,53.930082],[-10.017911,53.930013],[-10.01795,53.929948],[-10.017983,53.929908]],[[-10.014007,53.932121],[-10.014257,53.931606],[-10.014305,53.931589],[-10.014419,53.93158],[-10.014687,53.93159],[-10.015207,53.931626],[-10.015138,53.931922],[-10.015072,53.932205],[-10.014403,53.93215],[-10.014007,53.932121]],[[-10.021985,53.934231],[-10.022171,53.934285],[-10.022155,53.934308],[-10.022078,53.934392],[-10.021906,53.93455],[-10.021853,53.9346],[-10.021781,53.934586],[-10.021303,53.934481],[-10.021158,53.934449],[-10.020924,53.934442],[-10.020902,53.934416],[-10.020833,53.934386],[-10.020774,53.934402],[-10.020852,53.934027],[-10.020919,53.933958],[-10.021406,53.934072],[-10.021631,53.934122],[-10.021985,53.934231]],[[-10.014983,53.930493],[-10.015144,53.930438],[-10.015312,53.930556],[-10.015458,53.930697],[-10.015705,53.930907],[-10.015395,53.931017],[-10.015035,53.931152],[-10.014493,53.93077],[-10.014466,53.930737],[-10.01482,53.930553],[-10.014827,53.930549],[-10.014983,53.930493]],[[-10.007558,53.935056],[-10.007571,53.935325],[-10.007114,53.935333],[-10.007101,53.935063],[-10.007558,53.935056]],[[-9.999533,53.939234],[-9.99999,53.939227],[-10.000002,53.939496],[-9.999546,53.939504],[-9.999533,53.939234]],[[-9.999089,53.939511],[-9.999546,53.939504],[-9.999572,53.940042],[-9.999115,53.94005],[-9.999089,53.939511]],[[-10.000041,53.940304],[-10.000028,53.940035],[-10.000485,53.940027],[-10.000498,53.940297],[-10.000511,53.940566],[-10.000054,53.940574],[-10.000067,53.940843],[-9.99961,53.940851],[-9.999597,53.940581],[-9.999584,53.940312],[-10.000041,53.940304]],[[-9.999154,53.940858],[-9.99961,53.940851],[-9.999623,53.94112],[-9.999166,53.941128],[-9.999154,53.940858]]],[[[-9.994109,53.940662],[-9.99432,53.940999],[-9.994578,53.941398],[-9.9947,53.941672],[-9.994811,53.941858],[-9.994881,53.941997],[-9.994975,53.942218],[-9.99509,53.942444],[-9.99512,53.942513],[-9.995082,53.941735],[-9.99507,53.941466],[-9.995044,53.940927],[-9.994992,53.939849],[-9.995449,53.939841],[-9.995423,53.939303],[-9.99541,53.939033],[-9.994954,53.939041],[-9.994941,53.938771],[-9.993571,53.938794],[-9.993584,53.939064],[-9.993597,53.939333],[-9.992817,53.939346],[-9.992853,53.939382],[-9.993193,53.939691],[-9.993385,53.939841],[-9.993794,53.940213],[-9.993865,53.940333],[-9.994109,53.940662]]],[[[-9.996491,53.94252],[-9.996495,53.942598],[-9.996662,53.942518],[-9.996491,53.94252]]]]}}]}
