{"type":"FeatureCollection","features":[{"type":"Feature","properties":{"source_fid":302777,"county":"Roscommon","bog_geom_ha":124.65311865419417,"low15_pct":100.0,"low15_ha":124.65311865419417,"overlay_ha":124.65311865419417,"area_delta":0.0},"geometry":{"type":"MultiPolygon","coordinates":[[[[-8.200327,53.390054],[-8.200338,53.390055],[-8.200342,53.390055],[-8.201064,53.390174],[-8.201722,53.390282],[-8.201722,53.390282],[-8.202176,53.390357],[-8.202261,53.39037],[-8.20291,53.390469],[-8.20333,53.390532],[-8.203432,53.390549],[-8.203531,53.390564],[-8.203531,53.390564],[-8.203531,53.390564],[-8.203761,53.3906],[-8.204101,53.390654],[-8.20422,53.390673],[-8.204561,53.390726],[-8.205048,53.390802],[-8.205105,53.390811],[-8.205195,53.390825],[-8.205808,53.390921],[-8.206657,53.391053],[-8.206685,53.391058],[-8.206694,53.391059],[-8.2072,53.391138],[-8.207372,53.391165],[-8.207659,53.39121],[-8.207659,53.39121],[-8.208237,53.3913],[-8.208825,53.391392],[-8.209013,53.391422],[-8.209462,53.391493],[-8.209709,53.391532],[-8.210163,53.391609],[-8.210183,53.391612],[-8.210761,53.391709],[-8.211305,53.391801],[-8.211491,53.391831],[-8.211491,53.391831],[-8.211814,53.391883],[-8.212019,53.391916],[-8.212876,53.392054],[-8.213507,53.392156],[-8.213581,53.392166],[-8.213835,53.392202],[-8.214437,53.392295],[-8.214861,53.39236],[-8.21488,53.392363],[-8.214883,53.392363],[-8.215043,53.39239],[-8.21587,53.392526],[-8.216003,53.392548],[-8.216185,53.392578],[-8.216782,53.392679],[-8.217383,53.392781],[-8.217572,53.392811],[-8.217789,53.392846],[-8.217799,53.392848],[-8.217828,53.392852],[-8.218773,53.393002],[-8.218785,53.393004],[-8.218792,53.393005],[-8.21957,53.393128],[-8.219731,53.393153],[-8.219876,53.393176],[-8.220004,53.393196],[-8.220575,53.393287],[-8.220645,53.393298],[-8.220773,53.393318],[-8.221016,53.393356],[-8.22119,53.393383],[-8.221548,53.393439],[-8.221876,53.393491],[-8.221876,53.393479],[-8.22188,53.393457],[-8.221884,53.393438],[-8.221891,53.393423],[-8.221889,53.393392],[-8.221889,53.393355],[-8.221893,53.393323],[-8.22189,53.393276],[-8.22189,53.393242],[-8.221894,53.393187],[-8.221886,53.393163],[-8.22189,53.393148],[-8.221894,53.393077],[-8.221889,53.393045],[-8.221898,53.393001],[-8.221899,53.392958],[-8.221895,53.392931],[-8.221898,53.392896],[-8.221904,53.392852],[-8.221901,53.392807],[-8.221899,53.392777],[-8.221922,53.392745],[-8.22191,53.392723],[-8.221902,53.392704],[-8.221904,53.392668],[-8.221911,53.392627],[-8.221907,53.392603],[-8.221904,53.39258],[-8.221905,53.392542],[-8.221905,53.392516],[-8.221908,53.392481],[-8.221904,53.392441],[-8.221913,53.392421],[-8.221919,53.392395],[-8.221918,53.392364],[-8.221906,53.392355],[-8.221905,53.392342],[-8.221911,53.392329],[-8.221911,53.392283],[-8.22191,53.392242],[-8.22191,53.39221],[-8.221903,53.392197],[-8.22191,53.39217],[-8.221912,53.392124],[-8.221908,53.392096],[-8.22191,53.392044],[-8.22191,53.392014],[-8.221908,53.391973],[-8.22191,53.391933],[-8.221909,53.391846],[-8.221918,53.391827],[-8.221915,53.39181],[-8.221918,53.391772],[-8.221921,53.391721],[-8.221922,53.39168],[-8.221921,53.391646],[-8.221914,53.391637],[-8.221925,53.391603],[-8.221931,53.391581],[-8.22194,53.391557],[-8.221989,53.391541],[-8.22204,53.391533],[-8.222025,53.391521],[-8.222025,53.391521],[-8.221407,53.390764],[-8.221205,53.390517],[-8.221183,53.39049],[-8.221093,53.390381],[-8.221093,53.390381],[-8.221093,53.390381],[-8.22036,53.389494],[-8.219579,53.388989],[-8.219477,53.388923],[-8.219334,53.388831],[-8.219154,53.388716],[-8.219116,53.388692],[-8.219034,53.38864],[-8.217904,53.387922],[-8.216693,53.387152],[-8.216042,53.386727],[-8.215778,53.386555],[-8.214764,53.385893],[-8.214521,53.385738],[-8.214302,53.385599],[-8.214302,53.385599],[-8.214302,53.385599],[-8.212175,53.384247],[-8.210972,53.383438],[-8.210853,53.383362],[-8.210536,53.38316],[-8.210264,53.382985],[-8.209672,53.382604],[-8.2089,53.382107],[-8.2089,53.382107],[-8.208645,53.381943],[-8.208135,53.381615],[-8.207219,53.381021],[-8.206458,53.38052],[-8.206202,53.380359],[-8.205945,53.380199],[-8.205719,53.380052],[-8.205104,53.379652],[-8.204642,53.379348],[-8.204515,53.379264],[-8.204372,53.379195],[-8.203907,53.379377],[-8.20352,53.379529],[-8.20352,53.379529],[-8.20352,53.379529],[-8.203318,53.379608],[-8.203242,53.379636],[-8.202719,53.37983],[-8.202634,53.379861],[-8.202179,53.380031],[-8.202181,53.380543],[-8.203684,53.380541],[-8.203688,53.381439],[-8.205191,53.381437],[-8.205195,53.382335],[-8.20352,53.382338],[-8.202194,53.382988],[-8.201076,53.38353],[-8.200495,53.383815],[-8.200026,53.384034],[-8.200357,53.385095],[-8.199691,53.386029],[-8.198943,53.385959],[-8.198917,53.386037],[-8.19872,53.386292],[-8.198584,53.386461],[-8.198369,53.386754],[-8.198361,53.386768],[-8.198323,53.386836],[-8.19788,53.38739],[-8.197462,53.387932],[-8.197291,53.388173],[-8.197028,53.388525],[-8.196888,53.388712],[-8.196733,53.388918],[-8.196567,53.389138],[-8.19649,53.389321],[-8.19624,53.389675],[-8.19644,53.389713],[-8.196796,53.389799],[-8.196879,53.389867],[-8.19694,53.389871],[-8.19804,53.389927],[-8.199056,53.389985],[-8.199265,53.389997],[-8.200327,53.390054]],[[-8.199417,53.38875],[-8.199427,53.388728],[-8.19943,53.388723],[-8.199436,53.388709],[-8.199437,53.388707],[-8.199539,53.388406],[-8.19955,53.388375],[-8.199693,53.388268],[-8.199943,53.388081],[-8.199996,53.388065],[-8.200064,53.388078],[-8.200453,53.388198],[-8.200552,53.388282],[-8.200726,53.388331],[-8.200828,53.388419],[-8.200851,53.388555],[-8.200922,53.38862],[-8.200957,53.388699],[-8.200956,53.388707],[-8.200949,53.388866],[-8.200889,53.388991],[-8.200761,53.389097],[-8.200706,53.389186],[-8.200725,53.389294],[-8.200684,53.389299],[-8.200669,53.38935],[-8.200641,53.389387],[-8.200558,53.38943],[-8.200513,53.389436],[-8.200392,53.389459],[-8.200292,53.389463],[-8.200251,53.389454],[-8.200213,53.389434],[-8.200122,53.389468],[-8.200043,53.389447],[-8.199986,53.389452],[-8.199956,53.389457],[-8.199914,53.389427],[-8.199873,53.389448],[-8.199816,53.389459],[-8.199774,53.389411],[-8.199755,53.389351],[-8.199742,53.389318],[-8.199668,53.389267],[-8.1996,53.38929],[-8.199589,53.389283],[-8.199621,53.389243],[-8.19961,53.38922],[-8.199574,53.389156],[-8.199562,53.389134],[-8.199536,53.389082],[-8.199486,53.389059],[-8.1994,53.389081],[-8.199384,53.389073],[-8.19946,53.389037],[-8.199407,53.38893],[-8.199411,53.388865],[-8.199392,53.388806],[-8.199417,53.38875]]]]}}]}
