{"type":"FeatureCollection","features":[{"type":"Feature","properties":{"source_fid":3028119,"county":"Galway","bog_geom_ha":112.59630810440576,"low15_pct":99.681020733652318,"low15_ha":112.23714922687975,"overlay_ha":112.15957042290009,"area_delta":-0.077578803979662325},"geometry":{"type":"MultiPolygon","coordinates":[[[[-8.541976,53.083796],[-8.541924,53.08372],[-8.541912,53.083701],[-8.541862,53.083623],[-8.541772,53.083483],[-8.541662,53.083234],[-8.541492,53.082876],[-8.541437,53.082727],[-8.541426,53.082697],[-8.541348,53.082463],[-8.54129,53.082283],[-8.541271,53.082201],[-8.541253,53.082121],[-8.541259,53.081995],[-8.541262,53.081928],[-8.541278,53.081728],[-8.541279,53.081542],[-8.541269,53.081424],[-8.541243,53.081425],[-8.540407,53.081468],[-8.540323,53.081472],[-8.540167,53.081462],[-8.539716,53.081463],[-8.539502,53.081463],[-8.539474,53.081481],[-8.539455,53.081494],[-8.539096,53.081489],[-8.538324,53.081493],[-8.53831,53.081494],[-8.538216,53.0815],[-8.538029,53.081498],[-8.537946,53.081498],[-8.537817,53.081501],[-8.536753,53.081512],[-8.536572,53.081523],[-8.53628,53.081539],[-8.535888,53.081548],[-8.535615,53.081556],[-8.535563,53.081553],[-8.535223,53.081571],[-8.534936,53.081582],[-8.5341,53.081635],[-8.533283,53.081671],[-8.533087,53.081686],[-8.532865,53.081703],[-8.531944,53.081781],[-8.531958,53.08204],[-8.531984,53.082301],[-8.532001,53.082544],[-8.532016,53.082698],[-8.53225,53.082807],[-8.532864,53.08319],[-8.532896,53.083355],[-8.533173,53.083307],[-8.53358,53.083268],[-8.533688,53.083624],[-8.5337,53.083665],[-8.532222,53.083761],[-8.53019,53.083904],[-8.52979,53.083951],[-8.529801,53.083967],[-8.529833,53.084029],[-8.529853,53.084135],[-8.529657,53.084159],[-8.529382,53.08418],[-8.529288,53.084184],[-8.529296,53.084276],[-8.529307,53.084507],[-8.529297,53.084658],[-8.529295,53.084795],[-8.529288,53.08498],[-8.529261,53.085246],[-8.529192,53.085851],[-8.529163,53.086238],[-8.529124,53.086582],[-8.529091,53.086823],[-8.529076,53.087037],[-8.52904,53.087444],[-8.528996,53.087828],[-8.528968,53.088119],[-8.52896,53.088203],[-8.528923,53.088458],[-8.528921,53.088485],[-8.528913,53.088603],[-8.528881,53.088998],[-8.528863,53.089186],[-8.528825,53.089527],[-8.528853,53.089528],[-8.528949,53.089536],[-8.529013,53.089517],[-8.529895,53.08954],[-8.53031,53.089552],[-8.530991,53.089574],[-8.53161,53.089591],[-8.531817,53.089597],[-8.532336,53.089611],[-8.532567,53.089628],[-8.532729,53.089622],[-8.53275,53.089621],[-8.533105,53.089626],[-8.533239,53.089631],[-8.533351,53.089638],[-8.533307,53.090236],[-8.533275,53.090586],[-8.533271,53.090674],[-8.533269,53.090736],[-8.533262,53.091057],[-8.533261,53.091085],[-8.533238,53.091264],[-8.533214,53.091511],[-8.53319,53.091848],[-8.533181,53.092044],[-8.533151,53.09222],[-8.533211,53.092239],[-8.533704,53.092378],[-8.534197,53.092517],[-8.534381,53.092599],[-8.534455,53.092632],[-8.534652,53.092725],[-8.534849,53.092819],[-8.534986,53.092896],[-8.535255,53.09307],[-8.536006,53.093565],[-8.536308,53.09375],[-8.536395,53.093789],[-8.536384,53.093798],[-8.536378,53.093804],[-8.5366,53.093895],[-8.536627,53.093902],[-8.536667,53.093911],[-8.537109,53.093913],[-8.537209,53.093918],[-8.537215,53.093918],[-8.537221,53.093918],[-8.537434,53.093925],[-8.538102,53.093979],[-8.538156,53.093983],[-8.539184,53.094063],[-8.53919,53.094063],[-8.539214,53.094065],[-8.539766,53.093977],[-8.540303,53.093879],[-8.540304,53.093879],[-8.540343,53.09387],[-8.540355,53.093868],[-8.540958,53.093758],[-8.541228,53.093708],[-8.54143,53.093652],[-8.541756,53.093563],[-8.541775,53.093555],[-8.541787,53.09355],[-8.541794,53.093547],[-8.541943,53.093499],[-8.54198,53.093487],[-8.542042,53.09347],[-8.542691,53.09327],[-8.543293,53.09309],[-8.543292,53.092997],[-8.543609,53.092996],[-8.543624,53.092991],[-8.543694,53.09297],[-8.543739,53.092957],[-8.543737,53.092725],[-8.544537,53.092722],[-8.544631,53.092694],[-8.544632,53.092694],[-8.544629,53.092452],[-8.545077,53.09245],[-8.545078,53.092572],[-8.545157,53.092548],[-8.545226,53.092526],[-8.545297,53.092504],[-8.545385,53.092477],[-8.545561,53.092422],[-8.545577,53.092408],[-8.545585,53.092401],[-8.545585,53.092401],[-8.545585,53.092401],[-8.545878,53.09231],[-8.546199,53.092215],[-8.54647,53.092116],[-8.546491,53.092108],[-8.546363,53.092028],[-8.546136,53.091873],[-8.546071,53.091828],[-8.545898,53.091708],[-8.545876,53.091678],[-8.545843,53.091634],[-8.545843,53.091634],[-8.545843,53.091632],[-8.545847,53.091513],[-8.545785,53.09137],[-8.545748,53.091283],[-8.545652,53.091032],[-8.545586,53.090841],[-8.545579,53.0908],[-8.545571,53.090748],[-8.545576,53.090614],[-8.545571,53.090574],[-8.545568,53.090544],[-8.54555,53.090501],[-8.545486,53.090437],[-8.545476,53.090427],[-8.54546,53.090409],[-8.545442,53.090389],[-8.545386,53.090324],[-8.545386,53.090324],[-8.545386,53.090324],[-8.545353,53.090286],[-8.545348,53.090278],[-8.545341,53.090261],[-8.545306,53.090141],[-8.545277,53.090022],[-8.545046,53.090023],[-8.545043,53.089754],[-8.544595,53.089756],[-8.544591,53.089486],[-8.545039,53.089484],[-8.545038,53.089371],[-8.544978,53.089289],[-8.544916,53.089215],[-8.544588,53.089216],[-8.544581,53.088677],[-8.544578,53.088434],[-8.544564,53.088406],[-8.544498,53.088314],[-8.544351,53.088205],[-8.544249,53.088142],[-8.544247,53.088139],[-8.544127,53.08814],[-8.54412,53.087609],[-8.544076,53.087493],[-8.54406,53.087438],[-8.544029,53.087428],[-8.543925,53.087349],[-8.543925,53.087349],[-8.543908,53.087321],[-8.543851,53.087232],[-8.543829,53.087181],[-8.543802,53.08712],[-8.54379,53.087093],[-8.543779,53.087069],[-8.543772,53.087033],[-8.543766,53.086994],[-8.543756,53.086937],[-8.543743,53.086894],[-8.543737,53.086872],[-8.54372,53.086773],[-8.543672,53.086502],[-8.543661,53.08636],[-8.543659,53.086245],[-8.543656,53.086092],[-8.543656,53.086092],[-8.543661,53.086079],[-8.543669,53.086059],[-8.543621,53.086028],[-8.5436,53.086007],[-8.543588,53.085994],[-8.543573,53.085935],[-8.543591,53.085873],[-8.5436,53.085843],[-8.543611,53.085813],[-8.543626,53.085774],[-8.543623,53.085719],[-8.543623,53.085718],[-8.543593,53.085637],[-8.543534,53.085547],[-8.54348,53.085488],[-8.543449,53.085454],[-8.543411,53.08543],[-8.543311,53.085364],[-8.543277,53.085337],[-8.543266,53.085328],[-8.543255,53.085317],[-8.543238,53.085302],[-8.543229,53.085296],[-8.543188,53.085277],[-8.543168,53.085267],[-8.543043,53.085227],[-8.542842,53.085132],[-8.542697,53.085037],[-8.542574,53.084932],[-8.542567,53.084925],[-8.542515,53.084882],[-8.542475,53.08485],[-8.542459,53.084837],[-8.542412,53.08474],[-8.542367,53.084648],[-8.542336,53.08459],[-8.542275,53.084475],[-8.542247,53.084418],[-8.542219,53.08436],[-8.542175,53.084245],[-8.542153,53.084187],[-8.542137,53.08414],[-8.542105,53.084046],[-8.542054,53.083909],[-8.542027,53.083869],[-8.541976,53.083796]]]]}}]}
