{"type":"FeatureCollection","features":[{"type":"Feature","properties":{"source_fid":3028155,"county":"Galway","bog_geom_ha":231.98257412188374,"low15_pct":86.953125,"low15_ha":201.71609765441923,"overlay_ha":201.76370302100844,"area_delta":0.047605366589209552},"geometry":{"type":"MultiPolygon","coordinates":[[[[-8.687907,53.127513],[-8.687878,53.127505],[-8.687848,53.127497],[-8.687616,53.127403],[-8.687618,53.127571],[-8.687623,53.127841],[-8.687174,53.127844],[-8.687179,53.128113],[-8.688075,53.128108],[-8.688079,53.128378],[-8.688084,53.128647],[-8.687635,53.12865],[-8.687644,53.129189],[-8.687648,53.129459],[-8.687653,53.129728],[-8.687657,53.129998],[-8.688105,53.129995],[-8.688127,53.131343],[-8.688135,53.131882],[-8.68814,53.132152],[-8.688143,53.132355],[-8.688146,53.13235],[-8.688243,53.131775],[-8.68826,53.131568],[-8.688337,53.131541],[-8.688306,53.131446],[-8.688576,53.131392],[-8.688575,53.131341],[-8.689019,53.131338],[-8.689411,53.131256],[-8.689535,53.13123],[-8.689543,53.131229],[-8.689535,53.13073],[-8.690492,53.130724],[-8.690595,53.130622],[-8.690627,53.130597],[-8.690788,53.130471],[-8.691085,53.130237],[-8.691326,53.130047],[-8.691571,53.129845],[-8.691601,53.12982],[-8.691014,53.129823],[-8.691,53.128924],[-8.689506,53.128933],[-8.689493,53.128078],[-8.689396,53.128029],[-8.689273,53.127974],[-8.689217,53.127951],[-8.68917,53.127933],[-8.689146,53.127923],[-8.689089,53.127904],[-8.688899,53.127839],[-8.688726,53.127786],[-8.688603,53.127751],[-8.688438,53.127704],[-8.688176,53.127607],[-8.687962,53.127528],[-8.687938,53.127521],[-8.687907,53.127513]],[[-8.688523,53.128106],[-8.688075,53.128108],[-8.688071,53.127838],[-8.688519,53.127836],[-8.688523,53.128106]],[[-8.68898,53.128642],[-8.688993,53.129451],[-8.689441,53.129448],[-8.68945,53.129988],[-8.689454,53.130257],[-8.689006,53.13026],[-8.689002,53.12999],[-8.688553,53.129993],[-8.688545,53.129453],[-8.688532,53.128645],[-8.68898,53.128642]]],[[[-8.685168,53.137944],[-8.685153,53.137045],[-8.686647,53.137037],[-8.689599,53.13702],[-8.689635,53.136979],[-8.689621,53.136121],[-8.69041,53.136116],[-8.690549,53.135965],[-8.69085,53.135708],[-8.690475,53.135662],[-8.690208,53.135547],[-8.690145,53.13557],[-8.690003,53.135635],[-8.689915,53.135627],[-8.689813,53.135574],[-8.689655,53.135542],[-8.689554,53.135547],[-8.689419,53.135559],[-8.689363,53.13555],[-8.689324,53.135454],[-8.689276,53.135337],[-8.689193,53.135272],[-8.689138,53.135253],[-8.689039,53.135284],[-8.688873,53.135353],[-8.688648,53.135292],[-8.68862,53.135222],[-8.688625,53.135197],[-8.68868,53.135136],[-8.688707,53.135079],[-8.688663,53.134996],[-8.688586,53.134896],[-8.688504,53.134865],[-8.688393,53.134845],[-8.688282,53.134843],[-8.68819,53.134826],[-8.688132,53.134799],[-8.6881,53.134682],[-8.688074,53.13443],[-8.688037,53.1344],[-8.687935,53.134389],[-8.687769,53.134348],[-8.687634,53.134238],[-8.687607,53.134148],[-8.687704,53.134054],[-8.687819,53.133962],[-8.687896,53.13386],[-8.687901,53.133803],[-8.68777,53.133622],[-8.687758,53.133541],[-8.687821,53.133428],[-8.68781,53.133177],[-8.687791,53.133024],[-8.687746,53.132906],[-8.687754,53.132812],[-8.687797,53.132658],[-8.687974,53.132547],[-8.688062,53.132457],[-8.68809,53.132422],[-8.687696,53.132424],[-8.6877,53.132694],[-8.687252,53.132696],[-8.687256,53.132966],[-8.686808,53.132969],[-8.686812,53.133238],[-8.686364,53.133241],[-8.686359,53.132971],[-8.685911,53.132974],[-8.685916,53.133243],[-8.685467,53.133246],[-8.685472,53.133516],[-8.685023,53.133518],[-8.685019,53.133249],[-8.685015,53.132979],[-8.68501,53.132709],[-8.685459,53.132707],[-8.685454,53.132437],[-8.68545,53.132168],[-8.687243,53.132157],[-8.687239,53.131888],[-8.686791,53.13189],[-8.686782,53.131351],[-8.68723,53.131348],[-8.687209,53.13],[-8.686312,53.130006],[-8.686317,53.130275],[-8.685868,53.130278],[-8.685873,53.130547],[-8.685877,53.130817],[-8.685429,53.13082],[-8.685433,53.131089],[-8.684985,53.131092],[-8.684989,53.131361],[-8.684092,53.131367],[-8.684097,53.131636],[-8.683648,53.131639],[-8.683653,53.131908],[-8.683204,53.131911],[-8.683209,53.13218],[-8.682312,53.132186],[-8.682316,53.132455],[-8.681868,53.132458],[-8.681864,53.132188],[-8.68186,53.131919],[-8.682308,53.131916],[-8.682304,53.131646],[-8.682752,53.131644],[-8.682748,53.131374],[-8.683196,53.131372],[-8.683192,53.131102],[-8.684088,53.131097],[-8.684084,53.130827],[-8.684532,53.130825],[-8.684528,53.130555],[-8.684976,53.130553],[-8.684972,53.130283],[-8.68542,53.13028],[-8.685416,53.130011],[-8.684071,53.130019],[-8.684075,53.130288],[-8.683627,53.130291],[-8.683631,53.13056],[-8.683183,53.130563],[-8.683187,53.130832],[-8.682739,53.130835],[-8.682743,53.131105],[-8.682295,53.131107],[-8.682299,53.131377],[-8.681403,53.131382],[-8.681407,53.131652],[-8.680959,53.131654],[-8.680955,53.131385],[-8.680058,53.13139],[-8.680054,53.13112],[-8.679157,53.131125],[-8.679162,53.131395],[-8.679166,53.131664],[-8.678718,53.131667],[-8.678722,53.131937],[-8.678735,53.132745],[-8.679183,53.132743],[-8.679187,53.133012],[-8.679635,53.13301],[-8.679644,53.133549],[-8.679196,53.133552],[-8.6792,53.133821],[-8.679204,53.134091],[-8.678308,53.134096],[-8.678312,53.134365],[-8.677864,53.134368],[-8.677868,53.134638],[-8.676523,53.134645],[-8.676519,53.134376],[-8.676514,53.134106],[-8.67651,53.133836],[-8.676062,53.133839],[-8.676058,53.133569],[-8.675609,53.133572],[-8.675601,53.133033],[-8.675597,53.132763],[-8.675584,53.131954],[-8.676032,53.131952],[-8.676028,53.131682],[-8.676024,53.131413],[-8.676472,53.13141],[-8.676468,53.13114],[-8.676464,53.130871],[-8.678257,53.130861],[-8.678252,53.130591],[-8.678701,53.130589],[-8.678696,53.130319],[-8.679145,53.130316],[-8.679149,53.130586],[-8.680942,53.130576],[-8.680946,53.130845],[-8.681394,53.130843],[-8.68139,53.130573],[-8.681838,53.130571],[-8.681834,53.130301],[-8.682282,53.130298],[-8.682278,53.130029],[-8.683175,53.130024],[-8.68317,53.129754],[-8.684067,53.129749],[-8.684062,53.129479],[-8.684511,53.129477],[-8.684506,53.129207],[-8.684498,53.128668],[-8.684494,53.128398],[-8.684489,53.128129],[-8.684938,53.128126],[-8.684933,53.127857],[-8.685381,53.127854],[-8.685386,53.128124],[-8.68539,53.128393],[-8.685838,53.128391],[-8.685843,53.12866],[-8.685394,53.128663],[-8.685403,53.129202],[-8.686299,53.129197],[-8.686291,53.128658],[-8.686286,53.128388],[-8.686735,53.128385],[-8.68673,53.128116],[-8.686726,53.127846],[-8.686722,53.127577],[-8.68717,53.127574],[-8.687166,53.127304],[-8.68736,53.127303],[-8.687104,53.127207],[-8.687034,53.127184],[-8.686618,53.126745],[-8.686554,53.126678],[-8.686512,53.126645],[-8.686435,53.126583],[-8.68616,53.126436],[-8.685705,53.126239],[-8.685404,53.126116],[-8.685147,53.12601],[-8.684869,53.125902],[-8.684628,53.125809],[-8.684551,53.125789],[-8.684481,53.125771],[-8.684306,53.125747],[-8.684269,53.125742],[-8.684233,53.125737],[-8.683584,53.125637],[-8.682856,53.125516],[-8.682256,53.125408],[-8.68217,53.125393],[-8.682066,53.125375],[-8.681657,53.125304],[-8.681456,53.125268],[-8.681172,53.125216],[-8.680919,53.125195],[-8.680684,53.125209],[-8.680408,53.125185],[-8.680408,53.125186],[-8.68038,53.125186],[-8.68018,53.125202],[-8.67996,53.125203],[-8.679964,53.125458],[-8.679516,53.125461],[-8.679521,53.125731],[-8.678624,53.125736],[-8.67862,53.125466],[-8.679068,53.125464],[-8.679064,53.125194],[-8.679121,53.125194],[-8.678986,53.12518],[-8.678375,53.125142],[-8.677828,53.125107],[-8.677603,53.125098],[-8.677326,53.12508],[-8.67694,53.125069],[-8.676548,53.125065],[-8.676091,53.125019],[-8.675548,53.124955],[-8.675513,53.12495],[-8.675282,53.124976],[-8.674815,53.124943],[-8.674333,53.124917],[-8.674247,53.124908],[-8.673986,53.12488],[-8.673428,53.12483],[-8.673287,53.12482],[-8.67299,53.124805],[-8.67275,53.12478],[-8.672333,53.124736],[-8.672076,53.124709],[-8.671417,53.124646],[-8.671178,53.124621],[-8.670991,53.124623],[-8.670707,53.124575],[-8.670283,53.124493],[-8.670086,53.124418],[-8.669923,53.124383],[-8.669739,53.124345],[-8.669665,53.124294],[-8.669509,53.124253],[-8.669297,53.124201],[-8.669108,53.124126],[-8.668895,53.124066],[-8.66874,53.124016],[-8.66857,53.123875],[-8.668512,53.123816],[-8.668422,53.123744],[-8.668071,53.123699],[-8.667654,53.123631],[-8.66757,53.12349],[-8.667499,53.123346],[-8.667469,53.123295],[-8.667317,53.12327],[-8.66714,53.123272],[-8.666994,53.123251],[-8.66695,53.123254],[-8.666877,53.123238],[-8.666662,53.123226],[-8.666616,53.123224],[-8.666565,53.123217],[-8.666421,53.123181],[-8.666364,53.123155],[-8.666324,53.123145],[-8.666294,53.12314],[-8.666229,53.123116],[-8.666187,53.123092],[-8.666104,53.123047],[-8.666027,53.123008],[-8.665998,53.122991],[-8.665957,53.122974],[-8.665956,53.12291],[-8.665956,53.122883],[-8.665955,53.122854],[-8.665954,53.122691],[-8.665957,53.122592],[-8.665961,53.122467],[-8.665966,53.122291],[-8.66596,53.122186],[-8.665946,53.122059],[-8.665949,53.122025],[-8.665931,53.121948],[-8.665898,53.121745],[-8.665887,53.121663],[-8.665935,53.121581],[-8.665911,53.121583],[-8.665821,53.121583],[-8.6658,53.121597],[-8.665663,53.121678],[-8.665573,53.121735],[-8.665523,53.121749],[-8.665442,53.121743],[-8.665426,53.121745],[-8.665335,53.121765],[-8.665329,53.121768],[-8.665287,53.121816],[-8.665211,53.121883],[-8.665167,53.121898],[-8.665075,53.121904],[-8.66498,53.121889],[-8.664894,53.121884],[-8.66486,53.121883],[-8.664697,53.121959],[-8.664643,53.121981],[-8.664631,53.122041],[-8.664632,53.122048],[-8.664696,53.122144],[-8.6647,53.12217],[-8.664684,53.122228],[-8.664663,53.122252],[-8.664612,53.122283],[-8.66434,53.122458],[-8.66425,53.122559],[-8.664248,53.122566],[-8.664262,53.122616],[-8.664247,53.122644],[-8.664193,53.12268],[-8.664152,53.122692],[-8.66409,53.122696],[-8.66405,53.122699],[-8.664011,53.122697],[-8.663977,53.122691],[-8.663956,53.122699],[-8.663949,53.122705],[-8.663927,53.122749],[-8.663925,53.12276],[-8.663953,53.12288],[-8.663992,53.123074],[-8.66399,53.123097],[-8.66396,53.123178],[-8.663945,53.123199],[-8.663892,53.123248],[-8.663964,53.123305],[-8.664195,53.123485],[-8.664413,53.123665],[-8.664618,53.123834],[-8.664973,53.124131],[-8.665025,53.124176],[-8.665127,53.124265],[-8.665526,53.124612],[-8.665851,53.124901],[-8.666392,53.125393],[-8.666742,53.125687],[-8.667044,53.125948],[-8.667403,53.126258],[-8.667796,53.126604],[-8.667985,53.12676],[-8.668274,53.126984],[-8.668693,53.127354],[-8.66903,53.127669],[-8.669425,53.128044],[-8.669878,53.128444],[-8.670577,53.129026],[-8.670633,53.129254],[-8.670706,53.129576],[-8.670765,53.129931],[-8.670804,53.130158],[-8.670824,53.13032],[-8.67085,53.130503],[-8.670892,53.130685],[-8.670915,53.130807],[-8.670906,53.131037],[-8.670884,53.131257],[-8.670872,53.131467],[-8.670857,53.131637],[-8.670845,53.131795],[-8.670827,53.132042],[-8.670817,53.132197],[-8.670808,53.132409],[-8.670796,53.132475],[-8.67089,53.132707],[-8.671064,53.133049],[-8.671123,53.133158],[-8.671185,53.133289],[-8.671217,53.133354],[-8.671319,53.133547],[-8.671376,53.133655],[-8.671415,53.13373],[-8.671462,53.133832],[-8.671625,53.134134],[-8.672032,53.134131],[-8.672027,53.133862],[-8.672023,53.133592],[-8.672471,53.13359],[-8.672467,53.13332],[-8.672915,53.133318],[-8.672911,53.133048],[-8.672907,53.132778],[-8.673355,53.132776],[-8.673347,53.132237],[-8.673795,53.132234],[-8.673804,53.132773],[-8.673808,53.133043],[-8.67336,53.133045],[-8.673364,53.133315],[-8.673368,53.133585],[-8.673372,53.133854],[-8.672924,53.133857],[-8.672928,53.134126],[-8.672932,53.134396],[-8.671765,53.134403],[-8.671802,53.134474],[-8.6719,53.134683],[-8.67215,53.135176],[-8.672328,53.135536],[-8.672479,53.135839],[-8.672507,53.135896],[-8.672827,53.136533],[-8.672524,53.136982],[-8.672457,53.137082],[-8.67214,53.137543],[-8.671969,53.137779],[-8.671926,53.137865],[-8.671744,53.138078],[-8.671387,53.138273],[-8.67122,53.13863],[-8.671174,53.138728],[-8.671213,53.13889],[-8.671264,53.139026],[-8.67124,53.139078],[-8.67119,53.139131],[-8.671163,53.139348],[-8.671133,53.139438],[-8.67107,53.139493],[-8.671007,53.139538],[-8.671028,53.139692],[-8.671046,53.139832],[-8.671122,53.14004],[-8.671206,53.140137],[-8.671163,53.140198],[-8.671201,53.140251],[-8.670999,53.14047],[-8.670724,53.140644],[-8.6707,53.140842],[-8.670696,53.140939],[-8.670704,53.141027],[-8.670643,53.141068],[-8.670584,53.141096],[-8.670474,53.141108],[-8.670389,53.141101],[-8.670292,53.141182],[-8.670203,53.141413],[-8.670239,53.141557],[-8.670214,53.141592],[-8.669996,53.141676],[-8.669942,53.141736],[-8.669947,53.141773],[-8.669952,53.141802],[-8.669892,53.141957],[-8.669911,53.142062],[-8.669918,53.142158],[-8.669951,53.14223],[-8.670156,53.142296],[-8.670345,53.142338],[-8.670403,53.142387],[-8.670483,53.142416],[-8.67054,53.142544],[-8.670581,53.142645],[-8.670598,53.142681],[-8.670657,53.142714],[-8.670749,53.142752],[-8.670985,53.14274],[-8.671062,53.142736],[-8.671154,53.142748],[-8.671269,53.142793],[-8.671391,53.142816],[-8.671586,53.142838],[-8.671689,53.142841],[-8.671792,53.142822],[-8.671846,53.142821],[-8.671898,53.142853],[-8.671962,53.142869],[-8.672088,53.143037],[-8.672089,53.143109],[-8.672089,53.143156],[-8.672168,53.143234],[-8.672205,53.143256],[-8.672327,53.14325],[-8.672436,53.143331],[-8.672533,53.143407],[-8.672537,53.143445],[-8.672472,53.143584],[-8.672532,53.143641],[-8.672622,53.143688],[-8.672629,53.143688],[-8.672765,53.143692],[-8.673024,53.143746],[-8.673482,53.143884],[-8.67366,53.143916],[-8.673914,53.144026],[-8.67455,53.144149],[-8.674672,53.144157],[-8.674819,53.144087],[-8.674954,53.144054],[-8.675005,53.144099],[-8.674955,53.144141],[-8.67509,53.144281],[-8.675141,53.14431],[-8.675195,53.144318],[-8.675458,53.144414],[-8.675551,53.144437],[-8.675613,53.144419],[-8.67576,53.144344],[-8.676019,53.144353],[-8.676303,53.144349],[-8.676302,53.144284],[-8.677796,53.144276],[-8.67929,53.144267],[-8.679276,53.143369],[-8.680771,53.14336],[-8.682265,53.143352],[-8.682236,53.141555],[-8.683731,53.141546],[-8.683716,53.140648],[-8.685211,53.140639],[-8.685196,53.139741],[-8.68669,53.139732],[-8.686662,53.137935],[-8.685168,53.137944]],[[-8.674243,53.132232],[-8.673795,53.132234],[-8.673787,53.131695],[-8.673778,53.131156],[-8.674227,53.131153],[-8.674218,53.130614],[-8.674666,53.130611],[-8.674675,53.131151],[-8.674683,53.13169],[-8.674235,53.131692],[-8.674243,53.132232]],[[-8.677486,53.138886],[-8.676217,53.138893],[-8.676203,53.137995],[-8.677472,53.137988],[-8.67747,53.137875],[-8.677919,53.137873],[-8.677906,53.137064],[-8.678354,53.137061],[-8.678367,53.13787],[-8.678371,53.13814],[-8.677923,53.138142],[-8.677927,53.138412],[-8.677931,53.138682],[-8.677936,53.138951],[-8.677948,53.13976],[-8.6775,53.139763],[-8.677504,53.140032],[-8.676608,53.140037],[-8.676603,53.139768],[-8.677052,53.139765],[-8.677039,53.138956],[-8.677487,53.138954],[-8.677486,53.138886]],[[-8.675711,53.140042],[-8.676608,53.140037],[-8.676612,53.140307],[-8.676616,53.140576],[-8.676168,53.140579],[-8.676172,53.140849],[-8.675275,53.140854],[-8.675279,53.141123],[-8.674383,53.141128],[-8.674379,53.140859],[-8.674374,53.140589],[-8.675271,53.140584],[-8.675267,53.140314],[-8.675715,53.140312],[-8.675711,53.140042]],[[-8.679205,53.138876],[-8.679191,53.137978],[-8.680685,53.137969],[-8.6807,53.138868],[-8.679205,53.138876]],[[-8.67626,53.141589],[-8.676245,53.14069],[-8.67774,53.140682],[-8.677754,53.14158],[-8.67626,53.141589]],[[-8.679248,53.141572],[-8.679234,53.140673],[-8.680728,53.140665],[-8.68073,53.140823],[-8.681104,53.14082],[-8.681112,53.14136],[-8.681125,53.142168],[-8.681129,53.142438],[-8.680681,53.142441],[-8.680685,53.14271],[-8.680237,53.142713],[-8.680241,53.142982],[-8.679793,53.142985],[-8.679789,53.142715],[-8.67934,53.142718],[-8.679336,53.142448],[-8.679784,53.142446],[-8.67978,53.142176],[-8.680228,53.142174],[-8.680219,53.141566],[-8.679248,53.141572]],[[-8.681872,53.132727],[-8.68189,53.133806],[-8.681441,53.133808],[-8.681424,53.13273],[-8.681872,53.132727]],[[-8.682355,53.134882],[-8.682351,53.134612],[-8.682799,53.134609],[-8.682803,53.134879],[-8.682355,53.134882]],[[-8.682812,53.135418],[-8.682803,53.134879],[-8.683252,53.134876],[-8.68326,53.135416],[-8.682812,53.135418]],[[-8.682363,53.135421],[-8.682812,53.135418],[-8.682816,53.135688],[-8.682368,53.13569],[-8.682363,53.135421]],[[-8.681919,53.135693],[-8.682368,53.13569],[-8.682372,53.13596],[-8.681924,53.135963],[-8.681919,53.135693]],[[-8.681458,53.134887],[-8.681463,53.135156],[-8.681014,53.135159],[-8.68101,53.134889],[-8.681458,53.134887]],[[-8.681488,53.136774],[-8.68104,53.136776],[-8.681044,53.137046],[-8.680596,53.137049],[-8.680592,53.136779],[-8.680587,53.136509],[-8.681484,53.136504],[-8.681488,53.136774]],[[-8.680148,53.137051],[-8.680596,53.137049],[-8.6806,53.137318],[-8.680152,53.137321],[-8.680148,53.137051]],[[-8.678337,53.135983],[-8.678342,53.136253],[-8.677893,53.136255],[-8.677889,53.135986],[-8.678337,53.135983]],[[-8.671701,53.141683],[-8.673494,53.141673],[-8.673499,53.141942],[-8.671705,53.141952],[-8.671701,53.141683]],[[-8.670808,53.141957],[-8.671705,53.141952],[-8.671709,53.142222],[-8.670813,53.142227],[-8.670808,53.141957]],[[-8.670804,53.141688],[-8.670808,53.141957],[-8.67036,53.14196],[-8.670356,53.14169],[-8.670804,53.141688]]]]}}]}
