{"type":"FeatureCollection","features":[{"type":"Feature","properties":{"source_fid":3049225,"county":"Cork","bog_geom_ha":264.48343748170623,"low15_pct":96.023113528212107,"low15_ha":253.96523143637665,"overlay_ha":253.97943932269615,"area_delta":0.014207886319496765},"geometry":{"type":"MultiPolygon","coordinates":[[[[-9.158564,52.007312],[-9.158551,52.007307],[-9.158551,52.007324],[-9.158564,52.007312]]],[[[-9.13513,52.011541],[-9.135358,52.011592],[-9.135354,52.01144],[-9.135294,52.011447],[-9.135101,52.011534],[-9.13513,52.011541]]],[[[-9.158466,52.007919],[-9.158544,52.007891],[-9.158601,52.007854],[-9.158619,52.007827],[-9.15859,52.00738],[-9.15859,52.00738],[-9.158529,52.007355],[-9.15843,52.007356],[-9.158435,52.007538],[-9.157998,52.007543],[-9.157993,52.00736],[-9.157096,52.007369],[-9.15708,52.006743],[-9.156666,52.006747],[-9.156652,52.006207],[-9.156802,52.006206],[-9.15677,52.006097],[-9.156742,52.006056],[-9.156698,52.005992],[-9.156629,52.00594],[-9.156624,52.005938],[-9.156208,52.005942],[-9.156222,52.006481],[-9.155786,52.006486],[-9.155792,52.006755],[-9.15521,52.006761],[-9.155184,52.006776],[-9.15513,52.006803],[-9.155018,52.006824],[-9.154946,52.006835],[-9.154899,52.006842],[-9.154821,52.006848],[-9.15479,52.00685],[-9.154775,52.006848],[-9.154736,52.006842],[-9.15471,52.006824],[-9.154681,52.006802],[-9.15464,52.006763],[-9.154623,52.006746],[-9.154588,52.006677],[-9.154588,52.006621],[-9.154587,52.006574],[-9.15464,52.006497],[-9.154475,52.006498],[-9.154475,52.006496],[-9.154161,52.006499],[-9.154147,52.005962],[-9.15315,52.005972],[-9.153157,52.006242],[-9.151479,52.006258],[-9.151411,52.006292],[-9.151417,52.006528],[-9.152291,52.00652],[-9.152297,52.006789],[-9.152304,52.007059],[-9.152741,52.007055],[-9.152748,52.007324],[-9.151874,52.007333],[-9.151867,52.007063],[-9.150557,52.007076],[-9.15055,52.006806],[-9.150113,52.006811],[-9.150106,52.006541],[-9.150543,52.006537],[-9.15054,52.006431],[-9.150477,52.006411],[-9.150351,52.006343],[-9.150334,52.006334],[-9.150334,52.006334],[-9.150334,52.006334],[-9.150267,52.00627],[-9.149786,52.006275],[-9.149793,52.006542],[-9.148795,52.006551],[-9.148796,52.006554],[-9.148359,52.006558],[-9.148359,52.006556],[-9.148337,52.006556],[-9.148318,52.0058],[-9.147895,52.005684],[-9.147622,52.005688],[-9.147563,52.005711],[-9.147248,52.005834],[-9.1472,52.005843],[-9.147128,52.005855],[-9.147046,52.005879],[-9.147046,52.005879],[-9.147046,52.005879],[-9.146969,52.005859],[-9.146899,52.005794],[-9.146838,52.00576],[-9.146795,52.005736],[-9.146755,52.005727],[-9.146651,52.005702],[-9.146398,52.005697],[-9.146326,52.00571],[-9.146218,52.00573],[-9.145976,52.005801],[-9.145883,52.005826],[-9.145759,52.005861],[-9.145692,52.005881],[-9.145659,52.005892],[-9.145496,52.005859],[-9.145282,52.00578],[-9.145174,52.00574],[-9.145046,52.005661],[-9.144974,52.005617],[-9.144938,52.005613],[-9.144856,52.005604],[-9.144838,52.005598],[-9.144843,52.005783],[-9.144406,52.005788],[-9.144399,52.005518],[-9.14365,52.005525],[-9.143554,52.005538],[-9.143526,52.005539],[-9.143532,52.005796],[-9.142659,52.005805],[-9.142652,52.005535],[-9.14103,52.005551],[-9.141035,52.005728],[-9.136667,52.00577],[-9.136649,52.005054],[-9.1361,52.005059],[-9.136093,52.005065],[-9.136093,52.005065],[-9.136093,52.005065],[-9.136081,52.00507],[-9.136011,52.005095],[-9.135934,52.005287],[-9.135878,52.005479],[-9.13588,52.005595],[-9.135812,52.005628],[-9.135751,52.005629],[-9.13571,52.005612],[-9.135549,52.00558],[-9.135299,52.005678],[-9.135219,52.005732],[-9.135146,52.00578],[-9.135013,52.00589],[-9.135012,52.005934],[-9.13499,52.006083],[-9.134771,52.006395],[-9.134524,52.006687],[-9.134218,52.007169],[-9.134015,52.007392],[-9.133903,52.007476],[-9.133877,52.00757],[-9.133877,52.007634],[-9.133877,52.007671],[-9.133899,52.007997],[-9.13395,52.008251],[-9.134,52.008506],[-9.134247,52.008806],[-9.134042,52.008926],[-9.13398,52.008987],[-9.133951,52.009074],[-9.133949,52.009107],[-9.133968,52.009133],[-9.134036,52.009157],[-9.134376,52.009253],[-9.13439,52.009326],[-9.134394,52.009408],[-9.134272,52.009477],[-9.134052,52.009587],[-9.134005,52.009629],[-9.134009,52.009665],[-9.134169,52.00981],[-9.134484,52.010099],[-9.134629,52.010238],[-9.134698,52.010325],[-9.134718,52.010443],[-9.134748,52.010653],[-9.134821,52.01073],[-9.134884,52.010775],[-9.135024,52.01081],[-9.135211,52.01083],[-9.135327,52.010919],[-9.135468,52.010987],[-9.135582,52.010997],[-9.135688,52.011021],[-9.135771,52.011059],[-9.135825,52.011107],[-9.135819,52.011171],[-9.136803,52.011161],[-9.13682,52.011802],[-9.13685,52.011811],[-9.13685,52.011811],[-9.136886,52.011945],[-9.137026,52.012057],[-9.137042,52.012122],[-9.137164,52.012382],[-9.137344,52.012768],[-9.13752,52.013128],[-9.137464,52.013216],[-9.13745,52.013239],[-9.137508,52.013281],[-9.137586,52.013309],[-9.137654,52.013333],[-9.13773,52.01339],[-9.137754,52.013455],[-9.137694,52.013547],[-9.137419,52.013674],[-9.137396,52.013773],[-9.137499,52.013848],[-9.137508,52.013851],[-9.137519,52.013854],[-9.137662,52.013902],[-9.137764,52.01394],[-9.13783,52.013964],[-9.13795,52.014029],[-9.138086,52.014102],[-9.138184,52.014153],[-9.138315,52.014221],[-9.1385,52.014286],[-9.13867,52.014346],[-9.138748,52.014394],[-9.138796,52.014437],[-9.138943,52.014569],[-9.138952,52.014586],[-9.139013,52.014701],[-9.139038,52.014804],[-9.139055,52.014871],[-9.139226,52.014978],[-9.139444,52.015075],[-9.139686,52.015157],[-9.139778,52.015227],[-9.139779,52.015228],[-9.139843,52.015221],[-9.139863,52.015224],[-9.139918,52.015233],[-9.139957,52.015245],[-9.13999,52.015254],[-9.140167,52.015295],[-9.140167,52.015296],[-9.14018,52.015298],[-9.140334,52.015322],[-9.140442,52.015384],[-9.140444,52.015385],[-9.140444,52.015385],[-9.14045,52.015394],[-9.140475,52.015433],[-9.140468,52.01549],[-9.140442,52.015521],[-9.140418,52.015549],[-9.140404,52.015569],[-9.1404,52.015575],[-9.140404,52.015587],[-9.140415,52.01562],[-9.141286,52.015612],[-9.141289,52.015732],[-9.141317,52.015735],[-9.141355,52.015772],[-9.14137,52.015788],[-9.141386,52.015804],[-9.141346,52.015972],[-9.141361,52.016045],[-9.141379,52.016157],[-9.141389,52.016219],[-9.141355,52.016266],[-9.141319,52.016314],[-9.141304,52.016337],[-9.141309,52.01651],[-9.140974,52.016514],[-9.140882,52.016535],[-9.140776,52.016546],[-9.14075,52.016553],[-9.140719,52.016561],[-9.14064,52.016576],[-9.140586,52.016587],[-9.140565,52.01659],[-9.14055,52.016592],[-9.140575,52.016604],[-9.140675,52.016654],[-9.140808,52.016731],[-9.140888,52.01675],[-9.140948,52.016764],[-9.14103,52.016806],[-9.141025,52.016835],[-9.141017,52.016875],[-9.140928,52.016979],[-9.140869,52.01705],[-9.140771,52.017172],[-9.140689,52.017282],[-9.14062,52.017376],[-9.140639,52.017416],[-9.141046,52.017412],[-9.14112,52.017393],[-9.141368,52.01734],[-9.14149,52.017333],[-9.141579,52.017352],[-9.141591,52.017424],[-9.141688,52.017435],[-9.14177,52.017456],[-9.141764,52.017494],[-9.14174,52.017532],[-9.14171,52.017567],[-9.141683,52.01762],[-9.141606,52.017698],[-9.141558,52.017752],[-9.141463,52.017774],[-9.141429,52.017793],[-9.141542,52.017849],[-9.141645,52.017941],[-9.141645,52.017958],[-9.14182,52.018121],[-9.141957,52.018265],[-9.141943,52.018392],[-9.141943,52.018392],[-9.141955,52.018393],[-9.142019,52.018378],[-9.14206,52.018349],[-9.142145,52.018307],[-9.142209,52.01829],[-9.142263,52.018235],[-9.142286,52.018172],[-9.142272,52.018124],[-9.142275,52.018048],[-9.142309,52.018],[-9.142332,52.017943],[-9.14238,52.017951],[-9.142479,52.017976],[-9.142513,52.01798],[-9.142553,52.017942],[-9.142659,52.017963],[-9.1427,52.01804],[-9.142701,52.018082],[-9.142712,52.018171],[-9.142665,52.018271],[-9.142717,52.018414],[-9.142732,52.018519],[-9.142705,52.018563],[-9.142674,52.018599],[-9.14263,52.018634],[-9.142552,52.018664],[-9.142447,52.018671],[-9.142359,52.018698],[-9.142342,52.018728],[-9.142431,52.018767],[-9.142633,52.018888],[-9.142671,52.018983],[-9.142722,52.019054],[-9.142774,52.019062],[-9.142797,52.019054],[-9.142821,52.019003],[-9.142874,52.018902],[-9.142884,52.018867],[-9.142925,52.018837],[-9.143003,52.018833],[-9.143078,52.018845],[-9.143153,52.018876],[-9.143214,52.018887],[-9.143299,52.018865],[-9.143336,52.018817],[-9.143397,52.018771],[-9.143492,52.018768],[-9.143567,52.018791],[-9.143609,52.018837],[-9.143609,52.018889],[-9.143586,52.018955],[-9.143545,52.018984],[-9.143457,52.019007],[-9.143335,52.019037],[-9.143233,52.01913],[-9.143193,52.019208],[-9.14316,52.019348],[-9.143164,52.019382],[-9.143195,52.019417],[-9.143239,52.019419],[-9.143345,52.019453],[-9.143403,52.019509],[-9.14352,52.019641],[-9.143644,52.019806],[-9.143781,52.019921],[-9.14389,52.019967],[-9.144106,52.020122],[-9.144307,52.020238],[-9.144509,52.020303],[-9.144713,52.020365],[-9.144775,52.020409],[-9.144919,52.020503],[-9.145011,52.020608],[-9.145107,52.020645],[-9.145243,52.020668],[-9.145362,52.02069],[-9.145427,52.02068],[-9.145481,52.020636],[-9.145501,52.020602],[-9.145484,52.02055],[-9.145551,52.020503],[-9.145752,52.020482],[-9.145874,52.020462],[-9.146058,52.020468],[-9.146123,52.020501],[-9.146198,52.020593],[-9.14622,52.020742],[-9.146231,52.020837],[-9.146201,52.020887],[-9.146168,52.020965],[-9.146192,52.021019],[-9.146271,52.021095],[-9.146449,52.021239],[-9.146593,52.021368],[-9.146819,52.021521],[-9.147,52.021621],[-9.147153,52.021665],[-9.147307,52.02174],[-9.147362,52.02179],[-9.147373,52.021878],[-9.147349,52.021937],[-9.147292,52.021994],[-9.147207,52.022036],[-9.147157,52.022086],[-9.147133,52.022151],[-9.147127,52.022238],[-9.147165,52.022302],[-9.147251,52.022355],[-9.147377,52.022405],[-9.147449,52.022404],[-9.147581,52.022421],[-9.147697,52.022441],[-9.147806,52.022443],[-9.147939,52.022499],[-9.148059,52.022589],[-9.148203,52.022729],[-9.148255,52.022849],[-9.148257,52.023042],[-9.148227,52.023182],[-9.1482,52.023206],[-9.148153,52.023233],[-9.148133,52.023256],[-9.148157,52.023288],[-9.148219,52.023333],[-9.148301,52.023377],[-9.1484,52.023434],[-9.148475,52.023501],[-9.148534,52.023628],[-9.148497,52.023698],[-9.148463,52.023725],[-9.148385,52.023757],[-9.14828,52.023772],[-9.148198,52.023778],[-9.148198,52.023757],[-9.148191,52.023732],[-9.14813,52.02373],[-9.148089,52.023749],[-9.148042,52.023838],[-9.147996,52.023951],[-9.147986,52.024014],[-9.148037,52.024054],[-9.148123,52.024089],[-9.148215,52.024124],[-9.14829,52.024135],[-9.148358,52.02413],[-9.14845,52.024136],[-9.148491,52.024159],[-9.148474,52.024191],[-9.148441,52.024248],[-9.148442,52.024249],[-9.149333,52.024439],[-9.149356,52.024444],[-9.149357,52.024455],[-9.149367,52.024586],[-9.149393,52.0248],[-9.149411,52.024962],[-9.149422,52.025062],[-9.149423,52.025172],[-9.149427,52.02523],[-9.149436,52.02531],[-9.149454,52.025362],[-9.149493,52.025414],[-9.149496,52.025417],[-9.149552,52.025463],[-9.149619,52.025508],[-9.14965,52.025517],[-9.149704,52.025531],[-9.149796,52.025557],[-9.150011,52.025594],[-9.150166,52.025616],[-9.150486,52.025662],[-9.150902,52.025717],[-9.150926,52.02572],[-9.151038,52.025735],[-9.151086,52.025742],[-9.151398,52.025785],[-9.151419,52.025789],[-9.151939,52.025875],[-9.152576,52.025987],[-9.15275,52.026014],[-9.153172,52.026081],[-9.153471,52.026132],[-9.153645,52.026131],[-9.153722,52.026126],[-9.154036,52.026102],[-9.154129,52.026094],[-9.15419,52.026088],[-9.154314,52.026077],[-9.154469,52.026082],[-9.154842,52.026111],[-9.154863,52.026112],[-9.154873,52.026113],[-9.155451,52.026143],[-9.15551,52.026146],[-9.155514,52.026122],[-9.155519,52.026098],[-9.155638,52.02605],[-9.15565,52.026047],[-9.155801,52.026007],[-9.155873,52.025991],[-9.15591,52.025982],[-9.156502,52.025847],[-9.156526,52.025842],[-9.156554,52.025837],[-9.157744,52.025596],[-9.158543,52.025444],[-9.15924,52.025335],[-9.159424,52.02532],[-9.15949,52.025311],[-9.159521,52.025294],[-9.159529,52.025276],[-9.159537,52.025259],[-9.159537,52.025253],[-9.159515,52.025034],[-9.159498,52.024627],[-9.159492,52.024292],[-9.159457,52.024055],[-9.159427,52.023923],[-9.159399,52.023787],[-9.159395,52.02377],[-9.159393,52.023757],[-9.159386,52.023727],[-9.159374,52.023669],[-9.159314,52.023361],[-9.159286,52.023298],[-9.158719,52.023417],[-9.15827,52.023505],[-9.158248,52.023399],[-9.158238,52.023352],[-9.158202,52.023286],[-9.158197,52.023276],[-9.158166,52.02322],[-9.158148,52.023162],[-9.158148,52.023161],[-9.158082,52.022951],[-9.158012,52.022746],[-9.158001,52.022637],[-9.158002,52.022629],[-9.158004,52.02262],[-9.158007,52.022606],[-9.158033,52.022477],[-9.158062,52.022383],[-9.158077,52.022332],[-9.158116,52.022204],[-9.158266,52.021828],[-9.158306,52.021709],[-9.15834,52.02157],[-9.158344,52.021561],[-9.158341,52.021559],[-9.158332,52.02153],[-9.158309,52.021512],[-9.158298,52.021503],[-9.158147,52.021382],[-9.157978,52.021229],[-9.157958,52.021196],[-9.157936,52.021001],[-9.157958,52.020858],[-9.157957,52.020834],[-9.157954,52.020753],[-9.157913,52.020626],[-9.157877,52.020512],[-9.157873,52.0205],[-9.157821,52.02033],[-9.157813,52.020318],[-9.157793,52.020289],[-9.157766,52.020248],[-9.1577,52.020215],[-9.157691,52.02021],[-9.157677,52.020179],[-9.157687,52.020154],[-9.157704,52.020116],[-9.157659,52.020083],[-9.157652,52.020078],[-9.157588,52.019989],[-9.157576,52.019973],[-9.157566,52.019959],[-9.157549,52.019899],[-9.157533,52.019845],[-9.157527,52.019825],[-9.157537,52.019718],[-9.157559,52.019579],[-9.157569,52.019538],[-9.157601,52.019399],[-9.157602,52.019397],[-9.157636,52.019355],[-9.157664,52.019333],[-9.157737,52.019277],[-9.157791,52.019188],[-9.157793,52.019168],[-9.1578,52.019108],[-9.157786,52.018974],[-9.157783,52.01896],[-9.157768,52.01889],[-9.15781,52.018826],[-9.157822,52.018808],[-9.157841,52.018708],[-9.157894,52.018544],[-9.15789,52.018493],[-9.157883,52.018481],[-9.157876,52.018468],[-9.157842,52.018429],[-9.157846,52.018395],[-9.157874,52.018166],[-9.157907,52.018044],[-9.15797,52.017998],[-9.157971,52.017998],[-9.157971,52.017997],[-9.157974,52.017991],[-9.157973,52.017977],[-9.15798,52.01791],[-9.157956,52.017847],[-9.157882,52.017838],[-9.157868,52.017837],[-9.157836,52.01778],[-9.157815,52.017703],[-9.157796,52.01765],[-9.15779,52.017636],[-9.157774,52.017592],[-9.157766,52.017489],[-9.157789,52.017413],[-9.157792,52.017403],[-9.157737,52.017294],[-9.157687,52.017254],[-9.156063,52.01727],[-9.156056,52.017],[-9.156998,52.016991],[-9.156649,52.016356],[-9.156664,52.016324],[-9.156748,52.016238],[-9.156785,52.016202],[-9.156832,52.016218],[-9.156843,52.01621],[-9.156873,52.016168],[-9.15688,52.01613],[-9.156863,52.016092],[-9.156801,52.016042],[-9.156692,52.016038],[-9.156633,52.015898],[-9.156708,52.015866],[-9.156758,52.015797],[-9.15673,52.015755],[-9.156553,52.01572],[-9.156399,52.015536],[-9.156288,52.015385],[-9.156191,52.015271],[-9.157199,52.015596],[-9.158123,52.015939],[-9.158506,52.015753],[-9.158553,52.015229],[-9.158849,52.014875],[-9.158852,52.014816],[-9.15875,52.014078],[-9.158587,52.013359],[-9.158558,52.013122],[-9.158543,52.012881],[-9.158525,52.012763],[-9.15851,52.012684],[-9.158499,52.012626],[-9.158403,52.012095],[-9.158415,52.011849],[-9.15838,52.01135],[-9.158324,52.010822],[-9.158325,52.010561],[-9.158307,52.009932],[-9.158315,52.009386],[-9.158305,52.008999],[-9.158347,52.008546],[-9.158361,52.008217],[-9.158379,52.008132],[-9.158362,52.008123],[-9.158365,52.008087],[-9.158395,52.008009],[-9.158418,52.007946],[-9.158466,52.007919]],[[-9.15564,52.007383],[-9.157096,52.007369],[-9.157119,52.008267],[-9.155663,52.008282],[-9.15564,52.007383]],[[-9.154073,52.007851],[-9.15408,52.00812],[-9.154093,52.00866],[-9.153657,52.008664],[-9.153643,52.008125],[-9.153206,52.008129],[-9.153199,52.007859],[-9.154073,52.007851]],[[-9.156798,52.011869],[-9.156805,52.012139],[-9.156368,52.012143],[-9.156361,52.011874],[-9.156798,52.011869]],[[-9.155931,52.012147],[-9.156368,52.012143],[-9.156375,52.012413],[-9.155938,52.012417],[-9.155931,52.012147]],[[-9.156812,52.012408],[-9.156805,52.012139],[-9.157242,52.012135],[-9.157249,52.012404],[-9.156812,52.012408]],[[-9.155078,52.012965],[-9.155085,52.013234],[-9.154648,52.013239],[-9.154641,52.012969],[-9.155078,52.012965]],[[-9.155106,52.014043],[-9.155113,52.014313],[-9.154676,52.014317],[-9.154669,52.014048],[-9.155106,52.014043]],[[-9.156022,52.015652],[-9.155585,52.015657],[-9.155578,52.015387],[-9.156015,52.015383],[-9.156022,52.015652]],[[-9.150168,52.008968],[-9.150189,52.009776],[-9.148878,52.009789],[-9.148858,52.00898],[-9.148421,52.008985],[-9.148414,52.008715],[-9.14754,52.008724],[-9.147533,52.008454],[-9.146659,52.008463],[-9.146652,52.008193],[-9.146216,52.008197],[-9.146209,52.007928],[-9.146202,52.007658],[-9.146195,52.007388],[-9.145321,52.007397],[-9.145314,52.007127],[-9.144877,52.007131],[-9.144871,52.006862],[-9.143997,52.00687],[-9.14399,52.006601],[-9.142679,52.006613],[-9.142672,52.006344],[-9.140488,52.006365],[-9.140481,52.006095],[-9.139607,52.006104],[-9.139601,52.005834],[-9.142222,52.005809],[-9.142229,52.006078],[-9.14485,52.006053],[-9.144857,52.006323],[-9.14573,52.006314],[-9.145737,52.006584],[-9.146174,52.006579],[-9.146181,52.006849],[-9.146188,52.007119],[-9.146625,52.007114],[-9.146632,52.007384],[-9.147069,52.00738],[-9.147076,52.007649],[-9.147512,52.007645],[-9.147519,52.007915],[-9.148393,52.007906],[-9.1484,52.008176],[-9.149274,52.008167],[-9.149281,52.008437],[-9.149718,52.008433],[-9.149725,52.008702],[-9.150161,52.008698],[-9.150168,52.008968]],[[-9.150196,52.010046],[-9.150189,52.009776],[-9.150626,52.009772],[-9.150633,52.010042],[-9.151507,52.010033],[-9.151514,52.010303],[-9.152387,52.010294],[-9.152394,52.010564],[-9.152831,52.01056],[-9.152838,52.010829],[-9.151964,52.010838],[-9.151957,52.010568],[-9.151084,52.010577],[-9.151077,52.010307],[-9.150203,52.010316],[-9.150196,52.010046]]]]}}]}
