{"type":"FeatureCollection","features":[{"type":"Feature","properties":{"source_fid":323470,"county":"Sligo","bog_geom_ha":244.44651864015256,"low15_pct":100.0,"low15_ha":244.44651864015256,"overlay_ha":244.44651864015256,"area_delta":0.0},"geometry":{"type":"MultiPolygon","coordinates":[[[[-8.987559,54.150365],[-8.987652,54.150051],[-8.987767,54.149662],[-8.987582,54.149663],[-8.987421,54.149663],[-8.986668,54.149659],[-8.986059,54.149656],[-8.985099,54.149644],[-8.98499,54.149641],[-8.984946,54.14964],[-8.983648,54.149609],[-8.982231,54.149505],[-8.981482,54.149451],[-8.98072,54.149395],[-8.980533,54.149381],[-8.980209,54.149471],[-8.980064,54.14946],[-8.979878,54.149447],[-8.979399,54.149417],[-8.979268,54.149409],[-8.978748,54.14937],[-8.978618,54.14936],[-8.978129,54.149322],[-8.977999,54.149311],[-8.97767,54.149286],[-8.977522,54.149275],[-8.977102,54.149242],[-8.976964,54.149231],[-8.976567,54.149199],[-8.976293,54.149177],[-8.975886,54.149143],[-8.975747,54.149132],[-8.975283,54.149098],[-8.975077,54.149083],[-8.974539,54.14905],[-8.974046,54.149014],[-8.973743,54.148984],[-8.973458,54.148957],[-8.972893,54.148902],[-8.972233,54.148854],[-8.972137,54.148847],[-8.971728,54.148811],[-8.971362,54.148782],[-8.971074,54.148758],[-8.970565,54.148723],[-8.970415,54.148713],[-8.969712,54.148659],[-8.968947,54.148609],[-8.968673,54.148592],[-8.967817,54.148546],[-8.967295,54.148516],[-8.966817,54.148486],[-8.966539,54.148468],[-8.966048,54.148438],[-8.96586,54.148427],[-8.965277,54.148389],[-8.96499,54.148371],[-8.964604,54.148334],[-8.964381,54.148301],[-8.964327,54.148284],[-8.964062,54.14819],[-8.963911,54.148136],[-8.963334,54.147941],[-8.962832,54.147765],[-8.962241,54.147565],[-8.961688,54.147374],[-8.961339,54.147249],[-8.961165,54.147189],[-8.961128,54.147174],[-8.961007,54.147149],[-8.960868,54.147112],[-8.960804,54.147087],[-8.960787,54.147081],[-8.9608,54.147165],[-8.960829,54.147189],[-8.960849,54.147212],[-8.960866,54.147241],[-8.960871,54.147281],[-8.960856,54.147319],[-8.96084,54.147338],[-8.960841,54.147362],[-8.960923,54.147435],[-8.960932,54.147461],[-8.960941,54.147509],[-8.960962,54.147542],[-8.960947,54.147563],[-8.960923,54.147585],[-8.960895,54.147609],[-8.960887,54.147626],[-8.96084,54.147659],[-8.960812,54.147683],[-8.960792,54.147707],[-8.960788,54.147719],[-8.960791,54.14785],[-8.960817,54.147892],[-8.960842,54.147928],[-8.96085,54.147952],[-8.960863,54.14798],[-8.960852,54.148004],[-8.960836,54.148023],[-8.960816,54.148045],[-8.960776,54.148071],[-8.960732,54.14809],[-8.960672,54.148105],[-8.960652,54.148129],[-8.960641,54.148182],[-8.96061,54.148244],[-8.960591,54.148306],[-8.96056,54.148346],[-8.96054,54.148375],[-8.9605,54.148406],[-8.960452,54.148416],[-8.960371,54.148424],[-8.960286,54.148436],[-8.96021,54.148454],[-8.960134,54.148483],[-8.960069,54.148509],[-8.960042,54.148538],[-8.960018,54.148567],[-8.960011,54.148591],[-8.959995,54.148596],[-8.959958,54.148594],[-8.959926,54.148601],[-8.959918,54.148622],[-8.959912,54.148653],[-8.959911,54.148658],[-8.959918,54.148717],[-8.959918,54.148748],[-8.959886,54.14876],[-8.959854,54.148777],[-8.959826,54.148794],[-8.959823,54.148808],[-8.959799,54.148834],[-8.959792,54.148872],[-8.959793,54.148913],[-8.959793,54.148951],[-8.959798,54.148972],[-8.959831,54.149001],[-8.95986,54.149029],[-8.959873,54.149045],[-8.959869,54.149072],[-8.959849,54.149088],[-8.959801,54.149093],[-8.95976,54.149094],[-8.95972,54.149101],[-8.959652,54.14914],[-8.959612,54.149159],[-8.959596,54.149178],[-8.959576,54.149195],[-8.959568,54.149205],[-8.959569,54.149217],[-8.959577,54.149231],[-8.959586,54.149247],[-8.95959,54.149264],[-8.95959,54.149276],[-8.959586,54.149285],[-8.959563,54.149302],[-8.959518,54.149319],[-8.95947,54.149339],[-8.959455,54.149367],[-8.959427,54.149396],[-8.959366,54.149397],[-8.959322,54.149404],[-8.959282,54.149428],[-8.959259,54.149466],[-8.959239,54.149486],[-8.959195,54.149514],[-8.959155,54.149538],[-8.959156,54.149567],[-8.959112,54.149613],[-8.959056,54.149625],[-8.959028,54.149642],[-8.958976,54.149678],[-8.958953,54.149718],[-8.958905,54.149759],[-8.958882,54.149802],[-8.958862,54.149845],[-8.958864,54.149924],[-8.958861,54.149985],[-8.958782,54.150053],[-8.958774,54.150074],[-8.958775,54.150107],[-8.958778,54.150191],[-8.958784,54.150213],[-8.958785,54.150232],[-8.95881,54.150253],[-8.9589,54.150328],[-8.958934,54.150359],[-8.95893,54.150392],[-8.958926,54.150566],[-8.958859,54.150649],[-8.95882,54.150707],[-8.958793,54.150771],[-8.958786,54.15079],[-8.958806,54.150802],[-8.958839,54.150823],[-8.958852,54.150854],[-8.958844,54.150873],[-8.95882,54.15089],[-8.958748,54.150895],[-8.958703,54.150912],[-8.958603,54.150942],[-8.95853,54.150942],[-8.958522,54.150959],[-8.958499,54.151011],[-8.958452,54.151057],[-8.95842,54.151081],[-8.958388,54.151103],[-8.958369,54.151146],[-8.958349,54.151181],[-8.958358,54.151205],[-8.95837,54.151226],[-8.958379,54.151241],[-8.958379,54.15126],[-8.958372,54.151288],[-8.95832,54.151329],[-8.958221,54.151404],[-8.958144,54.151409],[-8.958099,54.151424],[-8.958064,54.151457],[-8.958048,54.151479],[-8.957959,54.151489],[-8.957915,54.151508],[-8.95788,54.151551],[-8.957856,54.151592],[-8.957821,54.151633],[-8.957822,54.151697],[-8.957782,54.151726],[-8.957594,54.15182],[-8.957534,54.151856],[-8.95754,54.151908],[-8.957561,54.151963],[-8.957562,54.152022],[-8.95759,54.152054],[-8.957606,54.152056],[-8.957647,54.152068],[-8.957663,54.152089],[-8.957664,54.152132],[-8.957677,54.152155],[-8.957706,54.152193],[-8.957711,54.152217],[-8.957711,54.152245],[-8.957684,54.152274],[-8.957656,54.152308],[-8.957641,54.152351],[-8.957602,54.15242],[-8.957563,54.152491],[-8.957516,54.152537],[-8.957476,54.15258],[-8.957436,54.152592],[-8.9574,54.152609],[-8.957392,54.152638],[-8.957405,54.152664],[-8.957418,54.152697],[-8.957411,54.152723],[-8.957399,54.152728],[-8.957379,54.152762],[-8.957355,54.152778],[-8.957348,54.1528],[-8.957372,54.152823],[-8.957381,54.152847],[-8.957378,54.152876],[-8.957383,54.152914],[-8.957367,54.15294],[-8.957302,54.152952],[-8.957254,54.152972],[-8.95717,54.153013],[-8.957034,54.153081],[-8.957006,54.153107],[-8.956987,54.153128],[-8.956991,54.15315],[-8.957028,54.153176],[-8.957057,54.153197],[-8.957061,54.153216],[-8.957054,54.15324],[-8.95703,54.153268],[-8.957007,54.153295],[-8.956999,54.153321],[-8.957,54.153357],[-8.957013,54.153383],[-8.957149,54.1535],[-8.957174,54.153534],[-8.957187,54.153555],[-8.9572,54.153614],[-8.95723,54.153654],[-8.957245,54.15371],[-8.957247,54.153718],[-8.957271,54.153808],[-8.957292,54.154007],[-8.957192,54.15406],[-8.957193,54.154094],[-8.957263,54.154145],[-8.957247,54.15431],[-8.957219,54.154341],[-8.95722,54.154367],[-8.957236,54.154395],[-8.957273,54.154419],[-8.957343,54.154454],[-8.957422,54.15452],[-8.957443,54.154572],[-8.9575,54.154598],[-8.957578,54.154626],[-8.957635,54.154635],[-8.957719,54.154598],[-8.957821,54.154619],[-8.957952,54.154703],[-8.957969,54.154741],[-8.95797,54.154775],[-8.957914,54.154811],[-8.957916,54.154868],[-8.95792,54.154896],[-8.957877,54.154937],[-8.957793,54.154988],[-8.957789,54.155014],[-8.95781,54.15503],[-8.957803,54.155073],[-8.957791,54.15509],[-8.957771,54.155109],[-8.957727,54.155131],[-8.957721,54.15519],[-8.957681,54.155214],[-8.957661,54.155231],[-8.95765,54.155298],[-8.957675,54.155317],[-8.957712,54.155338],[-8.957757,54.155349],[-8.957822,54.155373],[-8.957859,54.155399],[-8.957932,54.15541],[-8.957982,54.155457],[-8.957999,54.155478],[-8.957955,54.155514],[-8.957952,54.155564],[-8.957949,54.155593],[-8.957965,54.155607],[-8.958065,54.155646],[-8.958985,54.156537],[-8.962317,54.154974],[-8.962366,54.154989],[-8.962545,54.155027],[-8.963043,54.155122],[-8.963437,54.1552],[-8.963682,54.155247],[-8.963329,54.157235],[-8.963129,54.157223],[-8.962549,54.159126],[-8.962542,54.159164],[-8.96253,54.15924],[-8.962513,54.159341],[-8.962512,54.159342],[-8.962462,54.159393],[-8.960297,54.161617],[-8.961358,54.161929],[-8.963927,54.160934],[-8.966288,54.162282],[-8.965362,54.163662],[-8.965492,54.163712],[-8.965622,54.163735],[-8.965677,54.163741],[-8.965988,54.1637],[-8.966084,54.163663],[-8.966154,54.163655],[-8.966277,54.163699],[-8.96634,54.163714],[-8.966691,54.163689],[-8.966862,54.163646],[-8.966936,54.163658],[-8.967009,54.163729],[-8.967201,54.163839],[-8.967534,54.163942],[-8.967617,54.163982],[-8.967614,54.164003],[-8.967575,54.164015],[-8.967553,54.164034],[-8.967637,54.164085],[-8.968093,54.164275],[-8.968342,54.164347],[-8.969341,54.164493],[-8.969409,54.164524],[-8.969821,54.164769],[-8.970005,54.164881],[-8.970105,54.164859],[-8.970232,54.164908],[-8.970519,54.164932],[-8.970558,54.164943],[-8.970701,54.164991],[-8.970733,54.164997],[-8.970715,54.164957],[-8.970657,54.164673],[-8.970673,54.164461],[-8.970686,54.164287],[-8.970691,54.164256],[-8.970695,54.164236],[-8.9707,54.164208],[-8.970705,54.164181],[-8.970716,54.163942],[-8.970753,54.163886],[-8.970872,54.163733],[-8.970871,54.163699],[-8.970854,54.163667],[-8.970886,54.163586],[-8.970887,54.16352],[-8.970807,54.163365],[-8.970646,54.163247],[-8.97053,54.163157],[-8.970389,54.163062],[-8.97036,54.163026],[-8.970298,54.162708],[-8.970266,54.162609],[-8.970195,54.16247],[-8.970162,54.162443],[-8.970119,54.162428],[-8.970064,54.162424],[-8.970037,54.162429],[-8.969997,54.162411],[-8.969953,54.162382],[-8.969882,54.162357],[-8.969665,54.162305],[-8.969629,54.162283],[-8.96961,54.162207],[-8.969646,54.16211],[-8.969653,54.162087],[-8.969534,54.161786],[-8.969916,54.161698],[-8.970372,54.161605],[-8.970565,54.161569],[-8.970723,54.16154],[-8.970907,54.1615],[-8.971124,54.161463],[-8.971261,54.161438],[-8.971325,54.161422],[-8.971437,54.161394],[-8.971556,54.161359],[-8.971632,54.161342],[-8.971675,54.161333],[-8.971797,54.161307],[-8.971955,54.161274],[-8.972074,54.161249],[-8.972189,54.16123],[-8.97234,54.161206],[-8.972527,54.161167],[-8.972664,54.161144],[-8.972746,54.161134],[-8.972822,54.161127],[-8.972887,54.161118],[-8.973077,54.161102],[-8.973152,54.161095],[-8.973317,54.161082],[-8.973504,54.161068],[-8.973615,54.16106],[-8.973862,54.161036],[-8.97426,54.161008],[-8.974299,54.161005],[-8.97466,54.16098],[-8.97478,54.16097],[-8.974929,54.160957],[-8.975326,54.160924],[-8.975569,54.160904],[-8.975705,54.160892],[-8.975806,54.160883],[-8.976179,54.160849],[-8.976183,54.160849],[-8.976494,54.160823],[-8.976788,54.160799],[-8.976872,54.160794],[-8.977252,54.160772],[-8.977359,54.160764],[-8.977806,54.160728],[-8.977851,54.160724],[-8.978008,54.160709],[-8.978187,54.160692],[-8.978434,54.160668],[-8.978573,54.16065],[-8.978668,54.160639],[-8.978903,54.160609],[-8.978975,54.160604],[-8.979182,54.160589],[-8.979277,54.160582],[-8.979345,54.160576],[-8.979772,54.160541],[-8.979905,54.16053],[-8.980115,54.160512],[-8.980322,54.160495],[-8.980469,54.160483],[-8.980687,54.160361],[-8.980754,54.160355],[-8.980917,54.16034],[-8.980944,54.160337],[-8.981103,54.160331],[-8.981261,54.160415],[-8.98147,54.160424],[-8.981476,54.160424],[-8.981575,54.160424],[-8.981763,54.160424],[-8.982134,54.160433],[-8.982138,54.160433],[-8.982461,54.160445],[-8.98268,54.160459],[-8.982769,54.160474],[-8.982907,54.160508],[-8.983102,54.160565],[-8.983218,54.160598],[-8.983734,54.160738],[-8.984181,54.160859],[-8.984486,54.15869],[-8.984501,54.158692],[-8.98472,54.158712],[-8.984907,54.158731],[-8.985058,54.158766],[-8.985143,54.158807],[-8.985192,54.158813],[-8.985246,54.15882],[-8.985791,54.158864],[-8.98783,54.159081],[-8.987781,54.158976],[-8.987719,54.158891],[-8.987575,54.158696],[-8.987435,54.158518],[-8.987325,54.158378],[-8.987148,54.157966],[-8.987137,54.15794],[-8.986946,54.157525],[-8.986958,54.157366],[-8.986981,54.157072],[-8.986992,54.156909],[-8.98702,54.15645],[-8.987032,54.156254],[-8.986988,54.15579],[-8.986766,54.154707],[-8.986554,54.15469],[-8.986602,54.154451],[-8.986668,54.154115],[-8.986686,54.154027],[-8.986752,54.153704],[-8.986895,54.153003],[-8.987295,54.151261],[-8.9873,54.151244],[-8.987389,54.150943],[-8.987481,54.150633],[-8.987559,54.150365]]]]}}]}
