{"type":"FeatureCollection","features":[{"type":"Feature","properties":{"source_fid":349457,"county":"Sligo","bog_geom_ha":163.29928422903529,"low15_pct":90.237175951461666,"low15_ha":147.35666243723207,"overlay_ha":147.5531391989675,"area_delta":0.1964767617354255},"geometry":{"type":"MultiPolygon","coordinates":[[[[-8.466043,54.373771],[-8.465959,54.373711],[-8.465836,54.373608],[-8.465808,54.373584],[-8.465754,54.373604],[-8.465731,54.373563],[-8.465665,54.373514],[-8.46559,54.373478],[-8.465501,54.373446],[-8.465461,54.373434],[-8.465405,54.373417],[-8.465301,54.373358],[-8.46523,54.373305],[-8.465202,54.373244],[-8.465206,54.373188],[-8.465201,54.373117],[-8.465154,54.373087],[-8.465027,54.373029],[-8.464959,54.372979],[-8.464892,54.372935],[-8.464925,54.372913],[-8.464927,54.372892],[-8.464947,54.372843],[-8.464943,54.372817],[-8.464476,54.372819],[-8.464479,54.373088],[-8.464017,54.37309],[-8.46402,54.37336],[-8.463558,54.373361],[-8.463561,54.373631],[-8.462176,54.373636],[-8.462179,54.373906],[-8.461256,54.373909],[-8.461259,54.374179],[-8.460335,54.374182],[-8.460338,54.374452],[-8.459877,54.374454],[-8.45988,54.374723],[-8.459418,54.374725],[-8.459421,54.374995],[-8.458959,54.374996],[-8.458962,54.375266],[-8.458566,54.375267],[-8.458591,54.375306],[-8.458652,54.37536],[-8.458764,54.375407],[-8.458891,54.375427],[-8.458995,54.375441],[-8.459147,54.375428],[-8.459228,54.375417],[-8.459324,54.37541],[-8.459387,54.375441],[-8.459403,54.375478],[-8.459391,54.375533],[-8.459384,54.375596],[-8.459397,54.375641],[-8.459427,54.375692],[-8.459494,54.37573],[-8.459549,54.375749],[-8.459596,54.37576],[-8.459684,54.375769],[-8.459771,54.375787],[-8.459827,54.375822],[-8.459901,54.375847],[-8.459988,54.375854],[-8.46007,54.375845],[-8.460165,54.375826],[-8.460277,54.375807],[-8.460332,54.375817],[-8.460416,54.375863],[-8.460503,54.375886],[-8.460596,54.375905],[-8.460681,54.375919],[-8.460776,54.37593],[-8.460857,54.375948],[-8.46094,54.37598],[-8.460976,54.376021],[-8.461021,54.376053],[-8.461091,54.376075],[-8.461218,54.376085],[-8.461341,54.376093],[-8.461507,54.376123],[-8.461573,54.376165],[-8.461615,54.376206],[-8.461625,54.376283],[-8.461745,54.37633],[-8.461764,54.376338],[-8.46188,54.376371],[-8.461952,54.37634],[-8.462087,54.376336],[-8.462204,54.376357],[-8.462394,54.376407],[-8.462418,54.376412],[-8.462526,54.376419],[-8.462526,54.376419],[-8.462526,54.376419],[-8.462545,54.37642],[-8.462633,54.376416],[-8.46269,54.376413],[-8.462697,54.376412],[-8.462707,54.37641],[-8.462707,54.37641],[-8.462751,54.376402],[-8.462777,54.376372],[-8.462865,54.376288],[-8.46298,54.376224],[-8.463125,54.376165],[-8.463241,54.37608],[-8.463282,54.376071],[-8.4634,54.376063],[-8.46349,54.376065],[-8.46358,54.37609],[-8.463648,54.376127],[-8.463692,54.376163],[-8.463714,54.376201],[-8.463745,54.376331],[-8.46374,54.376367],[-8.463734,54.376448],[-8.463766,54.376505],[-8.463866,54.376513],[-8.463954,54.376532],[-8.46414,54.376502],[-8.464184,54.376495],[-8.464216,54.376503],[-8.464261,54.376517],[-8.464322,54.376582],[-8.464373,54.376613],[-8.464536,54.376623],[-8.464595,54.376615],[-8.464716,54.376653],[-8.464769,54.376685],[-8.464803,54.376738],[-8.464785,54.37683],[-8.464785,54.376885],[-8.464822,54.376925],[-8.464902,54.376943],[-8.465024,54.376938],[-8.46515,54.376927],[-8.46517,54.376937],[-8.46521,54.376981],[-8.465218,54.377037],[-8.465193,54.377064],[-8.465182,54.377075],[-8.46525,54.377263],[-8.465298,54.377294],[-8.465494,54.37739],[-8.465798,54.377552],[-8.46588,54.377594],[-8.466146,54.377655],[-8.466188,54.377703],[-8.46615,54.377807],[-8.466179,54.37786],[-8.466266,54.377892],[-8.466328,54.377896],[-8.466509,54.377855],[-8.466553,54.377852],[-8.466677,54.377897],[-8.466752,54.377947],[-8.466759,54.377954],[-8.46676,54.377956],[-8.472118,54.377935],[-8.472111,54.377924],[-8.472027,54.377857],[-8.471966,54.377809],[-8.471861,54.377664],[-8.471876,54.377612],[-8.471966,54.377537],[-8.471948,54.377473],[-8.471926,54.377418],[-8.471903,54.377386],[-8.471823,54.37735],[-8.471741,54.377321],[-8.471566,54.37729],[-8.471477,54.377253],[-8.471422,54.377205],[-8.47144,54.377072],[-8.471432,54.377023],[-8.471394,54.376978],[-8.47129,54.376958],[-8.471239,54.376966],[-8.471057,54.377004],[-8.471017,54.377013],[-8.470734,54.377025],[-8.470741,54.376914],[-8.470706,54.376874],[-8.470639,54.376839],[-8.470396,54.376757],[-8.470371,54.376698],[-8.4704,54.376648],[-8.470383,54.376634],[-8.470352,54.376607],[-8.470339,54.376549],[-8.470305,54.376529],[-8.470096,54.376486],[-8.470028,54.376454],[-8.469953,54.376419],[-8.4699,54.376379],[-8.469844,54.376274],[-8.469761,54.376231],[-8.469588,54.3762],[-8.469485,54.376201],[-8.469247,54.376262],[-8.469219,54.376265],[-8.46915,54.376273],[-8.469088,54.376255],[-8.468946,54.376173],[-8.468901,54.376125],[-8.46886,54.376015],[-8.468806,54.375968],[-8.46871,54.375965],[-8.468629,54.375995],[-8.468575,54.376015],[-8.468496,54.376023],[-8.468384,54.376018],[-8.468099,54.375981],[-8.467933,54.375947],[-8.467845,54.375911],[-8.467794,54.375866],[-8.467742,54.37576],[-8.467731,54.375649],[-8.467762,54.375486],[-8.467726,54.375422],[-8.467658,54.375354],[-8.467566,54.375313],[-8.467483,54.375258],[-8.467403,54.375207],[-8.467309,54.375133],[-8.467156,54.375048],[-8.467089,54.374998],[-8.467063,54.374933],[-8.46708,54.374813],[-8.467047,54.374735],[-8.466958,54.374674],[-8.466824,54.374603],[-8.466723,54.374578],[-8.466621,54.374554],[-8.466533,54.374497],[-8.466474,54.37441],[-8.466436,54.374316],[-8.466473,54.374265],[-8.466595,54.374212],[-8.466683,54.374171],[-8.466714,54.37411],[-8.46667,54.373994],[-8.466594,54.373914],[-8.466488,54.37386],[-8.466294,54.373816],[-8.466129,54.373783],[-8.466043,54.373771]],[[-8.467282,54.376043],[-8.465897,54.376048],[-8.465894,54.375778],[-8.467279,54.375773],[-8.467282,54.376043]],[[-8.463582,54.375518],[-8.463589,54.376057],[-8.463127,54.376059],[-8.463121,54.37552],[-8.463582,54.375518]]],[[[-8.458445,54.375156],[-8.4585,54.375189],[-8.458498,54.374998],[-8.458211,54.374999],[-8.458296,54.375052],[-8.458445,54.375156]]],[[[-8.457991,54.37492],[-8.458035,54.374943],[-8.458033,54.37473],[-8.457821,54.374731],[-8.457854,54.374811],[-8.457991,54.37492]]],[[[-8.45749,54.374595],[-8.45757,54.374605],[-8.457568,54.374463],[-8.457565,54.374193],[-8.457333,54.374194],[-8.457362,54.374248],[-8.457367,54.374312],[-8.457321,54.374376],[-8.457224,54.37443],[-8.457256,54.374485],[-8.45735,54.374537],[-8.45749,54.374595]]],[[[-8.45703,54.37412],[-8.457102,54.374106],[-8.4571,54.373925],[-8.456639,54.373927],[-8.456641,54.374151],[-8.456705,54.374156],[-8.456875,54.37415],[-8.45703,54.37412]]],[[[-8.455568,54.373625],[-8.455612,54.373661],[-8.455712,54.373661],[-8.455709,54.373391],[-8.456633,54.373388],[-8.456636,54.373657],[-8.457559,54.373654],[-8.457562,54.373923],[-8.457565,54.374193],[-8.458489,54.374189],[-8.458486,54.37392],[-8.458483,54.37365],[-8.458944,54.373649],[-8.458941,54.373379],[-8.458938,54.373109],[-8.460323,54.373104],[-8.46032,54.372835],[-8.462167,54.372828],[-8.462164,54.372558],[-8.462158,54.372019],[-8.46262,54.372017],[-8.462617,54.371748],[-8.462155,54.371749],[-8.462152,54.37148],[-8.463075,54.371476],[-8.463072,54.371207],[-8.463534,54.371205],[-8.463531,54.370935],[-8.464454,54.370932],[-8.464457,54.371201],[-8.464823,54.3712],[-8.464799,54.37111],[-8.464774,54.371038],[-8.464736,54.371002],[-8.464623,54.370957],[-8.464561,54.370928],[-8.464496,54.370877],[-8.464463,54.370839],[-8.464461,54.370787],[-8.464483,54.370744],[-8.464467,54.370709],[-8.464404,54.370632],[-8.464347,54.370543],[-8.464296,54.370472],[-8.464214,54.370408],[-8.464148,54.37036],[-8.464027,54.370332],[-8.463909,54.370316],[-8.463816,54.370294],[-8.46373,54.370258],[-8.463729,54.370257],[-8.463722,54.370254],[-8.463691,54.370213],[-8.463683,54.370164],[-8.463696,54.370136],[-8.463696,54.370136],[-8.463701,54.370124],[-8.463778,54.370071],[-8.463811,54.370032],[-8.463802,54.369998],[-8.463751,54.369936],[-8.463725,54.36987],[-8.463671,54.369793],[-8.463606,54.36973],[-8.46352,54.369681],[-8.463426,54.369623],[-8.463387,54.369586],[-8.463345,54.369538],[-8.46328,54.369489],[-8.463244,54.369425],[-8.463226,54.369364],[-8.463184,54.369319],[-8.463083,54.36928],[-8.463008,54.369241],[-8.462969,54.369197],[-8.462916,54.369157],[-8.46286,54.369148],[-8.462763,54.369142],[-8.462681,54.369109],[-8.462671,54.369099],[-8.46267,54.369098],[-8.462645,54.369074],[-8.462623,54.369014],[-8.462652,54.36895],[-8.462671,54.368892],[-8.462688,54.368887],[-8.462682,54.368873],[-8.462674,54.36886],[-8.462669,54.36885],[-8.462602,54.36877],[-8.462606,54.368719],[-8.462592,54.368672],[-8.462531,54.368635],[-8.462451,54.368576],[-8.462433,54.368549],[-8.46235,54.368462],[-8.462304,54.36842],[-8.462304,54.36842],[-8.462265,54.368387],[-8.462155,54.368324],[-8.462101,54.368306],[-8.462003,54.368286],[-8.46191,54.368284],[-8.461825,54.368282],[-8.461762,54.368258],[-8.461727,54.368217],[-8.461652,54.3681],[-8.461636,54.368074],[-8.461548,54.367968],[-8.461465,54.367889],[-8.46131,54.367771],[-8.461181,54.367718],[-8.461102,54.367702],[-8.461059,54.367703],[-8.460988,54.367708],[-8.46093,54.36769],[-8.46084,54.367654],[-8.460783,54.367554],[-8.460735,54.367495],[-8.460719,54.367454],[-8.46073,54.367395],[-8.460705,54.367338],[-8.460626,54.36728],[-8.460465,54.367215],[-8.460391,54.367151],[-8.46034,54.367031],[-8.460305,54.367006],[-8.460223,54.366998],[-8.460187,54.366984],[-8.460183,54.366939],[-8.460217,54.366897],[-8.460216,54.366863],[-8.460181,54.366827],[-8.460145,54.366811],[-8.460086,54.366764],[-8.460042,54.366714],[-8.460123,54.366663],[-8.460122,54.366622],[-8.460098,54.366588],[-8.460066,54.366548],[-8.460051,54.366489],[-8.460014,54.366477],[-8.459951,54.366451],[-8.45992,54.36643],[-8.459942,54.366382],[-8.459945,54.366348],[-8.45991,54.366314],[-8.459901,54.36626],[-8.459853,54.366198],[-8.459793,54.366144],[-8.45982,54.366092],[-8.459864,54.365973],[-8.459856,54.365946],[-8.459781,54.365887],[-8.459698,54.365862],[-8.45962,54.365856],[-8.459565,54.365831],[-8.459564,54.365795],[-8.45959,54.365724],[-8.459615,54.365652],[-8.459673,54.36563],[-8.460771,54.365266],[-8.461212,54.365125],[-8.461617,54.364964],[-8.462262,54.364706],[-8.462536,54.364611],[-8.462535,54.364497],[-8.462345,54.364498],[-8.462341,54.364201],[-8.46207,54.364202],[-8.462067,54.363932],[-8.462064,54.363663],[-8.461603,54.363665],[-8.461602,54.363602],[-8.460796,54.363605],[-8.460788,54.362859],[-8.46067,54.362859],[-8.460667,54.36259],[-8.460664,54.36232],[-8.460203,54.362322],[-8.460197,54.361811],[-8.459238,54.361814],[-8.459232,54.361248],[-8.458806,54.361249],[-8.458803,54.36098],[-8.458341,54.360981],[-8.458341,54.360919],[-8.456152,54.360928],[-8.456162,54.361826],[-8.454623,54.361832],[-8.453085,54.361838],[-8.453095,54.362736],[-8.451582,54.362742],[-8.451576,54.362753],[-8.451532,54.362826],[-8.451457,54.362866],[-8.451526,54.362881],[-8.451641,54.362932],[-8.451698,54.362965],[-8.451623,54.363111],[-8.451623,54.363142],[-8.451683,54.363184],[-8.451776,54.363235],[-8.451817,54.363281],[-8.451827,54.363369],[-8.451825,54.363462],[-8.451839,54.363485],[-8.451934,54.363508],[-8.452073,54.363521],[-8.452148,54.363549],[-8.452163,54.3636],[-8.452176,54.363708],[-8.452187,54.363727],[-8.452299,54.363748],[-8.452379,54.363783],[-8.45239,54.363823],[-8.452366,54.363858],[-8.452304,54.363893],[-8.452256,54.363926],[-8.452184,54.363986],[-8.452171,54.364028],[-8.452186,54.364078],[-8.452117,54.364099],[-8.452103,54.364115],[-8.452114,54.364159],[-8.452135,54.364197],[-8.452125,54.364237],[-8.452016,54.364288],[-8.451923,54.364389],[-8.451865,54.364436],[-8.451797,54.364463],[-8.451748,54.364541],[-8.45172,54.364579],[-8.451689,54.364606],[-8.451695,54.364628],[-8.451732,54.364653],[-8.451775,54.364669],[-8.451776,54.364704],[-8.451695,54.364774],[-8.451625,54.364833],[-8.451497,54.364857],[-8.451458,54.364874],[-8.451533,54.364884],[-8.451613,54.36493],[-8.451644,54.36498],[-8.451649,54.365047],[-8.451599,54.365103],[-8.451585,54.365198],[-8.451538,54.36526],[-8.451492,54.365322],[-8.451436,54.365384],[-8.451434,54.365417],[-8.451465,54.365473],[-8.451471,54.365506],[-8.451408,54.365541],[-8.451406,54.365588],[-8.45145,54.365629],[-8.451482,54.365639],[-8.451478,54.365667],[-8.451454,54.36571],[-8.451417,54.365804],[-8.451378,54.365843],[-8.451239,54.365916],[-8.451208,54.365912],[-8.451141,54.365869],[-8.451003,54.365799],[-8.450846,54.365759],[-8.450772,54.365769],[-8.450683,54.365813],[-8.450605,54.365813],[-8.450382,54.365783],[-8.450269,54.3658],[-8.450203,54.365843],[-8.450141,54.365878],[-8.450024,54.365885],[-8.449833,54.365862],[-8.449753,54.365805],[-8.449687,54.365801],[-8.449554,54.365813],[-8.449465,54.365807],[-8.449374,54.365771],[-8.449237,54.365758],[-8.449167,54.365754],[-8.449162,54.365755],[-8.449166,54.366138],[-8.449628,54.366136],[-8.449637,54.366945],[-8.44964,54.367214],[-8.450101,54.367212],[-8.450104,54.367482],[-8.450107,54.367751],[-8.448722,54.367757],[-8.448719,54.367487],[-8.448258,54.367489],[-8.448255,54.367219],[-8.448252,54.36695],[-8.44779,54.366951],[-8.447781,54.366143],[-8.447778,54.36582],[-8.447677,54.365818],[-8.447529,54.365831],[-8.447369,54.365875],[-8.447264,54.365875],[-8.447116,54.365895],[-8.44694,54.365898],[-8.446737,54.365892],[-8.446638,54.36589],[-8.446606,54.365891],[-8.446534,54.365891],[-8.446316,54.365913],[-8.446222,54.365887],[-8.446112,54.365876],[-8.446,54.365927],[-8.44586,54.365975],[-8.445658,54.366029],[-8.445526,54.366073],[-8.445359,54.366131],[-8.445314,54.366206],[-8.445275,54.366234],[-8.445133,54.366333],[-8.445114,54.366369],[-8.445169,54.36641],[-8.445162,54.366431],[-8.445057,54.366499],[-8.444945,54.366566],[-8.444923,54.366607],[-8.444857,54.366644],[-8.444745,54.3667],[-8.444663,54.366716],[-8.444491,54.366694],[-8.444443,54.366705],[-8.444417,54.366711],[-8.444286,54.366782],[-8.444181,54.366856],[-8.444088,54.366865],[-8.443974,54.36685],[-8.443841,54.366824],[-8.443602,54.36678],[-8.443278,54.366759],[-8.443223,54.366759],[-8.443216,54.366764],[-8.443146,54.366792],[-8.443103,54.366792],[-8.443021,54.366776],[-8.44286,54.366761],[-8.442751,54.366776],[-8.442634,54.366772],[-8.442365,54.366774],[-8.442361,54.366769],[-8.442271,54.366765],[-8.442148,54.366703],[-8.441786,54.366704],[-8.441798,54.367782],[-8.441336,54.367784],[-8.441339,54.368053],[-8.440877,54.368055],[-8.440883,54.368594],[-8.440421,54.368596],[-8.440423,54.368718],[-8.440559,54.368784],[-8.440692,54.368882],[-8.440673,54.368918],[-8.440729,54.369004],[-8.440818,54.369049],[-8.440912,54.369087],[-8.440979,54.369139],[-8.440995,54.369145],[-8.441181,54.369215],[-8.441364,54.369278],[-8.441509,54.369332],[-8.441629,54.369368],[-8.441684,54.369384],[-8.441728,54.369465],[-8.441763,54.369505],[-8.441827,54.369578],[-8.441957,54.369613],[-8.442075,54.36962],[-8.44218,54.369638],[-8.442247,54.369685],[-8.442329,54.369767],[-8.442419,54.369805],[-8.442477,54.369818],[-8.442642,54.369904],[-8.442763,54.369997],[-8.44283,54.370083],[-8.442843,54.37014],[-8.442823,54.370166],[-8.442808,54.370185],[-8.442816,54.370237],[-8.442902,54.37028],[-8.443015,54.37032],[-8.443168,54.37044],[-8.443177,54.370494],[-8.443185,54.370576],[-8.443263,54.370618],[-8.443383,54.370625],[-8.443458,54.370624],[-8.443501,54.370704],[-8.443506,54.370709],[-8.443549,54.370763],[-8.4436,54.370801],[-8.443682,54.370903],[-8.443721,54.370921],[-8.443747,54.370909],[-8.443774,54.370886],[-8.44381,54.370886],[-8.443826,54.370907],[-8.443842,54.370948],[-8.443958,54.370967],[-8.444068,54.37101],[-8.444096,54.371044],[-8.444089,54.371108],[-8.44415,54.371141],[-8.444262,54.371123],[-8.444324,54.371102],[-8.444527,54.371147],[-8.444712,54.371197],[-8.444782,54.371207],[-8.444955,54.371227],[-8.445111,54.371269],[-8.445263,54.371335],[-8.445423,54.371425],[-8.445505,54.371477],[-8.44561,54.371529],[-8.445681,54.371576],[-8.445733,54.371609],[-8.445779,54.371655],[-8.445811,54.371716],[-8.445874,54.371807],[-8.445914,54.371852],[-8.445964,54.371883],[-8.446,54.371922],[-8.446077,54.37207],[-8.446147,54.372194],[-8.446226,54.372293],[-8.446371,54.372413],[-8.446449,54.372496],[-8.446571,54.372604],[-8.446653,54.372675],[-8.446669,54.372711],[-8.446628,54.372816],[-8.446489,54.372837],[-8.446448,54.37288],[-8.446489,54.372975],[-8.446456,54.37303],[-8.446398,54.3731],[-8.446399,54.373148],[-8.446429,54.373181],[-8.4464,54.373236],[-8.44641,54.37328],[-8.446493,54.373413],[-8.446589,54.373431],[-8.446632,54.373428],[-8.446659,54.373444],[-8.446725,54.373455],[-8.446764,54.373473],[-8.446753,54.373529],[-8.446749,54.373548],[-8.446754,54.373601],[-8.44682,54.373648],[-8.44691,54.373661],[-8.447007,54.373668],[-8.447038,54.373677],[-8.447019,54.373736],[-8.447063,54.373785],[-8.44718,54.373833],[-8.447363,54.373882],[-8.447473,54.373907],[-8.447549,54.373899],[-8.447612,54.373915],[-8.447709,54.37393],[-8.447802,54.3739],[-8.447848,54.373866],[-8.447948,54.373832],[-8.448181,54.373801],[-8.448297,54.373785],[-8.448414,54.373791],[-8.448497,54.37379],[-8.448508,54.373785],[-8.448724,54.373756],[-8.448822,54.373743],[-8.448955,54.373689],[-8.448989,54.373661],[-8.449042,54.373609],[-8.449095,54.37356],[-8.449143,54.373519],[-8.449216,54.373493],[-8.449338,54.373473],[-8.449451,54.373473],[-8.449561,54.373512],[-8.449598,54.37354],[-8.449678,54.373567],[-8.449746,54.373571],[-8.449819,54.373551],[-8.44986,54.373516],[-8.449919,54.373473],[-8.449994,54.373458],[-8.450126,54.37343],[-8.450241,54.37333],[-8.45033,54.373286],[-8.450442,54.373274],[-8.450601,54.37319],[-8.450705,54.373173],[-8.450826,54.373175],[-8.450934,54.373145],[-8.450984,54.373145],[-8.451082,54.373169],[-8.451141,54.373167],[-8.451252,54.373119],[-8.45139,54.37297],[-8.451398,54.372962],[-8.451455,54.372911],[-8.451493,54.372857],[-8.451505,54.372816],[-8.451535,54.372777],[-8.45157,54.372738],[-8.451646,54.372717],[-8.451757,54.372704],[-8.451876,54.3727],[-8.451914,54.372725],[-8.45196,54.372756],[-8.452127,54.372832],[-8.452209,54.372864],[-8.452281,54.372899],[-8.452332,54.372878],[-8.452387,54.372871],[-8.45253,54.372818],[-8.45267,54.372813],[-8.452767,54.372822],[-8.45288,54.372871],[-8.453032,54.3729],[-8.453211,54.372952],[-8.453328,54.372972],[-8.453529,54.372955],[-8.453693,54.372959],[-8.453887,54.372969],[-8.453961,54.373026],[-8.454035,54.373048],[-8.454253,54.373052],[-8.454385,54.373058],[-8.454502,54.37308],[-8.45458,54.373136],[-8.454647,54.373202],[-8.45474,54.373242],[-8.454768,54.373283],[-8.454834,54.373294],[-8.45492,54.373292],[-8.455009,54.373323],[-8.455088,54.373432],[-8.455105,54.37352],[-8.45514,54.373556],[-8.455261,54.373569],[-8.455315,54.373569],[-8.455416,54.373596],[-8.455506,54.373593],[-8.455568,54.373625]],[[-8.44273,54.368587],[-8.442268,54.368589],[-8.442262,54.36805],[-8.442724,54.368048],[-8.44273,54.368587]]],[[[-8.464681,54.371526],[-8.46468,54.37147],[-8.46446,54.371471],[-8.464463,54.371741],[-8.464466,54.37201],[-8.464846,54.372009],[-8.464839,54.371948],[-8.464806,54.371915],[-8.464703,54.37188],[-8.464684,54.371848],[-8.464683,54.371816],[-8.464683,54.371807],[-8.464682,54.371774],[-8.464674,54.371698],[-8.464643,54.371637],[-8.464681,54.371526]]]]}}]}
