{"type":"FeatureCollection","features":[{"type":"Feature","properties":{"source_fid":353934,"county":"Sligo","bog_geom_ha":203.25637714050291,"low15_pct":99.955673758865245,"low15_ha":203.16628122864984,"overlay_ha":203.16637714050393,"area_delta":0.000095911854089081316},"geometry":{"type":"MultiPolygon","coordinates":[[[[-8.959719,54.180373],[-8.95949,54.179973],[-8.959513,54.180013],[-8.959609,54.18018],[-8.959719,54.180373]]],[[[-8.958219,54.206229],[-8.958218,54.20631],[-8.958239,54.206524],[-8.958267,54.206819],[-8.958272,54.207057],[-8.958276,54.207215],[-8.958272,54.207489],[-8.958263,54.207554],[-8.958243,54.207699],[-8.958252,54.207874],[-8.958257,54.207955],[-8.958687,54.207952],[-8.9587,54.208534],[-8.958751,54.208541],[-8.95895,54.208585],[-8.959099,54.208647],[-8.959239,54.208714],[-8.959252,54.208577],[-8.959259,54.208439],[-8.959319,54.208277],[-8.959344,54.208141],[-8.959353,54.208095],[-8.95935,54.207782],[-8.959888,54.207639],[-8.961108,54.207271],[-8.961121,54.207285],[-8.961194,54.207434],[-8.961216,54.207458],[-8.961245,54.207478],[-8.961209,54.207518],[-8.961245,54.207573],[-8.961276,54.2076],[-8.961275,54.207647],[-8.961286,54.207697],[-8.961316,54.207739],[-8.961334,54.207737],[-8.961357,54.207784],[-8.961378,54.207811],[-8.961427,54.207823],[-8.961458,54.207828],[-8.961506,54.207865],[-8.96154,54.207905],[-8.961561,54.207994],[-8.961622,54.208099],[-8.961713,54.208083],[-8.96204,54.208026],[-8.962169,54.207998],[-8.962372,54.207961],[-8.962889,54.207864],[-8.963059,54.207839],[-8.963106,54.208289],[-8.963144,54.208646],[-8.963175,54.208856],[-8.963193,54.208891],[-8.963269,54.209029],[-8.963313,54.209018],[-8.963339,54.209016],[-8.963418,54.208999],[-8.963552,54.208979],[-8.963682,54.208955],[-8.963806,54.208938],[-8.963905,54.208944],[-8.964052,54.208965],[-8.964227,54.208995],[-8.964657,54.209059],[-8.965103,54.209118],[-8.965168,54.209131],[-8.965211,54.209156],[-8.965269,54.209215],[-8.965278,54.209229],[-8.965329,54.209321],[-8.965419,54.209477],[-8.965482,54.209597],[-8.965515,54.209663],[-8.96556,54.209724],[-8.965187,54.209822],[-8.964499,54.209992],[-8.963899,54.210152],[-8.963649,54.210221],[-8.963588,54.210238],[-8.963537,54.210248],[-8.963625,54.210276],[-8.963803,54.210376],[-8.963856,54.210358],[-8.96456,54.210156],[-8.965175,54.209975],[-8.965523,54.209871],[-8.965637,54.209844],[-8.965655,54.209878],[-8.965816,54.210157],[-8.965981,54.210401],[-8.966103,54.210573],[-8.966042,54.210587],[-8.965579,54.210682],[-8.964681,54.210874],[-8.964635,54.210885],[-8.964744,54.210974],[-8.964772,54.211004],[-8.964723,54.211035],[-8.964648,54.211087],[-8.964609,54.21111],[-8.964532,54.211158],[-8.96418,54.211353],[-8.964174,54.211361],[-8.964152,54.211431],[-8.965275,54.211467],[-8.96534,54.211469],[-8.965632,54.211479],[-8.965825,54.211485],[-8.966703,54.211483],[-8.968726,54.211568],[-8.970618,54.211642],[-8.973165,54.211743],[-8.974713,54.211804],[-8.974834,54.211626],[-8.974848,54.211603],[-8.974999,54.21137],[-8.975228,54.210988],[-8.975246,54.210958],[-8.975444,54.210671],[-8.975495,54.210598],[-8.975555,54.210512],[-8.975614,54.210422],[-8.975645,54.210375],[-8.975451,54.210236],[-8.975265,54.210102],[-8.975165,54.210038],[-8.975047,54.209961],[-8.974922,54.209881],[-8.974843,54.209813],[-8.974718,54.209769],[-8.974448,54.209688],[-8.974117,54.209561],[-8.973107,54.209176],[-8.972657,54.208969],[-8.972621,54.208532],[-8.972604,54.208313],[-8.972579,54.208122],[-8.972527,54.207707],[-8.972499,54.207486],[-8.972492,54.207412],[-8.972458,54.207071],[-8.972432,54.206809],[-8.97243,54.206735],[-8.972424,54.206514],[-8.972419,54.206362],[-8.972416,54.206267],[-8.972361,54.206049],[-8.972084,54.205722],[-8.97199,54.205613],[-8.971869,54.205449],[-8.971656,54.20516],[-8.971651,54.205153],[-8.971599,54.205082],[-8.971408,54.204858],[-8.97118,54.204591],[-8.971177,54.204587],[-8.97094,54.204297],[-8.970824,54.204154],[-8.97078,54.2041],[-8.970758,54.203989],[-8.970756,54.203972],[-8.970704,54.203624],[-8.97068,54.203462],[-8.970662,54.203305],[-8.970648,54.20318],[-8.970612,54.202862],[-8.970596,54.202724],[-8.970564,54.202461],[-8.970524,54.202127],[-8.970485,54.201804],[-8.970479,54.201748],[-8.970443,54.201406],[-8.970407,54.20106],[-8.970377,54.200765],[-8.97037,54.200709],[-8.970326,54.200325],[-8.970284,54.19995],[-8.970269,54.199821],[-8.970246,54.199573],[-8.970218,54.19928],[-8.970191,54.198992],[-8.970177,54.198845],[-8.970158,54.198632],[-8.970119,54.198204],[-8.970089,54.197873],[-8.970088,54.197859],[-8.970056,54.197557],[-8.970018,54.19719],[-8.970007,54.197087],[-8.970006,54.19708],[-8.969978,54.196907],[-8.969934,54.196642],[-8.969895,54.196408],[-8.969851,54.196139],[-8.969838,54.196059],[-8.969777,54.195679],[-8.969749,54.195509],[-8.969688,54.195127],[-8.969587,54.194682],[-8.969438,54.194024],[-8.969162,54.193016],[-8.969157,54.192994],[-8.969113,54.192797],[-8.969101,54.192693],[-8.969044,54.192433],[-8.969392,54.192059],[-8.969668,54.191777],[-8.969734,54.191682],[-8.96977,54.191564],[-8.969888,54.191233],[-8.969904,54.191163],[-8.96987,54.191106],[-8.969741,54.190967],[-8.96957,54.190747],[-8.969527,54.190685],[-8.969098,54.190221],[-8.968515,54.189477],[-8.968494,54.189449],[-8.968473,54.189419],[-8.968468,54.189412],[-8.968455,54.189394],[-8.96842,54.189344],[-8.968281,54.18914],[-8.968039,54.188859],[-8.967832,54.188577],[-8.967595,54.188287],[-8.967535,54.188206],[-8.967392,54.188011],[-8.967295,54.187911],[-8.967222,54.187833],[-8.966903,54.187489],[-8.966726,54.187298],[-8.96664,54.187193],[-8.966397,54.186893],[-8.96637,54.18686],[-8.966108,54.186537],[-8.966018,54.186425],[-8.965768,54.186171],[-8.965414,54.185811],[-8.965026,54.185393],[-8.964568,54.184932],[-8.964282,54.184656],[-8.964151,54.18453],[-8.963951,54.184363],[-8.963822,54.184261],[-8.963602,54.184087],[-8.963429,54.183952],[-8.963053,54.18366],[-8.962942,54.183588],[-8.962568,54.183343],[-8.962371,54.183215],[-8.962171,54.183068],[-8.961718,54.182734],[-8.961629,54.182668],[-8.961413,54.182498],[-8.961142,54.182283],[-8.961095,54.182236],[-8.960807,54.181952],[-8.960759,54.181885],[-8.960543,54.18158],[-8.96049,54.181513],[-8.960228,54.181181],[-8.960146,54.181078],[-8.959995,54.180827],[-8.959798,54.180502],[-8.959719,54.180373],[-8.959881,54.180639],[-8.959717,54.180667],[-8.959709,54.180666],[-8.957624,54.180999],[-8.956298,54.181211],[-8.956191,54.181228],[-8.956126,54.181147],[-8.956064,54.181063],[-8.956,54.181006],[-8.955974,54.180991],[-8.955814,54.180894],[-8.955634,54.181008],[-8.955533,54.181079],[-8.954806,54.181585],[-8.95447,54.181811],[-8.953997,54.18213],[-8.953835,54.182239],[-8.953537,54.182432],[-8.95334,54.182572],[-8.953472,54.18276],[-8.953536,54.182852],[-8.953703,54.18313],[-8.95384,54.183356],[-8.953934,54.183506],[-8.954033,54.183664],[-8.954158,54.183862],[-8.954364,54.184189],[-8.954384,54.184222],[-8.954438,54.184307],[-8.954542,54.184472],[-8.954543,54.184481],[-8.954557,54.184506],[-8.954692,54.184753],[-8.954761,54.184879],[-8.954789,54.184917],[-8.954857,54.18501],[-8.954939,54.185121],[-8.954991,54.185239],[-8.955016,54.185293],[-8.955058,54.185376],[-8.955109,54.185477],[-8.955116,54.185491],[-8.955155,54.185571],[-8.95526,54.185784],[-8.955294,54.185827],[-8.955353,54.185916],[-8.95537,54.185942],[-8.955471,54.186238],[-8.955504,54.186311],[-8.955635,54.186599],[-8.955667,54.18665],[-8.95568,54.18667],[-8.955809,54.186954],[-8.955826,54.186991],[-8.955936,54.187203],[-8.95602,54.187364],[-8.956131,54.187574],[-8.956105,54.187587],[-8.956076,54.187623],[-8.956045,54.187668],[-8.956041,54.187693],[-8.956017,54.187727],[-8.95599,54.187764],[-8.955969,54.187785],[-8.955969,54.187814],[-8.955938,54.18788],[-8.955925,54.187917],[-8.955922,54.187949],[-8.955913,54.187989],[-8.955918,54.188013],[-8.955944,54.188057],[-8.955964,54.188093],[-8.955992,54.18815],[-8.95602,54.188179],[-8.956102,54.188236],[-8.956133,54.188252],[-8.956153,54.188269],[-8.956174,54.188347],[-8.95621,54.188399],[-8.956253,54.188409],[-8.956289,54.188414],[-8.956325,54.188414],[-8.956357,54.188429],[-8.956376,54.188438],[-8.956409,54.188462],[-8.956426,54.188476],[-8.956446,54.188488],[-8.956456,54.188498],[-8.956463,54.188514],[-8.956474,54.188541],[-8.956475,54.188553],[-8.95649,54.188597],[-8.956494,54.188617],[-8.956496,54.188627],[-8.956496,54.188644],[-8.956502,54.188669],[-8.956504,54.188678],[-8.956513,54.188697],[-8.956535,54.188735],[-8.956579,54.18876],[-8.956619,54.188778],[-8.956667,54.188792],[-8.95673,54.188807],[-8.956796,54.188822],[-8.956877,54.188841],[-8.957012,54.188875],[-8.957137,54.188909],[-8.957247,54.188941],[-8.957385,54.188972],[-8.957383,54.188911],[-8.957404,54.188869],[-8.957445,54.188835],[-8.958344,54.188899],[-8.959202,54.188966],[-8.959229,54.189087],[-8.959548,54.189049],[-8.959591,54.189042],[-8.959745,54.189029],[-8.960294,54.188962],[-8.960583,54.18892],[-8.9609,54.188915],[-8.961062,54.18895],[-8.961593,54.189077],[-8.961682,54.189097],[-8.962213,54.189231],[-8.962445,54.18931],[-8.962515,54.189343],[-8.962541,54.189371],[-8.962574,54.189478],[-8.962666,54.18966],[-8.962744,54.189818],[-8.963069,54.189724],[-8.963282,54.18966],[-8.963476,54.189581],[-8.963521,54.189564],[-8.963762,54.189472],[-8.964031,54.189427],[-8.964174,54.189435],[-8.964223,54.189457],[-8.964292,54.189521],[-8.964332,54.1896],[-8.964361,54.189723],[-8.964357,54.189821],[-8.964343,54.189873],[-8.96431,54.189978],[-8.964259,54.190103],[-8.964191,54.190145],[-8.96416,54.190208],[-8.964139,54.190279],[-8.964187,54.190291],[-8.964233,54.190302],[-8.964308,54.190326],[-8.96446,54.190376],[-8.964671,54.190429],[-8.964773,54.190464],[-8.965481,54.190696],[-8.965549,54.190723],[-8.965617,54.190723],[-8.965654,54.190739],[-8.965709,54.190762],[-8.965922,54.190852],[-8.966098,54.190907],[-8.966286,54.190962],[-8.966412,54.191003],[-8.966662,54.191085],[-8.96703,54.191205],[-8.967178,54.191247],[-8.967663,54.191413],[-8.968182,54.191589],[-8.968473,54.191662],[-8.968616,54.19172],[-8.968713,54.191771],[-8.968881,54.191863],[-8.968986,54.191948],[-8.969011,54.191966],[-8.969,54.192003],[-8.968926,54.192055],[-8.968895,54.192072],[-8.968784,54.192111],[-8.968778,54.192123],[-8.968797,54.192139],[-8.968799,54.192166],[-8.968785,54.192175],[-8.968697,54.192166],[-8.968665,54.192224],[-8.968642,54.192225],[-8.968611,54.192243],[-8.968575,54.192268],[-8.968544,54.192271],[-8.968515,54.192312],[-8.968467,54.19237],[-8.968416,54.192383],[-8.968398,54.192398],[-8.966427,54.193128],[-8.966008,54.193272],[-8.96597,54.193285],[-8.96592,54.193303],[-8.965702,54.193377],[-8.965593,54.193625],[-8.965158,54.193512],[-8.965138,54.193541],[-8.964982,54.193811],[-8.964924,54.193904],[-8.964866,54.193996],[-8.964743,54.194193],[-8.964669,54.1943],[-8.964611,54.194385],[-8.964582,54.194425],[-8.964533,54.194508],[-8.964517,54.194554],[-8.964429,54.194539],[-8.964266,54.194555],[-8.963695,54.194695],[-8.963286,54.194828],[-8.962912,54.194983],[-8.962657,54.195148],[-8.962527,54.195268],[-8.962431,54.195397],[-8.962257,54.195441],[-8.962077,54.195453],[-8.961891,54.19546],[-8.961796,54.195512],[-8.961638,54.195595],[-8.961321,54.195783],[-8.961036,54.19595],[-8.960977,54.195941],[-8.96094,54.195935],[-8.960488,54.196018],[-8.959911,54.196125],[-8.959626,54.196173],[-8.959366,54.196213],[-8.959339,54.196209],[-8.95931,54.196559],[-8.959292,54.196762],[-8.959279,54.197003],[-8.95926,54.197166],[-8.95926,54.197166],[-8.959256,54.197265],[-8.959303,54.197274],[-8.959302,54.197308],[-8.959302,54.197343],[-8.959294,54.197661],[-8.959285,54.197734],[-8.959282,54.197755],[-8.959256,54.197755],[-8.959245,54.197857],[-8.959223,54.198065],[-8.959214,54.198151],[-8.959222,54.198242],[-8.959235,54.198391],[-8.959257,54.198652],[-8.959269,54.198787],[-8.959282,54.198934],[-8.959296,54.199092],[-8.959296,54.199093],[-8.959298,54.199115],[-8.959315,54.199288],[-8.959331,54.199448],[-8.959333,54.199465],[-8.959333,54.199466],[-8.959336,54.1995],[-8.959353,54.199612],[-8.959354,54.199614],[-8.959361,54.199804],[-8.959371,54.200077],[-8.959371,54.200077],[-8.959371,54.200079],[-8.959379,54.2002],[-8.959389,54.200343],[-8.959402,54.200552],[-8.959413,54.200711],[-8.959419,54.200813],[-8.959425,54.200907],[-8.959427,54.200956],[-8.959429,54.200989],[-8.959431,54.20102],[-8.959435,54.201101],[-8.959444,54.201265],[-8.959445,54.201284],[-8.959448,54.201325],[-8.959477,54.201575],[-8.959483,54.201627],[-8.95951,54.20163],[-8.95951,54.20163],[-8.95951,54.20163],[-8.959516,54.201751],[-8.959522,54.201877],[-8.959527,54.201986],[-8.959533,54.202113],[-8.959544,54.20236],[-8.959551,54.20252],[-8.959569,54.202713],[-8.959574,54.202768],[-8.959561,54.202901],[-8.959573,54.203052],[-8.959594,54.203158],[-8.9595,54.203421],[-8.959449,54.203562],[-8.959304,54.203875],[-8.958966,54.204297],[-8.958837,54.204456],[-8.9586,54.204724],[-8.958448,54.204895],[-8.958334,54.205062],[-8.958249,54.205186],[-8.958237,54.205446],[-8.958225,54.205711],[-8.958225,54.205737],[-8.958224,54.20582],[-8.958219,54.206229]],[[-8.960157,54.205722],[-8.960617,54.205718],[-8.960623,54.205987],[-8.960163,54.205991],[-8.960157,54.205722]]]]}}]}
