{"type":"FeatureCollection","features":[{"type":"Feature","properties":{"source_fid":367490,"county":"Mayo","bog_geom_ha":132.93783380947224,"low15_pct":99.72789115646259,"low15_ha":132.57609820726961,"overlay_ha":132.57783380947424,"area_delta":0.001735602204632869},"geometry":{"type":"MultiPolygon","coordinates":[[[[-9.457084,54.135896],[-9.45709,54.135901],[-9.457352,54.136121],[-9.457433,54.136152],[-9.457702,54.136238],[-9.458295,54.136372],[-9.45855,54.136522],[-9.458664,54.136725],[-9.45893,54.1368],[-9.459202,54.136818],[-9.459918,54.136829],[-9.460648,54.136831],[-9.460661,54.136817],[-9.460669,54.136808],[-9.46077,54.136801],[-9.461865,54.136733],[-9.461866,54.136733],[-9.462018,54.136724],[-9.462063,54.136721],[-9.462166,54.136713],[-9.462251,54.136707],[-9.462346,54.136702],[-9.462431,54.136698],[-9.462432,54.136698],[-9.463354,54.136637],[-9.463736,54.136624],[-9.463804,54.136629],[-9.463921,54.136623],[-9.464277,54.136605],[-9.464925,54.136651],[-9.46814,54.13688],[-9.468117,54.13803],[-9.46938,54.138264],[-9.470766,54.13852],[-9.471509,54.138657],[-9.472448,54.13883],[-9.472603,54.138653],[-9.475093,54.135831],[-9.476022,54.134748],[-9.476483,54.134209],[-9.477786,54.132708],[-9.478998,54.132092],[-9.480273,54.131444],[-9.481321,54.13093],[-9.485963,54.128654],[-9.485963,54.128654],[-9.485963,54.128654],[-9.485986,54.127901],[-9.486019,54.126777],[-9.485009,54.126169],[-9.484285,54.126594],[-9.483092,54.127293],[-9.482383,54.127321],[-9.481217,54.127366],[-9.480013,54.127463],[-9.479719,54.127631],[-9.479379,54.12782],[-9.479305,54.127861],[-9.478838,54.128145],[-9.478416,54.128392],[-9.477993,54.128633],[-9.477458,54.128954],[-9.477037,54.129211],[-9.476677,54.12942],[-9.476616,54.129547],[-9.476531,54.129614],[-9.4763,54.12992],[-9.476117,54.13016],[-9.476066,54.130226],[-9.475891,54.130453],[-9.475536,54.130376],[-9.474156,54.130077],[-9.473144,54.129829],[-9.472904,54.12887],[-9.472902,54.128863],[-9.472871,54.128864],[-9.472758,54.128863],[-9.472559,54.128857],[-9.472344,54.128855],[-9.472221,54.128855],[-9.471513,54.128843],[-9.470865,54.128839],[-9.470175,54.12883],[-9.469585,54.128822],[-9.469238,54.128818],[-9.46777,54.1288],[-9.466478,54.128792],[-9.466208,54.128782],[-9.465891,54.128781],[-9.46585,54.128781],[-9.46573,54.128765],[-9.465627,54.128735],[-9.465502,54.128659],[-9.465169,54.128368],[-9.464787,54.128034],[-9.464635,54.127919],[-9.464135,54.127662],[-9.463494,54.127332],[-9.463453,54.127307],[-9.460748,54.128803],[-9.460276,54.129064],[-9.460119,54.129152],[-9.459733,54.129369],[-9.459323,54.1296],[-9.459737,54.12982],[-9.459139,54.130177],[-9.459047,54.130215],[-9.458325,54.130633],[-9.457223,54.13126],[-9.457055,54.131372],[-9.457002,54.131418],[-9.458036,54.131913],[-9.459989,54.132208],[-9.460347,54.132262],[-9.460444,54.13274],[-9.460698,54.133367],[-9.459753,54.134182],[-9.45859,54.13435],[-9.4572,54.134329],[-9.456062,54.133733],[-9.454586,54.132987],[-9.454283,54.133001],[-9.453883,54.132968],[-9.453977,54.133128],[-9.454119,54.133272],[-9.454476,54.133619],[-9.454736,54.133849],[-9.454892,54.133987],[-9.455058,54.134135],[-9.455119,54.134201],[-9.455165,54.134251],[-9.455627,54.134636],[-9.455685,54.134685],[-9.456045,54.135001],[-9.456063,54.135016],[-9.456521,54.135429],[-9.456604,54.135503],[-9.457084,54.135896]],[[-9.47184,54.136662],[-9.471381,54.136668],[-9.471371,54.136398],[-9.471362,54.136129],[-9.47228,54.136117],[-9.472289,54.136387],[-9.47183,54.136393],[-9.47184,54.136662]],[[-9.470922,54.136673],[-9.471381,54.136668],[-9.47139,54.136937],[-9.470931,54.136943],[-9.470922,54.136673]]]]}}]}
