{"type":"FeatureCollection","features":[{"type":"Feature","properties":{"source_fid":387961,"county":"Mayo","bog_geom_ha":364.17339607521023,"low15_pct":60.083929893853373,"low15_ha":218.80968798989429,"overlay_ha":218.73995614512157,"area_delta":-0.069731844772718432},"geometry":{"type":"MultiPolygon","coordinates":[[[[-9.442614,53.968098],[-9.442577,53.96802],[-9.442569,53.968011],[-9.442577,53.968245],[-9.44267,53.968244],[-9.442649,53.968175],[-9.442614,53.968098]]],[[[-9.44305,53.968688],[-9.443053,53.968779],[-9.44317,53.968777],[-9.44316,53.96877],[-9.443138,53.968752],[-9.443123,53.968738],[-9.443095,53.968722],[-9.443071,53.968705],[-9.44305,53.968688]]],[[[-9.44356,53.969042],[-9.443552,53.969036],[-9.443533,53.969017],[-9.443518,53.968998],[-9.44352,53.969043],[-9.44356,53.969042]]],[[[-9.433016,53.969438],[-9.433025,53.969708],[-9.433939,53.969697],[-9.433949,53.969966],[-9.434406,53.969961],[-9.434415,53.97023],[-9.435329,53.970219],[-9.43532,53.96995],[-9.435311,53.96968],[-9.435768,53.969675],[-9.435758,53.969405],[-9.436215,53.9694],[-9.436197,53.968861],[-9.433454,53.968894],[-9.433464,53.969163],[-9.43255,53.969174],[-9.432559,53.969444],[-9.433016,53.969438]]],[[[-9.442689,53.971479],[-9.442698,53.971749],[-9.442708,53.972018],[-9.443165,53.972013],[-9.443146,53.971474],[-9.442689,53.971479]]],[[[-9.434498,53.972656],[-9.434507,53.972925],[-9.433593,53.972936],[-9.433602,53.973206],[-9.432688,53.973216],[-9.432697,53.973486],[-9.432707,53.973755],[-9.432716,53.974025],[-9.433173,53.974019],[-9.433164,53.97375],[-9.434078,53.973739],[-9.434069,53.97347],[-9.434983,53.973459],[-9.434974,53.973189],[-9.436345,53.973173],[-9.436336,53.972903],[-9.436793,53.972898],[-9.436784,53.972628],[-9.437241,53.972623],[-9.437222,53.972084],[-9.435394,53.972106],[-9.435403,53.972375],[-9.434946,53.972381],[-9.434955,53.97265],[-9.434498,53.972656]]],[[[-9.429525,53.974333],[-9.429534,53.974602],[-9.429544,53.974872],[-9.429553,53.975141],[-9.43001,53.975136],[-9.430001,53.974866],[-9.430458,53.974861],[-9.430449,53.974591],[-9.430906,53.974586],[-9.430897,53.974316],[-9.430887,53.974047],[-9.430878,53.973777],[-9.431792,53.973766],[-9.431783,53.973497],[-9.43224,53.973491],[-9.432231,53.973222],[-9.432222,53.972952],[-9.432679,53.972947],[-9.43267,53.972677],[-9.433127,53.972672],[-9.433118,53.972403],[-9.433575,53.972397],[-9.433565,53.972128],[-9.434023,53.972122],[-9.434013,53.971853],[-9.432642,53.971869],[-9.432633,53.971599],[-9.432176,53.971605],[-9.432166,53.971335],[-9.430338,53.971357],[-9.430347,53.971627],[-9.430356,53.971896],[-9.429899,53.971902],[-9.429908,53.972171],[-9.429918,53.972441],[-9.429461,53.972446],[-9.429479,53.972985],[-9.429488,53.973255],[-9.429945,53.973249],[-9.429955,53.973519],[-9.42904,53.973529],[-9.42905,53.973799],[-9.428592,53.973804],[-9.428602,53.974074],[-9.428145,53.974079],[-9.428163,53.974618],[-9.428172,53.974888],[-9.428629,53.974882],[-9.42862,53.974613],[-9.429077,53.974607],[-9.429068,53.974338],[-9.429525,53.974333]]],[[[-9.434189,53.976973],[-9.434198,53.977243],[-9.433741,53.977248],[-9.433751,53.977517],[-9.434208,53.977512],[-9.434217,53.977781],[-9.434226,53.978051],[-9.434235,53.97832],[-9.435607,53.978304],[-9.435598,53.978035],[-9.435588,53.977765],[-9.436046,53.97776],[-9.436036,53.97749],[-9.436027,53.977221],[-9.436018,53.976951],[-9.436475,53.976946],[-9.436466,53.976676],[-9.436456,53.976407],[-9.436914,53.976401],[-9.436904,53.976132],[-9.436895,53.975862],[-9.437352,53.975857],[-9.437343,53.975587],[-9.437334,53.975318],[-9.437315,53.974779],[-9.436858,53.974784],[-9.436849,53.974515],[-9.436839,53.974245],[-9.436382,53.974251],[-9.436392,53.97452],[-9.436401,53.97479],[-9.435944,53.974795],[-9.435953,53.975065],[-9.435496,53.97507],[-9.435514,53.975609],[-9.435524,53.975879],[-9.435533,53.976148],[-9.435542,53.976418],[-9.435085,53.976423],[-9.435094,53.976693],[-9.434637,53.976698],[-9.434646,53.976968],[-9.434189,53.976973]]],[[[-9.441509,53.976616],[-9.441525,53.976598],[-9.441556,53.976584],[-9.441676,53.976557],[-9.441742,53.976527],[-9.44184,53.976462],[-9.441921,53.976397],[-9.441943,53.976365],[-9.441942,53.976341],[-9.441485,53.976346],[-9.441495,53.976616],[-9.441509,53.976616]]],[[[-9.440395,53.977249],[-9.440472,53.977172],[-9.440479,53.977167],[-9.440142,53.977171],[-9.440148,53.977367],[-9.440195,53.977334],[-9.440395,53.977249]]],[[[-9.440043,53.977442],[-9.439694,53.977446],[-9.439703,53.977716],[-9.439706,53.977809],[-9.439737,53.977781],[-9.439778,53.977697],[-9.439841,53.977621],[-9.43997,53.977494],[-9.440043,53.977442]]],[[[-9.439403,53.978059],[-9.43949,53.978019],[-9.439499,53.977988],[-9.439255,53.977991],[-9.43926,53.97813],[-9.439315,53.97811],[-9.439403,53.978059]]],[[[-9.438813,53.978423],[-9.438867,53.97837],[-9.43897,53.978278],[-9.438999,53.978264],[-9.438807,53.978266],[-9.438813,53.978423]]],[[[-9.438066,53.978996],[-9.4382,53.978894],[-9.438338,53.978811],[-9.437912,53.978816],[-9.437921,53.979085],[-9.437924,53.979085],[-9.438066,53.978996]]],[[[-9.437921,53.979087],[-9.437921,53.979085],[-9.437464,53.979091],[-9.437473,53.97936],[-9.437514,53.97936],[-9.437571,53.979316],[-9.4377,53.979241],[-9.437824,53.979148],[-9.437921,53.979087]]],[[[-9.437474,53.979391],[-9.437473,53.97936],[-9.437016,53.979366],[-9.437025,53.979635],[-9.437114,53.979634],[-9.437131,53.979624],[-9.437364,53.979498],[-9.437454,53.979406],[-9.437474,53.979391]]],[[[-9.43542,53.980078],[-9.435485,53.980073],[-9.435735,53.980031],[-9.436038,53.979971],[-9.43638,53.979905],[-9.436599,53.979848],[-9.436861,53.979759],[-9.436967,53.979719],[-9.437027,53.979684],[-9.437025,53.979635],[-9.435653,53.979652],[-9.435663,53.979921],[-9.434748,53.979932],[-9.434757,53.980201],[-9.4343,53.980207],[-9.434306,53.98036],[-9.434524,53.980299],[-9.434794,53.980227],[-9.435089,53.980162],[-9.435212,53.980136],[-9.435285,53.980084],[-9.435344,53.980069],[-9.43542,53.980078]]],[[[-9.416954,53.981222],[-9.416967,53.981624],[-9.417065,53.981626],[-9.417614,53.981656],[-9.418141,53.98168],[-9.418343,53.981703],[-9.418642,53.981788],[-9.418914,53.98179],[-9.41926,53.9818],[-9.41924,53.981195],[-9.419697,53.981189],[-9.419688,53.98092],[-9.419231,53.980925],[-9.419221,53.980656],[-9.418764,53.980661],[-9.418755,53.980391],[-9.419212,53.980386],[-9.419203,53.980117],[-9.420118,53.980106],[-9.420108,53.979836],[-9.420099,53.979567],[-9.420556,53.979561],[-9.420547,53.979292],[-9.420538,53.979022],[-9.421452,53.979012],[-9.421443,53.978742],[-9.422358,53.978731],[-9.422367,53.979001],[-9.42191,53.979006],[-9.421919,53.979276],[-9.421462,53.979281],[-9.421471,53.979551],[-9.421928,53.979545],[-9.421937,53.979815],[-9.42148,53.97982],[-9.421489,53.98009],[-9.421498,53.980359],[-9.421508,53.980629],[-9.421517,53.980898],[-9.421526,53.981168],[-9.42244,53.981157],[-9.422465,53.981894],[-9.422509,53.9819],[-9.422563,53.981909],[-9.422656,53.981895],[-9.423556,53.98192],[-9.42406,53.981938],[-9.424449,53.981933],[-9.424888,53.981895],[-9.425584,53.981806],[-9.426396,53.981672],[-9.426954,53.981893],[-9.42747,53.982099],[-9.427755,53.982184],[-9.427846,53.982121],[-9.427899,53.982055],[-9.427914,53.981995],[-9.427994,53.981955],[-9.428103,53.981926],[-9.428222,53.981856],[-9.428267,53.98179],[-9.428341,53.981759],[-9.42848,53.98178],[-9.428653,53.98177],[-9.428747,53.981719],[-9.428759,53.981687],[-9.428844,53.981679],[-9.428961,53.981694],[-9.42919,53.981669],[-9.429384,53.981667],[-9.42967,53.981571],[-9.429873,53.981535],[-9.429957,53.981512],[-9.430005,53.981466],[-9.43001,53.981412],[-9.430062,53.981381],[-9.430216,53.981359],[-9.43039,53.981354],[-9.430533,53.981381],[-9.430597,53.98138],[-9.430741,53.981329],[-9.43079,53.981261],[-9.431046,53.981151],[-9.431129,53.981108],[-9.431128,53.981054],[-9.431237,53.981052],[-9.431282,53.981025],[-9.431311,53.98096],[-9.43148,53.980904],[-9.43154,53.980856],[-9.431577,53.980833],[-9.431575,53.980779],[-9.430204,53.980795],[-9.430195,53.980525],[-9.42928,53.980536],[-9.429271,53.980267],[-9.428814,53.980272],[-9.428805,53.980003],[-9.428347,53.980008],[-9.428338,53.979739],[-9.428329,53.979469],[-9.427872,53.979475],[-9.427862,53.979205],[-9.426948,53.979216],[-9.426939,53.978947],[-9.42693,53.978677],[-9.426472,53.978682],[-9.426463,53.978413],[-9.426454,53.978144],[-9.425997,53.978149],[-9.425988,53.977879],[-9.425073,53.97789],[-9.425082,53.97816],[-9.425092,53.978429],[-9.424177,53.97844],[-9.424186,53.97871],[-9.423272,53.97872],[-9.423263,53.978451],[-9.42372,53.978446],[-9.423711,53.978176],[-9.424168,53.978171],[-9.424159,53.977901],[-9.424616,53.977896],[-9.424607,53.977626],[-9.425064,53.977621],[-9.425055,53.977351],[-9.425969,53.97734],[-9.42596,53.977071],[-9.426417,53.977066],[-9.426408,53.976796],[-9.425494,53.976807],[-9.425503,53.977076],[-9.424589,53.977087],[-9.424598,53.977357],[-9.424141,53.977362],[-9.424131,53.977093],[-9.424122,53.976823],[-9.424579,53.976818],[-9.42457,53.976548],[-9.425027,53.976543],[-9.425018,53.976273],[-9.425475,53.976268],[-9.425466,53.975998],[-9.424552,53.976009],[-9.424533,53.97547],[-9.42499,53.975465],[-9.424981,53.975195],[-9.424972,53.974926],[-9.425429,53.97492],[-9.42542,53.974651],[-9.424506,53.974662],[-9.424487,53.974123],[-9.424478,53.973853],[-9.424935,53.973848],[-9.424926,53.973578],[-9.424917,53.973309],[-9.42446,53.973314],[-9.424451,53.973045],[-9.423536,53.973056],[-9.423546,53.973325],[-9.423088,53.973331],[-9.423079,53.973061],[-9.42307,53.972792],[-9.423061,53.972522],[-9.422604,53.972527],[-9.422595,53.972258],[-9.423052,53.972253],[-9.423042,53.971983],[-9.423033,53.971714],[-9.423015,53.971175],[-9.423006,53.970905],[-9.422997,53.970636],[-9.423454,53.97063],[-9.423444,53.970361],[-9.423902,53.970355],[-9.423892,53.970086],[-9.425264,53.970069],[-9.425254,53.9698],[-9.425712,53.969795],[-9.425702,53.969525],[-9.427531,53.969503],[-9.427522,53.969234],[-9.430264,53.969201],[-9.430273,53.969471],[-9.43073,53.969465],[-9.430721,53.969196],[-9.431178,53.96919],[-9.431169,53.968921],[-9.429341,53.968943],[-9.429331,53.968673],[-9.428874,53.968679],[-9.428884,53.968948],[-9.427969,53.968959],[-9.42796,53.968689],[-9.428417,53.968684],[-9.428408,53.968415],[-9.430236,53.968393],[-9.430227,53.968123],[-9.432055,53.968101],[-9.432046,53.967832],[-9.433875,53.96781],[-9.433865,53.967541],[-9.434779,53.96753],[-9.43477,53.96726],[-9.435227,53.967255],[-9.435218,53.966985],[-9.436132,53.966974],[-9.436123,53.966705],[-9.437494,53.966689],[-9.437485,53.966419],[-9.438856,53.966403],[-9.438865,53.966672],[-9.439322,53.966667],[-9.439331,53.966936],[-9.437503,53.966958],[-9.437513,53.967227],[-9.437055,53.967233],[-9.437065,53.967502],[-9.437522,53.967497],[-9.437531,53.967766],[-9.437988,53.967761],[-9.437997,53.968031],[-9.439826,53.968009],[-9.439816,53.967739],[-9.440274,53.967734],[-9.440283,53.968003],[-9.44074,53.967998],[-9.440749,53.968267],[-9.441206,53.968262],[-9.441216,53.968531],[-9.441225,53.968801],[-9.441682,53.968795],[-9.441701,53.969334],[-9.442158,53.969329],[-9.442167,53.969598],[-9.443081,53.969587],[-9.44309,53.969857],[-9.443548,53.969851],[-9.443557,53.970121],[-9.444014,53.970115],[-9.444023,53.970385],[-9.44448,53.970379],[-9.44449,53.970649],[-9.444947,53.970643],[-9.444956,53.970913],[-9.444965,53.971182],[-9.444508,53.971188],[-9.444518,53.971457],[-9.444536,53.971996],[-9.444079,53.972002],[-9.444098,53.972541],[-9.444555,53.972535],[-9.444564,53.972805],[-9.444574,53.973074],[-9.444583,53.973344],[-9.443669,53.973355],[-9.443678,53.973624],[-9.444135,53.973619],[-9.444144,53.973888],[-9.444154,53.974158],[-9.444163,53.974427],[-9.443706,53.974433],[-9.443715,53.974702],[-9.443734,53.975241],[-9.443277,53.975247],[-9.443286,53.975516],[-9.442829,53.975522],[-9.442838,53.975791],[-9.442381,53.975797],[-9.44239,53.976066],[-9.441933,53.976072],[-9.441942,53.976341],[-9.442214,53.976338],[-9.442233,53.976334],[-9.442309,53.9763],[-9.442341,53.976268],[-9.442428,53.976214],[-9.442494,53.976195],[-9.442547,53.976176],[-9.442593,53.97612],[-9.442636,53.976062],[-9.442677,53.976041],[-9.442778,53.976015],[-9.442836,53.975963],[-9.442882,53.975913],[-9.442929,53.975857],[-9.442999,53.975812],[-9.44304,53.975743],[-9.443049,53.975686],[-9.44306,53.975668],[-9.443096,53.975649],[-9.443221,53.975628],[-9.443243,53.975606],[-9.443268,53.975585],[-9.443351,53.975562],[-9.443411,53.975527],[-9.443546,53.975461],[-9.443621,53.975414],[-9.443687,53.975357],[-9.443715,53.975331],[-9.443768,53.975321],[-9.443822,53.975285],[-9.443878,53.975224],[-9.443912,53.975206],[-9.44401,53.975208],[-9.444035,53.975217],[-9.444073,53.975232],[-9.444182,53.975231],[-9.44427,53.97525],[-9.444349,53.975277],[-9.444311,53.975207],[-9.444343,53.975159],[-9.44439,53.97512],[-9.444452,53.975083],[-9.44451,53.975073],[-9.444581,53.975085],[-9.444622,53.975092],[-9.444703,53.975062],[-9.444799,53.975034],[-9.444865,53.975013],[-9.444889,53.97499],[-9.44492,53.974962],[-9.444964,53.974933],[-9.444991,53.97491],[-9.444994,53.974897],[-9.444893,53.974878],[-9.444839,53.974863],[-9.444822,53.97484],[-9.444824,53.974806],[-9.444875,53.974784],[-9.444945,53.974752],[-9.444967,53.974733],[-9.444995,53.974725],[-9.445095,53.974705],[-9.445112,53.974661],[-9.445101,53.974616],[-9.445097,53.974595],[-9.445146,53.974561],[-9.445199,53.974515],[-9.445205,53.97448],[-9.445225,53.974407],[-9.445241,53.974397],[-9.445413,53.974378],[-9.445439,53.97435],[-9.445484,53.974306],[-9.445522,53.9743],[-9.445589,53.974283],[-9.445624,53.974275],[-9.445657,53.974266],[-9.445732,53.97425],[-9.445754,53.974231],[-9.445732,53.974203],[-9.445722,53.974173],[-9.445773,53.974134],[-9.44581,53.974109],[-9.445826,53.974064],[-9.445838,53.97406],[-9.445874,53.974051],[-9.445931,53.97405],[-9.445975,53.974024],[-9.446013,53.974003],[-9.446068,53.973993],[-9.446187,53.973988],[-9.446323,53.973955],[-9.446455,53.973894],[-9.446482,53.973867],[-9.44656,53.973848],[-9.446622,53.973832],[-9.446643,53.973788],[-9.44665,53.973764],[-9.44668,53.973749],[-9.446746,53.973739],[-9.446798,53.97374],[-9.446827,53.973735],[-9.446858,53.973716],[-9.446868,53.973689],[-9.446899,53.973667],[-9.446966,53.973658],[-9.44701,53.973668],[-9.447041,53.973685],[-9.447146,53.973671],[-9.447192,53.973655],[-9.447204,53.973638],[-9.447177,53.973584],[-9.447174,53.973546],[-9.447185,53.973533],[-9.447274,53.973521],[-9.447318,53.9735],[-9.447358,53.97346],[-9.44738,53.973452],[-9.447497,53.973452],[-9.447563,53.973476],[-9.447644,53.973509],[-9.447701,53.973514],[-9.447732,53.973502],[-9.447759,53.973473],[-9.447777,53.973381],[-9.44781,53.973323],[-9.447798,53.973285],[-9.447771,53.973268],[-9.447744,53.97326],[-9.447737,53.973248],[-9.447763,53.973204],[-9.447845,53.973159],[-9.447906,53.973138],[-9.448081,53.973119],[-9.448085,53.973119],[-9.448224,53.97309],[-9.448274,53.97307],[-9.448325,53.973042],[-9.448371,53.973029],[-9.448423,53.973025],[-9.448483,53.972985],[-9.448506,53.972933],[-9.4486,53.972879],[-9.448616,53.972862],[-9.44861,53.972843],[-9.448518,53.972784],[-9.4485,53.972756],[-9.448504,53.972712],[-9.448528,53.972694],[-9.448591,53.972672],[-9.448656,53.972671],[-9.448703,53.972675],[-9.448745,53.97266],[-9.448761,53.97263],[-9.448738,53.972614],[-9.448694,53.972579],[-9.448676,53.972533],[-9.448686,53.972498],[-9.44875,53.972468],[-9.448798,53.972427],[-9.448792,53.972413],[-9.448746,53.972386],[-9.448721,53.972345],[-9.448689,53.972303],[-9.448617,53.972223],[-9.448624,53.972204],[-9.44866,53.972158],[-9.448646,53.972139],[-9.448585,53.972085],[-9.448585,53.972063],[-9.44861,53.972022],[-9.448614,53.971996],[-9.448602,53.971947],[-9.448622,53.971895],[-9.448612,53.971854],[-9.448636,53.971809],[-9.448694,53.971738],[-9.448717,53.971717],[-9.448677,53.971697],[-9.448646,53.97169],[-9.448605,53.971656],[-9.448588,53.971638],[-9.448578,53.971612],[-9.44859,53.971566],[-9.448601,53.97155],[-9.448583,53.971517],[-9.448556,53.971493],[-9.448549,53.971469],[-9.448538,53.971441],[-9.448525,53.971418],[-9.448086,53.971339],[-9.448019,53.971311],[-9.447975,53.971292],[-9.44781,53.971212],[-9.447588,53.97106],[-9.447482,53.970984],[-9.44729,53.970892],[-9.447074,53.970792],[-9.446897,53.97075],[-9.446715,53.970712],[-9.446326,53.97056],[-9.445939,53.97036],[-9.445908,53.970324],[-9.44587,53.970256],[-9.445892,53.970193],[-9.445899,53.970163],[-9.445886,53.970133],[-9.445848,53.970106],[-9.445625,53.969989],[-9.445576,53.969939],[-9.445494,53.969792],[-9.445451,53.96967],[-9.445446,53.969638],[-9.445404,53.969651],[-9.445322,53.969677],[-9.445001,53.969779],[-9.444937,53.969663],[-9.444908,53.969607],[-9.444801,53.969576],[-9.444718,53.969576],[-9.44469,53.969576],[-9.444662,53.969575],[-9.444634,53.969572],[-9.444549,53.969564],[-9.44454,53.969563],[-9.444532,53.969562],[-9.444524,53.969561],[-9.444411,53.969546],[-9.444396,53.969543],[-9.444382,53.969541],[-9.444368,53.969538],[-9.444312,53.969527],[-9.444276,53.969519],[-9.444242,53.96951],[-9.444209,53.969498],[-9.444178,53.969485],[-9.44415,53.969472],[-9.444116,53.969453],[-9.444089,53.969438],[-9.444065,53.969422],[-9.444043,53.969404],[-9.443997,53.969363],[-9.443989,53.969357],[-9.443988,53.969355],[-9.443995,53.969576],[-9.443538,53.969582],[-9.443529,53.969312],[-9.443072,53.969318],[-9.443062,53.969048],[-9.443053,53.968779],[-9.442596,53.968784],[-9.442587,53.968515],[-9.44213,53.96852],[-9.44212,53.968251],[-9.441663,53.968256],[-9.441654,53.967987],[-9.442542,53.967976],[-9.44253,53.96796],[-9.442523,53.967951],[-9.442516,53.967941],[-9.442511,53.967932],[-9.442482,53.96788],[-9.442476,53.967868],[-9.442471,53.967859],[-9.44247,53.967858],[-9.442466,53.967854],[-9.442463,53.96785],[-9.44246,53.967847],[-9.44241,53.967789],[-9.442381,53.967773],[-9.442354,53.967757],[-9.442329,53.967739],[-9.442308,53.967721],[-9.442266,53.967687],[-9.442244,53.967669],[-9.442227,53.967656],[-9.442202,53.967639],[-9.442195,53.967634],[-9.442166,53.967612],[-9.442144,53.967593],[-9.442125,53.967574],[-9.442108,53.967554],[-9.442095,53.967533],[-9.442084,53.967512],[-9.442076,53.96749],[-9.442072,53.967472],[-9.442022,53.967412],[-9.442015,53.967404],[-9.442009,53.967396],[-9.442003,53.967388],[-9.441999,53.96738],[-9.441964,53.967347],[-9.441799,53.967264],[-9.441662,53.967199],[-9.441568,53.967164],[-9.441453,53.967134],[-9.441448,53.967133],[-9.441307,53.967143],[-9.441273,53.967155],[-9.441246,53.967164],[-9.441217,53.967173],[-9.441186,53.96718],[-9.441038,53.967212],[-9.441003,53.967219],[-9.440966,53.967224],[-9.440928,53.967227],[-9.44089,53.967228],[-9.440853,53.967228],[-9.440826,53.967226],[-9.4407,53.967217],[-9.440662,53.967214],[-9.440625,53.967208],[-9.440589,53.967201],[-9.440583,53.9672],[-9.440446,53.967167],[-9.440411,53.967158],[-9.440378,53.967147],[-9.440346,53.967134],[-9.440317,53.967121],[-9.440289,53.967105],[-9.44027,53.967093],[-9.440207,53.96705],[-9.440183,53.967032],[-9.440162,53.967013],[-9.440143,53.966994],[-9.440138,53.966987],[-9.440095,53.966933],[-9.440085,53.966919],[-9.440076,53.966904],[-9.440068,53.96689],[-9.440006,53.966752],[-9.440001,53.96674],[-9.439996,53.966727],[-9.439993,53.966715],[-9.439977,53.966633],[-9.439974,53.966616],[-9.439973,53.966599],[-9.439974,53.966581],[-9.439993,53.966426],[-9.439996,53.966409],[-9.440001,53.966391],[-9.44,53.966383],[-9.439993,53.966383],[-9.439985,53.966382],[-9.439884,53.966373],[-9.439683,53.96636],[-9.439646,53.966356],[-9.439609,53.966351],[-9.439573,53.966344],[-9.439564,53.966342],[-9.439345,53.966291],[-9.439311,53.966282],[-9.439279,53.966272],[-9.439248,53.96626],[-9.439186,53.966234],[-9.438901,53.966121],[-9.438889,53.966116],[-9.438878,53.966112],[-9.438868,53.966107],[-9.438681,53.966017],[-9.438659,53.966006],[-9.438638,53.965994],[-9.438619,53.965981],[-9.438543,53.965928],[-9.438525,53.965914],[-9.438508,53.9659],[-9.438493,53.965885],[-9.438428,53.965816],[-9.438414,53.965799],[-9.43838,53.965794],[-9.438284,53.965785],[-9.438247,53.96578],[-9.438211,53.965774],[-9.438175,53.965765],[-9.438163,53.965762],[-9.438039,53.965727],[-9.438005,53.965717],[-9.437973,53.965705],[-9.437943,53.965691],[-9.437915,53.965676],[-9.437894,53.965664],[-9.437859,53.96564],[-9.437762,53.965587],[-9.437734,53.965571],[-9.43771,53.965554],[-9.437688,53.965536],[-9.437669,53.965517],[-9.437652,53.965497],[-9.437649,53.965491],[-9.43762,53.96545],[-9.43761,53.965433],[-9.437601,53.965416],[-9.437594,53.965399],[-9.437575,53.96534],[-9.437569,53.965318],[-9.437567,53.965296],[-9.437545,53.965276],[-9.437516,53.965263],[-9.437487,53.965248],[-9.437462,53.965231],[-9.437439,53.965214],[-9.437424,53.965201],[-9.437375,53.965156],[-9.437298,53.965085],[-9.437279,53.965066],[-9.437262,53.965046],[-9.437249,53.965025],[-9.437243,53.965013],[-9.437132,53.964781],[-9.437037,53.964598],[-9.437027,53.964577],[-9.437021,53.964555],[-9.437017,53.964532],[-9.437017,53.964521],[-9.437016,53.964416],[-9.437017,53.964394],[-9.437022,53.964372],[-9.437029,53.96435],[-9.43704,53.964328],[-9.437043,53.964323],[-9.437071,53.964277],[-9.437085,53.964256],[-9.437103,53.964237],[-9.437123,53.964218],[-9.437145,53.9642],[-9.43717,53.964183],[-9.437197,53.964167],[-9.437227,53.964153],[-9.437258,53.96414],[-9.437265,53.964138],[-9.43734,53.964111],[-9.437347,53.964107],[-9.437395,53.964073],[-9.437423,53.964019],[-9.437416,53.963998],[-9.437407,53.963979],[-9.437369,53.963881],[-9.437349,53.96384],[-9.43726,53.963833],[-9.437248,53.963832],[-9.437235,53.96383],[-9.437223,53.963829],[-9.437103,53.963813],[-9.437067,53.963807],[-9.437031,53.963799],[-9.436997,53.96379],[-9.436964,53.963779],[-9.436933,53.963767],[-9.436834,53.963724],[-9.436821,53.963718],[-9.43681,53.963713],[-9.436799,53.963707],[-9.436674,53.96364],[-9.436648,53.963626],[-9.436626,53.963611],[-9.436605,53.963595],[-9.436427,53.963444],[-9.436213,53.96328],[-9.436209,53.963277],[-9.436205,53.963274],[-9.436201,53.963271],[-9.4361,53.963186],[-9.436072,53.963172],[-9.436043,53.963156],[-9.436018,53.96314],[-9.435995,53.963122],[-9.435987,53.963116],[-9.435908,53.963046],[-9.435888,53.963027],[-9.435871,53.963007],[-9.435857,53.962986],[-9.435849,53.962973],[-9.435797,53.96287],[-9.435791,53.962856],[-9.435786,53.962843],[-9.435782,53.96283],[-9.435742,53.962662],[-9.435739,53.962649],[-9.435738,53.962636],[-9.435738,53.962622],[-9.43574,53.962476],[-9.43574,53.96247],[-9.435741,53.962464],[-9.435741,53.962457],[-9.435749,53.962405],[-9.435695,53.962355],[-9.435676,53.962336],[-9.435659,53.962316],[-9.435646,53.962295],[-9.435636,53.962273],[-9.435628,53.962251],[-9.435624,53.962229],[-9.435623,53.962213],[-9.435621,53.962135],[-9.435621,53.962127],[-9.435621,53.962119],[-9.435622,53.962111],[-9.435614,53.962043],[-9.435598,53.962023],[-9.435585,53.962002],[-9.435575,53.961981],[-9.435568,53.961959],[-9.435565,53.961944],[-9.435551,53.961853],[-9.435549,53.961839],[-9.435549,53.961824],[-9.43555,53.961809],[-9.435557,53.961754],[-9.435514,53.961621],[-9.435489,53.961555],[-9.435484,53.961542],[-9.435481,53.96153],[-9.435479,53.961518],[-9.435473,53.961475],[-9.435472,53.961469],[-9.435471,53.961463],[-9.435471,53.961457],[-9.435471,53.961451],[-9.435356,53.961486],[-9.435322,53.961506],[-9.435296,53.961544],[-9.435236,53.961595],[-9.43522,53.961622],[-9.435211,53.961692],[-9.435214,53.961721],[-9.435247,53.961749],[-9.435273,53.961764],[-9.435301,53.961817],[-9.435335,53.961869],[-9.435319,53.961896],[-9.435287,53.961897],[-9.435251,53.96188],[-9.435208,53.961866],[-9.435154,53.961866],[-9.435138,53.961879],[-9.43512,53.961903],[-9.435036,53.961957],[-9.435022,53.961992],[-9.435004,53.962035],[-9.434947,53.9621],[-9.434937,53.96214],[-9.434938,53.962166],[-9.434893,53.962225],[-9.434872,53.96224],[-9.434772,53.962255],[-9.434714,53.962278],[-9.434675,53.962311],[-9.43465,53.962355],[-9.43464,53.962404],[-9.434643,53.962437],[-9.434639,53.962472],[-9.434591,53.962496],[-9.434498,53.962627],[-9.433896,53.962515],[-9.433267,53.962374],[-9.432853,53.962281],[-9.432872,53.962203],[-9.432815,53.962155],[-9.43275,53.962124],[-9.432709,53.962113],[-9.432688,53.9621],[-9.432575,53.962104],[-9.432514,53.962094],[-9.432454,53.962072],[-9.432396,53.962039],[-9.432419,53.961991],[-9.432338,53.96196],[-9.432233,53.961964],[-9.432179,53.961934],[-9.432126,53.961908],[-9.432074,53.961891],[-9.432064,53.961871],[-9.432051,53.961823],[-9.432016,53.961809],[-9.431901,53.961765],[-9.431883,53.961744],[-9.431886,53.961706],[-9.431867,53.961687],[-9.431836,53.961666],[-9.431836,53.961629],[-9.431814,53.961585],[-9.431778,53.961576],[-9.431756,53.961556],[-9.431742,53.96151],[-9.43172,53.961503],[-9.431697,53.961493],[-9.431649,53.961415],[-9.431612,53.961389],[-9.43156,53.961382],[-9.431504,53.961345],[-9.431474,53.961304],[-9.431482,53.961249],[-9.43147,53.961224],[-9.43132,53.961147],[-9.431172,53.961077],[-9.431016,53.96101],[-9.430979,53.960962],[-9.430924,53.960916],[-9.430838,53.960882],[-9.430774,53.960857],[-9.430727,53.960838],[-9.430706,53.960826],[-9.430712,53.960808],[-9.430715,53.96079],[-9.43069,53.960771],[-9.43065,53.960764],[-9.430614,53.960762],[-9.430185,53.96048],[-9.430045,53.960391],[-9.430007,53.96035],[-9.429871,53.960387],[-9.429683,53.960454],[-9.42935,53.960561],[-9.42925,53.960608],[-9.429193,53.960624],[-9.428993,53.960643],[-9.428658,53.96079],[-9.428397,53.960898],[-9.42835,53.960945],[-9.428302,53.960974],[-9.428258,53.960984],[-9.428088,53.960995],[-9.428059,53.961003],[-9.428045,53.961014],[-9.428021,53.961047],[-9.42801,53.961109],[-9.428022,53.96118],[-9.428018,53.961198],[-9.428017,53.961204],[-9.428003,53.961213],[-9.427993,53.961219],[-9.427997,53.961255],[-9.428005,53.961287],[-9.428005,53.961356],[-9.428013,53.961375],[-9.428019,53.961415],[-9.428021,53.961489],[-9.428007,53.961502],[-9.427946,53.961525],[-9.427909,53.96155],[-9.427889,53.961577],[-9.427813,53.961645],[-9.427769,53.96168],[-9.427722,53.961738],[-9.427661,53.961817],[-9.427589,53.961868],[-9.42757,53.961892],[-9.427535,53.961994],[-9.427497,53.962029],[-9.42739,53.962107],[-9.427344,53.962161],[-9.427328,53.96218],[-9.427311,53.962201],[-9.427239,53.962282],[-9.427221,53.962303],[-9.427206,53.962384],[-9.42719,53.962398],[-9.427099,53.962445],[-9.427037,53.96248],[-9.426842,53.962564],[-9.426775,53.962604],[-9.426613,53.962683],[-9.426272,53.962852],[-9.426237,53.962914],[-9.426197,53.96295],[-9.426154,53.962981],[-9.426143,53.963007],[-9.426148,53.963062],[-9.426118,53.963092],[-9.426074,53.963123],[-9.426016,53.963133],[-9.425911,53.963127],[-9.42583,53.963134],[-9.425645,53.963185],[-9.425591,53.963212],[-9.425564,53.96324],[-9.425559,53.96327],[-9.425563,53.963302],[-9.425593,53.963407],[-9.425587,53.963462],[-9.425578,53.963511],[-9.425551,53.963595],[-9.425547,53.963627],[-9.425548,53.963699],[-9.425531,53.963758],[-9.425493,53.963806],[-9.425408,53.96387],[-9.425362,53.963911],[-9.425341,53.96395],[-9.425282,53.964005],[-9.425223,53.964058],[-9.425167,53.964087],[-9.424977,53.964177],[-9.424944,53.964201],[-9.424924,53.964248],[-9.424908,53.964333],[-9.424859,53.964406],[-9.424783,53.964493],[-9.424721,53.964532],[-9.424637,53.964561],[-9.424577,53.964573],[-9.424516,53.964652],[-9.424492,53.964684],[-9.424379,53.964748],[-9.424315,53.964799],[-9.424241,53.964866],[-9.42419,53.964947],[-9.424098,53.965059],[-9.424059,53.965076],[-9.423977,53.965116],[-9.423773,53.965255],[-9.423678,53.965301],[-9.423506,53.965365],[-9.423398,53.965394],[-9.423327,53.965431],[-9.423282,53.965467],[-9.423253,53.965475],[-9.423191,53.965484],[-9.423118,53.965513],[-9.422843,53.965602],[-9.422608,53.965675],[-9.422577,53.965685],[-9.422537,53.965697],[-9.422465,53.965705],[-9.422316,53.965689],[-9.422204,53.965682],[-9.42208,53.965705],[-9.421948,53.96572],[-9.42188,53.965724],[-9.421782,53.965717],[-9.421679,53.965724],[-9.421514,53.965735],[-9.421342,53.965769],[-9.421145,53.965833],[-9.420713,53.966007],[-9.420476,53.96611],[-9.420159,53.966294],[-9.420048,53.966332],[-9.420004,53.966351],[-9.419926,53.966386],[-9.41989,53.966402],[-9.419798,53.96644],[-9.419151,53.966705],[-9.418934,53.966792],[-9.418753,53.966864],[-9.418754,53.966911],[-9.418631,53.966913],[-9.418524,53.966956],[-9.41854,53.966994],[-9.418547,53.967009],[-9.418507,53.967064],[-9.418474,53.967086],[-9.418386,53.967147],[-9.418314,53.967173],[-9.418309,53.967175],[-9.418306,53.967175],[-9.418306,53.967186],[-9.417952,53.96719],[-9.41786,53.967233],[-9.417786,53.967261],[-9.417782,53.967262],[-9.417715,53.967297],[-9.417697,53.967337],[-9.417661,53.967362],[-9.417655,53.967366],[-9.417627,53.967373],[-9.417599,53.96738],[-9.417411,53.967382],[-9.417399,53.967382],[-9.417402,53.967466],[-9.416941,53.967472],[-9.416868,53.967492],[-9.416725,53.967561],[-9.416571,53.96763],[-9.416493,53.967641],[-9.416497,53.967747],[-9.415939,53.967753],[-9.41591,53.967764],[-9.415853,53.967831],[-9.41585,53.967833],[-9.415787,53.967874],[-9.415726,53.967901],[-9.415694,53.967915],[-9.415638,53.967938],[-9.41563,53.967959],[-9.415623,53.967979],[-9.415592,53.968078],[-9.415569,53.96815],[-9.415543,53.968169],[-9.415417,53.968255],[-9.415411,53.968258],[-9.415349,53.968283],[-9.41527,53.968309],[-9.415184,53.968337],[-9.415132,53.968369],[-9.415095,53.968376],[-9.41506,53.968383],[-9.415021,53.968392],[-9.415015,53.968394],[-9.415005,53.968406],[-9.41499,53.968424],[-9.414983,53.968432],[-9.414955,53.968459],[-9.414905,53.96848],[-9.414746,53.968532],[-9.414716,53.968542],[-9.414695,53.968549],[-9.414696,53.968577],[-9.414657,53.968577],[-9.414657,53.968578],[-9.414653,53.968585],[-9.414627,53.968629],[-9.414479,53.968699],[-9.414349,53.968785],[-9.41431,53.968822],[-9.414306,53.968826],[-9.4143,53.968829],[-9.414186,53.968889],[-9.414071,53.968956],[-9.413954,53.968993],[-9.413752,53.96903],[-9.413658,53.969056],[-9.413546,53.969087],[-9.413444,53.969143],[-9.41344,53.969145],[-9.413342,53.969221],[-9.413315,53.969242],[-9.413274,53.969254],[-9.413245,53.969263],[-9.413063,53.969316],[-9.412913,53.96939],[-9.412894,53.969399],[-9.412895,53.969407],[-9.412878,53.969407],[-9.412831,53.969425],[-9.4127,53.969475],[-9.412471,53.969585],[-9.412456,53.969592],[-9.412444,53.9696],[-9.412447,53.969682],[-9.412456,53.969951],[-9.412091,53.969955],[-9.412054,53.970028],[-9.412002,53.970067],[-9.412008,53.970226],[-9.411754,53.970229],[-9.411649,53.970292],[-9.411588,53.97032],[-9.411554,53.970335],[-9.41156,53.970501],[-9.411204,53.970505],[-9.411118,53.970549],[-9.411083,53.970565],[-9.411001,53.970605],[-9.410764,53.970701],[-9.41067,53.97076],[-9.410654,53.970769],[-9.410655,53.970781],[-9.410504,53.970783],[-9.410474,53.970807],[-9.410466,53.970814],[-9.410459,53.970814],[-9.410413,53.970817],[-9.410383,53.970828],[-9.410366,53.970846],[-9.410356,53.970855],[-9.410339,53.970963],[-9.410266,53.970979],[-9.410239,53.970984],[-9.410205,53.970993],[-9.410207,53.971056],[-9.409952,53.971059],[-9.409906,53.971071],[-9.409842,53.971093],[-9.409747,53.971117],[-9.409648,53.971131],[-9.409566,53.971158],[-9.409387,53.971216],[-9.409304,53.971254],[-9.409299,53.971255],[-9.409301,53.971336],[-9.40898,53.97134],[-9.408911,53.971385],[-9.408843,53.971413],[-9.408747,53.971423],[-9.40867,53.971424],[-9.408618,53.971425],[-9.4085,53.971455],[-9.408461,53.971461],[-9.408404,53.97147],[-9.408392,53.971475],[-9.408396,53.971616],[-9.407939,53.971622],[-9.407939,53.971604],[-9.407861,53.971603],[-9.407833,53.971603],[-9.407826,53.971603],[-9.407702,53.971603],[-9.407571,53.971604],[-9.407479,53.971617],[-9.407431,53.97162],[-9.407369,53.971613],[-9.407266,53.971614],[-9.40725,53.971613],[-9.407182,53.971609],[-9.40724,53.971613],[-9.407251,53.971847],[-9.407271,53.972254],[-9.407288,53.972608],[-9.407306,53.972881],[-9.407342,53.973253],[-9.407343,53.973383],[-9.407368,53.973648],[-9.407381,53.974005],[-9.407405,53.974542],[-9.407486,53.974626],[-9.407554,53.9747],[-9.407561,53.974749],[-9.407556,53.974844],[-9.407557,53.974862],[-9.407591,53.974861],[-9.407594,53.974951],[-9.407595,53.974952],[-9.407614,53.974983],[-9.407654,53.975122],[-9.407662,53.97513],[-9.408057,53.975125],[-9.408064,53.975328],[-9.412093,53.97528],[-9.412117,53.975993],[-9.412311,53.976002],[-9.412944,53.97602],[-9.413633,53.97605],[-9.414227,53.976078],[-9.41489,53.976112],[-9.415376,53.976138],[-9.415415,53.97614],[-9.418217,53.976107],[-9.418244,53.976893],[-9.418636,53.976888],[-9.418645,53.977158],[-9.418253,53.977162],[-9.418309,53.978801],[-9.417787,53.978807],[-9.417795,53.979055],[-9.417338,53.97906],[-9.417356,53.979599],[-9.416899,53.979605],[-9.416917,53.980144],[-9.41683,53.980145],[-9.416839,53.980414],[-9.417383,53.980408],[-9.417402,53.980947],[-9.416945,53.980952],[-9.416954,53.981222]],[[-9.441645,53.967717],[-9.441654,53.967987],[-9.441197,53.967992],[-9.441188,53.967723],[-9.441645,53.967717]],[[-9.425693,53.969256],[-9.425702,53.969525],[-9.424788,53.969536],[-9.424797,53.969805],[-9.423883,53.969816],[-9.423874,53.969547],[-9.424331,53.969541],[-9.424322,53.969272],[-9.424779,53.969266],[-9.42477,53.968997],[-9.426141,53.968981],[-9.42615,53.96925],[-9.425693,53.969256]],[[-9.430472,53.961919],[-9.430929,53.961914],[-9.43092,53.961644],[-9.431834,53.961634],[-9.431843,53.961903],[-9.431852,53.962173],[-9.430938,53.962183],[-9.430947,53.962453],[-9.43049,53.962458],[-9.430481,53.962189],[-9.430472,53.961919]],[[-9.430033,53.962464],[-9.43049,53.962458],[-9.430509,53.962997],[-9.430052,53.963003],[-9.430033,53.962464]],[[-9.429138,53.963014],[-9.430052,53.963003],[-9.430061,53.963272],[-9.429147,53.963283],[-9.429138,53.963014]],[[-9.428233,53.963294],[-9.429147,53.963283],[-9.429156,53.963553],[-9.428699,53.963558],[-9.428718,53.964097],[-9.42689,53.964119],[-9.426871,53.96358],[-9.428242,53.963564],[-9.428233,53.963294]],[[-9.427896,53.966803],[-9.42881,53.966792],[-9.428801,53.966523],[-9.430629,53.966501],[-9.430638,53.96677],[-9.429724,53.966781],[-9.429733,53.967051],[-9.429276,53.967056],[-9.429285,53.967326],[-9.428828,53.967331],[-9.428837,53.967601],[-9.427466,53.967617],[-9.427475,53.967886],[-9.426104,53.967903],[-9.426095,53.967633],[-9.426552,53.967628],[-9.426543,53.967358],[-9.427,53.967353],[-9.426991,53.967083],[-9.427905,53.967072],[-9.427896,53.966803]],[[-9.422137,53.972263],[-9.422147,53.972533],[-9.421689,53.972538],[-9.42168,53.972269],[-9.422137,53.972263]],[[-9.421416,53.977934],[-9.421425,53.978203],[-9.420968,53.978209],[-9.420959,53.977939],[-9.421416,53.977934]],[[-9.409356,53.972953],[-9.409813,53.972948],[-9.409804,53.972678],[-9.410261,53.972673],[-9.41027,53.972942],[-9.410279,53.973212],[-9.409365,53.973223],[-9.409356,53.972953]],[[-9.409383,53.973762],[-9.409392,53.974031],[-9.408935,53.974037],[-9.408926,53.973767],[-9.409383,53.973762]],[[-9.41828,53.979858],[-9.418289,53.980127],[-9.417832,53.980133],[-9.417822,53.979863],[-9.41828,53.979858]]],[[[-9.416812,53.979606],[-9.416899,53.979605],[-9.416881,53.979066],[-9.417338,53.97906],[-9.417329,53.978813],[-9.416785,53.978819],[-9.416812,53.979606]]],[[[-9.429424,53.971368],[-9.429881,53.971363],[-9.429872,53.971093],[-9.428957,53.971104],[-9.428976,53.971643],[-9.429433,53.971638],[-9.429424,53.971368]]],[[[-9.404924,53.971452],[-9.404957,53.971446],[-9.404904,53.971455],[-9.404924,53.971452]]],[[[-9.405143,53.971492],[-9.404957,53.971446],[-9.405072,53.971475],[-9.405143,53.971492]]],[[[-9.406815,53.971611],[-9.406906,53.971598],[-9.406868,53.971603],[-9.406815,53.971611]]],[[[-9.405633,53.971646],[-9.405465,53.971594],[-9.405523,53.971612],[-9.405633,53.971646]]],[[[-9.403155,53.971656],[-9.402959,53.971632],[-9.402961,53.971634],[-9.403008,53.971656],[-9.403063,53.971664],[-9.403154,53.971656],[-9.403155,53.971656]]],[[[-9.405728,53.971657],[-9.405776,53.971651],[-9.405759,53.971653],[-9.405728,53.971657]]],[[[-9.406673,53.971656],[-9.406571,53.971667],[-9.406618,53.971662],[-9.406673,53.971656]]],[[[-9.427166,53.972204],[-9.427157,53.971934],[-9.427147,53.971665],[-9.42669,53.97167],[-9.426699,53.97194],[-9.426709,53.972209],[-9.427166,53.972204]]],[[[-9.425346,53.972495],[-9.425356,53.972764],[-9.425813,53.972759],[-9.425822,53.973029],[-9.426279,53.973023],[-9.426261,53.972484],[-9.426252,53.972215],[-9.426242,53.971945],[-9.425328,53.971956],[-9.425337,53.972225],[-9.425346,53.972495]]],[[[-9.430952,53.975933],[-9.431409,53.975928],[-9.4314,53.975658],[-9.431857,53.975653],[-9.431839,53.975114],[-9.431829,53.974844],[-9.431372,53.97485],[-9.431363,53.97458],[-9.430906,53.974586],[-9.430915,53.974855],[-9.430924,53.975125],[-9.430467,53.97513],[-9.430476,53.9754],[-9.430495,53.975939],[-9.430038,53.975944],[-9.430047,53.976214],[-9.430961,53.976203],[-9.430952,53.975933]]],[[[-9.404218,53.975544],[-9.403788,53.975454],[-9.403721,53.975449],[-9.403619,53.975466],[-9.403575,53.975433],[-9.403529,53.975412],[-9.403201,53.975303],[-9.402863,53.975204],[-9.40304,53.975528],[-9.403038,53.975454],[-9.403495,53.975448],[-9.403501,53.975618],[-9.403714,53.975624],[-9.404493,53.975663],[-9.405394,53.975694],[-9.406011,53.975722],[-9.40601,53.975698],[-9.405803,53.975688],[-9.405233,53.975666],[-9.40502,53.975629],[-9.404854,53.975588],[-9.404775,53.975583],[-9.404453,53.975577],[-9.404218,53.975544]]],[[[-9.416363,53.98082],[-9.416445,53.98094],[-9.41649,53.981036],[-9.416487,53.980957],[-9.416476,53.98062],[-9.416193,53.980623],[-9.41626,53.980656],[-9.416363,53.98082]]]]}}]}
