{"type":"FeatureCollection","features":[{"type":"Feature","properties":{"source_fid":388024,"county":"Mayo","bog_geom_ha":112.66095822365853,"low15_pct":100.0,"low15_ha":112.66095822365853,"overlay_ha":112.66095822365853,"area_delta":0.0},"geometry":{"type":"MultiPolygon","coordinates":[[[[-9.167577,53.922695],[-9.167478,53.922656],[-9.167348,53.922917],[-9.167,53.923614],[-9.166951,53.923612],[-9.166861,53.92363],[-9.166846,53.923638],[-9.166795,53.923665],[-9.16671,53.923758],[-9.166669,53.923809],[-9.166608,53.923817],[-9.166231,53.92381],[-9.165548,53.923792],[-9.165148,53.923783],[-9.164512,53.923776],[-9.163611,53.923758],[-9.163108,53.923753],[-9.162542,53.923738],[-9.162288,53.923726],[-9.162207,53.923732],[-9.162188,53.923733],[-9.162173,53.923737],[-9.16212,53.923764],[-9.162029,53.923866],[-9.162019,53.92388],[-9.161823,53.924158],[-9.161761,53.924144],[-9.161472,53.924565],[-9.161124,53.925053],[-9.160816,53.925463],[-9.160529,53.925861],[-9.160476,53.925934],[-9.160377,53.926074],[-9.160246,53.926258],[-9.160279,53.926274],[-9.160313,53.926291],[-9.160344,53.926307],[-9.160369,53.926319],[-9.160403,53.926331],[-9.160933,53.92657],[-9.161007,53.926604],[-9.161424,53.926789],[-9.161843,53.92699],[-9.162019,53.927109],[-9.162046,53.927113],[-9.162975,53.927324],[-9.163802,53.927488],[-9.163953,53.927509],[-9.163947,53.927516],[-9.163927,53.927551],[-9.163348,53.928311],[-9.163043,53.928738],[-9.163,53.928797],[-9.162864,53.928987],[-9.162639,53.92929],[-9.162634,53.929297],[-9.162547,53.929293],[-9.161981,53.929282],[-9.161449,53.929187],[-9.161414,53.92918],[-9.160826,53.929498],[-9.160673,53.929632],[-9.160153,53.929949],[-9.159864,53.930135],[-9.159817,53.930207],[-9.159744,53.93032],[-9.159666,53.930504],[-9.159676,53.930618],[-9.159677,53.930627],[-9.159895,53.93102],[-9.159895,53.93102],[-9.16035,53.931505],[-9.160382,53.931554],[-9.160645,53.931736],[-9.16065,53.93174],[-9.160845,53.932039],[-9.161314,53.932255],[-9.161256,53.93229],[-9.16168,53.932459],[-9.162104,53.932643],[-9.162289,53.932691],[-9.162321,53.93269],[-9.16233,53.932696],[-9.162355,53.932699],[-9.162496,53.932758],[-9.16254,53.932766],[-9.16258,53.932774],[-9.162613,53.932799],[-9.162656,53.932805],[-9.163223,53.932958],[-9.163523,53.933016],[-9.163525,53.933016],[-9.163529,53.93301],[-9.163552,53.93302],[-9.164009,53.933016],[-9.164015,53.933255],[-9.164016,53.933256],[-9.164023,53.933248],[-9.164023,53.933248],[-9.164023,53.933248],[-9.164085,53.93329],[-9.164134,53.933323],[-9.164384,53.933491],[-9.164512,53.933617],[-9.164551,53.933656],[-9.164845,53.93397],[-9.165057,53.934176],[-9.165182,53.934276],[-9.16535,53.934397],[-9.16535,53.934397],[-9.165395,53.934404],[-9.165861,53.934734],[-9.16657,53.935229],[-9.1666,53.93525],[-9.16663,53.935271],[-9.166766,53.935404],[-9.16736,53.935672],[-9.167916,53.93591],[-9.168413,53.936123],[-9.168987,53.936622],[-9.169861,53.93735],[-9.169924,53.937392],[-9.170051,53.937449],[-9.170223,53.937448],[-9.170225,53.937528],[-9.170683,53.937736],[-9.171382,53.938049],[-9.171543,53.938105],[-9.171688,53.938127],[-9.171838,53.938135],[-9.171887,53.938134],[-9.17206,53.938127],[-9.172235,53.938098],[-9.172413,53.938019],[-9.172509,53.93798],[-9.172563,53.937909],[-9.172628,53.937852],[-9.172665,53.937764],[-9.172664,53.937753],[-9.172747,53.937621],[-9.1728,53.937505],[-9.172786,53.937259],[-9.172815,53.937242],[-9.172815,53.937228],[-9.17199,53.937163],[-9.171717,53.936976],[-9.171703,53.936967],[-9.171569,53.936863],[-9.171528,53.936831],[-9.171531,53.936828],[-9.171771,53.936363],[-9.171797,53.936268],[-9.171826,53.936167],[-9.171879,53.93581],[-9.171902,53.935664],[-9.17191,53.935615],[-9.171941,53.935424],[-9.17194,53.935379],[-9.171934,53.935246],[-9.171933,53.935214],[-9.171926,53.935185],[-9.171876,53.934974],[-9.171873,53.934969],[-9.171851,53.934932],[-9.171747,53.934753],[-9.171691,53.934657],[-9.171628,53.934553],[-9.171377,53.934137],[-9.171366,53.934119],[-9.171333,53.933996],[-9.171343,53.933858],[-9.171813,53.933213],[-9.171823,53.933215],[-9.172019,53.933262],[-9.172374,53.932788],[-9.172424,53.9327],[-9.172535,53.93245],[-9.172615,53.932269],[-9.172633,53.932229],[-9.172663,53.932111],[-9.172746,53.931785],[-9.172814,53.931611],[-9.172887,53.931538],[-9.173008,53.931468],[-9.173707,53.931156],[-9.173709,53.931193],[-9.173715,53.931298],[-9.173698,53.931655],[-9.173674,53.931745],[-9.173671,53.931894],[-9.173725,53.931935],[-9.174006,53.931992],[-9.174013,53.932021],[-9.174163,53.932058],[-9.174182,53.932012],[-9.174222,53.931963],[-9.174305,53.931898],[-9.174389,53.931857],[-9.174473,53.93186],[-9.174559,53.931863],[-9.174665,53.931892],[-9.17477,53.931945],[-9.174863,53.932028],[-9.174888,53.932072],[-9.174901,53.932187],[-9.174991,53.932141],[-9.175066,53.932026],[-9.175311,53.93195],[-9.175303,53.931903],[-9.175321,53.931904],[-9.175138,53.931701],[-9.174493,53.931008],[-9.174405,53.930902],[-9.174382,53.930875],[-9.174456,53.93085],[-9.174597,53.930812],[-9.17476,53.930767],[-9.175256,53.930835],[-9.175351,53.930847],[-9.175975,53.930929],[-9.176368,53.931081],[-9.177001,53.931329],[-9.177199,53.931418],[-9.177247,53.931392],[-9.177414,53.931277],[-9.177567,53.931145],[-9.177622,53.931098],[-9.177673,53.931021],[-9.177782,53.930755],[-9.177834,53.930629],[-9.177863,53.930507],[-9.177957,53.93012],[-9.177985,53.929912],[-9.178005,53.929764],[-9.178008,53.929741],[-9.177974,53.929437],[-9.177975,53.929321],[-9.177975,53.929267],[-9.177979,53.928941],[-9.177981,53.928792],[-9.177972,53.928583],[-9.17796,53.928291],[-9.177956,53.928179],[-9.178069,53.928134],[-9.178022,53.928124],[-9.177964,53.928104],[-9.177906,53.928028],[-9.177649,53.927686],[-9.177623,53.927664],[-9.177606,53.927642],[-9.177501,53.927514],[-9.177239,53.927196],[-9.177158,53.927092],[-9.17714,53.927098],[-9.177082,53.927026],[-9.177077,53.927007],[-9.175607,53.926314],[-9.175576,53.9263],[-9.17556,53.926292],[-9.174973,53.926008],[-9.174927,53.925986],[-9.1749,53.925973],[-9.174891,53.925969],[-9.174395,53.925726],[-9.173634,53.925401],[-9.17317,53.92518],[-9.173148,53.92517],[-9.173145,53.925169],[-9.173129,53.925162],[-9.172353,53.924798],[-9.171706,53.924499],[-9.171435,53.924378],[-9.171333,53.924333],[-9.171048,53.924209],[-9.171028,53.9242],[-9.171003,53.924194],[-9.170924,53.924148],[-9.170283,53.923854],[-9.170026,53.923736],[-9.169774,53.923616],[-9.169524,53.923497],[-9.169481,53.923476],[-9.169291,53.923399],[-9.169278,53.923393],[-9.168294,53.922974],[-9.168006,53.922864],[-9.167577,53.922695]]]]}}]}
