{"type":"FeatureCollection","features":[{"type":"Feature","properties":{"source_fid":389265,"county":"Mayo","bog_geom_ha":138.87665408729424,"low15_pct":74.333983105912921,"low15_ha":103.23254858730644,"overlay_ha":103.36732012884823,"area_delta":0.13477154154179516},"geometry":{"type":"MultiPolygon","coordinates":[[[[-10.047784,53.970936],[-10.047788,53.97096],[-10.047866,53.971014],[-10.047938,53.971076],[-10.047937,53.971169],[-10.047902,53.971258],[-10.047901,53.971259],[-10.047849,53.971366],[-10.047816,53.971481],[-10.047809,53.971492],[-10.047794,53.971519],[-10.047914,53.971517],[-10.047979,53.971507],[-10.048085,53.971379],[-10.048137,53.971292],[-10.048082,53.971265],[-10.047965,53.971262],[-10.047991,53.971194],[-10.047969,53.971045],[-10.047907,53.971],[-10.047992,53.97097],[-10.048083,53.970938],[-10.048172,53.971017],[-10.04795,53.970819],[-10.047807,53.970697],[-10.047571,53.970571],[-10.047307,53.970487],[-10.0471,53.970421],[-10.046953,53.970327],[-10.046865,53.970286],[-10.046701,53.970257],[-10.04663,53.970212],[-10.046604,53.970196],[-10.046471,53.970075],[-10.046459,53.970047],[-10.046381,53.970059],[-10.046388,53.970076],[-10.04646,53.97016],[-10.046602,53.970325],[-10.04652,53.970387],[-10.046946,53.970565],[-10.04716,53.970618],[-10.047194,53.970648],[-10.04735,53.970684],[-10.047619,53.970796],[-10.047775,53.970876],[-10.047786,53.970889],[-10.047781,53.970913],[-10.047784,53.970936]]],[[[-10.048867,53.970756],[-10.048775,53.970833],[-10.048866,53.970758],[-10.048867,53.970756]]],[[[-10.044736,53.97436],[-10.044689,53.974386],[-10.044775,53.974385],[-10.044953,53.974381],[-10.045248,53.974367],[-10.045706,53.974356],[-10.046542,53.97432],[-10.046588,53.97432],[-10.046669,53.9743],[-10.046802,53.97433],[-10.046882,53.974355],[-10.046789,53.9743],[-10.046678,53.974234],[-10.046114,53.974244],[-10.046103,53.974015],[-10.046028,53.974058],[-10.045866,53.974151],[-10.045658,53.974232],[-10.045425,53.97428],[-10.045313,53.974264],[-10.04517,53.97416],[-10.045111,53.974114],[-10.045005,53.97403],[-10.044904,53.973934],[-10.044834,53.973826],[-10.044802,53.97378],[-10.044786,53.973757],[-10.044775,53.973728],[-10.044703,53.973556],[-10.044657,53.973405],[-10.044598,53.973407],[-10.044601,53.97342],[-10.044621,53.973493],[-10.044668,53.973636],[-10.044716,53.973745],[-10.044821,53.973966],[-10.044826,53.973975],[-10.044902,53.974117],[-10.044847,53.974122],[-10.044773,53.974129],[-10.044775,53.974225],[-10.044736,53.97436]]],[[[-10.034312,53.96974],[-10.033404,53.969973],[-10.03217,53.970312],[-10.031049,53.970647],[-10.030189,53.970828],[-10.029297,53.970953],[-10.02759,53.971212],[-10.027596,53.971333],[-10.027635,53.971324],[-10.028619,53.971089],[-10.029266,53.973098],[-10.029279,53.973137],[-10.028696,53.973233],[-10.028702,53.973252],[-10.028932,53.974063],[-10.0291,53.97406],[-10.029087,53.973791],[-10.029074,53.973521],[-10.032273,53.973467],[-10.032286,53.973737],[-10.0332,53.973721],[-10.033213,53.97399],[-10.033226,53.97426],[-10.032312,53.974275],[-10.032299,53.974006],[-10.030014,53.974045],[-10.030027,53.974314],[-10.029113,53.974329],[-10.029126,53.974599],[-10.031411,53.97456],[-10.031424,53.97483],[-10.031438,53.975099],[-10.031451,53.975368],[-10.031087,53.975375],[-10.031948,53.975688],[-10.031598,53.97639],[-10.031934,53.976462],[-10.032021,53.976481],[-10.034221,53.976955],[-10.034213,53.977029],[-10.03417,53.977473],[-10.03413,53.977872],[-10.034099,53.978191],[-10.034057,53.978613],[-10.034034,53.978845],[-10.033496,53.97889],[-10.033491,53.978993],[-10.033487,53.979064],[-10.033539,53.979324],[-10.03357,53.979676],[-10.033591,53.979807],[-10.033667,53.980274],[-10.033729,53.980642],[-10.033772,53.980645],[-10.033761,53.980576],[-10.033757,53.980565],[-10.033716,53.980271],[-10.033702,53.980149],[-10.033742,53.980128],[-10.033744,53.980043],[-10.033755,53.98004],[-10.033763,53.98002],[-10.033771,53.980001],[-10.033728,53.97997],[-10.033716,53.979957],[-10.03391,53.979642],[-10.034147,53.979432],[-10.034589,53.97901],[-10.034828,53.979009],[-10.035129,53.979006],[-10.035042,53.979218],[-10.034938,53.979504],[-10.034883,53.979625],[-10.034862,53.979678],[-10.03535,53.979732],[-10.035814,53.979784],[-10.035862,53.979524],[-10.035762,53.979192],[-10.036178,53.978177],[-10.037292,53.978503],[-10.0367,53.979797],[-10.036732,53.980465],[-10.037022,53.980045],[-10.037094,53.979942],[-10.03711,53.979865],[-10.037112,53.979853],[-10.037143,53.979809],[-10.037184,53.979738],[-10.037557,53.979262],[-10.037577,53.979237],[-10.037799,53.979],[-10.037955,53.978835],[-10.038251,53.978937],[-10.038349,53.978958],[-10.038604,53.979012],[-10.039066,53.97911],[-10.039292,53.979147],[-10.039451,53.979148],[-10.039473,53.979083],[-10.039524,53.979004],[-10.039592,53.97897],[-10.039643,53.978947],[-10.039783,53.978916],[-10.040042,53.979071],[-10.040479,53.978885],[-10.040491,53.978822],[-10.040553,53.978785],[-10.040675,53.97872],[-10.040769,53.978662],[-10.041018,53.978587],[-10.041354,53.978464],[-10.041398,53.978395],[-10.041523,53.978318],[-10.041533,53.978335],[-10.041797,53.978265],[-10.041976,53.978175],[-10.042366,53.978037],[-10.04236,53.977979],[-10.042433,53.977891],[-10.042495,53.977752],[-10.042572,53.977697],[-10.042582,53.977689],[-10.042639,53.977647],[-10.042782,53.977618],[-10.043112,53.977623],[-10.043283,53.977595],[-10.043385,53.977565],[-10.043429,53.977565],[-10.043582,53.97751],[-10.043773,53.977414],[-10.043816,53.977388],[-10.043906,53.977333],[-10.043972,53.977292],[-10.044023,53.97726],[-10.04416,53.977155],[-10.044442,53.976939],[-10.044523,53.976854],[-10.044652,53.976719],[-10.044687,53.976685],[-10.044764,53.976706],[-10.044832,53.976625],[-10.04499,53.976467],[-10.045001,53.976455],[-10.045049,53.976405],[-10.045217,53.976231],[-10.045326,53.976114],[-10.045364,53.976083],[-10.045403,53.976052],[-10.045427,53.976061],[-10.045479,53.97602],[-10.045703,53.97594],[-10.045782,53.975914],[-10.045833,53.975911],[-10.045994,53.975902],[-10.046436,53.975987],[-10.046686,53.976033],[-10.046723,53.976039],[-10.04704,53.976088],[-10.047043,53.976089],[-10.047136,53.976099],[-10.047221,53.976076],[-10.047228,53.976074],[-10.047724,53.975983],[-10.047721,53.97593],[-10.047586,53.975951],[-10.04715,53.976023],[-10.046773,53.975976],[-10.046628,53.975966],[-10.046311,53.975898],[-10.046159,53.975846],[-10.046077,53.975818],[-10.046151,53.975794],[-10.04649,53.975727],[-10.046723,53.975672],[-10.047018,53.975596],[-10.047072,53.975541],[-10.047194,53.975431],[-10.047261,53.975371],[-10.047368,53.975304],[-10.047686,53.975202],[-10.047681,53.975116],[-10.047973,53.975111],[-10.048312,53.975003],[-10.048413,53.975067],[-10.048361,53.975034],[-10.048162,53.974904],[-10.047973,53.975004],[-10.047721,53.975026],[-10.047511,53.975065],[-10.047382,53.975095],[-10.047374,53.975116],[-10.04736,53.975152],[-10.047295,53.975199],[-10.047207,53.975247],[-10.047124,53.975271],[-10.047046,53.975278],[-10.047029,53.9753],[-10.047013,53.975392],[-10.046966,53.975475],[-10.046859,53.975545],[-10.046742,53.975578],[-10.046697,53.975598],[-10.046507,53.975636],[-10.046504,53.975636],[-10.046327,53.975662],[-10.046084,53.975703],[-10.04597,53.975731],[-10.045844,53.975761],[-10.045653,53.975759],[-10.045432,53.975858],[-10.045308,53.975878],[-10.045107,53.975879],[-10.045118,53.975901],[-10.045177,53.975952],[-10.045197,53.975965],[-10.04515,53.976003],[-10.044989,53.976146],[-10.044913,53.976212],[-10.044858,53.97626],[-10.044852,53.976282],[-10.044802,53.976316],[-10.044789,53.976339],[-10.044785,53.976395],[-10.044608,53.976604],[-10.044599,53.976613],[-10.044417,53.976787],[-10.044358,53.976857],[-10.044349,53.976867],[-10.044243,53.976949],[-10.044053,53.977096],[-10.043996,53.977127],[-10.043884,53.97717],[-10.043782,53.977228],[-10.043751,53.977244],[-10.043727,53.977255],[-10.043563,53.977275],[-10.04332,53.977296],[-10.04315,53.977306],[-10.043136,53.977303],[-10.042889,53.977251],[-10.04274,53.977228],[-10.042578,53.977243],[-10.042431,53.977259],[-10.042271,53.977208],[-10.042019,53.977144],[-10.041964,53.977097],[-10.042025,53.976897],[-10.042031,53.976877],[-10.042044,53.976792],[-10.042025,53.976793],[-10.041364,53.9767],[-10.04128,53.976777],[-10.041206,53.976848],[-10.041136,53.976912],[-10.041129,53.976918],[-10.041059,53.976989],[-10.040696,53.976932],[-10.040623,53.976921],[-10.040435,53.976891],[-10.040166,53.97679],[-10.039975,53.976711],[-10.03974,53.976543],[-10.039694,53.976452],[-10.039589,53.976389],[-10.039373,53.976321],[-10.039174,53.976288],[-10.039016,53.976298],[-10.038765,53.976362],[-10.038705,53.976369],[-10.038638,53.976379],[-10.038457,53.976406],[-10.038126,53.976456],[-10.037899,53.976296],[-10.037901,53.976338],[-10.03653,53.976361],[-10.036517,53.976092],[-10.035603,53.976107],[-10.03559,53.975838],[-10.035133,53.975845],[-10.03512,53.975576],[-10.034663,53.975584],[-10.03465,53.975314],[-10.034193,53.975322],[-10.03418,53.975053],[-10.034167,53.974783],[-10.03371,53.974791],[-10.033683,53.974252],[-10.034597,53.974237],[-10.034624,53.974775],[-10.035081,53.974768],[-10.035094,53.975037],[-10.035551,53.975029],[-10.035564,53.975299],[-10.036021,53.975291],[-10.036034,53.97556],[-10.036491,53.975553],[-10.036504,53.975822],[-10.037418,53.975807],[-10.037405,53.975537],[-10.038319,53.975522],[-10.038306,53.975252],[-10.040134,53.975221],[-10.040147,53.97549],[-10.040288,53.975455],[-10.040425,53.975417],[-10.040512,53.975392],[-10.040522,53.975389],[-10.040643,53.975347],[-10.040934,53.975246],[-10.041358,53.975179],[-10.041603,53.975145],[-10.041669,53.975135],[-10.04175,53.975109],[-10.041892,53.975062],[-10.041895,53.975061],[-10.042197,53.975055],[-10.042265,53.974928],[-10.042374,53.974887],[-10.042392,53.97488],[-10.042693,53.974796],[-10.043011,53.974739],[-10.043154,53.974741],[-10.043241,53.97476],[-10.043396,53.974714],[-10.043275,53.974521],[-10.043151,53.974522],[-10.043001,53.974532],[-10.04285,53.974542],[-10.042453,53.974572],[-10.042127,53.974609],[-10.042005,53.974679],[-10.041871,53.97475],[-10.041748,53.974814],[-10.041527,53.97491],[-10.041446,53.974938],[-10.041395,53.974954],[-10.041177,53.974821],[-10.041141,53.974794],[-10.040847,53.974642],[-10.040831,53.97463],[-10.040648,53.974529],[-10.040512,53.974448],[-10.040519,53.974446],[-10.040017,53.974161],[-10.039537,53.973929],[-10.039233,53.973792],[-10.039232,53.973778],[-10.039316,53.973761],[-10.0399,53.973646],[-10.040196,53.973552],[-10.040251,53.973534],[-10.0403,53.973538],[-10.040396,53.973572],[-10.04044,53.973569],[-10.040488,53.973556],[-10.040507,53.973528],[-10.040483,53.973518],[-10.04042,53.973493],[-10.040465,53.973434],[-10.040508,53.973405],[-10.040946,53.973072],[-10.040949,53.97307],[-10.041463,53.972688],[-10.041567,53.972722],[-10.041935,53.972894],[-10.042289,53.973082],[-10.042292,53.973085],[-10.04239,53.973152],[-10.042422,53.973174],[-10.042467,53.973168],[-10.042784,53.973055],[-10.042847,53.973038],[-10.042927,53.97303],[-10.043034,53.973002],[-10.043202,53.973001],[-10.043346,53.973022],[-10.043404,53.973061],[-10.043502,53.973157],[-10.043665,53.973304],[-10.043853,53.973278],[-10.043666,53.973078],[-10.043802,53.972953],[-10.043881,53.972856],[-10.043674,53.972794],[-10.04375,53.972714],[-10.043878,53.972565],[-10.044026,53.97236],[-10.044045,53.972338],[-10.044021,53.97233],[-10.043832,53.972567],[-10.043687,53.972746],[-10.04364,53.972787],[-10.043587,53.97277],[-10.043528,53.972751],[-10.043498,53.972787],[-10.043448,53.972826],[-10.043387,53.972886],[-10.043289,53.972918],[-10.043261,53.972912],[-10.043199,53.972922],[-10.043029,53.972925],[-10.042922,53.972926],[-10.042798,53.972929],[-10.042647,53.972958],[-10.042611,53.972976],[-10.042526,53.973051],[-10.042493,53.973062],[-10.042444,53.973055],[-10.042416,53.973029],[-10.042321,53.973003],[-10.042283,53.972938],[-10.042244,53.972926],[-10.042076,53.972867],[-10.041854,53.972746],[-10.041613,53.972616],[-10.041241,53.972576],[-10.040855,53.972534],[-10.040806,53.972599],[-10.040208,53.973374],[-10.039848,53.973235],[-10.039953,53.972903],[-10.039265,53.972828],[-10.039405,53.972375],[-10.039485,53.972384],[-10.039427,53.971674],[-10.040228,53.971651],[-10.040376,53.972159],[-10.040917,53.972158],[-10.040889,53.972088],[-10.040813,53.971897],[-10.040781,53.971811],[-10.04073,53.971675],[-10.040678,53.971517],[-10.040611,53.971312],[-10.04083,53.971258],[-10.041102,53.971189],[-10.041252,53.971148],[-10.041273,53.971112],[-10.041345,53.971101],[-10.04155,53.971062],[-10.041527,53.970994],[-10.041488,53.970995],[-10.04133,53.971012],[-10.041289,53.97102],[-10.041209,53.971113],[-10.041136,53.971131],[-10.041035,53.971131],[-10.040769,53.971],[-10.040711,53.971007],[-10.040677,53.971075],[-10.040632,53.971096],[-10.040543,53.971066],[-10.040431,53.971061],[-10.04034,53.971093],[-10.040249,53.971122],[-10.040169,53.971113],[-10.040156,53.971112],[-10.040058,53.971085],[-10.039966,53.971111],[-10.039892,53.971156],[-10.039837,53.971199],[-10.039783,53.971253],[-10.039727,53.971321],[-10.039661,53.971371],[-10.039584,53.971408],[-10.039398,53.971461],[-10.039224,53.971507],[-10.039112,53.971522],[-10.038827,53.971525],[-10.03872,53.971567],[-10.038622,53.971583],[-10.038575,53.971562],[-10.038413,53.971517],[-10.03833,53.971523],[-10.038298,53.971523],[-10.03815,53.971557],[-10.037918,53.9716],[-10.037771,53.971586],[-10.037531,53.971566],[-10.037396,53.971548],[-10.03736,53.971544],[-10.037251,53.971498],[-10.037016,53.971348],[-10.036932,53.971189],[-10.036929,53.971181],[-10.03692,53.971152],[-10.036914,53.971135],[-10.03692,53.971115],[-10.036942,53.971045],[-10.036933,53.970971],[-10.036868,53.970884],[-10.036775,53.970823],[-10.03663,53.970793],[-10.036488,53.970754],[-10.036402,53.970699],[-10.036336,53.970651],[-10.036238,53.970576],[-10.036204,53.970495],[-10.036112,53.970454],[-10.03583,53.970333],[-10.035666,53.970209],[-10.035515,53.97006],[-10.035377,53.969856],[-10.035263,53.969773],[-10.035211,53.969625],[-10.034964,53.969561],[-10.034911,53.96958],[-10.034757,53.969634],[-10.034312,53.96974]],[[-10.038931,53.972325],[-10.039139,53.972347],[-10.038886,53.973047],[-10.038156,53.972977],[-10.038419,53.972279],[-10.038931,53.972325]],[[-10.036113,53.977177],[-10.0361,53.976908],[-10.035643,53.976915],[-10.035629,53.976646],[-10.036544,53.97663],[-10.036557,53.9769],[-10.037471,53.976884],[-10.037484,53.977154],[-10.036113,53.977177]]],[[[-10.039497,53.975756],[-10.03966,53.975677],[-10.039705,53.975661],[-10.03977,53.975638],[-10.04013,53.975494],[-10.040138,53.975492],[-10.040142,53.975491],[-10.039233,53.975506],[-10.039246,53.975776],[-10.038789,53.975783],[-10.038798,53.975961],[-10.039171,53.975856],[-10.039497,53.975756]]],[[[-10.038075,53.976129],[-10.038303,53.976061],[-10.037888,53.976068],[-10.037894,53.976188],[-10.038075,53.976129]]],[[[-10.009919,53.968449],[-10.009551,53.968362],[-10.009035,53.96827],[-10.008477,53.968158],[-10.008177,53.968077],[-10.008141,53.968115],[-10.00801,53.968254],[-10.007808,53.968501],[-10.007716,53.968601],[-10.007341,53.969096],[-10.006363,53.970106],[-10.006288,53.970177],[-10.006025,53.970427],[-10.005654,53.970779],[-10.004816,53.971261],[-10.004079,53.971686],[-10.003088,53.972207],[-10.00259,53.972531],[-10.00318,53.972985],[-10.003675,53.973309],[-10.003782,53.973406],[-10.003913,53.973404],[-10.0039,53.973135],[-10.004357,53.973127],[-10.004344,53.972858],[-10.004801,53.97285],[-10.004788,53.972581],[-10.005245,53.972573],[-10.005233,53.972304],[-10.00569,53.972296],[-10.005677,53.972027],[-10.006134,53.972019],[-10.006121,53.97175],[-10.006108,53.97148],[-10.006095,53.971211],[-10.006552,53.971203],[-10.006539,53.970934],[-10.006526,53.970664],[-10.006513,53.970395],[-10.007427,53.97038],[-10.00744,53.970649],[-10.007897,53.970641],[-10.007884,53.970372],[-10.007871,53.970103],[-10.007414,53.97011],[-10.007401,53.969841],[-10.008772,53.969818],[-10.008759,53.969549],[-10.009216,53.969541],[-10.009203,53.969271],[-10.00966,53.969264],[-10.009647,53.968994],[-10.010104,53.968987],[-10.010081,53.968505],[-10.009919,53.968449]]],[[[-10.027343,53.971393],[-10.027141,53.971397],[-10.027144,53.971441],[-10.027343,53.971393]]],[[[-10.019412,53.972336],[-10.019869,53.972328],[-10.019843,53.971789],[-10.019386,53.971797],[-10.019412,53.972336]]],[[[-10.015354,53.969664],[-10.015268,53.969586],[-10.015118,53.96951],[-10.014999,53.969424],[-10.014885,53.969321],[-10.014758,53.969224],[-10.014689,53.96918],[-10.014686,53.96918],[-10.014699,53.969449],[-10.014712,53.969718],[-10.014725,53.969988],[-10.014738,53.970257],[-10.014281,53.970265],[-10.014294,53.970534],[-10.014307,53.970804],[-10.01385,53.970811],[-10.013863,53.971081],[-10.012949,53.971096],[-10.012936,53.970827],[-10.012479,53.970834],[-10.012492,53.971104],[-10.012035,53.971111],[-10.012048,53.971381],[-10.011591,53.971389],[-10.011604,53.971658],[-10.011147,53.971666],[-10.01116,53.971935],[-10.010703,53.971943],[-10.010716,53.972212],[-10.010259,53.97222],[-10.010272,53.972489],[-10.009815,53.972497],[-10.009828,53.972766],[-10.009371,53.972774],[-10.009384,53.973043],[-10.009397,53.973313],[-10.009423,53.973852],[-10.008966,53.973859],[-10.008979,53.974129],[-10.008522,53.974136],[-10.008535,53.974406],[-10.008078,53.974413],[-10.008091,53.974683],[-10.007634,53.97469],[-10.007647,53.97496],[-10.00719,53.974967],[-10.007203,53.975237],[-10.006854,53.975243],[-10.00686,53.975247],[-10.007373,53.975547],[-10.008037,53.976051],[-10.008387,53.976301],[-10.008969,53.976709],[-10.009334,53.976938],[-10.009746,53.97723],[-10.010031,53.977436],[-10.010184,53.977548],[-10.010602,53.977838],[-10.010997,53.978113],[-10.011314,53.978342],[-10.011575,53.978216],[-10.011769,53.977407],[-10.012036,53.976295],[-10.013864,53.975431],[-10.014083,53.975327],[-10.013815,53.97462],[-10.0146,53.974433],[-10.015174,53.974297],[-10.01574,53.974162],[-10.01627,53.974036],[-10.016808,53.973909],[-10.017404,53.973767],[-10.018429,53.973523],[-10.019312,53.973314],[-10.020139,53.973117],[-10.020402,53.973054],[-10.020921,53.97293],[-10.021617,53.972763],[-10.02244,53.972566],[-10.022493,53.972554],[-10.021253,53.972575],[-10.021266,53.972844],[-10.020352,53.972859],[-10.020339,53.97259],[-10.018968,53.972613],[-10.018955,53.972344],[-10.018929,53.971805],[-10.018916,53.971535],[-10.018459,53.971543],[-10.018446,53.971274],[-10.01936,53.971258],[-10.019341,53.970876],[-10.019197,53.970818],[-10.018922,53.970726],[-10.018877,53.970727],[-10.018876,53.970711],[-10.018688,53.970648],[-10.018279,53.97052],[-10.01767,53.970361],[-10.01682,53.970122],[-10.016461,53.970009],[-10.01623,53.969917],[-10.01592,53.96985],[-10.015741,53.969797],[-10.015629,53.969764],[-10.015652,53.970242],[-10.015195,53.97025],[-10.015169,53.969711],[-10.015457,53.969706],[-10.015354,53.969664]],[[-10.010807,53.974098],[-10.010794,53.973829],[-10.011251,53.973821],[-10.011238,53.973552],[-10.012152,53.973536],[-10.012165,53.973806],[-10.012622,53.973798],[-10.012635,53.974067],[-10.010807,53.974098]]],[[[-10.028861,53.976852],[-10.029007,53.976833],[-10.029496,53.976433],[-10.02991,53.976096],[-10.030001,53.976029],[-10.030962,53.975329],[-10.030992,53.97534],[-10.030981,53.975107],[-10.029153,53.975138],[-10.029166,53.975407],[-10.028709,53.975415],[-10.028722,53.975684],[-10.028265,53.975692],[-10.028278,53.975961],[-10.027364,53.975977],[-10.027351,53.975707],[-10.027808,53.9757],[-10.027795,53.97543],[-10.028252,53.975423],[-10.028239,53.975153],[-10.028696,53.975145],[-10.028682,53.974876],[-10.029139,53.974868],[-10.029126,53.974599],[-10.028869,53.974603],[-10.028811,53.974645],[-10.028731,53.97468],[-10.028452,53.974757],[-10.028373,53.974792],[-10.028328,53.97484],[-10.02833,53.974924],[-10.028285,53.974992],[-10.028237,53.975016],[-10.028012,53.975067],[-10.027828,53.975098],[-10.027483,53.975197],[-10.027478,53.975209],[-10.02748,53.975237],[-10.027416,53.975301],[-10.02734,53.975324],[-10.027156,53.975398],[-10.026877,53.975379],[-10.026565,53.975357],[-10.026337,53.975417],[-10.02612,53.975474],[-10.025898,53.975532],[-10.02576,53.97548],[-10.025572,53.97541],[-10.025577,53.975683],[-10.025268,53.975798],[-10.025132,53.97574],[-10.025025,53.975642],[-10.024904,53.975769],[-10.025075,53.975967],[-10.024973,53.976054],[-10.024717,53.97607],[-10.024661,53.976051],[-10.024551,53.976006],[-10.024478,53.975991],[-10.024361,53.975984],[-10.024293,53.975993],[-10.024279,53.976],[-10.024184,53.976052],[-10.024028,53.976101],[-10.023953,53.976112],[-10.023817,53.976123],[-10.023701,53.976128],[-10.023667,53.976176],[-10.02365,53.976187],[-10.023547,53.976157],[-10.023212,53.976319],[-10.023021,53.976421],[-10.023023,53.976461],[-10.023118,53.976515],[-10.023095,53.976551],[-10.022992,53.976584],[-10.022943,53.976616],[-10.022874,53.976663],[-10.022853,53.976712],[-10.022691,53.976772],[-10.022551,53.976807],[-10.022522,53.976823],[-10.023496,53.97721],[-10.024889,53.977764],[-10.02533,53.977226],[-10.025451,53.977177],[-10.025454,53.977176],[-10.025526,53.977147],[-10.026383,53.976806],[-10.026976,53.976556],[-10.028119,53.976077],[-10.028659,53.976879],[-10.028785,53.976862],[-10.028861,53.976852]],[[-10.026907,53.975984],[-10.027364,53.975977],[-10.027377,53.976246],[-10.02692,53.976254],[-10.026907,53.975984]]]]}}]}
