{"type":"FeatureCollection","features":[{"type":"Feature","properties":{"source_fid":389244,"county":"Mayo","bog_geom_ha":202.74009562169456,"low15_pct":100.0,"low15_ha":202.74009562169456,"overlay_ha":202.74009562169456,"area_delta":0.0},"geometry":{"type":"MultiPolygon","coordinates":[[[[-9.534241,54.170715],[-9.534307,54.170627],[-9.534389,54.170517],[-9.534464,54.170335],[-9.534453,54.170239],[-9.534452,54.170235],[-9.534429,54.170182],[-9.534302,54.170043],[-9.534284,54.170025],[-9.534234,54.169882],[-9.534305,54.169718],[-9.534386,54.169547],[-9.534418,54.169481],[-9.534474,54.169423],[-9.534576,54.169318],[-9.534772,54.169258],[-9.534776,54.169257],[-9.5349,54.16926],[-9.534961,54.169261],[-9.535151,54.169304],[-9.535256,54.169328],[-9.535719,54.169426],[-9.535799,54.169416],[-9.535881,54.169405],[-9.536043,54.169369],[-9.536068,54.169363],[-9.536078,54.16934],[-9.536094,54.169301],[-9.536193,54.169155],[-9.536221,54.169111],[-9.536388,54.168846],[-9.53661,54.168675],[-9.537026,54.168389],[-9.537389,54.168125],[-9.537521,54.167916],[-9.537659,54.167653],[-9.537869,54.167303],[-9.538004,54.167181],[-9.5381,54.167094],[-9.5381,54.167094],[-9.5381,54.167094],[-9.538402,54.166924],[-9.538524,54.166891],[-9.538636,54.166861],[-9.538698,54.166864],[-9.538763,54.166868],[-9.538912,54.166867],[-9.539015,54.166864],[-9.539031,54.166851],[-9.539029,54.166841],[-9.539028,54.166835],[-9.539027,54.166834],[-9.539005,54.166815],[-9.538978,54.166797],[-9.538977,54.166796],[-9.538977,54.166796],[-9.538977,54.166796],[-9.538976,54.166796],[-9.538949,54.166777],[-9.538946,54.166775],[-9.538934,54.166764],[-9.538932,54.166752],[-9.538932,54.166746],[-9.538932,54.166746],[-9.538932,54.166746],[-9.538944,54.166747],[-9.538949,54.166747],[-9.53898,54.166756],[-9.53902,54.16677],[-9.539056,54.166791],[-9.539082,54.166808],[-9.539092,54.166825],[-9.539098,54.166838],[-9.539107,54.166862],[-9.539108,54.166862],[-9.539171,54.16686],[-9.5394,54.166816],[-9.539497,54.166771],[-9.539509,54.166761],[-9.539574,54.166708],[-9.539725,54.166601],[-9.539826,54.166528],[-9.539898,54.166435],[-9.539953,54.166364],[-9.54002,54.166245],[-9.540013,54.166158],[-9.539975,54.166124],[-9.539925,54.166081],[-9.539904,54.166062],[-9.539625,54.165969],[-9.539511,54.165833],[-9.539554,54.165731],[-9.539588,54.16565],[-9.539646,54.16561],[-9.539803,54.165504],[-9.54011,54.165492],[-9.54012,54.165493],[-9.540341,54.165511],[-9.540421,54.165516],[-9.540471,54.165519],[-9.54062,54.165503],[-9.540735,54.165462],[-9.540878,54.165444],[-9.540888,54.165439],[-9.540982,54.16539],[-9.541071,54.165307],[-9.541096,54.165284],[-9.541158,54.165255],[-9.541249,54.165214],[-9.541305,54.165164],[-9.541351,54.165123],[-9.541431,54.16498],[-9.541496,54.164866],[-9.541498,54.164834],[-9.541503,54.164758],[-9.541483,54.164661],[-9.541424,54.164602],[-9.541399,54.164577],[-9.541235,54.164444],[-9.541183,54.164337],[-9.541165,54.1643],[-9.541165,54.1643],[-9.541165,54.1643],[-9.541219,54.164173],[-9.541382,54.164005],[-9.541412,54.163974],[-9.541476,54.163916],[-9.541476,54.163916],[-9.541476,54.163916],[-9.541619,54.163876],[-9.541863,54.163933],[-9.541939,54.16395],[-9.542211,54.163954],[-9.542438,54.163891],[-9.5425,54.163851],[-9.542612,54.163779],[-9.542742,54.163601],[-9.542823,54.163436],[-9.542812,54.163362],[-9.542804,54.163313],[-9.542797,54.163284],[-9.542786,54.163237],[-9.542575,54.163131],[-9.542427,54.163019],[-9.542453,54.162831],[-9.5425,54.162802],[-9.542538,54.162777],[-9.542858,54.16262],[-9.542963,54.16256],[-9.54315,54.162452],[-9.543384,54.162357],[-9.543971,54.162249],[-9.544004,54.162256],[-9.544046,54.162265],[-9.544198,54.162147],[-9.544213,54.162136],[-9.54422,54.162128],[-9.544275,54.162065],[-9.544298,54.162053],[-9.544522,54.161932],[-9.544699,54.161771],[-9.545161,54.16163],[-9.545415,54.161526],[-9.545433,54.161485],[-9.545506,54.161326],[-9.545444,54.161173],[-9.545421,54.161117],[-9.545395,54.161046],[-9.545338,54.160887],[-9.54534,54.160855],[-9.545351,54.160704],[-9.545474,54.160527],[-9.545474,54.160527],[-9.545474,54.160527],[-9.545407,54.160484],[-9.545377,54.160299],[-9.545142,54.159993],[-9.544931,54.159891],[-9.544454,54.159796],[-9.544144,54.159799],[-9.543722,54.15966],[-9.543555,54.159688],[-9.542864,54.16002],[-9.54125,54.160736],[-9.539535,54.161534],[-9.539413,54.161594],[-9.539294,54.161652],[-9.53929,54.161654],[-9.53847,54.162054],[-9.538359,54.162149],[-9.537624,54.162848],[-9.536155,54.164167],[-9.536074,54.164239],[-9.535513,54.16476],[-9.534758,54.16549],[-9.534401,54.165862],[-9.53406,54.166096],[-9.532895,54.166846],[-9.531857,54.167514],[-9.531683,54.167623],[-9.531449,54.167768],[-9.531261,54.167885],[-9.531118,54.167973],[-9.530909,54.168103],[-9.529346,54.169074],[-9.529338,54.169079],[-9.529252,54.169133],[-9.529244,54.169137],[-9.528722,54.169462],[-9.52871,54.169469],[-9.528629,54.16952],[-9.528619,54.169526],[-9.528511,54.169592],[-9.525589,54.169438],[-9.525283,54.169422],[-9.51638,54.168953],[-9.515476,54.168964],[-9.514899,54.168971],[-9.514516,54.168975],[-9.513807,54.168984],[-9.510169,54.169028],[-9.510149,54.169028],[-9.510061,54.169029],[-9.510056,54.169029],[-9.508789,54.169045],[-9.508692,54.169046],[-9.508461,54.169049],[-9.508265,54.169095],[-9.508244,54.169094],[-9.50816,54.169089],[-9.50814,54.169088],[-9.508026,54.169082],[-9.508009,54.169081],[-9.507939,54.169077],[-9.505942,54.169097],[-9.495267,54.167131],[-9.494267,54.166618],[-9.49023,54.167875],[-9.490209,54.167882],[-9.487093,54.168853],[-9.48706,54.168864],[-9.487041,54.16887],[-9.487041,54.16887],[-9.487396,54.169087],[-9.487627,54.169228],[-9.488328,54.169608],[-9.488164,54.169693],[-9.488207,54.169718],[-9.487879,54.169934],[-9.487913,54.170068],[-9.487973,54.17018],[-9.488063,54.170254],[-9.488332,54.170396],[-9.488412,54.170414],[-9.489248,54.170582],[-9.489248,54.170582],[-9.489568,54.17071],[-9.489668,54.17083],[-9.489691,54.170837],[-9.489794,54.170826],[-9.489997,54.170841],[-9.490066,54.170837],[-9.490115,54.170813],[-9.490153,54.170815],[-9.490202,54.17082],[-9.490272,54.170844],[-9.490563,54.170887],[-9.490648,54.170993],[-9.490822,54.171063],[-9.490858,54.171062],[-9.490987,54.171039],[-9.491072,54.171088],[-9.491267,54.171129],[-9.491379,54.171107],[-9.491581,54.17116],[-9.492007,54.171394],[-9.492015,54.171429],[-9.492111,54.171443],[-9.492131,54.171518],[-9.492257,54.171567],[-9.492302,54.171552],[-9.492421,54.171599],[-9.49251,54.171596],[-9.492738,54.171639],[-9.492757,54.171661],[-9.492835,54.171705],[-9.492893,54.171713],[-9.492914,54.171734],[-9.492955,54.17174],[-9.493008,54.171777],[-9.493037,54.171788],[-9.493083,54.171786],[-9.493144,54.171777],[-9.493225,54.171812],[-9.493242,54.171846],[-9.493185,54.171958],[-9.493188,54.171962],[-9.493281,54.171991],[-9.493317,54.172018],[-9.493407,54.172044],[-9.493468,54.172124],[-9.49383,54.172234],[-9.493868,54.172288],[-9.493874,54.172437],[-9.493889,54.172446],[-9.494145,54.172509],[-9.494189,54.172529],[-9.494266,54.17265],[-9.494301,54.17267],[-9.494578,54.172781],[-9.494599,54.172808],[-9.494622,54.172925],[-9.494672,54.172948],[-9.494737,54.173079],[-9.4948,54.173124],[-9.494829,54.173247],[-9.494929,54.1733],[-9.495,54.173313],[-9.495067,54.173353],[-9.4951,54.17341],[-9.495409,54.173553],[-9.495551,54.173655],[-9.495597,54.173674],[-9.495695,54.173673],[-9.49582,54.173751],[-9.496034,54.173805],[-9.496089,54.17384],[-9.496214,54.173976],[-9.496319,54.174009],[-9.496554,54.174054],[-9.496704,54.174115],[-9.497002,54.174306],[-9.497048,54.174323],[-9.497089,54.174326],[-9.497185,54.174319],[-9.497257,54.174337],[-9.497402,54.174394],[-9.497423,54.174419],[-9.497478,54.174544],[-9.497534,54.174586],[-9.497606,54.174601],[-9.49771,54.174602],[-9.49798,54.174585],[-9.498049,54.17459],[-9.498119,54.174615],[-9.498136,54.174643],[-9.498161,54.174685],[-9.498209,54.174685],[-9.498313,54.174721],[-9.498579,54.174904],[-9.498608,54.174912],[-9.49865,54.174907],[-9.498724,54.17492],[-9.498749,54.174942],[-9.49876,54.174986],[-9.498832,54.175038],[-9.498878,54.175032],[-9.498975,54.175082],[-9.49896,54.17515],[-9.499074,54.175256],[-9.499112,54.175265],[-9.499158,54.175265],[-9.499411,54.175245],[-9.499475,54.175257],[-9.499992,54.175448],[-9.50005,54.175474],[-9.500114,54.175532],[-9.500135,54.175542],[-9.500205,54.175562],[-9.500264,54.175551],[-9.500462,54.175584],[-9.500502,54.175605],[-9.501036,54.175642],[-9.501179,54.175734],[-9.501168,54.175798],[-9.501194,54.175846],[-9.501252,54.175855],[-9.501283,54.175834],[-9.501358,54.175839],[-9.501462,54.175908],[-9.501463,54.17594],[-9.50151,54.175926],[-9.501662,54.176016],[-9.501693,54.176063],[-9.501715,54.176104],[-9.501682,54.176136],[-9.501678,54.176175],[-9.501634,54.176205],[-9.501638,54.176223],[-9.50177,54.176244],[-9.501831,54.176232],[-9.501926,54.17617],[-9.501983,54.176167],[-9.502036,54.176138],[-9.502359,54.176154],[-9.50256,54.176211],[-9.502658,54.176217],[-9.502738,54.176201],[-9.502895,54.176119],[-9.502976,54.176104],[-9.503096,54.176108],[-9.503144,54.176135],[-9.503138,54.176177],[-9.503166,54.1762],[-9.503263,54.176213],[-9.503273,54.176214],[-9.503831,54.17627],[-9.503906,54.176353],[-9.50414,54.176415],[-9.504246,54.176418],[-9.504304,54.176401],[-9.504363,54.176262],[-9.504436,54.176244],[-9.504621,54.176216],[-9.504783,54.176053],[-9.504802,54.176023],[-9.504838,54.175884],[-9.504879,54.175856],[-9.50496,54.175829],[-9.505089,54.17582],[-9.505146,54.175831],[-9.505215,54.175792],[-9.505301,54.175788],[-9.505328,54.175769],[-9.505341,54.175684],[-9.505368,54.175654],[-9.505479,54.175646],[-9.505553,54.17559],[-9.505599,54.175567],[-9.505612,54.175564],[-9.505645,54.175557],[-9.505688,54.175539],[-9.50574,54.17555],[-9.505799,54.175554],[-9.505873,54.175547],[-9.506013,54.175548],[-9.506139,54.175506],[-9.506209,54.175457],[-9.506234,54.175421],[-9.506279,54.175383],[-9.506289,54.175279],[-9.506347,54.175243],[-9.506404,54.175179],[-9.506449,54.17514],[-9.506449,54.17514],[-9.506449,54.17514],[-9.506666,54.175095],[-9.50678,54.175025],[-9.506809,54.174978],[-9.506809,54.174978],[-9.506809,54.174978],[-9.506869,54.174945],[-9.506872,54.174845],[-9.506906,54.174761],[-9.506987,54.174708],[-9.506987,54.174708],[-9.506987,54.174708],[-9.507199,54.174671],[-9.507264,54.174642],[-9.50724,54.174543],[-9.507065,54.174337],[-9.507071,54.174263],[-9.507151,54.174209],[-9.507151,54.174209],[-9.507151,54.174209],[-9.507414,54.174097],[-9.507426,54.174047],[-9.507426,54.174047],[-9.507426,54.174047],[-9.507586,54.173955],[-9.507585,54.173926],[-9.507582,54.17388],[-9.507652,54.173811],[-9.507652,54.173811],[-9.507652,54.173811],[-9.507725,54.17379],[-9.507821,54.173789],[-9.507868,54.173765],[-9.507868,54.173765],[-9.507869,54.173764],[-9.50799,54.173636],[-9.507987,54.173529],[-9.507981,54.173485],[-9.508054,54.173425],[-9.508154,54.173245],[-9.508154,54.173245],[-9.508154,54.173245],[-9.508266,54.17322],[-9.508419,54.173208],[-9.508623,54.173207],[-9.508658,54.173194],[-9.50881,54.173093],[-9.50881,54.173093],[-9.50881,54.173093],[-9.509152,54.172993],[-9.509225,54.172954],[-9.509238,54.172932],[-9.509241,54.172927],[-9.509281,54.17283],[-9.509281,54.17283],[-9.509281,54.17283],[-9.509414,54.17276],[-9.509526,54.172688],[-9.509526,54.172688],[-9.509526,54.172688],[-9.509758,54.172629],[-9.509928,54.172637],[-9.510011,54.172615],[-9.510131,54.172545],[-9.510236,54.172533],[-9.510418,54.172573],[-9.510445,54.172617],[-9.51048,54.172657],[-9.510532,54.172676],[-9.510605,54.172658],[-9.510817,54.172576],[-9.510843,54.172521],[-9.510876,54.172468],[-9.510913,54.172437],[-9.510913,54.172437],[-9.510913,54.172437],[-9.511055,54.172443],[-9.511086,54.172431],[-9.511115,54.172369],[-9.511115,54.172369],[-9.511115,54.172369],[-9.511181,54.172342],[-9.511377,54.172351],[-9.511667,54.172432],[-9.51171,54.172458],[-9.512041,54.172534],[-9.512149,54.172616],[-9.51244,54.172715],[-9.512616,54.172732],[-9.512718,54.172739],[-9.513501,54.172906],[-9.514358,54.173285],[-9.514469,54.173321],[-9.51471,54.173363],[-9.514906,54.173386],[-9.51542,54.173463],[-9.515537,54.173504],[-9.515664,54.173543],[-9.515779,54.173578],[-9.515824,54.173595],[-9.51595,54.17358],[-9.516024,54.173582],[-9.516124,54.17363],[-9.5162,54.173706],[-9.516484,54.173809],[-9.51653,54.173857],[-9.516639,54.17391],[-9.516713,54.17392],[-9.51675,54.173896],[-9.51682,54.173883],[-9.516886,54.173889],[-9.51696,54.173939],[-9.517109,54.174001],[-9.517219,54.174046],[-9.517623,54.174135],[-9.517715,54.17426],[-9.517784,54.174281],[-9.51783,54.174316],[-9.517879,54.17432],[-9.517934,54.17431],[-9.518,54.174307],[-9.518096,54.174335],[-9.518191,54.174349],[-9.518477,54.174379],[-9.518545,54.174389],[-9.518607,54.174469],[-9.51862,54.174515],[-9.518617,54.174574],[-9.518617,54.174616],[-9.518655,54.174753],[-9.518691,54.174751],[-9.518779,54.174754],[-9.518842,54.174779],[-9.519023,54.174854],[-9.519177,54.174874],[-9.519302,54.174919],[-9.519379,54.174981],[-9.519488,54.175057],[-9.5196,54.175067],[-9.519696,54.175042],[-9.519754,54.175057],[-9.519865,54.17511],[-9.520026,54.175111],[-9.5202,54.175134],[-9.520292,54.175119],[-9.52034,54.175095],[-9.520522,54.175033],[-9.52059,54.174965],[-9.520653,54.17495],[-9.520752,54.174952],[-9.520862,54.174924],[-9.521003,54.174957],[-9.521075,54.174948],[-9.521279,54.174965],[-9.521334,54.174958],[-9.521452,54.174983],[-9.521524,54.174976],[-9.521601,54.174944],[-9.521873,54.174709],[-9.521873,54.174709],[-9.521873,54.174709],[-9.521931,54.174696],[-9.522139,54.174689],[-9.522467,54.17467],[-9.522593,54.174639],[-9.522674,54.174593],[-9.522742,54.174589],[-9.522865,54.174554],[-9.522942,54.174551],[-9.523067,54.174564],[-9.52321,54.174546],[-9.523242,54.174513],[-9.523242,54.174513],[-9.523242,54.174513],[-9.523291,54.174491],[-9.523452,54.174481],[-9.523495,54.174466],[-9.523679,54.174468],[-9.523967,54.174541],[-9.524046,54.174552],[-9.524141,54.174528],[-9.524209,54.174494],[-9.524262,54.174413],[-9.524262,54.174413],[-9.524262,54.174413],[-9.52432,54.174384],[-9.524429,54.174346],[-9.524493,54.174303],[-9.524563,54.174105],[-9.524606,54.174049],[-9.52465,54.17402],[-9.52465,54.17402],[-9.52465,54.17402],[-9.524664,54.174015],[-9.524715,54.174012],[-9.524769,54.173998],[-9.524885,54.173871],[-9.52493,54.17384],[-9.524985,54.173759],[-9.524985,54.173759],[-9.524985,54.173759],[-9.525045,54.17374],[-9.525082,54.173681],[-9.525099,54.173627],[-9.525179,54.173558],[-9.525179,54.173558],[-9.525179,54.173558],[-9.525253,54.17355],[-9.525367,54.173541],[-9.52549,54.173501],[-9.525603,54.173442],[-9.525845,54.173391],[-9.526297,54.173305],[-9.526565,54.173299],[-9.526696,54.173274],[-9.526727,54.173213],[-9.526785,54.173135],[-9.526948,54.172949],[-9.526948,54.172949],[-9.526948,54.172949],[-9.527071,54.172883],[-9.527158,54.172861],[-9.527244,54.172871],[-9.527452,54.172942],[-9.52751,54.17295],[-9.527769,54.172954],[-9.528238,54.173023],[-9.528369,54.173083],[-9.528507,54.173177],[-9.528552,54.173195],[-9.528616,54.173205],[-9.528734,54.173199],[-9.528816,54.173158],[-9.528836,54.173073],[-9.5289,54.172968],[-9.529095,54.172763],[-9.529204,54.172651],[-9.529344,54.172575],[-9.529519,54.172546],[-9.52958,54.172583],[-9.530023,54.172656],[-9.530347,54.17269],[-9.530463,54.172689],[-9.530586,54.172666],[-9.530687,54.17262],[-9.530705,54.172547],[-9.530717,54.172435],[-9.53066,54.172348],[-9.530677,54.172252],[-9.530908,54.172016],[-9.53113,54.171827],[-9.531184,54.171813],[-9.531205,54.171783],[-9.531311,54.171776],[-9.531353,54.171742],[-9.53192,54.171721],[-9.532013,54.171716],[-9.532026,54.171714],[-9.532396,54.171694],[-9.53319,54.171622],[-9.533428,54.171613],[-9.533669,54.171604],[-9.53407,54.171621],[-9.534412,54.171634],[-9.534547,54.171575],[-9.534587,54.171515],[-9.534592,54.171393],[-9.53451,54.171291],[-9.534322,54.171179],[-9.534236,54.171089],[-9.534227,54.171052],[-9.534224,54.171039],[-9.534218,54.170887],[-9.534241,54.170715]]]]}}]}
