{"type":"FeatureCollection","features":[{"type":"Feature","properties":{"source_fid":392761,"county":"Mayo","bog_geom_ha":129.84870880557742,"low15_pct":94.232105628908968,"low15_ha":122.35917243944613,"overlay_ha":122.60207935899717,"area_delta":0.24290691955104649},"geometry":{"type":"MultiPolygon","coordinates":[[[[-9.630908,53.913346],[-9.630777,53.913339],[-9.630721,53.913342],[-9.630454,53.913484],[-9.6303,53.913576],[-9.630134,53.913662],[-9.629825,53.913808],[-9.629642,53.913878],[-9.629408,53.913994],[-9.629231,53.914094],[-9.629076,53.914155],[-9.628961,53.914193],[-9.628924,53.914206],[-9.628865,53.914251],[-9.62865,53.914341],[-9.628459,53.914431],[-9.628225,53.914547],[-9.627948,53.91467],[-9.627839,53.91472],[-9.627779,53.914734],[-9.627533,53.914811],[-9.627362,53.914857],[-9.627254,53.914875],[-9.627143,53.914884],[-9.627027,53.914894],[-9.626915,53.914907],[-9.626455,53.915077],[-9.625891,53.915276],[-9.625633,53.915376],[-9.624038,53.91587],[-9.623397,53.916076],[-9.623398,53.916092],[-9.623496,53.916286],[-9.623652,53.916639],[-9.623624,53.916657],[-9.623576,53.916677],[-9.623422,53.916696],[-9.623369,53.916722],[-9.623356,53.91682],[-9.623326,53.916928],[-9.623278,53.917003],[-9.623209,53.91709],[-9.6232,53.917142],[-9.623212,53.917194],[-9.623224,53.91724],[-9.623224,53.917295],[-9.623193,53.917386],[-9.623172,53.917385],[-9.623146,53.917382],[-9.623034,53.91733],[-9.623004,53.917296],[-9.622988,53.917222],[-9.622985,53.917199],[-9.622949,53.917169],[-9.622845,53.917092],[-9.622817,53.917063],[-9.62276,53.916934],[-9.622735,53.916843],[-9.6227,53.916792],[-9.622682,53.916789],[-9.622562,53.916797],[-9.622457,53.916785],[-9.622266,53.916742],[-9.622061,53.916664],[-9.621781,53.916523],[-9.6216,53.916442],[-9.621562,53.916407],[-9.621559,53.916323],[-9.621535,53.916329],[-9.621266,53.91639],[-9.621169,53.916423],[-9.621079,53.916473],[-9.620975,53.916528],[-9.620748,53.916588],[-9.620647,53.916605],[-9.620542,53.916629],[-9.620416,53.916659],[-9.620278,53.916723],[-9.620209,53.916751],[-9.620072,53.916759],[-9.619912,53.916793],[-9.619849,53.916836],[-9.619753,53.916857],[-9.619697,53.916857],[-9.619595,53.916865],[-9.619503,53.916883],[-9.619448,53.91692],[-9.619414,53.916988],[-9.619369,53.91702],[-9.619304,53.917044],[-9.619197,53.917028],[-9.618914,53.916976],[-9.618892,53.916977],[-9.618873,53.916978],[-9.618782,53.917015],[-9.618711,53.917042],[-9.61861,53.917059],[-9.618596,53.917074],[-9.618535,53.91711],[-9.618464,53.917129],[-9.618364,53.917134],[-9.618322,53.917138],[-9.618237,53.917175],[-9.618163,53.917208],[-9.618035,53.917283],[-9.617935,53.917363],[-9.617879,53.91744],[-9.617849,53.91751],[-9.617835,53.917532],[-9.617822,53.917554],[-9.617725,53.91761],[-9.617708,53.917619],[-9.617719,53.917682],[-9.61774,53.917693],[-9.617887,53.917742],[-9.61794,53.917761],[-9.617975,53.9178],[-9.617973,53.917821],[-9.617971,53.91784],[-9.617969,53.917862],[-9.617966,53.917869],[-9.618031,53.917899],[-9.618071,53.917942],[-9.618118,53.91797],[-9.618186,53.917985],[-9.618227,53.917994],[-9.618303,53.918011],[-9.618285,53.918038],[-9.618307,53.918059],[-9.618671,53.918108],[-9.618765,53.918116],[-9.618825,53.918153],[-9.61883,53.918198],[-9.618791,53.918264],[-9.618766,53.918292],[-9.618766,53.918315],[-9.618793,53.918398],[-9.618827,53.918459],[-9.618845,53.918454],[-9.618917,53.918504],[-9.618941,53.918526],[-9.618969,53.918553],[-9.618976,53.918558],[-9.618981,53.918562],[-9.619129,53.918571],[-9.619204,53.918576],[-9.619225,53.918576],[-9.61949,53.918578],[-9.619539,53.918578],[-9.619573,53.918562],[-9.619587,53.918555],[-9.619737,53.918506],[-9.619805,53.918499],[-9.619844,53.918517],[-9.619875,53.918531],[-9.620015,53.91859],[-9.620095,53.91865],[-9.620136,53.9187],[-9.620141,53.91873],[-9.620118,53.918751],[-9.620117,53.918752],[-9.620084,53.918778],[-9.620098,53.91881],[-9.620109,53.918817],[-9.620127,53.918828],[-9.620191,53.918836],[-9.620248,53.918844],[-9.620377,53.91886],[-9.620407,53.918871],[-9.620435,53.918882],[-9.620547,53.918942],[-9.620574,53.91894],[-9.620642,53.918915],[-9.620718,53.918912],[-9.6208,53.918942],[-9.620847,53.918977],[-9.620878,53.919017],[-9.620887,53.919043],[-9.620896,53.919068],[-9.620954,53.919128],[-9.621051,53.919204],[-9.621061,53.919223],[-9.621072,53.919244],[-9.621061,53.919289],[-9.62106,53.91937],[-9.62106,53.919386],[-9.62114,53.919424],[-9.621187,53.919471],[-9.621198,53.919506],[-9.621168,53.919554],[-9.621027,53.919617],[-9.620995,53.919651],[-9.621009,53.919684],[-9.621044,53.919703],[-9.621136,53.919728],[-9.62122,53.919754],[-9.621245,53.919761],[-9.621303,53.919796],[-9.62134,53.919841],[-9.621349,53.919888],[-9.621338,53.919927],[-9.621294,53.919978],[-9.621276,53.920021],[-9.621292,53.920056],[-9.621331,53.920096],[-9.621578,53.920257],[-9.621594,53.920261],[-9.621701,53.920243],[-9.621786,53.920253],[-9.621855,53.920292],[-9.621904,53.920338],[-9.621897,53.920369],[-9.621842,53.920426],[-9.62182,53.920469],[-9.62183,53.92049],[-9.621879,53.920517],[-9.621911,53.920552],[-9.621968,53.920601],[-9.621979,53.92065],[-9.621966,53.92069],[-9.621926,53.920736],[-9.621902,53.920782],[-9.621905,53.920829],[-9.621949,53.920888],[-9.621997,53.920919],[-9.62206,53.920966],[-9.622088,53.92102],[-9.622082,53.921076],[-9.622051,53.92116],[-9.621987,53.921258],[-9.621932,53.921319],[-9.621878,53.921389],[-9.621871,53.92146],[-9.621904,53.921563],[-9.621937,53.921627],[-9.621864,53.921654],[-9.6216,53.921737],[-9.621573,53.921746],[-9.621851,53.921742],[-9.621862,53.922012],[-9.621872,53.922281],[-9.620959,53.922293],[-9.62097,53.922563],[-9.620513,53.922569],[-9.620523,53.922838],[-9.61961,53.922851],[-9.619621,53.92312],[-9.619164,53.923126],[-9.619175,53.923396],[-9.618262,53.923408],[-9.618272,53.923678],[-9.617815,53.923684],[-9.617826,53.923953],[-9.616913,53.923966],[-9.616902,53.923696],[-9.617359,53.92369],[-9.617349,53.92342],[-9.617805,53.923414],[-9.617795,53.923145],[-9.617793,53.923106],[-9.617759,53.923097],[-9.61767,53.923113],[-9.617624,53.923053],[-9.617336,53.923136],[-9.61701,53.923235],[-9.61694,53.923279],[-9.616456,53.923423],[-9.616008,53.923582],[-9.615857,53.923631],[-9.615825,53.923643],[-9.615877,53.923715],[-9.615883,53.923723],[-9.615928,53.923783],[-9.615909,53.923823],[-9.615779,53.923872],[-9.615732,53.923949],[-9.615715,53.924078],[-9.615709,53.924183],[-9.615756,53.924272],[-9.615867,53.924355],[-9.615871,53.924422],[-9.615916,53.924476],[-9.615977,53.924557],[-9.616101,53.924611],[-9.616146,53.924653],[-9.616156,53.924713],[-9.616215,53.924756],[-9.616274,53.924768],[-9.616308,53.924796],[-9.616281,53.924831],[-9.616328,53.924904],[-9.616368,53.924956],[-9.616396,53.924993],[-9.616494,53.925049],[-9.616505,53.925075],[-9.616682,53.925183],[-9.616881,53.925311],[-9.617088,53.925456],[-9.617211,53.925556],[-9.61729,53.925611],[-9.617301,53.925657],[-9.617394,53.92571],[-9.617422,53.925792],[-9.617441,53.9258],[-9.617432,53.925576],[-9.617888,53.92557],[-9.617878,53.925301],[-9.618335,53.925294],[-9.618345,53.925564],[-9.618355,53.925833],[-9.617899,53.92584],[-9.617909,53.926109],[-9.617665,53.926112],[-9.617717,53.926237],[-9.617788,53.926272],[-9.617811,53.926321],[-9.61779,53.926373],[-9.617858,53.926458],[-9.617873,53.926529],[-9.617929,53.926575],[-9.617943,53.926608],[-9.617996,53.926637],[-9.618004,53.926682],[-9.617962,53.926723],[-9.617981,53.926762],[-9.618076,53.926813],[-9.618131,53.926844],[-9.618136,53.926882],[-9.618208,53.926913],[-9.618241,53.926942],[-9.618238,53.926974],[-9.618292,53.92698],[-9.61831,53.927068],[-9.618355,53.927101],[-9.61835,53.927151],[-9.618403,53.927161],[-9.618444,53.9272],[-9.618442,53.927242],[-9.6185,53.92732],[-9.618595,53.927408],[-9.618632,53.927403],[-9.621373,53.927037],[-9.623468,53.926757],[-9.623568,53.926831],[-9.623733,53.926887],[-9.625119,53.92694],[-9.625328,53.926948],[-9.625683,53.926962],[-9.625868,53.926913],[-9.626497,53.926745],[-9.626852,53.926651],[-9.627166,53.926567],[-9.627755,53.925419],[-9.628651,53.924972],[-9.628677,53.924959],[-9.629911,53.925102],[-9.629966,53.925174],[-9.630344,53.925671],[-9.631139,53.92566],[-9.631129,53.925391],[-9.631586,53.925385],[-9.631575,53.925115],[-9.631564,53.924846],[-9.631108,53.924852],[-9.631097,53.924583],[-9.632011,53.92457],[-9.632,53.924301],[-9.632457,53.924294],[-9.632467,53.924564],[-9.632478,53.924833],[-9.632488,53.925103],[-9.632945,53.925097],[-9.632955,53.925366],[-9.632499,53.925372],[-9.632509,53.925642],[-9.632053,53.925648],[-9.632063,53.925918],[-9.631607,53.925924],[-9.631617,53.926193],[-9.631624,53.926382],[-9.632078,53.926407],[-9.63281,53.926448],[-9.633157,53.92665],[-9.634131,53.927216],[-9.634955,53.927208],[-9.634963,53.927193],[-9.634956,53.927158],[-9.635019,53.927106],[-9.634993,53.927074],[-9.635001,53.927001],[-9.635056,53.926861],[-9.635038,53.926774],[-9.635056,53.926685],[-9.635109,53.926622],[-9.635132,53.926566],[-9.635119,53.926475],[-9.635139,53.926381],[-9.635196,53.926386],[-9.635224,53.926357],[-9.635199,53.926281],[-9.635204,53.926202],[-9.635196,53.926166],[-9.635196,53.926113],[-9.635151,53.926087],[-9.635197,53.926045],[-9.635264,53.926037],[-9.635285,53.926015],[-9.635282,53.925945],[-9.635285,53.925904],[-9.635339,53.925876],[-9.635336,53.92585],[-9.635359,53.925806],[-9.635337,53.925754],[-9.635331,53.925713],[-9.635398,53.925603],[-9.635328,53.925572],[-9.635336,53.925544],[-9.635311,53.925442],[-9.635329,53.925421],[-9.635309,53.925343],[-9.635363,53.925302],[-9.635341,53.925268],[-9.635373,53.925199],[-9.6354,53.925109],[-9.635365,53.925048],[-9.63542,53.925014],[-9.635443,53.924952],[-9.635382,53.924892],[-9.635408,53.92486],[-9.635384,53.924795],[-9.635408,53.924734],[-9.635424,53.924638],[-9.635445,53.924577],[-9.635422,53.9245],[-9.63545,53.924434],[-9.635399,53.92439],[-9.635413,53.924354],[-9.635388,53.924341],[-9.635378,53.924312],[-9.635412,53.92425],[-9.635408,53.924217],[-9.635391,53.924188],[-9.635385,53.924144],[-9.635421,53.924116],[-9.635412,53.924102],[-9.635428,53.924017],[-9.635386,53.923966],[-9.635392,53.923929],[-9.635395,53.92391],[-9.635447,53.923867],[-9.635428,53.923789],[-9.635398,53.923749],[-9.635449,53.923668],[-9.635433,53.923604],[-9.635446,53.923556],[-9.63542,53.923484],[-9.635437,53.923452],[-9.635446,53.923388],[-9.635493,53.923333],[-9.635448,53.923319],[-9.635457,53.923296],[-9.635361,53.923271],[-9.635444,53.923119],[-9.635413,53.92302],[-9.635446,53.922965],[-9.635464,53.922875],[-9.635394,53.922812],[-9.635399,53.922769],[-9.635431,53.922686],[-9.635394,53.922658],[-9.635396,53.922575],[-9.635399,53.922543],[-9.63539,53.922495],[-9.635412,53.922459],[-9.635407,53.922417],[-9.635383,53.922338],[-9.635399,53.922297],[-9.635391,53.922261],[-9.635335,53.922229],[-9.635283,53.922181],[-9.635274,53.922141],[-9.635308,53.922079],[-9.635283,53.922033],[-9.635304,53.921967],[-9.635248,53.921919],[-9.63527,53.921883],[-9.63533,53.921879],[-9.635339,53.921845],[-9.63539,53.921832],[-9.635396,53.9218],[-9.635347,53.921757],[-9.63534,53.921683],[-9.635383,53.921656],[-9.635371,53.921612],[-9.635325,53.921576],[-9.635315,53.921523],[-9.635359,53.921482],[-9.635303,53.921447],[-9.635292,53.921409],[-9.635354,53.921372],[-9.635356,53.921331],[-9.635376,53.921297],[-9.6353,53.921271],[-9.635333,53.921222],[-9.635283,53.921138],[-9.635266,53.92111],[-9.635313,53.921075],[-9.635313,53.921046],[-9.635256,53.921022],[-9.635271,53.920995],[-9.635215,53.92098],[-9.635157,53.920895],[-9.635199,53.920874],[-9.635214,53.920787],[-9.635119,53.920675],[-9.6351,53.920643],[-9.635132,53.920628],[-9.635148,53.920583],[-9.635049,53.920522],[-9.635018,53.920457],[-9.635048,53.92042],[-9.635011,53.920386],[-9.634974,53.92034],[-9.634956,53.920324],[-9.634938,53.920289],[-9.634917,53.920249],[-9.634908,53.920218],[-9.634926,53.920155],[-9.634914,53.920121],[-9.634881,53.920062],[-9.634854,53.920026],[-9.634806,53.919975],[-9.634809,53.919948],[-9.634833,53.919897],[-9.63483,53.919868],[-9.634791,53.919824],[-9.63469,53.919788],[-9.634663,53.919767],[-9.634669,53.919728],[-9.634687,53.91969],[-9.634693,53.919668],[-9.634705,53.919629],[-9.634714,53.919575],[-9.634707,53.919496],[-9.634698,53.919416],[-9.634681,53.919381],[-9.634633,53.919369],[-9.634618,53.919347],[-9.634582,53.919304],[-9.634516,53.919233],[-9.634477,53.9192],[-9.634471,53.919169],[-9.634453,53.919096],[-9.634369,53.918911],[-9.634356,53.918882],[-9.634343,53.918854],[-9.634333,53.918833],[-9.634264,53.91864],[-9.634189,53.918451],[-9.634085,53.918209],[-9.634034,53.91814],[-9.634022,53.918099],[-9.634031,53.918053],[-9.634007,53.918031],[-9.633977,53.917995],[-9.633953,53.91793],[-9.633905,53.917879],[-9.633875,53.917829],[-9.633845,53.917746],[-9.633821,53.917662],[-9.633794,53.917602],[-9.633773,53.91753],[-9.633773,53.917504],[-9.633758,53.917487],[-9.633719,53.917461],[-9.633716,53.917429],[-9.633689,53.917362],[-9.633581,53.917132],[-9.633578,53.917105],[-9.633593,53.917082],[-9.633572,53.917042],[-9.633537,53.916992],[-9.633507,53.916934],[-9.633477,53.916898],[-9.633438,53.916854],[-9.633417,53.916819],[-9.633411,53.916784],[-9.633405,53.916715],[-9.633384,53.916671],[-9.633342,53.916644],[-9.633342,53.916616],[-9.633315,53.916553],[-9.633315,53.916513],[-9.633279,53.916454],[-9.633273,53.916411],[-9.633255,53.916319],[-9.633258,53.916265],[-9.633231,53.916214],[-9.633231,53.916172],[-9.633201,53.916142],[-9.633174,53.916027],[-9.63312,53.915926],[-9.63303,53.915666],[-9.632953,53.915503],[-9.632914,53.915408],[-9.632896,53.915373],[-9.632878,53.915293],[-9.632836,53.91521],[-9.632755,53.91504],[-9.63274,53.914996],[-9.632725,53.914977],[-9.632683,53.914957],[-9.632635,53.914895],[-9.632611,53.914823],[-9.632566,53.914723],[-9.632515,53.914579],[-9.632485,53.914495],[-9.632461,53.914484],[-9.632423,53.914469],[-9.632402,53.914441],[-9.632387,53.914377],[-9.632399,53.914354],[-9.632414,53.914322],[-9.632411,53.914291],[-9.632375,53.914238],[-9.632333,53.914183],[-9.632342,53.914139],[-9.63233,53.914121],[-9.632315,53.914104],[-9.632321,53.914082],[-9.6323,53.91406],[-9.632288,53.914039],[-9.632285,53.914008],[-9.632303,53.913996],[-9.632303,53.913983],[-9.632288,53.91397],[-9.632267,53.913952],[-9.63232,53.913781],[-9.632282,53.913778],[-9.632147,53.913747],[-9.631995,53.913686],[-9.631911,53.913613],[-9.631866,53.913562],[-9.63186,53.913537],[-9.631824,53.913531],[-9.631737,53.913496],[-9.631565,53.913464],[-9.631429,53.913466],[-9.631294,53.91345],[-9.6311,53.913413],[-9.630965,53.91336],[-9.630908,53.913346]],[[-9.628925,53.915715],[-9.629381,53.915709],[-9.629402,53.916248],[-9.628946,53.916254],[-9.628925,53.915715]],[[-9.626354,53.920063],[-9.62681,53.920057],[-9.626821,53.920327],[-9.626831,53.920596],[-9.625918,53.920609],[-9.625929,53.920878],[-9.625016,53.92089],[-9.625005,53.920621],[-9.625462,53.920615],[-9.625451,53.920345],[-9.626364,53.920333],[-9.626354,53.920063]],[[-9.633243,53.921048],[-9.634156,53.921036],[-9.634167,53.921305],[-9.633254,53.921318],[-9.633243,53.921048]],[[-9.632372,53.922139],[-9.633286,53.922126],[-9.633296,53.922396],[-9.63284,53.922402],[-9.63285,53.922671],[-9.632393,53.922678],[-9.632404,53.922947],[-9.631947,53.922953],[-9.631958,53.923223],[-9.631501,53.923229],[-9.631512,53.923498],[-9.631055,53.923505],[-9.631066,53.923774],[-9.630609,53.92378],[-9.63062,53.92405],[-9.630163,53.924056],[-9.630153,53.923787],[-9.630142,53.923517],[-9.630599,53.923511],[-9.630588,53.923241],[-9.631045,53.923235],[-9.631034,53.922966],[-9.631491,53.92296],[-9.63148,53.92269],[-9.631937,53.922684],[-9.631926,53.922414],[-9.632383,53.922408],[-9.632372,53.922139]],[[-9.626438,53.922219],[-9.626894,53.922213],[-9.626905,53.922483],[-9.626448,53.922489],[-9.626438,53.922219]],[[-9.623179,53.920646],[-9.624549,53.920627],[-9.624559,53.920897],[-9.624103,53.920903],[-9.624113,53.921172],[-9.6232,53.921185],[-9.623221,53.921724],[-9.622308,53.921736],[-9.622287,53.921197],[-9.622743,53.921191],[-9.622733,53.920921],[-9.62319,53.920915],[-9.623179,53.920646]],[[-9.624123,53.921442],[-9.62458,53.921436],[-9.62459,53.921705],[-9.624134,53.921711],[-9.624123,53.921442]],[[-9.618843,53.926636],[-9.618854,53.926905],[-9.618397,53.926911],[-9.618387,53.926642],[-9.618843,53.926636]]]]}}]}
