{"type":"FeatureCollection","features":[{"type":"Feature","properties":{"source_fid":394627,"county":"Mayo","bog_geom_ha":406.40707977900399,"low15_pct":84.545655538359497,"low15_ha":343.5995297534626,"overlay_ha":343.49797459876567,"area_delta":-0.1015551546969391},"geometry":{"type":"MultiPolygon","coordinates":[[[[-9.645982,53.715934],[-9.64585,53.715834],[-9.645762,53.715765],[-9.645743,53.715752],[-9.645743,53.715752],[-9.645743,53.715755],[-9.645745,53.715759],[-9.645709,53.715777],[-9.645648,53.715783],[-9.645596,53.71581],[-9.645557,53.715842],[-9.645558,53.715864],[-9.645611,53.715882],[-9.645648,53.715908],[-9.645696,53.715924],[-9.645703,53.715938],[-9.645687,53.715966],[-9.645612,53.716011],[-9.645562,53.716051],[-9.645499,53.716101],[-9.64546,53.716132],[-9.645394,53.716174],[-9.645381,53.716251],[-9.645407,53.716367],[-9.645406,53.71638],[-9.645393,53.716464],[-9.645335,53.716521],[-9.645326,53.716532],[-9.645324,53.716555],[-9.645534,53.716759],[-9.645603,53.716812],[-9.645631,53.716859],[-9.645634,53.71692],[-9.645586,53.716953],[-9.645544,53.716984],[-9.645553,53.717024],[-9.645575,53.717061],[-9.64563,53.717085],[-9.645749,53.717155],[-9.645795,53.717218],[-9.645838,53.717255],[-9.645866,53.717296],[-9.645835,53.717353],[-9.645855,53.717453],[-9.645915,53.717527],[-9.645951,53.717564],[-9.645989,53.717581],[-9.64609,53.717579],[-9.646125,53.717559],[-9.646195,53.717515],[-9.646252,53.71752],[-9.646356,53.717542],[-9.646535,53.717573],[-9.646712,53.717571],[-9.646719,53.717728],[-9.646734,53.717739],[-9.647009,53.71781],[-9.647032,53.717836],[-9.647177,53.717834],[-9.647187,53.718079],[-9.647227,53.718096],[-9.647271,53.718146],[-9.647282,53.718209],[-9.647281,53.718318],[-9.647305,53.718372],[-9.647383,53.718404],[-9.647452,53.718414],[-9.647518,53.71846],[-9.647481,53.718508],[-9.64748,53.718527],[-9.647478,53.718553],[-9.647563,53.718596],[-9.647723,53.718649],[-9.647899,53.718685],[-9.647996,53.718717],[-9.648112,53.718753],[-9.648206,53.718761],[-9.648406,53.718754],[-9.648482,53.718779],[-9.648505,53.718824],[-9.64849,53.718857],[-9.648447,53.718894],[-9.648364,53.718957],[-9.648359,53.718966],[-9.648341,53.718992],[-9.648301,53.719043],[-9.648297,53.719071],[-9.648292,53.719086],[-9.648295,53.719153],[-9.648292,53.719199],[-9.648256,53.719226],[-9.648247,53.719257],[-9.64828,53.719301],[-9.648338,53.719355],[-9.648481,53.719456],[-9.648499,53.719465],[-9.64854,53.719489],[-9.648531,53.719525],[-9.648507,53.71956],[-9.64851,53.719574],[-9.648591,53.7196],[-9.64871,53.719625],[-9.648756,53.719639],[-9.648779,53.719647],[-9.64882,53.719665],[-9.648898,53.719703],[-9.648951,53.719744],[-9.649,53.719789],[-9.649023,53.719849],[-9.649063,53.719914],[-9.649099,53.719946],[-9.64912,53.720001],[-9.649175,53.720023],[-9.64925,53.720037],[-9.649314,53.720069],[-9.649355,53.720085],[-9.649418,53.720111],[-9.64947,53.720151],[-9.649487,53.720178],[-9.649499,53.720196],[-9.649501,53.720299],[-9.649531,53.720362],[-9.649531,53.720416],[-9.649525,53.720418],[-9.64954,53.720463],[-9.649554,53.720481],[-9.649533,53.719959],[-9.649987,53.719952],[-9.650009,53.720491],[-9.649566,53.720498],[-9.649579,53.720515],[-9.649604,53.720534],[-9.649652,53.720548],[-9.649699,53.720564],[-9.649715,53.720583],[-9.64972,53.720629],[-9.649717,53.720666],[-9.649718,53.720703],[-9.649745,53.720722],[-9.649813,53.720723],[-9.649865,53.720727],[-9.649925,53.720759],[-9.649951,53.720793],[-9.649991,53.720866],[-9.650021,53.720887],[-9.650079,53.720904],[-9.650117,53.720917],[-9.650141,53.720932],[-9.650137,53.720951],[-9.650133,53.720989],[-9.650127,53.721017],[-9.65017,53.721051],[-9.650239,53.721078],[-9.650329,53.721109],[-9.650417,53.721142],[-9.650488,53.721158],[-9.650504,53.721178],[-9.650516,53.721209],[-9.650539,53.721246],[-9.650576,53.721273],[-9.650628,53.721308],[-9.650662,53.721328],[-9.650739,53.72134],[-9.650844,53.721351],[-9.650935,53.721347],[-9.651019,53.721346],[-9.651069,53.721356],[-9.651106,53.721371],[-9.651164,53.721378],[-9.651222,53.721386],[-9.651288,53.721411],[-9.651328,53.721443],[-9.651367,53.721497],[-9.651404,53.721557],[-9.651455,53.721592],[-9.651504,53.721632],[-9.651539,53.721662],[-9.651594,53.721664],[-9.651657,53.721664],[-9.651725,53.721667],[-9.65178,53.721685],[-9.65186,53.721707],[-9.651924,53.721739],[-9.651986,53.721783],[-9.652033,53.72183],[-9.652071,53.721841],[-9.652139,53.721853],[-9.65224,53.721883],[-9.652266,53.721915],[-9.652258,53.721929],[-9.652225,53.721936],[-9.65221,53.721959],[-9.652203,53.721992],[-9.652229,53.722035],[-9.65228,53.722078],[-9.652259,53.722193],[-9.652257,53.722267],[-9.652275,53.722319],[-9.652309,53.72237],[-9.652333,53.722399],[-9.65246,53.7224],[-9.65255,53.72241],[-9.652573,53.72245],[-9.652637,53.722476],[-9.652743,53.722507],[-9.65295,53.722584],[-9.653159,53.722657],[-9.653327,53.722734],[-9.653402,53.72283],[-9.653513,53.722907],[-9.65353,53.722951],[-9.653582,53.723049],[-9.653562,53.723115],[-9.653558,53.723201],[-9.653602,53.723263],[-9.653623,53.723329],[-9.6537,53.723398],[-9.653768,53.723443],[-9.653814,53.723482],[-9.653857,53.723525],[-9.653944,53.723572],[-9.654051,53.723575],[-9.654174,53.723604],[-9.654287,53.723648],[-9.654396,53.723686],[-9.654511,53.723693],[-9.654596,53.723694],[-9.654637,53.723707],[-9.654699,53.723769],[-9.654781,53.723799],[-9.654826,53.723809],[-9.654958,53.723781],[-9.65505,53.723773],[-9.65511,53.72379],[-9.655153,53.723793],[-9.655184,53.723795],[-9.655232,53.723803],[-9.655245,53.723847],[-9.655287,53.723884],[-9.655366,53.7239],[-9.655455,53.723899],[-9.6555,53.723922],[-9.655538,53.723954],[-9.655592,53.724],[-9.655656,53.724021],[-9.65568,53.724066],[-9.655726,53.724127],[-9.655791,53.724172],[-9.655893,53.72423],[-9.656028,53.724274],[-9.656159,53.724298],[-9.656262,53.724284],[-9.656388,53.724286],[-9.656384,53.72429],[-9.656262,53.724289],[-9.656161,53.724302],[-9.656184,53.724336],[-9.656237,53.724373],[-9.656302,53.724407],[-9.656311,53.724444],[-9.656309,53.724502],[-9.656373,53.724527],[-9.656452,53.724547],[-9.656597,53.724563],[-9.656665,53.724581],[-9.656711,53.724627],[-9.656734,53.724726],[-9.656742,53.72475],[-9.656784,53.724785],[-9.656789,53.724818],[-9.65678,53.72486],[-9.656826,53.724912],[-9.656869,53.72496],[-9.656947,53.725044],[-9.657014,53.725143],[-9.657071,53.725174],[-9.65723,53.725263],[-9.65734,53.725325],[-9.65743,53.725351],[-9.657521,53.725402],[-9.657621,53.725504],[-9.657762,53.7256],[-9.657812,53.725626],[-9.657908,53.725632],[-9.658031,53.725647],[-9.658151,53.725677],[-9.658248,53.725699],[-9.65829,53.72572],[-9.658343,53.725747],[-9.658425,53.725772],[-9.658595,53.725836],[-9.658696,53.725869],[-9.658801,53.725897],[-9.658902,53.725933],[-9.659019,53.725978],[-9.659163,53.726048],[-9.659325,53.726124],[-9.65939,53.726168],[-9.659469,53.726206],[-9.659566,53.726224],[-9.65967,53.726217],[-9.659759,53.726232],[-9.659856,53.726239],[-9.659934,53.726234],[-9.66002,53.726263],[-9.660076,53.72628],[-9.660122,53.726316],[-9.660194,53.726345],[-9.660265,53.726361],[-9.660258,53.726365],[-9.660186,53.72635],[-9.660112,53.726318],[-9.660069,53.726283],[-9.659997,53.726263],[-9.659934,53.726241],[-9.659853,53.726245],[-9.659762,53.726239],[-9.659671,53.726224],[-9.659563,53.726231],[-9.659459,53.726212],[-9.659387,53.726174],[-9.65932,53.726129],[-9.659089,53.72602],[-9.659007,53.725982],[-9.658797,53.725902],[-9.658684,53.725873],[-9.658576,53.725835],[-9.658416,53.725775],[-9.658334,53.72575],[-9.658239,53.725703],[-9.658031,53.725655],[-9.657908,53.72564],[-9.657801,53.725629],[-9.657743,53.725597],[-9.657704,53.725569],[-9.657613,53.72551],[-9.657514,53.725407],[-9.657426,53.725359],[-9.657334,53.72533],[-9.657219,53.725265],[-9.657,53.725143],[-9.656933,53.725042],[-9.656831,53.724925],[-9.65677,53.724857],[-9.656782,53.724816],[-9.656779,53.724787],[-9.656736,53.724753],[-9.656732,53.724744],[-9.656704,53.724631],[-9.656663,53.724587],[-9.6566,53.724569],[-9.656448,53.724551],[-9.656366,53.72453],[-9.6563,53.724502],[-9.656302,53.72446],[-9.656296,53.724411],[-9.656292,53.724408],[-9.65623,53.724374],[-9.656176,53.724336],[-9.656155,53.724302],[-9.656029,53.724279],[-9.65589,53.724233],[-9.65578,53.724172],[-9.655722,53.724129],[-9.655672,53.724067],[-9.655649,53.724023],[-9.655581,53.724001],[-9.655492,53.723924],[-9.655452,53.723903],[-9.655357,53.723903],[-9.655278,53.723887],[-9.655237,53.723844],[-9.655225,53.723807],[-9.655153,53.723798],[-9.655102,53.723792],[-9.655047,53.723776],[-9.655017,53.723781],[-9.654964,53.723784],[-9.654829,53.723814],[-9.654765,53.723799],[-9.654686,53.723771],[-9.654631,53.72371],[-9.654591,53.723699],[-9.654503,53.723698],[-9.654391,53.723691],[-9.65428,53.723651],[-9.654175,53.723609],[-9.654052,53.72358],[-9.653939,53.723576],[-9.653849,53.723528],[-9.6538,53.723478],[-9.653759,53.723443],[-9.653689,53.723398],[-9.653657,53.723369],[-9.653616,53.723331],[-9.653594,53.723268],[-9.653548,53.723199],[-9.653556,53.723107],[-9.653574,53.723049],[-9.653521,53.722951],[-9.653506,53.72291],[-9.653391,53.72283],[-9.653321,53.722737],[-9.653287,53.722722],[-9.653287,53.722722],[-9.653161,53.722663],[-9.652933,53.722584],[-9.652794,53.722533],[-9.652738,53.722511],[-9.652632,53.72248],[-9.652564,53.722451],[-9.652545,53.722413],[-9.652462,53.722404],[-9.652331,53.722402],[-9.652303,53.72237],[-9.652269,53.722321],[-9.652252,53.722276],[-9.652249,53.722249],[-9.652252,53.722188],[-9.652273,53.722079],[-9.652223,53.722038],[-9.652196,53.721991],[-9.652202,53.721958],[-9.652221,53.721933],[-9.652256,53.721925],[-9.652257,53.721916],[-9.652234,53.721884],[-9.652128,53.721855],[-9.65208,53.721849],[-9.652025,53.721834],[-9.651972,53.721781],[-9.651912,53.721737],[-9.651858,53.721711],[-9.651781,53.72169],[-9.651721,53.721672],[-9.651666,53.721669],[-9.651533,53.721667],[-9.651472,53.721612],[-9.651432,53.721583],[-9.651394,53.721558],[-9.65136,53.721499],[-9.651327,53.721452],[-9.651286,53.721415],[-9.651219,53.721391],[-9.651103,53.721375],[-9.651069,53.721361],[-9.651016,53.721349],[-9.650908,53.721353],[-9.650842,53.721356],[-9.650742,53.721345],[-9.650659,53.721332],[-9.650601,53.721298],[-9.65053,53.721246],[-9.650507,53.721208],[-9.650495,53.721186],[-9.650482,53.721162],[-9.650411,53.721145],[-9.650304,53.721105],[-9.65023,53.72108],[-9.650165,53.721055],[-9.650116,53.721019],[-9.650131,53.720933],[-9.650103,53.720919],[-9.650016,53.720892],[-9.649981,53.720868],[-9.649958,53.720821],[-9.649929,53.720774],[-9.649919,53.720761],[-9.649863,53.720731],[-9.649817,53.720727],[-9.649741,53.720726],[-9.649711,53.720705],[-9.649708,53.720583],[-9.649696,53.720569],[-9.64965,53.720552],[-9.649601,53.720539],[-9.64957,53.720516],[-9.649558,53.720498],[-9.649554,53.720498],[-9.649554,53.720492],[-9.649533,53.720462],[-9.64952,53.72042],[-9.649432,53.720472],[-9.649398,53.720519],[-9.649376,53.720558],[-9.649392,53.720607],[-9.649419,53.720637],[-9.649463,53.720675],[-9.649529,53.720702],[-9.649551,53.720724],[-9.649527,53.720764],[-9.649473,53.720783],[-9.649397,53.720779],[-9.649269,53.720758],[-9.649216,53.720773],[-9.649174,53.720777],[-9.649134,53.720778],[-9.649117,53.720828],[-9.649094,53.720845],[-9.649081,53.720855],[-9.648895,53.720877],[-9.64887,53.720897],[-9.648843,53.720922],[-9.648787,53.720981],[-9.648774,53.721012],[-9.648754,53.721037],[-9.64869,53.72104],[-9.648674,53.721049],[-9.648651,53.721064],[-9.648606,53.721067],[-9.64853,53.721061],[-9.648452,53.721058],[-9.64841,53.721061],[-9.648355,53.721077],[-9.648278,53.721104],[-9.648144,53.721166],[-9.648078,53.721176],[-9.648011,53.72119],[-9.647944,53.721205],[-9.647913,53.72122],[-9.647896,53.721248],[-9.647901,53.721269],[-9.647916,53.721296],[-9.647897,53.721329],[-9.647864,53.721342],[-9.647775,53.721356],[-9.647711,53.721357],[-9.647632,53.721357],[-9.647596,53.72137],[-9.647569,53.721386],[-9.64756,53.721402],[-9.647564,53.721413],[-9.647582,53.721421],[-9.647619,53.721448],[-9.647636,53.721476],[-9.647637,53.721502],[-9.647605,53.721531],[-9.647534,53.721563],[-9.647509,53.721571],[-9.647425,53.721625],[-9.647416,53.721657],[-9.647419,53.721718],[-9.647372,53.721801],[-9.647323,53.721823],[-9.647297,53.721848],[-9.647262,53.72187],[-9.647191,53.721906],[-9.647105,53.721951],[-9.647064,53.72197],[-9.647007,53.721989],[-9.646972,53.722002],[-9.646951,53.722014],[-9.646927,53.722024],[-9.646898,53.72203],[-9.646876,53.722047],[-9.646861,53.722064],[-9.646834,53.722094],[-9.646824,53.72212],[-9.646832,53.722174],[-9.646794,53.722192],[-9.646763,53.722199],[-9.646755,53.722212],[-9.646736,53.722231],[-9.646732,53.722232],[-9.646722,53.72223],[-9.646722,53.72223],[-9.646293,53.72255],[-9.646303,53.722563],[-9.646307,53.722597],[-9.64628,53.72263],[-9.646266,53.722673],[-9.646288,53.722731],[-9.646281,53.722764],[-9.646269,53.722799],[-9.646268,53.722828],[-9.646277,53.72291],[-9.646244,53.722991],[-9.646184,53.723031],[-9.646159,53.723037],[-9.646119,53.723045],[-9.646069,53.723044],[-9.646034,53.723065],[-9.645974,53.7231],[-9.64596,53.723109],[-9.645963,53.723132],[-9.645984,53.723149],[-9.646021,53.72317],[-9.646038,53.723173],[-9.646061,53.723176],[-9.646093,53.723194],[-9.646109,53.723197],[-9.646138,53.723208],[-9.646148,53.723225],[-9.646123,53.72325],[-9.646075,53.723279],[-9.646043,53.72329],[-9.645982,53.723312],[-9.645927,53.723325],[-9.645848,53.723349],[-9.645806,53.723375],[-9.645739,53.723392],[-9.64569,53.72341],[-9.645653,53.723437],[-9.645641,53.723448],[-9.645603,53.723498],[-9.645577,53.723529],[-9.645529,53.723571],[-9.645521,53.723589],[-9.64549,53.723606],[-9.645453,53.723623],[-9.645416,53.72363],[-9.645402,53.723645],[-9.645366,53.723647],[-9.645338,53.723644],[-9.6453,53.723638],[-9.645284,53.723628],[-9.645278,53.723627],[-9.645267,53.72365],[-9.645254,53.723667],[-9.645217,53.7237],[-9.64521,53.723712],[-9.645191,53.723741],[-9.645174,53.723759],[-9.645125,53.723775],[-9.645077,53.723781],[-9.645013,53.723773],[-9.644959,53.723773],[-9.64494,53.723785],[-9.644928,53.723799],[-9.644925,53.723815],[-9.644939,53.723824],[-9.64495,53.723836],[-9.644974,53.723845],[-9.645007,53.723866],[-9.645013,53.72388],[-9.645002,53.723912],[-9.644994,53.723948],[-9.644991,53.723972],[-9.644996,53.723995],[-9.644979,53.72402],[-9.644949,53.724024],[-9.64493,53.724034],[-9.644925,53.724067],[-9.644908,53.724099],[-9.644866,53.724148],[-9.644831,53.724171],[-9.644798,53.724195],[-9.644803,53.724211],[-9.644807,53.72425],[-9.644758,53.724277],[-9.644704,53.724282],[-9.644653,53.724282],[-9.644623,53.724282],[-9.644595,53.724242],[-9.644569,53.724229],[-9.644511,53.724228],[-9.644361,53.724263],[-9.644302,53.724269],[-9.644243,53.724281],[-9.644151,53.724293],[-9.644123,53.72428],[-9.644103,53.724277],[-9.644065,53.724279],[-9.644026,53.724299],[-9.643981,53.724312],[-9.643938,53.724319],[-9.643888,53.724334],[-9.643857,53.724337],[-9.643829,53.724345],[-9.643798,53.724361],[-9.643763,53.724372],[-9.643698,53.724394],[-9.64366,53.724405],[-9.643619,53.72442],[-9.643586,53.724443],[-9.643558,53.724451],[-9.643505,53.724468],[-9.643485,53.72448],[-9.643469,53.724496],[-9.643444,53.724526],[-9.643404,53.724531],[-9.643381,53.724541],[-9.643358,53.724559],[-9.643334,53.724571],[-9.643293,53.724572],[-9.643267,53.724577],[-9.64322,53.724596],[-9.643202,53.724604],[-9.643139,53.72462],[-9.643135,53.724622],[-9.643126,53.724685],[-9.643109,53.724708],[-9.643077,53.724708],[-9.643042,53.724724],[-9.643016,53.724737],[-9.642961,53.724736],[-9.642863,53.724741],[-9.642797,53.724769],[-9.642766,53.724803],[-9.642749,53.724839],[-9.642686,53.724854],[-9.642655,53.724866],[-9.642638,53.724888],[-9.642627,53.724916],[-9.642605,53.724956],[-9.642587,53.725004],[-9.642527,53.725047],[-9.642473,53.725092],[-9.642432,53.72513],[-9.64242,53.725166],[-9.642423,53.725258],[-9.642474,53.725269],[-9.642501,53.725292],[-9.642486,53.72532],[-9.642451,53.725348],[-9.64239,53.725377],[-9.642375,53.725394],[-9.642368,53.725413],[-9.642363,53.725435],[-9.642312,53.725461],[-9.642264,53.725461],[-9.642248,53.725446],[-9.642212,53.725451],[-9.642167,53.725477],[-9.642,53.725517],[-9.641911,53.725542],[-9.641868,53.725564],[-9.641821,53.725578],[-9.641818,53.725574],[-9.641815,53.72557],[-9.641792,53.72554],[-9.641747,53.725521],[-9.641705,53.725508],[-9.641646,53.725531],[-9.641581,53.725543],[-9.641535,53.725545],[-9.641472,53.725518],[-9.641425,53.725489],[-9.641373,53.725483],[-9.641326,53.725488],[-9.64118,53.725487],[-9.641123,53.725452],[-9.641115,53.725432],[-9.641094,53.725411],[-9.641031,53.725343],[-9.641009,53.725332],[-9.640983,53.725318],[-9.640956,53.725303],[-9.640912,53.725294],[-9.640857,53.725322],[-9.640798,53.725327],[-9.640757,53.725304],[-9.640614,53.7253],[-9.640576,53.725289],[-9.640518,53.725292],[-9.640423,53.725268],[-9.640367,53.725255],[-9.640311,53.725249],[-9.640197,53.725229],[-9.640164,53.725204],[-9.64012,53.725189],[-9.63996,53.725174],[-9.639921,53.725154],[-9.639903,53.725147],[-9.639841,53.725141],[-9.639792,53.725148],[-9.639722,53.725151],[-9.639692,53.725152],[-9.639584,53.725131],[-9.63953,53.725135],[-9.639489,53.725146],[-9.639457,53.725149],[-9.639443,53.725125],[-9.639394,53.725112],[-9.639318,53.725107],[-9.639251,53.725112],[-9.639203,53.725104],[-9.639174,53.725089],[-9.63914,53.725084],[-9.639133,53.725087],[-9.639119,53.725092],[-9.639094,53.725112],[-9.639067,53.72514],[-9.639001,53.725181],[-9.638938,53.725208],[-9.638925,53.725229],[-9.638873,53.725284],[-9.638847,53.725322],[-9.638855,53.725334],[-9.638887,53.725375],[-9.638828,53.725399],[-9.638767,53.725407],[-9.638701,53.7254],[-9.638646,53.72538],[-9.638585,53.725334],[-9.63854,53.725316],[-9.63848,53.725309],[-9.638437,53.725312],[-9.638345,53.725308],[-9.638333,53.725303],[-9.63827,53.725285],[-9.63823,53.725275],[-9.638161,53.725294],[-9.638111,53.725289],[-9.638082,53.725256],[-9.63804,53.725254],[-9.638006,53.725246],[-9.637916,53.725243],[-9.637874,53.725229],[-9.637857,53.725209],[-9.637861,53.725194],[-9.637862,53.725183],[-9.637858,53.725174],[-9.63782,53.725172],[-9.637745,53.725185],[-9.637728,53.72516],[-9.637718,53.72513],[-9.637729,53.725129],[-9.637729,53.725129],[-9.637718,53.72513],[-9.636946,53.725208],[-9.636393,53.725262],[-9.636013,53.725303],[-9.635613,53.72534],[-9.63524,53.725371],[-9.634882,53.725417],[-9.634677,53.725447],[-9.634396,53.725523],[-9.633698,53.725704],[-9.632996,53.725891],[-9.63243,53.726025],[-9.632016,53.726129],[-9.632009,53.72613],[-9.632044,53.72613],[-9.632064,53.726669],[-9.631156,53.726681],[-9.631144,53.726377],[-9.631055,53.726412],[-9.63088,53.726457],[-9.630731,53.726488],[-9.630363,53.726589],[-9.629881,53.7267],[-9.629313,53.726856],[-9.628603,53.727026],[-9.628081,53.727153],[-9.627599,53.727264],[-9.62699,53.727416],[-9.626509,53.727551],[-9.625994,53.727686],[-9.625539,53.727801],[-9.62501,53.727936],[-9.624395,53.728093],[-9.623886,53.728216],[-9.622864,53.728464],[-9.622783,53.728693],[-9.622762,53.728753],[-9.622717,53.728866],[-9.622575,53.729222],[-9.622456,53.729547],[-9.622403,53.729668],[-9.622365,53.729752],[-9.622363,53.729757],[-9.622203,53.730186],[-9.622154,53.730305],[-9.622059,53.730535],[-9.621883,53.73101],[-9.621787,53.731255],[-9.62169,53.731501],[-9.621627,53.731671],[-9.621568,53.731829],[-9.621517,53.731924],[-9.621444,53.732059],[-9.621104,53.732523],[-9.620802,53.732937],[-9.620539,53.733295],[-9.620187,53.7338],[-9.619801,53.734354],[-9.61978,53.734384],[-9.61978,53.734384],[-9.619297,53.734987],[-9.618663,53.735799],[-9.6182,53.736352],[-9.61781,53.736859],[-9.617686,53.737019],[-9.617862,53.737094],[-9.618489,53.737338],[-9.618908,53.737505],[-9.619058,53.737565],[-9.619695,53.737823],[-9.619872,53.737894],[-9.620397,53.738026],[-9.620634,53.738085],[-9.621093,53.738199],[-9.621943,53.738396],[-9.622611,53.738391],[-9.622723,53.73839],[-9.623073,53.738388],[-9.623614,53.738385],[-9.624376,53.738367],[-9.624681,53.738363],[-9.624978,53.738359],[-9.625621,53.73835],[-9.626153,53.738355],[-9.626586,53.738342],[-9.626599,53.738342],[-9.6267,53.738342],[-9.626971,53.738344],[-9.627434,53.738347],[-9.627768,53.738355],[-9.628134,53.738457],[-9.628311,53.738518],[-9.62852,53.738546],[-9.628557,53.738547],[-9.62868,53.738551],[-9.628792,53.73854],[-9.62898,53.738551],[-9.629296,53.738626],[-9.629719,53.738684],[-9.629825,53.738706],[-9.630201,53.738878],[-9.630364,53.738968],[-9.63038,53.738977],[-9.630416,53.738993],[-9.630475,53.739019],[-9.631064,53.739044],[-9.63174,53.739064],[-9.631761,53.739041],[-9.631782,53.739019],[-9.631853,53.738983],[-9.63196,53.738941],[-9.632013,53.738935],[-9.632066,53.738928],[-9.632102,53.738925],[-9.632157,53.738921],[-9.632211,53.73892],[-9.63224,53.738919],[-9.63235,53.738925],[-9.63238,53.738926],[-9.632465,53.73893],[-9.632579,53.738938],[-9.632701,53.738937],[-9.632807,53.73894],[-9.632811,53.73894],[-9.632812,53.73894],[-9.632898,53.73894],[-9.632943,53.738939],[-9.633001,53.738938],[-9.633044,53.738941],[-9.633077,53.738942],[-9.633106,53.738943],[-9.633125,53.738943],[-9.633278,53.738927],[-9.633469,53.73891],[-9.633589,53.738896],[-9.633681,53.738889],[-9.63372,53.738899],[-9.633787,53.738918],[-9.633799,53.738922],[-9.633822,53.73893],[-9.633888,53.73894],[-9.633907,53.738936],[-9.633919,53.738933],[-9.633946,53.738927],[-9.633975,53.73892],[-9.633997,53.738911],[-9.634036,53.738896],[-9.634108,53.738873],[-9.634187,53.738848],[-9.634226,53.738834],[-9.634275,53.738816],[-9.634323,53.738777],[-9.634324,53.738777],[-9.634324,53.738777],[-9.634324,53.738777],[-9.634352,53.738751],[-9.634374,53.738731],[-9.634391,53.738725],[-9.634452,53.738703],[-9.63448,53.738695],[-9.634539,53.738679],[-9.634631,53.738675],[-9.634651,53.738674],[-9.634679,53.738676],[-9.634787,53.738685],[-9.634917,53.73869],[-9.63494,53.738692],[-9.635025,53.7387],[-9.635118,53.738705],[-9.635345,53.738714],[-9.63538,53.738717],[-9.635481,53.738725],[-9.635565,53.738729],[-9.635581,53.73873],[-9.635745,53.738733],[-9.635777,53.738736],[-9.635844,53.738741],[-9.635879,53.738743],[-9.635963,53.738749],[-9.636073,53.738754],[-9.636116,53.738758],[-9.636131,53.738759],[-9.63617,53.738759],[-9.636263,53.738761],[-9.636299,53.738762],[-9.636345,53.738763],[-9.636469,53.738764],[-9.636507,53.738761],[-9.636569,53.738756],[-9.636654,53.738749],[-9.636723,53.738743],[-9.636832,53.738735],[-9.636889,53.738723],[-9.636935,53.738714],[-9.636982,53.738701],[-9.637048,53.738682],[-9.637125,53.738662],[-9.637173,53.73865],[-9.637235,53.738629],[-9.637289,53.738612],[-9.637369,53.738599],[-9.637409,53.738593],[-9.637465,53.738582],[-9.637514,53.738574],[-9.637552,53.738567],[-9.637646,53.73856],[-9.637775,53.73855],[-9.637906,53.738534],[-9.637979,53.738525],[-9.638062,53.738536],[-9.638295,53.738569],[-9.638501,53.738598],[-9.63867,53.738621],[-9.638822,53.738644],[-9.63898,53.738638],[-9.639024,53.738636],[-9.63914,53.738631],[-9.639197,53.738627],[-9.63927,53.738623],[-9.639331,53.73862],[-9.639543,53.73858],[-9.639556,53.738577],[-9.639556,53.738577],[-9.639859,53.738573],[-9.639927,53.738563],[-9.64005,53.738544],[-9.640138,53.738532],[-9.640263,53.738514],[-9.640726,53.738433],[-9.641217,53.738338],[-9.641259,53.738295],[-9.641281,53.738271],[-9.641292,53.738237],[-9.642141,53.738183],[-9.642416,53.738165],[-9.642711,53.738146],[-9.644304,53.73781],[-9.643579,53.73782],[-9.643544,53.736922],[-9.645059,53.736901],[-9.645024,53.736003],[-9.646539,53.735982],[-9.646504,53.735084],[-9.648018,53.735063],[-9.647983,53.734165],[-9.652527,53.734103],[-9.652562,53.735001],[-9.655592,53.734959],[-9.655615,53.735545],[-9.656577,53.73534],[-9.657041,53.735113],[-9.657076,53.735096],[-9.657417,53.73494],[-9.657666,53.734811],[-9.657708,53.734789],[-9.657726,53.734787],[-9.657756,53.734784],[-9.657883,53.734773],[-9.658443,53.734608],[-9.658607,53.73456],[-9.658585,53.734019],[-9.660415,53.733994],[-9.660431,53.733988],[-9.660503,53.733958],[-9.661177,53.733681],[-9.661596,53.733495],[-9.661579,53.733079],[-9.662535,53.733066],[-9.662683,53.732996],[-9.662888,53.732895],[-9.663084,53.732804],[-9.663058,53.73216],[-9.664751,53.732136],[-9.664954,53.732052],[-9.665257,53.731924],[-9.665558,53.731773],[-9.66564,53.731737],[-9.665714,53.731704],[-9.666065,53.731545],[-9.666052,53.73122],[-9.667567,53.731199],[-9.667582,53.731587],[-9.66783,53.731581],[-9.668064,53.731576],[-9.668788,53.73157],[-9.668848,53.731558],[-9.668994,53.731527],[-9.669245,53.731524],[-9.669545,53.73155],[-9.669586,53.731554],[-9.669974,53.731618],[-9.670121,53.731657],[-9.670146,53.731664],[-9.670334,53.731736],[-9.670509,53.731774],[-9.670509,53.731774],[-9.671022,53.731478],[-9.67101,53.731467],[-9.670905,53.731438],[-9.670813,53.73136],[-9.670764,53.731256],[-9.670746,53.731194],[-9.670745,53.73119],[-9.670752,53.731154],[-9.670732,53.73114],[-9.670736,53.731121],[-9.670781,53.731095],[-9.670838,53.731066],[-9.670845,53.731024],[-9.670836,53.730976],[-9.670825,53.730925],[-9.670852,53.730879],[-9.670873,53.730831],[-9.670849,53.730807],[-9.670876,53.730795],[-9.670912,53.730781],[-9.670956,53.730741],[-9.670776,53.730582],[-9.670681,53.730545],[-9.670652,53.730535],[-9.670635,53.730498],[-9.670605,53.730469],[-9.670572,53.730445],[-9.670546,53.730442],[-9.670496,53.730438],[-9.67049,53.730413],[-9.670451,53.730363],[-9.670416,53.730331],[-9.670357,53.730308],[-9.670268,53.730285],[-9.670191,53.730258],[-9.670158,53.730237],[-9.670152,53.730221],[-9.670151,53.730189],[-9.670122,53.73018],[-9.670052,53.730141],[-9.66998,53.730106],[-9.669974,53.73009],[-9.669945,53.730063],[-9.669867,53.730033],[-9.669788,53.730013],[-9.669724,53.729986],[-9.669646,53.729979],[-9.669593,53.729972],[-9.669545,53.729959],[-9.669525,53.729976],[-9.669441,53.729962],[-9.669379,53.729972],[-9.669361,53.729996],[-9.669362,53.730022],[-9.669318,53.73003],[-9.669253,53.73003],[-9.669219,53.730043],[-9.669198,53.730086],[-9.669181,53.730116],[-9.669134,53.730123],[-9.669106,53.730108],[-9.669112,53.730077],[-9.669089,53.730062],[-9.669078,53.730049],[-9.669048,53.730043],[-9.669011,53.730041],[-9.668969,53.730027],[-9.66894,53.730018],[-9.668918,53.730032],[-9.668877,53.730035],[-9.668879,53.729995],[-9.66886,53.729973],[-9.668815,53.729965],[-9.668766,53.729927],[-9.668743,53.729918],[-9.668675,53.729895],[-9.668541,53.729855],[-9.668499,53.729823],[-9.668441,53.729776],[-9.668336,53.729657],[-9.668273,53.72955],[-9.66825,53.729533],[-9.66826,53.729517],[-9.668286,53.729506],[-9.668326,53.729505],[-9.668349,53.729509],[-9.668366,53.729489],[-9.668306,53.729468],[-9.668272,53.729438],[-9.668248,53.729412],[-9.668208,53.729428],[-9.668186,53.729411],[-9.6682,53.7294],[-9.668206,53.729373],[-9.668157,53.729341],[-9.66816,53.729324],[-9.668184,53.729277],[-9.668196,53.729231],[-9.668166,53.729205],[-9.668176,53.729194],[-9.668228,53.729178],[-9.668293,53.729153],[-9.668317,53.729117],[-9.668298,53.729017],[-9.668311,53.72896],[-9.668329,53.728955],[-9.668381,53.728967],[-9.668411,53.728965],[-9.668504,53.728976],[-9.668534,53.728985],[-9.668548,53.728974],[-9.66848,53.728935],[-9.668449,53.728907],[-9.668395,53.728759],[-9.668347,53.728672],[-9.668274,53.728616],[-9.668241,53.728612],[-9.668182,53.728615],[-9.668015,53.728615],[-9.667986,53.728631],[-9.667861,53.728644],[-9.66778,53.728658],[-9.667641,53.728671],[-9.6676,53.728663],[-9.667562,53.728659],[-9.667488,53.72866],[-9.667448,53.728654],[-9.667407,53.728646],[-9.667376,53.728627],[-9.667362,53.728642],[-9.667317,53.728639],[-9.667294,53.728606],[-9.667279,53.728598],[-9.667217,53.728528],[-9.667212,53.728513],[-9.667186,53.728489],[-9.667159,53.728477],[-9.667128,53.728451],[-9.667104,53.728443],[-9.667063,53.728429],[-9.66699,53.728403],[-9.666933,53.728383],[-9.666922,53.728384],[-9.666893,53.728397],[-9.666864,53.728402],[-9.66682,53.728392],[-9.66675,53.728387],[-9.666686,53.728383],[-9.666638,53.72839],[-9.666623,53.728401],[-9.666598,53.728415],[-9.666569,53.728417],[-9.666565,53.728406],[-9.666527,53.728392],[-9.666487,53.728403],[-9.666457,53.728406],[-9.666434,53.728386],[-9.66642,53.728391],[-9.66642,53.728409],[-9.666394,53.728407],[-9.666379,53.728389],[-9.666364,53.728374],[-9.66634,53.728353],[-9.666322,53.72836],[-9.666309,53.728397],[-9.666321,53.728414],[-9.666366,53.728436],[-9.666382,53.728451],[-9.666372,53.728477],[-9.666391,53.72851],[-9.666396,53.728536],[-9.666427,53.728573],[-9.666414,53.728613],[-9.666452,53.728632],[-9.666512,53.728659],[-9.666518,53.728699],[-9.666564,53.728738],[-9.666558,53.728775],[-9.666559,53.728803],[-9.666586,53.72884],[-9.666629,53.72889],[-9.66663,53.728916],[-9.666662,53.72896],[-9.666696,53.728975],[-9.66674,53.728976],[-9.666737,53.728996],[-9.666784,53.729048],[-9.666815,53.729093],[-9.666834,53.729095],[-9.666846,53.729124],[-9.666891,53.729138],[-9.666911,53.72918],[-9.666927,53.72921],[-9.666932,53.729232],[-9.666955,53.729256],[-9.667024,53.729278],[-9.667026,53.729279],[-9.667049,53.72929],[-9.667035,53.729307],[-9.667026,53.729309],[-9.667002,53.729312],[-9.666988,53.729323],[-9.666996,53.729354],[-9.667008,53.729369],[-9.667028,53.729367],[-9.667052,53.729364],[-9.667053,53.729388],[-9.667039,53.729399],[-9.667029,53.729404],[-9.667024,53.729406],[-9.666992,53.729429],[-9.666971,53.729457],[-9.666927,53.729476],[-9.666954,53.729493],[-9.666954,53.729504],[-9.66693,53.729537],[-9.666908,53.729537],[-9.666875,53.72956],[-9.666879,53.729566],[-9.666902,53.729568],[-9.666866,53.729588],[-9.666852,53.729613],[-9.666871,53.729639],[-9.666858,53.729662],[-9.666806,53.729653],[-9.666786,53.729621],[-9.666771,53.729581],[-9.666724,53.729569],[-9.666713,53.729566],[-9.666669,53.729572],[-9.666628,53.729577],[-9.666596,53.729588],[-9.6665,53.729596],[-9.666481,53.729598],[-9.666444,53.729579],[-9.66645,53.729562],[-9.666431,53.729549],[-9.666394,53.729541],[-9.666299,53.729489],[-9.666211,53.729405],[-9.666165,53.729371],[-9.66604,53.729298],[-9.665861,53.729187],[-9.665823,53.729141],[-9.66576,53.72907],[-9.665667,53.728963],[-9.665637,53.728935],[-9.665534,53.72888],[-9.665391,53.728818],[-9.665271,53.72877],[-9.665103,53.728722],[-9.664989,53.728666],[-9.664901,53.728595],[-9.664809,53.72859],[-9.664749,53.728582],[-9.664704,53.728572],[-9.664696,53.728555],[-9.66471,53.728539],[-9.664653,53.728494],[-9.664623,53.728472],[-9.664578,53.728462],[-9.664533,53.728447],[-9.66451,53.728441],[-9.664485,53.728452],[-9.664445,53.728464],[-9.6644,53.728458],[-9.664317,53.728422],[-9.664146,53.7284],[-9.664076,53.728393],[-9.663997,53.728376],[-9.663878,53.728341],[-9.663794,53.728289],[-9.663662,53.728219],[-9.663572,53.728104],[-9.663568,53.728003],[-9.663607,53.727968],[-9.663682,53.727907],[-9.663701,53.727839],[-9.663671,53.72782],[-9.663632,53.727781],[-9.663609,53.727755],[-9.663604,53.727718],[-9.663618,53.727713],[-9.663665,53.727679],[-9.663693,53.727653],[-9.663661,53.727596],[-9.663608,53.727566],[-9.663546,53.727495],[-9.663471,53.727467],[-9.663439,53.727417],[-9.663368,53.727388],[-9.663108,53.727277],[-9.663002,53.727216],[-9.663007,53.727322],[-9.662552,53.727328],[-9.662542,53.727059],[-9.662802,53.727055],[-9.66275,53.72702],[-9.662749,53.727002],[-9.662818,53.726964],[-9.662846,53.726939],[-9.663008,53.726994],[-9.663191,53.727044],[-9.663205,53.727022],[-9.663193,53.727004],[-9.663159,53.726985],[-9.663121,53.726959],[-9.663109,53.726938],[-9.663088,53.726885],[-9.663061,53.726857],[-9.663034,53.726838],[-9.663022,53.726814],[-9.662993,53.726816],[-9.66297,53.726806],[-9.662955,53.726791],[-9.66295,53.726767],[-9.662909,53.726754],[-9.662871,53.726733],[-9.66284,53.726707],[-9.662806,53.726674],[-9.662805,53.726661],[-9.662823,53.726635],[-9.662821,53.726602],[-9.662783,53.726572],[-9.662723,53.72654],[-9.662677,53.72651],[-9.662605,53.726465],[-9.662548,53.726433],[-9.662503,53.726414],[-9.662501,53.726363],[-9.662443,53.72632],[-9.662371,53.726262],[-9.662326,53.726243],[-9.662257,53.726193],[-9.662259,53.726154],[-9.662229,53.726137],[-9.662162,53.726131],[-9.662147,53.726121],[-9.662108,53.72609],[-9.662062,53.726038],[-9.662042,53.72601],[-9.662044,53.725973],[-9.662073,53.725955],[-9.662105,53.725928],[-9.662199,53.725868],[-9.662224,53.725845],[-9.662226,53.725801],[-9.662225,53.725775],[-9.662212,53.725727],[-9.662256,53.725654],[-9.662272,53.725595],[-9.662267,53.725553],[-9.662173,53.725421],[-9.662105,53.72538],[-9.662092,53.725343],[-9.662141,53.725283],[-9.662195,53.725234],[-9.662247,53.725165],[-9.66224,53.725132],[-9.662238,53.725121],[-9.662238,53.725121],[-9.662159,53.725088],[-9.662125,53.725033],[-9.662069,53.724992],[-9.661939,53.724964],[-9.661815,53.724944],[-9.661742,53.724932],[-9.661511,53.724886],[-9.6614,53.724872],[-9.661293,53.724878],[-9.661181,53.72483],[-9.660982,53.724766],[-9.660834,53.724712],[-9.660806,53.724666],[-9.660762,53.724617],[-9.660564,53.724521],[-9.660434,53.724451],[-9.660258,53.724383],[-9.660216,53.72432],[-9.660174,53.724251],[-9.660083,53.724103],[-9.660067,53.724076],[-9.659836,53.723957],[-9.659448,53.723753],[-9.659284,53.723651],[-9.659113,53.723522],[-9.659032,53.723445],[-9.658952,53.723279],[-9.658893,53.72318],[-9.658844,53.723077],[-9.658795,53.72303],[-9.658724,53.722969],[-9.658696,53.722897],[-9.658704,53.722838],[-9.65868,53.722801],[-9.658602,53.722732],[-9.658551,53.722684],[-9.658464,53.722618],[-9.658334,53.722507],[-9.658137,53.722352],[-9.658126,53.722347],[-9.657908,53.722254],[-9.65771,53.722152],[-9.657537,53.722078],[-9.657406,53.722007],[-9.657342,53.722008],[-9.65734,53.721972],[-9.657313,53.721957],[-9.657096,53.721854],[-9.656992,53.721789],[-9.656897,53.721744],[-9.656877,53.721745],[-9.656876,53.721735],[-9.656794,53.721696],[-9.656651,53.721637],[-9.656507,53.721569],[-9.656427,53.721533],[-9.656312,53.721481],[-9.656216,53.721432],[-9.656135,53.721375],[-9.656034,53.721276],[-9.655888,53.721212],[-9.655647,53.721104],[-9.655405,53.720996],[-9.655273,53.720944],[-9.655217,53.720918],[-9.655095,53.720873],[-9.654979,53.720836],[-9.654852,53.720751],[-9.654733,53.720678],[-9.65465,53.720639],[-9.654592,53.720605],[-9.654554,53.720583],[-9.654456,53.720547],[-9.654325,53.720527],[-9.654191,53.720523],[-9.654109,53.720512],[-9.654101,53.720509],[-9.654108,53.720705],[-9.654563,53.720698],[-9.654573,53.720968],[-9.654119,53.720974],[-9.654129,53.721243],[-9.653675,53.72125],[-9.653664,53.72098],[-9.652301,53.720999],[-9.652291,53.72073],[-9.651837,53.720736],[-9.651826,53.720466],[-9.651372,53.720473],[-9.65135,53.719934],[-9.65134,53.719664],[-9.651794,53.719658],[-9.651805,53.719927],[-9.652259,53.719921],[-9.65228,53.72046],[-9.653643,53.720441],[-9.65364,53.720354],[-9.653557,53.720324],[-9.6534,53.720263],[-9.65332,53.720232],[-9.653222,53.720209],[-9.653158,53.720195],[-9.652984,53.720157],[-9.652805,53.720107],[-9.6527,53.720031],[-9.652669,53.71992],[-9.652636,53.719812],[-9.652616,53.719714],[-9.652591,53.719612],[-9.652453,53.719516],[-9.652265,53.719389],[-9.652082,53.719258],[-9.651904,53.719134],[-9.65173,53.719022],[-9.651565,53.718898],[-9.651478,53.718825],[-9.651351,53.718714],[-9.651242,53.718613],[-9.651144,53.718556],[-9.650917,53.718398],[-9.650751,53.718293],[-9.650705,53.71826],[-9.650604,53.718205],[-9.650454,53.718171],[-9.650198,53.718085],[-9.649887,53.717998],[-9.649624,53.71792],[-9.649447,53.717879],[-9.649199,53.717804],[-9.649045,53.717754],[-9.648996,53.717709],[-9.648937,53.717567],[-9.648892,53.717419],[-9.648915,53.717323],[-9.648988,53.717259],[-9.64907,53.717194],[-9.649136,53.717126],[-9.649143,53.717048],[-9.649094,53.716987],[-9.649055,53.716936],[-9.648986,53.716905],[-9.648959,53.716898],[-9.648963,53.717001],[-9.648973,53.71727],[-9.648519,53.717276],[-9.648509,53.717007],[-9.647146,53.717026],[-9.647135,53.716756],[-9.6484,53.716739],[-9.64829,53.716694],[-9.648117,53.71662],[-9.647774,53.716533],[-9.64733,53.716417],[-9.646913,53.716319],[-9.6465,53.716209],[-9.646228,53.716139],[-9.646136,53.716055],[-9.645982,53.715934]],[[-9.651329,53.719395],[-9.65134,53.719664],[-9.650886,53.71967],[-9.650875,53.719401],[-9.651329,53.719395]],[[-9.657106,53.734938],[-9.655592,53.734959],[-9.655556,53.734061],[-9.657071,53.73404],[-9.657106,53.734938]],[[-9.652523,53.726658],[-9.652513,53.726389],[-9.653876,53.72637],[-9.653887,53.726639],[-9.654795,53.726627],[-9.654806,53.726896],[-9.655715,53.726884],[-9.655725,53.727153],[-9.656634,53.727141],[-9.656645,53.72741],[-9.657554,53.727398],[-9.657564,53.727667],[-9.658473,53.727654],[-9.658484,53.727924],[-9.658938,53.727918],[-9.658949,53.728187],[-9.659403,53.728181],[-9.659414,53.72845],[-9.659868,53.728444],[-9.659879,53.728713],[-9.660333,53.728707],[-9.660344,53.728977],[-9.661253,53.728964],[-9.661263,53.729234],[-9.661718,53.729227],[-9.661728,53.729497],[-9.662183,53.72949],[-9.662193,53.72976],[-9.662648,53.729754],[-9.662658,53.730023],[-9.662669,53.730293],[-9.66268,53.730562],[-9.663134,53.730556],[-9.663145,53.730825],[-9.661781,53.730844],[-9.661771,53.730575],[-9.661316,53.730581],[-9.661306,53.730311],[-9.660851,53.730318],[-9.660841,53.730048],[-9.659932,53.730061],[-9.659921,53.729791],[-9.658558,53.72981],[-9.658547,53.729541],[-9.658093,53.729547],[-9.658082,53.729278],[-9.657173,53.72929],[-9.657163,53.729021],[-9.657152,53.728751],[-9.657607,53.728745],[-9.657596,53.728475],[-9.657142,53.728482],[-9.657131,53.728212],[-9.655768,53.728231],[-9.655757,53.727962],[-9.654848,53.727974],[-9.654838,53.727705],[-9.655292,53.727698],[-9.655282,53.727429],[-9.655271,53.727159],[-9.654362,53.727172],[-9.654352,53.726903],[-9.652988,53.726921],[-9.652978,53.726652],[-9.652523,53.726658]],[[-9.652502,53.726119],[-9.652513,53.726389],[-9.652058,53.726395],[-9.652048,53.726125],[-9.652502,53.726119]],[[-9.662278,53.731916],[-9.662289,53.732185],[-9.66138,53.732198],[-9.66137,53.731928],[-9.661359,53.731659],[-9.661813,53.731653],[-9.661803,53.731383],[-9.662257,53.731377],[-9.662268,53.731646],[-9.662722,53.73164],[-9.662733,53.731909],[-9.662278,53.731916]],[[-9.661856,53.73273],[-9.661401,53.732737],[-9.661391,53.732467],[-9.661845,53.732461],[-9.661856,53.73273]],[[-9.660947,53.732743],[-9.661401,53.732737],[-9.661412,53.733006],[-9.660958,53.733012],[-9.660947,53.732743]],[[-9.660503,53.733019],[-9.660958,53.733012],[-9.660968,53.733282],[-9.659605,53.733301],[-9.659615,53.73357],[-9.659161,53.733577],[-9.659172,53.733846],[-9.658263,53.733859],[-9.658252,53.733589],[-9.656889,53.733608],[-9.656878,53.733339],[-9.655969,53.733351],[-9.655958,53.733082],[-9.655049,53.733094],[-9.655039,53.732825],[-9.65413,53.732837],[-9.654119,53.732568],[-9.653665,53.732574],[-9.653654,53.732305],[-9.655927,53.732273],[-9.655937,53.732543],[-9.656392,53.732536],[-9.656402,53.732806],[-9.657766,53.732787],[-9.657776,53.733057],[-9.65914,53.733038],[-9.659129,53.732768],[-9.660492,53.732749],[-9.660503,53.733019]],[[-9.650685,53.726144],[-9.650674,53.725875],[-9.651128,53.725868],[-9.651139,53.726138],[-9.650685,53.726144]],[[-9.652788,53.733395],[-9.652798,53.733665],[-9.65098,53.73369],[-9.65097,53.73342],[-9.650061,53.733433],[-9.65005,53.733163],[-9.649141,53.733176],[-9.649131,53.732906],[-9.648222,53.732919],[-9.648211,53.732649],[-9.647302,53.732662],[-9.647292,53.732392],[-9.647281,53.732123],[-9.647271,53.731853],[-9.64818,53.731841],[-9.648169,53.731571],[-9.650441,53.73154],[-9.650452,53.73181],[-9.65227,53.731784],[-9.65228,53.732054],[-9.652735,53.732048],[-9.652745,53.732317],[-9.650927,53.732342],[-9.650938,53.732612],[-9.651392,53.732605],[-9.651403,53.732875],[-9.651414,53.733144],[-9.651868,53.733138],[-9.651879,53.733408],[-9.652788,53.733395]],[[-9.645484,53.732687],[-9.647302,53.732662],[-9.647313,53.732931],[-9.644131,53.732975],[-9.644142,53.733244],[-9.64187,53.733276],[-9.64188,53.733545],[-9.641426,53.733551],[-9.641436,53.733821],[-9.640073,53.733839],[-9.640083,53.734109],[-9.639629,53.734115],[-9.639639,53.734385],[-9.639185,53.734391],[-9.639195,53.73466],[-9.637832,53.734679],[-9.637842,53.734948],[-9.636479,53.734967],[-9.636489,53.735237],[-9.636035,53.735243],[-9.636045,53.735512],[-9.635136,53.735525],[-9.635146,53.735794],[-9.637874,53.735757],[-9.637884,53.736026],[-9.638339,53.73602],[-9.638349,53.73629],[-9.63744,53.736302],[-9.63745,53.736572],[-9.636087,53.73659],[-9.636076,53.736321],[-9.635167,53.736333],[-9.635178,53.736603],[-9.634723,53.736609],[-9.634734,53.736878],[-9.629734,53.736946],[-9.629724,53.736677],[-9.628815,53.736689],[-9.628804,53.73642],[-9.627895,53.736432],[-9.627885,53.736163],[-9.62743,53.736169],[-9.627441,53.736438],[-9.626532,53.736451],[-9.626521,53.736181],[-9.626511,53.735912],[-9.626965,53.735905],[-9.626955,53.735636],[-9.626944,53.735367],[-9.626934,53.735097],[-9.626924,53.734828],[-9.626469,53.734834],[-9.626459,53.734564],[-9.626004,53.73457],[-9.625983,53.734031],[-9.625529,53.734038],[-9.625519,53.733768],[-9.627791,53.733737],[-9.627801,53.734007],[-9.627347,53.734013],[-9.627368,53.734552],[-9.627378,53.734821],[-9.629651,53.734791],[-9.62964,53.734521],[-9.62963,53.734252],[-9.630539,53.734239],[-9.630528,53.73397],[-9.631437,53.733957],[-9.631427,53.733688],[-9.633699,53.733657],[-9.633689,53.733387],[-9.634143,53.733381],[-9.634133,53.733112],[-9.635042,53.733099],[-9.635031,53.73283],[-9.636849,53.732805],[-9.636839,53.732536],[-9.637748,53.732523],[-9.637727,53.731984],[-9.637272,53.73199],[-9.637262,53.731721],[-9.636353,53.731733],[-9.636343,53.731464],[-9.635888,53.73147],[-9.635878,53.731201],[-9.635423,53.731207],[-9.635413,53.730937],[-9.634958,53.730943],[-9.634948,53.730674],[-9.634937,53.730405],[-9.635392,53.730398],[-9.635381,53.730129],[-9.63629,53.730116],[-9.63628,53.729847],[-9.638097,53.729822],[-9.638108,53.730092],[-9.639017,53.730079],[-9.639027,53.730349],[-9.639482,53.730342],[-9.639492,53.730612],[-9.640401,53.730599],[-9.640412,53.730869],[-9.640866,53.730863],[-9.640877,53.731132],[-9.641331,53.731126],[-9.641342,53.731395],[-9.641352,53.731665],[-9.641363,53.731934],[-9.641817,53.731928],[-9.641838,53.732467],[-9.641849,53.732737],[-9.642758,53.732724],[-9.642747,53.732455],[-9.643201,53.732448],[-9.643191,53.732179],[-9.6441,53.732167],[-9.64411,53.732436],[-9.645019,53.732424],[-9.645009,53.732154],[-9.645463,53.732148],[-9.645453,53.731878],[-9.645907,53.731872],[-9.645918,53.732142],[-9.645928,53.732411],[-9.645474,53.732417],[-9.645484,53.732687]],[[-9.634504,53.73095],[-9.634958,53.730943],[-9.634979,53.731482],[-9.634525,53.731489],[-9.634504,53.73095]],[[-9.652809,53.733934],[-9.652798,53.733665],[-9.653707,53.733652],[-9.653718,53.733922],[-9.652809,53.733934]],[[-9.653728,53.734191],[-9.653718,53.733922],[-9.654172,53.733915],[-9.654183,53.734185],[-9.653728,53.734191]],[[-9.653232,53.733119],[-9.652323,53.733132],[-9.652312,53.732862],[-9.652766,53.732856],[-9.652756,53.732587],[-9.65321,53.73258],[-9.653221,53.73285],[-9.653232,53.733119]],[[-9.64297,53.72652],[-9.642949,53.725981],[-9.643404,53.725975],[-9.643425,53.726514],[-9.64297,53.72652]],[[-9.642547,53.727335],[-9.642093,53.727341],[-9.642103,53.72761],[-9.641649,53.727617],[-9.641639,53.727347],[-9.640275,53.727366],[-9.640265,53.727096],[-9.640254,53.726827],[-9.641618,53.726808],[-9.641628,53.727078],[-9.642537,53.727065],[-9.642547,53.727335]],[[-9.635256,53.726895],[-9.635266,53.727165],[-9.633903,53.727183],[-9.633893,53.726914],[-9.633438,53.72692],[-9.633428,53.72665],[-9.634336,53.726638],[-9.634347,53.726907],[-9.635256,53.726895]],[[-9.629154,53.733719],[-9.628246,53.733731],[-9.628235,53.733462],[-9.629144,53.733449],[-9.629154,53.733719]],[[-9.62556,53.734846],[-9.624197,53.734865],[-9.624186,53.734595],[-9.624641,53.734589],[-9.62463,53.734319],[-9.625539,53.734307],[-9.62555,53.734577],[-9.62556,53.734846]]]]}}]}
