{"type":"FeatureCollection","features":[{"type":"Feature","properties":{"source_fid":399046,"county":"Mayo","bog_geom_ha":246.54134842587234,"low15_pct":75.982532751091696,"low15_ha":187.32836081267155,"overlay_ha":187.85462992358063,"area_delta":0.52626911090908379},"geometry":{"type":"MultiPolygon","coordinates":[[[[-9.555602,54.235817],[-9.554097,54.235688],[-9.553863,54.23568],[-9.553655,54.235673],[-9.553519,54.235714],[-9.553243,54.235817],[-9.552853,54.235964],[-9.55145,54.236497],[-9.551808,54.236996],[-9.551799,54.236758],[-9.553179,54.23674],[-9.553169,54.236471],[-9.553629,54.236465],[-9.553639,54.236734],[-9.554099,54.236728],[-9.554089,54.236459],[-9.554549,54.236453],[-9.554559,54.236723],[-9.555019,54.236717],[-9.555029,54.236986],[-9.555489,54.23698],[-9.555499,54.23725],[-9.555039,54.237256],[-9.555049,54.237525],[-9.55507,54.238064],[-9.55508,54.238333],[-9.555084,54.238441],[-9.556032,54.238228],[-9.556254,54.238178],[-9.557974,54.237916],[-9.558123,54.238271],[-9.560627,54.238069],[-9.56061,54.237599],[-9.561955,54.237582],[-9.56195,54.237436],[-9.562137,54.237433],[-9.562109,54.236681],[-9.563301,54.236666],[-9.563299,54.236609],[-9.563291,54.236388],[-9.563037,54.236326],[-9.563014,54.23632],[-9.562931,54.23631],[-9.56212,54.236218],[-9.560879,54.236139],[-9.559944,54.236084],[-9.559646,54.236066],[-9.559017,54.236029],[-9.55824,54.235982],[-9.557075,54.23592],[-9.556843,54.235908],[-9.556222,54.235862],[-9.555602,54.235817]],[[-9.555949,54.236974],[-9.555489,54.23698],[-9.555479,54.236711],[-9.555939,54.236705],[-9.555949,54.236974]]],[[[-9.55372,54.23889],[-9.55373,54.23916],[-9.55327,54.239166],[-9.55328,54.239435],[-9.55329,54.239688],[-9.553524,54.239573],[-9.553578,54.23952],[-9.553829,54.239173],[-9.554003,54.238946],[-9.554022,54.238886],[-9.55372,54.23889]]],[[[-9.544115,54.240507],[-9.544575,54.240501],[-9.54457,54.240356],[-9.544109,54.240362],[-9.544115,54.240507]]],[[[-9.551994,54.241962],[-9.552001,54.242147],[-9.552394,54.242142],[-9.551994,54.241962]]],[[[-9.553872,54.242932],[-9.553882,54.243202],[-9.554342,54.243196],[-9.554332,54.242926],[-9.553872,54.242932]]],[[[-9.553422,54.243208],[-9.553432,54.243477],[-9.553892,54.243471],[-9.553882,54.243202],[-9.553422,54.243208]]],[[[-9.553161,54.24348],[-9.553172,54.24375],[-9.553442,54.243746],[-9.553432,54.243477],[-9.553161,54.24348]]],[[[-9.555262,54.243184],[-9.555272,54.243453],[-9.554812,54.243459],[-9.554822,54.243729],[-9.555283,54.243723],[-9.555293,54.243992],[-9.555753,54.243986],[-9.555763,54.244256],[-9.554843,54.244268],[-9.554863,54.244807],[-9.554403,54.244812],[-9.554413,54.245082],[-9.553493,54.245094],[-9.553503,54.245363],[-9.553043,54.245369],[-9.553053,54.245639],[-9.553063,54.245908],[-9.552603,54.245914],[-9.552613,54.246184],[-9.552153,54.246189],[-9.552143,54.24592],[-9.551683,54.245926],[-9.551693,54.246195],[-9.551233,54.246201],[-9.551243,54.246471],[-9.552623,54.246453],[-9.552633,54.246722],[-9.552173,54.246728],[-9.552183,54.246998],[-9.552193,54.247267],[-9.551733,54.247273],[-9.551723,54.247004],[-9.550343,54.247022],[-9.550353,54.247291],[-9.550365,54.247614],[-9.551782,54.247596],[-9.551816,54.248494],[-9.551779,54.248495],[-9.551784,54.248621],[-9.551794,54.24889],[-9.550414,54.248908],[-9.550424,54.249177],[-9.550307,54.249179],[-9.550327,54.249718],[-9.550904,54.24971],[-9.550894,54.249441],[-9.551354,54.249435],[-9.551344,54.249165],[-9.552264,54.249154],[-9.552274,54.249423],[-9.552285,54.249693],[-9.552295,54.249962],[-9.552755,54.249956],[-9.552765,54.250226],[-9.552305,54.250231],[-9.552325,54.25077],[-9.551865,54.250776],[-9.551875,54.251046],[-9.551415,54.251052],[-9.55142,54.251195],[-9.551917,54.251188],[-9.551932,54.251584],[-9.551998,54.251583],[-9.552119,54.251519],[-9.552348,54.251388],[-9.552345,54.251309],[-9.55249,54.251307],[-9.552655,54.251214],[-9.552799,54.251135],[-9.552795,54.251034],[-9.552991,54.251031],[-9.553552,54.250728],[-9.554241,54.25036],[-9.555109,54.249845],[-9.555525,54.249546],[-9.556001,54.249186],[-9.556538,54.248825],[-9.556792,54.248675],[-9.557836,54.248416],[-9.554883,54.248455],[-9.554916,54.249353],[-9.553383,54.249372],[-9.553364,54.24887],[-9.553174,54.248872],[-9.553164,54.248603],[-9.553354,54.2486],[-9.553282,54.246678],[-9.559415,54.246599],[-9.559427,54.246904],[-9.560466,54.246891],[-9.560476,54.24716],[-9.561396,54.247148],[-9.561386,54.246879],[-9.561846,54.246873],[-9.561836,54.246604],[-9.561826,54.246334],[-9.559065,54.24637],[-9.559055,54.2461],[-9.558595,54.246106],[-9.558584,54.245837],[-9.557664,54.245849],[-9.557654,54.245579],[-9.559495,54.245556],[-9.559505,54.245825],[-9.561345,54.245801],[-9.561355,54.246071],[-9.562276,54.246059],[-9.562286,54.246328],[-9.562746,54.246322],[-9.562756,54.246592],[-9.562296,54.246598],[-9.562306,54.246864],[-9.562802,54.246568],[-9.563514,54.246159],[-9.564963,54.245388],[-9.565964,54.244717],[-9.566251,54.244519],[-9.566884,54.244007],[-9.567621,54.243446],[-9.568251,54.242972],[-9.568691,54.242588],[-9.56982,54.241641],[-9.569989,54.241491],[-9.569653,54.241202],[-9.569219,54.240802],[-9.568885,54.240493],[-9.568842,54.240453],[-9.568552,54.240146],[-9.568367,54.239854],[-9.568366,54.239572],[-9.56821,54.239337],[-9.568085,54.239017],[-9.568046,54.238674],[-9.567848,54.238403],[-9.567822,54.238368],[-9.567786,54.238305],[-9.56775,54.23824],[-9.567688,54.23812],[-9.567674,54.238095],[-9.567614,54.238061],[-9.567457,54.237972],[-9.567154,54.237803],[-9.567108,54.237778],[-9.566745,54.237568],[-9.566575,54.237475],[-9.566565,54.23747],[-9.56648,54.237368],[-9.566394,54.237266],[-9.566278,54.237131],[-9.566077,54.23704],[-9.56608,54.237113],[-9.56609,54.237382],[-9.56556,54.237389],[-9.565302,54.237579],[-9.56518,54.237651],[-9.56518,54.237663],[-9.565159,54.237664],[-9.564936,54.237797],[-9.564879,54.237869],[-9.56473,54.23793],[-9.56473,54.237939],[-9.564706,54.237939],[-9.563949,54.238246],[-9.564074,54.23836],[-9.564705,54.238741],[-9.564935,54.238865],[-9.564919,54.239201],[-9.564512,54.23923],[-9.563944,54.239343],[-9.56331,54.239484],[-9.563279,54.239557],[-9.563144,54.239624],[-9.562622,54.239782],[-9.562536,54.239882],[-9.562673,54.240252],[-9.562664,54.240268],[-9.562615,54.240358],[-9.562163,54.240567],[-9.561626,54.240691],[-9.560833,54.240766],[-9.560132,54.240698],[-9.559732,54.240694],[-9.5595,54.240705],[-9.558776,54.240592],[-9.558387,54.240597],[-9.558391,54.240717],[-9.5584,54.240935],[-9.558462,54.240993],[-9.558578,54.241128],[-9.558586,54.241169],[-9.558578,54.241192],[-9.558484,54.241224],[-9.558163,54.241253],[-9.557562,54.241298],[-9.556538,54.241356],[-9.556227,54.241476],[-9.556423,54.241732],[-9.556465,54.24182],[-9.556592,54.241819],[-9.556602,54.242088],[-9.55658,54.242088],[-9.556607,54.242234],[-9.556626,54.242287],[-9.556151,54.242333],[-9.556152,54.242364],[-9.555692,54.242369],[-9.555692,54.242358],[-9.555663,54.242359],[-9.555614,54.242363],[-9.555546,54.242369],[-9.555489,54.242374],[-9.555126,54.242391],[-9.553854,54.242451],[-9.553862,54.242663],[-9.554322,54.242657],[-9.554332,54.242926],[-9.554792,54.24292],[-9.554782,54.242651],[-9.555702,54.242639],[-9.555712,54.242908],[-9.555252,54.242914],[-9.555262,54.243184]],[[-9.565282,54.240358],[-9.565742,54.240352],[-9.565752,54.240622],[-9.565292,54.240628],[-9.565282,54.240358]],[[-9.557583,54.243693],[-9.557573,54.243424],[-9.557113,54.24343],[-9.557103,54.24316],[-9.558483,54.243142],[-9.558493,54.243412],[-9.558033,54.243418],[-9.558043,54.243687],[-9.557583,54.243693]],[[-9.558953,54.243406],[-9.560333,54.243388],[-9.560354,54.243927],[-9.558973,54.243945],[-9.558953,54.243406]]],[[[-9.553912,54.24401],[-9.553923,54.244279],[-9.554843,54.244268],[-9.554833,54.243998],[-9.554822,54.243729],[-9.553902,54.243741],[-9.553912,54.24401]]],[[[-9.552113,54.245112],[-9.551652,54.245118],[-9.551663,54.245387],[-9.551202,54.245393],[-9.551213,54.245662],[-9.550292,54.245674],[-9.550282,54.245405],[-9.550166,54.245406],[-9.550181,54.24582],[-9.548917,54.245836],[-9.548922,54.245961],[-9.551683,54.245926],[-9.551673,54.245656],[-9.552133,54.245651],[-9.552123,54.245381],[-9.552583,54.245375],[-9.552573,54.245106],[-9.552563,54.244836],[-9.552102,54.244842],[-9.552113,54.245112]]],[[[-9.546212,54.247344],[-9.546222,54.247614],[-9.545762,54.24762],[-9.545772,54.247889],[-9.545782,54.248159],[-9.546242,54.248153],[-9.546232,54.247883],[-9.546692,54.247877],[-9.546672,54.247338],[-9.546212,54.247344]]],[[[-9.560036,54.247705],[-9.559457,54.247713],[-9.559471,54.248066],[-9.560041,54.247962],[-9.560046,54.247961],[-9.560036,54.247705]]],[[[-9.550282,54.248514],[-9.550287,54.24864],[-9.550403,54.248638],[-9.550399,54.248512],[-9.550282,54.248514]]],[[[-9.551364,54.249704],[-9.550904,54.24971],[-9.550914,54.24998],[-9.551374,54.249974],[-9.551364,54.249704]]],[[[-9.544023,54.240012],[-9.543827,54.240004],[-9.543841,54.240365],[-9.544109,54.240362],[-9.544099,54.240092],[-9.544097,54.240024],[-9.544023,54.240012]]],[[[-9.539314,54.242365],[-9.539312,54.24231],[-9.539119,54.242313],[-9.539121,54.242368],[-9.539314,54.242365]]],[[[-9.530297,54.251817],[-9.530194,54.251818],[-9.530173,54.251817],[-9.530009,54.251923],[-9.52972,54.252029],[-9.529624,54.252098],[-9.529061,54.252146],[-9.531197,54.252119],[-9.531206,54.252351],[-9.533046,54.252328],[-9.533038,54.252096],[-9.533498,54.25209],[-9.533488,54.25182],[-9.533528,54.25182],[-9.533514,54.251424],[-9.534394,54.251412],[-9.534388,54.25127],[-9.534848,54.251264],[-9.534838,54.250994],[-9.535759,54.250983],[-9.535749,54.250713],[-9.536669,54.250701],[-9.536659,54.250432],[-9.536649,54.250163],[-9.537109,54.250157],[-9.537099,54.249887],[-9.537089,54.249618],[-9.537549,54.249612],[-9.537539,54.249342],[-9.537999,54.249336],[-9.537989,54.249067],[-9.537979,54.248798],[-9.53844,54.248792],[-9.53843,54.248522],[-9.53889,54.248516],[-9.53888,54.248247],[-9.53887,54.247977],[-9.53933,54.247972],[-9.53932,54.247702],[-9.5407,54.247684],[-9.54071,54.247954],[-9.54163,54.247942],[-9.54162,54.247673],[-9.54161,54.247403],[-9.542071,54.247397],[-9.54206,54.247128],[-9.54205,54.246858],[-9.54113,54.24687],[-9.54112,54.246601],[-9.5425,54.246583],[-9.542511,54.246852],[-9.542971,54.246847],[-9.542961,54.246577],[-9.543881,54.246565],[-9.543871,54.246296],[-9.544791,54.246284],[-9.544781,54.246015],[-9.545701,54.246003],[-9.545691,54.245733],[-9.547071,54.245716],[-9.547061,54.245446],[-9.547099,54.245446],[-9.547081,54.244961],[-9.547503,54.244956],[-9.547501,54.244901],[-9.547481,54.244362],[-9.547471,54.244093],[-9.547931,54.244087],[-9.547921,54.243818],[-9.549301,54.2438],[-9.549291,54.24353],[-9.550095,54.24352],[-9.55008,54.243126],[-9.550657,54.243118],[-9.550651,54.242974],[-9.551608,54.242961],[-9.551588,54.242422],[-9.551551,54.242423],[-9.551541,54.242153],[-9.551531,54.241884],[-9.551813,54.24188],[-9.551599,54.241784],[-9.551567,54.241686],[-9.551709,54.241658],[-9.551977,54.241567],[-9.552056,54.241482],[-9.552092,54.241397],[-9.552096,54.2413],[-9.55244,54.241021],[-9.552636,54.240808],[-9.552743,54.240603],[-9.55275,54.240396],[-9.552753,54.240325],[-9.552835,54.240017],[-9.553026,54.239866],[-9.553188,54.239738],[-9.553256,54.239705],[-9.55283,54.23971],[-9.55284,54.23998],[-9.55238,54.239986],[-9.55239,54.240255],[-9.551507,54.240267],[-9.551512,54.240412],[-9.551546,54.24131],[-9.550013,54.24133],[-9.549979,54.240432],[-9.549636,54.240436],[-9.54965,54.24083],[-9.54873,54.240842],[-9.54874,54.241111],[-9.548471,54.241114],[-9.54848,54.241349],[-9.543688,54.241411],[-9.54369,54.241445],[-9.54277,54.241457],[-9.54278,54.241727],[-9.541859,54.241738],[-9.54187,54.242008],[-9.540835,54.242021],[-9.540847,54.242346],[-9.540041,54.242356],[-9.540049,54.24257],[-9.539589,54.242576],[-9.539581,54.242362],[-9.539314,54.242365],[-9.539332,54.242849],[-9.539599,54.242846],[-9.539609,54.243115],[-9.539342,54.243119],[-9.539347,54.243263],[-9.539155,54.243266],[-9.539159,54.243391],[-9.538699,54.243396],[-9.538709,54.243666],[-9.538249,54.243672],[-9.538259,54.243941],[-9.537799,54.243947],[-9.537809,54.244217],[-9.537819,54.244486],[-9.537359,54.244492],[-9.537369,54.244761],[-9.536909,54.244767],[-9.536919,54.245037],[-9.536459,54.245043],[-9.536469,54.245312],[-9.535549,54.245324],[-9.535559,54.245593],[-9.535062,54.2456],[-9.534964,54.245675],[-9.534944,54.245746],[-9.534945,54.245755],[-9.535054,54.245813],[-9.535382,54.245946],[-9.536086,54.246315],[-9.536604,54.246619],[-9.536522,54.246731],[-9.536529,54.246929],[-9.536403,54.24693],[-9.536315,54.247087],[-9.536096,54.247403],[-9.536087,54.247417],[-9.536089,54.247474],[-9.536049,54.247474],[-9.535955,54.247613],[-9.535887,54.247746],[-9.537019,54.247731],[-9.537009,54.247462],[-9.537929,54.24745],[-9.537939,54.24772],[-9.537479,54.247726],[-9.537489,54.247995],[-9.537029,54.248001],[-9.537039,54.24827],[-9.536579,54.248276],[-9.536589,54.248546],[-9.536129,54.248552],[-9.536139,54.248821],[-9.535219,54.248833],[-9.535229,54.249102],[-9.534964,54.249106],[-9.534912,54.249214],[-9.534858,54.249319],[-9.534778,54.24936],[-9.534778,54.249378],[-9.534741,54.249378],[-9.5346,54.249449],[-9.53438,54.249561],[-9.534326,54.249583],[-9.534328,54.249653],[-9.534242,54.249654],[-9.534206,54.24972],[-9.534163,54.249747],[-9.534048,54.249805],[-9.533977,54.249838],[-9.533906,54.249933],[-9.533788,54.250113],[-9.53372,54.250221],[-9.533665,54.250306],[-9.533683,54.250403],[-9.533687,54.250447],[-9.533431,54.25064],[-9.533224,54.250798],[-9.533143,54.25088],[-9.533069,54.250974],[-9.533031,54.251072],[-9.533008,54.251121],[-9.532957,54.251159],[-9.532846,54.251228],[-9.532683,54.251313],[-9.532596,54.251363],[-9.532548,54.251404],[-9.532291,54.251498],[-9.532116,54.251563],[-9.531977,54.251612],[-9.531706,54.251721],[-9.531566,54.251752],[-9.531426,54.251774],[-9.531299,54.251796],[-9.531147,54.251802],[-9.531044,54.251791],[-9.53095,54.251781],[-9.53083,54.25177],[-9.530733,54.251769],[-9.530667,54.25178],[-9.530469,54.251813],[-9.530388,54.251818],[-9.530297,54.251817]],[[-9.549221,54.241644],[-9.549681,54.241638],[-9.549691,54.241908],[-9.549231,54.241913],[-9.549221,54.241644]],[[-9.548311,54.241925],[-9.548771,54.241919],[-9.548781,54.242189],[-9.548321,54.242195],[-9.548311,54.241925]],[[-9.545181,54.244392],[-9.545171,54.244122],[-9.545161,54.243853],[-9.545621,54.243847],[-9.545611,54.243578],[-9.546071,54.243572],[-9.546081,54.243841],[-9.546091,54.244111],[-9.545631,54.244117],[-9.545641,54.244386],[-9.545181,54.244392]],[[-9.53972,54.246079],[-9.54018,54.246073],[-9.54019,54.246343],[-9.53973,54.246349],[-9.53972,54.246079]]],[[[-9.543901,54.247104],[-9.543911,54.247374],[-9.544371,54.247368],[-9.544361,54.247098],[-9.543901,54.247104]]],[[[-9.543001,54.247655],[-9.542541,54.247661],[-9.542551,54.24793],[-9.542561,54.2482],[-9.543021,54.248194],[-9.543011,54.247924],[-9.543471,54.247919],[-9.543461,54.247649],[-9.543921,54.247643],[-9.543911,54.247374],[-9.542991,54.247386],[-9.543001,54.247655]]],[[[-9.541656,54.248624],[-9.542116,54.248619],[-9.542111,54.248475],[-9.541651,54.248481],[-9.541656,54.248624]]],[[[-9.542639,54.249277],[-9.542648,54.24951],[-9.54307,54.249505],[-9.543061,54.249272],[-9.542639,54.249277]]],[[[-9.542648,54.24951],[-9.54261,54.249511],[-9.542611,54.249547],[-9.542649,54.249547],[-9.542648,54.24951]]],[[[-9.550075,54.252147],[-9.550798,54.252138],[-9.550887,54.2521],[-9.550417,54.252106],[-9.550408,54.251873],[-9.550065,54.251878],[-9.550054,54.251608],[-9.550398,54.251604],[-9.550383,54.251208],[-9.5505,54.251206],[-9.550494,54.251064],[-9.550955,54.251058],[-9.550945,54.250788],[-9.550924,54.250249],[-9.550914,54.24998],[-9.550337,54.249987],[-9.550349,54.25031],[-9.548816,54.25033],[-9.548733,54.248121],[-9.548543,54.248123],[-9.548533,54.247854],[-9.547612,54.247865],[-9.547622,54.248135],[-9.546702,54.248147],[-9.546712,54.248416],[-9.546252,54.248422],[-9.546262,54.248692],[-9.545342,54.248703],[-9.545352,54.248973],[-9.544432,54.248985],[-9.544422,54.248715],[-9.543961,54.248721],[-9.543971,54.248991],[-9.543511,54.248996],[-9.543521,54.249266],[-9.54353,54.249499],[-9.544182,54.249491],[-9.544183,54.249527],[-9.544912,54.249518],[-9.544922,54.249787],[-9.544932,54.250057],[-9.544472,54.250063],[-9.544482,54.250332],[-9.544492,54.250601],[-9.543572,54.250613],[-9.543582,54.250883],[-9.542661,54.250894],[-9.542651,54.250625],[-9.542641,54.250356],[-9.542181,54.250361],[-9.542171,54.250092],[-9.542631,54.250086],[-9.542621,54.249817],[-9.542161,54.249823],[-9.542151,54.249553],[-9.541691,54.249559],[-9.541689,54.249522],[-9.541115,54.24953],[-9.541096,54.249027],[-9.54075,54.249032],[-9.54076,54.249301],[-9.5403,54.249307],[-9.54031,54.249577],[-9.54032,54.249846],[-9.53986,54.249852],[-9.53987,54.250121],[-9.53988,54.250391],[-9.53942,54.250397],[-9.53943,54.250666],[-9.53944,54.250936],[-9.53898,54.250942],[-9.53899,54.251211],[-9.53853,54.251217],[-9.53854,54.251486],[-9.53808,54.251492],[-9.53809,54.251762],[-9.5381,54.252031],[-9.537179,54.252043],[-9.537189,54.252312],[-9.536729,54.252318],[-9.536739,54.252588],[-9.536279,54.252594],[-9.536269,54.252324],[-9.534888,54.252342],[-9.534898,54.252611],[-9.534438,54.252617],[-9.534448,54.252887],[-9.534458,54.253156],[-9.533998,54.253162],[-9.534008,54.253431],[-9.533548,54.253437],[-9.533558,54.253707],[-9.533578,54.254246],[-9.533588,54.254515],[-9.533128,54.254521],[-9.533138,54.25479],[-9.532677,54.254796],[-9.532667,54.254527],[-9.532657,54.254257],[-9.533118,54.254251],[-9.533098,54.253712],[-9.532177,54.253724],[-9.532187,54.253994],[-9.532074,54.253995],[-9.532113,54.255035],[-9.531305,54.255046],[-9.531307,54.255083],[-9.530386,54.255095],[-9.530385,54.255057],[-9.529046,54.255074],[-9.529077,54.25592],[-9.530416,54.255903],[-9.530406,54.255634],[-9.531327,54.255622],[-9.531317,54.255353],[-9.532237,54.255341],[-9.532247,54.25561],[-9.532257,54.25588],[-9.532259,54.255932],[-9.532719,54.255926],[-9.532717,54.255874],[-9.533638,54.255862],[-9.53364,54.255914],[-9.53368,54.255914],[-9.533688,54.256131],[-9.534108,54.256126],[-9.534116,54.256347],[-9.534196,54.256327],[-9.534612,54.256201],[-9.534724,54.256169],[-9.535136,54.25605],[-9.535219,54.256027],[-9.535214,54.255894],[-9.535714,54.255888],[-9.536201,54.255751],[-9.536738,54.255603],[-9.536714,54.254977],[-9.536828,54.254975],[-9.536819,54.254743],[-9.53728,54.254738],[-9.53726,54.254199],[-9.53772,54.254193],[-9.53771,54.253923],[-9.53817,54.253917],[-9.53814,54.253109],[-9.53906,54.253097],[-9.53909,54.253906],[-9.539551,54.2539],[-9.539541,54.25363],[-9.540001,54.253624],[-9.540011,54.253894],[-9.540016,54.254036],[-9.541282,54.25402],[-9.541287,54.254147],[-9.541581,54.254143],[-9.542189,54.253956],[-9.542257,54.253935],[-9.542314,54.253916],[-9.542312,54.253865],[-9.542471,54.253863],[-9.542996,54.253685],[-9.54389,54.253401],[-9.544555,54.253427],[-9.545314,54.253453],[-9.546196,54.25345],[-9.546612,54.253449],[-9.547379,54.252933],[-9.54735,54.252145],[-9.548883,54.252126],[-9.548895,54.252432],[-9.548961,54.252431],[-9.549484,54.252345],[-9.550079,54.252253],[-9.550075,54.252147]],[[-9.541231,54.249565],[-9.541691,54.249559],[-9.541701,54.249828],[-9.541241,54.249834],[-9.541231,54.249565]],[[-9.540781,54.24984],[-9.541241,54.249834],[-9.541251,54.250104],[-9.540791,54.25011],[-9.540781,54.24984]],[[-9.543202,54.253044],[-9.542742,54.25305],[-9.542732,54.252781],[-9.543192,54.252775],[-9.543202,54.253044]],[[-9.541821,54.253062],[-9.542742,54.25305],[-9.542752,54.25332],[-9.542762,54.253589],[-9.541381,54.253607],[-9.541371,54.253337],[-9.541832,54.253331],[-9.541821,54.253062]],[[-9.53856,54.252025],[-9.53902,54.252019],[-9.53901,54.25175],[-9.53947,54.251744],[-9.53948,54.252014],[-9.53949,54.252283],[-9.53903,54.252289],[-9.53904,54.252558],[-9.53858,54.252564],[-9.53857,54.252295],[-9.53856,54.252025]]],[[[-9.539773,54.254706],[-9.539753,54.254167],[-9.539561,54.254169],[-9.539581,54.254708],[-9.539773,54.254706]]],[[[-9.525564,54.254307],[-9.525819,54.254597],[-9.526588,54.255622],[-9.526871,54.256004],[-9.527064,54.256288],[-9.527419,54.256826],[-9.527576,54.25682],[-9.527512,54.255094],[-9.529046,54.255074],[-9.528997,54.253765],[-9.528496,54.253771],[-9.528486,54.253501],[-9.528478,54.253285],[-9.527445,54.253298],[-9.527434,54.252976],[-9.526625,54.252986],[-9.526635,54.253255],[-9.526016,54.253263],[-9.526014,54.253266],[-9.525623,54.253921],[-9.525556,54.254079],[-9.525548,54.2542],[-9.525564,54.254307]]],[[[-9.533912,54.256398],[-9.533698,54.256401],[-9.5337,54.256451],[-9.533912,54.256398]]],[[[-9.530426,54.256173],[-9.530436,54.256442],[-9.530446,54.256712],[-9.530456,54.256981],[-9.53167,54.256966],[-9.531757,54.25695],[-9.531836,54.256932],[-9.531827,54.256694],[-9.532174,54.25669],[-9.532154,54.256151],[-9.530426,54.256173]]],[[[-9.530463,54.257159],[-9.530456,54.256981],[-9.529996,54.256987],[-9.529986,54.256718],[-9.529107,54.256729],[-9.529112,54.25687],[-9.528976,54.256872],[-9.529382,54.257096],[-9.529698,54.257239],[-9.530463,54.257159]]]]}}]}
