{"type":"FeatureCollection","features":[{"type":"Feature","properties":{"source_fid":399142,"county":"Mayo","bog_geom_ha":152.67831950179018,"low15_pct":96.991150442477874,"low15_ha":148.08445856102836,"overlay_ha":148.04746421067534,"area_delta":-0.036994350353012351},"geometry":{"type":"MultiPolygon","coordinates":[[[[-9.995628,53.943587],[-9.995616,53.943344],[-9.995513,53.943346],[-9.995628,53.943587]]],[[[-9.99608,53.949339],[-9.996028,53.949468],[-9.996027,53.949478],[-9.99602,53.949562],[-9.996018,53.949582],[-9.996164,53.949613],[-9.996536,53.949687],[-9.996625,53.949712],[-9.99677,53.949768],[-9.996949,53.949851],[-9.997162,53.949948],[-9.997352,53.950047],[-9.997543,53.950146],[-9.997858,53.950314],[-9.998082,53.950438],[-9.998328,53.950572],[-9.998539,53.950686],[-9.998743,53.950785],[-9.998924,53.950875],[-9.999014,53.950912],[-9.999155,53.950972],[-9.999454,53.95107],[-9.999986,53.951191],[-10.000601,53.951313],[-10.001436,53.951458],[-10.002339,53.951605],[-10.003166,53.951757],[-10.003883,53.951877],[-10.004697,53.95202],[-10.005295,53.952138],[-10.005732,53.952211],[-10.005968,53.952236],[-10.006591,53.952259],[-10.007453,53.95227],[-10.008222,53.952276],[-10.009,53.952284],[-10.009277,53.952279],[-10.009465,53.952256],[-10.009765,53.95222],[-10.010078,53.952165],[-10.010734,53.952032],[-10.010857,53.951999],[-10.011423,53.951848],[-10.011945,53.951722],[-10.01215,53.951659],[-10.012455,53.951552],[-10.013216,53.951278],[-10.013665,53.951123],[-10.014137,53.950918],[-10.014375,53.950818],[-10.014296,53.950749],[-10.014683,53.950585],[-10.014767,53.950652],[-10.015227,53.950442],[-10.0158,53.950185],[-10.01619,53.949982],[-10.016486,53.949845],[-10.016631,53.949758],[-10.016701,53.949701],[-10.016582,53.94966],[-10.01626,53.949477],[-10.016011,53.949343],[-10.015596,53.949119],[-10.015078,53.948846],[-10.014871,53.948742],[-10.014752,53.94868],[-10.014966,53.948178],[-10.014968,53.948172],[-10.014977,53.948149],[-10.015099,53.947988],[-10.015181,53.947925],[-10.015231,53.947881],[-10.015241,53.947852],[-10.015227,53.947807],[-10.015128,53.94774],[-10.015043,53.947643],[-10.015001,53.947548],[-10.015042,53.94748],[-10.015058,53.947454],[-10.015072,53.947431],[-10.015052,53.947405],[-10.014916,53.947321],[-10.014722,53.947206],[-10.014677,53.9472],[-10.014637,53.947195],[-10.014606,53.947186],[-10.014566,53.947135],[-10.014674,53.947031],[-10.014739,53.947004],[-10.014822,53.947012],[-10.014884,53.947016],[-10.015079,53.946922],[-10.015074,53.946808],[-10.015169,53.946722],[-10.015416,53.946661],[-10.015802,53.946599],[-10.015799,53.946528],[-10.015793,53.946361],[-10.015737,53.946351],[-10.015618,53.946316],[-10.015595,53.946295],[-10.01561,53.946254],[-10.015638,53.946161],[-10.015658,53.946097],[-10.015661,53.946077],[-10.015637,53.946061],[-10.015596,53.946044],[-10.015595,53.946011],[-10.015555,53.945898],[-10.015486,53.945791],[-10.015461,53.945755],[-10.015472,53.94574],[-10.015485,53.945723],[-10.015524,53.945614],[-10.015528,53.945555],[-10.015502,53.945508],[-10.015386,53.945345],[-10.015358,53.945306],[-10.015273,53.945185],[-10.015099,53.944992],[-10.01498,53.944859],[-10.01497,53.944828],[-10.014989,53.944798],[-10.015032,53.944763],[-10.014785,53.944711],[-10.014702,53.944653],[-10.014705,53.944565],[-10.014971,53.94455],[-10.014983,53.944482],[-10.015021,53.944436],[-10.015119,53.944341],[-10.015199,53.944215],[-10.015195,53.944166],[-10.015135,53.944144],[-10.015017,53.944104],[-10.014904,53.944085],[-10.014847,53.944065],[-10.014824,53.944057],[-10.01483,53.94404],[-10.014843,53.944006],[-10.014832,53.943946],[-10.015071,53.943877],[-10.015225,53.9437],[-10.015399,53.943625],[-10.015559,53.943599],[-10.015583,53.943621],[-10.015644,53.943641],[-10.015717,53.943627],[-10.015785,53.943593],[-10.015912,53.943523],[-10.015975,53.943514],[-10.01633,53.943487],[-10.016375,53.943481],[-10.016423,53.943459],[-10.016464,53.943433],[-10.016542,53.943383],[-10.016646,53.943333],[-10.016824,53.943269],[-10.016965,53.943227],[-10.017001,53.943199],[-10.017082,53.943068],[-10.017085,53.943025],[-10.017077,53.942987],[-10.017101,53.942944],[-10.017179,53.942885],[-10.016268,53.942465],[-10.015265,53.94202],[-10.014304,53.941597],[-10.014221,53.941534],[-10.013242,53.941118],[-10.012428,53.940763],[-10.011563,53.940391],[-10.010859,53.940127],[-10.010149,53.939799],[-10.009883,53.939686],[-10.009575,53.939542],[-10.00861,53.939114],[-10.007811,53.938748],[-10.007277,53.938539],[-10.006833,53.938331],[-10.006481,53.938496],[-10.00622,53.938608],[-10.006052,53.93868],[-10.00569,53.938825],[-10.005554,53.938876],[-10.005505,53.938894],[-10.00528,53.938979],[-10.004701,53.93925],[-10.003707,53.939675],[-10.003427,53.939794],[-10.003191,53.939897],[-10.002467,53.940186],[-10.001532,53.940562],[-10.000669,53.940927],[-10.000652,53.940934],[-9.999788,53.941292],[-9.999427,53.941429],[-9.99912,53.941545],[-9.998669,53.941706],[-9.99837,53.941799],[-9.997954,53.941974],[-9.997674,53.94209],[-9.99739,53.942198],[-9.997404,53.942505],[-9.996662,53.942518],[-9.996495,53.942598],[-9.996517,53.943059],[-9.996973,53.943052],[-9.996986,53.943321],[-9.997047,53.944585],[-9.997078,53.944596],[-9.997048,53.944814],[-9.997014,53.945047],[-9.996979,53.945177],[-9.996966,53.945238],[-9.996917,53.945454],[-9.996789,53.945951],[-9.996739,53.946188],[-9.996704,53.946322],[-9.996639,53.946657],[-9.996636,53.946811],[-9.996612,53.946969],[-9.996593,53.947014],[-9.996537,53.947189],[-9.996494,53.94742],[-9.996411,53.947756],[-9.996352,53.948002],[-9.996236,53.948453],[-9.996177,53.948862],[-9.996117,53.949122],[-9.99608,53.949339]],[[-10.001911,53.945552],[-10.001744,53.945506],[-10.001686,53.945476],[-10.001603,53.945445],[-10.001509,53.945398],[-10.001464,53.945345],[-10.001428,53.945245],[-10.00141,53.945174],[-10.001438,53.945087],[-10.001454,53.945019],[-10.001457,53.944986],[-10.001414,53.944976],[-10.001374,53.944956],[-10.001326,53.944874],[-10.001283,53.944733],[-10.001253,53.944639],[-10.001228,53.944542],[-10.001239,53.944511],[-10.00123,53.94449],[-10.001192,53.944477],[-10.001169,53.944444],[-10.001141,53.944368],[-10.001127,53.944326],[-10.001088,53.944278],[-10.001033,53.944218],[-10.001007,53.944183],[-10.001018,53.944128],[-10.001026,53.944084],[-10.001011,53.944019],[-10.000992,53.944012],[-10.000981,53.943958],[-10.000993,53.943879],[-10.001036,53.943793],[-10.00106,53.943728],[-10.001085,53.943706],[-10.001136,53.943695],[-10.001176,53.943678],[-10.001215,53.943687],[-10.001236,53.943677],[-10.001245,53.943628],[-10.001198,53.943592],[-10.001094,53.943431],[-10.001026,53.943299],[-10.001004,53.943241],[-10.000996,53.943182],[-10.000947,53.943093],[-10.000902,53.942981],[-10.00086,53.942895],[-10.000846,53.942838],[-10.000808,53.942804],[-10.000815,53.942794],[-10.000838,53.942802],[-10.000858,53.942794],[-10.000878,53.942784],[-10.000914,53.942779],[-10.000938,53.942809],[-10.000979,53.94285],[-10.001033,53.942889],[-10.001203,53.942961],[-10.001319,53.942983],[-10.001457,53.943003],[-10.001572,53.942979],[-10.001616,53.942987],[-10.001725,53.943051],[-10.00189,53.94315],[-10.002076,53.943239],[-10.002129,53.943258],[-10.002313,53.943279],[-10.002419,53.943317],[-10.002488,53.943363],[-10.0027,53.943473],[-10.002815,53.943558],[-10.002914,53.943648],[-10.002978,53.943769],[-10.003099,53.943895],[-10.003217,53.944041],[-10.003271,53.944128],[-10.003296,53.944225],[-10.003303,53.944288],[-10.00328,53.944353],[-10.003258,53.944426],[-10.003214,53.944524],[-10.003181,53.94458],[-10.003117,53.944653],[-10.003003,53.944754],[-10.002983,53.9448],[-10.002963,53.94482],[-10.002926,53.944876],[-10.002899,53.944925],[-10.002886,53.945022],[-10.002907,53.94507],[-10.002863,53.945122],[-10.002861,53.945162],[-10.002884,53.945193],[-10.002839,53.945237],[-10.002808,53.945274],[-10.00279,53.945312],[-10.002809,53.945367],[-10.002813,53.945392],[-10.002737,53.945436],[-10.002694,53.945461],[-10.00264,53.945469],[-10.002596,53.945496],[-10.002553,53.945509],[-10.002513,53.945501],[-10.002467,53.94551],[-10.002405,53.945505],[-10.002351,53.945532],[-10.002275,53.945541],[-10.002217,53.945555],[-10.002157,53.945555],[-10.002108,53.945549],[-10.002031,53.945572],[-10.001984,53.945573],[-10.001911,53.945552]],[[-10.011091,53.942007],[-10.010634,53.942015],[-10.010621,53.941745],[-10.011078,53.941738],[-10.011091,53.942007]],[[-9.999894,53.946778],[-9.999881,53.946508],[-10.000338,53.946501],[-10.000351,53.94677],[-10.000376,53.947309],[-10.000833,53.947301],[-10.000846,53.947571],[-10.000389,53.947579],[-10.000402,53.947848],[-10.000441,53.948656],[-9.999527,53.948671],[-9.999489,53.947863],[-9.999032,53.947871],[-9.999019,53.947601],[-9.999006,53.947332],[-9.999463,53.947324],[-9.999437,53.946785],[-9.999894,53.946778]],[[-10.003168,53.948341],[-10.003625,53.948333],[-10.003638,53.948603],[-10.003181,53.948611],[-10.003168,53.948341]],[[-10.002724,53.948618],[-10.003181,53.948611],[-10.00322,53.949419],[-10.002763,53.949426],[-10.002724,53.948618]],[[-9.998813,53.943291],[-9.9988,53.943021],[-9.999257,53.943014],[-9.99927,53.943283],[-9.999282,53.943552],[-9.999295,53.943822],[-9.998839,53.94383],[-9.998852,53.944099],[-9.998395,53.944107],[-9.998408,53.944376],[-9.997951,53.944384],[-9.997964,53.944653],[-9.997507,53.944661],[-9.997494,53.944391],[-9.997482,53.944122],[-9.997938,53.944114],[-9.997925,53.943845],[-9.997912,53.943575],[-9.998369,53.943568],[-9.998356,53.943298],[-9.998813,53.943291]]]]}}]}
