{"type":"FeatureCollection","features":[{"type":"Feature","properties":{"source_fid":402527,"county":"Mayo","bog_geom_ha":185.93667863732909,"low15_pct":89.264990328820119,"low15_ha":165.97635820334116,"overlay_ha":165.92271339607476,"area_delta":-0.053644807266408634},"geometry":{"type":"MultiPolygon","coordinates":[[[[-9.84452,54.205551],[-9.844674,54.205655],[-9.844687,54.205669],[-9.84543,54.205658],[-9.845418,54.205388],[-9.845394,54.204849],[-9.845854,54.204842],[-9.845842,54.204573],[-9.84583,54.204304],[-9.845817,54.204034],[-9.845805,54.203765],[-9.845793,54.203495],[-9.846253,54.203488],[-9.846265,54.203758],[-9.847184,54.203744],[-9.847196,54.204013],[-9.848115,54.203999],[-9.848103,54.203729],[-9.848091,54.20346],[-9.848079,54.203191],[-9.848539,54.203184],[-9.848551,54.203453],[-9.84901,54.203446],[-9.849023,54.203715],[-9.849942,54.203701],[-9.84993,54.203432],[-9.851308,54.203411],[-9.85132,54.20368],[-9.851332,54.203949],[-9.849954,54.203971],[-9.849966,54.20424],[-9.849506,54.204247],[-9.849518,54.204517],[-9.848599,54.204531],[-9.848611,54.2048],[-9.848635,54.205339],[-9.848176,54.205346],[-9.848188,54.205615],[-9.8482,54.205885],[-9.848224,54.206424],[-9.847764,54.206431],[-9.847776,54.2067],[-9.847788,54.20697],[-9.848248,54.206963],[-9.84826,54.207232],[-9.848719,54.207225],[-9.848731,54.207494],[-9.849651,54.20748],[-9.849663,54.20775],[-9.849203,54.207757],[-9.849215,54.208026],[-9.848755,54.208033],[-9.848767,54.208303],[-9.848308,54.20831],[-9.84832,54.208579],[-9.849239,54.208565],[-9.849251,54.208834],[-9.85063,54.208813],[-9.850642,54.209083],[-9.850654,54.209352],[-9.850666,54.209622],[-9.851126,54.209615],[-9.851138,54.209884],[-9.852057,54.20987],[-9.852069,54.210139],[-9.852081,54.210409],[-9.852093,54.210678],[-9.852105,54.210948],[-9.851186,54.210962],[-9.851174,54.210692],[-9.850255,54.210706],[-9.850243,54.210437],[-9.849323,54.210451],[-9.849311,54.210182],[-9.848748,54.21019],[-9.848864,54.210407],[-9.849018,54.210651],[-9.849196,54.21092],[-9.849288,54.211213],[-9.849558,54.211932],[-9.849757,54.212374],[-9.850002,54.212923],[-9.850356,54.213536],[-9.850357,54.213538],[-9.850483,54.213729],[-9.850575,54.213982],[-9.850667,54.21423],[-9.850736,54.214462],[-9.850519,54.214731],[-9.850405,54.215046],[-9.850355,54.215185],[-9.850193,54.215576],[-9.850019,54.216236],[-9.849759,54.21665],[-9.84953,54.217233],[-9.849384,54.21763],[-9.849201,54.218093],[-9.848995,54.218661],[-9.848831,54.219086],[-9.848714,54.21943],[-9.848553,54.219875],[-9.848485,54.220053],[-9.848368,54.220394],[-9.848294,54.220667],[-9.848158,54.221119],[-9.848064,54.221345],[-9.848031,54.221424],[-9.847996,54.221507],[-9.848073,54.22153],[-9.848152,54.221449],[-9.848592,54.220979],[-9.849274,54.221115],[-9.849904,54.221241],[-9.850147,54.221287],[-9.850183,54.221295],[-9.850828,54.22143],[-9.85085,54.22147],[-9.850964,54.222201],[-9.851233,54.222151],[-9.851451,54.222092],[-9.851611,54.222044],[-9.851787,54.22198],[-9.852018,54.221857],[-9.852168,54.221765],[-9.852233,54.221726],[-9.852273,54.221701],[-9.852257,54.221612],[-9.852243,54.221526],[-9.85224,54.221426],[-9.852211,54.221341],[-9.852144,54.22123],[-9.852139,54.221197],[-9.852151,54.221164],[-9.852198,54.221115],[-9.852269,54.221084],[-9.85233,54.221057],[-9.852406,54.220999],[-9.852447,54.220954],[-9.852457,54.220925],[-9.852466,54.220902],[-9.852438,54.220848],[-9.852322,54.220757],[-9.852132,54.220672],[-9.852105,54.220638],[-9.852109,54.220616],[-9.852123,54.220588],[-9.85216,54.22058],[-9.852269,54.220574],[-9.852412,54.220566],[-9.852571,54.220574],[-9.852642,54.220565],[-9.852705,54.220543],[-9.852819,54.220532],[-9.852848,54.220523],[-9.85287,54.220508],[-9.852872,54.220466],[-9.852878,54.22045],[-9.852671,54.220364],[-9.852464,54.220289],[-9.852441,54.220281],[-9.852349,54.220278],[-9.852297,54.220291],[-9.852263,54.22028],[-9.85224,54.220239],[-9.852233,54.220209],[-9.852222,54.22016],[-9.852214,54.220144],[-9.852192,54.220124],[-9.85219,54.220104],[-9.852195,54.220077],[-9.852229,54.220031],[-9.852295,54.220002],[-9.852353,54.219992],[-9.852404,54.219981],[-9.852441,54.219973],[-9.852508,54.219976],[-9.852558,54.219982],[-9.852617,54.219998],[-9.852615,54.22003],[-9.852618,54.220061],[-9.852676,54.220089],[-9.852841,54.220136],[-9.852921,54.220164],[-9.85298,54.220178],[-9.853005,54.220189],[-9.853003,54.220221],[-9.852997,54.220238],[-9.853075,54.220267],[-9.853109,54.220269],[-9.853137,54.22025],[-9.853215,54.22022],[-9.853253,54.220199],[-9.853294,54.220177],[-9.853309,54.220161],[-9.853321,54.220138],[-9.853308,54.220117],[-9.853263,54.220111],[-9.853179,54.220108],[-9.853134,54.220103],[-9.853078,54.220081],[-9.853046,54.220065],[-9.853046,54.22004],[-9.853071,54.219993],[-9.853139,54.219947],[-9.853172,54.219931],[-9.85324,54.219902],[-9.85328,54.219909],[-9.853321,54.219889],[-9.853331,54.219861],[-9.853377,54.219779],[-9.853396,54.219739],[-9.853415,54.219709],[-9.853447,54.219691],[-9.853509,54.219661],[-9.853588,54.219628],[-9.853597,54.219627],[-9.853608,54.219586],[-9.853624,54.219528],[-9.85363,54.219512],[-9.853577,54.219386],[-9.853579,54.219356],[-9.853611,54.21928],[-9.853639,54.219226],[-9.853772,54.219103],[-9.853897,54.218992],[-9.85405,54.218919],[-9.854162,54.218903],[-9.8542,54.21888],[-9.85421,54.218829],[-9.854182,54.218766],[-9.854203,54.218646],[-9.854209,54.218617],[-9.854275,54.218503],[-9.854344,54.21836],[-9.854364,54.218338],[-9.854685,54.218153],[-9.854765,54.218108],[-9.855027,54.217946],[-9.855135,54.217892],[-9.855267,54.217844],[-9.855354,54.217827],[-9.855563,54.217743],[-9.855803,54.217653],[-9.855911,54.217595],[-9.855956,54.21757],[-9.855976,54.21755],[-9.856008,54.217447],[-9.856023,54.217419],[-9.856039,54.217396],[-9.856202,54.217299],[-9.856305,54.217224],[-9.856395,54.217126],[-9.856509,54.216998],[-9.856529,54.216962],[-9.856683,54.216833],[-9.856789,54.216786],[-9.856892,54.216771],[-9.857109,54.216721],[-9.857194,54.216687],[-9.857403,54.216613],[-9.857615,54.216542],[-9.857932,54.216451],[-9.858031,54.216436],[-9.858258,54.216431],[-9.858548,54.21643],[-9.858698,54.216438],[-9.859003,54.216476],[-9.859381,54.216477],[-9.859537,54.216479],[-9.859627,54.216465],[-9.859916,54.216395],[-9.860259,54.216231],[-9.860595,54.216016],[-9.86092,54.215839],[-9.861323,54.215657],[-9.86163,54.215507],[-9.861904,54.215399],[-9.862234,54.215297],[-9.862521,54.21524],[-9.862964,54.215181],[-9.863494,54.21506],[-9.863872,54.214988],[-9.863906,54.214982],[-9.864311,54.214908],[-9.864681,54.214842],[-9.864347,54.214444],[-9.864287,54.214259],[-9.864432,54.213905],[-9.864338,54.213515],[-9.864293,54.213433],[-9.864268,54.213332],[-9.864246,54.213247],[-9.864157,54.213044],[-9.864125,54.212924],[-9.864237,54.212785],[-9.864923,54.212419],[-9.864861,54.211952],[-9.864821,54.211627],[-9.864566,54.211026],[-9.864501,54.210796],[-9.86444,54.210493],[-9.864432,54.210373],[-9.864377,54.210224],[-9.864369,54.210009],[-9.86429,54.20981],[-9.86423,54.209723],[-9.864141,54.209594],[-9.864125,54.209571],[-9.86401,54.209317],[-9.863906,54.208945],[-9.86379,54.208617],[-9.863487,54.208112],[-9.863139,54.207488],[-9.863136,54.207481],[-9.863132,54.207471],[-9.862988,54.207148],[-9.862751,54.206649],[-9.862741,54.206629],[-9.862483,54.206014],[-9.862223,54.205427],[-9.862123,54.205259],[-9.861673,54.204509],[-9.861659,54.204485],[-9.861392,54.204037],[-9.861162,54.20365],[-9.86088,54.203129],[-9.860293,54.202322],[-9.85989,54.201656],[-9.859537,54.20103],[-9.85924,54.200441],[-9.859123,54.200115],[-9.859073,54.199976],[-9.859016,54.199866],[-9.858708,54.199955],[-9.858194,54.200087],[-9.85802,54.200132],[-9.857247,54.200368],[-9.85699,54.200445],[-9.85698,54.200448],[-9.856906,54.200429],[-9.856553,54.200442],[-9.856155,54.200496],[-9.855776,54.200648],[-9.855476,54.200755],[-9.854933,54.200949],[-9.854314,54.201151],[-9.853792,54.201355],[-9.853448,54.201499],[-9.853333,54.201563],[-9.853189,54.201614],[-9.853068,54.201557],[-9.852947,54.201479],[-9.852815,54.201413],[-9.852693,54.20137],[-9.852581,54.20131],[-9.852494,54.201247],[-9.852401,54.201215],[-9.852343,54.201192],[-9.852314,54.201163],[-9.852256,54.201106],[-9.852226,54.201083],[-9.852163,54.201063],[-9.852012,54.201037],[-9.85189,54.201028],[-9.851729,54.201031],[-9.851656,54.201028],[-9.851534,54.200979],[-9.851368,54.200904],[-9.851286,54.200855],[-9.85115,54.200746],[-9.851048,54.200653],[-9.850979,54.200586],[-9.850882,54.200479],[-9.850589,54.200242],[-9.850486,54.200165],[-9.850412,54.200118],[-9.850329,54.200068],[-9.850233,54.200013],[-9.850086,54.199942],[-9.849983,54.19989],[-9.849848,54.199832],[-9.849768,54.199796],[-9.849674,54.199768],[-9.849632,54.199733],[-9.849553,54.199664],[-9.849499,54.199626],[-9.849384,54.199606],[-9.849331,54.199565],[-9.849258,54.1995],[-9.849214,54.199435],[-9.849179,54.1994],[-9.849128,54.199349],[-9.849066,54.199317],[-9.849001,54.199278],[-9.848944,54.199241],[-9.848921,54.199224],[-9.84888,54.199192],[-9.84886,54.199162],[-9.84884,54.199129],[-9.848816,54.199097],[-9.84879,54.199076],[-9.848713,54.199047],[-9.848663,54.199027],[-9.84856,54.198974],[-9.848468,54.198921],[-9.848327,54.198856],[-9.848112,54.19876],[-9.847983,54.198706],[-9.847856,54.198657],[-9.847793,54.19864],[-9.847637,54.198605],[-9.847584,54.19858],[-9.847465,54.198532],[-9.847309,54.198481],[-9.847216,54.19845],[-9.847119,54.198406],[-9.84705,54.198385],[-9.846975,54.198374],[-9.84694,54.198373],[-9.8468,54.198363],[-9.846668,54.198344],[-9.846557,54.198337],[-9.846328,54.198316],[-9.846095,54.198296],[-9.845861,54.198484],[-9.845614,54.19853],[-9.845425,54.198576],[-9.845059,54.198731],[-9.844938,54.198804],[-9.844785,54.198887],[-9.844646,54.198981],[-9.844567,54.199039],[-9.844597,54.199285],[-9.844619,54.199524],[-9.844643,54.199707],[-9.844658,54.199784],[-9.844687,54.200085],[-9.844688,54.200199],[-9.844567,54.200339],[-9.844564,54.200343],[-9.844205,54.200739],[-9.843878,54.201098],[-9.844307,54.201092],[-9.844331,54.20163],[-9.84479,54.201623],[-9.844802,54.201893],[-9.844814,54.202162],[-9.845274,54.202155],[-9.845286,54.202425],[-9.845298,54.202694],[-9.844838,54.202701],[-9.844862,54.20324],[-9.844403,54.203247],[-9.844379,54.202708],[-9.844367,54.202439],[-9.843907,54.202446],[-9.843895,54.202176],[-9.843436,54.202183],[-9.843424,54.201914],[-9.843089,54.201919],[-9.842087,54.202282],[-9.841504,54.202479],[-9.840865,54.202751],[-9.840836,54.202762],[-9.841162,54.202757],[-9.841174,54.203027],[-9.841633,54.20302],[-9.841669,54.203828],[-9.842129,54.203821],[-9.842141,54.20409],[-9.8426,54.204083],[-9.842612,54.204353],[-9.843072,54.204346],[-9.843091,54.204764],[-9.843155,54.204794],[-9.843287,54.204854],[-9.843344,54.204881],[-9.843556,54.204878],[-9.84356,54.204986],[-9.843836,54.205136],[-9.843847,54.205143],[-9.844027,54.20514],[-9.844032,54.205255],[-9.844104,54.205299],[-9.844292,54.205411],[-9.84452,54.205551]],[[-9.844874,54.203509],[-9.844862,54.20324],[-9.845322,54.203233],[-9.845334,54.203502],[-9.844874,54.203509]],[[-9.855923,54.212701],[-9.856054,54.212653],[-9.856306,54.212573],[-9.856412,54.212544],[-9.857097,54.2123],[-9.857147,54.212259],[-9.857222,54.212195],[-9.857398,54.211778],[-9.857324,54.211736],[-9.857282,54.211713],[-9.857233,54.211696],[-9.857183,54.211645],[-9.857147,54.211603],[-9.856998,54.211496],[-9.856864,54.211409],[-9.8568,54.211373],[-9.85667,54.21126],[-9.856524,54.211116],[-9.856484,54.211065],[-9.8564,54.210866],[-9.856422,54.210812],[-9.856434,54.210717],[-9.85644,54.210592],[-9.856423,54.210532],[-9.856385,54.21041],[-9.856407,54.210263],[-9.856425,54.210144],[-9.856449,54.210002],[-9.85647,54.209919],[-9.856496,54.209827],[-9.856493,54.209783],[-9.856477,54.209759],[-9.856455,54.20975],[-9.856324,54.209739],[-9.856313,54.209733],[-9.856283,54.209672],[-9.856261,54.209665],[-9.856241,54.209661],[-9.856238,54.209651],[-9.856234,54.209601],[-9.856217,54.20958],[-9.856146,54.209528],[-9.856046,54.209442],[-9.855955,54.209386],[-9.85588,54.209315],[-9.855737,54.209155],[-9.855657,54.209077],[-9.855615,54.209026],[-9.855619,54.209006],[-9.854779,54.209019],[-9.854791,54.209289],[-9.853872,54.209303],[-9.85386,54.209033],[-9.854319,54.209026],[-9.854307,54.208757],[-9.854283,54.208218],[-9.854743,54.208211],[-9.854731,54.207941],[-9.854718,54.207672],[-9.854259,54.207679],[-9.854247,54.20741],[-9.855166,54.207395],[-9.855154,54.207126],[-9.856073,54.207112],[-9.856085,54.207381],[-9.856574,54.207374],[-9.85661,54.207359],[-9.856773,54.207333],[-9.856833,54.207282],[-9.856918,54.207208],[-9.856987,54.207133],[-9.856994,54.207125],[-9.856992,54.207098],[-9.857016,54.207097],[-9.857138,54.206944],[-9.857309,54.206786],[-9.857344,54.206668],[-9.857374,54.206655],[-9.85743,54.206635],[-9.857497,54.206602],[-9.857558,54.206574],[-9.857599,54.206549],[-9.857628,54.206526],[-9.857688,54.206483],[-9.857772,54.206432],[-9.857866,54.206373],[-9.857937,54.206323],[-9.857988,54.206288],[-9.858046,54.206238],[-9.858097,54.206183],[-9.858149,54.20614],[-9.858188,54.206126],[-9.858258,54.206113],[-9.858336,54.206111],[-9.858358,54.20611],[-9.858443,54.206104],[-9.858474,54.206116],[-9.858669,54.206154],[-9.858791,54.206183],[-9.858782,54.205992],[-9.859242,54.205985],[-9.859254,54.206254],[-9.859714,54.206247],[-9.859725,54.206492],[-9.859876,54.20644],[-9.859989,54.206488],[-9.860064,54.206525],[-9.860089,54.206539],[-9.860112,54.206607],[-9.860172,54.2066],[-9.860361,54.206643],[-9.860513,54.206588],[-9.860765,54.206501],[-9.860848,54.206482],[-9.860933,54.206475],[-9.861026,54.206473],[-9.861113,54.206477],[-9.861321,54.20651],[-9.861762,54.206594],[-9.862039,54.206649],[-9.862113,54.206657],[-9.862126,54.206668],[-9.862125,54.206764],[-9.862111,54.206983],[-9.862113,54.207249],[-9.862103,54.207357],[-9.862128,54.207365],[-9.862116,54.207463],[-9.86212,54.207597],[-9.862138,54.207674],[-9.862207,54.207754],[-9.862217,54.207769],[-9.862177,54.207837],[-9.862133,54.207862],[-9.862068,54.207891],[-9.86202,54.207911],[-9.861991,54.207924],[-9.861829,54.20794],[-9.861788,54.207942],[-9.861652,54.207979],[-9.861499,54.208023],[-9.861435,54.208039],[-9.861351,54.208058],[-9.861318,54.208077],[-9.861247,54.208081],[-9.861036,54.208169],[-9.860953,54.208202],[-9.860908,54.208219],[-9.8609,54.208222],[-9.86072,54.208291],[-9.860658,54.208317],[-9.860563,54.208334],[-9.860493,54.208339],[-9.860304,54.208384],[-9.859985,54.208449],[-9.859778,54.208495],[-9.859612,54.20854],[-9.859404,54.208596],[-9.859179,54.208652],[-9.859124,54.208668],[-9.858954,54.208718],[-9.859319,54.2088],[-9.85979,54.208891],[-9.859833,54.208904],[-9.859823,54.208672],[-9.860282,54.208665],[-9.860294,54.208934],[-9.861673,54.208913],[-9.861685,54.209182],[-9.860787,54.209196],[-9.860852,54.209216],[-9.861215,54.20931],[-9.861575,54.209395],[-9.861983,54.209481],[-9.862183,54.209524],[-9.862203,54.209543],[-9.862288,54.209702],[-9.862383,54.209914],[-9.862499,54.210191],[-9.862527,54.210294],[-9.862525,54.210406],[-9.862466,54.210596],[-9.8624,54.210782],[-9.862331,54.21098],[-9.862272,54.211162],[-9.862207,54.211348],[-9.862139,54.211531],[-9.86209,54.211696],[-9.862067,54.211759],[-9.86206,54.211774],[-9.861991,54.211725],[-9.861811,54.211617],[-9.861653,54.211532],[-9.861645,54.211543],[-9.861623,54.211573],[-9.861368,54.21186],[-9.861218,54.212014],[-9.861015,54.212217],[-9.860951,54.212273],[-9.860922,54.21229],[-9.86089,54.212298],[-9.860848,54.212303],[-9.860819,54.212304],[-9.860757,54.212293],[-9.860475,54.212218],[-9.860418,54.212203],[-9.860098,54.21213],[-9.860052,54.212119],[-9.859756,54.212061],[-9.859495,54.212011],[-9.859243,54.211967],[-9.859049,54.21193],[-9.859004,54.212035],[-9.858968,54.212118],[-9.858877,54.21236],[-9.858835,54.212464],[-9.858785,54.212592],[-9.858731,54.212711],[-9.85867,54.212746],[-9.858436,54.212816],[-9.858136,54.21289],[-9.857781,54.212989],[-9.857461,54.21308],[-9.857079,54.213173],[-9.856746,54.213259],[-9.856341,54.213377],[-9.856003,54.213472],[-9.855884,54.213304],[-9.855852,54.213264],[-9.855755,54.213145],[-9.855672,54.213041],[-9.855607,54.21294],[-9.855526,54.212852],[-9.855628,54.212807],[-9.855851,54.212728],[-9.855855,54.212727],[-9.855923,54.212701]],[[-9.857522,54.205702],[-9.857539,54.205737],[-9.857611,54.205725],[-9.857713,54.205713],[-9.857903,54.205698],[-9.858025,54.20569],[-9.858119,54.205744],[-9.858217,54.205766],[-9.858263,54.205905],[-9.858252,54.205999],[-9.858278,54.206035],[-9.858164,54.206106],[-9.858061,54.206145],[-9.858008,54.206156],[-9.857857,54.206174],[-9.857823,54.206188],[-9.857672,54.206221],[-9.857582,54.206233],[-9.85746,54.206236],[-9.85728,54.206256],[-9.857056,54.206288],[-9.856978,54.206151],[-9.856946,54.206099],[-9.856751,54.206131],[-9.856703,54.206051],[-9.856663,54.205898],[-9.856618,54.205674],[-9.856684,54.205661],[-9.856916,54.205624],[-9.857445,54.205553],[-9.857501,54.205658],[-9.857522,54.205702]],[[-9.855897,54.206802],[-9.855848,54.206755],[-9.855775,54.2066],[-9.855588,54.20623],[-9.85575,54.206212],[-9.856121,54.206187],[-9.856257,54.206266],[-9.856399,54.206191],[-9.856485,54.206374],[-9.856984,54.206553],[-9.85665,54.20703],[-9.856446,54.207025],[-9.855897,54.206802]],[[-9.860359,54.206368],[-9.860245,54.206366],[-9.86019,54.206301],[-9.860221,54.206185],[-9.860223,54.206178],[-9.860226,54.206167],[-9.860272,54.206023],[-9.860091,54.205984],[-9.860052,54.205974],[-9.859822,54.205904],[-9.859733,54.205828],[-9.859761,54.20581],[-9.859778,54.205807],[-9.860147,54.20583],[-9.860217,54.205828],[-9.860549,54.205751],[-9.860875,54.20575],[-9.860868,54.205859],[-9.860861,54.205977],[-9.86084,54.206142],[-9.860844,54.206176],[-9.860947,54.206232],[-9.86096,54.20624],[-9.860969,54.206248],[-9.860964,54.206339],[-9.860842,54.206351],[-9.860643,54.20636],[-9.860359,54.206368]],[[-9.85906,54.205748],[-9.859184,54.20562],[-9.859376,54.205676],[-9.859464,54.205775],[-9.859277,54.205845],[-9.859147,54.20594],[-9.858989,54.205851],[-9.85906,54.205748]],[[-9.853993,54.201752],[-9.854005,54.202021],[-9.853546,54.202028],[-9.853534,54.201759],[-9.853993,54.201752]]],[[[-9.859953,54.208939],[-9.860299,54.209043],[-9.860294,54.208934],[-9.859953,54.208939]]],[[[-9.859241,54.206304],[-9.859257,54.206321],[-9.859254,54.206254],[-9.859103,54.206256],[-9.859109,54.206258],[-9.859202,54.206281],[-9.859241,54.206304]]],[[[-9.855793,54.208213],[-9.855794,54.208195],[-9.855662,54.208197],[-9.85567,54.208378],[-9.855696,54.208338],[-9.855793,54.208213]]],[[[-9.855716,54.208466],[-9.855671,54.208407],[-9.855686,54.208736],[-9.855702,54.208735],[-9.855704,54.20873],[-9.855729,54.208632],[-9.855751,54.208565],[-9.855746,54.208525],[-9.855716,54.208466]]],[[[-9.84728,54.205899],[-9.846821,54.205906],[-9.846833,54.206175],[-9.846373,54.206183],[-9.846385,54.206452],[-9.847304,54.206438],[-9.84728,54.205899]]]]}}]}
