{"type":"FeatureCollection","features":[{"type":"Feature","properties":{"source_fid":402752,"county":"Mayo","bog_geom_ha":604.72297068215357,"low15_pct":70.206752937676626,"low15_ha":424.55636198419825,"overlay_ha":424.55739830518615,"area_delta":0.001036320987907402},"geometry":{"type":"MultiPolygon","coordinates":[[[[-9.816236,54.316191],[-9.816139,54.316103],[-9.816081,54.316048],[-9.816021,54.315918],[-9.816042,54.315806],[-9.816044,54.315785],[-9.815917,54.315787],[-9.815837,54.315822],[-9.815654,54.315889],[-9.815551,54.315915],[-9.815458,54.315936],[-9.815368,54.315941],[-9.815262,54.315975],[-9.815203,54.316006],[-9.815121,54.316029],[-9.814994,54.316064],[-9.814913,54.316093],[-9.814863,54.316117],[-9.814887,54.316662],[-9.815348,54.316655],[-9.815336,54.316385],[-9.81639,54.316369],[-9.816315,54.316283],[-9.816236,54.316191]]],[[[-9.819147,54.316294],[-9.819024,54.31637],[-9.819034,54.316599],[-9.819495,54.316592],[-9.819507,54.316862],[-9.819519,54.317131],[-9.819058,54.317138],[-9.81907,54.317407],[-9.818148,54.317421],[-9.81816,54.317691],[-9.817699,54.317698],[-9.817711,54.317967],[-9.81725,54.317974],[-9.817262,54.318243],[-9.816801,54.31825],[-9.816813,54.31852],[-9.815892,54.318534],[-9.815904,54.318803],[-9.813138,54.318845],[-9.81315,54.319114],[-9.812689,54.319121],[-9.812701,54.319391],[-9.811319,54.319411],[-9.81133,54.319681],[-9.810869,54.319688],[-9.810881,54.319957],[-9.81042,54.319964],[-9.810456,54.320772],[-9.810917,54.320765],[-9.810929,54.321035],[-9.81185,54.321021],[-9.811862,54.32129],[-9.812323,54.321283],[-9.812347,54.321822],[-9.812808,54.321815],[-9.81282,54.322085],[-9.813281,54.322078],[-9.813292,54.322347],[-9.813753,54.32234],[-9.813765,54.32261],[-9.815609,54.322582],[-9.815597,54.322313],[-9.816519,54.322299],[-9.816507,54.322029],[-9.817429,54.322015],[-9.817417,54.321746],[-9.817878,54.321739],[-9.817866,54.32147],[-9.818788,54.321456],[-9.818776,54.321186],[-9.819697,54.321172],[-9.819709,54.321442],[-9.820631,54.321428],[-9.820643,54.321697],[-9.821104,54.32169],[-9.821116,54.32196],[-9.821128,54.322229],[-9.821589,54.322222],[-9.821601,54.322492],[-9.821612,54.322761],[-9.821684,54.324378],[-9.821223,54.324385],[-9.821235,54.324654],[-9.820313,54.324668],[-9.820325,54.324937],[-9.819403,54.324951],[-9.819391,54.324682],[-9.819379,54.324413],[-9.819308,54.322796],[-9.817925,54.322817],[-9.817937,54.323086],[-9.817476,54.323093],[-9.817488,54.323363],[-9.816566,54.323377],[-9.816578,54.323646],[-9.816117,54.323653],[-9.816129,54.323922],[-9.815207,54.323936],[-9.815219,54.324206],[-9.814297,54.324219],[-9.814309,54.324489],[-9.812926,54.32451],[-9.812914,54.32424],[-9.811993,54.324254],[-9.811981,54.323985],[-9.81152,54.323992],[-9.811508,54.323722],[-9.811047,54.323729],[-9.811035,54.32346],[-9.810574,54.323467],[-9.810562,54.323197],[-9.810551,54.322928],[-9.81009,54.322935],[-9.810078,54.322665],[-9.809617,54.322672],[-9.809605,54.322403],[-9.809144,54.32241],[-9.809132,54.32214],[-9.809121,54.321871],[-9.80866,54.321878],[-9.808636,54.321339],[-9.808175,54.321346],[-9.808163,54.321076],[-9.808151,54.320807],[-9.808116,54.319999],[-9.808104,54.319729],[-9.807643,54.319736],[-9.807655,54.320005],[-9.807194,54.320012],[-9.807206,54.320282],[-9.807218,54.320551],[-9.806757,54.320558],[-9.806804,54.321636],[-9.807265,54.321629],[-9.807289,54.322168],[-9.80775,54.322161],[-9.807773,54.3227],[-9.808234,54.322693],[-9.808246,54.322962],[-9.807324,54.322976],[-9.807312,54.322707],[-9.806851,54.322714],[-9.806828,54.322175],[-9.806367,54.322182],[-9.806343,54.321643],[-9.805882,54.32165],[-9.805835,54.320572],[-9.805823,54.320303],[-9.806284,54.320296],[-9.806272,54.320026],[-9.806261,54.319757],[-9.806722,54.31975],[-9.80671,54.31948],[-9.806698,54.319211],[-9.806686,54.318942],[-9.806674,54.318672],[-9.806663,54.318403],[-9.806202,54.31841],[-9.80619,54.31814],[-9.806178,54.317871],[-9.806639,54.317864],[-9.806627,54.317594],[-9.807088,54.317588],[-9.807076,54.317318],[-9.807537,54.317311],[-9.807525,54.317042],[-9.807986,54.317035],[-9.807976,54.316804],[-9.807822,54.316807],[-9.80782,54.316816],[-9.807668,54.316901],[-9.807498,54.316885],[-9.807401,54.316813],[-9.806113,54.316832],[-9.805969,54.316979],[-9.805687,54.317288],[-9.805474,54.317484],[-9.805319,54.317624],[-9.805152,54.317724],[-9.804892,54.317806],[-9.804421,54.31798],[-9.804397,54.317988],[-9.804348,54.318004],[-9.803885,54.31816],[-9.80337,54.318343],[-9.803214,54.318408],[-9.802804,54.31805],[-9.802585,54.317914],[-9.802227,54.317626],[-9.801762,54.317277],[-9.801369,54.316947],[-9.801105,54.316729],[-9.800761,54.316423],[-9.800442,54.316181],[-9.800384,54.316135],[-9.800367,54.316137],[-9.79991,54.316185],[-9.799549,54.316225],[-9.798447,54.316322],[-9.797348,54.316411],[-9.796649,54.316478],[-9.796933,54.315962],[-9.796851,54.315816],[-9.796934,54.315466],[-9.796831,54.315418],[-9.796387,54.315202],[-9.796311,54.314943],[-9.796303,54.314794],[-9.796233,54.314694],[-9.79615,54.31473],[-9.795903,54.314756],[-9.795589,54.314702],[-9.795429,54.314728],[-9.795135,54.314735],[-9.79464,54.314875],[-9.794534,54.314882],[-9.794285,54.314815],[-9.793981,54.314703],[-9.793775,54.314655],[-9.793736,54.314609],[-9.793678,54.314596],[-9.793588,54.31462],[-9.793453,54.314603],[-9.793332,54.314612],[-9.793327,54.314578],[-9.792796,54.314498],[-9.79275,54.314534],[-9.792281,54.31448],[-9.792178,54.314487],[-9.792025,54.314461],[-9.791659,54.314369],[-9.791505,54.314357],[-9.791379,54.31436],[-9.791319,54.314364],[-9.791258,54.314378],[-9.791203,54.314409],[-9.791347,54.314497],[-9.791498,54.314592],[-9.790218,54.31516],[-9.790478,54.315294],[-9.790574,54.315411],[-9.790589,54.315549],[-9.790628,54.315694],[-9.790639,54.31588],[-9.790458,54.316374],[-9.790186,54.31667],[-9.789711,54.317006],[-9.789406,54.317318],[-9.789272,54.317485],[-9.789151,54.317718],[-9.78912,54.317877],[-9.788997,54.317998],[-9.788988,54.318492],[-9.789004,54.318677],[-9.789073,54.318875],[-9.789128,54.319112],[-9.789168,54.319312],[-9.789123,54.319657],[-9.789068,54.320201],[-9.789085,54.320359],[-9.789098,54.32041],[-9.789156,54.320569],[-9.789174,54.32064],[-9.789203,54.320742],[-9.789192,54.32096],[-9.789196,54.321049],[-9.789279,54.321188],[-9.789322,54.321318],[-9.789333,54.321453],[-9.789336,54.321612],[-9.789326,54.321726],[-9.789304,54.321849],[-9.789288,54.321993],[-9.789301,54.322081],[-9.789307,54.322145],[-9.789287,54.322272],[-9.789296,54.322377],[-9.789221,54.322474],[-9.789132,54.322591],[-9.789203,54.322592],[-9.789267,54.322572],[-9.789387,54.322596],[-9.789489,54.322606],[-9.789492,54.322704],[-9.789539,54.322762],[-9.789651,54.322778],[-9.789756,54.322744],[-9.789889,54.322678],[-9.789955,54.322591],[-9.790012,54.322455],[-9.790164,54.3224],[-9.790253,54.322401],[-9.790582,54.32253],[-9.790626,54.322568],[-9.790712,54.322611],[-9.790831,54.322614],[-9.790959,54.322558],[-9.790977,54.322465],[-9.791009,54.322362],[-9.791061,54.322359],[-9.791155,54.322402],[-9.791238,54.322459],[-9.791272,54.322537],[-9.791259,54.322743],[-9.791334,54.322788],[-9.791504,54.322758],[-9.791607,54.322766],[-9.791806,54.322841],[-9.791785,54.322895],[-9.791791,54.322947],[-9.791857,54.32296],[-9.792219,54.323538],[-9.792643,54.324182],[-9.792906,54.324583],[-9.792881,54.324622],[-9.792764,54.324801],[-9.792502,54.325021],[-9.792034,54.325412],[-9.791843,54.325376],[-9.791495,54.325281],[-9.791168,54.325189],[-9.790798,54.325094],[-9.790907,54.324911],[-9.790992,54.324826],[-9.791053,54.324786],[-9.791112,54.324767],[-9.791238,54.324767],[-9.791402,54.324762],[-9.791678,54.324777],[-9.791771,54.324793],[-9.791817,54.324805],[-9.791984,54.324585],[-9.792217,54.324545],[-9.792276,54.324525],[-9.792401,54.324482],[-9.790812,54.324275],[-9.790806,54.324294],[-9.790786,54.324325],[-9.790763,54.324358],[-9.79075,54.324402],[-9.790755,54.324479],[-9.790704,54.324573],[-9.790687,54.324602],[-9.79062,54.324722],[-9.790571,54.324791],[-9.790467,54.324937],[-9.790398,54.325043],[-9.790388,54.325065],[-9.790383,54.325108],[-9.790526,54.325158],[-9.79051,54.325249],[-9.790451,54.325417],[-9.790425,54.325476],[-9.790351,54.325629],[-9.790339,54.325658],[-9.790286,54.325751],[-9.790221,54.32588],[-9.790174,54.325987],[-9.790102,54.326104],[-9.790726,54.326377],[-9.791163,54.326585],[-9.791471,54.326743],[-9.792116,54.326973],[-9.792182,54.327141],[-9.792143,54.32719],[-9.792236,54.327232],[-9.792354,54.327294],[-9.792364,54.32732],[-9.792365,54.327369],[-9.792337,54.327403],[-9.792201,54.327491],[-9.791915,54.32763],[-9.79178,54.327705],[-9.791702,54.327754],[-9.791638,54.327799],[-9.792006,54.327926],[-9.792133,54.32797],[-9.792202,54.327975],[-9.792365,54.327995],[-9.792466,54.32802],[-9.792672,54.328052],[-9.792745,54.328056],[-9.792905,54.328064],[-9.792985,54.328066],[-9.793037,54.32809],[-9.793162,54.328164],[-9.793324,54.328269],[-9.793457,54.328358],[-9.793383,54.328474],[-9.79358,54.328464],[-9.794532,54.328002],[-9.794648,54.328052],[-9.795103,54.328301],[-9.795102,54.328281],[-9.795563,54.328274],[-9.795552,54.328005],[-9.79554,54.327735],[-9.795528,54.327466],[-9.795989,54.327459],[-9.795977,54.32719],[-9.795966,54.32692],[-9.796427,54.326913],[-9.796415,54.326644],[-9.796403,54.326375],[-9.796864,54.326368],[-9.796852,54.326098],[-9.796841,54.325829],[-9.796829,54.325559],[-9.79729,54.325553],[-9.797266,54.325014],[-9.797727,54.325007],[-9.797704,54.324468],[-9.797692,54.324198],[-9.798153,54.324192],[-9.798141,54.323922],[-9.798602,54.323915],[-9.79859,54.323646],[-9.799512,54.323632],[-9.7995,54.323363],[-9.799489,54.323093],[-9.79995,54.323086],[-9.799938,54.322817],[-9.802703,54.322776],[-9.802691,54.322506],[-9.802231,54.322513],[-9.802219,54.322244],[-9.801758,54.322251],[-9.801746,54.321981],[-9.800363,54.322002],[-9.800352,54.321732],[-9.80034,54.321463],[-9.802183,54.321435],[-9.802195,54.321705],[-9.803117,54.321691],[-9.803129,54.32196],[-9.80359,54.321954],[-9.803601,54.322223],[-9.804062,54.322216],[-9.804074,54.322486],[-9.804535,54.322479],[-9.804547,54.322748],[-9.805008,54.322741],[-9.80502,54.323011],[-9.805481,54.323004],[-9.805492,54.323273],[-9.805953,54.323266],[-9.805965,54.323536],[-9.805043,54.323549],[-9.805031,54.32328],[-9.80411,54.323294],[-9.804121,54.323563],[-9.804582,54.323556],[-9.804594,54.323826],[-9.803672,54.32384],[-9.80366,54.32357],[-9.802739,54.323584],[-9.80275,54.323853],[-9.802762,54.324123],[-9.802774,54.324392],[-9.802313,54.324399],[-9.802337,54.324938],[-9.801876,54.324945],[-9.801899,54.325484],[-9.801911,54.325753],[-9.802372,54.325746],[-9.80236,54.325477],[-9.803282,54.325463],[-9.803294,54.325733],[-9.802833,54.325739],[-9.802845,54.326009],[-9.802384,54.326016],[-9.802395,54.326285],[-9.801935,54.326292],[-9.801946,54.326561],[-9.80197,54.3271],[-9.801509,54.327107],[-9.801521,54.327377],[-9.801532,54.327646],[-9.801544,54.327915],[-9.801556,54.328185],[-9.801568,54.328454],[-9.80158,54.328724],[-9.801119,54.328731],[-9.80113,54.329],[-9.801142,54.32927],[-9.800681,54.329276],[-9.800693,54.329546],[-9.800232,54.329553],[-9.800244,54.329822],[-9.800256,54.330092],[-9.799795,54.330098],[-9.799806,54.330368],[-9.799818,54.330637],[-9.799357,54.330644],[-9.799369,54.330914],[-9.799381,54.331183],[-9.79892,54.33119],[-9.798943,54.331729],[-9.798482,54.331736],[-9.798494,54.332005],[-9.798517,54.332544],[-9.798056,54.332551],[-9.79808,54.33309],[-9.799463,54.333069],[-9.799451,54.3328],[-9.800834,54.332779],[-9.800822,54.33251],[-9.801745,54.332496],[-9.801733,54.332226],[-9.802194,54.332219],[-9.802182,54.33195],[-9.802643,54.331943],[-9.802631,54.331674],[-9.803092,54.331667],[-9.803069,54.331128],[-9.80353,54.331121],[-9.803506,54.330582],[-9.803967,54.330575],[-9.803955,54.330306],[-9.803943,54.330036],[-9.803932,54.329767],[-9.804393,54.32976],[-9.804381,54.329491],[-9.80392,54.329498],[-9.803908,54.329228],[-9.803447,54.329235],[-9.803424,54.328696],[-9.803412,54.328427],[-9.803873,54.32842],[-9.803884,54.328689],[-9.805267,54.328669],[-9.805244,54.32813],[-9.804783,54.328137],[-9.804759,54.327598],[-9.804298,54.327605],[-9.804286,54.327335],[-9.804275,54.327066],[-9.804263,54.326796],[-9.804724,54.32679],[-9.8047,54.326251],[-9.804239,54.326258],[-9.804228,54.325988],[-9.803767,54.325995],[-9.803755,54.325726],[-9.803743,54.325456],[-9.804204,54.325449],[-9.804192,54.32518],[-9.806036,54.325152],[-9.806048,54.325422],[-9.806509,54.325415],[-9.80652,54.325684],[-9.806981,54.325677],[-9.806993,54.325947],[-9.807005,54.326216],[-9.807466,54.326209],[-9.80749,54.326748],[-9.807029,54.326755],[-9.80704,54.327024],[-9.807501,54.327018],[-9.807513,54.327287],[-9.807052,54.327294],[-9.807064,54.327563],[-9.807088,54.328102],[-9.807111,54.328641],[-9.807135,54.32918],[-9.806674,54.329187],[-9.806686,54.329456],[-9.806698,54.329726],[-9.806237,54.329733],[-9.806248,54.330002],[-9.805787,54.330009],[-9.805799,54.330278],[-9.804877,54.330292],[-9.804889,54.330562],[-9.804428,54.330568],[-9.804452,54.331107],[-9.804475,54.331646],[-9.804014,54.331653],[-9.804026,54.331922],[-9.803565,54.331929],[-9.803577,54.332199],[-9.803589,54.332468],[-9.803128,54.332475],[-9.803139,54.332745],[-9.803151,54.333014],[-9.803163,54.333283],[-9.803175,54.333553],[-9.801792,54.333574],[-9.801803,54.333843],[-9.80042,54.333864],[-9.800409,54.333594],[-9.799486,54.333608],[-9.799475,54.333339],[-9.799014,54.333345],[-9.799025,54.333615],[-9.798564,54.333622],[-9.798576,54.333891],[-9.797654,54.333905],[-9.797666,54.334174],[-9.797678,54.334444],[-9.796294,54.334464],[-9.796283,54.334195],[-9.795822,54.334202],[-9.79581,54.333932],[-9.795349,54.333939],[-9.795337,54.33367],[-9.795325,54.3334],[-9.794864,54.333407],[-9.794853,54.333138],[-9.794829,54.332599],[-9.794368,54.332606],[-9.794345,54.332067],[-9.794806,54.33206],[-9.794794,54.331791],[-9.79477,54.331252],[-9.794759,54.330982],[-9.793798,54.330997],[-9.793743,54.331127],[-9.793659,54.331219],[-9.793606,54.331255],[-9.793485,54.331343],[-9.793216,54.33152],[-9.792971,54.331686],[-9.792713,54.331853],[-9.792398,54.332056],[-9.792359,54.332064],[-9.792284,54.332065],[-9.792165,54.332049],[-9.792011,54.332014],[-9.791848,54.331977],[-9.791331,54.331875],[-9.791164,54.331857],[-9.791017,54.331828],[-9.790815,54.331752],[-9.790671,54.331713],[-9.790542,54.33169],[-9.79047,54.331679],[-9.790352,54.331672],[-9.790251,54.331656],[-9.790187,54.331653],[-9.790175,54.331655],[-9.790184,54.331859],[-9.789723,54.331866],[-9.789734,54.332135],[-9.789273,54.332142],[-9.789285,54.332412],[-9.789297,54.332681],[-9.789309,54.332951],[-9.788386,54.332964],[-9.788398,54.333234],[-9.788028,54.333239],[-9.787997,54.333284],[-9.787943,54.333375],[-9.787949,54.33351],[-9.787862,54.333511],[-9.787786,54.333638],[-9.78749,54.333563],[-9.787499,54.333786],[-9.787511,54.334056],[-9.787961,54.334049],[-9.788161,54.33382],[-9.788326,54.333715],[-9.788098,54.333678],[-9.788192,54.333624],[-9.788212,54.333521],[-9.788334,54.333357],[-9.788404,54.33333],[-9.788436,54.333302],[-9.788612,54.333337],[-9.788912,54.333426],[-9.78917,54.33353],[-9.789083,54.333682],[-9.789009,54.333793],[-9.789003,54.333795],[-9.78914,54.334031],[-9.790277,54.334015],[-9.790289,54.334284],[-9.789828,54.334291],[-9.78984,54.33456],[-9.789851,54.33483],[-9.78939,54.334837],[-9.789402,54.335106],[-9.789414,54.335375],[-9.788953,54.335382],[-9.788964,54.335652],[-9.790348,54.335631],[-9.790336,54.335362],[-9.790797,54.335355],[-9.790785,54.335085],[-9.791707,54.335072],[-9.791696,54.334802],[-9.793079,54.334782],[-9.793091,54.335051],[-9.794474,54.335031],[-9.794485,54.3353],[-9.795869,54.335279],[-9.79588,54.335549],[-9.796802,54.335535],[-9.796814,54.335805],[-9.797275,54.335798],[-9.797264,54.335528],[-9.798647,54.335508],[-9.798635,54.335238],[-9.799096,54.335231],[-9.799084,54.334962],[-9.799545,54.334955],[-9.799557,54.335225],[-9.799569,54.335494],[-9.799581,54.335763],[-9.800503,54.33575],[-9.800515,54.336019],[-9.801437,54.336005],[-9.801448,54.336275],[-9.801909,54.336268],[-9.801921,54.336537],[-9.800699,54.336555],[-9.800857,54.336588],[-9.801081,54.336559],[-9.801557,54.336647],[-9.802032,54.336722],[-9.802325,54.336721],[-9.802688,54.336671],[-9.802879,54.336652],[-9.803026,54.336673],[-9.803164,54.336759],[-9.803342,54.336826],[-9.803669,54.336844],[-9.803844,54.336861],[-9.804059,54.33691],[-9.804262,54.336923],[-9.804404,54.336951],[-9.804525,54.337002],[-9.804707,54.337068],[-9.80505,54.337194],[-9.805289,54.337257],[-9.805582,54.337262],[-9.805811,54.337239],[-9.806079,54.337176],[-9.806302,54.337146],[-9.806623,54.337154],[-9.807096,54.337162],[-9.808409,54.337179],[-9.8084,54.33698],[-9.807939,54.336986],[-9.807927,54.336717],[-9.807915,54.336448],[-9.808376,54.336441],[-9.808364,54.336171],[-9.808353,54.335902],[-9.809275,54.335888],[-9.809263,54.335619],[-9.810185,54.335605],[-9.810173,54.335335],[-9.809712,54.335342],[-9.809677,54.334534],[-9.810138,54.334527],[-9.810126,54.334258],[-9.810587,54.334251],[-9.810575,54.333981],[-9.810563,54.333712],[-9.810551,54.333442],[-9.810539,54.333173],[-9.811,54.333166],[-9.810989,54.332897],[-9.810977,54.332627],[-9.811438,54.33262],[-9.811426,54.332351],[-9.811414,54.332081],[-9.811875,54.332074],[-9.811863,54.331805],[-9.811402,54.331812],[-9.81139,54.331543],[-9.811851,54.331536],[-9.81184,54.331266],[-9.813223,54.331245],[-9.813211,54.330976],[-9.814133,54.330962],[-9.814121,54.330693],[-9.814582,54.330686],[-9.81457,54.330416],[-9.815031,54.330409],[-9.815007,54.329871],[-9.815468,54.329864],[-9.815456,54.329594],[-9.815917,54.329587],[-9.815906,54.329318],[-9.816367,54.329311],[-9.816355,54.329041],[-9.816816,54.329034],[-9.816828,54.329304],[-9.816839,54.329573],[-9.816851,54.329843],[-9.817312,54.329836],[-9.8173,54.329566],[-9.817761,54.329559],[-9.817749,54.32929],[-9.817738,54.329021],[-9.818199,54.329014],[-9.818175,54.328475],[-9.819097,54.328461],[-9.819085,54.328191],[-9.819546,54.328185],[-9.819534,54.327915],[-9.819522,54.327646],[-9.819983,54.327639],[-9.819971,54.327369],[-9.820893,54.327355],[-9.820869,54.326817],[-9.82133,54.32681],[-9.821306,54.326271],[-9.821283,54.325732],[-9.821271,54.325462],[-9.821732,54.325455],[-9.821708,54.324917],[-9.823091,54.324896],[-9.823114,54.325435],[-9.823126,54.325704],[-9.822665,54.325711],[-9.822689,54.32625],[-9.82315,54.326243],[-9.823174,54.326782],[-9.823198,54.327321],[-9.82321,54.32759],[-9.823222,54.327859],[-9.823683,54.327852],[-9.823695,54.328122],[-9.823706,54.328391],[-9.823246,54.328398],[-9.823269,54.328937],[-9.822808,54.328944],[-9.82282,54.329214],[-9.823281,54.329207],[-9.823293,54.329476],[-9.823754,54.329469],[-9.823766,54.329738],[-9.82379,54.330277],[-9.823329,54.330284],[-9.823341,54.330554],[-9.82288,54.330561],[-9.822892,54.33083],[-9.822431,54.330837],[-9.822443,54.331106],[-9.822455,54.331376],[-9.821994,54.331383],[-9.822006,54.331652],[-9.821084,54.331666],[-9.821095,54.331936],[-9.820634,54.331943],[-9.820646,54.332212],[-9.820185,54.332219],[-9.820197,54.332488],[-9.820209,54.332758],[-9.819748,54.332765],[-9.81976,54.333034],[-9.819299,54.333041],[-9.819311,54.333311],[-9.81885,54.333318],[-9.818862,54.333587],[-9.818401,54.333594],[-9.818413,54.333863],[-9.817952,54.33387],[-9.817963,54.33414],[-9.817975,54.334409],[-9.817514,54.334416],[-9.817529,54.334739],[-9.81823,54.334603],[-9.81947,54.33391],[-9.819461,54.333703],[-9.819852,54.333697],[-9.82097,54.333073],[-9.820957,54.332782],[-9.821506,54.332774],[-9.82183,54.332593],[-9.826305,54.330287],[-9.82737,54.329719],[-9.828738,54.329363],[-9.830021,54.32916],[-9.830016,54.329051],[-9.831005,54.329036],[-9.832033,54.328908],[-9.832028,54.328804],[-9.831567,54.328811],[-9.831555,54.328542],[-9.831519,54.327734],[-9.831495,54.327195],[-9.831483,54.326925],[-9.831944,54.326918],[-9.831908,54.32611],[-9.831884,54.325571],[-9.83186,54.325032],[-9.832321,54.325025],[-9.832309,54.324756],[-9.83277,54.324749],[-9.832746,54.32421],[-9.833207,54.324203],[-9.833195,54.323934],[-9.833656,54.323927],[-9.833644,54.323657],[-9.834105,54.32365],[-9.834093,54.323381],[-9.835015,54.323367],[-9.835003,54.323097],[-9.835464,54.32309],[-9.835452,54.322821],[-9.836125,54.322811],[-9.836029,54.322698],[-9.835864,54.322512],[-9.835598,54.322131],[-9.835469,54.321779],[-9.835492,54.321446],[-9.835571,54.321039],[-9.835654,54.320678],[-9.835695,54.32023],[-9.835694,54.320086],[-9.835652,54.320059],[-9.835652,54.320047],[-9.835734,54.319823],[-9.835743,54.319615],[-9.83589,54.319163],[-9.835874,54.319067],[-9.835959,54.318692],[-9.836038,54.318399],[-9.836089,54.318077],[-9.836174,54.317847],[-9.836211,54.317658],[-9.836232,54.3175],[-9.836269,54.317192],[-9.836257,54.317147],[-9.836121,54.317149],[-9.836109,54.31688],[-9.836337,54.316876],[-9.836357,54.316811],[-9.836346,54.316574],[-9.836401,54.316379],[-9.836417,54.316336],[-9.835625,54.316348],[-9.835613,54.316078],[-9.83423,54.316099],[-9.834242,54.316369],[-9.83332,54.316383],[-9.833308,54.316113],[-9.832848,54.31612],[-9.83286,54.31639],[-9.832872,54.316659],[-9.832411,54.316666],[-9.832399,54.316397],[-9.831477,54.316411],[-9.831465,54.316141],[-9.831004,54.316148],[-9.830992,54.315879],[-9.830532,54.315886],[-9.830543,54.316155],[-9.829622,54.316169],[-9.82961,54.3159],[-9.829149,54.315907],[-9.829125,54.315368],[-9.829113,54.315099],[-9.829101,54.314829],[-9.829089,54.31456],[-9.829077,54.31429],[-9.83046,54.314269],[-9.830453,54.314121],[-9.830387,54.314017],[-9.830361,54.313952],[-9.830207,54.31397],[-9.829827,54.314022],[-9.829754,54.31378],[-9.829339,54.313787],[-9.829299,54.312889],[-9.827763,54.312912],[-9.82775,54.312614],[-9.82765,54.312571],[-9.827743,54.312448],[-9.827724,54.312014],[-9.827651,54.312015],[-9.827636,54.312045],[-9.827627,54.312061],[-9.827576,54.312052],[-9.827445,54.31203],[-9.827378,54.312019],[-9.826188,54.312038],[-9.824652,54.312061],[-9.824692,54.312959],[-9.821621,54.313005],[-9.82166,54.313903],[-9.818589,54.313949],[-9.818659,54.315526],[-9.818987,54.315521],[-9.819001,54.315844],[-9.819093,54.31588],[-9.819261,54.316039],[-9.819326,54.316111],[-9.819317,54.316155],[-9.819218,54.316236],[-9.819147,54.316294]],[[-9.789863,54.335099],[-9.789851,54.33483],[-9.790313,54.334823],[-9.790324,54.335092],[-9.789863,54.335099]],[[-9.805977,54.323805],[-9.805965,54.323536],[-9.806887,54.323522],[-9.806899,54.323791],[-9.80736,54.323784],[-9.807371,54.324054],[-9.80645,54.324068],[-9.806438,54.323798],[-9.805977,54.323805]],[[-9.797254,54.324744],[-9.797266,54.325014],[-9.796805,54.325021],[-9.796817,54.32529],[-9.796356,54.325297],[-9.796344,54.325027],[-9.796333,54.324758],[-9.796794,54.324751],[-9.796782,54.324482],[-9.797243,54.324475],[-9.797254,54.324744]],[[-9.795895,54.325304],[-9.796356,54.325297],[-9.796368,54.325566],[-9.795907,54.325573],[-9.795895,54.325304]],[[-9.796028,54.317402],[-9.796056,54.317479],[-9.796069,54.317509],[-9.796079,54.317531],[-9.796098,54.317616],[-9.796082,54.317708],[-9.795023,54.317824],[-9.794305,54.317902],[-9.794169,54.31771],[-9.794088,54.317577],[-9.793934,54.317324],[-9.793865,54.317221],[-9.793724,54.316981],[-9.793687,54.316921],[-9.79374,54.316909],[-9.794281,54.316796],[-9.794614,54.316704],[-9.794982,54.316662],[-9.794997,54.316709],[-9.795336,54.316659],[-9.795566,54.316631],[-9.795733,54.31661],[-9.796011,54.316582],[-9.796166,54.317083],[-9.79617,54.317205],[-9.795974,54.317234],[-9.796028,54.317402]],[[-9.791836,54.325948],[-9.792464,54.325629],[-9.792911,54.325403],[-9.792931,54.325392],[-9.793402,54.325684],[-9.794009,54.32605],[-9.793958,54.326076],[-9.793898,54.32612],[-9.793895,54.326123],[-9.793843,54.326161],[-9.793828,54.326174],[-9.793716,54.326271],[-9.793629,54.326343],[-9.793461,54.326488],[-9.793237,54.326667],[-9.793009,54.326834],[-9.792731,54.32675],[-9.792393,54.326646],[-9.79216,54.326568],[-9.792116,54.326502],[-9.791996,54.326264],[-9.791836,54.325948]],[[-9.792692,54.327532],[-9.792683,54.327527],[-9.792732,54.327495],[-9.793082,54.327253],[-9.793345,54.327081],[-9.794139,54.327391],[-9.793979,54.327499],[-9.79352,54.327795],[-9.793234,54.327753],[-9.793079,54.327692],[-9.792692,54.327532]],[[-9.833913,54.31934],[-9.833925,54.319609],[-9.833464,54.319616],[-9.833452,54.319347],[-9.833913,54.31934]],[[-9.833937,54.319878],[-9.833925,54.319609],[-9.834386,54.319602],[-9.834398,54.319871],[-9.833937,54.319878]],[[-9.818966,54.325497],[-9.819888,54.325483],[-9.819912,54.326022],[-9.819451,54.326029],[-9.819463,54.326299],[-9.819002,54.326305],[-9.81899,54.326036],[-9.818966,54.325497]],[[-9.813506,54.327197],[-9.813967,54.32719],[-9.813955,54.326921],[-9.814877,54.326907],[-9.814889,54.327176],[-9.814428,54.327183],[-9.81444,54.327453],[-9.813518,54.327466],[-9.813506,54.327197]],[[-9.79982,54.320123],[-9.800281,54.320116],[-9.800328,54.321194],[-9.799867,54.3212],[-9.79982,54.320123]],[[-9.805161,54.336758],[-9.804238,54.336772],[-9.804227,54.336503],[-9.803766,54.33651],[-9.803754,54.33624],[-9.804676,54.336226],[-9.804688,54.336496],[-9.805149,54.336489],[-9.805161,54.336758]],[[-9.792399,54.319155],[-9.792387,54.318885],[-9.792848,54.318878],[-9.79286,54.319148],[-9.793321,54.319141],[-9.793333,54.31941],[-9.794254,54.319397],[-9.794266,54.319666],[-9.79611,54.319639],[-9.796133,54.320178],[-9.795672,54.320184],[-9.795684,54.320454],[-9.793379,54.320488],[-9.793368,54.320219],[-9.792907,54.320226],[-9.792883,54.319687],[-9.792872,54.319417],[-9.792411,54.319424],[-9.792399,54.319155]],[[-9.792376,54.318616],[-9.792387,54.318885],[-9.791926,54.318892],[-9.791915,54.318623],[-9.792376,54.318616]],[[-9.792305,54.316999],[-9.791844,54.317006],[-9.791833,54.316737],[-9.792294,54.31673],[-9.792305,54.316999]],[[-9.790923,54.31702],[-9.791844,54.317006],[-9.791856,54.317276],[-9.791395,54.317282],[-9.791407,54.317552],[-9.790946,54.317559],[-9.790934,54.317289],[-9.790923,54.31702]]],[[[-9.836506,54.315204],[-9.836496,54.31521],[-9.836498,54.315256],[-9.836662,54.315254],[-9.836673,54.315219],[-9.836506,54.315204]]],[[[-9.833146,54.32861],[-9.833059,54.328519],[-9.832938,54.328521],[-9.83295,54.32879],[-9.832981,54.32879],[-9.833253,54.328756],[-9.833146,54.32861]]],[[[-9.80046,54.336506],[-9.800536,54.336522],[-9.800526,54.336288],[-9.799369,54.336306],[-9.799498,54.336383],[-9.799834,54.336469],[-9.800064,54.336465],[-9.800269,54.336508],[-9.80046,54.336506]]],[[[-9.799004,54.336401],[-9.799173,54.336309],[-9.799143,54.336309],[-9.799131,54.33604],[-9.797287,54.336067],[-9.797298,54.33631],[-9.797499,54.336312],[-9.797684,54.336309],[-9.797841,54.336287],[-9.797972,54.336324],[-9.79821,54.33638],[-9.798402,54.336377],[-9.798636,54.33634],[-9.7988,54.336355],[-9.799004,54.336401]]],[[[-9.796964,54.336431],[-9.797156,54.336339],[-9.796838,54.336343],[-9.796826,54.336074],[-9.795443,54.336095],[-9.795445,54.336134],[-9.795575,54.336174],[-9.795789,54.336178],[-9.796139,54.336212],[-9.796371,54.336356],[-9.796641,54.336372],[-9.796964,54.336431]]],[[[-9.795176,54.336045],[-9.795328,54.336096],[-9.795443,54.336095],[-9.795431,54.335825],[-9.794509,54.335839],[-9.79451,54.335869],[-9.794711,54.335941],[-9.794938,54.336],[-9.795176,54.336045]]],[[[-9.794351,54.335811],[-9.794431,54.33584],[-9.794509,54.335839],[-9.794497,54.335569],[-9.794036,54.335576],[-9.794024,54.335307],[-9.790797,54.335355],[-9.790809,54.335624],[-9.79082,54.335894],[-9.79085,54.335893],[-9.790923,54.335869],[-9.791094,54.335804],[-9.791214,54.33571],[-9.791298,54.335559],[-9.791431,54.335534],[-9.791674,54.335547],[-9.791737,54.335461],[-9.791813,54.335377],[-9.792039,54.33542],[-9.792187,54.335454],[-9.792408,54.335487],[-9.792576,54.335471],[-9.792736,54.3354],[-9.792903,54.335378],[-9.793057,54.335415],[-9.793329,54.335463],[-9.793599,54.335462],[-9.793748,54.335536],[-9.793975,54.335572],[-9.794091,54.335654],[-9.794206,54.335728],[-9.794351,54.335811]]],[[[-9.790751,54.335927],[-9.790821,54.335903],[-9.79082,54.335894],[-9.790359,54.335901],[-9.790371,54.33617],[-9.790618,54.336166],[-9.790658,54.336122],[-9.790687,54.336007],[-9.790751,54.335927]]],[[[-9.790377,54.33638],[-9.79038,54.336378],[-9.790371,54.33617],[-9.788988,54.336191],[-9.788991,54.336274],[-9.789164,54.336292],[-9.789384,54.336289],[-9.789591,54.336266],[-9.789717,54.336324],[-9.789896,54.336315],[-9.79006,54.336322],[-9.790225,54.336375],[-9.790377,54.33638]]],[[[-9.787226,54.335677],[-9.787584,54.335746],[-9.787581,54.335672],[-9.787226,54.335677]]],[[[-9.78614,54.33554],[-9.786192,54.335546],[-9.786186,54.335423],[-9.785756,54.33543],[-9.785868,54.335492],[-9.78614,54.33554]]],[[[-9.785718,54.335409],[-9.785725,54.335412],[-9.785714,54.335161],[-9.785369,54.335166],[-9.785473,54.335204],[-9.7856,54.335281],[-9.785718,54.335409]]],[[[-9.784724,54.333331],[-9.784712,54.333343],[-9.784733,54.333827],[-9.785194,54.33382],[-9.785206,54.33409],[-9.784745,54.334097],[-9.78478,54.334905],[-9.785241,54.334898],[-9.785229,54.334629],[-9.787535,54.334594],[-9.787523,54.334325],[-9.785679,54.334352],[-9.785667,54.334083],[-9.785655,54.333813],[-9.786116,54.333807],[-9.786105,54.333537],[-9.786093,54.333268],[-9.786227,54.333266],[-9.786197,54.333254],[-9.786047,54.333254],[-9.785889,54.333249],[-9.785665,54.333247],[-9.785428,54.333234],[-9.785168,54.333226],[-9.785171,54.333281],[-9.784745,54.333288],[-9.784724,54.333331]]],[[[-9.810556,54.316115],[-9.809481,54.316473],[-9.810267,54.316461],[-9.810278,54.316731],[-9.81029,54.317],[-9.810751,54.316993],[-9.810739,54.316724],[-9.8112,54.316717],[-9.811188,54.316448],[-9.811283,54.316446],[-9.811108,54.316189],[-9.811075,54.31615],[-9.811008,54.316088],[-9.810929,54.316022],[-9.810918,54.315976],[-9.810942,54.315954],[-9.811084,54.31594],[-9.811147,54.315908],[-9.811178,54.315859],[-9.811179,54.315858],[-9.810383,54.31587],[-9.810556,54.316115]]],[[[-9.812162,54.317455],[-9.812154,54.317445],[-9.812157,54.317511],[-9.812211,54.317511],[-9.812162,54.317455]]],[[[-9.78844,54.334207],[-9.787974,54.334095],[-9.787984,54.334318],[-9.788445,54.334311],[-9.78844,54.334207]]],[[[-9.781285,54.339742],[-9.781298,54.339738],[-9.781297,54.339709],[-9.781284,54.339712],[-9.781285,54.339742]]],[[[-9.804098,54.323024],[-9.803637,54.323031],[-9.803649,54.323301],[-9.80411,54.323294],[-9.804098,54.323024]]],[[[-9.803625,54.322762],[-9.802703,54.322776],[-9.802715,54.323045],[-9.803637,54.323031],[-9.803625,54.322762]]],[[[-9.797372,54.327439],[-9.797384,54.327708],[-9.798306,54.327694],[-9.798294,54.327425],[-9.798755,54.327418],[-9.798743,54.327148],[-9.799204,54.327142],[-9.799181,54.326603],[-9.79872,54.32661],[-9.798731,54.326879],[-9.79827,54.326886],[-9.798282,54.327155],[-9.797821,54.327162],[-9.797833,54.327432],[-9.797372,54.327439]]],[[[-9.799169,54.326333],[-9.799181,54.326603],[-9.799642,54.326596],[-9.79963,54.326326],[-9.799169,54.326333]]],[[[-9.797395,54.327977],[-9.797384,54.327708],[-9.796923,54.327715],[-9.796935,54.327984],[-9.797395,54.327977]]]]}}]}
