{"type":"FeatureCollection","features":[{"type":"Feature","properties":{"source_fid":403522,"county":"Mayo","bog_geom_ha":157.596640551863,"low15_pct":100.0,"low15_ha":157.596640551863,"overlay_ha":157.596640551863,"area_delta":0.0},"geometry":{"type":"MultiPolygon","coordinates":[[[[-9.870836,54.024077],[-9.870328,54.023833],[-9.870001,54.023838],[-9.869993,54.023673],[-9.869986,54.023669],[-9.869453,54.023471],[-9.86915,54.023499],[-9.868922,54.023499],[-9.868802,54.023469],[-9.868738,54.02345],[-9.868699,54.023438],[-9.868669,54.023421],[-9.86863,54.023392],[-9.868582,54.023344],[-9.868542,54.023301],[-9.868525,54.02327],[-9.868218,54.02322],[-9.868156,54.023209],[-9.866998,54.023037],[-9.866942,54.023029],[-9.866928,54.023027],[-9.866167,54.022903],[-9.86583,54.022857],[-9.865789,54.02285],[-9.865322,54.022771],[-9.864937,54.022708],[-9.864899,54.022702],[-9.864838,54.022692],[-9.864822,54.022689],[-9.864793,54.022684],[-9.863994,54.022559],[-9.863819,54.02251],[-9.863743,54.022501],[-9.863526,54.022468],[-9.863255,54.02243],[-9.863,54.022405],[-9.862827,54.022403],[-9.862793,54.022404],[-9.862379,54.022543],[-9.862249,54.022582],[-9.862082,54.022598],[-9.861936,54.022592],[-9.861835,54.022576],[-9.861774,54.022461],[-9.861635,54.022338],[-9.861554,54.022261],[-9.861529,54.022237],[-9.861515,54.022224],[-9.861465,54.022176],[-9.861267,54.022032],[-9.861118,54.021893],[-9.86101,54.021803],[-9.860865,54.021689],[-9.860848,54.021674],[-9.860796,54.021697],[-9.860743,54.021725],[-9.860711,54.021776],[-9.860695,54.021826],[-9.860683,54.021867],[-9.860643,54.021911],[-9.860577,54.022002],[-9.860549,54.022056],[-9.860546,54.022109],[-9.860546,54.022163],[-9.860537,54.022194],[-9.860428,54.022243],[-9.860325,54.022287],[-9.86027,54.022292],[-9.860205,54.022282],[-9.860181,54.022285],[-9.860146,54.022304],[-9.860124,54.022319],[-9.860113,54.022346],[-9.860118,54.022372],[-9.860135,54.022407],[-9.860153,54.022451],[-9.860156,54.022506],[-9.86014,54.022555],[-9.860121,54.022581],[-9.860073,54.022595],[-9.859995,54.02262],[-9.859926,54.022669],[-9.859898,54.02272],[-9.859894,54.022769],[-9.859877,54.022793],[-9.859851,54.022805],[-9.859791,54.02281],[-9.859743,54.022808],[-9.859702,54.022792],[-9.859649,54.022767],[-9.859608,54.022755],[-9.859579,54.022755],[-9.859539,54.022779],[-9.859504,54.022819],[-9.859422,54.022878],[-9.859407,54.022887],[-9.85939,54.022893],[-9.859343,54.0229],[-9.859233,54.022911],[-9.859105,54.022923],[-9.859025,54.022939],[-9.858974,54.022955],[-9.858933,54.022981],[-9.858871,54.023045],[-9.858805,54.023128],[-9.858758,54.0232],[-9.858727,54.023291],[-9.858721,54.023342],[-9.858682,54.023385],[-9.858642,54.023423],[-9.858582,54.023455],[-9.858559,54.02347],[-9.858544,54.023516],[-9.858539,54.023532],[-9.858542,54.023552],[-9.858558,54.023577],[-9.858589,54.023604],[-9.85861,54.023626],[-9.858621,54.02364],[-9.858627,54.023663],[-9.858601,54.023762],[-9.85858,54.023799],[-9.858492,54.023903],[-9.85847,54.023929],[-9.858458,54.02396],[-9.858447,54.023991],[-9.858415,54.024141],[-9.858392,54.02421],[-9.858366,54.024244],[-9.858334,54.02427],[-9.858224,54.024335],[-9.858174,54.024362],[-9.858152,54.024382],[-9.85814,54.024393],[-9.858136,54.024402],[-9.858132,54.02441],[-9.858126,54.024428],[-9.858111,54.024479],[-9.858106,54.02449],[-9.858094,54.024502],[-9.858062,54.024517],[-9.858027,54.024529],[-9.857982,54.024539],[-9.857939,54.024537],[-9.857881,54.024528],[-9.857799,54.024521],[-9.857728,54.024532],[-9.857714,54.024535],[-9.857695,54.024547],[-9.857676,54.02458],[-9.857754,54.024699],[-9.85783,54.024824],[-9.857846,54.024848],[-9.857935,54.024923],[-9.857985,54.025033],[-9.858016,54.025193],[-9.858059,54.025261],[-9.858116,54.02534],[-9.858451,54.025766],[-9.858565,54.025811],[-9.85881,54.026189],[-9.859236,54.026873],[-9.859864,54.027834],[-9.860017,54.027971],[-9.860199,54.028134],[-9.860385,54.028246],[-9.860711,54.028382],[-9.860801,54.028418],[-9.861003,54.028419],[-9.861271,54.028508],[-9.861359,54.028546],[-9.861494,54.028606],[-9.861582,54.02874],[-9.861751,54.028776],[-9.861944,54.028842],[-9.862165,54.028902],[-9.862313,54.028884],[-9.862505,54.028916],[-9.862536,54.028925],[-9.86255,54.028929],[-9.862571,54.028943],[-9.862639,54.028991],[-9.862657,54.029008],[-9.86295,54.029073],[-9.863011,54.029114],[-9.863205,54.029273],[-9.863413,54.029436],[-9.863448,54.029463],[-9.863636,54.029618],[-9.863709,54.02968],[-9.863918,54.02986],[-9.864227,54.030122],[-9.86461,54.030432],[-9.865134,54.030879],[-9.865182,54.030911],[-9.865359,54.031029],[-9.865723,54.031252],[-9.866039,54.031448],[-9.866338,54.031623],[-9.866351,54.031638],[-9.86637,54.031661],[-9.867028,54.032049],[-9.868095,54.032698],[-9.868407,54.032889],[-9.868677,54.033054],[-9.868784,54.03312],[-9.868916,54.033169],[-9.870309,54.03362],[-9.870333,54.033628],[-9.872402,54.034294],[-9.872437,54.034301],[-9.872488,54.034311],[-9.872543,54.034322],[-9.87289,54.034362],[-9.873328,54.034411],[-9.873349,54.034414],[-9.873368,54.034416],[-9.873493,54.034431],[-9.873999,54.034491],[-9.874188,54.034513],[-9.874206,54.034515],[-9.874654,54.034566],[-9.874954,54.034601],[-9.874975,54.034603],[-9.875642,54.034679],[-9.875734,54.03469],[-9.875765,54.034693],[-9.876086,54.03473],[-9.876224,54.034745],[-9.876369,54.034761],[-9.876582,54.034784],[-9.876991,54.034832],[-9.877122,54.034812],[-9.877351,54.034766],[-9.87759,54.034714],[-9.877755,54.034666],[-9.877973,54.034604],[-9.878164,54.034552],[-9.878295,54.034519],[-9.878367,54.034499],[-9.87841,54.034487],[-9.878484,54.03446],[-9.878651,54.034425],[-9.878786,54.034407],[-9.878845,54.034397],[-9.878946,54.034365],[-9.87906,54.034337],[-9.879123,54.034333],[-9.879192,54.034323],[-9.87926,54.034308],[-9.879501,54.034255],[-9.879659,54.034217],[-9.879888,54.034168],[-9.880125,54.034103],[-9.880397,54.034028],[-9.880459,54.034011],[-9.880717,54.033933],[-9.880808,54.033909],[-9.880989,54.033885],[-9.881315,54.033891],[-9.881738,54.033937],[-9.882138,54.033994],[-9.882326,54.034038],[-9.882344,54.034045],[-9.88237,54.034054],[-9.882382,54.03407],[-9.882421,54.034118],[-9.882463,54.034133],[-9.882574,54.034174],[-9.882762,54.03424],[-9.88292,54.034309],[-9.882987,54.034348],[-9.883104,54.034449],[-9.883216,54.034547],[-9.883294,54.034595],[-9.883412,54.034621],[-9.883705,54.03465],[-9.883953,54.034665],[-9.884128,54.034682],[-9.884196,54.034693],[-9.88422,54.034699],[-9.884238,54.034705],[-9.884246,54.034694],[-9.884285,54.034649],[-9.88431,54.034635],[-9.884398,54.034587],[-9.884599,54.034503],[-9.884698,54.034475],[-9.884712,54.034463],[-9.884647,54.034422],[-9.884225,54.034156],[-9.883398,54.03364],[-9.883336,54.033598],[-9.88337,54.033581],[-9.883725,54.03341],[-9.884216,54.033151],[-9.884337,54.033087],[-9.884887,54.0328],[-9.885408,54.032522],[-9.886091,54.032174],[-9.886113,54.032163],[-9.886154,54.032142],[-9.886454,54.032207],[-9.88651,54.032189],[-9.88657,54.032205],[-9.88689,54.032118],[-9.887052,54.032091],[-9.887084,54.032049],[-9.887066,54.032027],[-9.887029,54.031971],[-9.886948,54.031938],[-9.886908,54.031897],[-9.886846,54.031854],[-9.886792,54.031812],[-9.887211,54.031598],[-9.887723,54.031328],[-9.887983,54.031188],[-9.88792,54.031137],[-9.887813,54.031046],[-9.88761,54.030876],[-9.887455,54.030749],[-9.887398,54.030719],[-9.887258,54.030613],[-9.887163,54.030548],[-9.887034,54.030445],[-9.88695,54.030365],[-9.886875,54.030339],[-9.886852,54.030345],[-9.886662,54.030167],[-9.886382,54.02993],[-9.886198,54.029773],[-9.885872,54.029506],[-9.885848,54.029476],[-9.885874,54.029447],[-9.885792,54.02937],[-9.885942,54.029319],[-9.886297,54.029201],[-9.8865,54.029132],[-9.886605,54.029093],[-9.886638,54.029077],[-9.887007,54.028948],[-9.887403,54.028817],[-9.887485,54.028788],[-9.887523,54.028775],[-9.887617,54.028747],[-9.887458,54.028352],[-9.887451,54.028334],[-9.887322,54.027978],[-9.887317,54.027967],[-9.887253,54.027822],[-9.887231,54.027771],[-9.887227,54.027764],[-9.888016,54.027611],[-9.887933,54.027523],[-9.887451,54.027062],[-9.88752,54.027018],[-9.887399,54.026918],[-9.886921,54.027037],[-9.886042,54.026894],[-9.885559,54.026813],[-9.884982,54.026717],[-9.884527,54.026633],[-9.884519,54.026641],[-9.884127,54.026555],[-9.884004,54.026525],[-9.883853,54.026532],[-9.883792,54.026523],[-9.883728,54.026513],[-9.882822,54.026353],[-9.881971,54.026216],[-9.880384,54.025937],[-9.880224,54.025909],[-9.879725,54.025814],[-9.879394,54.025694],[-9.879203,54.025621],[-9.878948,54.025463],[-9.878866,54.025403],[-9.878695,54.025278],[-9.878683,54.025269],[-9.878571,54.025188],[-9.878534,54.025161],[-9.878234,54.024887],[-9.878151,54.024791],[-9.878101,54.024808],[-9.877843,54.024907],[-9.877464,54.025037],[-9.877247,54.025108],[-9.877028,54.025184],[-9.8766,54.025329],[-9.876548,54.025346],[-9.876233,54.025454],[-9.875986,54.025544],[-9.87565,54.025269],[-9.875373,54.025038],[-9.875167,54.024845],[-9.87503,54.024768],[-9.874908,54.024698],[-9.874838,54.024661],[-9.874791,54.024643],[-9.874778,54.024635],[-9.874755,54.024621],[-9.874631,54.024563],[-9.874188,54.024355],[-9.874187,54.024342],[-9.873903,54.024387],[-9.873601,54.024426],[-9.873129,54.02444],[-9.873108,54.024444],[-9.873086,54.024442],[-9.87271,54.024506],[-9.872246,54.024595],[-9.872223,54.0246],[-9.872094,54.024626],[-9.872026,54.024603],[-9.871964,54.024582],[-9.87191,54.024543],[-9.871754,54.024495],[-9.871164,54.024236],[-9.870884,54.024103],[-9.870861,54.02409],[-9.870836,54.024077]],[[-9.875745,54.032655],[-9.875722,54.032641],[-9.875698,54.032626],[-9.875711,54.03262],[-9.876045,54.032463],[-9.87606,54.032456],[-9.876313,54.032324],[-9.876406,54.032276],[-9.876601,54.032174],[-9.876765,54.032089],[-9.876167,54.031719],[-9.874725,54.030795],[-9.874046,54.030366],[-9.874195,54.030291],[-9.874395,54.030191],[-9.874443,54.030167],[-9.874647,54.030065],[-9.874647,54.030065],[-9.874734,54.030023],[-9.874892,54.029946],[-9.875135,54.029828],[-9.875384,54.030015],[-9.876266,54.030581],[-9.877798,54.031554],[-9.878094,54.031406],[-9.87815,54.031377],[-9.876524,54.03034],[-9.875469,54.029666],[-9.875574,54.029615],[-9.875824,54.029494],[-9.876322,54.029828],[-9.877,54.030257],[-9.877417,54.03003],[-9.877734,54.029843],[-9.878009,54.030035],[-9.878252,54.030205],[-9.878994,54.030647],[-9.879248,54.030827],[-9.879276,54.030821],[-9.879367,54.030857],[-9.879582,54.030983],[-9.879626,54.03101],[-9.880802,54.030287],[-9.881821,54.029664],[-9.882153,54.029857],[-9.881219,54.030415],[-9.879923,54.031192],[-9.88017,54.031328],[-9.880384,54.031456],[-9.880671,54.031622],[-9.880949,54.031789],[-9.881226,54.031948],[-9.881526,54.032127],[-9.880301,54.032747],[-9.880295,54.03275],[-9.879609,54.033109],[-9.879433,54.033201],[-9.879253,54.033295],[-9.879075,54.033388],[-9.878554,54.03365],[-9.87852,54.033667],[-9.877886,54.033988],[-9.877811,54.034025],[-9.877333,54.03373],[-9.876828,54.033386],[-9.876562,54.03321],[-9.876321,54.033063],[-9.876314,54.033013],[-9.876108,54.032882],[-9.875958,54.032785],[-9.875745,54.032655]]]]}}]}
