{"type":"FeatureCollection","features":[{"type":"Feature","properties":{"source_fid":403504,"county":"Mayo","bog_geom_ha":137.85024760415695,"low15_pct":97.202342225113853,"low15_ha":133.99366943435945,"overlay_ha":134.01689247308516,"area_delta":0.023223038725717515},"geometry":{"type":"MultiPolygon","coordinates":[[[[-9.635433,53.923604],[-9.635449,53.923668],[-9.635398,53.923749],[-9.635428,53.923789],[-9.635447,53.923867],[-9.635395,53.92391],[-9.635392,53.923929],[-9.635386,53.923966],[-9.635428,53.924017],[-9.635412,53.924102],[-9.635421,53.924116],[-9.635385,53.924144],[-9.635391,53.924188],[-9.635408,53.924217],[-9.635412,53.92425],[-9.635378,53.924312],[-9.635388,53.924341],[-9.635413,53.924354],[-9.635399,53.92439],[-9.63545,53.924434],[-9.635422,53.9245],[-9.635445,53.924577],[-9.635424,53.924638],[-9.635408,53.924734],[-9.635384,53.924795],[-9.635408,53.92486],[-9.635382,53.924892],[-9.635443,53.924952],[-9.63542,53.925014],[-9.635365,53.925048],[-9.6354,53.925109],[-9.635373,53.925199],[-9.635341,53.925268],[-9.635363,53.925302],[-9.635309,53.925343],[-9.635329,53.925421],[-9.635311,53.925442],[-9.635336,53.925544],[-9.635328,53.925572],[-9.635398,53.925603],[-9.635331,53.925713],[-9.635337,53.925754],[-9.635359,53.925806],[-9.635336,53.92585],[-9.635339,53.925876],[-9.635285,53.925904],[-9.635282,53.925945],[-9.635285,53.926015],[-9.635264,53.926037],[-9.635197,53.926045],[-9.635151,53.926087],[-9.635196,53.926113],[-9.635196,53.926166],[-9.635204,53.926202],[-9.635199,53.926281],[-9.635217,53.926335],[-9.635809,53.926309],[-9.639837,53.926111],[-9.639835,53.926081],[-9.639814,53.925542],[-9.640271,53.925536],[-9.64026,53.925267],[-9.64025,53.924997],[-9.640706,53.924991],[-9.640717,53.92526],[-9.641173,53.925254],[-9.641184,53.925524],[-9.641641,53.925517],[-9.64163,53.925248],[-9.642087,53.925242],[-9.642076,53.924972],[-9.642532,53.924966],[-9.642522,53.924696],[-9.642978,53.92469],[-9.642968,53.924421],[-9.643424,53.924414],[-9.643435,53.924684],[-9.643446,53.924953],[-9.642989,53.92496],[-9.643,53.925229],[-9.64301,53.925499],[-9.642554,53.925505],[-9.642572,53.925977],[-9.643142,53.925949],[-9.64371,53.925929],[-9.644544,53.925901],[-9.644792,53.925793],[-9.645066,53.925655],[-9.645364,53.925499],[-9.645688,53.925319],[-9.645988,53.92515],[-9.64628,53.924986],[-9.646627,53.924808],[-9.64695,53.924623],[-9.647262,53.924438],[-9.647477,53.924311],[-9.647582,53.92425],[-9.647798,53.924123],[-9.647931,53.924046],[-9.648022,53.923993],[-9.648224,53.923982],[-9.648263,53.923867],[-9.648276,53.923799],[-9.648278,53.923753],[-9.648334,53.923729],[-9.648483,53.92371],[-9.648545,53.923624],[-9.648644,53.923563],[-9.648738,53.923547],[-9.648882,53.923516],[-9.648954,53.923464],[-9.649097,53.923451],[-9.649217,53.923414],[-9.649382,53.923367],[-9.649444,53.923348],[-9.649577,53.923359],[-9.649792,53.923347],[-9.649836,53.923305],[-9.64985,53.923258],[-9.649929,53.923186],[-9.649989,53.92318],[-9.650055,53.923153],[-9.650113,53.923151],[-9.650157,53.92313],[-9.650256,53.923088],[-9.650302,53.923095],[-9.65034,53.923082],[-9.65036,53.923052],[-9.650334,53.923029],[-9.65032,53.923],[-9.650352,53.922958],[-9.650417,53.922921],[-9.650421,53.922892],[-9.650487,53.922855],[-9.650569,53.922841],[-9.650587,53.922838],[-9.650637,53.922832],[-9.650714,53.922824],[-9.65076,53.922812],[-9.65085,53.922751],[-9.650903,53.922722],[-9.650917,53.922714],[-9.65093,53.922713],[-9.650694,53.922429],[-9.650114,53.921733],[-9.65121,53.920594],[-9.651682,53.92018],[-9.649426,53.919106],[-9.648038,53.918424],[-9.647591,53.91784],[-9.647739,53.917799],[-9.647859,53.917742],[-9.647951,53.917638],[-9.648122,53.917366],[-9.648172,53.917287],[-9.648305,53.917165],[-9.648543,53.91701],[-9.648885,53.916848],[-9.649138,53.916744],[-9.649374,53.916702],[-9.649661,53.916682],[-9.650249,53.916683],[-9.650776,53.916687],[-9.651118,53.916661],[-9.651376,53.916598],[-9.651597,53.916524],[-9.651868,53.91642],[-9.652132,53.916291],[-9.65233,53.91617],[-9.652423,53.916067],[-9.652461,53.915935],[-9.652461,53.915849],[-9.652585,53.91583],[-9.65284,53.915663],[-9.653081,53.915514],[-9.652677,53.915218],[-9.65233,53.91497],[-9.652002,53.914729],[-9.651632,53.914507],[-9.651318,53.914346],[-9.651063,53.914192],[-9.651314,53.913827],[-9.650094,53.913844],[-9.650072,53.913879],[-9.650012,53.913926],[-9.649988,53.913944],[-9.650025,53.913973],[-9.650199,53.914093],[-9.650376,53.914229],[-9.650639,53.914423],[-9.651026,53.91471],[-9.651266,53.914889],[-9.651195,53.91489],[-9.651035,53.914888],[-9.650898,53.914886],[-9.650654,53.914879],[-9.650238,53.914862],[-9.649657,53.914832],[-9.64913,53.914787],[-9.648555,53.914727],[-9.648035,53.914666],[-9.647921,53.914597],[-9.647765,53.914486],[-9.647527,53.914381],[-9.647012,53.914175],[-9.646504,53.913978],[-9.646296,53.913896],[-9.641357,53.913964],[-9.641321,53.913066],[-9.642842,53.913045],[-9.64283,53.912716],[-9.640885,53.91283],[-9.640205,53.912865],[-9.640056,53.912873],[-9.638551,53.912962],[-9.637146,53.913058],[-9.637054,53.913063],[-9.637014,53.913107],[-9.636997,53.913131],[-9.636605,53.913217],[-9.636275,53.913313],[-9.636186,53.913308],[-9.636114,53.913347],[-9.636071,53.913357],[-9.636033,53.913367],[-9.635858,53.913403],[-9.635825,53.91341],[-9.63552,53.913485],[-9.634959,53.913621],[-9.634447,53.913706],[-9.633141,53.913914],[-9.63306,53.913919],[-9.633018,53.913909],[-9.632832,53.91385],[-9.63272,53.913842],[-9.632596,53.913808],[-9.632422,53.913792],[-9.63233,53.913782],[-9.63232,53.913781],[-9.632267,53.913952],[-9.632288,53.91397],[-9.632303,53.913983],[-9.632303,53.913996],[-9.632285,53.914008],[-9.632288,53.914039],[-9.6323,53.91406],[-9.632321,53.914082],[-9.632315,53.914104],[-9.63233,53.914121],[-9.632342,53.914139],[-9.632333,53.914183],[-9.632375,53.914238],[-9.632411,53.914291],[-9.632414,53.914322],[-9.632399,53.914354],[-9.632387,53.914377],[-9.632402,53.914441],[-9.632423,53.914469],[-9.632461,53.914484],[-9.632485,53.914495],[-9.632515,53.914579],[-9.632566,53.914723],[-9.632611,53.914823],[-9.632635,53.914895],[-9.632683,53.914957],[-9.632725,53.914977],[-9.63274,53.914996],[-9.632755,53.91504],[-9.632836,53.91521],[-9.632878,53.915293],[-9.632896,53.915373],[-9.632914,53.915408],[-9.632953,53.915503],[-9.63303,53.915666],[-9.63312,53.915926],[-9.633174,53.916027],[-9.633201,53.916142],[-9.633231,53.916172],[-9.633231,53.916214],[-9.633258,53.916265],[-9.633255,53.916319],[-9.633273,53.916411],[-9.633279,53.916454],[-9.633315,53.916513],[-9.633315,53.916553],[-9.633342,53.916616],[-9.633342,53.916644],[-9.633384,53.916671],[-9.633405,53.916715],[-9.633411,53.916784],[-9.633417,53.916819],[-9.633438,53.916854],[-9.633477,53.916898],[-9.633507,53.916934],[-9.633537,53.916992],[-9.633572,53.917042],[-9.633593,53.917082],[-9.633578,53.917105],[-9.633581,53.917132],[-9.633689,53.917362],[-9.633716,53.917429],[-9.633719,53.917461],[-9.633758,53.917487],[-9.633773,53.917504],[-9.633773,53.91753],[-9.633794,53.917602],[-9.633821,53.917662],[-9.633845,53.917746],[-9.633875,53.917829],[-9.633905,53.917879],[-9.633953,53.91793],[-9.633977,53.917995],[-9.634007,53.918031],[-9.634031,53.918053],[-9.634022,53.918099],[-9.634034,53.91814],[-9.634085,53.918209],[-9.634189,53.918451],[-9.634264,53.91864],[-9.634333,53.918833],[-9.634343,53.918854],[-9.634356,53.918882],[-9.634369,53.918911],[-9.634453,53.919096],[-9.634471,53.919169],[-9.634477,53.9192],[-9.634516,53.919233],[-9.634582,53.919304],[-9.634618,53.919347],[-9.634633,53.919369],[-9.634681,53.919381],[-9.634698,53.919416],[-9.634707,53.919496],[-9.634714,53.919575],[-9.634705,53.919629],[-9.634693,53.919668],[-9.634687,53.91969],[-9.634669,53.919728],[-9.634663,53.919767],[-9.63469,53.919788],[-9.634791,53.919824],[-9.63483,53.919868],[-9.634833,53.919897],[-9.634809,53.919948],[-9.634806,53.919975],[-9.634854,53.920026],[-9.634881,53.920062],[-9.634914,53.920121],[-9.634926,53.920155],[-9.634908,53.920218],[-9.634917,53.920249],[-9.634938,53.920289],[-9.634956,53.920324],[-9.634974,53.92034],[-9.635011,53.920386],[-9.635048,53.92042],[-9.635018,53.920457],[-9.635049,53.920522],[-9.635148,53.920583],[-9.635132,53.920628],[-9.6351,53.920643],[-9.635119,53.920675],[-9.635214,53.920787],[-9.635199,53.920874],[-9.635157,53.920895],[-9.635215,53.92098],[-9.635271,53.920995],[-9.635256,53.921022],[-9.635313,53.921046],[-9.635313,53.921075],[-9.635266,53.92111],[-9.635283,53.921138],[-9.635333,53.921222],[-9.6353,53.921271],[-9.635376,53.921297],[-9.635356,53.921331],[-9.635354,53.921372],[-9.635292,53.921409],[-9.635303,53.921447],[-9.635359,53.921482],[-9.635315,53.921523],[-9.635325,53.921576],[-9.635371,53.921612],[-9.635383,53.921656],[-9.63534,53.921683],[-9.635347,53.921757],[-9.635396,53.9218],[-9.63539,53.921832],[-9.635339,53.921845],[-9.63533,53.921879],[-9.63527,53.921883],[-9.635248,53.921919],[-9.635304,53.921967],[-9.635283,53.922033],[-9.635308,53.922079],[-9.635274,53.922141],[-9.635283,53.922181],[-9.635335,53.922229],[-9.635391,53.922261],[-9.635399,53.922297],[-9.635383,53.922338],[-9.635407,53.922417],[-9.635412,53.922459],[-9.63539,53.922495],[-9.635399,53.922543],[-9.635396,53.922575],[-9.635394,53.922658],[-9.635431,53.922686],[-9.635399,53.922769],[-9.635394,53.922812],[-9.635464,53.922875],[-9.635446,53.922965],[-9.635413,53.92302],[-9.635444,53.923119],[-9.635361,53.923271],[-9.635457,53.923296],[-9.635448,53.923319],[-9.635493,53.923333],[-9.635446,53.923388],[-9.635437,53.923452],[-9.63542,53.923484],[-9.635446,53.923556],[-9.635433,53.923604]],[[-9.644912,53.915766],[-9.646281,53.915748],[-9.646292,53.916017],[-9.645835,53.916023],[-9.645846,53.916293],[-9.644476,53.916312],[-9.644466,53.916042],[-9.644922,53.916036],[-9.644912,53.915766]],[[-9.647916,53.922466],[-9.647459,53.922472],[-9.647449,53.922202],[-9.647905,53.922196],[-9.647916,53.922466]],[[-9.646132,53.923569],[-9.646588,53.923562],[-9.646578,53.923293],[-9.647491,53.92328],[-9.647502,53.92355],[-9.647045,53.923556],[-9.647056,53.923825],[-9.646599,53.923832],[-9.64661,53.924101],[-9.646153,53.924107],[-9.646164,53.924377],[-9.645707,53.924383],[-9.645718,53.924653],[-9.644805,53.924665],[-9.644794,53.924396],[-9.645251,53.924389],[-9.64524,53.92412],[-9.645697,53.924114],[-9.645686,53.923844],[-9.646143,53.923838],[-9.646132,53.923569]],[[-9.644359,53.924941],[-9.644815,53.924935],[-9.644826,53.925204],[-9.644369,53.92521],[-9.644359,53.924941]],[[-9.643913,53.925217],[-9.644369,53.92521],[-9.64438,53.92548],[-9.643923,53.925486],[-9.643913,53.925217]],[[-9.643467,53.925492],[-9.643923,53.925486],[-9.643934,53.925756],[-9.643477,53.925762],[-9.643467,53.925492]]],[[[-9.635216,53.926335],[-9.635224,53.926357],[-9.635217,53.926335],[-9.635216,53.926335]]]]}}]}
