{"type":"FeatureCollection","features":[{"type":"Feature","properties":{"source_fid":404094,"county":"Mayo","bog_geom_ha":147.80342593047916,"low15_pct":77.615571776155718,"low15_ha":114.71847414068822,"overlay_ha":114.71151771584198,"area_delta":-0.0069564248462370415},"geometry":{"type":"MultiPolygon","coordinates":[[[[-9.375119,53.684993],[-9.374856,53.68497],[-9.373967,53.684893],[-9.373711,53.684866],[-9.373601,53.684858],[-9.373622,53.685509],[-9.372109,53.685527],[-9.372226,53.689119],[-9.36988,53.689146],[-9.369883,53.689242],[-9.369448,53.689247],[-9.369438,53.68931],[-9.369385,53.689404],[-9.369362,53.689448],[-9.369312,53.689481],[-9.369235,53.689514],[-9.369211,53.689529],[-9.369228,53.690052],[-9.368425,53.690061],[-9.368413,53.690067],[-9.369001,53.690061],[-9.36901,53.69033],[-9.369028,53.690869],[-9.368974,53.69087],[-9.36917,53.690974],[-9.369433,53.691114],[-9.369613,53.691213],[-9.369937,53.691508],[-9.370617,53.691965],[-9.370887,53.692173],[-9.370879,53.691926],[-9.371333,53.691921],[-9.371342,53.692191],[-9.370916,53.692196],[-9.371105,53.692341],[-9.37186,53.692925],[-9.3722,53.69348],[-9.372535,53.694001],[-9.372799,53.694464],[-9.372775,53.694554],[-9.372749,53.694607],[-9.372662,53.694824],[-9.372615,53.694834],[-9.372608,53.694955],[-9.372635,53.694977],[-9.372663,53.695132],[-9.372717,53.695246],[-9.37281,53.695209],[-9.373005,53.695085],[-9.373169,53.695002],[-9.3733,53.694974],[-9.373396,53.694978],[-9.373518,53.695016],[-9.373685,53.695099],[-9.373868,53.695175],[-9.37394,53.695233],[-9.373969,53.695311],[-9.37407,53.695397],[-9.374249,53.695508],[-9.37441,53.695548],[-9.374523,53.695545],[-9.374591,53.695544],[-9.374754,53.695557],[-9.374915,53.69559],[-9.375023,53.695619],[-9.375214,53.695673],[-9.375381,53.69571],[-9.37543,53.695744],[-9.375522,53.695799],[-9.375569,53.695854],[-9.375695,53.695881],[-9.375779,53.695914],[-9.376006,53.695912],[-9.37601,53.696051],[-9.376023,53.696056],[-9.376202,53.696093],[-9.376414,53.696132],[-9.376484,53.696133],[-9.376581,53.696137],[-9.376722,53.696122],[-9.376862,53.696109],[-9.37692,53.696144],[-9.376952,53.69616],[-9.376968,53.69617],[-9.377784,53.696161],[-9.377843,53.696129],[-9.377982,53.696089],[-9.378162,53.696072],[-9.378276,53.696058],[-9.378415,53.696052],[-9.378506,53.69601],[-9.378574,53.69599],[-9.378666,53.695989],[-9.378816,53.695994],[-9.378927,53.695965],[-9.379025,53.695905],[-9.379119,53.695863],[-9.379232,53.695834],[-9.379302,53.695782],[-9.379364,53.695764],[-9.379467,53.695744],[-9.379581,53.695731],[-9.379641,53.695723],[-9.379742,53.695682],[-9.37985,53.695664],[-9.379991,53.695648],[-9.380133,53.695609],[-9.380264,53.695551],[-9.380378,53.695529],[-9.380451,53.695487],[-9.380597,53.695438],[-9.380684,53.695377],[-9.380799,53.695346],[-9.380875,53.695315],[-9.381013,53.695258],[-9.381147,53.695203],[-9.381211,53.695171],[-9.381321,53.695162],[-9.381445,53.695139],[-9.381535,53.695138],[-9.381606,53.695153],[-9.381653,53.695195],[-9.381687,53.695301],[-9.381865,53.695407],[-9.381995,53.695432],[-9.382159,53.69541],[-9.382234,53.695383],[-9.382249,53.695378],[-9.382313,53.695368],[-9.382423,53.695373],[-9.382561,53.695358],[-9.382577,53.695342],[-9.382628,53.695324],[-9.382709,53.695306],[-9.382731,53.695321],[-9.382799,53.695337],[-9.382889,53.695375],[-9.382994,53.695371],[-9.383078,53.695382],[-9.383189,53.695405],[-9.38337,53.695393],[-9.383699,53.695364],[-9.383855,53.695394],[-9.384063,53.695421],[-9.384277,53.695428],[-9.384387,53.6954],[-9.384471,53.69537],[-9.384585,53.695298],[-9.384622,53.695273],[-9.384698,53.695261],[-9.384831,53.695277],[-9.384945,53.695286],[-9.385073,53.695329],[-9.38517,53.695314],[-9.38522,53.695296],[-9.385289,53.695217],[-9.385339,53.695197],[-9.385454,53.695181],[-9.385646,53.695197],[-9.385736,53.695196],[-9.385777,53.695175],[-9.385792,53.695121],[-9.38584,53.695],[-9.385882,53.694927],[-9.385951,53.694822],[-9.385969,53.69476],[-9.385984,53.694709],[-9.386065,53.694665],[-9.386162,53.694629],[-9.386213,53.694611],[-9.386295,53.694584],[-9.38639,53.694567],[-9.386505,53.694496],[-9.386569,53.694434],[-9.386586,53.694376],[-9.386611,53.694344],[-9.386641,53.694316],[-9.386689,53.694245],[-9.386716,53.694196],[-9.386748,53.694114],[-9.386753,53.694065],[-9.386749,53.694034],[-9.38674,53.693999],[-9.386856,53.693935],[-9.386958,53.693885],[-9.38701,53.69389],[-9.387119,53.693862],[-9.387245,53.693791],[-9.38736,53.693752],[-9.387445,53.693745],[-9.387532,53.693752],[-9.38762,53.693756],[-9.387726,53.693775],[-9.387792,53.693766],[-9.387873,53.693726],[-9.387986,53.693636],[-9.388031,53.693616],[-9.387288,53.693625],[-9.387279,53.693355],[-9.386825,53.693361],[-9.386816,53.693091],[-9.385454,53.693107],[-9.385445,53.692837],[-9.384991,53.692843],[-9.384982,53.692573],[-9.384528,53.692578],[-9.384519,53.692309],[-9.384065,53.692314],[-9.384056,53.692045],[-9.383602,53.69205],[-9.383593,53.69178],[-9.383139,53.691785],[-9.38313,53.691516],[-9.384039,53.691505],[-9.384047,53.691775],[-9.384956,53.691765],[-9.384964,53.692034],[-9.385419,53.692029],[-9.385427,53.692298],[-9.385882,53.692293],[-9.38589,53.692563],[-9.386344,53.692557],[-9.386353,53.692827],[-9.386807,53.692822],[-9.386799,53.692552],[-9.38679,53.692283],[-9.386781,53.692013],[-9.387235,53.692008],[-9.387244,53.692277],[-9.387698,53.692272],[-9.387707,53.692542],[-9.388615,53.692531],[-9.388624,53.6928],[-9.389532,53.69279],[-9.389523,53.69252],[-9.390431,53.69251],[-9.39044,53.692779],[-9.389986,53.692785],[-9.389995,53.693054],[-9.390286,53.693051],[-9.390396,53.69301],[-9.390534,53.692965],[-9.390592,53.692919],[-9.390634,53.692841],[-9.390615,53.692767],[-9.390583,53.692717],[-9.390562,53.692687],[-9.390566,53.692663],[-9.390614,53.692633],[-9.390747,53.692605],[-9.390957,53.692591],[-9.391073,53.692585],[-9.391134,53.69254],[-9.39125,53.692475],[-9.391358,53.692424],[-9.391436,53.692417],[-9.391559,53.692409],[-9.391621,53.692406],[-9.391734,53.692425],[-9.391802,53.692413],[-9.39195,53.692404],[-9.392047,53.69238],[-9.392099,53.692385],[-9.392216,53.692375],[-9.392235,53.692384],[-9.392303,53.69243],[-9.392339,53.692487],[-9.392337,53.692534],[-9.392348,53.692579],[-9.392439,53.692606],[-9.392516,53.692603],[-9.392579,53.692595],[-9.392627,53.692588],[-9.392712,53.692572],[-9.392753,53.692538],[-9.392768,53.692483],[-9.392776,53.692465],[-9.392809,53.692449],[-9.392844,53.692442],[-9.39291,53.692445],[-9.392993,53.692448],[-9.393113,53.692456],[-9.393171,53.692458],[-9.393283,53.692459],[-9.393447,53.692477],[-9.393504,53.692479],[-9.39356,53.692477],[-9.39359,53.692467],[-9.393611,53.692448],[-9.393628,53.692424],[-9.393642,53.692399],[-9.393662,53.692379],[-9.393693,53.69237],[-9.39373,53.692369],[-9.393767,53.692374],[-9.393808,53.692384],[-9.393854,53.692393],[-9.393902,53.692396],[-9.393958,53.692391],[-9.394036,53.692379],[-9.394135,53.692362],[-9.394242,53.692343],[-9.394336,53.692324],[-9.394402,53.692307],[-9.394463,53.692291],[-9.394508,53.692259],[-9.394511,53.692257],[-9.394509,53.692193],[-9.392239,53.692219],[-9.39223,53.69195],[-9.391776,53.691955],[-9.391767,53.691686],[-9.391758,53.691416],[-9.390396,53.691432],[-9.390387,53.691162],[-9.389933,53.691168],[-9.389924,53.690898],[-9.38947,53.690903],[-9.389461,53.690634],[-9.389007,53.690639],[-9.388998,53.69037],[-9.388544,53.690375],[-9.388535,53.690105],[-9.388526,53.689836],[-9.388517,53.689566],[-9.388509,53.689297],[-9.388963,53.689292],[-9.388954,53.689022],[-9.388945,53.688753],[-9.388936,53.688483],[-9.388482,53.688488],[-9.388473,53.688219],[-9.387111,53.688235],[-9.387093,53.687696],[-9.386639,53.687701],[-9.38663,53.687431],[-9.386613,53.686892],[-9.386159,53.686898],[-9.386141,53.686358],[-9.386132,53.686089],[-9.386586,53.686084],[-9.386577,53.685814],[-9.386563,53.685369],[-9.386507,53.685361],[-9.385726,53.68537],[-9.385756,53.686268],[-9.384776,53.686279],[-9.384779,53.686374],[-9.384796,53.686913],[-9.384805,53.687183],[-9.384351,53.687188],[-9.384404,53.688805],[-9.384413,53.689075],[-9.383959,53.68908],[-9.38395,53.68881],[-9.383496,53.688816],[-9.383443,53.687199],[-9.383434,53.686929],[-9.38298,53.686934],[-9.382998,53.687473],[-9.382544,53.687479],[-9.382553,53.687748],[-9.381645,53.687759],[-9.381636,53.687489],[-9.381618,53.68695],[-9.381601,53.686411],[-9.382055,53.686406],[-9.382051,53.686311],[-9.381217,53.686321],[-9.380235,53.686332],[-9.380238,53.686427],[-9.380247,53.686696],[-9.379793,53.686701],[-9.379802,53.686971],[-9.379348,53.686976],[-9.379357,53.687246],[-9.378903,53.687251],[-9.378912,53.68752],[-9.378458,53.687526],[-9.378475,53.688065],[-9.378021,53.68807],[-9.378003,53.687531],[-9.377995,53.687261],[-9.376633,53.687277],[-9.376624,53.687007],[-9.377078,53.687002],[-9.377069,53.686733],[-9.377523,53.686728],[-9.377514,53.686458],[-9.377968,53.686453],[-9.377959,53.686183],[-9.378414,53.686178],[-9.378405,53.685909],[-9.379313,53.685898],[-9.379295,53.685359],[-9.379419,53.685358],[-9.379202,53.685337],[-9.378611,53.685293],[-9.378318,53.685266],[-9.378146,53.685251],[-9.377565,53.685204],[-9.377468,53.685195],[-9.376805,53.685133],[-9.376435,53.685104],[-9.376053,53.685073],[-9.375274,53.685007],[-9.375119,53.684993]],[[-9.376179,53.687282],[-9.376633,53.687277],[-9.376641,53.687547],[-9.377095,53.687541],[-9.377113,53.68808],[-9.376205,53.688091],[-9.376187,53.687552],[-9.376179,53.687282]],[[-9.375751,53.688096],[-9.376205,53.688091],[-9.376214,53.68836],[-9.37576,53.688365],[-9.375751,53.688096]],[[-9.381191,53.687764],[-9.381645,53.687759],[-9.381662,53.688298],[-9.38168,53.688837],[-9.381698,53.689376],[-9.381244,53.689381],[-9.381226,53.688842],[-9.380772,53.688847],[-9.380754,53.688308],[-9.381208,53.688303],[-9.381191,53.687764]],[[-9.381706,53.689645],[-9.381698,53.689376],[-9.382152,53.68937],[-9.382143,53.689101],[-9.382597,53.689096],[-9.382606,53.689365],[-9.38306,53.68936],[-9.383069,53.689629],[-9.383523,53.689624],[-9.383532,53.689894],[-9.383549,53.690433],[-9.383558,53.690702],[-9.383104,53.690707],[-9.383095,53.690438],[-9.382641,53.690443],[-9.382623,53.689904],[-9.382169,53.689909],[-9.38216,53.68964],[-9.381706,53.689645]],[[-9.383122,53.691246],[-9.38313,53.691516],[-9.382222,53.691526],[-9.382213,53.691257],[-9.382205,53.690987],[-9.382659,53.690982],[-9.382668,53.691252],[-9.383122,53.691246]],[[-9.371351,53.69246],[-9.371342,53.692191],[-9.371796,53.692186],[-9.371805,53.692455],[-9.371351,53.69246]],[[-9.371813,53.692725],[-9.371805,53.692455],[-9.372259,53.69245],[-9.372267,53.692719],[-9.371813,53.692725]],[[-9.372276,53.692989],[-9.372267,53.692719],[-9.372722,53.692714],[-9.37273,53.692984],[-9.372276,53.692989]],[[-9.385766,53.688789],[-9.385731,53.687711],[-9.386185,53.687706],[-9.386221,53.688784],[-9.385766,53.688789]],[[-9.385348,53.689873],[-9.385357,53.690142],[-9.385811,53.690137],[-9.38582,53.690406],[-9.385828,53.690676],[-9.38492,53.690686],[-9.384911,53.690417],[-9.384457,53.690422],[-9.384449,53.690153],[-9.383994,53.690158],[-9.383986,53.689888],[-9.383977,53.689619],[-9.384885,53.689608],[-9.384894,53.689878],[-9.385348,53.689873]],[[-9.386265,53.690132],[-9.386247,53.689593],[-9.386701,53.689587],[-9.386719,53.690126],[-9.386265,53.690132]],[[-9.384109,53.693662],[-9.383655,53.693667],[-9.383646,53.693397],[-9.382738,53.693408],[-9.382729,53.693138],[-9.382721,53.692869],[-9.382266,53.692874],[-9.382258,53.692605],[-9.382249,53.692335],[-9.382703,53.69233],[-9.382712,53.692599],[-9.383166,53.692594],[-9.383175,53.692864],[-9.383629,53.692858],[-9.383638,53.693128],[-9.384092,53.693123],[-9.384101,53.693392],[-9.384109,53.693662]],[[-9.38257,53.688287],[-9.382562,53.688018],[-9.383016,53.688012],[-9.383024,53.688282],[-9.38257,53.688287]],[[-9.381261,53.68992],[-9.38127,53.690189],[-9.381724,53.690184],[-9.381742,53.690723],[-9.380834,53.690734],[-9.380816,53.690195],[-9.380362,53.6902],[-9.380353,53.68993],[-9.380344,53.689661],[-9.380798,53.689656],[-9.380807,53.689925],[-9.381261,53.68992]],[[-9.379533,53.692636],[-9.379515,53.692097],[-9.37997,53.692092],[-9.379987,53.692631],[-9.379533,53.692636]],[[-9.3828,53.695294],[-9.382791,53.695025],[-9.383245,53.69502],[-9.383254,53.695289],[-9.3828,53.695294]],[[-9.372965,53.686241],[-9.372956,53.685971],[-9.37341,53.685966],[-9.373419,53.686235],[-9.372965,53.686241]],[[-9.375314,53.68864],[-9.37486,53.688645],[-9.374852,53.688376],[-9.375306,53.688371],[-9.375314,53.68864]],[[-9.374406,53.688651],[-9.37486,53.688645],[-9.374869,53.688915],[-9.374415,53.68892],[-9.374406,53.688651]],[[-9.378572,53.691029],[-9.377664,53.69104],[-9.377655,53.69077],[-9.378109,53.690765],[-9.378092,53.690226],[-9.378083,53.689956],[-9.378537,53.689951],[-9.378546,53.690221],[-9.379,53.690216],[-9.379017,53.690755],[-9.378563,53.69076],[-9.378572,53.691029]],[[-9.37721,53.691045],[-9.377664,53.69104],[-9.377673,53.691309],[-9.377219,53.691314],[-9.37721,53.691045]]],[[[-9.390288,53.685997],[-9.390216,53.685986],[-9.390218,53.686042],[-9.390227,53.686311],[-9.390298,53.68631],[-9.390288,53.685997]]],[[[-9.390387,53.689005],[-9.390316,53.686849],[-9.390245,53.68685],[-9.390254,53.68712],[-9.3898,53.687125],[-9.389809,53.687394],[-9.389817,53.687664],[-9.389835,53.688203],[-9.390289,53.688198],[-9.390298,53.688467],[-9.390307,53.688737],[-9.389853,53.688742],[-9.389862,53.689012],[-9.390387,53.689005]]],[[[-9.390405,53.689544],[-9.390396,53.689275],[-9.390325,53.689276],[-9.390334,53.689545],[-9.390405,53.689544]]],[[[-9.403489,53.690758],[-9.40353,53.690739],[-9.402638,53.69075],[-9.402647,53.691019],[-9.402751,53.691018],[-9.402809,53.691],[-9.402909,53.690985],[-9.403021,53.690967],[-9.403157,53.690937],[-9.403301,53.690899],[-9.403376,53.690868],[-9.403405,53.690837],[-9.403443,53.690796],[-9.403489,53.690758]]],[[[-9.402611,53.691046],[-9.402648,53.691044],[-9.402647,53.691019],[-9.400831,53.691041],[-9.400822,53.690771],[-9.399914,53.690782],[-9.399923,53.691051],[-9.399931,53.691321],[-9.39994,53.69159],[-9.399032,53.691601],[-9.399038,53.691786],[-9.399059,53.691785],[-9.399126,53.691788],[-9.399186,53.691792],[-9.399239,53.6918],[-9.399285,53.691815],[-9.399329,53.691829],[-9.399376,53.691831],[-9.399403,53.691823],[-9.399423,53.691811],[-9.39944,53.691794],[-9.399456,53.691759],[-9.399477,53.69172],[-9.399497,53.691699],[-9.399518,53.691688],[-9.399529,53.691684],[-9.399557,53.691682],[-9.399599,53.691688],[-9.399663,53.691703],[-9.39969,53.691707],[-9.399717,53.691703],[-9.399723,53.6917],[-9.399737,53.691683],[-9.399758,53.691662],[-9.399795,53.691643],[-9.399846,53.691628],[-9.399907,53.691618],[-9.39997,53.691614],[-9.400035,53.691615],[-9.400114,53.691616],[-9.400199,53.691613],[-9.400275,53.691603],[-9.400344,53.691585],[-9.400418,53.691566],[-9.400491,53.69155],[-9.400555,53.691538],[-9.400614,53.691526],[-9.400673,53.69151],[-9.400745,53.691489],[-9.400829,53.691469],[-9.400916,53.691456],[-9.400997,53.691449],[-9.401068,53.691443],[-9.401117,53.691435],[-9.401138,53.691424],[-9.401147,53.69141],[-9.401157,53.691393],[-9.401166,53.69137],[-9.401178,53.691345],[-9.401207,53.691323],[-9.401264,53.691307],[-9.401362,53.691292],[-9.401523,53.691281],[-9.401674,53.69123],[-9.401765,53.691198],[-9.401846,53.69116],[-9.401929,53.691137],[-9.402019,53.691111],[-9.402104,53.691093],[-9.402187,53.691073],[-9.402251,53.691067],[-9.402296,53.691075],[-9.402327,53.691095],[-9.402353,53.691127],[-9.402373,53.691138],[-9.402383,53.691137],[-9.402409,53.691129],[-9.402439,53.69111],[-9.402493,53.691072],[-9.402549,53.691051],[-9.402611,53.691046]]],[[[-9.39807,53.691787],[-9.39813,53.691803],[-9.398124,53.691612],[-9.396762,53.691627],[-9.396768,53.6918],[-9.396769,53.6918],[-9.396849,53.691785],[-9.396938,53.691767],[-9.397027,53.691754],[-9.39711,53.691751],[-9.397193,53.691757],[-9.397272,53.691768],[-9.39733,53.691774],[-9.397367,53.691771],[-9.397398,53.691755],[-9.397432,53.69173],[-9.397477,53.691699],[-9.397534,53.691672],[-9.3976,53.691661],[-9.397666,53.69166],[-9.397722,53.691663],[-9.397764,53.69167],[-9.397803,53.691686],[-9.397838,53.691703],[-9.397894,53.691729],[-9.397968,53.691757],[-9.39807,53.691787]]],[[[-9.396162,53.691958],[-9.396203,53.691904],[-9.394954,53.691918],[-9.394961,53.692107],[-9.394972,53.692106],[-9.395019,53.692083],[-9.395051,53.692057],[-9.395079,53.692038],[-9.395113,53.692026],[-9.395166,53.692017],[-9.395239,53.692009],[-9.395329,53.692],[-9.395419,53.691998],[-9.395497,53.692009],[-9.395573,53.692027],[-9.39565,53.692045],[-9.395703,53.692031],[-9.395758,53.692023],[-9.395819,53.692012],[-9.395878,53.692002],[-9.395944,53.691955],[-9.396065,53.69196],[-9.396162,53.691958]]],[[[-9.389953,53.693087],[-9.389996,53.69309],[-9.389995,53.693054],[-9.389087,53.693065],[-9.389096,53.693334],[-9.388187,53.693345],[-9.388196,53.693592],[-9.388293,53.693602],[-9.38841,53.693586],[-9.388513,53.693573],[-9.388571,53.693549],[-9.388626,53.693484],[-9.388683,53.693477],[-9.388788,53.693471],[-9.388937,53.693451],[-9.389072,53.693419],[-9.389081,53.693386],[-9.389103,53.693325],[-9.389143,53.693309],[-9.389241,53.69331],[-9.389383,53.693302],[-9.38946,53.693291],[-9.389514,53.693255],[-9.389527,53.693247],[-9.389701,53.69316],[-9.389838,53.693117],[-9.389953,53.693087]]],[[[-9.368349,53.690465],[-9.368566,53.690629],[-9.368556,53.690335],[-9.368141,53.69034],[-9.368349,53.690465]]],[[[-9.368076,53.690301],[-9.368101,53.690316],[-9.368098,53.690205],[-9.368067,53.690218],[-9.367987,53.690245],[-9.368076,53.690301]]],[[[-9.414474,53.685034],[-9.414535,53.68683],[-9.413022,53.686848],[-9.413071,53.688322],[-9.413579,53.688639],[-9.414219,53.688631],[-9.414539,53.688321],[-9.414965,53.687909],[-9.4153,53.687588],[-9.415544,53.687351],[-9.415724,53.687172],[-9.41579,53.687179],[-9.415911,53.687117],[-9.416008,53.687062],[-9.416073,53.687019],[-9.416117,53.686972],[-9.416172,53.686934],[-9.416263,53.686888],[-9.416334,53.686816],[-9.416367,53.686749],[-9.416405,53.686688],[-9.41645,53.686622],[-9.416485,53.686575],[-9.416543,53.686545],[-9.41662,53.686515],[-9.416686,53.68646],[-9.41674,53.68639],[-9.416788,53.686339],[-9.416832,53.68629],[-9.416848,53.686227],[-9.416863,53.686203],[-9.416881,53.686174],[-9.416958,53.686133],[-9.417048,53.686098],[-9.41712,53.686068],[-9.417193,53.686028],[-9.417264,53.686011],[-9.417364,53.685998],[-9.417386,53.685993],[-9.41656,53.686003],[-9.416551,53.685733],[-9.417005,53.685728],[-9.416982,53.68504],[-9.416655,53.684812],[-9.416393,53.684655],[-9.416009,53.684419],[-9.415967,53.684394],[-9.415988,53.685016],[-9.414474,53.685034]]],[[[-9.388892,53.687135],[-9.388883,53.686866],[-9.388865,53.686327],[-9.388411,53.686332],[-9.388429,53.686871],[-9.387975,53.686876],[-9.387992,53.687415],[-9.3889,53.687405],[-9.388892,53.687135]]],[[[-9.377986,53.686992],[-9.377995,53.687261],[-9.378449,53.687256],[-9.37844,53.686987],[-9.377986,53.686992]]]]}}]}
