{"type":"FeatureCollection","features":[{"type":"Feature","properties":{"source_fid":404126,"county":"Mayo","bog_geom_ha":564.46446505603706,"low15_pct":56.738609112709838,"low15_ha":320.26928640829345,"overlay_ha":320.25820475649476,"area_delta":-0.011081651798690473},"geometry":{"type":"MultiPolygon","coordinates":[[[[-9.599106,54.293711],[-9.598916,54.293871],[-9.598579,54.294149],[-9.598341,54.294383],[-9.598671,54.294379],[-9.59866,54.294109],[-9.599121,54.294103],[-9.599106,54.293711]]],[[[-9.599404,54.293507],[-9.59932,54.293561],[-9.599561,54.293558],[-9.599554,54.293398],[-9.599404,54.293507]]],[[[-9.60729,54.290814],[-9.607289,54.290815],[-9.607297,54.291029],[-9.607757,54.291023],[-9.607789,54.291831],[-9.60825,54.291825],[-9.608271,54.292364],[-9.608731,54.292358],[-9.608752,54.292897],[-9.610134,54.292878],[-9.610145,54.293148],[-9.609684,54.293154],[-9.609694,54.293423],[-9.609716,54.293962],[-9.609726,54.294232],[-9.610187,54.294226],[-9.610208,54.294765],[-9.610668,54.294758],[-9.610679,54.295028],[-9.610218,54.295034],[-9.610229,54.295304],[-9.609768,54.29531],[-9.609779,54.295579],[-9.609789,54.295849],[-9.608868,54.295861],[-9.608878,54.29613],[-9.608418,54.296136],[-9.608439,54.296675],[-9.607978,54.296682],[-9.607988,54.296951],[-9.607067,54.296963],[-9.607088,54.297502],[-9.606627,54.297508],[-9.606648,54.298047],[-9.606188,54.298053],[-9.606198,54.298323],[-9.605277,54.298335],[-9.605266,54.298066],[-9.604806,54.298072],[-9.604816,54.298341],[-9.604355,54.298347],[-9.604366,54.298617],[-9.603905,54.298623],[-9.603916,54.298892],[-9.602994,54.298905],[-9.603005,54.299174],[-9.602083,54.299186],[-9.602094,54.299456],[-9.601172,54.299468],[-9.601183,54.299738],[-9.600262,54.29975],[-9.600272,54.300019],[-9.599811,54.300025],[-9.599822,54.300295],[-9.599361,54.300301],[-9.599371,54.30057],[-9.598911,54.300576],[-9.5989,54.300307],[-9.59889,54.300038],[-9.598429,54.300044],[-9.598419,54.299774],[-9.597958,54.29978],[-9.597948,54.299511],[-9.597487,54.299517],[-9.597476,54.299247],[-9.596555,54.29926],[-9.596545,54.29899],[-9.595873,54.298999],[-9.59587,54.299012],[-9.595687,54.299562],[-9.595545,54.300019],[-9.595441,54.300516],[-9.595366,54.300754],[-9.595355,54.300789],[-9.595337,54.300843],[-9.595319,54.300894],[-9.596618,54.300876],[-9.596628,54.301146],[-9.597089,54.30114],[-9.597078,54.30087],[-9.599382,54.30084],[-9.599392,54.301109],[-9.599853,54.301103],[-9.599874,54.301642],[-9.600335,54.301636],[-9.600345,54.301905],[-9.600806,54.301899],[-9.600816,54.302169],[-9.601277,54.302163],[-9.601308,54.302971],[-9.601769,54.302965],[-9.60178,54.303234],[-9.60224,54.303228],[-9.60223,54.302959],[-9.603151,54.302947],[-9.60313,54.302408],[-9.60312,54.302138],[-9.603581,54.302132],[-9.60357,54.301863],[-9.604031,54.301856],[-9.60402,54.301587],[-9.604481,54.301581],[-9.604471,54.301311],[-9.60446,54.301042],[-9.604921,54.301036],[-9.604879,54.299958],[-9.604869,54.299689],[-9.60579,54.299676],[-9.605769,54.299137],[-9.60669,54.299125],[-9.606711,54.299664],[-9.606251,54.29967],[-9.606261,54.29994],[-9.606722,54.299933],[-9.606764,54.301011],[-9.606774,54.301281],[-9.607235,54.301275],[-9.607246,54.301544],[-9.606785,54.30155],[-9.606795,54.30182],[-9.606806,54.302089],[-9.607267,54.302083],[-9.607256,54.301814],[-9.607717,54.301807],[-9.607706,54.301538],[-9.608628,54.301526],[-9.608638,54.301795],[-9.608178,54.301801],[-9.608188,54.302071],[-9.608199,54.30234],[-9.607738,54.302346],[-9.607759,54.302885],[-9.607298,54.302891],[-9.607309,54.303161],[-9.607319,54.30343],[-9.606398,54.303443],[-9.606408,54.303712],[-9.605947,54.303718],[-9.605958,54.303988],[-9.605497,54.303994],[-9.605508,54.304263],[-9.605047,54.304269],[-9.605057,54.304539],[-9.605068,54.304808],[-9.604607,54.304814],[-9.604617,54.305084],[-9.604157,54.30509],[-9.604167,54.305359],[-9.604178,54.305629],[-9.604188,54.305898],[-9.604649,54.305892],[-9.604659,54.306162],[-9.60467,54.306431],[-9.605131,54.306425],[-9.605141,54.306694],[-9.605602,54.306688],[-9.605591,54.306419],[-9.606052,54.306413],[-9.606063,54.306682],[-9.606073,54.306952],[-9.606126,54.308299],[-9.605665,54.308305],[-9.605675,54.308575],[-9.606136,54.308568],[-9.606147,54.308838],[-9.606157,54.309107],[-9.606178,54.309646],[-9.606199,54.310185],[-9.605738,54.310191],[-9.605749,54.310461],[-9.605288,54.310467],[-9.605277,54.310197],[-9.605257,54.309659],[-9.604796,54.309665],[-9.604775,54.309126],[-9.603853,54.309138],[-9.603864,54.309407],[-9.602942,54.30942],[-9.602952,54.309689],[-9.602492,54.309695],[-9.602502,54.309965],[-9.602513,54.310234],[-9.602052,54.31024],[-9.602062,54.31051],[-9.601601,54.310516],[-9.601622,54.311055],[-9.601397,54.311058],[-9.601871,54.311615],[-9.601934,54.311689],[-9.60203,54.311802],[-9.601498,54.312553],[-9.601486,54.312636],[-9.601598,54.312912],[-9.601548,54.313058],[-9.601274,54.313473],[-9.60125,54.313544],[-9.601104,54.313672],[-9.601093,54.313679],[-9.601078,54.313689],[-9.60095,54.313772],[-9.600897,54.313812],[-9.600849,54.313861],[-9.600826,54.313953],[-9.600806,54.314008],[-9.600674,54.314263],[-9.600742,54.315232],[-9.600701,54.315744],[-9.600661,54.315788],[-9.60061,54.315828],[-9.600502,54.315947],[-9.600473,54.31607],[-9.600444,54.316149],[-9.600418,54.316218],[-9.600407,54.31627],[-9.600586,54.316453],[-9.600639,54.316533],[-9.600604,54.316575],[-9.60053,54.316623],[-9.600383,54.316678],[-9.600361,54.316711],[-9.600407,54.316805],[-9.600379,54.316837],[-9.600324,54.316887],[-9.600298,54.316933],[-9.600151,54.316948],[-9.600022,54.316938],[-9.600007,54.316947],[-9.600009,54.317007],[-9.599961,54.317008],[-9.599963,54.317282],[-9.59984,54.317356],[-9.599761,54.317401],[-9.599661,54.317537],[-9.599372,54.317943],[-9.599303,54.318093],[-9.599188,54.318173],[-9.599138,54.318331],[-9.599139,54.318367],[-9.599127,54.318367],[-9.599123,54.318378],[-9.599072,54.318421],[-9.598948,54.318427],[-9.598917,54.318453],[-9.59891,54.318512],[-9.598904,54.318586],[-9.598961,54.318588],[-9.599093,54.318551],[-9.599137,54.318564],[-9.59916,54.318615],[-9.599156,54.318636],[-9.599611,54.31863],[-9.59959,54.318091],[-9.600051,54.318085],[-9.600072,54.318624],[-9.600093,54.319163],[-9.600103,54.319432],[-9.600564,54.319426],[-9.600554,54.319157],[-9.601015,54.319151],[-9.601004,54.318881],[-9.600994,54.318612],[-9.601454,54.318606],[-9.601444,54.318336],[-9.601434,54.318067],[-9.601894,54.318061],[-9.601874,54.317522],[-9.602334,54.317516],[-9.602324,54.317246],[-9.602785,54.31724],[-9.602774,54.316971],[-9.603696,54.316958],[-9.603686,54.316689],[-9.604147,54.316683],[-9.604136,54.316413],[-9.605058,54.316401],[-9.605047,54.316132],[-9.605508,54.316126],[-9.605498,54.315856],[-9.605959,54.31585],[-9.605948,54.31558],[-9.60687,54.315568],[-9.606859,54.315299],[-9.60732,54.315293],[-9.60731,54.315023],[-9.606388,54.315035],[-9.606378,54.314766],[-9.605917,54.314772],[-9.605896,54.314233],[-9.605435,54.314239],[-9.605414,54.3137],[-9.605393,54.313161],[-9.605382,54.312892],[-9.605843,54.312886],[-9.605833,54.312616],[-9.605822,54.312347],[-9.605812,54.312077],[-9.606273,54.312071],[-9.606262,54.311802],[-9.606252,54.311532],[-9.606712,54.311526],[-9.606691,54.310987],[-9.607152,54.310981],[-9.607142,54.310712],[-9.607131,54.310442],[-9.607121,54.310173],[-9.607582,54.310167],[-9.607571,54.309897],[-9.607561,54.309628],[-9.608021,54.309622],[-9.608011,54.309352],[-9.608472,54.309346],[-9.608461,54.309077],[-9.608922,54.30907],[-9.608912,54.308801],[-9.609372,54.308795],[-9.609363,54.308553],[-9.609335,54.308564],[-9.609202,54.30862],[-9.609033,54.308695],[-9.609017,54.308702],[-9.608874,54.308774],[-9.608723,54.308856],[-9.60871,54.308863],[-9.608704,54.308867],[-9.608686,54.308862],[-9.608214,54.308746],[-9.608333,54.308606],[-9.608865,54.307984],[-9.609166,54.307629],[-9.609627,54.307086],[-9.610409,54.306139],[-9.611067,54.30535],[-9.611394,54.304961],[-9.61266,54.304114],[-9.613321,54.303657],[-9.613336,54.303646],[-9.613394,54.303605],[-9.6143,54.303232],[-9.6147,54.303067],[-9.6147,54.303067],[-9.616059,54.302429],[-9.616152,54.302385],[-9.617191,54.301898],[-9.618946,54.30108],[-9.61948,54.301259],[-9.620171,54.301489],[-9.621022,54.301851],[-9.621285,54.301963],[-9.621557,54.301887],[-9.622003,54.301762],[-9.623656,54.301262],[-9.625977,54.30056],[-9.626786,54.300322],[-9.627609,54.30008],[-9.628538,54.299809],[-9.628928,54.299694],[-9.629006,54.299681],[-9.629143,54.299658],[-9.629167,54.299649],[-9.629226,54.299629],[-9.629275,54.299584],[-9.629007,54.299587],[-9.628972,54.298689],[-9.630395,54.29867],[-9.631404,54.297715],[-9.63187,54.297275],[-9.63238,54.296792],[-9.632759,54.296391],[-9.633151,54.29609],[-9.63369,54.295675],[-9.633639,54.295624],[-9.633602,54.295588],[-9.6336,54.295586],[-9.633597,54.295582],[-9.633597,54.295582],[-9.633087,54.295004],[-9.632986,54.294901],[-9.63292,54.294833],[-9.6327,54.294739],[-9.632111,54.294563],[-9.631571,54.294394],[-9.6311,54.294242],[-9.630788,54.294126],[-9.630679,54.294076],[-9.630545,54.294014],[-9.630181,54.293879],[-9.629806,54.293754],[-9.629444,54.293633],[-9.628692,54.29344],[-9.628286,54.293339],[-9.627964,54.293269],[-9.627837,54.293247],[-9.627565,54.293201],[-9.627107,54.293115],[-9.62665,54.293029],[-9.626241,54.292954],[-9.626221,54.292951],[-9.625853,54.292875],[-9.625429,54.292788],[-9.625282,54.292756],[-9.625255,54.292785],[-9.625234,54.29287],[-9.625211,54.292909],[-9.625124,54.292956],[-9.625003,54.293008],[-9.624832,54.293051],[-9.624778,54.293037],[-9.624636,54.29297],[-9.624529,54.292901],[-9.624464,54.292804],[-9.624364,54.292667],[-9.624263,54.292534],[-9.624166,54.292433],[-9.623929,54.2923],[-9.623802,54.292219],[-9.623637,54.292133],[-9.623589,54.292085],[-9.623584,54.291944],[-9.623654,54.291825],[-9.623718,54.291734],[-9.623698,54.291647],[-9.623691,54.291617],[-9.623691,54.291573],[-9.623729,54.291543],[-9.623797,54.291544],[-9.623877,54.291541],[-9.623921,54.291542],[-9.623967,54.291517],[-9.623981,54.291489],[-9.623984,54.291442],[-9.623938,54.291333],[-9.62391,54.291237],[-9.623898,54.291155],[-9.623838,54.291106],[-9.623753,54.291057],[-9.623681,54.29101],[-9.623598,54.290984],[-9.623558,54.290941],[-9.623552,54.29087],[-9.623572,54.290783],[-9.623606,54.290712],[-9.62364,54.290645],[-9.623616,54.290561],[-9.623572,54.290471],[-9.623551,54.290415],[-9.623505,54.290306],[-9.623509,54.290224],[-9.623513,54.290132],[-9.623514,54.290102],[-9.62352,54.290024],[-9.623437,54.289954],[-9.623377,54.289914],[-9.623349,54.289867],[-9.623322,54.289835],[-9.623324,54.289765],[-9.623333,54.289694],[-9.623321,54.289643],[-9.623235,54.289625],[-9.623173,54.28961],[-9.623094,54.289577],[-9.623025,54.289528],[-9.622828,54.289477],[-9.622824,54.289436],[-9.622823,54.289424],[-9.622793,54.289318],[-9.622777,54.289264],[-9.622739,54.289188],[-9.622625,54.289071],[-9.622648,54.289],[-9.622727,54.288946],[-9.622795,54.288813],[-9.622801,54.288722],[-9.622752,54.28863],[-9.622646,54.288499],[-9.622568,54.288434],[-9.622491,54.288332],[-9.622433,54.288269],[-9.622157,54.288148],[-9.622056,54.288121],[-9.621957,54.288117],[-9.621815,54.28807],[-9.621743,54.288013],[-9.621681,54.287884],[-9.621619,54.28779],[-9.621543,54.28772],[-9.621433,54.287644],[-9.621299,54.287579],[-9.621228,54.28756],[-9.621094,54.28757],[-9.620924,54.287606],[-9.620836,54.287618],[-9.620802,54.287617],[-9.620742,54.287561],[-9.620653,54.287434],[-9.620587,54.287311],[-9.620431,54.287153],[-9.620373,54.287081],[-9.620282,54.287],[-9.620202,54.286972],[-9.620116,54.286969],[-9.619998,54.286995],[-9.619934,54.287007],[-9.619876,54.286982],[-9.619784,54.286947],[-9.619611,54.286925],[-9.619553,54.286897],[-9.619519,54.286845],[-9.619491,54.286739],[-9.619476,54.286608],[-9.619049,54.286327],[-9.618726,54.286152],[-9.61867,54.286122],[-9.618118,54.285815],[-9.617577,54.285509],[-9.61686,54.28513],[-9.616476,54.284924],[-9.616316,54.284839],[-9.615901,54.284663],[-9.615391,54.284527],[-9.614835,54.28435],[-9.614428,54.284213],[-9.614079,54.284265],[-9.614017,54.284276],[-9.613935,54.28429],[-9.613766,54.284319],[-9.613687,54.284341],[-9.613474,54.284361],[-9.613534,54.284414],[-9.61359,54.284523],[-9.61377,54.28479],[-9.613696,54.284933],[-9.613305,54.28525],[-9.612773,54.285764],[-9.612627,54.285901],[-9.612192,54.286308],[-9.611482,54.286995],[-9.610925,54.287565],[-9.610378,54.288135],[-9.609803,54.288854],[-9.609286,54.289489],[-9.608517,54.29003],[-9.607742,54.290576],[-9.607546,54.290683],[-9.607382,54.290773],[-9.60729,54.290814]],[[-9.60578,54.311269],[-9.605812,54.312077],[-9.605351,54.312084],[-9.605361,54.312353],[-9.604901,54.312359],[-9.60489,54.31209],[-9.604859,54.311281],[-9.605319,54.311275],[-9.605309,54.311006],[-9.60577,54.311],[-9.60578,54.311269]],[[-9.604974,54.314245],[-9.605435,54.314239],[-9.605456,54.314778],[-9.604995,54.314784],[-9.604974,54.314245]],[[-9.600512,54.318079],[-9.600051,54.318085],[-9.60004,54.317816],[-9.600501,54.31781],[-9.600512,54.318079]],[[-9.608157,54.301262],[-9.607235,54.301275],[-9.607225,54.301005],[-9.608146,54.300993],[-9.608157,54.301262]],[[-9.607151,54.299119],[-9.60669,54.299125],[-9.60668,54.298856],[-9.607141,54.298849],[-9.607151,54.299119]],[[-9.610595,54.292872],[-9.610134,54.292878],[-9.610124,54.292609],[-9.610584,54.292603],[-9.610595,54.292872]],[[-9.603968,54.312102],[-9.603047,54.312114],[-9.603036,54.311845],[-9.603026,54.311575],[-9.603487,54.311569],[-9.603497,54.311839],[-9.603958,54.311833],[-9.603968,54.312102]],[[-9.60092,54.316726],[-9.601381,54.31672],[-9.601371,54.31645],[-9.601832,54.316444],[-9.601842,54.316713],[-9.601853,54.316983],[-9.600931,54.316995],[-9.60092,54.316726]]],[[[-9.60943,54.308524],[-9.60943,54.308524],[-9.609823,54.308519],[-9.609817,54.308367],[-9.609622,54.308442],[-9.60943,54.308524]]],[[[-9.610271,54.308191],[-9.610126,54.308246],[-9.610273,54.308244],[-9.610271,54.308191]]],[[[-9.611356,54.30781],[-9.610902,54.307966],[-9.611645,54.307956],[-9.611635,54.307715],[-9.611356,54.30781]]],[[[-9.611727,54.307684],[-9.611724,54.307685],[-9.612556,54.307674],[-9.612545,54.307408],[-9.612478,54.307431],[-9.612286,54.307494],[-9.612149,54.307539],[-9.612061,54.307569],[-9.611842,54.307645],[-9.611727,54.307684]]],[[[-9.612683,54.307361],[-9.612556,54.307404],[-9.615771,54.307361],[-9.615781,54.307631],[-9.617164,54.307612],[-9.617153,54.307343],[-9.617614,54.307337],[-9.617624,54.307606],[-9.618546,54.307594],[-9.618557,54.307863],[-9.619478,54.307851],[-9.619489,54.30812],[-9.62041,54.308108],[-9.620421,54.308377],[-9.621803,54.308359],[-9.621793,54.308089],[-9.622714,54.308077],[-9.622725,54.308346],[-9.623186,54.30834],[-9.623196,54.30861],[-9.623657,54.308603],[-9.623668,54.308873],[-9.624129,54.308867],[-9.624139,54.309136],[-9.62415,54.309406],[-9.625071,54.309393],[-9.625082,54.309663],[-9.625543,54.309656],[-9.625532,54.309387],[-9.626433,54.309375],[-9.626453,54.309364],[-9.626443,54.309105],[-9.62689,54.309099],[-9.626904,54.30909],[-9.626893,54.308829],[-9.627354,54.308823],[-9.627355,54.308842],[-9.627807,54.308602],[-9.627804,54.308548],[-9.627794,54.308278],[-9.628421,54.30827],[-9.628461,54.308248],[-9.628709,54.308106],[-9.628705,54.307996],[-9.628905,54.307993],[-9.629248,54.307797],[-9.62944,54.307648],[-9.629542,54.307568],[-9.629351,54.307673],[-9.629065,54.307837],[-9.628935,54.3078],[-9.628773,54.307767],[-9.628608,54.30773],[-9.628296,54.307661],[-9.627652,54.307535],[-9.627401,54.307485],[-9.627176,54.307441],[-9.626886,54.307405],[-9.626555,54.307363],[-9.626651,54.307285],[-9.626633,54.307284],[-9.626507,54.307275],[-9.626434,54.307271],[-9.626358,54.307268],[-9.626111,54.307254],[-9.625993,54.307248],[-9.625919,54.307245],[-9.625651,54.307244],[-9.625286,54.307242],[-9.625101,54.307239],[-9.624831,54.307236],[-9.624074,54.307224],[-9.623831,54.30722],[-9.623236,54.307209],[-9.623145,54.307208],[-9.622476,54.307199],[-9.622306,54.307197],[-9.621418,54.307188],[-9.620913,54.307177],[-9.620559,54.307166],[-9.620329,54.307159],[-9.619941,54.307147],[-9.61963,54.307139],[-9.619441,54.307135],[-9.619089,54.307123],[-9.618765,54.307112],[-9.618125,54.307092],[-9.617701,54.307078],[-9.617459,54.307071],[-9.617074,54.30706],[-9.616689,54.307049],[-9.616365,54.307041],[-9.616156,54.307035],[-9.61561,54.307023],[-9.615434,54.30702],[-9.615236,54.307018],[-9.615132,54.307018],[-9.614842,54.307016],[-9.614594,54.307028],[-9.614386,54.307043],[-9.614196,54.307071],[-9.614088,54.307089],[-9.614024,54.3071],[-9.614004,54.307104],[-9.613811,54.30714],[-9.613747,54.307149],[-9.613562,54.307177],[-9.613459,54.307193],[-9.613173,54.307239],[-9.6129,54.307301],[-9.612779,54.307334],[-9.612683,54.307361]]],[[[-9.617799,54.314923],[-9.61781,54.314883],[-9.617449,54.314888],[-9.617438,54.314618],[-9.617428,54.314349],[-9.616506,54.314361],[-9.616496,54.314092],[-9.616035,54.314098],[-9.616024,54.313828],[-9.615563,54.313834],[-9.615553,54.313565],[-9.613248,54.313596],[-9.61327,54.314135],[-9.61373,54.314129],[-9.613752,54.314668],[-9.614212,54.314661],[-9.614223,54.314931],[-9.614233,54.3152],[-9.614694,54.315194],[-9.614705,54.315464],[-9.614715,54.315733],[-9.615176,54.315727],[-9.615187,54.315996],[-9.615648,54.31599],[-9.615658,54.31626],[-9.615669,54.316529],[-9.615679,54.316798],[-9.61569,54.317068],[-9.615701,54.317337],[-9.615722,54.317876],[-9.615732,54.318146],[-9.615271,54.318152],[-9.615282,54.318421],[-9.614821,54.318428],[-9.614832,54.318697],[-9.614371,54.318703],[-9.614381,54.318973],[-9.613459,54.318985],[-9.61347,54.319254],[-9.612548,54.319267],[-9.612559,54.319536],[-9.611637,54.319549],[-9.611647,54.319818],[-9.611186,54.319824],[-9.611197,54.320094],[-9.610275,54.320106],[-9.610286,54.320375],[-9.609825,54.320382],[-9.609835,54.320651],[-9.609374,54.320657],[-9.609385,54.320927],[-9.608924,54.320933],[-9.608934,54.321202],[-9.608943,54.32142],[-9.609865,54.321407],[-9.609856,54.32119],[-9.610317,54.321184],[-9.610307,54.320914],[-9.611228,54.320902],[-9.611218,54.320633],[-9.611395,54.32063],[-9.61139,54.320489],[-9.614462,54.320448],[-9.614478,54.320859],[-9.615377,54.320847],[-9.615387,54.321116],[-9.61578,54.321111],[-9.615781,54.32111],[-9.615894,54.320767],[-9.616001,54.320483],[-9.616213,54.319788],[-9.616325,54.319511],[-9.616551,54.318878],[-9.616645,54.318556],[-9.616733,54.318328],[-9.616859,54.317946],[-9.616958,54.317689],[-9.616981,54.317595],[-9.617056,54.317395],[-9.617152,54.317183],[-9.617274,54.316783],[-9.617355,54.316574],[-9.617465,54.316167],[-9.617568,54.315736],[-9.617665,54.31537],[-9.617799,54.314923]]],[[[-9.600255,54.323332],[-9.601176,54.32332],[-9.601171,54.323193],[-9.601632,54.323187],[-9.601622,54.322917],[-9.602544,54.322905],[-9.602533,54.322635],[-9.602523,54.322366],[-9.600705,54.32239],[-9.600706,54.322428],[-9.600681,54.322428],[-9.600711,54.323199],[-9.60025,54.323205],[-9.600255,54.323332]]],[[[-9.599066,54.319754],[-9.599193,54.319752],[-9.599192,54.319714],[-9.59827,54.319726],[-9.59828,54.319996],[-9.599075,54.319985],[-9.599066,54.319754]]],[[[-9.597604,54.320186],[-9.597549,54.320275],[-9.598291,54.320265],[-9.59828,54.319996],[-9.597819,54.320002],[-9.59781,54.319762],[-9.597565,54.319968],[-9.597473,54.320084],[-9.597604,54.320186]]],[[[-9.597895,54.31969],[-9.597845,54.319732],[-9.59827,54.319726],[-9.598259,54.319457],[-9.59872,54.319451],[-9.59871,54.319181],[-9.599171,54.319175],[-9.599151,54.31866],[-9.599148,54.318673],[-9.59912,54.318698],[-9.599012,54.318764],[-9.598961,54.318761],[-9.598876,54.318752],[-9.598697,54.318848],[-9.598699,54.318912],[-9.598576,54.318914],[-9.598547,54.318929],[-9.598388,54.319016],[-9.59833,54.319205],[-9.598272,54.319331],[-9.598142,54.319456],[-9.597895,54.31969]]],[[[-9.597283,54.307338],[-9.599066,54.308932],[-9.600617,54.308911],[-9.600627,54.309181],[-9.601088,54.309175],[-9.601078,54.308905],[-9.601539,54.308899],[-9.601528,54.30863],[-9.601989,54.308624],[-9.601978,54.308354],[-9.601518,54.30836],[-9.601465,54.307013],[-9.601005,54.307019],[-9.600994,54.30675],[-9.600533,54.306756],[-9.600523,54.306486],[-9.601444,54.306474],[-9.601434,54.306205],[-9.600973,54.306211],[-9.600952,54.305672],[-9.600942,54.305402],[-9.601403,54.305396],[-9.601392,54.305127],[-9.601382,54.304857],[-9.600921,54.304863],[-9.600931,54.305133],[-9.600471,54.305139],[-9.600481,54.305408],[-9.59956,54.305421],[-9.599591,54.306229],[-9.598209,54.306247],[-9.598219,54.306517],[-9.597758,54.306523],[-9.597779,54.307062],[-9.597318,54.307068],[-9.597329,54.307337],[-9.597283,54.307338]]],[[[-9.594524,54.304294],[-9.594416,54.30441],[-9.595371,54.304398],[-9.59536,54.304128],[-9.59535,54.303859],[-9.594889,54.303865],[-9.594879,54.303595],[-9.594876,54.303595],[-9.594794,54.303928],[-9.594705,54.304073],[-9.594524,54.304294]]],[[[-9.597167,54.295646],[-9.597087,54.295748],[-9.597341,54.295745],[-9.59733,54.295475],[-9.597791,54.295469],[-9.597781,54.295199],[-9.597771,54.294948],[-9.597633,54.295078],[-9.597167,54.295646]]],[[[-9.598012,54.294722],[-9.597791,54.29493],[-9.598104,54.294926],[-9.598092,54.294637],[-9.598012,54.294722]]],[[[-9.598119,54.29461],[-9.598219,54.294608],[-9.598215,54.294508],[-9.598119,54.29461]]],[[[-9.633079,54.301427],[-9.632392,54.302367],[-9.633026,54.301818],[-9.636974,54.299885],[-9.636812,54.299946],[-9.635989,54.300252],[-9.634826,54.300695],[-9.634409,54.300855],[-9.633199,54.301179],[-9.633179,54.301185],[-9.633165,54.301189],[-9.633169,54.301202],[-9.633175,54.301217],[-9.633168,54.301254],[-9.633158,54.301307],[-9.633079,54.301427]]],[[[-9.601371,54.304588],[-9.601382,54.304857],[-9.601842,54.304851],[-9.601832,54.304582],[-9.601371,54.304588]]],[[[-9.602816,54.306186],[-9.602806,54.305917],[-9.603267,54.305911],[-9.603256,54.305641],[-9.602795,54.305647],[-9.602785,54.305378],[-9.602324,54.305384],[-9.602335,54.305653],[-9.601874,54.30566],[-9.601895,54.306198],[-9.602816,54.306186]]]]}}]}
