{"type":"FeatureCollection","features":[{"type":"Feature","properties":{"source_fid":404657,"county":"Mayo","bog_geom_ha":407.62303685848036,"low15_pct":96.792744967927447,"low15_ha":394.5495264969498,"overlay_ha":394.5888692272797,"area_delta":0.039342730329906317},"geometry":{"type":"MultiPolygon","coordinates":[[[[-9.971888,53.937495],[-9.971865,53.937465],[-9.971831,53.937432],[-9.971876,53.937526],[-9.971108,53.937408],[-9.968158,53.937095],[-9.968101,53.93709],[-9.968096,53.937089],[-9.968094,53.937089],[-9.967569,53.937033],[-9.967061,53.936994],[-9.966528,53.936922],[-9.966521,53.936921],[-9.966529,53.937083],[-9.965615,53.937098],[-9.965603,53.936829],[-9.965602,53.936814],[-9.965461,53.936797],[-9.965189,53.936769],[-9.965114,53.936754],[-9.965071,53.936748],[-9.965002,53.93673],[-9.964935,53.936716],[-9.964677,53.936652],[-9.964482,53.936608],[-9.964378,53.936562],[-9.964187,53.93645],[-9.963305,53.936068],[-9.962028,53.935429],[-9.961867,53.935342],[-9.961698,53.935251],[-9.961237,53.935478],[-9.960657,53.935783],[-9.96053,53.935851],[-9.960542,53.936102],[-9.960086,53.93611],[-9.960085,53.936091],[-9.959909,53.936185],[-9.959552,53.936377],[-9.959445,53.936434],[-9.959359,53.936482],[-9.959032,53.936663],[-9.958872,53.936752],[-9.958578,53.9369],[-9.958127,53.937128],[-9.958086,53.937151],[-9.95737,53.937553],[-9.956656,53.937934],[-9.956048,53.938262],[-9.955842,53.938372],[-9.955742,53.938426],[-9.95569,53.938458],[-9.955481,53.938356],[-9.955234,53.938237],[-9.954772,53.938041],[-9.954324,53.937811],[-9.953921,53.937584],[-9.953567,53.937358],[-9.95321,53.937107],[-9.952919,53.936872],[-9.952657,53.936627],[-9.952383,53.936334],[-9.952358,53.936303],[-9.952113,53.936008],[-9.951942,53.935778],[-9.951664,53.935315],[-9.951554,53.935132],[-9.951357,53.934794],[-9.951328,53.934737],[-9.95123,53.934757],[-9.95084,53.934822],[-9.950698,53.934851],[-9.950527,53.934887],[-9.950013,53.934995],[-9.950013,53.934995],[-9.950013,53.934995],[-9.949731,53.93505],[-9.949702,53.935056],[-9.949577,53.935082],[-9.94914,53.935174],[-9.948547,53.935297],[-9.948115,53.935382],[-9.947945,53.935416],[-9.947752,53.935449],[-9.947695,53.935458],[-9.947616,53.935472],[-9.947585,53.935401],[-9.947552,53.935322],[-9.94754,53.935278],[-9.947512,53.935171],[-9.947486,53.935071],[-9.947486,53.935071],[-9.947486,53.935071],[-9.947484,53.935066],[-9.947399,53.934892],[-9.947391,53.934876],[-9.947382,53.934858],[-9.947382,53.934858],[-9.947327,53.934746],[-9.947321,53.934691],[-9.947354,53.934648],[-9.947596,53.934285],[-9.947663,53.934186],[-9.947813,53.933954],[-9.948014,53.933638],[-9.948087,53.93353],[-9.948124,53.933518],[-9.948976,53.933263],[-9.948817,53.933192],[-9.948667,53.933126],[-9.948599,53.933088],[-9.948512,53.93304],[-9.948222,53.932923],[-9.948022,53.932893],[-9.947806,53.932885],[-9.9478,53.932884],[-9.947688,53.932891],[-9.947548,53.93286],[-9.947082,53.932688],[-9.946791,53.932571],[-9.946574,53.932818],[-9.946398,53.932853],[-9.946017,53.932765],[-9.945866,53.932718],[-9.945759,53.932681],[-9.945603,53.932683],[-9.94512,53.932525],[-9.944993,53.932514],[-9.944568,53.932626],[-9.943977,53.932724],[-9.943496,53.932812],[-9.943413,53.93281],[-9.943381,53.932788],[-9.943087,53.932662],[-9.943102,53.932759],[-9.943489,53.932924],[-9.944074,53.933296],[-9.943954,53.933523],[-9.943152,53.933044],[-9.943377,53.933548],[-9.943331,53.93357],[-9.943274,53.933597],[-9.94316,53.933651],[-9.942976,53.933738],[-9.943085,53.933834],[-9.941884,53.93378],[-9.943231,53.934022],[-9.943384,53.934155],[-9.943369,53.934159],[-9.943042,53.934257],[-9.942123,53.93406],[-9.941611,53.933945],[-9.941403,53.93395],[-9.941356,53.933951],[-9.941348,53.933979],[-9.941325,53.934066],[-9.941364,53.934068],[-9.941529,53.934078],[-9.941985,53.934106],[-9.942436,53.934321],[-9.942591,53.934434],[-9.942701,53.934513],[-9.942685,53.934577],[-9.94265,53.934715],[-9.942399,53.934824],[-9.942111,53.934774],[-9.94213,53.934853],[-9.942171,53.935001],[-9.942263,53.935084],[-9.942324,53.935139],[-9.94236,53.935176],[-9.942406,53.935221],[-9.942422,53.935237],[-9.942474,53.935284],[-9.942483,53.935292],[-9.942626,53.935427],[-9.942669,53.93548],[-9.942672,53.935482],[-9.942747,53.935551],[-9.942775,53.935577],[-9.942831,53.93563],[-9.942984,53.935765],[-9.943104,53.935886],[-9.94315,53.935933],[-9.943266,53.936042],[-9.943311,53.936023],[-9.943369,53.936075],[-9.943455,53.936149],[-9.943664,53.936318],[-9.943642,53.936334],[-9.943866,53.936549],[-9.943992,53.936661],[-9.944106,53.936763],[-9.944223,53.936866],[-9.944257,53.936892],[-9.944344,53.936957],[-9.944371,53.936977],[-9.944736,53.93726],[-9.944754,53.937284],[-9.944748,53.937286],[-9.944177,53.937432],[-9.943914,53.937499],[-9.94389,53.937506],[-9.943802,53.937535],[-9.943774,53.937541],[-9.943742,53.937548],[-9.943594,53.93758],[-9.943244,53.937668],[-9.942996,53.93772],[-9.942549,53.937818],[-9.942285,53.937871],[-9.942279,53.937873],[-9.941981,53.937933],[-9.941973,53.937935],[-9.941948,53.93794],[-9.942006,53.938216],[-9.941215,53.938358],[-9.941124,53.938374],[-9.940844,53.938424],[-9.940775,53.938174],[-9.940614,53.938192],[-9.940396,53.938219],[-9.940171,53.938229],[-9.940016,53.938229],[-9.939848,53.938209],[-9.939682,53.938179],[-9.939448,53.938132],[-9.938903,53.937996],[-9.938851,53.937983],[-9.938542,53.937859],[-9.938457,53.937825],[-9.938275,53.937685],[-9.938038,53.937494],[-9.936787,53.938138],[-9.936693,53.938492],[-9.936674,53.938565],[-9.93663,53.938834],[-9.936607,53.93898],[-9.936616,53.939053],[-9.936639,53.939114],[-9.937137,53.938933],[-9.937285,53.93888],[-9.937391,53.938842],[-9.937471,53.938999],[-9.937598,53.939249],[-9.937621,53.939265],[-9.937702,53.939555],[-9.937723,53.939602],[-9.937755,53.939671],[-9.937773,53.939714],[-9.937787,53.939748],[-9.937814,53.939799],[-9.937941,53.9399],[-9.938136,53.940066],[-9.938146,53.940113],[-9.938106,53.940157],[-9.938066,53.940172],[-9.937902,53.940235],[-9.937692,53.940311],[-9.937613,53.940257],[-9.937234,53.939998],[-9.937171,53.939961],[-9.93708,53.940029],[-9.937071,53.940037],[-9.937052,53.939997],[-9.937042,53.939976],[-9.93682,53.939495],[-9.935513,53.939911],[-9.935535,53.940027],[-9.935652,53.940668],[-9.93502,53.940632],[-9.935046,53.940646],[-9.935045,53.940649],[-9.93503,53.940684],[-9.934969,53.940734],[-9.934957,53.940826],[-9.934901,53.940847],[-9.93482,53.940819],[-9.934831,53.941043],[-9.933309,53.941068],[-9.933276,53.940347],[-9.933086,53.940173],[-9.931746,53.940194],[-9.931673,53.938628],[-9.930026,53.938949],[-9.930008,53.939337],[-9.929988,53.939771],[-9.929972,53.940103],[-9.929964,53.940277],[-9.929964,53.94028],[-9.928569,53.940278],[-9.92799,53.940723],[-9.927595,53.940579],[-9.927551,53.940563],[-9.927517,53.940594],[-9.927491,53.940617],[-9.927461,53.94064],[-9.927525,53.940666],[-9.927791,53.94084],[-9.927822,53.940858],[-9.928092,53.941019],[-9.928086,53.941024],[-9.928041,53.941065],[-9.927731,53.941339],[-9.926817,53.942252],[-9.926793,53.942275],[-9.926765,53.942316],[-9.92677,53.942369],[-9.926721,53.942457],[-9.926584,53.942739],[-9.926566,53.942786],[-9.92656,53.942973],[-9.926555,53.943253],[-9.926551,53.943384],[-9.926469,53.943607],[-9.925566,53.943597],[-9.925538,53.943579],[-9.92552,53.943568],[-9.925387,53.943564],[-9.924722,53.943548],[-9.924682,53.943547],[-9.924619,53.943534],[-9.924284,53.943533],[-9.924288,53.94362],[-9.924319,53.943618],[-9.9247,53.943773],[-9.924762,53.943798],[-9.924955,53.943858],[-9.925122,53.943909],[-9.925567,53.944047],[-9.925667,53.944081],[-9.925998,53.94418],[-9.926,53.944451],[-9.92601,53.944747],[-9.926013,53.944842],[-9.926279,53.94484],[-9.926285,53.94484],[-9.926284,53.944905],[-9.926322,53.945086],[-9.926329,53.945117],[-9.926346,53.945199],[-9.926458,53.945892],[-9.92651,53.945891],[-9.926549,53.945892],[-9.926604,53.945894],[-9.927104,53.945891],[-9.927401,53.945879],[-9.92775,53.945866],[-9.928123,53.945835],[-9.9281,53.946079],[-9.928093,53.946155],[-9.928083,53.946253],[-9.928063,53.946401],[-9.928035,53.946615],[-9.928034,53.946619],[-9.928032,53.946667],[-9.928032,53.946673],[-9.928029,53.946768],[-9.928557,53.946745],[-9.929766,53.946691],[-9.92955,53.947183],[-9.929441,53.94729],[-9.929294,53.947378],[-9.929079,53.947506],[-9.929037,53.947509],[-9.92905,53.947795],[-9.92941,53.947786],[-9.92958,53.947792],[-9.931987,53.947657],[-9.93204,53.947654],[-9.932179,53.947793],[-9.932355,53.948152],[-9.929074,53.948318],[-9.929085,53.94855],[-9.929827,53.948538],[-9.932522,53.948496],[-9.932846,53.948428],[-9.932977,53.948786],[-9.930312,53.9488],[-9.930305,53.948846],[-9.930296,53.948913],[-9.930283,53.949048],[-9.930275,53.949078],[-9.930265,53.949112],[-9.930254,53.949244],[-9.930245,53.949302],[-9.930226,53.94943],[-9.930209,53.949541],[-9.930193,53.949649],[-9.930186,53.94969],[-9.930152,53.949751],[-9.929992,53.950029],[-9.930232,53.95002],[-9.930477,53.950013],[-9.930514,53.949922],[-9.931565,53.949847],[-9.931785,53.949839],[-9.931765,53.950003],[-9.93173,53.950285],[-9.931523,53.950692],[-9.932656,53.950718],[-9.932744,53.950722],[-9.933653,53.950773],[-9.933379,53.951149],[-9.933312,53.95124],[-9.933122,53.951508],[-9.933241,53.951531],[-9.933012,53.951718],[-9.932862,53.951831],[-9.932595,53.952032],[-9.932202,53.952317],[-9.931989,53.952285],[-9.931318,53.952149],[-9.931109,53.95212],[-9.930959,53.952099],[-9.930984,53.952109],[-9.931226,53.952205],[-9.931793,53.952432],[-9.932119,53.952568],[-9.93214,53.952576],[-9.93304,53.952925],[-9.93316,53.952971],[-9.933939,53.953286],[-9.934007,53.953313],[-9.934291,53.953429],[-9.934486,53.953508],[-9.934803,53.953636],[-9.93501,53.953735],[-9.935161,53.95381],[-9.935027,53.953848],[-9.934261,53.954096],[-9.933989,53.954203],[-9.933918,53.954231],[-9.933974,53.955434],[-9.933454,53.955442],[-9.933385,53.9556],[-9.933361,53.955655],[-9.933341,53.955702],[-9.933291,53.955824],[-9.933185,53.956059],[-9.932923,53.956555],[-9.932841,53.956908],[-9.932304,53.956776],[-9.931951,53.956658],[-9.931931,53.957123],[-9.932117,53.957126],[-9.931886,53.957846],[-9.931879,53.957846],[-9.932425,53.957881],[-9.932406,53.957999],[-9.932335,53.958378],[-9.931755,53.958345],[-9.930694,53.958295],[-9.930663,53.958294],[-9.930625,53.958293],[-9.930588,53.958215],[-9.930546,53.957965],[-9.930535,53.957851],[-9.930539,53.957821],[-9.930551,53.957774],[-9.930562,53.957729],[-9.930499,53.957727],[-9.930206,53.957714],[-9.929655,53.957691],[-9.929646,53.957691],[-9.929393,53.957683],[-9.928504,53.957534],[-9.927779,53.957412],[-9.927616,53.957497],[-9.92761,53.9575],[-9.927335,53.95765],[-9.927245,53.957698],[-9.927006,53.957827],[-9.926489,53.958037],[-9.926476,53.95804],[-9.926482,53.958167],[-9.927103,53.958101],[-9.927155,53.958096],[-9.927876,53.95802],[-9.927789,53.958312],[-9.927774,53.958359],[-9.927714,53.958506],[-9.927821,53.958493],[-9.927827,53.958466],[-9.927828,53.958461],[-9.928745,53.958515],[-9.928737,53.958539],[-9.928726,53.958573],[-9.928714,53.958735],[-9.928801,53.958735],[-9.928942,53.958735],[-9.929246,53.958737],[-9.929816,53.958772],[-9.929927,53.958766],[-9.930852,53.958719],[-9.930887,53.958717],[-9.93084,53.958664],[-9.930711,53.958477],[-9.930691,53.958435],[-9.93073,53.958437],[-9.932274,53.958543],[-9.932241,53.958624],[-9.932207,53.958705],[-9.932355,53.959017],[-9.932537,53.958986],[-9.932543,53.958995],[-9.932963,53.95922],[-9.931919,53.95965],[-9.93172,53.959499],[-9.931403,53.959211],[-9.931368,53.959218],[-9.931691,53.959512],[-9.93189,53.959662],[-9.93202,53.959759],[-9.932126,53.959831],[-9.932054,53.95985],[-9.93174,53.959931],[-9.931919,53.960033],[-9.932235,53.960227],[-9.932261,53.960243],[-9.932471,53.960096],[-9.932494,53.96008],[-9.932519,53.960097],[-9.932546,53.960083],[-9.932858,53.959889],[-9.933274,53.959564],[-9.933546,53.95938],[-9.933634,53.959322],[-9.933763,53.959223],[-9.933774,53.959232],[-9.933883,53.959233],[-9.934018,53.959275],[-9.93412,53.959314],[-9.93405,53.959385],[-9.93451,53.959601],[-9.9345,53.959605],[-9.934484,53.959638],[-9.934306,53.959787],[-9.934252,53.959891],[-9.93403,53.960083],[-9.933862,53.960247],[-9.933755,53.960347],[-9.933497,53.960536],[-9.933478,53.960577],[-9.933339,53.960654],[-9.933109,53.960804],[-9.93287,53.960991],[-9.932742,53.961088],[-9.93267,53.961151],[-9.932627,53.961183],[-9.932582,53.961222],[-9.932343,53.961308],[-9.93223,53.961366],[-9.932103,53.961419],[-9.932155,53.961451],[-9.932413,53.961543],[-9.932478,53.961491],[-9.932569,53.961477],[-9.932751,53.961493],[-9.932761,53.961495],[-9.932884,53.961527],[-9.933038,53.961592],[-9.933314,53.961707],[-9.933596,53.961825],[-9.93401,53.961991],[-9.934097,53.962028],[-9.934662,53.961282],[-9.936161,53.961645],[-9.93586,53.962044],[-9.93633,53.962173],[-9.936338,53.962175],[-9.93663,53.962242],[-9.936933,53.962302],[-9.93699,53.962241],[-9.937062,53.962162],[-9.93749,53.9618],[-9.937729,53.961516],[-9.937748,53.961498],[-9.937713,53.961485],[-9.937315,53.96171],[-9.937078,53.961898],[-9.936662,53.962175],[-9.936312,53.961779],[-9.936216,53.961449],[-9.936125,53.96137],[-9.935943,53.961159],[-9.935049,53.961019],[-9.934458,53.960957],[-9.934322,53.960889],[-9.934294,53.960875],[-9.934232,53.960844],[-9.933972,53.960741],[-9.933756,53.96067],[-9.933844,53.960574],[-9.934608,53.959747],[-9.935613,53.960222],[-9.935601,53.959965],[-9.935144,53.959972],[-9.935132,53.959703],[-9.935119,53.959433],[-9.935107,53.959164],[-9.935094,53.958894],[-9.935082,53.958625],[-9.935995,53.95861],[-9.935983,53.958341],[-9.93644,53.958333],[-9.936415,53.957794],[-9.937328,53.95778],[-9.937353,53.958319],[-9.938267,53.958304],[-9.93828,53.958573],[-9.940107,53.958544],[-9.94012,53.958813],[-9.941033,53.958798],[-9.941021,53.958529],[-9.941478,53.958522],[-9.941465,53.958252],[-9.941722,53.958248],[-9.941711,53.958005],[-9.941911,53.958002],[-9.941909,53.957975],[-9.94328,53.957953],[-9.943267,53.957684],[-9.946465,53.957632],[-9.946453,53.957363],[-9.947366,53.957348],[-9.947354,53.957078],[-9.947762,53.957072],[-9.947759,53.957009],[-9.947808,53.957008],[-9.947798,53.956802],[-9.948255,53.956794],[-9.948242,53.956525],[-9.94823,53.956255],[-9.948687,53.956248],[-9.948674,53.955978],[-9.949131,53.955971],[-9.949118,53.955702],[-9.949575,53.955694],[-9.949563,53.955425],[-9.950476,53.95541],[-9.950464,53.95514],[-9.951377,53.955126],[-9.951365,53.954856],[-9.951352,53.954587],[-9.951809,53.954579],[-9.951796,53.95431],[-9.95271,53.954295],[-9.952697,53.954026],[-9.953154,53.954018],[-9.953149,53.953906],[-9.953059,53.953901],[-9.952698,53.953875],[-9.952685,53.953715],[-9.952686,53.95371],[-9.952689,53.953706],[-9.952691,53.953703],[-9.952693,53.953699],[-9.952697,53.953694],[-9.952704,53.953688],[-9.952709,53.953684],[-9.952716,53.95368],[-9.952962,53.953609],[-9.952897,53.953539],[-9.953112,53.953534],[-9.953089,53.953517],[-9.953023,53.953465],[-9.953012,53.95344],[-9.953022,53.953418],[-9.953081,53.953393],[-9.953097,53.953359],[-9.953086,53.953328],[-9.952698,53.953334],[-9.952636,53.95338],[-9.952487,53.953338],[-9.952158,53.953343],[-9.9522,53.954241],[-9.950678,53.954265],[-9.950664,53.953973],[-9.950588,53.954041],[-9.950183,53.954366],[-9.949733,53.9542],[-9.949323,53.954049],[-9.94949,53.953896],[-9.94967,53.953721],[-9.949907,53.953497],[-9.950079,53.953377],[-9.947975,53.953411],[-9.947955,53.953429],[-9.947861,53.953513],[-9.947688,53.953722],[-9.946674,53.953416],[-9.946815,53.953183],[-9.947055,53.952851],[-9.947226,53.952706],[-9.947387,53.952522],[-9.947238,53.952524],[-9.947149,53.952623],[-9.947092,53.952661],[-9.946948,53.952707],[-9.946735,53.952691],[-9.9466,53.95361],[-9.946188,53.95359],[-9.94572,53.953568],[-9.945804,53.952676],[-9.945466,53.952671],[-9.945522,53.952561],[-9.944663,53.952566],[-9.942983,53.952593],[-9.942982,53.952573],[-9.94255,53.952567],[-9.942553,53.952658],[-9.942548,53.952926],[-9.94255,53.953043],[-9.942557,53.953372],[-9.94259,53.953619],[-9.942601,53.953837],[-9.942606,53.954203],[-9.942612,53.954918],[-9.941483,53.954971],[-9.941275,53.954992],[-9.940147,53.955049],[-9.940085,53.954306],[-9.939852,53.95407],[-9.939678,53.953717],[-9.939375,53.953208],[-9.939151,53.952768],[-9.939149,53.952746],[-9.939108,53.952753],[-9.93869,53.952825],[-9.938199,53.952942],[-9.938152,53.952955],[-9.938149,53.952934],[-9.938137,53.952523],[-9.938149,53.951801],[-9.939872,53.951693],[-9.940031,53.951722],[-9.940093,53.95174],[-9.940206,53.952207],[-9.940303,53.952635],[-9.940308,53.952654],[-9.940606,53.952635],[-9.941253,53.952605],[-9.94133,53.952605],[-9.941745,53.952602],[-9.941825,53.952596],[-9.941891,53.952587],[-9.941929,53.952564],[-9.94197,53.952522],[-9.941998,53.95248],[-9.942043,53.95238],[-9.942208,53.951909],[-9.942411,53.951435],[-9.940817,53.951105],[-9.94091,53.95046],[-9.940939,53.950253],[-9.940942,53.950225],[-9.940989,53.949886],[-9.942932,53.950162],[-9.942777,53.950546],[-9.942745,53.950635],[-9.943567,53.950816],[-9.944068,53.950929],[-9.944186,53.950957],[-9.94418,53.950934],[-9.944153,53.950824],[-9.944112,53.950643],[-9.9441,53.950611],[-9.944067,53.950519],[-9.944001,53.950418],[-9.943843,53.950277],[-9.943836,53.950271],[-9.943783,53.950231],[-9.943748,53.950205],[-9.943652,53.950132],[-9.94343,53.950039],[-9.943057,53.94988],[-9.942996,53.949853],[-9.943009,53.949867],[-9.943003,53.949897],[-9.942953,53.949893],[-9.942908,53.949887],[-9.942234,53.949793],[-9.941656,53.94968],[-9.941409,53.949592],[-9.941361,53.949575],[-9.94126,53.949545],[-9.941201,53.949507],[-9.94019,53.949189],[-9.940292,53.949023],[-9.940479,53.948956],[-9.940777,53.948716],[-9.940881,53.948669],[-9.941197,53.948393],[-9.94132,53.948211],[-9.94146,53.948092],[-9.941792,53.947753],[-9.94158,53.947666],[-9.941229,53.947313],[-9.940839,53.946933],[-9.940808,53.946903],[-9.94118,53.946815],[-9.941706,53.94669],[-9.941702,53.946677],[-9.941908,53.946628],[-9.942409,53.946509],[-9.94323,53.946309],[-9.943289,53.94634],[-9.943598,53.946509],[-9.943936,53.946759],[-9.944098,53.946859],[-9.94415,53.946996],[-9.944016,53.94709],[-9.944059,53.947099],[-9.944234,53.947159],[-9.94428,53.947171],[-9.944319,53.94718],[-9.944319,53.94718],[-9.944844,53.947172],[-9.944876,53.947164],[-9.944907,53.947171],[-9.945467,53.947161],[-9.94547,53.947159],[-9.945545,53.94694],[-9.945537,53.946865],[-9.94538,53.946785],[-9.945326,53.946718],[-9.945365,53.946677],[-9.945329,53.946531],[-9.945417,53.946531],[-9.945593,53.946526],[-9.945794,53.946526],[-9.945886,53.946517],[-9.946434,53.946486],[-9.947121,53.946446],[-9.951408,53.946356],[-9.95179,53.946347],[-9.952721,53.945431],[-9.95294,53.945157],[-9.953112,53.944976],[-9.953429,53.944626],[-9.953833,53.9445],[-9.953921,53.944472],[-9.953934,53.944479],[-9.954189,53.944636],[-9.954207,53.944648],[-9.954335,53.944732],[-9.954489,53.944829],[-9.954602,53.944887],[-9.954745,53.944962],[-9.954842,53.944944],[-9.954829,53.944882],[-9.954691,53.944892],[-9.954699,53.944874],[-9.954708,53.944833],[-9.954721,53.944764],[-9.954731,53.944712],[-9.954772,53.944486],[-9.954981,53.944335],[-9.955246,53.944307],[-9.955614,53.944307],[-9.956024,53.944478],[-9.956191,53.944559],[-9.956458,53.944688],[-9.956495,53.944706],[-9.956621,53.944467],[-9.956745,53.944291],[-9.956921,53.944039],[-9.957059,53.94387],[-9.957102,53.943883],[-9.957381,53.943982],[-9.95754,53.944046],[-9.957962,53.944214],[-9.958407,53.944389],[-9.958365,53.944467],[-9.958303,53.944516],[-9.957946,53.944805],[-9.957939,53.944811],[-9.957648,53.945042],[-9.957616,53.94508],[-9.95765,53.945097],[-9.957667,53.945087],[-9.957977,53.944827],[-9.958281,53.944582],[-9.958469,53.944415],[-9.959014,53.944648],[-9.959436,53.9448],[-9.959451,53.944806],[-9.959785,53.944931],[-9.959941,53.944997],[-9.959686,53.945181],[-9.959403,53.945399],[-9.95943,53.945979],[-9.959519,53.945881],[-9.959883,53.945612],[-9.959835,53.94553],[-9.959739,53.945494],[-9.960088,53.945226],[-9.960706,53.944672],[-9.960999,53.944774],[-9.962183,53.945187],[-9.961929,53.945361],[-9.961672,53.945531],[-9.961636,53.945564],[-9.961394,53.945739],[-9.961108,53.945946],[-9.961004,53.94601],[-9.961636,53.946],[-9.961737,53.945931],[-9.96179,53.945873],[-9.961877,53.945803],[-9.96195,53.945757],[-9.961996,53.945771],[-9.962136,53.945835],[-9.962332,53.945925],[-9.962381,53.945949],[-9.962457,53.945986],[-9.962477,53.945986],[-9.962478,53.945996],[-9.962552,53.946033],[-9.962725,53.946097],[-9.962492,53.946312],[-9.962498,53.946429],[-9.962638,53.946504],[-9.962881,53.946622],[-9.962958,53.946656],[-9.963109,53.94672],[-9.962996,53.946859],[-9.963055,53.946875],[-9.964041,53.946859],[-9.963999,53.945961],[-9.965521,53.945936],[-9.965563,53.946834],[-9.967086,53.946809],[-9.967109,53.947299],[-9.967191,53.947339],[-9.967411,53.94746],[-9.967573,53.947551],[-9.967647,53.947592],[-9.967828,53.947696],[-9.96865,53.947682],[-9.96867,53.948117],[-9.968673,53.948118],[-9.968768,53.948019],[-9.969009,53.948041],[-9.969031,53.948043],[-9.969106,53.948052],[-9.969207,53.948065],[-9.969472,53.948105],[-9.969607,53.948117],[-9.969993,53.948174],[-9.970024,53.948178],[-9.97008,53.947955],[-9.97017,53.947613],[-9.97013,53.946759],[-9.970486,53.946754],[-9.970586,53.946454],[-9.970778,53.945944],[-9.970888,53.945533],[-9.970939,53.945278],[-9.971061,53.944891],[-9.971302,53.944698],[-9.971343,53.944661],[-9.971285,53.94464],[-9.970798,53.944457],[-9.970459,53.944327],[-9.970592,53.944254],[-9.97081,53.94421],[-9.971209,53.944119],[-9.971388,53.94408],[-9.971373,53.944053],[-9.971366,53.944041],[-9.971378,53.943842],[-9.971432,53.94368],[-9.971551,53.943468],[-9.971678,53.94327],[-9.971725,53.943127],[-9.971804,53.942979],[-9.971756,53.942912],[-9.971772,53.942879],[-9.971843,53.942825],[-9.971878,53.942761],[-9.971927,53.942692],[-9.971931,53.942685],[-9.971985,53.942646],[-9.972035,53.94261],[-9.972147,53.942525],[-9.972223,53.942502],[-9.972275,53.942453],[-9.972308,53.942403],[-9.972313,53.942395],[-9.972356,53.94237],[-9.972342,53.942326],[-9.972356,53.942265],[-9.972371,53.942229],[-9.972392,53.942183],[-9.97244,53.942126],[-9.972444,53.94212],[-9.972456,53.942083],[-9.9725,53.942011],[-9.972611,53.941923],[-9.972691,53.941847],[-9.972803,53.94177],[-9.972807,53.941767],[-9.972902,53.941695],[-9.972942,53.941662],[-9.972949,53.941619],[-9.972944,53.941603],[-9.972941,53.941589],[-9.97293,53.94157],[-9.972908,53.941531],[-9.972874,53.941494],[-9.972872,53.941453],[-9.972864,53.941378],[-9.972858,53.941315],[-9.972847,53.941226],[-9.972808,53.941167],[-9.972758,53.941103],[-9.972735,53.941045],[-9.97271,53.940973],[-9.97271,53.940915],[-9.9727,53.940835],[-9.972709,53.940774],[-9.972729,53.940705],[-9.972752,53.940587],[-9.972769,53.940504],[-9.972769,53.940497],[-9.972771,53.940419],[-9.972782,53.940343],[-9.972778,53.940227],[-9.972775,53.940127],[-9.97277,53.939984],[-9.972745,53.939845],[-9.972737,53.939815],[-9.972695,53.939779],[-9.972614,53.939733],[-9.972559,53.939686],[-9.972507,53.939631],[-9.972419,53.939515],[-9.972404,53.939452],[-9.972385,53.939401],[-9.972359,53.939367],[-9.972325,53.939334],[-9.972292,53.939298],[-9.972255,53.939243],[-9.972255,53.939208],[-9.972254,53.939168],[-9.972221,53.939128],[-9.972199,53.939094],[-9.972205,53.93907],[-9.972227,53.939044],[-9.97223,53.938949],[-9.972221,53.938924],[-9.97221,53.938895],[-9.972177,53.938877],[-9.972135,53.938855],[-9.972076,53.938804],[-9.972056,53.938775],[-9.972012,53.938751],[-9.971953,53.93871],[-9.971882,53.938669],[-9.971768,53.938608],[-9.971743,53.938582],[-9.971729,53.938567],[-9.971726,53.938536],[-9.971695,53.938501],[-9.971663,53.93848],[-9.971615,53.93842],[-9.971596,53.938374],[-9.971569,53.938297],[-9.97155,53.938246],[-9.971558,53.938187],[-9.971514,53.93815],[-9.97148,53.938121],[-9.971448,53.938085],[-9.971429,53.93804],[-9.971431,53.937996],[-9.971466,53.937919],[-9.971527,53.937857],[-9.971643,53.937772],[-9.971803,53.937685],[-9.971847,53.937636],[-9.971871,53.937584],[-9.971876,53.937544],[-9.971888,53.937495]],[[-9.946707,53.944549],[-9.947381,53.944279],[-9.94816,53.945035],[-9.947457,53.945199],[-9.947089,53.945285],[-9.94689,53.945331],[-9.946726,53.945369],[-9.946252,53.945476],[-9.945996,53.945534],[-9.945927,53.945552],[-9.945398,53.945686],[-9.94534,53.945702],[-9.945255,53.945724],[-9.944492,53.94588],[-9.944097,53.945968],[-9.943506,53.945657],[-9.943488,53.945682],[-9.943465,53.945661],[-9.943449,53.945628],[-9.943441,53.945611],[-9.943463,53.945434],[-9.943531,53.945163],[-9.943557,53.944958],[-9.943514,53.944552],[-9.944181,53.944502],[-9.944387,53.944486],[-9.944808,53.94462],[-9.945059,53.944699],[-9.945144,53.944689],[-9.945197,53.944691],[-9.945197,53.9447],[-9.945525,53.944798],[-9.945917,53.944935],[-9.945919,53.944913],[-9.946707,53.944549]],[[-9.937462,53.95317],[-9.937553,53.953231],[-9.937983,53.953708],[-9.938348,53.954412],[-9.936756,53.954837],[-9.935928,53.953587],[-9.936016,53.953562],[-9.93682,53.953333],[-9.93684,53.953327],[-9.937326,53.953185],[-9.937442,53.953153],[-9.937462,53.95317]],[[-9.944655,53.938171],[-9.944782,53.938259],[-9.944951,53.938376],[-9.944923,53.938382],[-9.942054,53.938984],[-9.941958,53.939029],[-9.941927,53.939044],[-9.941974,53.93906],[-9.942013,53.939109],[-9.94205,53.939175],[-9.94207,53.939265],[-9.942114,53.939337],[-9.942191,53.939463],[-9.941865,53.939572],[-9.941704,53.939625],[-9.941355,53.939487],[-9.941276,53.939449],[-9.941153,53.939347],[-9.941077,53.939133],[-9.941072,53.939072],[-9.94111,53.939006],[-9.941128,53.938929],[-9.941143,53.93882],[-9.941149,53.938772],[-9.941152,53.938749],[-9.941154,53.93862],[-9.941195,53.938621],[-9.941766,53.938632],[-9.941803,53.938776],[-9.94216,53.93869],[-9.944535,53.938121],[-9.944569,53.938113],[-9.944655,53.938171]],[[-9.953006,53.940405],[-9.953353,53.940636],[-9.953394,53.940663],[-9.953418,53.940679],[-9.952895,53.940881],[-9.952181,53.941163],[-9.951561,53.941396],[-9.951417,53.941449],[-9.951235,53.941499],[-9.951053,53.941572],[-9.950695,53.941706],[-9.950335,53.94183],[-9.950033,53.941938],[-9.950023,53.941942],[-9.949823,53.942032],[-9.949802,53.942041],[-9.949592,53.941897],[-9.949416,53.941763],[-9.949441,53.941753],[-9.951387,53.941026],[-9.953006,53.940405]],[[-9.939641,53.949915],[-9.939741,53.949993],[-9.939853,53.950003],[-9.939894,53.950055],[-9.939719,53.950529],[-9.939496,53.951098],[-9.93947,53.95115],[-9.939513,53.951155],[-9.938861,53.951119],[-9.93831,53.951098],[-9.938279,53.951076],[-9.93826,53.951046],[-9.938478,53.950131],[-9.938828,53.95004],[-9.939582,53.949837],[-9.939641,53.949915]],[[-9.936612,53.940599],[-9.936567,53.940657],[-9.936596,53.940664],[-9.937452,53.940866],[-9.937027,53.94129],[-9.93626,53.941115],[-9.936231,53.941108],[-9.936208,53.9411],[-9.936122,53.941018],[-9.936023,53.940938],[-9.935839,53.940782],[-9.935774,53.94073],[-9.935676,53.94061],[-9.935667,53.940575],[-9.935723,53.940363],[-9.936076,53.940349],[-9.93647,53.940326],[-9.936653,53.940326],[-9.936779,53.940321],[-9.936827,53.940321],[-9.936793,53.940369],[-9.936612,53.940599]],[[-9.937976,53.94812],[-9.938196,53.948353],[-9.938249,53.948411],[-9.938286,53.948451],[-9.938471,53.948653],[-9.938272,53.948798],[-9.938114,53.948913],[-9.937964,53.949022],[-9.937937,53.949024],[-9.937536,53.948941],[-9.937289,53.94889],[-9.93724,53.948879],[-9.937154,53.94886],[-9.937005,53.948827],[-9.937072,53.948769],[-9.937115,53.948738],[-9.937176,53.948694],[-9.937233,53.948649],[-9.937286,53.948607],[-9.93738,53.948554],[-9.93757,53.948406],[-9.937768,53.948276],[-9.937905,53.948174],[-9.937976,53.94812]],[[-9.952724,53.944061],[-9.953008,53.944081],[-9.953078,53.944105],[-9.953145,53.94413],[-9.953176,53.944141],[-9.953477,53.944311],[-9.953323,53.944463],[-9.953151,53.944664],[-9.952976,53.944882],[-9.952866,53.944788],[-9.952669,53.944624],[-9.952545,53.944521],[-9.952536,53.944514],[-9.952268,53.944317],[-9.952176,53.944201],[-9.952232,53.944182],[-9.952724,53.944061]],[[-9.938286,53.952972],[-9.938769,53.953565],[-9.938214,53.953722],[-9.937601,53.953166],[-9.938286,53.952972]],[[-9.932711,53.96125],[-9.932889,53.961116],[-9.933087,53.960953],[-9.933169,53.960876],[-9.933582,53.961052],[-9.933793,53.961141],[-9.933252,53.961521],[-9.932711,53.96125]],[[-9.942985,53.950335],[-9.94311,53.950072],[-9.943535,53.950142],[-9.943506,53.950218],[-9.943453,53.950326],[-9.943404,53.950414],[-9.942985,53.950335]],[[-9.948239,53.953661],[-9.948459,53.953486],[-9.948767,53.953614],[-9.948532,53.9538],[-9.948239,53.953661]],[[-9.937241,53.955894],[-9.936327,53.955908],[-9.936302,53.95537],[-9.936759,53.955362],[-9.936747,53.955093],[-9.938574,53.955063],[-9.938586,53.955333],[-9.937216,53.955355],[-9.937241,53.955894]],[[-9.935871,53.955916],[-9.936327,53.955908],[-9.93634,53.956178],[-9.935883,53.956185],[-9.935871,53.955916]]],[[[-9.93705,53.960227],[-9.937048,53.960211],[-9.936984,53.960212],[-9.936986,53.960244],[-9.93705,53.960227]]],[[[-9.935985,53.960257],[-9.936073,53.960277],[-9.93607,53.960227],[-9.935637,53.960234],[-9.935695,53.960261],[-9.935865,53.960235],[-9.935985,53.960257]]]]}}]}
