{"type":"FeatureCollection","features":[{"type":"Feature","properties":{"source_fid":410536,"county":"Mayo","bog_geom_ha":127.38897649276227,"low15_pct":79.761904761904773,"low15_ha":101.60787410732229,"overlay_ha":101.08730945438214,"area_delta":-0.52056465294015197},"geometry":{"type":"MultiPolygon","coordinates":[[[[-9.530232,53.621546],[-9.52981,53.621592],[-9.529722,53.621603],[-9.529365,53.621657],[-9.528787,53.621742],[-9.528734,53.621748],[-9.528762,53.622529],[-9.531784,53.62249],[-9.531751,53.621592],[-9.530241,53.621611],[-9.530238,53.621545],[-9.530232,53.621546]]],[[[-9.543708,53.620944],[-9.543334,53.620933],[-9.543041,53.620919],[-9.542503,53.620898],[-9.542415,53.620886],[-9.542305,53.620879],[-9.542326,53.621456],[-9.537794,53.621514],[-9.537827,53.622413],[-9.531784,53.62249],[-9.531816,53.623388],[-9.53238,53.623381],[-9.53238,53.623372],[-9.533286,53.623361],[-9.533287,53.623369],[-9.534193,53.623358],[-9.534193,53.623349],[-9.535553,53.623332],[-9.535543,53.623062],[-9.537356,53.623039],[-9.537347,53.622769],[-9.540066,53.622734],[-9.540076,53.623004],[-9.539623,53.62301],[-9.539633,53.623279],[-9.53782,53.623302],[-9.53782,53.623311],[-9.53937,53.623291],[-9.539389,53.623822],[-9.539652,53.623818],[-9.539643,53.623549],[-9.541003,53.623531],[-9.540993,53.623262],[-9.541899,53.62325],[-9.54189,53.62298],[-9.54325,53.622963],[-9.54324,53.622693],[-9.543693,53.622688],[-9.543683,53.622418],[-9.54459,53.622406],[-9.54458,53.622137],[-9.545033,53.622131],[-9.545023,53.621862],[-9.54593,53.62185],[-9.54592,53.62158],[-9.547733,53.621557],[-9.547743,53.621826],[-9.547753,53.622096],[-9.546846,53.622108],[-9.546856,53.622377],[-9.54595,53.622389],[-9.54596,53.622658],[-9.545506,53.622664],[-9.545516,53.622934],[-9.544609,53.622945],[-9.544619,53.623215],[-9.543713,53.623227],[-9.543723,53.623496],[-9.542816,53.623508],[-9.542826,53.623777],[-9.541466,53.623795],[-9.541476,53.624064],[-9.540116,53.624082],[-9.540119,53.62418],[-9.540914,53.62417],[-9.540979,53.625958],[-9.541544,53.625951],[-9.541534,53.625681],[-9.542441,53.62567],[-9.542431,53.6254],[-9.542422,53.625131],[-9.543328,53.625119],[-9.543318,53.624849],[-9.543299,53.62431],[-9.543752,53.624305],[-9.543742,53.624035],[-9.544649,53.624023],[-9.544639,53.623754],[-9.545546,53.623742],[-9.545536,53.623473],[-9.547802,53.623443],[-9.547793,53.623174],[-9.549606,53.62315],[-9.549616,53.62342],[-9.549626,53.623689],[-9.549172,53.623695],[-9.549182,53.623965],[-9.549635,53.623959],[-9.549645,53.624228],[-9.550099,53.624223],[-9.550118,53.624762],[-9.550572,53.624756],[-9.550582,53.625025],[-9.549675,53.625037],[-9.549685,53.625306],[-9.549231,53.625312],[-9.549241,53.625582],[-9.548788,53.625588],[-9.548778,53.625318],[-9.547871,53.62533],[-9.547862,53.62506],[-9.547852,53.624791],[-9.545132,53.624826],[-9.545142,53.625096],[-9.544688,53.625101],[-9.544698,53.625371],[-9.544245,53.625377],[-9.544255,53.625646],[-9.543801,53.625652],[-9.543811,53.625922],[-9.543358,53.625927],[-9.543368,53.626197],[-9.542461,53.626209],[-9.542471,53.626478],[-9.542017,53.626484],[-9.542027,53.626753],[-9.54112,53.626765],[-9.541111,53.626496],[-9.541564,53.62649],[-9.541554,53.62622],[-9.540988,53.626228],[-9.541012,53.626864],[-9.542484,53.626845],[-9.54248,53.626748],[-9.542934,53.626742],[-9.542954,53.627281],[-9.542539,53.627286],[-9.542555,53.627743],[-9.544066,53.627724],[-9.544099,53.628622],[-9.54527,53.628607],[-9.54527,53.628599],[-9.545723,53.628593],[-9.545713,53.628324],[-9.546166,53.628318],[-9.546127,53.62724],[-9.54658,53.627234],[-9.546561,53.626695],[-9.547014,53.626689],[-9.547034,53.627228],[-9.547073,53.628306],[-9.54662,53.628312],[-9.54663,53.628581],[-9.54663,53.628589],[-9.547121,53.628583],[-9.54715,53.629384],[-9.547566,53.629378],[-9.54757,53.629475],[-9.547668,53.629474],[-9.547767,53.629338],[-9.547953,53.6291],[-9.54811,53.628903],[-9.5484,53.628543],[-9.548623,53.628268],[-9.548864,53.627986],[-9.549136,53.627623],[-9.549349,53.627354],[-9.549617,53.626987],[-9.549805,53.626716],[-9.549937,53.626533],[-9.550077,53.62632],[-9.550213,53.626082],[-9.550404,53.625723],[-9.550589,53.625379],[-9.550712,53.625124],[-9.550802,53.624992],[-9.550823,53.624969],[-9.550861,53.624939],[-9.55105,53.624749],[-9.551055,53.624744],[-9.551313,53.624279],[-9.551473,53.623978],[-9.551676,53.623524],[-9.551729,53.623195],[-9.551773,53.622861],[-9.551786,53.622693],[-9.551846,53.622599],[-9.551863,53.622333],[-9.551916,53.622041],[-9.551965,53.621858],[-9.55201,53.621605],[-9.552029,53.621479],[-9.551638,53.621444],[-9.551523,53.62143],[-9.551355,53.621415],[-9.551103,53.6214],[-9.550977,53.621389],[-9.550847,53.621376],[-9.550728,53.62136],[-9.55061,53.621349],[-9.550526,53.621342],[-9.550449,53.621334],[-9.550331,53.621325],[-9.55019,53.621324],[-9.550102,53.621316],[-9.549992,53.62131],[-9.549927,53.621304],[-9.549835,53.621297],[-9.549671,53.621287],[-9.549564,53.621282],[-9.549447,53.62127],[-9.549374,53.621271],[-9.549189,53.621246],[-9.54911,53.621237],[-9.549036,53.621238],[-9.548978,53.621237],[-9.548841,53.621238],[-9.54864,53.621222],[-9.548364,53.621209],[-9.548165,53.621195],[-9.548081,53.621192],[-9.547978,53.621187],[-9.547922,53.621181],[-9.547826,53.621179],[-9.547627,53.621173],[-9.547194,53.621147],[-9.547015,53.621137],[-9.546793,53.621114],[-9.546666,53.62111],[-9.54655,53.621105],[-9.546466,53.6211],[-9.546356,53.621103],[-9.546229,53.621087],[-9.546138,53.62108],[-9.545992,53.621063],[-9.545611,53.621048],[-9.545565,53.621044],[-9.545428,53.621036],[-9.545233,53.621026],[-9.545077,53.621013],[-9.54481,53.621007],[-9.544231,53.620978],[-9.544017,53.620962],[-9.543708,53.620944]],[[-9.548335,53.625594],[-9.548788,53.625588],[-9.548798,53.625857],[-9.548808,53.626127],[-9.548354,53.626133],[-9.548364,53.626402],[-9.547004,53.62642],[-9.546994,53.62615],[-9.547448,53.626144],[-9.547438,53.625875],[-9.548345,53.625863],[-9.548335,53.625594]],[[-9.55137,53.621779],[-9.55138,53.622049],[-9.551389,53.622318],[-9.550936,53.622324],[-9.550926,53.622055],[-9.550473,53.622061],[-9.550463,53.621791],[-9.550453,53.621522],[-9.550906,53.621516],[-9.550916,53.621785],[-9.55137,53.621779]]],[[[-9.488309,53.626163],[-9.48826,53.626196],[-9.488235,53.626204],[-9.488191,53.626208],[-9.488164,53.626204],[-9.488082,53.626171],[-9.488099,53.626635],[-9.487111,53.626648],[-9.487114,53.626651],[-9.487174,53.626712],[-9.487663,53.627204],[-9.487832,53.627366],[-9.487996,53.627522],[-9.488165,53.627684],[-9.488303,53.627816],[-9.488479,53.627984],[-9.488638,53.628136],[-9.488802,53.628293],[-9.488937,53.628422],[-9.489673,53.628413],[-9.489699,53.62915],[-9.48978,53.629227],[-9.489865,53.629309],[-9.491215,53.629292],[-9.491184,53.628394],[-9.492695,53.628375],[-9.492631,53.626579],[-9.48961,53.626616],[-9.489578,53.625718],[-9.4926,53.625681],[-9.492568,53.624783],[-9.49559,53.624745],[-9.495685,53.627439],[-9.497196,53.62742],[-9.497228,53.628319],[-9.498739,53.6283],[-9.498802,53.630096],[-9.49951,53.630087],[-9.499506,53.62999],[-9.50031,53.62998],[-9.500281,53.629179],[-9.501792,53.62916],[-9.501763,53.628344],[-9.500356,53.628362],[-9.500353,53.628279],[-9.500249,53.628281],[-9.500243,53.628093],[-9.499893,53.628098],[-9.499883,53.627828],[-9.498523,53.627845],[-9.498514,53.627576],[-9.498504,53.627306],[-9.498485,53.626767],[-9.498476,53.626498],[-9.498022,53.626503],[-9.498013,53.626234],[-9.498003,53.625964],[-9.49755,53.62597],[-9.49754,53.625701],[-9.497531,53.625431],[-9.497521,53.625162],[-9.497512,53.624892],[-9.497058,53.624898],[-9.497049,53.624628],[-9.496595,53.624634],[-9.496586,53.624377],[-9.496133,53.624395],[-9.496142,53.62464],[-9.495689,53.624645],[-9.49568,53.624412],[-9.495495,53.624419],[-9.495353,53.624431],[-9.495102,53.624452],[-9.494467,53.624499],[-9.494089,53.624529],[-9.493893,53.624537],[-9.493637,53.62455],[-9.493534,53.624542],[-9.493405,53.624556],[-9.493356,53.624552],[-9.493323,53.624557],[-9.493288,53.624562],[-9.493233,53.624558],[-9.493072,53.624543],[-9.492957,53.624519],[-9.492902,53.624518],[-9.492811,53.624518],[-9.492729,53.624517],[-9.492672,53.624506],[-9.492632,53.62449],[-9.492593,53.624491],[-9.49256,53.624493],[-9.492516,53.624505],[-9.492492,53.624505],[-9.492463,53.624494],[-9.492431,53.624489],[-9.492295,53.624518],[-9.492203,53.624536],[-9.492147,53.624537],[-9.492067,53.624514],[-9.49195,53.624465],[-9.491892,53.624444],[-9.491857,53.624444],[-9.491812,53.624449],[-9.491737,53.624472],[-9.491684,53.624477],[-9.491566,53.62448],[-9.491461,53.624535],[-9.491388,53.624584],[-9.491345,53.624646],[-9.491294,53.624661],[-9.491247,53.62469],[-9.49121,53.624735],[-9.491121,53.624776],[-9.490979,53.624885],[-9.490867,53.624942],[-9.490807,53.624983],[-9.490808,53.625007],[-9.490803,53.62501],[-9.490766,53.625015],[-9.490752,53.625017],[-9.490698,53.625033],[-9.4906,53.625144],[-9.490554,53.6252],[-9.490567,53.625283],[-9.490555,53.625296],[-9.490541,53.625307],[-9.490501,53.625307],[-9.490439,53.625312],[-9.490418,53.625324],[-9.490331,53.625359],[-9.490295,53.625392],[-9.490268,53.625402],[-9.490248,53.625408],[-9.490222,53.625414],[-9.490202,53.625414],[-9.490168,53.625407],[-9.49013,53.625398],[-9.490102,53.625398],[-9.490089,53.625399],[-9.490076,53.625402],[-9.490053,53.625415],[-9.49003,53.62543],[-9.490026,53.62544],[-9.490024,53.625448],[-9.490019,53.625459],[-9.490007,53.625469],[-9.489982,53.625476],[-9.489955,53.625481],[-9.489937,53.62548],[-9.489881,53.625466],[-9.489852,53.625484],[-9.489827,53.625506],[-9.489826,53.625527],[-9.489824,53.625556],[-9.489817,53.625563],[-9.489723,53.625586],[-9.489637,53.625603],[-9.489601,53.625632],[-9.489558,53.625671],[-9.489523,53.625681],[-9.489466,53.625679],[-9.489419,53.625692],[-9.489402,53.625705],[-9.489387,53.62572],[-9.489357,53.625756],[-9.489322,53.625794],[-9.489311,53.625803],[-9.489289,53.625815],[-9.4892,53.625841],[-9.48899,53.625913],[-9.488938,53.625932],[-9.48891,53.625942],[-9.488809,53.625982],[-9.488779,53.625993],[-9.488756,53.626005],[-9.488655,53.626069],[-9.488579,53.626114],[-9.488554,53.626122],[-9.488392,53.626139],[-9.488332,53.626153],[-9.488309,53.626163]]],[[[-9.495685,53.627439],[-9.494174,53.627458],[-9.494206,53.628356],[-9.495717,53.628337],[-9.495685,53.627439]]],[[[-9.495717,53.628337],[-9.495748,53.629236],[-9.497259,53.629217],[-9.497228,53.628319],[-9.495717,53.628337]]],[[[-9.52218,53.629801],[-9.521467,53.62981],[-9.521499,53.630708],[-9.524522,53.63067],[-9.524489,53.629772],[-9.52354,53.629784],[-9.523546,53.629956],[-9.523093,53.629962],[-9.523102,53.630231],[-9.521742,53.630249],[-9.521733,53.629979],[-9.522186,53.629973],[-9.52218,53.629801]]],[[[-9.504852,53.630193],[-9.504878,53.630918],[-9.503169,53.63094],[-9.503172,53.631022],[-9.502265,53.631034],[-9.502275,53.631303],[-9.500358,53.631327],[-9.500415,53.632944],[-9.500972,53.632937],[-9.500981,53.633207],[-9.502342,53.63319],[-9.502351,53.633459],[-9.506886,53.633402],[-9.506892,53.633589],[-9.512334,53.63352],[-9.512327,53.633334],[-9.511873,53.633339],[-9.511864,53.63307],[-9.510957,53.633081],[-9.510947,53.632812],[-9.510938,53.632542],[-9.511391,53.632537],[-9.511382,53.632267],[-9.511835,53.632261],[-9.511825,53.631992],[-9.512732,53.631981],[-9.512742,53.63225],[-9.513649,53.632239],[-9.51363,53.631706],[-9.512465,53.631721],[-9.512433,53.630823],[-9.515455,53.630785],[-9.515391,53.628989],[-9.512369,53.629027],[-9.51234,53.628211],[-9.51169,53.628219],[-9.5117,53.628488],[-9.510793,53.6285],[-9.510803,53.628769],[-9.509443,53.628787],[-9.509452,53.629056],[-9.509347,53.629057],[-9.509347,53.629065],[-9.508546,53.629075],[-9.508555,53.629337],[-9.507846,53.629346],[-9.507855,53.629615],[-9.508111,53.629612],[-9.508121,53.629882],[-9.507865,53.629885],[-9.507868,53.629982],[-9.506311,53.630002],[-9.506317,53.630174],[-9.504852,53.630193]]]]}}]}
