{"type":"FeatureCollection","features":[{"type":"Feature","properties":{"source_fid":411212,"county":"Mayo","bog_geom_ha":165.99349477974286,"low15_pct":64.370932754880698,"low15_ha":106.85156090214467,"overlay_ha":106.42403373943446,"area_delta":-0.42752716271020574},"geometry":{"type":"MultiPolygon","coordinates":[[[[-9.645743,53.715752],[-9.645743,53.715752],[-9.645743,53.715752],[-9.645743,53.715752]]],[[[-9.638605,53.710508],[-9.638395,53.710446],[-9.638182,53.71038],[-9.638084,53.710362],[-9.637988,53.710344],[-9.637905,53.710323],[-9.637905,53.710323],[-9.637882,53.710355],[-9.637712,53.710305],[-9.637544,53.710254],[-9.63734,53.710195],[-9.637152,53.710143],[-9.63693,53.710084],[-9.636615,53.709991],[-9.6365,53.709955],[-9.636352,53.709924],[-9.636116,53.709866],[-9.635828,53.709792],[-9.635394,53.709667],[-9.634977,53.709563],[-9.634236,53.709364],[-9.633898,53.709274],[-9.633527,53.70918],[-9.633367,53.709134],[-9.632502,53.710116],[-9.633411,53.710104],[-9.633446,53.711002],[-9.63496,53.710981],[-9.634995,53.711879],[-9.636509,53.711859],[-9.636544,53.712757],[-9.632002,53.712819],[-9.632037,53.713717],[-9.630523,53.713737],[-9.629609,53.71375],[-9.629585,53.713763],[-9.629612,53.713787],[-9.62969,53.713846],[-9.629686,53.713871],[-9.629584,53.714007],[-9.629423,53.714037],[-9.629369,53.714052],[-9.629381,53.714081],[-9.629429,53.714146],[-9.629526,53.714242],[-9.62963,53.714324],[-9.629719,53.714387],[-9.629884,53.7145],[-9.629917,53.714528],[-9.629959,53.714557],[-9.629999,53.714577],[-9.630048,53.714568],[-9.630096,53.714563],[-9.630184,53.714556],[-9.630276,53.714533],[-9.630358,53.714526],[-9.630467,53.714491],[-9.63062,53.714491],[-9.630906,53.714545],[-9.630978,53.714566],[-9.631092,53.714621],[-9.631654,53.714992],[-9.632014,53.715242],[-9.632111,53.715309],[-9.632143,53.715335],[-9.632129,53.71537],[-9.63226,53.715473],[-9.632337,53.71551],[-9.635134,53.715472],[-9.635169,53.71637],[-9.632823,53.716402],[-9.632878,53.716571],[-9.632867,53.716651],[-9.632897,53.716668],[-9.632984,53.716959],[-9.632966,53.717018],[-9.632847,53.717086],[-9.632693,53.717186],[-9.632505,53.717232],[-9.632461,53.717288],[-9.632487,53.717302],[-9.632486,53.717305],[-9.632611,53.717303],[-9.632608,53.717225],[-9.633971,53.717206],[-9.633974,53.717284],[-9.635204,53.717268],[-9.635239,53.718166],[-9.63628,53.718152],[-9.636274,53.717984],[-9.63826,53.717956],[-9.638232,53.717226],[-9.636718,53.717247],[-9.636683,53.716349],[-9.639711,53.716308],[-9.639676,53.715409],[-9.642704,53.715368],[-9.642739,53.716266],[-9.643025,53.716262],[-9.643015,53.716004],[-9.643469,53.715998],[-9.643479,53.716256],[-9.644253,53.716245],[-9.644264,53.716526],[-9.644399,53.716524],[-9.644409,53.716794],[-9.644864,53.716787],[-9.644874,53.717057],[-9.645328,53.717051],[-9.645339,53.71732],[-9.645793,53.717314],[-9.645804,53.717583],[-9.645962,53.717581],[-9.645938,53.717571],[-9.645879,53.717508],[-9.645838,53.717455],[-9.64582,53.717351],[-9.645844,53.717299],[-9.645825,53.717263],[-9.645787,53.717224],[-9.645738,53.717169],[-9.645628,53.717097],[-9.645556,53.717066],[-9.645555,53.717061],[-9.645534,53.717024],[-9.645526,53.716983],[-9.645617,53.716916],[-9.645614,53.716861],[-9.645586,53.716815],[-9.645521,53.716765],[-9.645463,53.716714],[-9.645305,53.716552],[-9.645324,53.716519],[-9.64538,53.716459],[-9.645384,53.716402],[-9.645386,53.716396],[-9.645391,53.716375],[-9.645362,53.716255],[-9.645379,53.716172],[-9.64545,53.716125],[-9.645595,53.716006],[-9.645675,53.715962],[-9.645686,53.715941],[-9.645682,53.715931],[-9.645636,53.715914],[-9.645603,53.715893],[-9.645541,53.71587],[-9.645544,53.715836],[-9.645585,53.715803],[-9.645643,53.715774],[-9.645706,53.715767],[-9.645739,53.715749],[-9.645739,53.715749],[-9.645726,53.715741],[-9.645616,53.715648],[-9.645446,53.715519],[-9.645381,53.715466],[-9.645284,53.715288],[-9.645152,53.715042],[-9.645096,53.714915],[-9.645054,53.714823],[-9.645083,53.714701],[-9.645111,53.714647],[-9.645142,53.714618],[-9.645146,53.714582],[-9.645107,53.714549],[-9.644759,53.714356],[-9.644385,53.714148],[-9.644035,53.713935],[-9.643978,53.713859],[-9.643825,53.713686],[-9.643553,53.713406],[-9.643537,53.71339],[-9.643382,53.713233],[-9.6433,53.713127],[-9.643285,53.713095],[-9.643309,53.71307],[-9.643386,53.713039],[-9.643503,53.713018],[-9.643633,53.712967],[-9.643695,53.712886],[-9.643651,53.712718],[-9.643628,53.712668],[-9.643614,53.712636],[-9.643607,53.712621],[-9.643599,53.712603],[-9.64359,53.712583],[-9.643571,53.71254],[-9.643545,53.712484],[-9.643378,53.71239],[-9.642997,53.712298],[-9.642822,53.712196],[-9.64284,53.712042],[-9.642831,53.712026],[-9.642839,53.712016],[-9.642845,53.711943],[-9.642876,53.711735],[-9.64271,53.711688],[-9.642384,53.711601],[-9.641975,53.711478],[-9.641776,53.711429],[-9.641441,53.711324],[-9.641171,53.711249],[-9.640981,53.711195],[-9.640803,53.711146],[-9.640676,53.711105],[-9.640538,53.711064],[-9.640284,53.710991],[-9.639966,53.7109],[-9.639534,53.710779],[-9.639209,53.710681],[-9.638927,53.710601],[-9.638605,53.710508]],[[-9.632071,53.714615],[-9.632037,53.713717],[-9.633551,53.713696],[-9.633585,53.714594],[-9.632071,53.714615]]],[[[-9.6462,53.717526],[-9.646115,53.717579],[-9.646477,53.717574],[-9.646379,53.717558],[-9.646351,53.717554],[-9.646253,53.717532],[-9.64621,53.717527],[-9.6462,53.717526]]],[[[-9.646727,53.717749],[-9.646719,53.717744],[-9.646723,53.71784],[-9.647012,53.717836],[-9.646997,53.717818],[-9.646727,53.717749]]],[[[-9.647215,53.718105],[-9.647187,53.718092],[-9.647188,53.718104],[-9.647198,53.718373],[-9.647209,53.718643],[-9.647219,53.718912],[-9.646765,53.718918],[-9.646755,53.718649],[-9.6463,53.718655],[-9.64629,53.718386],[-9.644472,53.718411],[-9.644462,53.718141],[-9.644008,53.718147],[-9.644004,53.718046],[-9.642809,53.718062],[-9.642844,53.71896],[-9.64133,53.718981],[-9.639816,53.719002],[-9.639781,53.718104],[-9.638552,53.718121],[-9.638556,53.718222],[-9.638271,53.718226],[-9.638337,53.719921],[-9.635896,53.719954],[-9.635903,53.720146],[-9.636812,53.720133],[-9.636822,53.720403],[-9.639548,53.720365],[-9.639559,53.720635],[-9.64183,53.720604],[-9.641841,53.720873],[-9.643204,53.720855],[-9.643214,53.721124],[-9.644123,53.721112],[-9.644134,53.721381],[-9.644588,53.721375],[-9.644599,53.721644],[-9.645053,53.721638],[-9.645063,53.721908],[-9.645518,53.721901],[-9.645528,53.722171],[-9.645539,53.72244],[-9.64463,53.722453],[-9.64462,53.722183],[-9.644165,53.72219],[-9.644155,53.72192],[-9.6437,53.721926],[-9.64369,53.721657],[-9.643236,53.721663],[-9.643225,53.721394],[-9.642771,53.7214],[-9.64276,53.72113],[-9.641851,53.721143],[-9.641862,53.721412],[-9.641408,53.721418],[-9.641397,53.721149],[-9.639125,53.72118],[-9.639136,53.72145],[-9.63959,53.721443],[-9.639601,53.721713],[-9.639611,53.721982],[-9.64052,53.72197],[-9.64053,53.722239],[-9.640985,53.722233],[-9.640995,53.722503],[-9.641006,53.722772],[-9.641016,53.723042],[-9.641027,53.723311],[-9.641037,53.723581],[-9.640583,53.723587],[-9.640572,53.723317],[-9.640118,53.723323],[-9.640107,53.723054],[-9.639653,53.72306],[-9.639643,53.722791],[-9.639188,53.722797],[-9.639178,53.722527],[-9.638269,53.72254],[-9.638259,53.72227],[-9.636895,53.722289],[-9.636906,53.722559],[-9.636916,53.722828],[-9.636927,53.723098],[-9.637381,53.723091],[-9.637392,53.723361],[-9.637402,53.72363],[-9.637413,53.7239],[-9.63605,53.723918],[-9.63606,53.724188],[-9.635606,53.724194],[-9.635616,53.724464],[-9.635162,53.72447],[-9.635172,53.724739],[-9.633809,53.724758],[-9.633798,53.724488],[-9.634253,53.724482],[-9.634242,53.724213],[-9.634697,53.724206],[-9.634686,53.723937],[-9.635141,53.723931],[-9.63513,53.723661],[-9.635585,53.723655],[-9.635574,53.723386],[-9.636029,53.723379],[-9.636018,53.72311],[-9.635564,53.723116],[-9.635553,53.722847],[-9.632373,53.72289],[-9.632362,53.722621],[-9.630999,53.722639],[-9.630989,53.72237],[-9.630534,53.722376],[-9.630524,53.722106],[-9.62995,53.722114],[-9.62993,53.722142],[-9.629925,53.722136],[-9.629942,53.722114],[-9.629161,53.722125],[-9.629171,53.722394],[-9.629182,53.722664],[-9.629192,53.722933],[-9.629646,53.722927],[-9.629657,53.723197],[-9.628748,53.723209],[-9.628759,53.723478],[-9.628304,53.723485],[-9.628315,53.723754],[-9.627981,53.723759],[-9.62806,53.723784],[-9.628457,53.723917],[-9.629082,53.724154],[-9.629499,53.724305],[-9.629728,53.724431],[-9.630048,53.724539],[-9.630618,53.724532],[-9.630607,53.724262],[-9.631062,53.724256],[-9.631041,53.723717],[-9.63195,53.723705],[-9.631971,53.724244],[-9.633334,53.724225],[-9.633344,53.724495],[-9.63289,53.724501],[-9.6329,53.72477],[-9.632446,53.724776],[-9.632456,53.725046],[-9.631093,53.725064],[-9.631114,53.725603],[-9.630862,53.725607],[-9.631055,53.726412],[-9.631144,53.726377],[-9.631135,53.726142],[-9.631124,53.725873],[-9.631579,53.725867],[-9.631589,53.726136],[-9.632009,53.72613],[-9.632016,53.726129],[-9.63243,53.726025],[-9.632996,53.725891],[-9.633698,53.725704],[-9.634396,53.725523],[-9.634677,53.725447],[-9.634882,53.725417],[-9.63524,53.725371],[-9.635613,53.72534],[-9.636013,53.725303],[-9.636393,53.725262],[-9.636946,53.725208],[-9.637718,53.72513],[-9.637729,53.725129],[-9.637723,53.7251],[-9.63768,53.725083],[-9.637596,53.725066],[-9.637507,53.725048],[-9.637426,53.725034],[-9.63735,53.725006],[-9.637303,53.724992],[-9.637288,53.725],[-9.637226,53.725027],[-9.637177,53.725048],[-9.637136,53.725047],[-9.63705,53.725039],[-9.637002,53.725047],[-9.636957,53.725069],[-9.636941,53.725078],[-9.63688,53.725078],[-9.636753,53.72509],[-9.636665,53.725111],[-9.636539,53.725152],[-9.636535,53.725148],[-9.636671,53.725103],[-9.636747,53.725084],[-9.636851,53.725074],[-9.636935,53.725071],[-9.636999,53.725041],[-9.637046,53.725033],[-9.637173,53.725042],[-9.637302,53.724985],[-9.637357,53.724999],[-9.637433,53.725028],[-9.6375,53.725039],[-9.63768,53.725076],[-9.637736,53.7251],[-9.637742,53.72513],[-9.637756,53.725172],[-9.637791,53.725164],[-9.63787,53.725163],[-9.637883,53.725181],[-9.637877,53.725207],[-9.63789,53.725222],[-9.63792,53.725232],[-9.638004,53.725235],[-9.638059,53.725242],[-9.638097,53.725244],[-9.63813,53.725279],[-9.638168,53.72528],[-9.638219,53.725264],[-9.638234,53.725263],[-9.638347,53.725297],[-9.638416,53.7253],[-9.638499,53.725298],[-9.638541,53.725301],[-9.638586,53.725322],[-9.63861,53.725336],[-9.638662,53.725375],[-9.638712,53.725391],[-9.638768,53.725395],[-9.638825,53.725388],[-9.638867,53.725372],[-9.638829,53.725323],[-9.638922,53.725203],[-9.638994,53.725171],[-9.639058,53.725132],[-9.639108,53.725084],[-9.63914,53.725072],[-9.639178,53.725079],[-9.63921,53.725092],[-9.639254,53.725102],[-9.63932,53.725094],[-9.639388,53.725099],[-9.639456,53.725119],[-9.639471,53.725137],[-9.639493,53.725133],[-9.639532,53.725125],[-9.63959,53.725124],[-9.639692,53.725141],[-9.639795,53.725135],[-9.639807,53.725135],[-9.639851,53.72513],[-9.639917,53.725141],[-9.63997,53.725163],[-9.64012,53.725178],[-9.640178,53.725197],[-9.640215,53.725223],[-9.640329,53.725239],[-9.640373,53.725244],[-9.640437,53.725259],[-9.640526,53.725283],[-9.640571,53.725277],[-9.640634,53.725291],[-9.640765,53.725293],[-9.640812,53.725318],[-9.640846,53.725313],[-9.640914,53.725283],[-9.640962,53.725293],[-9.64104,53.725334],[-9.641129,53.725427],[-9.641138,53.72545],[-9.641187,53.725477],[-9.641224,53.725477],[-9.641374,53.725474],[-9.641431,53.725479],[-9.64149,53.725511],[-9.641537,53.725531],[-9.641563,53.725534],[-9.641636,53.72552],[-9.641705,53.725495],[-9.641755,53.72551],[-9.641806,53.725534],[-9.641831,53.725564],[-9.641861,53.725557],[-9.641906,53.725533],[-9.642008,53.725504],[-9.64216,53.725468],[-9.642209,53.72544],[-9.642254,53.725437],[-9.642273,53.72545],[-9.642305,53.725451],[-9.642342,53.725432],[-9.642362,53.725389],[-9.642375,53.72537],[-9.642436,53.72534],[-9.642476,53.725311],[-9.64248,53.725292],[-9.642461,53.725279],[-9.642411,53.725265],[-9.642401,53.725209],[-9.642401,53.725174],[-9.642415,53.725128],[-9.642479,53.725068],[-9.642556,53.725011],[-9.642566,53.725005],[-9.642584,53.724959],[-9.642612,53.724908],[-9.642627,53.724878],[-9.642646,53.724859],[-9.642685,53.724843],[-9.642735,53.724832],[-9.642751,53.724802],[-9.642784,53.724763],[-9.642864,53.724729],[-9.643009,53.724725],[-9.643074,53.724699],[-9.643098,53.724698],[-9.643109,53.724679],[-9.643117,53.724624],[-9.643126,53.724614],[-9.643177,53.724599],[-9.643207,53.724591],[-9.643256,53.72457],[-9.643292,53.724563],[-9.643329,53.724561],[-9.643355,53.72455],[-9.643374,53.724531],[-9.643397,53.724522],[-9.643437,53.724517],[-9.643473,53.724472],[-9.643526,53.724452],[-9.643575,53.724436],[-9.643608,53.724413],[-9.643769,53.72436],[-9.643822,53.724335],[-9.643834,53.724332],[-9.64386,53.724325],[-9.64388,53.724325],[-9.643929,53.72431],[-9.643956,53.724305],[-9.644019,53.724288],[-9.644055,53.724269],[-9.644082,53.724265],[-9.644126,53.724269],[-9.644155,53.724283],[-9.644345,53.724252],[-9.644361,53.724252],[-9.644515,53.724217],[-9.644576,53.724219],[-9.644615,53.72424],[-9.644638,53.72427],[-9.644656,53.724275],[-9.644728,53.724269],[-9.644765,53.724259],[-9.64479,53.724247],[-9.644785,53.724219],[-9.644781,53.724196],[-9.644784,53.72419],[-9.644844,53.724146],[-9.644898,53.724092],[-9.644911,53.724065],[-9.644916,53.724033],[-9.644941,53.724014],[-9.644966,53.72401],[-9.644982,53.723992],[-9.644975,53.723971],[-9.644983,53.723917],[-9.644993,53.723879],[-9.644983,53.723867],[-9.644968,53.723857],[-9.644936,53.723842],[-9.644932,53.723833],[-9.644907,53.723819],[-9.644914,53.723791],[-9.644957,53.723762],[-9.645024,53.723762],[-9.645072,53.72377],[-9.645116,53.723765],[-9.645167,53.723751],[-9.645194,53.723708],[-9.645199,53.723702],[-9.64524,53.72366],[-9.645258,53.723632],[-9.645266,53.723621],[-9.64529,53.723617],[-9.64531,53.723633],[-9.64535,53.723635],[-9.645392,53.723634],[-9.645407,53.723621],[-9.645445,53.723613],[-9.645502,53.723588],[-9.645503,53.723583],[-9.645522,53.723559],[-9.645565,53.723522],[-9.64562,53.723454],[-9.645637,53.723434],[-9.645685,53.723401],[-9.64574,53.723381],[-9.645794,53.723368],[-9.64584,53.723341],[-9.645903,53.72332],[-9.64597,53.723304],[-9.646042,53.723279],[-9.646072,53.723269],[-9.646111,53.723245],[-9.646131,53.723226],[-9.64613,53.723224],[-9.646124,53.723213],[-9.646094,53.723205],[-9.646053,53.723186],[-9.646039,53.723183],[-9.646011,53.723178],[-9.645975,53.723156],[-9.645946,53.723136],[-9.645949,53.723107],[-9.645954,53.723096],[-9.646025,53.72306],[-9.646034,53.723055],[-9.646069,53.723036],[-9.646121,53.723035],[-9.646137,53.723032],[-9.646143,53.72303],[-9.6462,53.723009],[-9.646233,53.722987],[-9.64626,53.722916],[-9.646251,53.722858],[-9.646249,53.722797],[-9.646264,53.722762],[-9.646269,53.722732],[-9.646248,53.722679],[-9.646259,53.722638],[-9.646285,53.722597],[-9.646286,53.722568],[-9.646273,53.722552],[-9.646171,53.722518],[-9.646143,53.722488],[-9.646142,53.722405],[-9.646171,53.722373],[-9.646177,53.722367],[-9.646211,53.722332],[-9.646258,53.722199],[-9.646291,53.722174],[-9.646336,53.722169],[-9.646386,53.722171],[-9.646429,53.722197],[-9.646449,53.722204],[-9.646527,53.722204],[-9.646678,53.722211],[-9.64671,53.722221],[-9.646726,53.72222],[-9.646755,53.72219],[-9.646787,53.722185],[-9.646812,53.722173],[-9.646802,53.722121],[-9.646817,53.722089],[-9.646865,53.722036],[-9.646888,53.722024],[-9.646925,53.722015],[-9.646972,53.72199],[-9.647049,53.721963],[-9.647201,53.721892],[-9.64727,53.721851],[-9.647297,53.721832],[-9.647318,53.721811],[-9.647361,53.721794],[-9.647381,53.721755],[-9.647402,53.721719],[-9.647401,53.721698],[-9.647401,53.721689],[-9.647401,53.72164],[-9.647408,53.721624],[-9.647503,53.721561],[-9.647544,53.721548],[-9.647593,53.721525],[-9.647618,53.721501],[-9.647617,53.721477],[-9.647604,53.721453],[-9.64758,53.721432],[-9.647549,53.721419],[-9.647539,53.721399],[-9.647567,53.721372],[-9.647624,53.721348],[-9.647777,53.721346],[-9.647861,53.721333],[-9.647888,53.721319],[-9.647897,53.721297],[-9.647877,53.721251],[-9.647896,53.721218],[-9.647941,53.721195],[-9.648047,53.721172],[-9.648138,53.721157],[-9.648267,53.721096],[-9.648389,53.721054],[-9.648429,53.721047],[-9.648518,53.721049],[-9.6486,53.721056],[-9.648646,53.721056],[-9.648685,53.721031],[-9.648747,53.721028],[-9.648756,53.721013],[-9.64876,53.721006],[-9.64877,53.720979],[-9.648814,53.72093],[-9.648891,53.720866],[-9.649074,53.720846],[-9.649105,53.720826],[-9.649119,53.720766],[-9.649176,53.720767],[-9.649216,53.720761],[-9.649265,53.720748],[-9.649281,53.720746],[-9.649395,53.720767],[-9.649473,53.720772],[-9.649514,53.720756],[-9.649531,53.720729],[-9.649519,53.72071],[-9.64945,53.720681],[-9.649404,53.720642],[-9.649373,53.72061],[-9.649359,53.720562],[-9.649385,53.720513],[-9.649417,53.720468],[-9.649511,53.72041],[-9.649517,53.720405],[-9.649511,53.720362],[-9.649504,53.720344],[-9.649502,53.720336],[-9.649483,53.7203],[-9.649482,53.720193],[-9.649455,53.720153],[-9.64941,53.72012],[-9.649319,53.720082],[-9.64924,53.720045],[-9.649173,53.720032],[-9.649105,53.720006],[-9.649081,53.719948],[-9.649052,53.719922],[-9.649011,53.719858],[-9.648985,53.719795],[-9.648941,53.719751],[-9.648884,53.719709],[-9.648827,53.719681],[-9.648821,53.719678],[-9.648777,53.719657],[-9.648701,53.719635],[-9.648591,53.71961],[-9.648495,53.719582],[-9.648488,53.71956],[-9.648515,53.719523],[-9.648521,53.71949],[-9.648476,53.719467],[-9.648326,53.719361],[-9.648265,53.719306],[-9.648233,53.719261],[-9.648239,53.719224],[-9.648271,53.719197],[-9.648276,53.719079],[-9.648291,53.719035],[-9.648304,53.719021],[-9.648348,53.718956],[-9.648364,53.718944],[-9.648478,53.718852],[-9.648491,53.718826],[-9.648465,53.718784],[-9.648402,53.718763],[-9.648189,53.71877],[-9.648106,53.718763],[-9.647964,53.718719],[-9.647892,53.718693],[-9.647723,53.718661],[-9.647561,53.718605],[-9.647462,53.718556],[-9.64747,53.7185],[-9.647498,53.718461],[-9.647448,53.718426],[-9.647379,53.718413],[-9.647288,53.71838],[-9.647282,53.718363],[-9.64728,53.718358],[-9.647264,53.718322],[-9.647262,53.718211],[-9.647255,53.718149],[-9.647215,53.718105]],[[-9.641048,53.72385],[-9.641037,53.723581],[-9.641492,53.723574],[-9.641502,53.723844],[-9.641048,53.72385]],[[-9.637434,53.724439],[-9.636979,53.724445],[-9.636969,53.724175],[-9.637423,53.724169],[-9.637434,53.724439]],[[-9.636525,53.724451],[-9.636979,53.724445],[-9.63699,53.724714],[-9.636535,53.724721],[-9.636525,53.724451]],[[-9.636081,53.724727],[-9.636535,53.724721],[-9.636546,53.72499],[-9.636091,53.724996],[-9.636081,53.724727]],[[-9.641544,53.724922],[-9.640635,53.724934],[-9.640604,53.724126],[-9.641513,53.724113],[-9.641544,53.724922]]],[[[-9.627365,53.723552],[-9.627398,53.723563],[-9.627395,53.723497],[-9.627385,53.723228],[-9.626577,53.723238],[-9.626831,53.723329],[-9.627365,53.723552]]],[[[-9.62568,53.72293],[-9.625829,53.722979],[-9.626011,53.722977],[-9.626001,53.722707],[-9.625547,53.722713],[-9.625536,53.722444],[-9.625082,53.72245],[-9.625072,53.72218],[-9.624163,53.722193],[-9.624152,53.721923],[-9.623698,53.721929],[-9.623688,53.72166],[-9.623233,53.721666],[-9.623223,53.721397],[-9.622648,53.721404],[-9.623017,53.72158],[-9.623421,53.72178],[-9.623587,53.721867],[-9.623904,53.722053],[-9.624219,53.722227],[-9.624539,53.72238],[-9.624918,53.722552],[-9.625307,53.722742],[-9.625506,53.722853],[-9.62568,53.72293]]],[[[-9.62224,53.721196],[-9.622307,53.721231],[-9.622304,53.721139],[-9.622145,53.721142],[-9.62224,53.721196]]],[[[-9.620288,53.720263],[-9.620454,53.720326],[-9.620445,53.720086],[-9.620439,53.719941],[-9.620353,53.720118],[-9.620288,53.720263]]],[[[-9.62122,53.718356],[-9.621165,53.718459],[-9.621292,53.718457],[-9.621288,53.718355],[-9.62122,53.718356]]],[[[-9.627703,53.719167],[-9.627683,53.719167],[-9.627683,53.719179],[-9.629102,53.71916],[-9.629117,53.719148],[-9.627703,53.719167]]],[[[-9.629125,53.71915],[-9.629113,53.71916],[-9.629955,53.719148],[-9.629965,53.719418],[-9.631783,53.719393],[-9.631772,53.719123],[-9.631318,53.71913],[-9.631307,53.71886],[-9.630853,53.718866],[-9.630843,53.718597],[-9.630711,53.718599],[-9.630731,53.719126],[-9.629125,53.719148],[-9.629125,53.71915]]],[[[-9.63221,53.718207],[-9.632191,53.718207],[-9.632195,53.718309],[-9.632206,53.718578],[-9.632216,53.718848],[-9.632227,53.719117],[-9.632237,53.719387],[-9.632256,53.719387],[-9.632245,53.719105],[-9.63221,53.718207]]],[[[-9.642739,53.716266],[-9.639711,53.716308],[-9.639746,53.717206],[-9.640788,53.717191],[-9.640785,53.717113],[-9.639877,53.717125],[-9.639866,53.716856],[-9.642138,53.716825],[-9.642148,53.717094],[-9.642771,53.717086],[-9.642739,53.716266]]],[[[-9.646161,53.722487],[-9.646182,53.722509],[-9.64625,53.72253],[-9.646287,53.722542],[-9.646293,53.72255],[-9.646293,53.72255],[-9.646722,53.72223],[-9.646688,53.722223],[-9.646579,53.72222],[-9.646517,53.722214],[-9.646449,53.722215],[-9.646421,53.722205],[-9.646376,53.722183],[-9.646332,53.722178],[-9.646298,53.722184],[-9.646275,53.722204],[-9.646264,53.72223],[-9.646225,53.722338],[-9.646162,53.722403],[-9.646161,53.722487]]],[[[-9.634563,53.709419],[-9.634852,53.709498],[-9.634563,53.709419],[-9.634132,53.709306],[-9.634563,53.709419]]],[[[-9.636895,53.710053],[-9.636692,53.709995],[-9.63642,53.709929],[-9.636692,53.709995],[-9.636895,53.710053]]],[[[-9.629441,53.713752],[-9.629421,53.713754],[-9.62942,53.713752],[-9.627929,53.713773],[-9.627929,53.713783],[-9.628384,53.713777],[-9.628394,53.714047],[-9.628848,53.71404],[-9.628859,53.71431],[-9.629313,53.714304],[-9.629334,53.714843],[-9.629051,53.714847],[-9.629082,53.715655],[-9.629819,53.715645],[-9.62983,53.715914],[-9.630284,53.715908],[-9.630305,53.716436],[-9.630627,53.716432],[-9.630627,53.716443],[-9.630759,53.716441],[-9.63077,53.716711],[-9.631224,53.716704],[-9.631234,53.716974],[-9.631689,53.716968],[-9.631692,53.717044],[-9.631772,53.71705],[-9.631865,53.71701],[-9.632009,53.717025],[-9.632147,53.716954],[-9.632302,53.716909],[-9.632322,53.716883],[-9.632335,53.716806],[-9.632408,53.716713],[-9.632425,53.716661],[-9.63246,53.71654],[-9.632487,53.716482],[-9.632453,53.716407],[-9.632141,53.716411],[-9.632106,53.715513],[-9.632325,53.71551],[-9.632256,53.715478],[-9.63212,53.715372],[-9.632134,53.715339],[-9.632107,53.715313],[-9.631814,53.715111],[-9.63173,53.715055],[-9.63166,53.715007],[-9.631521,53.714914],[-9.631307,53.714771],[-9.631086,53.714625],[-9.630966,53.714568],[-9.630922,53.714555],[-9.630616,53.714496],[-9.630532,53.714495],[-9.630474,53.714496],[-9.630362,53.714532],[-9.630281,53.71454],[-9.630184,53.714563],[-9.630107,53.714566],[-9.630081,53.71457],[-9.630034,53.714576],[-9.629994,53.714585],[-9.629961,53.714566],[-9.629889,53.714513],[-9.629666,53.714358],[-9.629656,53.714351],[-9.629517,53.714245],[-9.629421,53.714148],[-9.629368,53.71408],[-9.629359,53.714049],[-9.629424,53.714031],[-9.629577,53.714001],[-9.629677,53.713867],[-9.62968,53.713848],[-9.629598,53.713786],[-9.629575,53.713762],[-9.629597,53.71375],[-9.629441,53.713752]]],[[[-9.631772,53.717055],[-9.631692,53.717049],[-9.631699,53.717237],[-9.632154,53.717231],[-9.632157,53.717309],[-9.632176,53.717309],[-9.632477,53.717305],[-9.632477,53.717304],[-9.632451,53.717289],[-9.632475,53.717256],[-9.632503,53.717227],[-9.632684,53.717184],[-9.632866,53.717066],[-9.63296,53.717015],[-9.632976,53.716959],[-9.632891,53.716671],[-9.632858,53.716652],[-9.632864,53.716617],[-9.632869,53.716572],[-9.632813,53.716402],[-9.632459,53.716407],[-9.632496,53.716481],[-9.632466,53.716543],[-9.632418,53.716717],[-9.632344,53.716809],[-9.632329,53.716885],[-9.632308,53.716913],[-9.632149,53.716959],[-9.632009,53.71703],[-9.631866,53.717015],[-9.631772,53.717055]]]]}}]}
