{"type":"FeatureCollection","features":[{"type":"Feature","properties":{"source_fid":413718,"county":"Mayo","bog_geom_ha":341.01654695605129,"low15_pct":46.383315733896509,"low15_ha":158.17478167945671,"overlay_ha":159.18458845209324,"area_delta":1.009806772636523},"geometry":{"type":"MultiPolygon","coordinates":[[[[-9.967925,53.918366],[-9.967177,53.918398],[-9.967021,53.918404],[-9.967024,53.91847],[-9.966567,53.918478],[-9.96658,53.918747],[-9.969775,53.918695],[-9.969762,53.918425],[-9.969306,53.918433],[-9.969301,53.918337],[-9.969268,53.918337],[-9.968581,53.918344],[-9.967925,53.918366]]],[[[-9.970218,53.918326],[-9.969758,53.918331],[-9.969762,53.918425],[-9.974226,53.918352],[-9.974394,53.918168],[-9.973675,53.918191],[-9.97315,53.918223],[-9.972176,53.918247],[-9.971963,53.918239],[-9.971729,53.918254],[-9.971414,53.918275],[-9.971046,53.918289],[-9.970218,53.918326]]],[[[-9.971498,53.921315],[-9.972213,53.920542],[-9.970777,53.920566],[-9.970764,53.920296],[-9.969395,53.920319],[-9.969407,53.920588],[-9.968951,53.920596],[-9.968964,53.920865],[-9.96942,53.920858],[-9.969433,53.921127],[-9.969889,53.92112],[-9.969902,53.921389],[-9.969445,53.921397],[-9.969458,53.921666],[-9.969002,53.921674],[-9.968989,53.921404],[-9.968533,53.921412],[-9.96852,53.921142],[-9.968063,53.92115],[-9.968051,53.92088],[-9.967594,53.920888],[-9.967582,53.920618],[-9.967569,53.920349],[-9.967113,53.920356],[-9.9671,53.920087],[-9.966187,53.920102],[-9.9662,53.920371],[-9.965743,53.920379],[-9.965756,53.920648],[-9.965781,53.921187],[-9.966238,53.92118],[-9.96625,53.921449],[-9.966263,53.921718],[-9.96535,53.921733],[-9.965337,53.921464],[-9.964881,53.921471],[-9.964868,53.921202],[-9.964843,53.920663],[-9.964387,53.920671],[-9.964374,53.920401],[-9.963005,53.920424],[-9.963017,53.920693],[-9.962104,53.920708],[-9.962117,53.920977],[-9.961204,53.920992],[-9.961192,53.920723],[-9.960735,53.92073],[-9.960723,53.920461],[-9.960266,53.920468],[-9.960253,53.920199],[-9.959797,53.920206],[-9.959784,53.919937],[-9.959328,53.919944],[-9.959315,53.919675],[-9.958859,53.919682],[-9.958846,53.919413],[-9.958834,53.919144],[-9.958395,53.919151],[-9.958302,53.91934],[-9.958191,53.919452],[-9.957842,53.919348],[-9.957399,53.919195],[-9.957141,53.919116],[-9.95665,53.919124],[-9.956671,53.919558],[-9.956746,53.919584],[-9.95668,53.919704],[-9.956678,53.919711],[-9.956692,53.920022],[-9.955305,53.920045],[-9.955373,53.920238],[-9.955194,53.920214],[-9.955179,53.92021],[-9.955209,53.920859],[-9.955365,53.920963],[-9.954809,53.921533],[-9.954559,53.921802],[-9.954512,53.921775],[-9.954312,53.921594],[-9.954949,53.920949],[-9.953692,53.920969],[-9.953734,53.921867],[-9.956776,53.921818],[-9.956818,53.922716],[-9.95834,53.922691],[-9.958382,53.923589],[-9.959903,53.923564],[-9.959861,53.922666],[-9.961382,53.922641],[-9.961424,53.923539],[-9.962945,53.923514],[-9.962987,53.924412],[-9.961466,53.924437],[-9.961481,53.924763],[-9.961838,53.924757],[-9.96185,53.925026],[-9.962307,53.925019],[-9.962319,53.925288],[-9.962776,53.925281],[-9.962777,53.925314],[-9.96303,53.92531],[-9.963053,53.925815],[-9.963258,53.925812],[-9.96327,53.926081],[-9.963727,53.926074],[-9.963739,53.926343],[-9.964196,53.926336],[-9.964209,53.926605],[-9.964665,53.926598],[-9.96469,53.927137],[-9.964703,53.927406],[-9.96516,53.927399],[-9.965172,53.927668],[-9.965185,53.927938],[-9.965641,53.92793],[-9.965643,53.927963],[-9.966199,53.927954],[-9.966241,53.928853],[-9.967195,53.928331],[-9.968143,53.927829],[-9.969211,53.927794],[-9.973709,53.927564],[-9.974303,53.927534],[-9.97429,53.927249],[-9.974277,53.92698],[-9.974733,53.926972],[-9.974721,53.926703],[-9.975177,53.926695],[-9.975164,53.926426],[-9.975621,53.926418],[-9.975608,53.926149],[-9.975883,53.926144],[-9.97598,53.925873],[-9.975595,53.925879],[-9.975583,53.92561],[-9.97557,53.92534],[-9.976026,53.925333],[-9.976001,53.924794],[-9.976391,53.924788],[-9.97645,53.924635],[-9.976445,53.924517],[-9.976497,53.924516],[-9.976778,53.92379],[-9.977017,53.923132],[-9.976184,53.923354],[-9.975179,53.923683],[-9.974502,53.923891],[-9.974379,53.923777],[-9.974282,53.923605],[-9.974254,53.92342],[-9.973915,53.923502],[-9.973773,53.923562],[-9.973659,53.923616],[-9.973524,53.923643],[-9.973286,53.923744],[-9.972916,53.92391],[-9.972683,53.923925],[-9.972003,53.924046],[-9.971412,53.924188],[-9.971018,53.924266],[-9.970782,53.9243],[-9.970322,53.924396],[-9.970105,53.924455],[-9.969886,53.924456],[-9.969708,53.924453],[-9.969647,53.924457],[-9.969472,53.924507],[-9.969305,53.924512],[-9.969137,53.924517],[-9.969021,53.924547],[-9.968926,53.924595],[-9.968844,53.924646],[-9.96866,53.924616],[-9.96859,53.924606],[-9.968469,53.924625],[-9.969212,53.92383],[-9.971498,53.921315]]],[[[-9.986991,53.915659],[-9.986988,53.91566],[-9.987003,53.915984],[-9.987916,53.915969],[-9.987929,53.916239],[-9.987954,53.916777],[-9.988411,53.91677],[-9.988398,53.9165],[-9.988854,53.916493],[-9.988867,53.916762],[-9.988893,53.917301],[-9.989349,53.917294],[-9.989362,53.917563],[-9.989375,53.917832],[-9.989831,53.917825],[-9.989844,53.918094],[-9.989857,53.918364],[-9.98987,53.918633],[-9.989882,53.918903],[-9.989895,53.919172],[-9.989908,53.919441],[-9.989921,53.919711],[-9.989464,53.919718],[-9.98949,53.920257],[-9.989503,53.920527],[-9.989516,53.920796],[-9.989972,53.920788],[-9.989998,53.921327],[-9.990011,53.921597],[-9.989554,53.921604],[-9.989567,53.921874],[-9.990023,53.921866],[-9.990036,53.922136],[-9.990493,53.922128],[-9.990505,53.922397],[-9.990544,53.923206],[-9.990087,53.923213],[-9.990113,53.923752],[-9.990126,53.924022],[-9.989669,53.924029],[-9.989695,53.924568],[-9.989708,53.924837],[-9.989721,53.925107],[-9.989734,53.925376],[-9.989746,53.925646],[-9.990203,53.925638],[-9.99019,53.925369],[-9.991103,53.925353],[-9.99109,53.925084],[-9.991547,53.925076],[-9.991534,53.924807],[-9.991661,53.924805],[-9.991608,53.924675],[-9.991491,53.923727],[-9.991355,53.923046],[-9.991164,53.921662],[-9.991081,53.921195],[-9.991013,53.920702],[-9.991,53.920536],[-9.990965,53.92028],[-9.99089,53.919974],[-9.990892,53.919486],[-9.991,53.9187],[-9.991146,53.917645],[-9.991165,53.91726],[-9.991161,53.917119],[-9.991171,53.916626],[-9.990713,53.916166],[-9.990397,53.915931],[-9.990118,53.91572],[-9.990032,53.915694],[-9.989431,53.915649],[-9.989205,53.915646],[-9.988533,53.915609],[-9.988001,53.915556],[-9.987808,53.915554],[-9.987407,53.91554],[-9.986991,53.915659]]],[[[-9.994444,53.927219],[-9.994387,53.92717],[-9.994388,53.927186],[-9.993932,53.927194],[-9.993945,53.927463],[-9.993488,53.927471],[-9.993501,53.92774],[-9.993044,53.927748],[-9.993057,53.928017],[-9.992601,53.928025],[-9.992614,53.928294],[-9.992157,53.928302],[-9.99217,53.928571],[-9.991713,53.928579],[-9.991739,53.929118],[-9.991283,53.929125],[-9.991295,53.929395],[-9.990839,53.929402],[-9.990852,53.929672],[-9.990395,53.929679],[-9.990408,53.929949],[-9.989951,53.929956],[-9.989964,53.930226],[-9.989508,53.930233],[-9.989495,53.929964],[-9.989038,53.929971],[-9.989026,53.929702],[-9.986743,53.92974],[-9.986756,53.930009],[-9.986299,53.930017],[-9.986312,53.930286],[-9.985856,53.930294],[-9.985868,53.930563],[-9.985412,53.930571],[-9.985425,53.93084],[-9.984512,53.930855],[-9.984499,53.930586],[-9.984042,53.930593],[-9.984055,53.930863],[-9.984068,53.931132],[-9.983611,53.93114],[-9.983624,53.931409],[-9.983637,53.931679],[-9.986376,53.931633],[-9.986363,53.931364],[-9.98635,53.931094],[-9.98772,53.931072],[-9.987733,53.931341],[-9.989103,53.931319],[-9.989115,53.931588],[-9.989128,53.931857],[-9.989141,53.932127],[-9.989335,53.932124],[-9.989459,53.931714],[-9.989515,53.931521],[-9.989636,53.931347],[-9.98975,53.931],[-9.989911,53.930825],[-9.990346,53.930517],[-9.99072,53.930141],[-9.991005,53.929951],[-9.991306,53.929692],[-9.991665,53.92942],[-9.992401,53.928818],[-9.993042,53.92831],[-9.994444,53.927219]]],[[[-9.990833,53.938426],[-9.99081,53.938384],[-9.990819,53.93857],[-9.990362,53.938578],[-9.990375,53.938847],[-9.989918,53.938855],[-9.989931,53.939124],[-9.989474,53.939132],[-9.989485,53.939364],[-9.989844,53.939182],[-9.99052,53.938834],[-9.990766,53.938756],[-9.990973,53.938701],[-9.990893,53.938541],[-9.990833,53.938426]]],[[[-9.989381,53.939417],[-9.98941,53.939402],[-9.987204,53.939439],[-9.987191,53.939169],[-9.986735,53.939177],[-9.986747,53.939446],[-9.985834,53.939462],[-9.985847,53.939731],[-9.98539,53.939739],[-9.985403,53.940008],[-9.984946,53.940015],[-9.984959,53.940285],[-9.984503,53.940292],[-9.984515,53.940562],[-9.984059,53.940569],[-9.984071,53.940839],[-9.983615,53.940846],[-9.983628,53.941116],[-9.983171,53.941123],[-9.983184,53.941393],[-9.982727,53.9414],[-9.98274,53.94167],[-9.982753,53.941939],[-9.982765,53.942209],[-9.983222,53.942201],[-9.983235,53.94247],[-9.981408,53.942501],[-9.981395,53.942231],[-9.980025,53.942254],[-9.980013,53.941984],[-9.979556,53.941992],[-9.979543,53.941722],[-9.979087,53.94173],[-9.979074,53.941461],[-9.978617,53.941468],[-9.978604,53.941199],[-9.978592,53.940929],[-9.978579,53.94066],[-9.978566,53.94039],[-9.978553,53.940121],[-9.978541,53.939852],[-9.978084,53.939859],[-9.978071,53.93959],[-9.978059,53.93932],[-9.977145,53.939335],[-9.977158,53.939605],[-9.977171,53.939874],[-9.976258,53.939889],[-9.97627,53.940159],[-9.975814,53.940166],[-9.975826,53.940436],[-9.97537,53.940443],[-9.975357,53.940174],[-9.975344,53.939904],[-9.975801,53.939897],[-9.975788,53.939627],[-9.976245,53.93962],[-9.976232,53.93935],[-9.976689,53.939343],[-9.976676,53.939073],[-9.976663,53.938804],[-9.97712,53.938796],[-9.977043,53.93718],[-9.976587,53.937187],[-9.976574,53.936918],[-9.976117,53.936926],[-9.97613,53.937195],[-9.975674,53.937202],[-9.975724,53.93828],[-9.976181,53.938273],[-9.976168,53.938003],[-9.976625,53.937996],[-9.976638,53.938265],[-9.97665,53.938535],[-9.976194,53.938542],[-9.976207,53.938811],[-9.974837,53.938834],[-9.974824,53.938565],[-9.974367,53.938572],[-9.974355,53.938303],[-9.974811,53.938295],[-9.97476,53.937218],[-9.974748,53.936948],[-9.974735,53.936679],[-9.974722,53.936409],[-9.975179,53.936402],[-9.975191,53.936671],[-9.976105,53.936656],[-9.976092,53.936387],[-9.976079,53.936117],[-9.976054,53.935578],[-9.976028,53.93504],[-9.975572,53.935047],[-9.975559,53.934778],[-9.975102,53.934785],[-9.97509,53.934516],[-9.974627,53.934523],[-9.97323,53.935814],[-9.971729,53.937174],[-9.971739,53.937291],[-9.971783,53.937367],[-9.971827,53.937423],[-9.971831,53.937432],[-9.971865,53.937465],[-9.971888,53.937495],[-9.971876,53.937544],[-9.971871,53.937584],[-9.971847,53.937636],[-9.971803,53.937685],[-9.971643,53.937772],[-9.971527,53.937857],[-9.971466,53.937919],[-9.971431,53.937996],[-9.971429,53.93804],[-9.971448,53.938085],[-9.97148,53.938121],[-9.971514,53.93815],[-9.971558,53.938187],[-9.97155,53.938246],[-9.971569,53.938297],[-9.971596,53.938374],[-9.971615,53.93842],[-9.971663,53.93848],[-9.971695,53.938501],[-9.971726,53.938536],[-9.971729,53.938567],[-9.971743,53.938582],[-9.971768,53.938608],[-9.971882,53.938669],[-9.971953,53.93871],[-9.972012,53.938751],[-9.972056,53.938775],[-9.972076,53.938804],[-9.972135,53.938855],[-9.972177,53.938877],[-9.97221,53.938895],[-9.972221,53.938924],[-9.97223,53.938949],[-9.972227,53.939044],[-9.972205,53.93907],[-9.972199,53.939094],[-9.972221,53.939128],[-9.972254,53.939168],[-9.972255,53.939208],[-9.972255,53.939243],[-9.972292,53.939298],[-9.972325,53.939334],[-9.972359,53.939367],[-9.972385,53.939401],[-9.972404,53.939452],[-9.972419,53.939515],[-9.972507,53.939631],[-9.972559,53.939686],[-9.972614,53.939733],[-9.972695,53.939779],[-9.972737,53.939815],[-9.972745,53.939845],[-9.97277,53.939984],[-9.972775,53.940127],[-9.972778,53.940227],[-9.972782,53.940343],[-9.972771,53.940419],[-9.972769,53.940497],[-9.972769,53.940504],[-9.972752,53.940587],[-9.972729,53.940705],[-9.972709,53.940774],[-9.9727,53.940835],[-9.97271,53.940915],[-9.97271,53.940973],[-9.972735,53.941045],[-9.972758,53.941103],[-9.972808,53.941167],[-9.972847,53.941226],[-9.972858,53.941315],[-9.972864,53.941378],[-9.972872,53.941453],[-9.972874,53.941494],[-9.972908,53.941531],[-9.97293,53.94157],[-9.972941,53.941589],[-9.972944,53.941603],[-9.972949,53.941619],[-9.972942,53.941662],[-9.972902,53.941695],[-9.972807,53.941767],[-9.972803,53.94177],[-9.972691,53.941847],[-9.972611,53.941923],[-9.9725,53.942011],[-9.972456,53.942083],[-9.972444,53.94212],[-9.97244,53.942126],[-9.972392,53.942183],[-9.972371,53.942229],[-9.972356,53.942265],[-9.972342,53.942326],[-9.972356,53.94237],[-9.972313,53.942395],[-9.972308,53.942403],[-9.972275,53.942453],[-9.972223,53.942502],[-9.972147,53.942525],[-9.972035,53.94261],[-9.971985,53.942646],[-9.971931,53.942685],[-9.971927,53.942692],[-9.971878,53.942761],[-9.971843,53.942825],[-9.971772,53.942879],[-9.971756,53.942912],[-9.971804,53.942979],[-9.971725,53.943127],[-9.971678,53.94327],[-9.971551,53.943468],[-9.971432,53.94368],[-9.971378,53.943842],[-9.971366,53.944041],[-9.971373,53.944053],[-9.971388,53.94408],[-9.971405,53.944112],[-9.971474,53.944239],[-9.971597,53.94443],[-9.971771,53.944565],[-9.971983,53.944662],[-9.972071,53.944774],[-9.972236,53.944885],[-9.972218,53.944928],[-9.973089,53.944914],[-9.973129,53.945752],[-9.973131,53.945753],[-9.973161,53.945787],[-9.973153,53.945811],[-9.974173,53.945794],[-9.974434,53.945646],[-9.974655,53.945525],[-9.975065,53.945296],[-9.975226,53.945208],[-9.975359,53.945133],[-9.975506,53.94505],[-9.975721,53.944945],[-9.975831,53.945003],[-9.976,53.945126],[-9.976155,53.945233],[-9.976305,53.945313],[-9.976867,53.945674],[-9.977215,53.945909],[-9.977231,53.945935],[-9.977245,53.945949],[-9.977282,53.945885],[-9.977351,53.945836],[-9.977407,53.945788],[-9.977437,53.945703],[-9.977611,53.945624],[-9.977758,53.945522],[-9.977794,53.945529],[-9.977852,53.945511],[-9.977917,53.945474],[-9.978015,53.945461],[-9.978065,53.945404],[-9.978166,53.945349],[-9.978238,53.945328],[-9.978328,53.945314],[-9.978406,53.945276],[-9.978431,53.945241],[-9.978541,53.945245],[-9.978613,53.945186],[-9.978695,53.945184],[-9.978812,53.945168],[-9.978908,53.945137],[-9.97899,53.945087],[-9.979008,53.945062],[-9.979072,53.94505],[-9.979124,53.944953],[-9.979195,53.944861],[-9.979251,53.944838],[-9.97936,53.944806],[-9.979458,53.944748],[-9.979507,53.944694],[-9.979552,53.944652],[-9.97959,53.944546],[-9.97963,53.944416],[-9.979681,53.944363],[-9.979731,53.944327],[-9.979856,53.944265],[-9.979936,53.944248],[-9.980019,53.944232],[-9.980113,53.944208],[-9.980177,53.944161],[-9.980267,53.94413],[-9.980274,53.944128],[-9.980331,53.944089],[-9.980409,53.944062],[-9.980444,53.944046],[-9.980486,53.944001],[-9.980524,53.943968],[-9.98058,53.943954],[-9.980766,53.943935],[-9.98089,53.943898],[-9.981038,53.943878],[-9.981085,53.943854],[-9.981113,53.943812],[-9.9811,53.943765],[-9.98111,53.943737],[-9.981136,53.943725],[-9.981256,53.943712],[-9.981303,53.9437],[-9.981328,53.94364],[-9.981344,53.943597],[-9.98138,53.943579],[-9.981475,53.943578],[-9.981573,53.943588],[-9.981619,53.943591],[-9.981671,53.943578],[-9.981727,53.943587],[-9.981757,53.943588],[-9.981823,53.943559],[-9.981852,53.943525],[-9.981924,53.943456],[-9.982023,53.94343],[-9.982099,53.943359],[-9.982163,53.943337],[-9.982282,53.943339],[-9.982335,53.943334],[-9.982438,53.943319],[-9.982504,53.943289],[-9.982573,53.943288],[-9.982624,53.943302],[-9.982703,53.943319],[-9.982743,53.943314],[-9.982781,53.943256],[-9.982814,53.943235],[-9.982829,53.943229],[-9.982869,53.943237],[-9.982918,53.943266],[-9.982984,53.943271],[-9.983044,53.943271],[-9.983109,53.943269],[-9.983148,53.943231],[-9.983166,53.943171],[-9.983198,53.94314],[-9.983261,53.94313],[-9.983335,53.943126],[-9.983391,53.943101],[-9.983448,53.943063],[-9.983588,53.943052],[-9.98367,53.943027],[-9.98378,53.942968],[-9.983863,53.942953],[-9.983957,53.94294],[-9.984052,53.942889],[-9.984188,53.942831],[-9.984291,53.942783],[-9.984389,53.94277],[-9.984491,53.94276],[-9.984566,53.942729],[-9.984662,53.942699],[-9.984813,53.942685],[-9.984895,53.942657],[-9.984901,53.94264],[-9.984894,53.942589],[-9.984902,53.94252],[-9.984948,53.942485],[-9.985012,53.942475],[-9.985033,53.94245],[-9.985014,53.942398],[-9.985017,53.942353],[-9.985063,53.942296],[-9.985072,53.942211],[-9.985107,53.942185],[-9.985127,53.94213],[-9.985165,53.942084],[-9.985238,53.942017],[-9.985318,53.941922],[-9.985428,53.941857],[-9.985431,53.941815],[-9.985416,53.941749],[-9.985451,53.941727],[-9.985547,53.941679],[-9.985647,53.941629],[-9.985828,53.941556],[-9.985964,53.941543],[-9.986016,53.941514],[-9.986077,53.941443],[-9.986135,53.941418],[-9.986296,53.941283],[-9.986345,53.941187],[-9.986669,53.941006],[-9.986876,53.940913],[-9.987058,53.940849],[-9.98749,53.940622],[-9.987816,53.94047],[-9.988092,53.940321],[-9.988343,53.940192],[-9.988473,53.940178],[-9.988607,53.940199],[-9.988817,53.940115],[-9.988847,53.940104],[-9.988814,53.940046],[-9.988805,53.93999],[-9.989089,53.939622],[-9.989381,53.939417]],[[-9.976778,53.941229],[-9.977235,53.941221],[-9.977247,53.941491],[-9.976791,53.941498],[-9.976778,53.941229]]],[[[-9.983219,53.92659],[-9.979382,53.930131],[-9.979451,53.93013],[-9.979464,53.930399],[-9.979921,53.930392],[-9.979908,53.930122],[-9.980364,53.930115],[-9.980352,53.929845],[-9.980808,53.929838],[-9.980795,53.929568],[-9.980783,53.929299],[-9.981239,53.929291],[-9.981226,53.929022],[-9.981214,53.928753],[-9.98167,53.928745],[-9.981657,53.928476],[-9.982114,53.928468],[-9.982101,53.928199],[-9.982088,53.927929],[-9.983001,53.927914],[-9.982989,53.927645],[-9.982976,53.927375],[-9.983432,53.927368],[-9.98342,53.927098],[-9.983876,53.927091],[-9.983863,53.926821],[-9.98385,53.926552],[-9.984307,53.926545],[-9.984294,53.926275],[-9.984269,53.925736],[-9.984262,53.925599],[-9.983219,53.92659]]],[[[-9.985183,53.924725],[-9.984404,53.925464],[-9.984712,53.925459],[-9.9847,53.92519],[-9.985156,53.925182],[-9.985143,53.924913],[-9.9856,53.924905],[-9.985587,53.924636],[-9.986043,53.924628],[-9.986018,53.92409],[-9.986474,53.924082],[-9.986461,53.923813],[-9.986005,53.92382],[-9.985979,53.923281],[-9.985941,53.922473],[-9.985028,53.922488],[-9.985079,53.923566],[-9.985092,53.923835],[-9.984946,53.923838],[-9.985183,53.924725]]],[[[-9.983132,53.916947],[-9.983246,53.917395],[-9.984785,53.917369],[-9.98476,53.91683],[-9.984303,53.916838],[-9.98429,53.916563],[-9.983546,53.916805],[-9.983132,53.916947]]],[[[-9.965602,53.936812],[-9.965114,53.936754],[-9.965189,53.936769],[-9.965461,53.936797],[-9.965602,53.936814],[-9.965602,53.936812]]],[[[-9.966528,53.936922],[-9.967061,53.936994],[-9.967569,53.937033],[-9.968094,53.937089],[-9.968096,53.937089],[-9.968101,53.93709],[-9.968158,53.937095],[-9.966521,53.936921],[-9.966521,53.936921],[-9.966528,53.936922]]],[[[-9.975415,53.947325],[-9.975416,53.947325],[-9.975022,53.947283],[-9.975014,53.947263],[-9.974907,53.947075],[-9.974787,53.946895],[-9.9747,53.946776],[-9.974736,53.947527],[-9.975048,53.947455],[-9.975092,53.947445],[-9.975136,53.947435],[-9.975152,53.947431],[-9.975227,53.94741],[-9.975415,53.947325]]],[[[-9.961466,53.924437],[-9.961424,53.923539],[-9.959903,53.923564],[-9.959945,53.924462],[-9.961466,53.924437]]],[[[-9.950883,53.926014],[-9.950895,53.926283],[-9.951401,53.926275],[-9.951407,53.926398],[-9.953944,53.926357],[-9.95386,53.924561],[-9.953149,53.924573],[-9.953152,53.924629],[-9.953164,53.924898],[-9.953177,53.925168],[-9.952721,53.925175],[-9.952733,53.925444],[-9.952379,53.92545],[-9.95238,53.925484],[-9.951365,53.9255],[-9.951376,53.925736],[-9.95092,53.925744],[-9.950932,53.926013],[-9.950883,53.926014]]],[[[-9.940293,53.927477],[-9.941406,53.927459],[-9.941396,53.927246],[-9.940939,53.927253],[-9.940927,53.926984],[-9.941383,53.926977],[-9.941371,53.926707],[-9.941364,53.926561],[-9.940499,53.926575],[-9.940429,53.926629],[-9.940259,53.926744],[-9.940293,53.927477]]],[[[-9.95707,53.928103],[-9.954687,53.928142],[-9.954698,53.928378],[-9.95471,53.928648],[-9.954722,53.928907],[-9.954762,53.928917],[-9.955636,53.928902],[-9.955623,53.928633],[-9.95608,53.928626],[-9.956092,53.928895],[-9.956549,53.928887],[-9.956561,53.929157],[-9.956567,53.929282],[-9.95795,53.929538],[-9.957944,53.929404],[-9.958653,53.929392],[-9.958634,53.928976],[-9.957112,53.929001],[-9.95707,53.928103]]],[[[-9.958667,53.929692],[-9.958666,53.929662],[-9.958617,53.929663],[-9.958667,53.929692]]],[[[-9.953275,53.927266],[-9.952362,53.927281],[-9.952365,53.927338],[-9.953278,53.927323],[-9.953275,53.927266]]],[[[-9.958971,53.929869],[-9.959516,53.930187],[-9.959808,53.930182],[-9.959792,53.929856],[-9.958971,53.929869]]],[[[-9.964567,53.936615],[-9.964187,53.93645],[-9.964378,53.936562],[-9.964482,53.936608],[-9.964677,53.936652],[-9.964935,53.936716],[-9.965002,53.93673],[-9.964567,53.936615]]],[[[-9.988057,53.918933],[-9.988044,53.918663],[-9.987588,53.918671],[-9.9876,53.91894],[-9.988057,53.918933]]],[[[-9.988428,53.926746],[-9.988415,53.926477],[-9.987502,53.926492],[-9.987515,53.926761],[-9.986602,53.926776],[-9.986615,53.927046],[-9.986159,53.927053],[-9.986171,53.927323],[-9.985715,53.92733],[-9.985728,53.9276],[-9.985271,53.927607],[-9.985284,53.927877],[-9.984827,53.927884],[-9.98484,53.928153],[-9.984384,53.928161],[-9.984396,53.92843],[-9.984409,53.9287],[-9.984422,53.928969],[-9.983966,53.928977],[-9.983978,53.929246],[-9.983991,53.929516],[-9.984448,53.929508],[-9.984435,53.929239],[-9.984891,53.929231],[-9.984866,53.928692],[-9.985322,53.928685],[-9.985309,53.928415],[-9.986222,53.9284],[-9.98621,53.928131],[-9.986666,53.928123],[-9.986653,53.927854],[-9.986641,53.927584],[-9.987097,53.927577],[-9.987084,53.927307],[-9.987541,53.9273],[-9.987528,53.927031],[-9.987984,53.927023],[-9.987972,53.926754],[-9.988428,53.926746]]],[[[-9.988403,53.926207],[-9.988415,53.926477],[-9.988872,53.926469],[-9.988859,53.9262],[-9.988403,53.926207]]],[[[-9.985233,53.926799],[-9.98522,53.926529],[-9.984763,53.926537],[-9.984776,53.926806],[-9.985233,53.926799]]],[[[-9.985207,53.92626],[-9.98522,53.926529],[-9.985676,53.926522],[-9.985664,53.926252],[-9.985207,53.92626]]],[[[-9.981737,53.939799],[-9.981724,53.939529],[-9.982181,53.939522],[-9.982168,53.939252],[-9.982155,53.938983],[-9.982612,53.938976],[-9.982599,53.938706],[-9.983056,53.938699],[-9.98303,53.93816],[-9.983487,53.938152],[-9.983474,53.937883],[-9.983461,53.937613],[-9.983005,53.937621],[-9.982992,53.937351],[-9.982535,53.937359],[-9.982523,53.93709],[-9.982066,53.937097],[-9.982079,53.937367],[-9.981622,53.937374],[-9.981609,53.937105],[-9.980696,53.93712],[-9.980773,53.938736],[-9.981229,53.938729],[-9.981242,53.938998],[-9.980786,53.939006],[-9.980798,53.939275],[-9.980342,53.939283],[-9.980354,53.939552],[-9.980811,53.939545],[-9.980824,53.939814],[-9.980837,53.940083],[-9.981293,53.940076],[-9.981281,53.939806],[-9.981737,53.939799]]],[[[-9.94875,53.928205],[-9.949663,53.928191],[-9.949651,53.927921],[-9.948738,53.927936],[-9.94875,53.928205]]]]}}]}
