{"type":"FeatureCollection","features":[{"type":"Feature","properties":{"source_fid":414080,"county":"Mayo","bog_geom_ha":202.11578898981611,"low15_pct":100.0,"low15_ha":202.11578898981611,"overlay_ha":202.11578898981611,"area_delta":0.0},"geometry":{"type":"MultiPolygon","coordinates":[[[[-9.418543,54.130443],[-9.418544,54.13048],[-9.418545,54.130482],[-9.418558,54.130688],[-9.418559,54.130729],[-9.418561,54.130859],[-9.418564,54.130974],[-9.418575,54.131215],[-9.418603,54.131205],[-9.418599,54.131145],[-9.418595,54.131],[-9.418581,54.130793],[-9.418575,54.130473],[-9.418558,54.130278],[-9.418527,54.12978],[-9.418504,54.129401],[-9.418478,54.129064],[-9.41846,54.12907],[-9.418473,54.129348],[-9.41848,54.1295],[-9.418487,54.12963],[-9.418492,54.129728],[-9.418502,54.129911],[-9.418521,54.130098],[-9.418529,54.13017],[-9.418534,54.130225],[-9.418543,54.130443]]],[[[-9.426783,54.136126],[-9.426844,54.136067],[-9.426792,54.136117],[-9.426783,54.136126]]],[[[-9.425088,54.136141],[-9.425052,54.136168],[-9.425165,54.136085],[-9.425088,54.136141]]],[[[-9.422746,54.136466],[-9.422767,54.136438],[-9.422789,54.136407],[-9.422746,54.136466]]],[[[-9.422342,54.136508],[-9.422324,54.136524],[-9.422312,54.136535],[-9.422342,54.136508]]],[[[-9.422294,54.136547],[-9.422312,54.136535],[-9.42225,54.136575],[-9.422294,54.136547]]],[[[-9.419983,54.137044],[-9.419949,54.137073],[-9.42,54.13703],[-9.419983,54.137044]]],[[[-9.419761,54.137257],[-9.419816,54.137235],[-9.419733,54.137268],[-9.419761,54.137257]]],[[[-9.419325,54.137362],[-9.419285,54.137414],[-9.419332,54.137354],[-9.419325,54.137362]]],[[[-9.418608,54.149723],[-9.418604,54.149697],[-9.418602,54.149684],[-9.418593,54.149654],[-9.418587,54.149639],[-9.41858,54.149624],[-9.418577,54.149605],[-9.418568,54.149544],[-9.418567,54.149541],[-9.418567,54.149538],[-9.418436,54.149403],[-9.418433,54.1494],[-9.41838,54.149353],[-9.418279,54.149262],[-9.41826,54.149238],[-9.418201,54.149163],[-9.418109,54.149073],[-9.418065,54.148981],[-9.418025,54.148896],[-9.417996,54.148834],[-9.417985,54.148811],[-9.417957,54.148758],[-9.417941,54.148727],[-9.417818,54.148614],[-9.417802,54.1486],[-9.417785,54.148584],[-9.417607,54.14836],[-9.41756,54.148289],[-9.417543,54.148264],[-9.417496,54.148193],[-9.417473,54.148158],[-9.41749,54.148111],[-9.417541,54.147969],[-9.417537,54.147966],[-9.417531,54.147961],[-9.417516,54.14795],[-9.417388,54.147851],[-9.417294,54.147762],[-9.417247,54.147717],[-9.417007,54.147628],[-9.416962,54.1476],[-9.416902,54.147562],[-9.416851,54.147454],[-9.41683,54.147393],[-9.416828,54.147387],[-9.416823,54.147345],[-9.41681,54.147259],[-9.416713,54.147244],[-9.416646,54.147233],[-9.416556,54.147182],[-9.416511,54.147132],[-9.416479,54.147095],[-9.41638,54.147001],[-9.416391,54.146989],[-9.416459,54.146912],[-9.416437,54.146875],[-9.416347,54.146721],[-9.416346,54.146718],[-9.416343,54.146714],[-9.416261,54.146657],[-9.416253,54.146651],[-9.416043,54.146605],[-9.415938,54.146583],[-9.415718,54.146509],[-9.415673,54.146488],[-9.415607,54.146455],[-9.41553,54.146396],[-9.415515,54.146354],[-9.415469,54.14623],[-9.415412,54.146145],[-9.41537,54.146082],[-9.415181,54.145921],[-9.41507,54.14585],[-9.414965,54.145768],[-9.414792,54.145624],[-9.414785,54.145619],[-9.414783,54.145617],[-9.414755,54.145595],[-9.414625,54.145368],[-9.4146,54.145267],[-9.414578,54.145181],[-9.414567,54.145124],[-9.414542,54.144993],[-9.414532,54.144942],[-9.414532,54.144939],[-9.41453,54.144928],[-9.414525,54.144881],[-9.414524,54.14487],[-9.41455,54.14476],[-9.414562,54.144728],[-9.414607,54.144609],[-9.414777,54.144395],[-9.414863,54.144346],[-9.414957,54.144275],[-9.415007,54.144236],[-9.415165,54.144118],[-9.415176,54.144001],[-9.415195,54.143956],[-9.415266,54.143789],[-9.415319,54.143702],[-9.41536,54.143636],[-9.415406,54.143511],[-9.415396,54.143404],[-9.415416,54.143366],[-9.415661,54.142912],[-9.415679,54.142848],[-9.415706,54.142746],[-9.415686,54.14271],[-9.415684,54.142705],[-9.415652,54.142649],[-9.415711,54.142444],[-9.415648,54.142317],[-9.415648,54.142265],[-9.415648,54.142092],[-9.415551,54.141964],[-9.41557,54.14189],[-9.415595,54.141795],[-9.415633,54.141719],[-9.415677,54.141631],[-9.415746,54.141461],[-9.415752,54.141446],[-9.415764,54.141417],[-9.415786,54.141238],[-9.415741,54.141188],[-9.41562,54.14104],[-9.415435,54.140847],[-9.41535,54.140759],[-9.415323,54.140728],[-9.415268,54.140666],[-9.415213,54.140557],[-9.415182,54.140497],[-9.4152,54.140386],[-9.415442,54.140039],[-9.415559,54.139884],[-9.415606,54.139806],[-9.415775,54.139627],[-9.415815,54.139572],[-9.415893,54.139468],[-9.415978,54.139405],[-9.415985,54.1394],[-9.416078,54.139341],[-9.416084,54.139337],[-9.41616,54.139267],[-9.416204,54.139217],[-9.416252,54.139162],[-9.416218,54.139112],[-9.416214,54.139105],[-9.416176,54.139049],[-9.416131,54.138973],[-9.416135,54.138959],[-9.416137,54.138952],[-9.416145,54.138909],[-9.41616,54.138888],[-9.416173,54.13887],[-9.416315,54.138753],[-9.416358,54.138714],[-9.416417,54.138683],[-9.416461,54.138651],[-9.416495,54.138634],[-9.416513,54.138624],[-9.416547,54.138605],[-9.416628,54.138567],[-9.416636,54.138563],[-9.416649,54.138556],[-9.416667,54.138546],[-9.416723,54.138496],[-9.416799,54.13843],[-9.41686,54.138327],[-9.416867,54.138283],[-9.416869,54.138272],[-9.416884,54.138174],[-9.4169,54.138067],[-9.416956,54.137888],[-9.41698,54.137812],[-9.417121,54.137731],[-9.417225,54.137658],[-9.417332,54.137568],[-9.417809,54.137576],[-9.417847,54.13758],[-9.417913,54.137589],[-9.418224,54.137538],[-9.418291,54.137528],[-9.418368,54.137521],[-9.418556,54.137505],[-9.418666,54.13751],[-9.418733,54.137512],[-9.418835,54.137513],[-9.418907,54.137496],[-9.41892,54.137493],[-9.41895,54.137487],[-9.418978,54.13748],[-9.418974,54.137472],[-9.41896,54.13712],[-9.418944,54.136772],[-9.418934,54.136584],[-9.418932,54.136543],[-9.418931,54.136505],[-9.418929,54.136475],[-9.418922,54.136338],[-9.418922,54.136302],[-9.418918,54.136156],[-9.418896,54.135849],[-9.418896,54.135767],[-9.418889,54.135535],[-9.418864,54.13511],[-9.418802,54.134452],[-9.418791,54.134063],[-9.41878,54.133777],[-9.418734,54.133155],[-9.418688,54.132417],[-9.418674,54.132222],[-9.418664,54.132087],[-9.418666,54.132021],[-9.418664,54.131964],[-9.418662,54.13194],[-9.418617,54.131944],[-9.418631,54.132142],[-9.418631,54.132211],[-9.418598,54.132224],[-9.418349,54.132324],[-9.417719,54.132583],[-9.417068,54.132872],[-9.417048,54.132879],[-9.417023,54.132654],[-9.416991,54.132365],[-9.416959,54.132087],[-9.416941,54.131923],[-9.416931,54.13176],[-9.416925,54.13168],[-9.416914,54.131504],[-9.416898,54.131246],[-9.41688,54.130963],[-9.416862,54.130678],[-9.416854,54.130559],[-9.416843,54.130385],[-9.416829,54.130157],[-9.416825,54.130092],[-9.416803,54.129748],[-9.41679,54.129543],[-9.416772,54.129269],[-9.416753,54.128972],[-9.41674,54.128766],[-9.416489,54.128635],[-9.416156,54.128461],[-9.415823,54.128288],[-9.41547,54.128104],[-9.415043,54.127882],[-9.415002,54.12786],[-9.414856,54.127931],[-9.414498,54.128105],[-9.414246,54.128227],[-9.414167,54.128264],[-9.413851,54.128415],[-9.41377,54.128453],[-9.41372,54.128477],[-9.413712,54.128526],[-9.413699,54.128607],[-9.413621,54.128719],[-9.413585,54.128752],[-9.413552,54.128782],[-9.41338,54.128685],[-9.413336,54.128661],[-9.413292,54.128635],[-9.412902,54.128416],[-9.411827,54.127747],[-9.410826,54.126947],[-9.410491,54.126678],[-9.410277,54.126527],[-9.410033,54.126343],[-9.409931,54.126239],[-9.409672,54.126011],[-9.409503,54.125854],[-9.409396,54.125754],[-9.409156,54.12552],[-9.409096,54.12552],[-9.408027,54.125803],[-9.408043,54.126272],[-9.407496,54.126278],[-9.407458,54.126307],[-9.407166,54.126282],[-9.406983,54.126284],[-9.407069,54.126415],[-9.406786,54.126364],[-9.406419,54.126291],[-9.406026,54.126295],[-9.405708,54.126607],[-9.405536,54.12656],[-9.405416,54.126555],[-9.405195,54.126548],[-9.404815,54.126471],[-9.404518,54.126481],[-9.404338,54.126416],[-9.404257,54.12639],[-9.404067,54.126322],[-9.404058,54.126318],[-9.403456,54.126325],[-9.403448,54.126087],[-9.403389,54.126058],[-9.403219,54.125965],[-9.40287,54.125739],[-9.402841,54.125726],[-9.402343,54.12555],[-9.402051,54.125443],[-9.401798,54.125266],[-9.401493,54.125109],[-9.401212,54.124953],[-9.400683,54.124477],[-9.400298,54.124146],[-9.399471,54.124254],[-9.398557,54.124639],[-9.398573,54.124676],[-9.398647,54.124837],[-9.398804,54.125124],[-9.398897,54.125299],[-9.398975,54.125479],[-9.398995,54.125541],[-9.398994,54.125604],[-9.398936,54.125736],[-9.398933,54.125849],[-9.399003,54.126031],[-9.399068,54.126106],[-9.39916,54.126142],[-9.399259,54.126171],[-9.399356,54.126239],[-9.399418,54.126397],[-9.399422,54.126406],[-9.399536,54.12671],[-9.399606,54.126893],[-9.399612,54.127055],[-9.399658,54.127235],[-9.399825,54.128089],[-9.399968,54.128927],[-9.399964,54.129207],[-9.399957,54.129246],[-9.40008,54.129266],[-9.400353,54.129304],[-9.401463,54.129472],[-9.402563,54.129635],[-9.404128,54.129852],[-9.404467,54.129898],[-9.404457,54.129857],[-9.404318,54.129277],[-9.404255,54.129015],[-9.404172,54.128672],[-9.404065,54.128232],[-9.405263,54.128162],[-9.405306,54.12816],[-9.40535,54.128358],[-9.405408,54.128608],[-9.405433,54.128712],[-9.405449,54.128781],[-9.405487,54.128975],[-9.405533,54.128953],[-9.406794,54.128362],[-9.407985,54.127781],[-9.408276,54.128172],[-9.408601,54.12861],[-9.408683,54.128721],[-9.408778,54.128848],[-9.408948,54.129078],[-9.409118,54.129308],[-9.409275,54.129519],[-9.409396,54.129681],[-9.409524,54.129866],[-9.409699,54.130134],[-9.409799,54.130289],[-9.409812,54.13031],[-9.409612,54.130404],[-9.409371,54.130518],[-9.409114,54.130639],[-9.408989,54.130698],[-9.408889,54.130745],[-9.408681,54.130842],[-9.408471,54.130941],[-9.408463,54.130945],[-9.408206,54.131062],[-9.408124,54.1311],[-9.407938,54.131187],[-9.40766,54.131317],[-9.407473,54.131404],[-9.407238,54.131514],[-9.407061,54.131596],[-9.406974,54.131637],[-9.40671,54.131763],[-9.406509,54.131859],[-9.406264,54.131976],[-9.406029,54.132088],[-9.406019,54.132093],[-9.405737,54.132224],[-9.405622,54.132277],[-9.405488,54.132338],[-9.405305,54.132422],[-9.405202,54.132472],[-9.405027,54.132557],[-9.404958,54.132591],[-9.404903,54.132624],[-9.404838,54.132664],[-9.404197,54.133052],[-9.403192,54.133537],[-9.402692,54.133774],[-9.402544,54.133849],[-9.402452,54.133895],[-9.401932,54.134159],[-9.401681,54.134274],[-9.401096,54.134542],[-9.400776,54.134689],[-9.401187,54.134709],[-9.401607,54.134736],[-9.401479,54.134888],[-9.401478,54.134889],[-9.401277,54.135158],[-9.401236,54.135213],[-9.401021,54.135474],[-9.40088,54.13565],[-9.400836,54.135705],[-9.400684,54.135889],[-9.400332,54.135902],[-9.400215,54.135906],[-9.399788,54.135921],[-9.39972,54.135923],[-9.399248,54.13594],[-9.399217,54.135941],[-9.398713,54.13596],[-9.398677,54.135961],[-9.398574,54.135966],[-9.398571,54.135934],[-9.398589,54.135894],[-9.398446,54.13588],[-9.398356,54.135856],[-9.398314,54.13583],[-9.398088,54.135937],[-9.398038,54.13596],[-9.397817,54.136063],[-9.397692,54.136122],[-9.397483,54.136454],[-9.397434,54.136532],[-9.397299,54.136749],[-9.397157,54.136976],[-9.397102,54.137065],[-9.397075,54.137081],[-9.397052,54.137095],[-9.397044,54.137122],[-9.396959,54.137258],[-9.396938,54.137293],[-9.396906,54.137344],[-9.39683,54.137465],[-9.396738,54.137617],[-9.396717,54.137651],[-9.396638,54.13778],[-9.396603,54.137834],[-9.396492,54.138004],[-9.396382,54.138174],[-9.396287,54.13832],[-9.396268,54.138347],[-9.396172,54.138486],[-9.395998,54.138739],[-9.39599,54.138751],[-9.395982,54.138763],[-9.395978,54.138769],[-9.395974,54.138774],[-9.395969,54.138782],[-9.39584,54.138992],[-9.395722,54.139127],[-9.395676,54.139194],[-9.395633,54.139256],[-9.395631,54.13929],[-9.395526,54.139517],[-9.395479,54.139583],[-9.395597,54.139618],[-9.39561,54.139627],[-9.395749,54.139685],[-9.396029,54.139783],[-9.396434,54.139923],[-9.396565,54.139967],[-9.396732,54.140023],[-9.397055,54.140133],[-9.397071,54.140139],[-9.397458,54.140275],[-9.397629,54.140335],[-9.397892,54.140428],[-9.398152,54.14052],[-9.398163,54.140524],[-9.398358,54.140586],[-9.398493,54.140619],[-9.398706,54.140664],[-9.398771,54.140678],[-9.398781,54.140653],[-9.39895,54.140264],[-9.399209,54.139593],[-9.399455,54.139015],[-9.39957,54.138744],[-9.399981,54.138893],[-9.400259,54.139002],[-9.400775,54.139205],[-9.400937,54.139268],[-9.401142,54.13935],[-9.401532,54.139504],[-9.401775,54.139601],[-9.401983,54.139682],[-9.401862,54.140151],[-9.401759,54.140571],[-9.401668,54.140921],[-9.401615,54.141146],[-9.401548,54.141369],[-9.401534,54.141417],[-9.401559,54.141432],[-9.401955,54.141666],[-9.401968,54.141621],[-9.402078,54.141233],[-9.402193,54.140727],[-9.402306,54.140281],[-9.402408,54.139847],[-9.402653,54.139943],[-9.402838,54.140015],[-9.403146,54.140136],[-9.403276,54.140187],[-9.403537,54.140289],[-9.404153,54.14053],[-9.404501,54.140653],[-9.404567,54.140677],[-9.404607,54.14057],[-9.404607,54.140551],[-9.40471,54.140368],[-9.404797,54.140214],[-9.40489,54.140062],[-9.404964,54.139941],[-9.405042,54.139811],[-9.405086,54.139739],[-9.405225,54.139529],[-9.405264,54.139471],[-9.405395,54.139268],[-9.405408,54.139248],[-9.405429,54.139216],[-9.40548,54.139233],[-9.405856,54.139365],[-9.406426,54.139553],[-9.406633,54.139621],[-9.406814,54.139682],[-9.407087,54.139774],[-9.407255,54.139827],[-9.40753,54.139912],[-9.407598,54.139933],[-9.407975,54.14005],[-9.408283,54.140145],[-9.40848,54.140206],[-9.408597,54.140243],[-9.408851,54.140321],[-9.40898,54.140362],[-9.409186,54.140425],[-9.409373,54.140484],[-9.409481,54.140517],[-9.409629,54.140563],[-9.409676,54.140578],[-9.409784,54.140614],[-9.409938,54.140665],[-9.410163,54.140739],[-9.410365,54.140806],[-9.410575,54.140876],[-9.410674,54.140908],[-9.410979,54.141009],[-9.411231,54.141092],[-9.411481,54.141175],[-9.411777,54.141273],[-9.411921,54.14132],[-9.412077,54.141372],[-9.412384,54.141473],[-9.412582,54.141539],[-9.411752,54.142466],[-9.411655,54.142573],[-9.410871,54.143449],[-9.410849,54.143474],[-9.410834,54.143505],[-9.410019,54.145244],[-9.410323,54.145395],[-9.410549,54.145554],[-9.410796,54.14563],[-9.411123,54.145792],[-9.411374,54.145917],[-9.411609,54.145995],[-9.410204,54.148511],[-9.410186,54.148543],[-9.410274,54.148578],[-9.41025,54.148611],[-9.408927,54.15048],[-9.409237,54.150606],[-9.409424,54.15069],[-9.410649,54.148771],[-9.410673,54.148734],[-9.4108,54.148785],[-9.41118,54.148948],[-9.411198,54.14892],[-9.412769,54.146382],[-9.412983,54.146453],[-9.413302,54.146559],[-9.411787,54.149161],[-9.411772,54.149187],[-9.411306,54.149001],[-9.411287,54.149028],[-9.409955,54.150928],[-9.410292,54.151079],[-9.410334,54.151098],[-9.41047,54.151159],[-9.410776,54.151293],[-9.410802,54.151304],[-9.411345,54.151541],[-9.411765,54.151725],[-9.413305,54.149839],[-9.413329,54.149809],[-9.413882,54.150023],[-9.413865,54.150048],[-9.412468,54.152031],[-9.412912,54.152227],[-9.413006,54.152269],[-9.413035,54.152281],[-9.413063,54.152294],[-9.41451,54.1503],[-9.414528,54.150275],[-9.414683,54.150335],[-9.415062,54.150482],[-9.415043,54.150509],[-9.413592,54.152527],[-9.413879,54.152654],[-9.413925,54.152674],[-9.414015,54.152714],[-9.41448,54.152918],[-9.414926,54.153114],[-9.414953,54.153126],[-9.415361,54.153305],[-9.415544,54.153387],[-9.415551,54.15339],[-9.416064,54.153621],[-9.416533,54.153831],[-9.416577,54.153851],[-9.416596,54.15386],[-9.416838,54.153969],[-9.416829,54.153809],[-9.4168,54.153641],[-9.416779,54.153521],[-9.416793,54.153502],[-9.416842,54.153432],[-9.416867,54.153367],[-9.416825,54.153292],[-9.416794,54.153209],[-9.416881,54.153144],[-9.416943,54.153099],[-9.417102,54.152946],[-9.417105,54.152942],[-9.417162,54.152855],[-9.41716,54.152844],[-9.417145,54.152736],[-9.417098,54.152638],[-9.417081,54.152603],[-9.417084,54.152582],[-9.417155,54.152549],[-9.41725,54.152506],[-9.41735,54.152446],[-9.417367,54.152442],[-9.417443,54.152422],[-9.41746,54.152412],[-9.41747,54.152406],[-9.417484,54.152384],[-9.417507,54.152345],[-9.417509,54.152295],[-9.417509,54.152294],[-9.417527,54.152216],[-9.417567,54.152168],[-9.417584,54.152106],[-9.417586,54.152086],[-9.417587,54.152072],[-9.417595,54.152061],[-9.417606,54.152048],[-9.41761,54.152047],[-9.417648,54.152034],[-9.417689,54.15202],[-9.417815,54.151978],[-9.417899,54.151919],[-9.41792,54.151897],[-9.417952,54.151861],[-9.417983,54.15181],[-9.417993,54.151794],[-9.418017,54.151709],[-9.418017,54.15166],[-9.418016,54.151614],[-9.418016,54.151576],[-9.418022,54.151522],[-9.418025,54.1515],[-9.41811,54.151379],[-9.418214,54.151306],[-9.418232,54.151271],[-9.418255,54.15116],[-9.418252,54.15111],[-9.418239,54.150904],[-9.418221,54.150809],[-9.418217,54.150788],[-9.418222,54.150758],[-9.418238,54.150672],[-9.418235,54.150659],[-9.418234,54.150648],[-9.418225,54.150599],[-9.41816,54.150329],[-9.418157,54.150163],[-9.418207,54.150029],[-9.418227,54.150013],[-9.418253,54.149993],[-9.418341,54.149936],[-9.418342,54.149935],[-9.418366,54.14992],[-9.418379,54.149911],[-9.418387,54.149906],[-9.418578,54.149763],[-9.418596,54.149738],[-9.418608,54.149723]],[[-9.412825,54.14961],[-9.412296,54.149397],[-9.41231,54.149372],[-9.413848,54.146741],[-9.414373,54.146916],[-9.412841,54.149582],[-9.412825,54.14961]]]]}}]}
