{"type":"FeatureCollection","features":[{"type":"Feature","properties":{"source_fid":416064,"county":"Mayo","bog_geom_ha":323.10875189110362,"low15_pct":81.747356705620476,"low15_ha":264.13286395549875,"overlay_ha":264.28237269636293,"area_delta":0.14950874086417798},"geometry":{"type":"MultiPolygon","coordinates":[[[[-9.668593,53.909971],[-9.668579,53.909994],[-9.668594,53.909994],[-9.668593,53.909971]]],[[[-9.668629,53.910892],[-9.668665,53.91179],[-9.670186,53.911769],[-9.67015,53.910871],[-9.668629,53.910892]]],[[[-9.654125,53.924975],[-9.654222,53.925039],[-9.65455,53.924959],[-9.654836,53.924959],[-9.655176,53.924981],[-9.655179,53.924981],[-9.65518,53.924981],[-9.655181,53.92498],[-9.655183,53.92498],[-9.655277,53.924967],[-9.655279,53.924966],[-9.655281,53.924966],[-9.655283,53.924966],[-9.655445,53.924958],[-9.655451,53.924952],[-9.655453,53.924951],[-9.655455,53.924949],[-9.655457,53.924948],[-9.655459,53.924947],[-9.655462,53.924946],[-9.655464,53.924945],[-9.655467,53.924944],[-9.65547,53.924943],[-9.655473,53.924942],[-9.655476,53.924942],[-9.655479,53.924941],[-9.655482,53.924941],[-9.655485,53.924941],[-9.655488,53.924941],[-9.655491,53.924942],[-9.655495,53.924942],[-9.655496,53.924942],[-9.655638,53.92497],[-9.655641,53.924971],[-9.655644,53.924972],[-9.655647,53.924973],[-9.655649,53.924974],[-9.655652,53.924975],[-9.655654,53.924976],[-9.655656,53.924977],[-9.655658,53.924979],[-9.655659,53.924981],[-9.655661,53.924982],[-9.655662,53.924984],[-9.655663,53.924985],[-9.655692,53.925045],[-9.655726,53.925078],[-9.655747,53.925098],[-9.655768,53.925102],[-9.655786,53.925105],[-9.655816,53.925086],[-9.655836,53.925074],[-9.655933,53.925012],[-9.655986,53.925034],[-9.656084,53.92504],[-9.65612,53.925042],[-9.656239,53.92504],[-9.656359,53.925039],[-9.656418,53.925032],[-9.656742,53.925025],[-9.65714,53.925012],[-9.657516,53.925012],[-9.65772,53.925011],[-9.657888,53.925006],[-9.658048,53.925001],[-9.658442,53.924991],[-9.658449,53.924989],[-9.658534,53.924961],[-9.658516,53.92451],[-9.659416,53.924498],[-9.659414,53.924464],[-9.65934,53.922578],[-9.659796,53.922572],[-9.659785,53.922302],[-9.660698,53.922289],[-9.660709,53.922559],[-9.660784,53.924445],[-9.661241,53.924439],[-9.661258,53.924885],[-9.661417,53.924885],[-9.661557,53.9249],[-9.661684,53.924895],[-9.661744,53.924932],[-9.661821,53.924934],[-9.66203,53.924945],[-9.662161,53.924962],[-9.662285,53.924994],[-9.662327,53.924981],[-9.662409,53.92501],[-9.66249,53.924997],[-9.662538,53.92499],[-9.662668,53.924965],[-9.662836,53.924988],[-9.662944,53.925017],[-9.663106,53.924994],[-9.663183,53.92499],[-9.663292,53.925022],[-9.663426,53.925065],[-9.663467,53.925103],[-9.663513,53.925197],[-9.663535,53.925216],[-9.664469,53.925203],[-9.664479,53.925473],[-9.664023,53.925479],[-9.664033,53.925748],[-9.66386,53.925751],[-9.663903,53.925757],[-9.663987,53.92582],[-9.664018,53.925873],[-9.664053,53.925899],[-9.664141,53.925934],[-9.664182,53.92598],[-9.664245,53.926013],[-9.664366,53.926055],[-9.664425,53.92609],[-9.664477,53.926082],[-9.664519,53.926106],[-9.664506,53.926146],[-9.664549,53.926179],[-9.66461,53.926193],[-9.664648,53.926203],[-9.664681,53.926235],[-9.664673,53.926268],[-9.664633,53.926305],[-9.664694,53.926335],[-9.664833,53.92636],[-9.664854,53.926404],[-9.664965,53.926453],[-9.664985,53.926481],[-9.665227,53.926577],[-9.665589,53.926915],[-9.66614,53.927662],[-9.666882,53.928243],[-9.666925,53.928266],[-9.667036,53.928326],[-9.667106,53.928388],[-9.667155,53.928425],[-9.667141,53.928489],[-9.667181,53.928521],[-9.667161,53.928574],[-9.667194,53.928612],[-9.667235,53.928676],[-9.667316,53.928733],[-9.667517,53.928803],[-9.667528,53.928848],[-9.6676,53.928877],[-9.667716,53.928924],[-9.667759,53.928969],[-9.667901,53.928973],[-9.667958,53.928994],[-9.667998,53.929118],[-9.66802,53.929139],[-9.667973,53.929183],[-9.667991,53.929205],[-9.668026,53.929216],[-9.668043,53.929297],[-9.668146,53.92933],[-9.668161,53.929373],[-9.668143,53.929432],[-9.668217,53.929462],[-9.668288,53.929456],[-9.668293,53.929458],[-9.668282,53.929194],[-9.668261,53.928655],[-9.668717,53.928649],[-9.668707,53.92838],[-9.668696,53.92811],[-9.669152,53.928104],[-9.669142,53.927834],[-9.669598,53.927828],[-9.669577,53.927289],[-9.672773,53.927245],[-9.672762,53.926975],[-9.673219,53.926969],[-9.673208,53.926699],[-9.673664,53.926693],[-9.673654,53.926423],[-9.67411,53.926417],[-9.674099,53.926148],[-9.674556,53.926141],[-9.674545,53.925872],[-9.675915,53.925853],[-9.675926,53.926122],[-9.676382,53.926116],[-9.676393,53.926385],[-9.677306,53.926373],[-9.677295,53.926103],[-9.677752,53.926097],[-9.677741,53.925827],[-9.67773,53.925558],[-9.6791,53.925539],[-9.679111,53.925808],[-9.680937,53.925783],[-9.680948,53.926052],[-9.681404,53.926046],[-9.681415,53.926315],[-9.681426,53.926585],[-9.681437,53.926854],[-9.681893,53.926848],[-9.681904,53.927117],[-9.682817,53.927104],[-9.682807,53.926835],[-9.682796,53.926565],[-9.682785,53.926296],[-9.682328,53.926302],[-9.682318,53.926033],[-9.682307,53.925763],[-9.68322,53.925751],[-9.683209,53.925481],[-9.683187,53.924942],[-9.683644,53.924936],[-9.683611,53.924127],[-9.684068,53.924121],[-9.684046,53.923582],[-9.684503,53.923576],[-9.684492,53.923306],[-9.684948,53.9233],[-9.684959,53.923569],[-9.684981,53.924108],[-9.685013,53.924917],[-9.685035,53.925455],[-9.685492,53.925449],[-9.685481,53.92518],[-9.686394,53.925167],[-9.686405,53.925436],[-9.686861,53.92543],[-9.686872,53.925699],[-9.686416,53.925706],[-9.686427,53.925975],[-9.685513,53.925988],[-9.685524,53.926257],[-9.684611,53.92627],[-9.684622,53.92654],[-9.684165,53.926546],[-9.684176,53.926816],[-9.683263,53.926828],[-9.683274,53.927098],[-9.683296,53.927637],[-9.683307,53.927906],[-9.683763,53.9279],[-9.683774,53.928169],[-9.684231,53.928163],[-9.68422,53.927893],[-9.684209,53.927624],[-9.684198,53.927355],[-9.684655,53.927348],[-9.684644,53.927079],[-9.685557,53.927066],[-9.685568,53.927335],[-9.685579,53.927605],[-9.686035,53.927598],[-9.686046,53.927868],[-9.686503,53.927861],[-9.686514,53.928131],[-9.686524,53.9284],[-9.686535,53.92867],[-9.686079,53.928676],[-9.68609,53.928946],[-9.6861,53.929215],[-9.687927,53.929189],[-9.687916,53.92892],[-9.688372,53.928914],[-9.688362,53.928644],[-9.689275,53.928631],[-9.689264,53.928362],[-9.68972,53.928355],[-9.689731,53.928625],[-9.689742,53.928894],[-9.689286,53.928901],[-9.689297,53.92917],[-9.68884,53.929177],[-9.688851,53.929446],[-9.688394,53.929453],[-9.688405,53.929722],[-9.687949,53.929728],[-9.687955,53.929877],[-9.68805,53.92986],[-9.688575,53.929759],[-9.68901,53.92967],[-9.689243,53.929631],[-9.689409,53.929592],[-9.68946,53.929569],[-9.689555,53.929527],[-9.689791,53.929415],[-9.690514,53.929068],[-9.690744,53.928949],[-9.690855,53.928901],[-9.690961,53.928847],[-9.691026,53.928803],[-9.691026,53.928803],[-9.691026,53.928803],[-9.691311,53.928663],[-9.691522,53.928563],[-9.691728,53.928474],[-9.691779,53.928451],[-9.691856,53.928343],[-9.691755,53.928289],[-9.691626,53.928214],[-9.691509,53.928142],[-9.691465,53.928103],[-9.691466,53.928062],[-9.691521,53.92802],[-9.69161,53.92798],[-9.691743,53.927951],[-9.691833,53.92791],[-9.691894,53.927838],[-9.691951,53.9278],[-9.692054,53.927759],[-9.692167,53.927736],[-9.692274,53.92771],[-9.692319,53.927674],[-9.692381,53.927616],[-9.692456,53.927549],[-9.69257,53.927474],[-9.692617,53.927432],[-9.69264,53.927362],[-9.692724,53.927267],[-9.692813,53.927148],[-9.692832,53.927088],[-9.692818,53.927057],[-9.692824,53.927021],[-9.692864,53.926981],[-9.692922,53.926955],[-9.693009,53.926954],[-9.693057,53.926951],[-9.693101,53.926934],[-9.693128,53.926873],[-9.693151,53.926759],[-9.693195,53.926719],[-9.693247,53.926667],[-9.69326,53.926633],[-9.693257,53.926484],[-9.693256,53.926363],[-9.693255,53.926304],[-9.693225,53.926255],[-9.69322,53.926197],[-9.693272,53.926128],[-9.693353,53.926082],[-9.693384,53.926059],[-9.693376,53.926035],[-9.693342,53.926034],[-9.693256,53.926028],[-9.693059,53.926017],[-9.692894,53.925991],[-9.692784,53.925944],[-9.69267,53.925871],[-9.692627,53.925831],[-9.692061,53.925839],[-9.692034,53.92517],[-9.691969,53.925079],[-9.69188,53.924943],[-9.691544,53.924948],[-9.69154,53.924956],[-9.691523,53.925013],[-9.691434,53.925073],[-9.691318,53.925135],[-9.691091,53.925204],[-9.690959,53.925188],[-9.690881,53.9252],[-9.690738,53.925179],[-9.690658,53.925138],[-9.690614,53.92506],[-9.690588,53.925041],[-9.690507,53.925052],[-9.69045,53.925084],[-9.690405,53.925135],[-9.690324,53.92519],[-9.690292,53.925215],[-9.690298,53.925295],[-9.690269,53.92537],[-9.690275,53.925412],[-9.69029,53.92544],[-9.690273,53.925466],[-9.690078,53.925533],[-9.690006,53.925518],[-9.689942,53.925485],[-9.689785,53.925474],[-9.689724,53.925481],[-9.689571,53.925436],[-9.689422,53.92539],[-9.689287,53.925329],[-9.689183,53.925264],[-9.689094,53.925217],[-9.68899,53.925172],[-9.689018,53.925882],[-9.687497,53.925904],[-9.687424,53.924108],[-9.68756,53.924106],[-9.68751,53.924092],[-9.687333,53.924081],[-9.687126,53.92406],[-9.687026,53.924024],[-9.686849,53.923961],[-9.68676,53.923911],[-9.686699,53.923844],[-9.686678,53.923785],[-9.686718,53.923737],[-9.686829,53.923668],[-9.686921,53.923582],[-9.686959,53.923505],[-9.686981,53.92339],[-9.687004,53.923316],[-9.687061,53.923241],[-9.687084,53.923199],[-9.687085,53.923139],[-9.687059,53.923045],[-9.687056,53.922995],[-9.687077,53.922915],[-9.687114,53.92285],[-9.687128,53.922758],[-9.687096,53.922655],[-9.687044,53.922591],[-9.687003,53.922547],[-9.686961,53.922472],[-9.686972,53.922417],[-9.687049,53.922332],[-9.687207,53.922202],[-9.687338,53.922106],[-9.68739,53.922071],[-9.6874,53.922042],[-9.687387,53.922013],[-9.687408,53.921967],[-9.687504,53.9219],[-9.687712,53.921769],[-9.687799,53.921707],[-9.687834,53.921673],[-9.687858,53.921637],[-9.687854,53.921542],[-9.68782,53.921375],[-9.687807,53.921333],[-9.687824,53.921311],[-9.687875,53.921285],[-9.688006,53.921221],[-9.688141,53.921106],[-9.688251,53.921012],[-9.688417,53.920882],[-9.688583,53.920797],[-9.688668,53.920709],[-9.688774,53.920602],[-9.688834,53.92054],[-9.688876,53.920379],[-9.688889,53.920309],[-9.688876,53.920251],[-9.688823,53.920168],[-9.688755,53.920097],[-9.688725,53.920042],[-9.688737,53.919976],[-9.68875,53.919893],[-9.688724,53.919837],[-9.688655,53.919736],[-9.688408,53.91961],[-9.688406,53.919608],[-9.68839,53.919601],[-9.68802,53.919416],[-9.687846,53.919325],[-9.687702,53.919226],[-9.687567,53.919105],[-9.687509,53.919024],[-9.68742,53.918969],[-9.687207,53.918893],[-9.687023,53.918805],[-9.68684,53.918734],[-9.686572,53.918669],[-9.686274,53.918544],[-9.686156,53.918448],[-9.686056,53.918318],[-9.686094,53.918304],[-9.686094,53.918304],[-9.686055,53.918255],[-9.686044,53.918241],[-9.685978,53.918204],[-9.685824,53.918126],[-9.685785,53.918101],[-9.685637,53.918055],[-9.68548,53.917985],[-9.685399,53.91793],[-9.685242,53.917774],[-9.685096,53.917601],[-9.685026,53.91755],[-9.684928,53.917534],[-9.684848,53.917555],[-9.684811,53.917695],[-9.684722,53.917795],[-9.684601,53.917852],[-9.684521,53.917869],[-9.683123,53.918086],[-9.682824,53.918133],[-9.682706,53.918147],[-9.682248,53.918202],[-9.681817,53.918254],[-9.681564,53.918284],[-9.681369,53.918307],[-9.680974,53.918355],[-9.680455,53.918417],[-9.680073,53.918463],[-9.679586,53.918521],[-9.679169,53.918571],[-9.678698,53.918627],[-9.678207,53.918686],[-9.678204,53.918687],[-9.677756,53.918747],[-9.67732,53.918805],[-9.676909,53.918861],[-9.676457,53.918921],[-9.675953,53.918989],[-9.675471,53.919054],[-9.675017,53.919115],[-9.674652,53.919164],[-9.674582,53.919173],[-9.674144,53.919232],[-9.673669,53.919296],[-9.673251,53.919352],[-9.672851,53.919406],[-9.672445,53.91946],[-9.671932,53.919529],[-9.671829,53.919543],[-9.67158,53.919577],[-9.671454,53.919594],[-9.671075,53.919644],[-9.670563,53.919713],[-9.670079,53.919778],[-9.669615,53.91984],[-9.66924,53.919891],[-9.668733,53.919959],[-9.668729,53.919959],[-9.668249,53.920029],[-9.667854,53.920087],[-9.667057,53.920202],[-9.666506,53.920282],[-9.665641,53.920408],[-9.66522,53.918637],[-9.665417,53.918575],[-9.665462,53.918548],[-9.665606,53.918489],[-9.665874,53.91839],[-9.66589,53.918384],[-9.66614,53.918292],[-9.666433,53.918185],[-9.666458,53.918176],[-9.666708,53.918088],[-9.667029,53.91798],[-9.667044,53.917988],[-9.667107,53.918007],[-9.667174,53.918028],[-9.667192,53.918031],[-9.667291,53.918047],[-9.667482,53.918036],[-9.667646,53.918019],[-9.667777,53.918006],[-9.668117,53.917967],[-9.668408,53.917934],[-9.668581,53.917915],[-9.668992,53.917868],[-9.669056,53.917862],[-9.669461,53.91782],[-9.669499,53.917816],[-9.66988,53.917776],[-9.669897,53.917774],[-9.670096,53.917755],[-9.670379,53.917737],[-9.670415,53.917735],[-9.670794,53.917713],[-9.671036,53.917699],[-9.671292,53.917682],[-9.671791,53.91765],[-9.671817,53.917648],[-9.672297,53.917615],[-9.672442,53.917604],[-9.672707,53.917586],[-9.673064,53.917562],[-9.673141,53.917557],[-9.673599,53.917527],[-9.6736,53.917527],[-9.674003,53.917492],[-9.674097,53.917477],[-9.674189,53.917463],[-9.674315,53.917423],[-9.674413,53.917388],[-9.674459,53.917369],[-9.674509,53.917349],[-9.674541,53.917336],[-9.674753,53.917239],[-9.674838,53.917197],[-9.674887,53.917173],[-9.675269,53.916983],[-9.675278,53.916979],[-9.675597,53.916824],[-9.675701,53.916772],[-9.67605,53.9166],[-9.676106,53.916582],[-9.676155,53.916567],[-9.676318,53.916535],[-9.676506,53.916512],[-9.676887,53.916466],[-9.676989,53.916454],[-9.677436,53.916404],[-9.677613,53.916384],[-9.677898,53.916353],[-9.678386,53.916299],[-9.678467,53.91629],[-9.678826,53.916249],[-9.679161,53.916211],[-9.67931,53.916194],[-9.679739,53.916144],[-9.679858,53.91613],[-9.680298,53.916076],[-9.680452,53.916058],[-9.68065,53.916033],[-9.68087,53.916006],[-9.681104,53.915977],[-9.6813,53.915953],[-9.68155,53.915926],[-9.681954,53.915883],[-9.682052,53.915873],[-9.682412,53.91583],[-9.682599,53.915808],[-9.68336,53.915725],[-9.683574,53.915701],[-9.683583,53.91568],[-9.683594,53.915652],[-9.683426,53.915669],[-9.68306,53.915702],[-9.682487,53.915769],[-9.682052,53.915822],[-9.681962,53.915833],[-9.681636,53.915872],[-9.681293,53.91591],[-9.681086,53.915935],[-9.680572,53.915997],[-9.680202,53.916039],[-9.679901,53.916074],[-9.67972,53.916093],[-9.679333,53.916135],[-9.679263,53.916144],[-9.67878,53.9162],[-9.678728,53.916206],[-9.678382,53.916249],[-9.678159,53.916277],[-9.677854,53.916312],[-9.677737,53.916325],[-9.677397,53.916362],[-9.677048,53.916399],[-9.67689,53.916419],[-9.676542,53.916462],[-9.676483,53.91647],[-9.676188,53.916505],[-9.676087,53.916538],[-9.676018,53.91656],[-9.675787,53.916666],[-9.675711,53.916704],[-9.675544,53.916787],[-9.675285,53.916919],[-9.675209,53.916958],[-9.674883,53.917114],[-9.674873,53.917119],[-9.674708,53.917202],[-9.674506,53.917295],[-9.674498,53.917299],[-9.674471,53.917311],[-9.674348,53.917362],[-9.674267,53.917386],[-9.674139,53.917426],[-9.674095,53.917433],[-9.673941,53.917458],[-9.673599,53.917483],[-9.673574,53.917485],[-9.673086,53.917515],[-9.673032,53.917519],[-9.672684,53.91754],[-9.67221,53.917568],[-9.672201,53.917569],[-9.67178,53.917594],[-9.67129,53.917627],[-9.670807,53.91766],[-9.67076,53.917664],[-9.67042,53.917685],[-9.670373,53.917689],[-9.670179,53.917705],[-9.669832,53.917735],[-9.66981,53.917737],[-9.669407,53.917775],[-9.669378,53.917777],[-9.66898,53.917813],[-9.668975,53.917813],[-9.668556,53.91786],[-9.66839,53.917879],[-9.668106,53.917911],[-9.66776,53.917951],[-9.667638,53.917964],[-9.667469,53.917981],[-9.6673,53.91799],[-9.667209,53.917976],[-9.667151,53.917957],[-9.667087,53.917936],[-9.667067,53.917904],[-9.666953,53.917799],[-9.666835,53.917697],[-9.666635,53.917523],[-9.66647,53.917386],[-9.666307,53.917168],[-9.666204,53.916963],[-9.666106,53.91674],[-9.665984,53.916499],[-9.665911,53.916293],[-9.665883,53.91616],[-9.667053,53.916043],[-9.667534,53.915995],[-9.667968,53.915952],[-9.668202,53.915928],[-9.668384,53.915908],[-9.668788,53.915862],[-9.669235,53.915812],[-9.669723,53.915757],[-9.670176,53.915706],[-9.670635,53.915655],[-9.67116,53.915596],[-9.671539,53.915553],[-9.671678,53.91553],[-9.672008,53.915483],[-9.672238,53.915451],[-9.672412,53.915433],[-9.672631,53.91541],[-9.672891,53.915377],[-9.673023,53.91536],[-9.673421,53.915325],[-9.673832,53.915288],[-9.674229,53.915252],[-9.674424,53.915235],[-9.67467,53.915213],[-9.675122,53.915172],[-9.675586,53.91513],[-9.67608,53.915086],[-9.676396,53.915058],[-9.676385,53.914792],[-9.677755,53.914773],[-9.677744,53.914503],[-9.679113,53.914484],[-9.679102,53.914215],[-9.681841,53.914176],[-9.681852,53.914446],[-9.681395,53.914452],[-9.681399,53.914559],[-9.681471,53.914551],[-9.684542,53.914228],[-9.68456,53.914273],[-9.68471,53.914395],[-9.684877,53.914548],[-9.684946,53.914568],[-9.685026,53.914576],[-9.685147,53.914588],[-9.685233,53.914631],[-9.685224,53.914689],[-9.685311,53.914699],[-9.685486,53.914728],[-9.685574,53.914751],[-9.685634,53.914789],[-9.685707,53.914808],[-9.685842,53.914779],[-9.685986,53.914768],[-9.686133,53.914818],[-9.686226,53.914808],[-9.686227,53.914781],[-9.686377,53.914791],[-9.68648,53.914775],[-9.686554,53.914772],[-9.686627,53.914789],[-9.686668,53.914748],[-9.686739,53.914752],[-9.68681,53.914792],[-9.686925,53.914821],[-9.687017,53.914652],[-9.686999,53.914459],[-9.686954,53.914207],[-9.686875,53.913767],[-9.686815,53.913588],[-9.686768,53.913461],[-9.686716,53.913331],[-9.686684,53.913259],[-9.686658,53.913201],[-9.686591,53.913034],[-9.68648,53.91278],[-9.686397,53.912554],[-9.686226,53.912225],[-9.686097,53.91215],[-9.686042,53.911989],[-9.686067,53.911946],[-9.686106,53.911923],[-9.686126,53.911905],[-9.686083,53.911769],[-9.68608,53.911708],[-9.685999,53.911642],[-9.685953,53.91156],[-9.685952,53.911549],[-9.683875,53.911578],[-9.683912,53.912476],[-9.682391,53.912497],[-9.682427,53.913395],[-9.680906,53.913417],[-9.680869,53.912519],[-9.679348,53.91254],[-9.674785,53.912604],[-9.674749,53.911706],[-9.671707,53.911748],[-9.671743,53.912646],[-9.668701,53.912688],[-9.668665,53.91179],[-9.667144,53.911811],[-9.666858,53.911815],[-9.6667,53.912204],[-9.666535,53.912247],[-9.666211,53.912307],[-9.665972,53.912352],[-9.665697,53.91244],[-9.665468,53.912528],[-9.665167,53.91265],[-9.664707,53.912725],[-9.664466,53.912834],[-9.664299,53.913001],[-9.663842,53.913214],[-9.663489,53.913367],[-9.663283,53.913412],[-9.663025,53.913375],[-9.662862,53.913365],[-9.662775,53.913401],[-9.662704,53.913635],[-9.662721,53.91387],[-9.662972,53.914112],[-9.663022,53.914283],[-9.662901,53.914422],[-9.662404,53.914542],[-9.661449,53.914685],[-9.661198,53.914666],[-9.660947,53.914582],[-9.660623,53.91457],[-9.660393,53.914605],[-9.660399,53.914744],[-9.659921,53.914751],[-9.659625,53.914956],[-9.659504,53.915104],[-9.659497,53.915222],[-9.659785,53.915344],[-9.65987,53.915455],[-9.659585,53.91561],[-9.658694,53.915681],[-9.658578,53.915724],[-9.658257,53.915755],[-9.657808,53.915671],[-9.65756,53.915642],[-9.657392,53.915665],[-9.657124,53.915844],[-9.657089,53.915955],[-9.656921,53.916063],[-9.656763,53.916105],[-9.656344,53.916081],[-9.65619,53.916022],[-9.656114,53.915951],[-9.656067,53.915866],[-9.656122,53.915797],[-9.656087,53.915652],[-9.655763,53.915428],[-9.655628,53.915444],[-9.655552,53.915588],[-9.655492,53.915823],[-9.655466,53.916113],[-9.655424,53.916263],[-9.655384,53.916361],[-9.65539,53.916432],[-9.655397,53.916572],[-9.655391,53.916697],[-9.655361,53.916784],[-9.655266,53.916858],[-9.655245,53.916927],[-9.65522,53.916978],[-9.655241,53.917065],[-9.655311,53.91711],[-9.655406,53.917143],[-9.655517,53.917138],[-9.655637,53.91712],[-9.655856,53.917071],[-9.655977,53.917066],[-9.656035,53.91709],[-9.656074,53.917123],[-9.656119,53.917174],[-9.656153,53.917242],[-9.656166,53.917307],[-9.656129,53.917464],[-9.656118,53.917609],[-9.656135,53.917639],[-9.656248,53.917715],[-9.656349,53.917737],[-9.656478,53.917725],[-9.656643,53.917656],[-9.656758,53.91756],[-9.656797,53.917516],[-9.656952,53.917449],[-9.657087,53.917406],[-9.657116,53.917403],[-9.657174,53.917413],[-9.657321,53.917448],[-9.657411,53.917489],[-9.657534,53.917575],[-9.657547,53.917595],[-9.657564,53.917809],[-9.657566,53.917918],[-9.657552,53.918048],[-9.657509,53.918189],[-9.657501,53.918193],[-9.657456,53.918282],[-9.657436,53.918364],[-9.657454,53.918407],[-9.657563,53.918523],[-9.657649,53.918637],[-9.657669,53.918702],[-9.657667,53.918774],[-9.657606,53.918853],[-9.657515,53.918967],[-9.657468,53.919007],[-9.657467,53.919008],[-9.65741,53.919057],[-9.6574,53.919066],[-9.657282,53.919117],[-9.657168,53.919181],[-9.657133,53.919208],[-9.657035,53.919329],[-9.657014,53.919397],[-9.656979,53.919427],[-9.656883,53.919479],[-9.656684,53.919543],[-9.656495,53.919634],[-9.656427,53.919663],[-9.656193,53.919647],[-9.656111,53.919642],[-9.656069,53.919683],[-9.655871,53.919851],[-9.655775,53.919903],[-9.655715,53.919895],[-9.655583,53.919855],[-9.655375,53.919804],[-9.655303,53.919821],[-9.65517,53.919927],[-9.654996,53.920066],[-9.654962,53.920112],[-9.654946,53.920159],[-9.654976,53.920317],[-9.655002,53.920416],[-9.654986,53.920476],[-9.654937,53.920539],[-9.654882,53.920563],[-9.654782,53.92057],[-9.654628,53.92056],[-9.654522,53.920562],[-9.654435,53.92059],[-9.654273,53.92068],[-9.654187,53.920758],[-9.654073,53.920803],[-9.65391,53.920856],[-9.653757,53.920879],[-9.65367,53.920913],[-9.653825,53.920992],[-9.653826,53.920993],[-9.653826,53.920994],[-9.653832,53.921045],[-9.653832,53.921046],[-9.653832,53.921047],[-9.653832,53.921049],[-9.653831,53.92105],[-9.653831,53.921051],[-9.65383,53.921053],[-9.653829,53.921054],[-9.653829,53.921054],[-9.653808,53.921086],[-9.653807,53.921088],[-9.653804,53.921092],[-9.653802,53.921096],[-9.653795,53.921107],[-9.653791,53.921133],[-9.653813,53.921212],[-9.653871,53.921299],[-9.653993,53.921472],[-9.653993,53.921472],[-9.653994,53.921473],[-9.653994,53.921473],[-9.654084,53.921626],[-9.654085,53.921627],[-9.654085,53.921628],[-9.654086,53.921629],[-9.654136,53.921767],[-9.654159,53.921792],[-9.65416,53.921793],[-9.65416,53.921794],[-9.654161,53.921794],[-9.65419,53.921836],[-9.654191,53.921837],[-9.654191,53.921839],[-9.654192,53.921841],[-9.654192,53.921843],[-9.654192,53.921845],[-9.654189,53.921907],[-9.654197,53.921947],[-9.654302,53.922095],[-9.654303,53.922095],[-9.654303,53.922096],[-9.654303,53.922096],[-9.65437,53.922206],[-9.654403,53.922261],[-9.654512,53.922363],[-9.654602,53.9224],[-9.654603,53.922401],[-9.654603,53.922401],[-9.654604,53.922401],[-9.654703,53.922447],[-9.654706,53.922448],[-9.654708,53.922449],[-9.65471,53.92245],[-9.654879,53.922575],[-9.654881,53.922576],[-9.654882,53.922578],[-9.654884,53.922579],[-9.654885,53.922581],[-9.654886,53.922583],[-9.654887,53.922585],[-9.654887,53.922587],[-9.654887,53.922588],[-9.654887,53.922589],[-9.654888,53.922625],[-9.654887,53.922627],[-9.654887,53.922628],[-9.654886,53.92263],[-9.654886,53.922632],[-9.654884,53.922634],[-9.654883,53.922635],[-9.654881,53.922637],[-9.65488,53.922639],[-9.654878,53.92264],[-9.654875,53.922641],[-9.654873,53.922643],[-9.65487,53.922644],[-9.654868,53.922644],[-9.654865,53.922645],[-9.654862,53.922646],[-9.654859,53.922647],[-9.654858,53.922647],[-9.654801,53.922654],[-9.654785,53.922665],[-9.654656,53.922762],[-9.654579,53.922835],[-9.654578,53.922836],[-9.654577,53.922836],[-9.654575,53.922837],[-9.654514,53.922879],[-9.654476,53.922932],[-9.654457,53.923037],[-9.654437,53.923183],[-9.654486,53.923242],[-9.654487,53.923244],[-9.654488,53.923246],[-9.654489,53.923248],[-9.65449,53.923249],[-9.65449,53.923251],[-9.65449,53.923253],[-9.654483,53.923346],[-9.654482,53.923348],[-9.654482,53.923349],[-9.654481,53.923351],[-9.65443,53.923458],[-9.654429,53.92346],[-9.654428,53.923462],[-9.654427,53.923463],[-9.654425,53.923465],[-9.654424,53.923465],[-9.65438,53.923502],[-9.654374,53.923529],[-9.654372,53.923602],[-9.654372,53.923602],[-9.654372,53.923603],[-9.654372,53.923604],[-9.654351,53.923697],[-9.654334,53.92378],[-9.654334,53.923782],[-9.654333,53.923784],[-9.654332,53.923786],[-9.654331,53.923787],[-9.654329,53.923789],[-9.654329,53.923789],[-9.654282,53.923836],[-9.654268,53.92389],[-9.654262,53.923974],[-9.654262,53.923975],[-9.654262,53.923976],[-9.654262,53.923977],[-9.654246,53.924028],[-9.654246,53.92403],[-9.654245,53.924032],[-9.654243,53.924034],[-9.654242,53.924035],[-9.654242,53.924036],[-9.65421,53.924068],[-9.654209,53.92407],[-9.654207,53.924071],[-9.654205,53.924073],[-9.654202,53.924074],[-9.6542,53.924075],[-9.654197,53.924076],[-9.654196,53.924077],[-9.654136,53.924097],[-9.654133,53.924098],[-9.654131,53.924099],[-9.654128,53.924099],[-9.654124,53.9241],[-9.654121,53.9241],[-9.654118,53.9241],[-9.654115,53.9241],[-9.654114,53.9241],[-9.654058,53.924097],[-9.653909,53.92409],[-9.653857,53.924108],[-9.65378,53.924143],[-9.653778,53.924144],[-9.653775,53.924145],[-9.653772,53.924146],[-9.653769,53.924147],[-9.653766,53.924147],[-9.653763,53.924148],[-9.65376,53.924148],[-9.653757,53.924148],[-9.653755,53.924148],[-9.653703,53.924147],[-9.653601,53.924153],[-9.653598,53.924153],[-9.653595,53.924153],[-9.653592,53.924153],[-9.653589,53.924152],[-9.653586,53.924152],[-9.653583,53.924151],[-9.65358,53.924151],[-9.653577,53.92415],[-9.653575,53.924149],[-9.653572,53.924147],[-9.65357,53.924146],[-9.653568,53.924145],[-9.653566,53.924143],[-9.653565,53.924142],[-9.653545,53.924123],[-9.653466,53.924132],[-9.653463,53.924132],[-9.653461,53.924133],[-9.653458,53.924133],[-9.653385,53.924133],[-9.653335,53.924161],[-9.653334,53.924161],[-9.653333,53.924162],[-9.653332,53.924162],[-9.653289,53.924182],[-9.653286,53.924184],[-9.653284,53.924185],[-9.653281,53.924185],[-9.653278,53.924186],[-9.653277,53.924186],[-9.65315,53.92421],[-9.653125,53.924224],[-9.653108,53.92426],[-9.653108,53.924261],[-9.653108,53.924262],[-9.653108,53.924262],[-9.653088,53.924295],[-9.653096,53.924317],[-9.653138,53.924346],[-9.653363,53.924414],[-9.653364,53.924414],[-9.653364,53.924414],[-9.653365,53.924414],[-9.653495,53.924459],[-9.653498,53.92446],[-9.6535,53.924461],[-9.653503,53.924462],[-9.653505,53.924463],[-9.653507,53.924465],[-9.653509,53.924466],[-9.653509,53.924466],[-9.653543,53.9245],[-9.653544,53.924501],[-9.653544,53.924502],[-9.653545,53.924502],[-9.653598,53.924569],[-9.653651,53.92461],[-9.653732,53.924643],[-9.653841,53.924675],[-9.653843,53.924675],[-9.653846,53.924676],[-9.653848,53.924677],[-9.654002,53.924751],[-9.654004,53.924752],[-9.654006,53.924753],[-9.654008,53.924754],[-9.654076,53.924803],[-9.654078,53.924804],[-9.654079,53.924806],[-9.654081,53.924807],[-9.654082,53.924809],[-9.654083,53.924811],[-9.654084,53.924813],[-9.654084,53.924815],[-9.654084,53.924816],[-9.654084,53.924818],[-9.654084,53.92482],[-9.654084,53.924821],[-9.65407,53.924863],[-9.654073,53.924917],[-9.654125,53.924975]],[[-9.686959,53.927855],[-9.686503,53.927861],[-9.686492,53.927592],[-9.686948,53.927586],[-9.686959,53.927855]],[[-9.686013,53.927059],[-9.685557,53.927066],[-9.685546,53.926796],[-9.686003,53.92679],[-9.686013,53.927059]],[[-9.662971,53.916283],[-9.663506,53.916259],[-9.664047,53.916235],[-9.664609,53.91621],[-9.665254,53.916182],[-9.665781,53.916158],[-9.665802,53.916241],[-9.66588,53.916457],[-9.665983,53.916669],[-9.666126,53.916973],[-9.666234,53.917205],[-9.666358,53.917384],[-9.666413,53.917423],[-9.666504,53.917503],[-9.666769,53.917741],[-9.666918,53.917868],[-9.666936,53.917926],[-9.666854,53.917969],[-9.666441,53.918125],[-9.666406,53.918138],[-9.666092,53.918251],[-9.665944,53.918304],[-9.665695,53.918395],[-9.665471,53.918477],[-9.665329,53.918546],[-9.665253,53.918582],[-9.665171,53.918579],[-9.665045,53.918564],[-9.664954,53.918552],[-9.664705,53.918518],[-9.66448,53.91849],[-9.664255,53.918461],[-9.664021,53.918431],[-9.663769,53.918398],[-9.663593,53.918375],[-9.66323,53.918327],[-9.663124,53.918314],[-9.662851,53.918279],[-9.662492,53.918217],[-9.662489,53.918216],[-9.662001,53.918141],[-9.661974,53.918138],[-9.661606,53.918094],[-9.661505,53.918097],[-9.658738,53.916469],[-9.659488,53.916436],[-9.660164,53.916406],[-9.660714,53.916382],[-9.661286,53.916357],[-9.661858,53.916332],[-9.662357,53.91631],[-9.662971,53.916283]],[[-9.675864,53.913181],[-9.675408,53.913188],[-9.675397,53.912918],[-9.675853,53.912912],[-9.675864,53.913181]],[[-9.674538,53.914278],[-9.674549,53.914548],[-9.673179,53.914567],[-9.673169,53.914297],[-9.674081,53.914285],[-9.674071,53.914015],[-9.67544,53.913996],[-9.675451,53.914266],[-9.674538,53.914278]],[[-9.671795,53.925641],[-9.671784,53.925371],[-9.672241,53.925365],[-9.67223,53.925095],[-9.6736,53.925076],[-9.67361,53.925346],[-9.673154,53.925352],[-9.673165,53.925621],[-9.672708,53.925628],[-9.672719,53.925897],[-9.671806,53.92591],[-9.671795,53.925641]],[[-9.659775,53.922033],[-9.659753,53.921494],[-9.660666,53.921481],[-9.660688,53.92202],[-9.659775,53.922033]],[[-9.66948,53.924864],[-9.669469,53.924594],[-9.670839,53.924575],[-9.67085,53.924845],[-9.671306,53.924838],[-9.671317,53.925108],[-9.669947,53.925127],[-9.669937,53.924858],[-9.66948,53.924864]],[[-9.668631,53.926493],[-9.668642,53.926763],[-9.667272,53.926782],[-9.667262,53.926512],[-9.668175,53.9265],[-9.668164,53.92623],[-9.669077,53.926218],[-9.669088,53.926487],[-9.668631,53.926493]],[[-9.670468,53.926737],[-9.670012,53.926744],[-9.670001,53.926474],[-9.66999,53.926205],[-9.670903,53.926192],[-9.670914,53.926462],[-9.670458,53.926468],[-9.670468,53.926737]]],[[[-9.680443,53.914659],[-9.68049,53.914654],[-9.680482,53.914465],[-9.679569,53.914478],[-9.67958,53.914747],[-9.678211,53.914766],[-9.678216,53.914893],[-9.678414,53.914872],[-9.678799,53.914832],[-9.679299,53.914779],[-9.679762,53.91473],[-9.680221,53.914682],[-9.680443,53.914659]]],[[[-9.676266,53.932353],[-9.67663,53.932306],[-9.676577,53.930966],[-9.676555,53.930427],[-9.676098,53.930434],[-9.676088,53.930164],[-9.675174,53.930177],[-9.675164,53.929907],[-9.67562,53.929901],[-9.675609,53.929632],[-9.676523,53.929619],[-9.676533,53.929888],[-9.676544,53.930158],[-9.677001,53.930151],[-9.677012,53.930421],[-9.677925,53.930408],[-9.677914,53.930139],[-9.677903,53.929869],[-9.67836,53.929863],[-9.678338,53.929324],[-9.678795,53.929317],[-9.678784,53.929048],[-9.678773,53.928779],[-9.67786,53.928791],[-9.677849,53.928522],[-9.677393,53.928528],[-9.677403,53.928798],[-9.67649,53.92881],[-9.676501,53.92908],[-9.674675,53.929105],[-9.674685,53.929375],[-9.673772,53.929388],[-9.673783,53.929657],[-9.67287,53.92967],[-9.672859,53.9294],[-9.672402,53.929407],[-9.672392,53.929137],[-9.672848,53.929131],[-9.672837,53.928861],[-9.673294,53.928855],[-9.673273,53.928316],[-9.671903,53.928335],[-9.671892,53.928066],[-9.671435,53.928072],[-9.671446,53.928342],[-9.67099,53.928348],[-9.671,53.928617],[-9.670544,53.928624],[-9.670565,53.929163],[-9.670109,53.929169],[-9.67013,53.929708],[-9.670587,53.929702],[-9.670598,53.929971],[-9.670141,53.929977],[-9.670152,53.930247],[-9.670162,53.930516],[-9.670619,53.93051],[-9.67063,53.930779],[-9.671086,53.930773],[-9.671097,53.931043],[-9.671554,53.931036],[-9.671565,53.931306],[-9.670651,53.931318],[-9.670662,53.931588],[-9.67035,53.931592],[-9.670405,53.93165],[-9.670568,53.931799],[-9.67071,53.931898],[-9.670863,53.932009],[-9.67098,53.93209],[-9.671208,53.932238],[-9.671365,53.932336],[-9.671525,53.932446],[-9.671643,53.932507],[-9.67177,53.932563],[-9.671955,53.932547],[-9.672267,53.932496],[-9.672459,53.932491],[-9.672842,53.932549],[-9.673112,53.932585],[-9.673454,53.932608],[-9.673713,53.932606],[-9.674145,53.932583],[-9.674437,53.932604],[-9.674562,53.932598],[-9.674901,53.93256],[-9.675117,53.932545],[-9.675479,53.932521],[-9.676003,53.9324],[-9.676266,53.932353]],[[-9.672924,53.931017],[-9.672956,53.931826],[-9.672499,53.931832],[-9.67251,53.932101],[-9.672054,53.932108],[-9.672043,53.931838],[-9.67201,53.93103],[-9.672,53.93076],[-9.672456,53.930754],[-9.672467,53.931023],[-9.672924,53.931017]]],[[[-9.669656,53.930826],[-9.669721,53.930896],[-9.669717,53.930792],[-9.669624,53.930793],[-9.669656,53.930826]]],[[[-9.683383,53.929793],[-9.684296,53.92978],[-9.684285,53.92951],[-9.684274,53.929241],[-9.683817,53.929247],[-9.683807,53.928978],[-9.68335,53.928984],[-9.683361,53.929254],[-9.683383,53.929793]]],[[[-9.674207,53.928842],[-9.674196,53.928573],[-9.674653,53.928566],[-9.674642,53.928297],[-9.673729,53.92831],[-9.673751,53.928849],[-9.674207,53.928842]]]]}}]}
