{"type":"FeatureCollection","features":[{"type":"Feature","properties":{"source_fid":418985,"county":"Mayo","bog_geom_ha":137.86790256480793,"low15_pct":99.286640726329438,"low15_ha":136.8844090964468,"overlay_ha":136.90412255450175,"area_delta":0.019713458054951616},"geometry":{"type":"MultiPolygon","coordinates":[[[[-9.927383,54.248785],[-9.927424,54.2488],[-9.927733,54.248918],[-9.927669,54.247562],[-9.929203,54.247538],[-9.929243,54.2484],[-9.929264,54.2484],[-9.929317,54.248381],[-9.929318,54.24838],[-9.929342,54.248322],[-9.929343,54.248269],[-9.929348,54.248227],[-9.929392,54.248168],[-9.929377,54.24812],[-9.929335,54.248091],[-9.929325,54.248054],[-9.929326,54.248003],[-9.92935,54.247943],[-9.929387,54.247929],[-9.929411,54.247921],[-9.929454,54.24791],[-9.929499,54.247937],[-9.929531,54.248011],[-9.92954,54.248087],[-9.929576,54.248146],[-9.929614,54.248261],[-9.929636,54.24835],[-9.929631,54.248376],[-9.929624,54.248415],[-9.929613,54.24843],[-9.930778,54.248411],[-9.935328,54.248338],[-9.935323,54.248317],[-9.935316,54.248284],[-9.935302,54.248219],[-9.935194,54.247617],[-9.935072,54.247002],[-9.934972,54.246486],[-9.934928,54.246241],[-9.934925,54.246228],[-9.934918,54.246188],[-9.934913,54.246155],[-9.935616,54.246106],[-9.93677,54.246009],[-9.937684,54.245902],[-9.938072,54.245853],[-9.93808,54.245816],[-9.938086,54.245778],[-9.938054,54.245573],[-9.938016,54.24533],[-9.938016,54.245321],[-9.938009,54.245254],[-9.938,54.245149],[-9.937984,54.245006],[-9.937978,54.244965],[-9.937964,54.244871],[-9.937937,54.244629],[-9.937882,54.244323],[-9.937837,54.243988],[-9.937887,54.243964],[-9.937919,54.243965],[-9.938305,54.243974],[-9.939549,54.243986],[-9.94123,54.244008],[-9.942252,54.244022],[-9.942986,54.244031],[-9.944077,54.244054],[-9.944382,54.244057],[-9.944365,54.2437],[-9.945645,54.243679],[-9.945693,54.243648],[-9.945719,54.243631],[-9.945888,54.243465],[-9.945856,54.242777],[-9.94662,54.242765],[-9.94652,54.242681],[-9.946319,54.242505],[-9.94619,54.242397],[-9.945981,54.242213],[-9.945846,54.242119],[-9.945408,54.241805],[-9.945243,54.241698],[-9.945099,54.241599],[-9.945056,54.241567],[-9.94462,54.241574],[-9.944633,54.241843],[-9.943713,54.241858],[-9.9437,54.241589],[-9.943687,54.241319],[-9.944607,54.241305],[-9.944598,54.241106],[-9.944578,54.24108],[-9.944472,54.240907],[-9.944318,54.240653],[-9.944242,54.240509],[-9.94409,54.240423],[-9.943839,54.240346],[-9.943752,54.240279],[-9.94357,54.240161],[-9.943485,54.240108],[-9.943191,54.239985],[-9.943107,54.239884],[-9.943029,54.239813],[-9.942889,54.239676],[-9.942761,54.239536],[-9.942661,54.239454],[-9.942546,54.239235],[-9.942546,54.239235],[-9.942469,54.239098],[-9.942321,54.238877],[-9.942118,54.238579],[-9.94195,54.238285],[-9.941729,54.237917],[-9.941541,54.237644],[-9.941315,54.23727],[-9.941156,54.236997],[-9.941021,54.236788],[-9.940895,54.236568],[-9.94074,54.236308],[-9.940599,54.236074],[-9.940443,54.235802],[-9.94037,54.235681],[-9.940284,54.235507],[-9.940162,54.23534],[-9.940041,54.235145],[-9.939958,54.234989],[-9.93992,54.234921],[-9.939893,54.234923],[-9.939832,54.234846],[-9.939728,54.234599],[-9.939688,54.234523],[-9.939651,54.234484],[-9.939463,54.234308],[-9.939338,54.234088],[-9.93926,54.23391],[-9.939162,54.233888],[-9.9391,54.233831],[-9.939087,54.233733],[-9.939084,54.233611],[-9.93899,54.233546],[-9.938943,54.233541],[-9.938458,54.233465],[-9.938063,54.233401],[-9.937855,54.233364],[-9.937383,54.23328],[-9.937163,54.233245],[-9.937159,54.23326],[-9.937136,54.233359],[-9.93714,54.233493],[-9.937145,54.233706],[-9.93714,54.233976],[-9.937127,54.234313],[-9.93714,54.234524],[-9.937138,54.234608],[-9.937137,54.23486],[-9.937136,54.234884],[-9.937131,54.23505],[-9.937123,54.235322],[-9.937123,54.235345],[-9.937126,54.235532],[-9.937121,54.235925],[-9.937115,54.235953],[-9.936919,54.236154],[-9.936806,54.236258],[-9.936606,54.236445],[-9.936378,54.236639],[-9.936253,54.236749],[-9.936203,54.236799],[-9.936184,54.23682],[-9.936173,54.236853],[-9.93617,54.236869],[-9.936114,54.236999],[-9.93608,54.237091],[-9.936041,54.23721],[-9.935995,54.237292],[-9.935896,54.237446],[-9.935847,54.237523],[-9.935787,54.237614],[-9.935735,54.237688],[-9.935716,54.237715],[-9.935648,54.237845],[-9.935498,54.238088],[-9.935336,54.238382],[-9.935137,54.238723],[-9.934893,54.239163],[-9.934885,54.239168],[-9.934782,54.23936],[-9.934548,54.239763],[-9.934412,54.239976],[-9.934381,54.240016],[-9.934327,54.240015],[-9.93337,54.239992],[-9.93237,54.239979],[-9.932317,54.239978],[-9.932217,54.240007],[-9.932198,54.240019],[-9.932084,54.240022],[-9.931624,54.240048],[-9.931387,54.240051],[-9.931155,54.240066],[-9.931012,54.240076],[-9.930885,54.240087],[-9.930609,54.240091],[-9.93035,54.240103],[-9.929457,54.240139],[-9.929158,54.240152],[-9.928127,54.240195],[-9.927227,54.24024],[-9.926152,54.240277],[-9.925984,54.240285],[-9.925098,54.240323],[-9.924174,54.24036],[-9.923741,54.240383],[-9.923542,54.240398],[-9.922327,54.24044],[-9.920742,54.240506],[-9.920119,54.240534],[-9.919634,54.240557],[-9.919345,54.240567],[-9.919069,54.240573],[-9.91886,54.240604],[-9.918585,54.240604],[-9.918233,54.240613],[-9.917832,54.240639],[-9.917725,54.240645],[-9.917658,54.240649],[-9.917557,54.240643],[-9.917495,54.240639],[-9.917385,54.241207],[-9.917359,54.241335],[-9.917249,54.24188],[-9.917106,54.242493],[-9.91724,54.242529],[-9.917535,54.242578],[-9.917816,54.242607],[-9.91796,54.242621],[-9.918399,54.242661],[-9.918596,54.242717],[-9.918726,54.24289],[-9.918808,54.242976],[-9.918933,54.243096],[-9.919156,54.243175],[-9.919444,54.243283],[-9.919623,54.243341],[-9.919802,54.243421],[-9.920051,54.243553],[-9.920455,54.243802],[-9.920909,54.243976],[-9.921724,54.244472],[-9.922335,54.244837],[-9.922539,54.244994],[-9.922688,54.245125],[-9.922808,54.24526],[-9.922897,54.245367],[-9.923038,54.245531],[-9.92318,54.245714],[-9.923194,54.24574],[-9.923211,54.245771],[-9.923289,54.245917],[-9.923321,54.24596],[-9.923638,54.246386],[-9.923995,54.246854],[-9.924163,54.247073],[-9.924286,54.247211],[-9.924321,54.247266],[-9.924506,54.247509],[-9.924675,54.247686],[-9.924717,54.247703],[-9.925172,54.247888],[-9.925626,54.248072],[-9.9258,54.248205],[-9.926158,54.248335],[-9.92641,54.248427],[-9.926935,54.248619],[-9.927242,54.24873],[-9.927383,54.248785]],[[-9.929803,54.246138],[-9.930122,54.245866],[-9.930416,54.245659],[-9.930477,54.24562],[-9.930526,54.245645],[-9.930834,54.245776],[-9.931065,54.245875],[-9.931183,54.245914],[-9.93038,54.246456],[-9.929803,54.246138]],[[-9.944198,54.24239],[-9.944658,54.242382],[-9.944671,54.242652],[-9.944696,54.24319],[-9.944236,54.243198],[-9.944249,54.243467],[-9.943789,54.243475],[-9.943776,54.243205],[-9.943751,54.242666],[-9.944211,54.242659],[-9.944198,54.24239]]]]}}]}
