{"type":"FeatureCollection","features":[{"type":"Feature","properties":{"source_fid":423412,"county":"Mayo","bog_geom_ha":153.99974599929789,"low15_pct":84.592852958406567,"low15_ha":130.27277868950566,"overlay_ha":130.34681944774138,"area_delta":0.074040758235724979},"geometry":{"type":"MultiPolygon","coordinates":[[[[-9.866258,54.193047],[-9.865611,54.192831],[-9.865391,54.192757],[-9.86536,54.192746],[-9.864331,54.19239],[-9.863128,54.191959],[-9.862904,54.191901],[-9.862748,54.191849],[-9.862763,54.192144],[-9.862766,54.192455],[-9.862759,54.1927],[-9.862776,54.192951],[-9.862783,54.193275],[-9.862793,54.193634],[-9.862811,54.193911],[-9.862823,54.194058],[-9.862657,54.194231],[-9.862446,54.194435],[-9.862343,54.19457],[-9.862244,54.194738],[-9.862065,54.19498],[-9.861847,54.19524],[-9.86168,54.195439],[-9.861609,54.195561],[-9.861495,54.195743],[-9.86136,54.195945],[-9.861335,54.195977],[-9.861551,54.195973],[-9.861563,54.196243],[-9.861123,54.196249],[-9.861105,54.196272],[-9.861116,54.196519],[-9.860907,54.196522],[-9.860844,54.196599],[-9.860682,54.196842],[-9.860672,54.196858],[-9.860681,54.197065],[-9.860531,54.197067],[-9.860473,54.197154],[-9.860241,54.197509],[-9.860246,54.197611],[-9.860176,54.197612],[-9.859899,54.198061],[-9.859728,54.198327],[-9.859579,54.198582],[-9.859476,54.198771],[-9.859339,54.199009],[-9.859173,54.199274],[-9.859142,54.199322],[-9.859088,54.199408],[-9.858929,54.199653],[-9.858942,54.199753],[-9.859016,54.199866],[-9.859073,54.199976],[-9.859123,54.200115],[-9.85924,54.200441],[-9.859537,54.20103],[-9.85989,54.201656],[-9.860293,54.202322],[-9.86088,54.203129],[-9.861162,54.20365],[-9.861392,54.204037],[-9.862997,54.20385],[-9.863263,54.203423],[-9.863646,54.202734],[-9.864901,54.202878],[-9.865601,54.202945],[-9.86569,54.202946],[-9.865969,54.202948],[-9.86633,54.202869],[-9.866672,54.202738],[-9.866683,54.202632],[-9.866686,54.202607],[-9.866722,54.202525],[-9.867219,54.202559],[-9.867242,54.202616],[-9.86759,54.202586],[-9.867634,54.202736],[-9.867623,54.202753],[-9.867625,54.202769],[-9.867641,54.202791],[-9.867673,54.20282],[-9.867686,54.202846],[-9.867689,54.202877],[-9.867698,54.202906],[-9.86771,54.202938],[-9.867712,54.202997],[-9.86772,54.203037],[-9.867754,54.203071],[-9.867808,54.20311],[-9.867837,54.203122],[-9.867879,54.20314],[-9.867944,54.203169],[-9.867964,54.203188],[-9.867991,54.203237],[-9.867974,54.203282],[-9.867953,54.203304],[-9.867976,54.203339],[-9.868049,54.203382],[-9.868107,54.203427],[-9.868149,54.203462],[-9.868178,54.203501],[-9.868169,54.203536],[-9.868133,54.203567],[-9.868088,54.203598],[-9.868056,54.203657],[-9.868034,54.203694],[-9.868031,54.203715],[-9.868044,54.20373],[-9.868073,54.203736],[-9.8681,54.203741],[-9.868124,54.203747],[-9.868133,54.203761],[-9.868018,54.203896],[-9.867952,54.203938],[-9.867923,54.203966],[-9.870069,54.20395],[-9.873303,54.203916],[-9.878953,54.20389],[-9.883233,54.203825],[-9.88283,54.203514],[-9.882529,54.203267],[-9.882247,54.203044],[-9.882074,54.202871],[-9.881765,54.202568],[-9.881509,54.202303],[-9.881293,54.202073],[-9.881005,54.201767],[-9.880459,54.201211],[-9.880078,54.200828],[-9.88002,54.200768],[-9.87965,54.200384],[-9.879434,54.200143],[-9.879397,54.20007],[-9.879376,54.199965],[-9.879382,54.199851],[-9.879368,54.199801],[-9.879401,54.199527],[-9.879481,54.199235],[-9.879543,54.198982],[-9.879553,54.198848],[-9.879603,54.198636],[-9.879689,54.198523],[-9.879753,54.198452],[-9.879836,54.198346],[-9.879854,54.198222],[-9.879769,54.198034],[-9.879764,54.197721],[-9.879787,54.197439],[-9.879793,54.197144],[-9.87981,54.196767],[-9.879826,54.196466],[-9.879721,54.196205],[-9.879662,54.196057],[-9.87974,54.195888],[-9.879802,54.195838],[-9.879822,54.195764],[-9.8798,54.19569],[-9.879012,54.195702],[-9.879024,54.195971],[-9.878565,54.195979],[-9.878577,54.196248],[-9.877658,54.196262],[-9.87767,54.196532],[-9.877682,54.196801],[-9.878601,54.196787],[-9.878613,54.197056],[-9.879073,54.197049],[-9.879085,54.197319],[-9.877707,54.19734],[-9.877719,54.19761],[-9.874502,54.19766],[-9.87449,54.19739],[-9.874031,54.197397],[-9.874018,54.197128],[-9.87264,54.197149],[-9.872628,54.19688],[-9.872168,54.196887],[-9.872156,54.196618],[-9.871697,54.196625],[-9.871684,54.196355],[-9.871225,54.196362],[-9.871213,54.196093],[-9.871201,54.195824],[-9.870741,54.195831],[-9.870717,54.195292],[-9.870705,54.195023],[-9.870692,54.194753],[-9.87068,54.194484],[-9.870221,54.194491],[-9.870209,54.194221],[-9.870196,54.193952],[-9.870172,54.193413],[-9.869253,54.193427],[-9.869265,54.193697],[-9.868346,54.193711],[-9.868334,54.193442],[-9.868322,54.193172],[-9.867863,54.193179],[-9.867858,54.193082],[-9.867451,54.193102],[-9.867002,54.193136],[-9.866808,54.193138],[-9.866258,54.193047]],[[-9.863401,54.196214],[-9.863414,54.196484],[-9.862954,54.196491],[-9.862942,54.196221],[-9.863401,54.196214]]],[[[-9.873559,54.192656],[-9.873357,54.192672],[-9.873364,54.192824],[-9.873376,54.193094],[-9.873388,54.193363],[-9.873848,54.193356],[-9.873872,54.193895],[-9.874332,54.193888],[-9.874344,54.194157],[-9.874803,54.19415],[-9.874815,54.194419],[-9.875734,54.194405],[-9.875747,54.194674],[-9.876666,54.19466],[-9.876653,54.194391],[-9.877572,54.194376],[-9.87756,54.194107],[-9.878479,54.194093],[-9.878467,54.193823],[-9.878455,54.193554],[-9.877995,54.193561],[-9.877983,54.193292],[-9.877523,54.193299],[-9.877511,54.193029],[-9.877052,54.193036],[-9.87704,54.192767],[-9.87658,54.192774],[-9.876568,54.1925],[-9.876112,54.192529],[-9.875338,54.192578],[-9.874784,54.192598],[-9.87422,54.192613],[-9.873559,54.192656]]],[[[-9.879608,54.194419],[-9.879537,54.194346],[-9.87941,54.194348],[-9.879422,54.194617],[-9.879435,54.194887],[-9.879894,54.194879],[-9.879906,54.195149],[-9.879942,54.195148],[-9.879954,54.195076],[-9.879952,54.195043],[-9.879919,54.194797],[-9.879773,54.194585],[-9.879608,54.194419]]]]}}]}
