{"type":"FeatureCollection","features":[{"type":"Feature","properties":{"source_fid":423826,"county":"Mayo","bog_geom_ha":228.33643598747253,"low15_pct":76.007905138339922,"low15_ha":173.5537416616244,"overlay_ha":172.70265079651523,"area_delta":-0.85109086510917109},"geometry":{"type":"MultiPolygon","coordinates":[[[[-9.592312,54.307943],[-9.592629,54.3074],[-9.591338,54.307417],[-9.591349,54.307686],[-9.59181,54.30768],[-9.59182,54.307949],[-9.592312,54.307943]]],[[[-9.591334,54.309668],[-9.59152,54.309301],[-9.589107,54.309333],[-9.589097,54.309064],[-9.586332,54.3091],[-9.586321,54.308831],[-9.585861,54.308837],[-9.58585,54.308567],[-9.58539,54.308573],[-9.5854,54.308843],[-9.584939,54.308849],[-9.584929,54.308579],[-9.584468,54.308585],[-9.584458,54.308316],[-9.583997,54.308322],[-9.583986,54.308053],[-9.583526,54.308059],[-9.583515,54.307789],[-9.583054,54.307795],[-9.583044,54.307526],[-9.583034,54.307256],[-9.583023,54.306987],[-9.582563,54.306993],[-9.582573,54.307262],[-9.582112,54.307268],[-9.582123,54.307538],[-9.58074,54.307556],[-9.58073,54.307286],[-9.580719,54.307017],[-9.58118,54.307011],[-9.58117,54.306742],[-9.581631,54.306735],[-9.58161,54.306197],[-9.582071,54.30619],[-9.582068,54.306109],[-9.581731,54.306147],[-9.580649,54.306305],[-9.58007,54.306279],[-9.579742,54.306269],[-9.579362,54.306341],[-9.578934,54.306455],[-9.57838,54.306451],[-9.577563,54.306443],[-9.577474,54.306442],[-9.576498,54.306449],[-9.576345,54.306468],[-9.57627,54.306492],[-9.576237,54.306525],[-9.57622,54.306586],[-9.576206,54.306644],[-9.576178,54.306677],[-9.576095,54.306687],[-9.576056,54.306683],[-9.575955,54.306678],[-9.575778,54.30671],[-9.575202,54.306831],[-9.574965,54.306901],[-9.574823,54.306945],[-9.574534,54.306994],[-9.574282,54.307044],[-9.573981,54.30709],[-9.573764,54.307085],[-9.573503,54.3071],[-9.573245,54.307123],[-9.572945,54.307164],[-9.572721,54.307207],[-9.572605,54.307218],[-9.572445,54.307204],[-9.5724,54.307134],[-9.572394,54.307063],[-9.572347,54.306958],[-9.572276,54.306754],[-9.572216,54.306659],[-9.572161,54.30651],[-9.572161,54.306349],[-9.572176,54.30625],[-9.572131,54.306224],[-9.572114,54.30615],[-9.57211,54.306074],[-9.572046,54.305998],[-9.57185,54.305892],[-9.571685,54.305844],[-9.571546,54.305835],[-9.571416,54.305836],[-9.571223,54.30579],[-9.571177,54.305766],[-9.571158,54.30577],[-9.570756,54.305846],[-9.570448,54.305888],[-9.570191,54.305898],[-9.569936,54.305908],[-9.570026,54.305775],[-9.570023,54.305692],[-9.57003,54.305689],[-9.56989,54.305646],[-9.569709,54.305583],[-9.569585,54.305533],[-9.569616,54.305471],[-9.569601,54.305433],[-9.569553,54.30539],[-9.569474,54.305344],[-9.569404,54.305303],[-9.569365,54.305193],[-9.569314,54.30503],[-9.569295,54.305006],[-9.569233,54.304954],[-9.569043,54.304786],[-9.568935,54.304703],[-9.5685,54.304476],[-9.568165,54.304464],[-9.567631,54.304437],[-9.56753,54.304432],[-9.567327,54.304462],[-9.566938,54.304728],[-9.566399,54.305125],[-9.566213,54.305263],[-9.565918,54.305563],[-9.565764,54.305731],[-9.565625,54.305861],[-9.565488,54.30597],[-9.565317,54.306048],[-9.564835,54.306219],[-9.564808,54.306229],[-9.563954,54.306498],[-9.563423,54.306695],[-9.562768,54.306974],[-9.562122,54.307244],[-9.561769,54.307384],[-9.561725,54.307415],[-9.561879,54.307728],[-9.561996,54.307992],[-9.562117,54.307982],[-9.562355,54.308077],[-9.562433,54.308137],[-9.562483,54.308207],[-9.562541,54.308315],[-9.562517,54.308321],[-9.562169,54.308421],[-9.562135,54.308432],[-9.562152,54.308503],[-9.562178,54.308557],[-9.563766,54.308537],[-9.563826,54.308455],[-9.56403,54.308255],[-9.564161,54.308081],[-9.564342,54.307851],[-9.564358,54.307819],[-9.564419,54.307745],[-9.564454,54.3077],[-9.564591,54.307748],[-9.564773,54.307802],[-9.565148,54.307897],[-9.565347,54.307973],[-9.565494,54.308059],[-9.565587,54.308102],[-9.565675,54.308107],[-9.565722,54.3081],[-9.565796,54.308131],[-9.565864,54.30818],[-9.565659,54.308301],[-9.565178,54.308518],[-9.565847,54.30851],[-9.565962,54.308422],[-9.566116,54.308255],[-9.566333,54.308164],[-9.566517,54.308202],[-9.566759,54.307973],[-9.567412,54.307688],[-9.567611,54.307694],[-9.567762,54.307807],[-9.568279,54.307796],[-9.568355,54.307859],[-9.568507,54.308003],[-9.568572,54.308057],[-9.568662,54.308149],[-9.568776,54.30826],[-9.568791,54.30837],[-9.568864,54.308429],[-9.568981,54.308477],[-9.569116,54.308532],[-9.569127,54.308536],[-9.569349,54.308655],[-9.569656,54.30902],[-9.569109,54.309368],[-9.568753,54.309572],[-9.568554,54.309676],[-9.568537,54.309684],[-9.56833,54.309806],[-9.568323,54.30981],[-9.568196,54.309879],[-9.568612,54.310063],[-9.568764,54.310062],[-9.568958,54.309947],[-9.569257,54.310147],[-9.569113,54.310231],[-9.569052,54.310265],[-9.569504,54.310259],[-9.569527,54.310868],[-9.569889,54.31092],[-9.570097,54.310938],[-9.570109,54.310937],[-9.570253,54.310929],[-9.570583,54.310909],[-9.570695,54.310894],[-9.570717,54.310919],[-9.570809,54.31103],[-9.570899,54.311049],[-9.571027,54.311115],[-9.571056,54.311137],[-9.571073,54.311137],[-9.571074,54.311151],[-9.571105,54.311175],[-9.571171,54.311219],[-9.571224,54.311251],[-9.57129,54.311266],[-9.571404,54.311295],[-9.571567,54.311337],[-9.571616,54.311346],[-9.571785,54.311502],[-9.57197,54.311401],[-9.572106,54.311355],[-9.572287,54.311298],[-9.572287,54.311217],[-9.572339,54.311156],[-9.572417,54.31104],[-9.572527,54.310855],[-9.572622,54.31082],[-9.572757,54.310808],[-9.572913,54.3108],[-9.573048,54.310777],[-9.573132,54.310743],[-9.57337,54.310617],[-9.573516,54.310557],[-9.57362,54.310514],[-9.573809,54.310495],[-9.574349,54.310417],[-9.57438,54.310448],[-9.574412,54.310504],[-9.574391,54.310519],[-9.574519,54.310614],[-9.574669,54.310749],[-9.574992,54.310976],[-9.575001,54.310922],[-9.575211,54.310881],[-9.575282,54.310826],[-9.575892,54.310837],[-9.57597,54.310997],[-9.576028,54.311104],[-9.575993,54.311412],[-9.575898,54.311642],[-9.575765,54.311793],[-9.575696,54.311888],[-9.57522,54.311981],[-9.575203,54.311983],[-9.575079,54.31203],[-9.574909,54.312055],[-9.574747,54.31206],[-9.574502,54.312034],[-9.574309,54.312002],[-9.574258,54.311994],[-9.574106,54.311949],[-9.57394,54.311809],[-9.573719,54.311639],[-9.573501,54.31144],[-9.57322,54.311188],[-9.572937,54.311199],[-9.573033,54.311204],[-9.57311,54.311221],[-9.573399,54.311484],[-9.573484,54.311561],[-9.573679,54.311774],[-9.573789,54.311858],[-9.573951,54.311998],[-9.573978,54.312016],[-9.573998,54.312019],[-9.57408,54.312059],[-9.574486,54.31217],[-9.575299,54.312382],[-9.575607,54.312511],[-9.575643,54.312557],[-9.575638,54.31264],[-9.575551,54.312778],[-9.575494,54.312875],[-9.575363,54.312991],[-9.575185,54.31315],[-9.574987,54.31328],[-9.574847,54.313343],[-9.574735,54.313436],[-9.574498,54.313551],[-9.574354,54.313497],[-9.574184,54.313463],[-9.574028,54.313407],[-9.574223,54.313255],[-9.574001,54.313224],[-9.573656,54.313273],[-9.573371,54.313384],[-9.573399,54.313477],[-9.573651,54.313564],[-9.573428,54.313676],[-9.572898,54.313929],[-9.573096,54.314142],[-9.573064,54.314215],[-9.573026,54.314336],[-9.573008,54.314374],[-9.57299,54.314395],[-9.572941,54.314411],[-9.572769,54.314424],[-9.572756,54.314428],[-9.572495,54.314408],[-9.572454,54.314397],[-9.572459,54.314549],[-9.572196,54.314593],[-9.571959,54.314627],[-9.571913,54.314641],[-9.571882,54.314647],[-9.5717,54.314678],[-9.571594,54.3147],[-9.571773,54.31486],[-9.571973,54.315008],[-9.572206,54.315153],[-9.572271,54.315203],[-9.572274,54.315222],[-9.572267,54.315235],[-9.572219,54.315263],[-9.572086,54.315336],[-9.572032,54.315344],[-9.571993,54.315343],[-9.57196,54.315332],[-9.571817,54.31527],[-9.571629,54.31518],[-9.571521,54.315147],[-9.571329,54.315099],[-9.571251,54.315079],[-9.571199,54.315061],[-9.571163,54.315046],[-9.571129,54.315021],[-9.571061,54.314933],[-9.571012,54.314856],[-9.570995,54.314832],[-9.570889,54.314848],[-9.570542,54.314903],[-9.570034,54.314958],[-9.569927,54.314978],[-9.569871,54.315016],[-9.569803,54.315055],[-9.569708,54.315092],[-9.569682,54.315102],[-9.569578,54.315175],[-9.569506,54.315226],[-9.569507,54.315251],[-9.569518,54.315521],[-9.569057,54.315527],[-9.569067,54.315796],[-9.568811,54.3158],[-9.568788,54.315841],[-9.56873,54.315916],[-9.568616,54.316055],[-9.568626,54.316341],[-9.568405,54.316344],[-9.568398,54.316352],[-9.568327,54.316429],[-9.568206,54.316537],[-9.568207,54.316565],[-9.568174,54.316566],[-9.568176,54.316617],[-9.568114,54.316617],[-9.568105,54.316625],[-9.567816,54.316846],[-9.567765,54.316885],[-9.567621,54.316948],[-9.567462,54.316953],[-9.567266,54.316952],[-9.567275,54.317168],[-9.567285,54.317437],[-9.566824,54.317443],[-9.566844,54.317982],[-9.566383,54.317988],[-9.566404,54.318527],[-9.565943,54.318533],[-9.565923,54.317994],[-9.565462,54.318],[-9.565441,54.317461],[-9.565431,54.317191],[-9.565892,54.317185],[-9.565883,54.316952],[-9.565571,54.316951],[-9.565253,54.316954],[-9.564725,54.316952],[-9.563961,54.316957],[-9.563611,54.316947],[-9.563621,54.317215],[-9.564048,54.317209],[-9.564069,54.317748],[-9.564079,54.318018],[-9.56454,54.318012],[-9.56455,54.318281],[-9.564089,54.318287],[-9.56411,54.318826],[-9.56412,54.319096],[-9.563693,54.319101],[-9.563701,54.319319],[-9.563667,54.31932],[-9.563669,54.319371],[-9.563208,54.319377],[-9.563218,54.319647],[-9.562757,54.319653],[-9.562788,54.320461],[-9.562449,54.320465],[-9.562846,54.320599],[-9.562881,54.320611],[-9.563217,54.320725],[-9.563259,54.320724],[-9.563249,54.320455],[-9.56371,54.320449],[-9.56372,54.320718],[-9.564642,54.320706],[-9.564652,54.320976],[-9.566035,54.320958],[-9.566025,54.320689],[-9.566486,54.320683],[-9.566476,54.320413],[-9.566937,54.320407],[-9.566926,54.320138],[-9.567387,54.320132],[-9.567367,54.319593],[-9.567828,54.319587],[-9.567807,54.319048],[-9.568268,54.319042],[-9.568258,54.318772],[-9.568237,54.318233],[-9.569159,54.318221],[-9.569149,54.317952],[-9.56961,54.317946],[-9.5696,54.317676],[-9.57006,54.31767],[-9.57005,54.317401],[-9.570511,54.317395],[-9.570501,54.317126],[-9.571423,54.317114],[-9.571433,54.317383],[-9.572355,54.317371],[-9.572365,54.31764],[-9.573287,54.317628],[-9.573297,54.317898],[-9.57468,54.31788],[-9.57467,54.31761],[-9.576513,54.317586],[-9.576524,54.317856],[-9.576984,54.31785],[-9.576995,54.318119],[-9.577015,54.318658],[-9.577026,54.318928],[-9.576565,54.318934],[-9.576575,54.319203],[-9.577036,54.319197],[-9.577046,54.319467],[-9.577507,54.319461],[-9.577518,54.31973],[-9.577548,54.31973],[-9.577526,54.319139],[-9.580598,54.319099],[-9.581182,54.319091],[-9.581174,54.318873],[-9.581635,54.318867],[-9.581643,54.319085],[-9.58367,54.319059],[-9.583682,54.31938],[-9.584421,54.31937],[-9.584432,54.319639],[-9.584442,54.319909],[-9.584903,54.319903],[-9.584904,54.319941],[-9.585241,54.319937],[-9.585482,54.319933],[-9.585912,54.319176],[-9.586445,54.318225],[-9.587186,54.316917],[-9.58764,54.316129],[-9.588371,54.314885],[-9.589129,54.313508],[-9.590147,54.311785],[-9.590315,54.311476],[-9.590642,54.310842],[-9.590889,54.310422],[-9.590912,54.310383],[-9.590943,54.310329],[-9.591013,54.310211],[-9.591334,54.309668]]],[[[-9.564429,54.321107],[-9.564657,54.321104],[-9.564652,54.320976],[-9.564002,54.320984],[-9.564429,54.321107]]],[[[-9.56326,54.32074],[-9.563727,54.320898],[-9.56372,54.320718],[-9.563259,54.320724],[-9.56326,54.32074]]],[[[-9.585092,54.304594],[-9.584776,54.304597],[-9.584784,54.304807],[-9.585705,54.304795],[-9.585698,54.304595],[-9.58565,54.304593],[-9.585092,54.304594]]],[[[-9.592177,54.305249],[-9.592187,54.305518],[-9.593109,54.305506],[-9.593088,54.304967],[-9.592627,54.304973],[-9.592638,54.305243],[-9.592177,54.305249]]],[[[-9.571956,54.318994],[-9.571495,54.319],[-9.571484,54.31873],[-9.571023,54.318736],[-9.571034,54.319006],[-9.570573,54.319012],[-9.570593,54.319551],[-9.570614,54.32009],[-9.570624,54.320359],[-9.571085,54.320353],[-9.571095,54.320623],[-9.572017,54.320611],[-9.571997,54.320072],[-9.571536,54.320078],[-9.571525,54.319808],[-9.571515,54.319539],[-9.571505,54.319269],[-9.571966,54.319263],[-9.571956,54.318994]]]]}}]}
