{"type":"FeatureCollection","features":[{"type":"Feature","properties":{"source_fid":425642,"county":"Mayo","bog_geom_ha":307.33135232483863,"low15_pct":99.73637961335676,"low15_ha":306.52116422556401,"overlay_ha":306.52123726540231,"area_delta":0.00007303983829842764},"geometry":{"type":"MultiPolygon","coordinates":[[[[-9.513263,54.213944],[-9.513519,54.213941],[-9.513387,54.213846],[-9.513281,54.213909],[-9.513263,54.213944]]],[[[-9.513735,54.214098],[-9.513753,54.214575],[-9.513824,54.214516],[-9.513867,54.214478],[-9.513852,54.214289],[-9.513833,54.214259],[-9.513735,54.214098]]],[[[-9.468537,54.213213],[-9.468363,54.213272],[-9.466117,54.214023],[-9.464741,54.214398],[-9.464225,54.21452],[-9.463859,54.214607],[-9.462894,54.214884],[-9.462551,54.214982],[-9.462557,54.215018],[-9.4626,54.215024],[-9.462851,54.214938],[-9.463364,54.214808],[-9.464392,54.214532],[-9.464244,54.214664],[-9.464076,54.214816],[-9.463956,54.214961],[-9.46395,54.215118],[-9.464018,54.215343],[-9.464049,54.215566],[-9.46424,54.215889],[-9.464522,54.216779],[-9.464682,54.21727],[-9.465091,54.218187],[-9.465294,54.218705],[-9.465496,54.219025],[-9.465738,54.219454],[-9.465935,54.21979],[-9.466002,54.219992],[-9.465318,54.220235],[-9.465493,54.220604],[-9.465596,54.220821],[-9.4657,54.221057],[-9.465813,54.221231],[-9.46593,54.221338],[-9.466084,54.221476],[-9.466499,54.221737],[-9.467336,54.222267],[-9.467893,54.222669],[-9.468456,54.223068],[-9.468751,54.223305],[-9.469133,54.22364],[-9.469607,54.223868],[-9.469958,54.224034],[-9.470808,54.224319],[-9.471161,54.224301],[-9.471161,54.224301],[-9.472623,54.224225],[-9.474496,54.224181],[-9.47617,54.224152],[-9.476755,54.224143],[-9.477218,54.224045],[-9.478032,54.224013],[-9.478676,54.223864],[-9.47856,54.223746],[-9.478331,54.223543],[-9.478138,54.223328],[-9.478128,54.223056],[-9.478372,54.222608],[-9.478606,54.22191],[-9.479145,54.220388],[-9.47961,54.219393],[-9.479825,54.218685],[-9.47976,54.218414],[-9.47955,54.218221],[-9.479115,54.217998],[-9.478609,54.21783],[-9.477689,54.217505],[-9.47561,54.216917],[-9.475109,54.21689],[-9.474884,54.216839],[-9.473897,54.216699],[-9.472198,54.21635],[-9.471464,54.216055],[-9.471177,54.215797],[-9.470716,54.215347],[-9.470199,54.214864],[-9.469551,54.214362],[-9.468537,54.213213]]],[[[-9.519506,54.222497],[-9.519509,54.22245],[-9.519563,54.222443],[-9.519799,54.222365],[-9.520065,54.22227],[-9.520136,54.222257],[-9.520145,54.222255],[-9.520143,54.222249],[-9.52013,54.222211],[-9.520129,54.222211],[-9.520122,54.222166],[-9.520126,54.222145],[-9.520138,54.222125],[-9.520155,54.2221],[-9.520149,54.222071],[-9.520123,54.222054],[-9.520092,54.222041],[-9.520036,54.222019],[-9.519996,54.222],[-9.519957,54.221981],[-9.519928,54.221967],[-9.519909,54.221958],[-9.51987,54.221946],[-9.519831,54.221925],[-9.519781,54.221902],[-9.519748,54.221892],[-9.519718,54.221878],[-9.519691,54.221862],[-9.519666,54.221857],[-9.519638,54.221849],[-9.519603,54.221832],[-9.519578,54.221817],[-9.519528,54.221802],[-9.519493,54.221797],[-9.519461,54.221786],[-9.51945,54.221783],[-9.519427,54.221776],[-9.519388,54.221766],[-9.519351,54.221762],[-9.519311,54.221747],[-9.5193,54.221746],[-9.519269,54.221741],[-9.519236,54.221725],[-9.519224,54.221717],[-9.519205,54.221712],[-9.519179,54.221697],[-9.519164,54.221692],[-9.519135,54.221684],[-9.51911,54.221679],[-9.519087,54.221672],[-9.519056,54.221661],[-9.519032,54.221658],[-9.519007,54.221646],[-9.518998,54.221635],[-9.518981,54.221627],[-9.518955,54.221623],[-9.518932,54.221621],[-9.518932,54.221621],[-9.518787,54.221708],[-9.518786,54.221709],[-9.518514,54.221926],[-9.518413,54.221936],[-9.518275,54.22195],[-9.518237,54.221929],[-9.518217,54.221934],[-9.518188,54.221937],[-9.518166,54.221937],[-9.51813,54.221934],[-9.518105,54.221932],[-9.518086,54.221929],[-9.518061,54.221928],[-9.518042,54.22193],[-9.518029,54.22193],[-9.518017,54.221927],[-9.518011,54.221922],[-9.517997,54.221919],[-9.517986,54.221918],[-9.517972,54.221917],[-9.517955,54.221914],[-9.517936,54.221909],[-9.517919,54.221899],[-9.517902,54.221887],[-9.517896,54.221873],[-9.517896,54.221866],[-9.5179,54.22185],[-9.517904,54.221845],[-9.517918,54.221834],[-9.517929,54.221827],[-9.517941,54.221813],[-9.517946,54.221796],[-9.517951,54.221767],[-9.517913,54.221745],[-9.517891,54.221733],[-9.51782,54.2217],[-9.517312,54.221468],[-9.517076,54.220558],[-9.517112,54.220518],[-9.51719,54.220431],[-9.51726,54.22041],[-9.517258,54.220404],[-9.517242,54.22039],[-9.517237,54.220386],[-9.517218,54.220385],[-9.517196,54.220399],[-9.517178,54.220401],[-9.517169,54.220384],[-9.517182,54.220354],[-9.517202,54.220354],[-9.51722,54.220353],[-9.517213,54.220316],[-9.517199,54.220303],[-9.517197,54.220301],[-9.517168,54.220296],[-9.517139,54.220291],[-9.517091,54.220279],[-9.517068,54.220269],[-9.517039,54.220251],[-9.517026,54.220233],[-9.517057,54.221084],[-9.513992,54.221123],[-9.513959,54.220225],[-9.515492,54.220205],[-9.515459,54.219307],[-9.516991,54.219288],[-9.517019,54.220047],[-9.517028,54.220044],[-9.517054,54.220044],[-9.517088,54.220048],[-9.517105,54.220045],[-9.517108,54.220036],[-9.517106,54.220023],[-9.517089,54.220019],[-9.517086,54.220012],[-9.517082,54.220003],[-9.517094,54.219978],[-9.517099,54.219968],[-9.517198,54.21991],[-9.517337,54.219761],[-9.517458,54.219628],[-9.517603,54.219495],[-9.517605,54.219493],[-9.517609,54.219408],[-9.517665,54.219235],[-9.517596,54.219246],[-9.51742,54.219237],[-9.517288,54.219162],[-9.51724,54.219026],[-9.517262,54.218947],[-9.517291,54.218891],[-9.51735,54.218827],[-9.517427,54.218775],[-9.51748,54.218738],[-9.517537,54.218704],[-9.51756,54.218691],[-9.5176,54.218681],[-9.517635,54.218671],[-9.517684,54.218657],[-9.517711,54.21865],[-9.517735,54.218642],[-9.517747,54.218627],[-9.517758,54.218604],[-9.517761,54.218596],[-9.517791,54.218556],[-9.517816,54.218519],[-9.517858,54.218453],[-9.517861,54.218448],[-9.517875,54.218418],[-9.517879,54.21841],[-9.517896,54.218378],[-9.517909,54.218352],[-9.517909,54.218352],[-9.517922,54.218164],[-9.517905,54.218109],[-9.517904,54.218094],[-9.517914,54.218035],[-9.517888,54.217969],[-9.517805,54.217832],[-9.517767,54.217541],[-9.517736,54.217302],[-9.517699,54.217016],[-9.517699,54.217016],[-9.517674,54.216992],[-9.517609,54.216929],[-9.517466,54.216774],[-9.517335,54.216632],[-9.517052,54.216353],[-9.516881,54.21628],[-9.516925,54.217492],[-9.515393,54.217511],[-9.51536,54.216613],[-9.513828,54.216632],[-9.513763,54.214851],[-9.513734,54.21484],[-9.51373,54.214837],[-9.51223,54.214855],[-9.512216,54.214485],[-9.510868,54.214716],[-9.508097,54.215215],[-9.506972,54.215406],[-9.506154,54.21557],[-9.504493,54.216153],[-9.502655,54.216794],[-9.502483,54.216856],[-9.502007,54.217032],[-9.501843,54.217083],[-9.501257,54.217202],[-9.500701,54.217256],[-9.499784,54.217438],[-9.49902,54.217579],[-9.498534,54.217642],[-9.498537,54.217722],[-9.497995,54.217729],[-9.497419,54.217777],[-9.497166,54.217799],[-9.49709,54.217807],[-9.496911,54.217829],[-9.496635,54.217858],[-9.496276,54.217881],[-9.496172,54.217867],[-9.496145,54.217863],[-9.496024,54.217864],[-9.495905,54.21786],[-9.495125,54.217833],[-9.494621,54.217828],[-9.493905,54.217836],[-9.493437,54.217797],[-9.493043,54.217808],[-9.492408,54.217806],[-9.492033,54.217806],[-9.49123,54.217823],[-9.490552,54.217816],[-9.489005,54.217875],[-9.4882,54.217893],[-9.48739,54.217883],[-9.487275,54.217886],[-9.486086,54.217932],[-9.486202,54.218061],[-9.486467,54.218241],[-9.486041,54.218458],[-9.485638,54.218544],[-9.485575,54.218593],[-9.48569,54.218716],[-9.485381,54.218847],[-9.485012,54.219095],[-9.484828,54.21913],[-9.484653,54.219127],[-9.484282,54.219088],[-9.483863,54.21899],[-9.483539,54.218945],[-9.483206,54.218928],[-9.482486,54.218921],[-9.481923,54.218922],[-9.48175,54.218978],[-9.48146,54.219123],[-9.48129,54.219281],[-9.48127,54.219755],[-9.481265,54.220404],[-9.481193,54.220697],[-9.480949,54.2211],[-9.480691,54.221617],[-9.480364,54.222029],[-9.479937,54.222494],[-9.479708,54.222789],[-9.479685,54.22293],[-9.479727,54.223076],[-9.479805,54.223183],[-9.480065,54.223477],[-9.480666,54.224013],[-9.480934,54.224291],[-9.480683,54.224256],[-9.480669,54.224272],[-9.481403,54.224371],[-9.481816,54.224429],[-9.481862,54.224428],[-9.481862,54.224435],[-9.482981,54.224591],[-9.484333,54.224769],[-9.485152,54.224887],[-9.485648,54.224934],[-9.485877,54.224922],[-9.486548,54.224983],[-9.487041,54.225045],[-9.487641,54.225117],[-9.488388,54.225199],[-9.488761,54.225294],[-9.489287,54.225447],[-9.489675,54.225569],[-9.489962,54.225681],[-9.490284,54.22585],[-9.490413,54.225891],[-9.490757,54.226001],[-9.49098,54.226077],[-9.491275,54.226106],[-9.491725,54.226259],[-9.492024,54.226326],[-9.492484,54.226395],[-9.492837,54.226444],[-9.493191,54.22645],[-9.493496,54.226435],[-9.493779,54.22645],[-9.494017,54.226499],[-9.494256,54.226547],[-9.494342,54.226565],[-9.494957,54.226631],[-9.495861,54.226771],[-9.496013,54.226782],[-9.496375,54.226807],[-9.497206,54.226757],[-9.497544,54.226793],[-9.49783,54.22686],[-9.498026,54.226868],[-9.498257,54.226877],[-9.498376,54.226887],[-9.498696,54.226909],[-9.499423,54.226935],[-9.499823,54.226969],[-9.500289,54.226969],[-9.500756,54.22695],[-9.501251,54.226921],[-9.50261,54.226896],[-9.503778,54.226858],[-9.50447,54.22683],[-9.504793,54.226817],[-9.504847,54.226823],[-9.505006,54.226851],[-9.505108,54.226897],[-9.505176,54.226972],[-9.505279,54.22708],[-9.505414,54.227166],[-9.505593,54.227231],[-9.505817,54.227242],[-9.505943,54.227261],[-9.506216,54.227326],[-9.5065,54.227408],[-9.50661,54.227467],[-9.506804,54.22757],[-9.506925,54.227646],[-9.507287,54.227663],[-9.507291,54.227663],[-9.507291,54.227663],[-9.507421,54.227669],[-9.507578,54.227676],[-9.508183,54.227744],[-9.508792,54.22784],[-9.508821,54.227845],[-9.508903,54.227857],[-9.509048,54.22788],[-9.509248,54.227911],[-9.509354,54.227927],[-9.509449,54.227947],[-9.50953,54.227964],[-9.50953,54.227964],[-9.50953,54.227964],[-9.509479,54.227876],[-9.50945,54.227758],[-9.509506,54.22771],[-9.509546,54.227612],[-9.509579,54.227587],[-9.509566,54.227546],[-9.509591,54.227504],[-9.509644,54.227474],[-9.509655,54.22742],[-9.509742,54.227348],[-9.509771,54.227292],[-9.509834,54.227217],[-9.509853,54.227158],[-9.509832,54.227128],[-9.509839,54.227068],[-9.509901,54.226901],[-9.509956,54.226787],[-9.510044,54.226734],[-9.510084,54.226679],[-9.510125,54.22663],[-9.51012,54.226597],[-9.510026,54.22657],[-9.509986,54.226532],[-9.510022,54.226485],[-9.510119,54.226416],[-9.510101,54.226348],[-9.510107,54.22628],[-9.510182,54.226241],[-9.510259,54.226239],[-9.510313,54.226193],[-9.510317,54.22613],[-9.510403,54.226072],[-9.510486,54.226007],[-9.510538,54.225996],[-9.510731,54.225921],[-9.51087,54.225831],[-9.511051,54.225774],[-9.511202,54.225727],[-9.511377,54.225717],[-9.511442,54.225692],[-9.511442,54.225692],[-9.511442,54.225692],[-9.511553,54.22565],[-9.511929,54.225425],[-9.511979,54.225404],[-9.512047,54.225376],[-9.512047,54.225376],[-9.512047,54.225376],[-9.512165,54.225364],[-9.512223,54.225322],[-9.512293,54.225271],[-9.512393,54.225184],[-9.51279,54.224991],[-9.512922,54.224964],[-9.512999,54.224949],[-9.513058,54.224919],[-9.513127,54.224885],[-9.513361,54.224802],[-9.51373,54.22468],[-9.513751,54.224673],[-9.513766,54.224668],[-9.514965,54.224233],[-9.515619,54.224007],[-9.515986,54.22388],[-9.516154,54.223841],[-9.516482,54.223764],[-9.516633,54.223717],[-9.51675,54.223681],[-9.517041,54.223576],[-9.517072,54.223559],[-9.517104,54.223542],[-9.517173,54.223517],[-9.517214,54.223502],[-9.517236,54.223493],[-9.517315,54.223461],[-9.517359,54.223442],[-9.517367,54.223439],[-9.517408,54.223417],[-9.517489,54.223374],[-9.517623,54.223315],[-9.517663,54.223296],[-9.517707,54.223274],[-9.517785,54.223221],[-9.517785,54.223221],[-9.517785,54.223221],[-9.51782,54.223216],[-9.517883,54.223206],[-9.517914,54.223193],[-9.517948,54.223178],[-9.518046,54.223108],[-9.518105,54.22308],[-9.518109,54.223078],[-9.518167,54.223035],[-9.518182,54.223024],[-9.518285,54.22295],[-9.518365,54.222907],[-9.518424,54.222875],[-9.518778,54.222727],[-9.518818,54.222711],[-9.518826,54.222707],[-9.518924,54.222667],[-9.519061,54.222607],[-9.519103,54.222589],[-9.519196,54.222581],[-9.519275,54.222573],[-9.519378,54.222558],[-9.519445,54.222548],[-9.519507,54.222532],[-9.519506,54.222514],[-9.519506,54.222497]],[[-9.51246,54.221142],[-9.513992,54.221123],[-9.514025,54.222021],[-9.512492,54.22204],[-9.51246,54.221142]],[[-9.509427,54.222078],[-9.512492,54.22204],[-9.512525,54.222938],[-9.50946,54.222976],[-9.509427,54.222078]],[[-9.506395,54.223015],[-9.50946,54.222976],[-9.509493,54.223874],[-9.506428,54.223913],[-9.506395,54.223015]],[[-9.514058,54.222919],[-9.514025,54.222021],[-9.515557,54.222001],[-9.51559,54.222899],[-9.514058,54.222919]],[[-9.50646,54.224811],[-9.506526,54.226607],[-9.504993,54.226626],[-9.504928,54.22483],[-9.50646,54.224811]],[[-9.486257,54.218712],[-9.486717,54.218707],[-9.486727,54.218976],[-9.486737,54.219246],[-9.486746,54.219515],[-9.486286,54.219521],[-9.486296,54.21979],[-9.485836,54.219796],[-9.485827,54.219527],[-9.485367,54.219532],[-9.485357,54.219263],[-9.485817,54.219257],[-9.485807,54.218988],[-9.486267,54.218982],[-9.486257,54.218712]],[[-9.499386,54.225559],[-9.499367,54.22502],[-9.499827,54.225015],[-9.499846,54.225554],[-9.499386,54.225559]]]]}}]}
