{"type":"FeatureCollection","features":[{"type":"Feature","properties":{"source_fid":425725,"county":"Mayo","bog_geom_ha":111.21838690230474,"low15_pct":99.756690997566906,"low15_ha":110.94778255461057,"overlay_ha":110.94535958358888,"area_delta":-0.0024229710216872036},"geometry":{"type":"MultiPolygon","coordinates":[[[[-9.77626,54.104927],[-9.776739,54.104249],[-9.777332,54.103506],[-9.777195,54.103201],[-9.775662,54.103349],[-9.775401,54.102282],[-9.775052,54.102299],[-9.774848,54.101547],[-9.774747,54.101493],[-9.773858,54.101036],[-9.773615,54.100906],[-9.772648,54.100393],[-9.772522,54.100328],[-9.772179,54.100146],[-9.771846,54.099969],[-9.770219,54.099082],[-9.767426,54.097574],[-9.766931,54.097317],[-9.766656,54.097173],[-9.766542,54.097109],[-9.766052,54.096872],[-9.765448,54.096609],[-9.765362,54.096702],[-9.765368,54.096856],[-9.76538,54.097126],[-9.76498,54.097132],[-9.76497,54.097148],[-9.764926,54.097224],[-9.764925,54.097228],[-9.764937,54.097511],[-9.764947,54.097531],[-9.76497,54.097581],[-9.765039,54.09767],[-9.765402,54.097665],[-9.765414,54.097934],[-9.765872,54.097927],[-9.765884,54.098193],[-9.766332,54.098186],[-9.766344,54.09846],[-9.766354,54.098459],[-9.766388,54.099268],[-9.766378,54.099268],[-9.766408,54.099982],[-9.765501,54.099996],[-9.765505,54.10009],[-9.765239,54.100093],[-9.765059,54.10038],[-9.76507,54.100635],[-9.764897,54.100638],[-9.764883,54.100661],[-9.76475,54.10089],[-9.764614,54.101124],[-9.764614,54.101124],[-9.764403,54.101488],[-9.764037,54.1021],[-9.763962,54.102225],[-9.763962,54.102225],[-9.763949,54.102246],[-9.763934,54.102271],[-9.763775,54.102542],[-9.763786,54.102811],[-9.763615,54.102813],[-9.763486,54.103032],[-9.763343,54.103282],[-9.763238,54.103465],[-9.762956,54.103914],[-9.762535,54.104584],[-9.762092,54.105324],[-9.76206,54.105378],[-9.762066,54.105532],[-9.761966,54.105534],[-9.761861,54.105711],[-9.761679,54.106023],[-9.761465,54.106389],[-9.761352,54.106588],[-9.761249,54.10677],[-9.761114,54.106975],[-9.761059,54.107061],[-9.760937,54.10725],[-9.760915,54.107297],[-9.760908,54.10731],[-9.760774,54.107546],[-9.760721,54.107621],[-9.760641,54.107737],[-9.760504,54.107937],[-9.760498,54.107947],[-9.760357,54.108178],[-9.760252,54.108366],[-9.760151,54.108546],[-9.76003,54.108774],[-9.759871,54.109057],[-9.759656,54.109445],[-9.759575,54.109592],[-9.759459,54.109801],[-9.759321,54.110051],[-9.759298,54.110098],[-9.75929,54.110114],[-9.759329,54.110123],[-9.759874,54.110299],[-9.760119,54.110379],[-9.760313,54.110443],[-9.760684,54.110541],[-9.76121,54.110679],[-9.762254,54.110966],[-9.763707,54.111358],[-9.764987,54.111626],[-9.766232,54.111904],[-9.766474,54.111974],[-9.766474,54.111974],[-9.766474,54.111974],[-9.766753,54.111483],[-9.76714,54.111051],[-9.767691,54.110647],[-9.768198,54.110284],[-9.768538,54.110125],[-9.768974,54.109993],[-9.769132,54.109987],[-9.769137,54.11002],[-9.769194,54.110063],[-9.769269,54.110123],[-9.769395,54.110148],[-9.769866,54.110229],[-9.770335,54.110318],[-9.770641,54.110371],[-9.770955,54.11044],[-9.771207,54.110491],[-9.771387,54.11053],[-9.771518,54.110547],[-9.771698,54.110538],[-9.771892,54.110535],[-9.772016,54.110542],[-9.772115,54.110554],[-9.77229,54.110625],[-9.772432,54.110704],[-9.772853,54.11087],[-9.773013,54.110935],[-9.773115,54.110952],[-9.773193,54.110955],[-9.773258,54.110933],[-9.773323,54.1109],[-9.773389,54.110867],[-9.773452,54.110839],[-9.773548,54.110813],[-9.77364,54.110798],[-9.773876,54.11079],[-9.774038,54.110791],[-9.774388,54.110802],[-9.774433,54.110805],[-9.775078,54.110836],[-9.774793,54.110402],[-9.774629,54.110055],[-9.774931,54.108953],[-9.775108,54.10816],[-9.775289,54.107426],[-9.775402,54.107037],[-9.77577,54.106071],[-9.775933,54.105345],[-9.77626,54.104927]]],[[[-9.75929,54.110114],[-9.75929,54.110114],[-9.75929,54.110114],[-9.75929,54.110114],[-9.75929,54.110114]]]]}}]}
