{"type":"FeatureCollection","features":[{"type":"Feature","properties":{"source_fid":426127,"county":"Mayo","bog_geom_ha":287.26332544459916,"low15_pct":99.212846347607055,"low15_ha":285.00212168637654,"overlay_ha":284.98517042252735,"area_delta":-0.016951263849193765},"geometry":{"type":"MultiPolygon","coordinates":[[[[-9.534644,54.114706],[-9.534569,54.114775],[-9.534538,54.114787],[-9.534538,54.114787],[-9.534577,54.114793],[-9.53454,54.114799],[-9.534521,54.114806],[-9.534497,54.114813],[-9.534478,54.114827],[-9.534482,54.114841],[-9.534487,54.114843],[-9.534585,54.114842],[-9.534586,54.114868],[-9.534592,54.114869],[-9.534594,54.114884],[-9.534603,54.114898],[-9.534624,54.114907],[-9.534638,54.114932],[-9.534656,54.114945],[-9.534791,54.115044],[-9.534831,54.115061],[-9.534885,54.115085],[-9.534943,54.115103],[-9.534989,54.115117],[-9.535029,54.115125],[-9.53511,54.115128],[-9.535177,54.115126],[-9.535231,54.115125],[-9.535287,54.115135],[-9.535318,54.11515],[-9.535332,54.115161],[-9.535347,54.115172],[-9.535385,54.115192],[-9.535521,54.115255],[-9.535565,54.115273],[-9.535637,54.115276],[-9.535683,54.115282],[-9.535761,54.115281],[-9.535821,54.115268],[-9.535909,54.11525],[-9.535933,54.115245],[-9.535938,54.115263],[-9.535902,54.115293],[-9.535896,54.115315],[-9.535893,54.115334],[-9.535898,54.115355],[-9.535908,54.115376],[-9.535954,54.115432],[-9.536,54.115473],[-9.536038,54.11551],[-9.536062,54.115533],[-9.536088,54.115549],[-9.536139,54.115568],[-9.536179,54.115584],[-9.53622,54.115602],[-9.536233,54.115616],[-9.536227,54.115651],[-9.53622,54.11566],[-9.536198,54.115666],[-9.536172,54.115671],[-9.536185,54.11569],[-9.536209,54.1157],[-9.536248,54.115712],[-9.536264,54.115719],[-9.536302,54.115738],[-9.536332,54.115757],[-9.536342,54.115772],[-9.536333,54.115799],[-9.536305,54.115851],[-9.536275,54.115886],[-9.536262,54.115906],[-9.536252,54.115924],[-9.536242,54.115935],[-9.536226,54.115943],[-9.536196,54.115946],[-9.536173,54.115935],[-9.536163,54.115911],[-9.536162,54.115885],[-9.536161,54.115872],[-9.536162,54.115866],[-9.536154,54.115869],[-9.536131,54.115883],[-9.536121,54.115899],[-9.53611,54.115912],[-9.536099,54.115917],[-9.536062,54.11591],[-9.53603,54.11591],[-9.536023,54.115932],[-9.536066,54.11595],[-9.536079,54.115968],[-9.536087,54.116002],[-9.536084,54.116027],[-9.536082,54.11604],[-9.536066,54.116059],[-9.536028,54.116074],[-9.535993,54.116076],[-9.535946,54.116073],[-9.535906,54.116067],[-9.535872,54.11607],[-9.535821,54.116094],[-9.535783,54.116104],[-9.535735,54.116118],[-9.535681,54.116129],[-9.535637,54.116148],[-9.535607,54.116172],[-9.535599,54.116184],[-9.535818,54.116182],[-9.535828,54.116451],[-9.53537,54.116457],[-9.53538,54.116727],[-9.534921,54.116732],[-9.534913,54.116517],[-9.534758,54.116553],[-9.534728,54.116588],[-9.534713,54.116619],[-9.534693,54.116644],[-9.534648,54.116664],[-9.534584,54.116677],[-9.534563,54.116685],[-9.534545,54.116705],[-9.53451,54.116726],[-9.534465,54.116729],[-9.534461,54.116744],[-9.534472,54.11676],[-9.53443,54.116778],[-9.534384,54.116783],[-9.534357,54.116785],[-9.534327,54.116797],[-9.534259,54.116814],[-9.534153,54.116823],[-9.534085,54.116825],[-9.534039,54.116823],[-9.533983,54.116807],[-9.533924,54.116787],[-9.533872,54.116771],[-9.533828,54.116753],[-9.53377,54.116748],[-9.533752,54.116765],[-9.533804,54.11679],[-9.533815,54.116794],[-9.533849,54.116814],[-9.533871,54.116834],[-9.533878,54.11685],[-9.533887,54.116871],[-9.53391,54.11689],[-9.533992,54.116924],[-9.534031,54.116929],[-9.534074,54.116941],[-9.534103,54.116948],[-9.534144,54.116972],[-9.53417,54.116985],[-9.534193,54.116985],[-9.534227,54.11697],[-9.534253,54.116955],[-9.534287,54.116948],[-9.534348,54.116948],[-9.534392,54.116953],[-9.534431,54.116966],[-9.534454,54.116979],[-9.534439,54.11702],[-9.53442,54.117039],[-9.534395,54.11706],[-9.534361,54.117086],[-9.534333,54.117101],[-9.534297,54.117096],[-9.534229,54.117074],[-9.534209,54.11706],[-9.534186,54.117029],[-9.534176,54.117018],[-9.534125,54.116994],[-9.534072,54.116979],[-9.534017,54.116972],[-9.533955,54.116973],[-9.533895,54.116985],[-9.533879,54.116996],[-9.533861,54.117006],[-9.533811,54.117003],[-9.533798,54.117005],[-9.533786,54.117031],[-9.533798,54.117041],[-9.533757,54.117043],[-9.533714,54.117032],[-9.533735,54.116994],[-9.533726,54.116984],[-9.533656,54.117007],[-9.533658,54.11702],[-9.533692,54.117045],[-9.533634,54.117078],[-9.533574,54.117133],[-9.533576,54.117169],[-9.533598,54.117198],[-9.533615,54.117241],[-9.53364,54.117277],[-9.533662,54.117298],[-9.5337,54.117325],[-9.533752,54.117353],[-9.533814,54.117378],[-9.533939,54.117423],[-9.534031,54.117455],[-9.534108,54.117481],[-9.534197,54.117515],[-9.534263,54.117544],[-9.534319,54.117577],[-9.534369,54.117596],[-9.534425,54.11761],[-9.534451,54.117621],[-9.534489,54.117671],[-9.534523,54.117722],[-9.534543,54.117756],[-9.534557,54.117788],[-9.534563,54.117823],[-9.534543,54.11786],[-9.534501,54.117889],[-9.534462,54.117909],[-9.534384,54.117951],[-9.534358,54.117974],[-9.534353,54.117997],[-9.534377,54.118096],[-9.534402,54.118162],[-9.534409,54.118198],[-9.534426,54.118229],[-9.534453,54.118263],[-9.534488,54.118296],[-9.534503,54.118322],[-9.534502,54.118351],[-9.534491,54.118379],[-9.534419,54.118529],[-9.534411,54.118556],[-9.534413,54.118582],[-9.534424,54.118607],[-9.534434,54.118626],[-9.534452,54.118645],[-9.534464,54.118662],[-9.534459,54.1187],[-9.534451,54.11872],[-9.534462,54.118735],[-9.534476,54.118749],[-9.534486,54.118762],[-9.534501,54.118787],[-9.534513,54.118805],[-9.534522,54.11882],[-9.534534,54.118841],[-9.534555,54.118865],[-9.534569,54.118881],[-9.534587,54.118899],[-9.5346,54.118977],[-9.534617,54.119073],[-9.534642,54.119223],[-9.534664,54.119257],[-9.534674,54.119297],[-9.53468,54.11934],[-9.534671,54.119393],[-9.53466,54.119417],[-9.534642,54.119443],[-9.534626,54.119472],[-9.5345,54.119725],[-9.53445,54.11986],[-9.534419,54.119955],[-9.534345,54.120146],[-9.534324,54.120176],[-9.534262,54.120249],[-9.53422,54.120293],[-9.534149,54.120376],[-9.534118,54.120395],[-9.534099,54.120416],[-9.534039,54.120473],[-9.53405,54.12049],[-9.534056,54.120504],[-9.534061,54.120523],[-9.53404,54.120552],[-9.534013,54.120568],[-9.534001,54.120576],[-9.533989,54.120659],[-9.534024,54.120685],[-9.53405,54.120715],[-9.534052,54.120735],[-9.534061,54.120924],[-9.534073,54.12096],[-9.534086,54.120979],[-9.534135,54.121008],[-9.534164,54.121041],[-9.534171,54.121068],[-9.534146,54.12117],[-9.534154,54.121204],[-9.534173,54.121244],[-9.534198,54.121265],[-9.534232,54.121292],[-9.534258,54.121314],[-9.534291,54.12135],[-9.534328,54.121384],[-9.534347,54.121411],[-9.534348,54.121443],[-9.534348,54.121469],[-9.534425,54.121568],[-9.534472,54.121613],[-9.534477,54.121622],[-9.5345,54.121665],[-9.534512,54.12172],[-9.534517,54.121776],[-9.534519,54.121813],[-9.53451,54.121849],[-9.534495,54.121874],[-9.534473,54.121895],[-9.534445,54.121917],[-9.534416,54.121938],[-9.534401,54.121951],[-9.534397,54.121982],[-9.534424,54.122015],[-9.534446,54.12203],[-9.534478,54.122043],[-9.534522,54.122043],[-9.534564,54.122054],[-9.5346,54.122074],[-9.534587,54.122094],[-9.534564,54.122113],[-9.534548,54.122128],[-9.534528,54.122163],[-9.534526,54.122187],[-9.534533,54.122214],[-9.534538,54.122231],[-9.534538,54.12225],[-9.534525,54.122265],[-9.534489,54.122278],[-9.534456,54.122291],[-9.534433,54.122296],[-9.534402,54.122309],[-9.534383,54.122319],[-9.534333,54.12241],[-9.534341,54.122436],[-9.53436,54.122457],[-9.534377,54.122478],[-9.534371,54.122498],[-9.534371,54.122499],[-9.53437,54.122502],[-9.534352,54.122522],[-9.534338,54.122537],[-9.534323,54.122555],[-9.534318,54.12258],[-9.534317,54.122599],[-9.534288,54.122679],[-9.534271,54.122702],[-9.534245,54.122712],[-9.534179,54.12272],[-9.534171,54.122721],[-9.534027,54.122722],[-9.533952,54.122716],[-9.533902,54.122719],[-9.533831,54.122721],[-9.533769,54.122721],[-9.533677,54.122733],[-9.533643,54.122743],[-9.533624,54.122749],[-9.533622,54.12275],[-9.533608,54.122753],[-9.533512,54.122744],[-9.533498,54.122733],[-9.533484,54.122713],[-9.53349,54.122702],[-9.53349,54.122695],[-9.533466,54.12268],[-9.533426,54.122671],[-9.533387,54.12266],[-9.533351,54.122651],[-9.533344,54.122651],[-9.533349,54.122775],[-9.533349,54.122776],[-9.533568,54.122908],[-9.533623,54.122943],[-9.533713,54.123009],[-9.533817,54.123085],[-9.533879,54.123137],[-9.533959,54.123203],[-9.533988,54.123246],[-9.533988,54.123247],[-9.53399,54.123251],[-9.534002,54.12328],[-9.534025,54.123338],[-9.534202,54.124157],[-9.534253,54.124317],[-9.534253,54.124357],[-9.534232,54.124417],[-9.534224,54.124433],[-9.534215,54.12445],[-9.533941,54.124665],[-9.533886,54.124709],[-9.533809,54.124769],[-9.533755,54.124803],[-9.533693,54.124843],[-9.533677,54.12485],[-9.533651,54.124861],[-9.533557,54.124877],[-9.533508,54.124886],[-9.53339,54.124907],[-9.533386,54.124908],[-9.533367,54.124907],[-9.533317,54.124905],[-9.533231,54.12491],[-9.533109,54.124917],[-9.532977,54.124911],[-9.532855,54.124876],[-9.532752,54.124847],[-9.532662,54.124797],[-9.532653,54.124792],[-9.532604,54.124777],[-9.532512,54.124769],[-9.532137,54.124949],[-9.532133,54.124951],[-9.532105,54.124976],[-9.532077,54.125002],[-9.532046,54.125046],[-9.532008,54.125099],[-9.531958,54.125192],[-9.531936,54.125234],[-9.531933,54.12526],[-9.531928,54.125303],[-9.532122,54.125552],[-9.532422,54.125832],[-9.532467,54.125938],[-9.53249,54.125991],[-9.532505,54.126001],[-9.532581,54.126047],[-9.53262,54.126063],[-9.53264,54.126071],[-9.532808,54.126109],[-9.532952,54.126141],[-9.533327,54.126319],[-9.534029,54.126481],[-9.534036,54.126482],[-9.534087,54.12649],[-9.534126,54.126508],[-9.534146,54.126516],[-9.534173,54.126525],[-9.534415,54.126608],[-9.534501,54.126638],[-9.534588,54.12666],[-9.534924,54.126741],[-9.53504,54.126767],[-9.535099,54.126781],[-9.535166,54.126796],[-9.535215,54.126807],[-9.535283,54.126822],[-9.535802,54.126927],[-9.536047,54.126978],[-9.536148,54.127003],[-9.536163,54.127007],[-9.536217,54.127024],[-9.536246,54.127034],[-9.536592,54.12717],[-9.536668,54.127202],[-9.536817,54.127266],[-9.537496,54.127562],[-9.537878,54.127747],[-9.537954,54.127775],[-9.538085,54.127821],[-9.538082,54.127746],[-9.539,54.127734],[-9.53901,54.128003],[-9.539012,54.128062],[-9.539049,54.128056],[-9.539206,54.128206],[-9.539238,54.12827],[-9.539479,54.128267],[-9.539487,54.128504],[-9.539559,54.128544],[-9.53971,54.128631],[-9.539767,54.128654],[-9.539808,54.128661],[-9.53988,54.12866],[-9.539924,54.128668],[-9.539962,54.128686],[-9.540022,54.12871],[-9.540069,54.128715],[-9.540098,54.12872],[-9.540443,54.128945],[-9.540441,54.12913],[-9.540764,54.129203],[-9.54086,54.129467],[-9.540881,54.129469],[-9.540904,54.129471],[-9.540921,54.129471],[-9.540934,54.129464],[-9.54095,54.129456],[-9.540961,54.129449],[-9.540974,54.129447],[-9.541006,54.129451],[-9.541023,54.129454],[-9.541047,54.12946],[-9.541085,54.129463],[-9.541116,54.129466],[-9.541194,54.129476],[-9.541296,54.129496],[-9.541359,54.129509],[-9.541411,54.129504],[-9.541474,54.129499],[-9.541519,54.129491],[-9.541552,54.129483],[-9.541888,54.129591],[-9.541969,54.12952],[-9.542066,54.129296],[-9.542523,54.12937],[-9.542763,54.129371],[-9.54312,54.12943],[-9.543366,54.129529],[-9.543875,54.129572],[-9.544254,54.129677],[-9.544334,54.129759],[-9.544493,54.129954],[-9.544728,54.130023],[-9.544842,54.130029],[-9.545154,54.129942],[-9.545344,54.129939],[-9.545392,54.129937],[-9.545637,54.12993],[-9.546138,54.130076],[-9.546389,54.129906],[-9.546537,54.129901],[-9.546586,54.130031],[-9.546707,54.130131],[-9.546932,54.130195],[-9.546982,54.129953],[-9.547187,54.129791],[-9.547202,54.129654],[-9.546867,54.129455],[-9.547012,54.129356],[-9.547451,54.129461],[-9.548152,54.12967],[-9.548962,54.129381],[-9.54901,54.129205],[-9.548684,54.128919],[-9.549235,54.128792],[-9.549263,54.128783],[-9.549619,54.128689],[-9.549931,54.128608],[-9.550118,54.128555],[-9.550359,54.128464],[-9.550456,54.128428],[-9.550497,54.128412],[-9.550455,54.128118],[-9.551158,54.127936],[-9.551423,54.127665],[-9.551644,54.127588],[-9.551748,54.127566],[-9.55184,54.127577],[-9.551915,54.127605],[-9.551967,54.127623],[-9.552034,54.12765],[-9.55217,54.127709],[-9.552266,54.127743],[-9.55231,54.12775],[-9.55241,54.127748],[-9.552588,54.127721],[-9.552657,54.127705],[-9.552966,54.127617],[-9.553422,54.127459],[-9.554041,54.127305],[-9.555807,54.126769],[-9.555959,54.126726],[-9.556076,54.126693],[-9.556135,54.126693],[-9.556181,54.126694],[-9.556277,54.126687],[-9.556289,54.126686],[-9.556483,54.126633],[-9.556496,54.126629],[-9.556578,54.126607],[-9.556582,54.126606],[-9.557011,54.126488],[-9.557276,54.126415],[-9.557309,54.126406],[-9.557916,54.126239],[-9.559312,54.12576],[-9.559553,54.125669],[-9.560852,54.125186],[-9.561702,54.124856],[-9.56248,54.124553],[-9.563749,54.124058],[-9.563972,54.123972],[-9.564136,54.12391],[-9.564294,54.123856],[-9.564352,54.123839],[-9.566005,54.123407],[-9.567369,54.123048],[-9.567703,54.122939],[-9.568019,54.122858],[-9.56813,54.122847],[-9.568218,54.122844],[-9.568357,54.122848],[-9.56849,54.122856],[-9.568532,54.122861],[-9.568518,54.122491],[-9.570047,54.122471],[-9.570013,54.121573],[-9.571542,54.121553],[-9.571474,54.119757],[-9.573003,54.119737],[-9.574269,54.11972],[-9.574297,54.119649],[-9.574329,54.119554],[-9.574346,54.11948],[-9.574409,54.119176],[-9.574459,54.119165],[-9.57451,54.119158],[-9.574497,54.118819],[-9.575186,54.11881],[-9.57519,54.118805],[-9.575263,54.118809],[-9.576026,54.118799],[-9.576018,54.118577],[-9.575944,54.118586],[-9.575707,54.118611],[-9.5756,54.118621],[-9.57538,54.118625],[-9.575187,54.118648],[-9.57497,54.11868],[-9.574799,54.118691],[-9.574149,54.118742],[-9.574045,54.11875],[-9.57403,54.118743],[-9.57401,54.118734],[-9.573941,54.118704],[-9.573913,54.118674],[-9.573884,54.118613],[-9.57386,54.118554],[-9.573845,54.118487],[-9.573812,54.118367],[-9.573818,54.11832],[-9.57381,54.118266],[-9.573821,54.118224],[-9.573844,54.118187],[-9.57387,54.118128],[-9.573882,54.118082],[-9.573879,54.118032],[-9.573818,54.11798],[-9.573794,54.117943],[-9.573769,54.117885],[-9.573771,54.117766],[-9.573761,54.117721],[-9.573749,54.117702],[-9.573748,54.117667],[-9.573749,54.117644],[-9.573731,54.117618],[-9.573718,54.117559],[-9.573717,54.117549],[-9.573585,54.117504],[-9.573538,54.117489],[-9.573441,54.117456],[-9.573441,54.117456],[-9.573442,54.117479],[-9.573419,54.117552],[-9.573463,54.117702],[-9.573619,54.118258],[-9.573681,54.118448],[-9.573701,54.11854],[-9.573698,54.118598],[-9.573693,54.118693],[-9.573685,54.118745],[-9.573654,54.118742],[-9.5736,54.118743],[-9.573563,54.11875],[-9.573554,54.118751],[-9.573483,54.118772],[-9.573043,54.118799],[-9.572857,54.118831],[-9.572694,54.118873],[-9.572521,54.118923],[-9.572324,54.118985],[-9.572123,54.11905],[-9.571315,54.11933],[-9.571154,54.119381],[-9.571003,54.119421],[-9.570847,54.119454],[-9.570634,54.119469],[-9.570478,54.119465],[-9.570351,54.119451],[-9.570171,54.119429],[-9.569899,54.119391],[-9.569387,54.11933],[-9.569271,54.119306],[-9.569152,54.119302],[-9.568945,54.119298],[-9.568812,54.119311],[-9.568691,54.119331],[-9.568567,54.119355],[-9.568445,54.119367],[-9.5683,54.119371],[-9.568009,54.119347],[-9.567864,54.119332],[-9.56775,54.119313],[-9.567629,54.119284],[-9.567542,54.119255],[-9.567463,54.119221],[-9.567369,54.119165],[-9.567172,54.119008],[-9.567069,54.11891],[-9.566999,54.118835],[-9.566693,54.118506],[-9.566572,54.118377],[-9.566365,54.118156],[-9.56614,54.1179],[-9.565903,54.117667],[-9.565803,54.117576],[-9.565664,54.117493],[-9.565559,54.117455],[-9.565282,54.117368],[-9.564574,54.115603],[-9.564639,54.115489],[-9.564962,54.114834],[-9.565117,54.114532],[-9.565216,54.114396],[-9.565251,54.114369],[-9.565326,54.114311],[-9.565281,54.114273],[-9.565261,54.114275],[-9.56514,54.114389],[-9.564522,54.115603],[-9.563967,54.116607],[-9.56386,54.116741],[-9.563652,54.11693],[-9.563404,54.117113],[-9.563051,54.117256],[-9.562221,54.117464],[-9.561228,54.117681],[-9.560841,54.117729],[-9.560505,54.117745],[-9.559541,54.117667],[-9.557963,54.117538],[-9.557408,54.117461],[-9.557297,54.117449],[-9.557268,54.117446],[-9.555415,54.117114],[-9.554617,54.116937],[-9.55133,54.116069],[-9.550586,54.115859],[-9.549917,54.115602],[-9.548688,54.115089],[-9.547765,54.11446],[-9.547473,54.114323],[-9.547161,54.11423],[-9.546895,54.114156],[-9.546794,54.114148],[-9.546814,54.114685],[-9.545285,54.114705],[-9.54526,54.11404],[-9.543335,54.113917],[-9.541925,54.113832],[-9.541627,54.113784],[-9.541372,54.11373],[-9.539715,54.113228],[-9.538549,54.112907],[-9.538038,54.112771],[-9.536239,54.112277],[-9.534744,54.111896],[-9.534716,54.111927],[-9.534657,54.111994],[-9.534546,54.112082],[-9.534489,54.112128],[-9.534445,54.112156],[-9.534348,54.112195],[-9.534261,54.112231],[-9.534188,54.112265],[-9.534147,54.112287],[-9.534108,54.112339],[-9.534116,54.112371],[-9.53414,54.112425],[-9.534336,54.11296],[-9.534379,54.113046],[-9.534444,54.113107],[-9.534488,54.113141],[-9.53461,54.11327],[-9.53466,54.113329],[-9.534694,54.113368],[-9.534726,54.113418],[-9.534746,54.113456],[-9.53475,54.113494],[-9.53475,54.113559],[-9.534718,54.113665],[-9.534665,54.113731],[-9.534638,54.113793],[-9.534638,54.113821],[-9.534653,54.113941],[-9.534662,54.113962],[-9.534678,54.113996],[-9.53469,54.114041],[-9.5347,54.114086],[-9.534696,54.114105],[-9.53469,54.114172],[-9.534684,54.114215],[-9.53469,54.114239],[-9.534718,54.1144],[-9.534719,54.11445],[-9.534742,54.114496],[-9.534774,54.114583],[-9.534772,54.114609],[-9.534749,54.114647],[-9.534724,54.114673],[-9.534689,54.114692],[-9.534644,54.114706]],[[-9.565793,54.120417],[-9.565798,54.120409],[-9.565798,54.120402],[-9.565797,54.120394],[-9.565787,54.120385],[-9.565767,54.120376],[-9.565762,54.120374],[-9.565435,54.12028],[-9.565158,54.120624],[-9.565158,54.120624],[-9.564409,54.120415],[-9.564409,54.120415],[-9.564409,54.120415],[-9.564763,54.119976],[-9.564834,54.119996],[-9.565473,54.120174],[-9.565508,54.120133],[-9.565533,54.120104],[-9.565774,54.120174],[-9.565722,54.120237],[-9.565667,54.120302],[-9.565717,54.120317],[-9.565799,54.120342],[-9.565823,54.120348],[-9.565853,54.120348],[-9.565883,54.120348],[-9.565891,54.120345],[-9.565914,54.120336],[-9.565922,54.120338],[-9.565922,54.120338],[-9.565922,54.120338],[-9.565801,54.120437],[-9.565801,54.120437],[-9.565781,54.120433],[-9.565787,54.120427],[-9.565793,54.120417]],[[-9.541851,54.116706],[-9.54186,54.116709],[-9.541867,54.116714],[-9.541871,54.11672],[-9.541872,54.116726],[-9.541867,54.116732],[-9.541861,54.116736],[-9.54185,54.11674],[-9.54184,54.11674],[-9.541831,54.116737],[-9.541823,54.116732],[-9.541819,54.116727],[-9.541819,54.116722],[-9.54182,54.116717],[-9.541822,54.116713],[-9.541827,54.11671],[-9.541834,54.116707],[-9.541839,54.116706],[-9.541845,54.116706],[-9.541851,54.116706]],[[-9.542228,54.114744],[-9.542261,54.115642],[-9.545318,54.115603],[-9.545352,54.116501],[-9.539237,54.11658],[-9.539181,54.11506],[-9.53853,54.115069],[-9.53852,54.114799],[-9.539171,54.114791],[-9.539171,54.114783],[-9.542228,54.114744]],[[-9.54913,54.116281],[-9.549589,54.116275],[-9.549599,54.116544],[-9.54914,54.11655],[-9.54913,54.116281]],[[-9.548213,54.116292],[-9.548223,54.116562],[-9.548681,54.116556],[-9.548691,54.116826],[-9.54915,54.11682],[-9.54916,54.117089],[-9.54917,54.117359],[-9.548712,54.117364],[-9.548702,54.117095],[-9.548243,54.117101],[-9.548233,54.116831],[-9.547315,54.116843],[-9.547325,54.117113],[-9.546867,54.117119],[-9.546857,54.116849],[-9.545022,54.116873],[-9.545012,54.116603],[-9.545929,54.116591],[-9.545919,54.116322],[-9.546378,54.116316],[-9.546388,54.116586],[-9.547305,54.116574],[-9.547295,54.116304],[-9.548213,54.116292]],[[-9.548404,54.121412],[-9.548862,54.121407],[-9.548872,54.121676],[-9.548414,54.121682],[-9.548404,54.121412]],[[-9.5498,54.121934],[-9.550259,54.121928],[-9.550269,54.122197],[-9.54981,54.122203],[-9.5498,54.121934]],[[-9.536706,54.115362],[-9.537164,54.115356],[-9.537184,54.115895],[-9.536726,54.115901],[-9.536706,54.115362]]],[[[-9.538503,54.12801],[-9.538552,54.128038],[-9.538551,54.128009],[-9.538503,54.12801]]],[[[-9.534932,54.116458],[-9.534937,54.116463],[-9.535115,54.11646],[-9.535084,54.116456],[-9.535018,54.116452],[-9.534965,54.116455],[-9.534932,54.116458]]],[[[-9.535332,54.116451],[-9.535308,54.116458],[-9.53537,54.116457],[-9.535369,54.116438],[-9.535332,54.116451]]]]}}]}
