{"type":"FeatureCollection","features":[{"type":"Feature","properties":{"source_fid":426128,"county":"Mayo","bog_geom_ha":476.33187953171699,"low15_pct":99.848914069877253,"low15_ha":475.61220908105531,"overlay_ha":475.68580900243705,"area_delta":0.073599921381742206},"geometry":{"type":"MultiPolygon","coordinates":[[[[-9.538597,54.128278],[-9.538199,54.12904],[-9.538037,54.129107],[-9.537247,54.129434],[-9.535993,54.130066],[-9.534196,54.130872],[-9.532183,54.131794],[-9.532109,54.131827],[-9.53199,54.131881],[-9.53189,54.131926],[-9.531669,54.132025],[-9.531138,54.132263],[-9.530919,54.132371],[-9.530567,54.132544],[-9.530238,54.132699],[-9.53092,54.13269],[-9.53093,54.132959],[-9.530012,54.132971],[-9.530006,54.132807],[-9.52948,54.133054],[-9.529125,54.133221],[-9.529105,54.13323],[-9.529093,54.133235],[-9.528402,54.13356],[-9.528365,54.133577],[-9.528359,54.13358],[-9.530177,54.133282],[-9.530247,54.13327],[-9.532753,54.132855],[-9.532864,54.132889],[-9.533018,54.133009],[-9.533078,54.133071],[-9.531837,54.133273],[-9.530187,54.133563],[-9.529233,54.13373],[-9.527388,54.134021],[-9.527382,54.134024],[-9.52734,54.134043],[-9.525456,54.134892],[-9.522824,54.136074],[-9.520837,54.136986],[-9.519667,54.137493],[-9.518968,54.137845],[-9.518805,54.137927],[-9.516545,54.138964],[-9.514208,54.140036],[-9.513713,54.140261],[-9.514211,54.141813],[-9.514494,54.142786],[-9.51505,54.143272],[-9.514506,54.14339],[-9.513892,54.142904],[-9.513567,54.141823],[-9.513369,54.1411],[-9.513162,54.140512],[-9.513055,54.14056],[-9.512993,54.140589],[-9.51288,54.14064],[-9.512598,54.140782],[-9.512482,54.140819],[-9.512479,54.14082],[-9.511232,54.141397],[-9.510078,54.141915],[-9.508555,54.142598],[-9.508434,54.142642],[-9.50829,54.142695],[-9.508331,54.142802],[-9.508439,54.143061],[-9.508654,54.143212],[-9.509144,54.14352],[-9.509617,54.143754],[-9.509836,54.143669],[-9.510732,54.14407],[-9.511108,54.144271],[-9.511107,54.14431],[-9.511082,54.144685],[-9.510929,54.145498],[-9.510812,54.146384],[-9.510574,54.148276],[-9.51046,54.149432],[-9.511684,54.149385],[-9.513412,54.149338],[-9.51549,54.149259],[-9.517278,54.149204],[-9.518735,54.149162],[-9.521334,54.149063],[-9.523767,54.148996],[-9.52672,54.148884],[-9.527302,54.148854],[-9.527481,54.148815],[-9.528573,54.14828],[-9.529886,54.147679],[-9.530693,54.147288],[-9.531103,54.147089],[-9.534245,54.145608],[-9.536157,54.144743],[-9.537007,54.144149],[-9.537635,54.143571],[-9.538213,54.142916],[-9.539889,54.142942],[-9.541111,54.14293],[-9.541661,54.142851],[-9.543092,54.142652],[-9.544168,54.142481],[-9.545014,54.14235],[-9.545142,54.142396],[-9.54523,54.142497],[-9.545398,54.142695],[-9.54579,54.143206],[-9.546149,54.143702],[-9.546329,54.143933],[-9.546374,54.143991],[-9.546514,54.144171],[-9.546794,54.144528],[-9.547746,54.144781],[-9.548045,54.144864],[-9.548336,54.144944],[-9.548996,54.144908],[-9.549614,54.144656],[-9.550003,54.144425],[-9.550457,54.144011],[-9.550658,54.143955],[-9.550854,54.143963],[-9.551159,54.143949],[-9.551327,54.143936],[-9.551893,54.143852],[-9.552424,54.143752],[-9.552937,54.143723],[-9.553757,54.1437],[-9.554999,54.143654],[-9.555843,54.143622],[-9.556279,54.143598],[-9.556677,54.143451],[-9.557315,54.143376],[-9.557634,54.141889],[-9.55814,54.139899],[-9.558826,54.136884],[-9.559464,54.134218],[-9.55997,54.132107],[-9.560247,54.130999],[-9.560293,54.130726],[-9.560345,54.130487],[-9.560361,54.130412],[-9.560362,54.130408],[-9.560377,54.130336],[-9.560829,54.128592],[-9.560839,54.128553],[-9.560841,54.128546],[-9.56094,54.128162],[-9.561389,54.126277],[-9.561702,54.124856],[-9.560852,54.125186],[-9.559553,54.125669],[-9.559312,54.12576],[-9.557916,54.126239],[-9.557309,54.126406],[-9.557276,54.126415],[-9.557011,54.126488],[-9.556582,54.126606],[-9.556578,54.126607],[-9.556496,54.126629],[-9.556483,54.126633],[-9.556289,54.126686],[-9.556277,54.126687],[-9.556181,54.126694],[-9.556135,54.126693],[-9.556076,54.126693],[-9.555959,54.126726],[-9.555807,54.126769],[-9.554041,54.127305],[-9.553422,54.127459],[-9.552966,54.127617],[-9.552657,54.127705],[-9.552588,54.127721],[-9.55241,54.127748],[-9.55231,54.12775],[-9.552266,54.127743],[-9.55217,54.127709],[-9.552034,54.12765],[-9.551967,54.127623],[-9.551915,54.127605],[-9.55184,54.127577],[-9.551748,54.127566],[-9.551644,54.127588],[-9.551423,54.127665],[-9.551158,54.127936],[-9.550455,54.128118],[-9.550497,54.128412],[-9.550456,54.128428],[-9.550359,54.128464],[-9.550118,54.128555],[-9.549931,54.128608],[-9.549619,54.128689],[-9.549263,54.128783],[-9.549235,54.128792],[-9.548684,54.128919],[-9.54901,54.129205],[-9.548962,54.129381],[-9.548152,54.12967],[-9.547451,54.129461],[-9.547012,54.129356],[-9.546867,54.129455],[-9.547202,54.129654],[-9.547187,54.129791],[-9.546982,54.129953],[-9.546932,54.130195],[-9.546707,54.130131],[-9.546586,54.130031],[-9.546537,54.129901],[-9.546389,54.129906],[-9.546138,54.130076],[-9.545637,54.12993],[-9.545392,54.129937],[-9.545344,54.129939],[-9.545154,54.129942],[-9.544842,54.130029],[-9.544728,54.130023],[-9.544493,54.129954],[-9.544334,54.129759],[-9.544254,54.129677],[-9.543875,54.129572],[-9.543366,54.129529],[-9.54312,54.12943],[-9.542763,54.129371],[-9.542523,54.12937],[-9.542066,54.129296],[-9.541969,54.12952],[-9.541888,54.129591],[-9.541552,54.129483],[-9.541519,54.129491],[-9.541474,54.129499],[-9.541411,54.129504],[-9.541359,54.129509],[-9.541296,54.129496],[-9.541194,54.129476],[-9.541116,54.129466],[-9.541085,54.129463],[-9.541047,54.12946],[-9.541023,54.129454],[-9.541006,54.129451],[-9.540974,54.129447],[-9.540961,54.129449],[-9.54095,54.129456],[-9.540934,54.129464],[-9.540921,54.129471],[-9.540904,54.129471],[-9.540881,54.129469],[-9.54086,54.129467],[-9.540764,54.129203],[-9.540441,54.12913],[-9.540443,54.128945],[-9.540098,54.12872],[-9.540069,54.128715],[-9.540022,54.12871],[-9.539962,54.128686],[-9.539924,54.128668],[-9.53988,54.12866],[-9.539808,54.128661],[-9.539767,54.128654],[-9.53971,54.128631],[-9.539559,54.128544],[-9.539487,54.128504],[-9.539489,54.128537],[-9.53903,54.128542],[-9.53902,54.128273],[-9.538597,54.128278]],[[-9.542305,54.134282],[-9.542324,54.134268],[-9.542475,54.134157],[-9.542684,54.133997],[-9.543447,54.133398],[-9.544478,54.132548],[-9.5453,54.131899],[-9.546125,54.131221],[-9.546208,54.131158],[-9.546335,54.131061],[-9.546516,54.130923],[-9.549972,54.132368],[-9.549326,54.132895],[-9.54928,54.132963],[-9.5492,54.133028],[-9.549122,54.133078],[-9.548602,54.133508],[-9.54806,54.133948],[-9.547688,54.134252],[-9.547584,54.134333],[-9.547521,54.134384],[-9.547185,54.134245],[-9.548235,54.13334],[-9.549212,54.13256],[-9.549114,54.132466],[-9.549034,54.132426],[-9.548852,54.132339],[-9.548352,54.132086],[-9.547817,54.131847],[-9.546882,54.131383],[-9.546124,54.131971],[-9.544343,54.133385],[-9.542974,54.134497],[-9.54234,54.135007],[-9.54186,54.134802],[-9.542305,54.134282]],[[-9.52354,54.141601],[-9.523843,54.142259],[-9.523711,54.142288],[-9.523603,54.142298],[-9.523494,54.142312],[-9.523267,54.142326],[-9.523139,54.142354],[-9.523068,54.142376],[-9.522951,54.142388],[-9.522784,54.142424],[-9.522614,54.142441],[-9.522585,54.14245],[-9.520928,54.142756],[-9.518817,54.143155],[-9.516568,54.143508],[-9.514931,54.143838],[-9.514655,54.14352],[-9.516007,54.143275],[-9.51755,54.142998],[-9.519221,54.142682],[-9.520415,54.142475],[-9.520998,54.142381],[-9.522459,54.142104],[-9.522747,54.14206],[-9.522947,54.142016],[-9.523003,54.141987],[-9.523115,54.141817],[-9.52264,54.141014],[-9.522539,54.14084],[-9.522617,54.140718],[-9.523375,54.140595],[-9.524281,54.140419],[-9.525055,54.14027],[-9.52619,54.140067],[-9.527347,54.139846],[-9.528482,54.139634],[-9.529968,54.139353],[-9.530398,54.139277],[-9.530813,54.139203],[-9.532076,54.138956],[-9.532712,54.138859],[-9.532787,54.139119],[-9.53284,54.13928],[-9.531067,54.139576],[-9.530412,54.139668],[-9.529596,54.139783],[-9.527219,54.140224],[-9.525827,54.140459],[-9.524434,54.140693],[-9.523173,54.140919],[-9.52354,54.141601]],[[-9.512736,54.144768],[-9.512703,54.14387],[-9.514233,54.143851],[-9.514265,54.144749],[-9.512736,54.144768]],[[-9.514298,54.145647],[-9.514265,54.144749],[-9.515795,54.14473],[-9.515828,54.145628],[-9.514298,54.145647]],[[-9.51246,54.142629],[-9.51245,54.142359],[-9.512909,54.142354],[-9.512919,54.142623],[-9.51246,54.142629]],[[-9.511093,54.142916],[-9.511083,54.142646],[-9.511542,54.14264],[-9.511552,54.14291],[-9.511093,54.142916]],[[-9.512939,54.143162],[-9.51248,54.143168],[-9.51247,54.142898],[-9.512929,54.142893],[-9.512939,54.143162]],[[-9.512021,54.143174],[-9.51248,54.143168],[-9.512489,54.143437],[-9.51203,54.143443],[-9.512021,54.143174]]],[[[-9.539049,54.128056],[-9.539012,54.128062],[-9.53902,54.128273],[-9.539238,54.12827],[-9.539206,54.128206],[-9.539049,54.128056]]]]}}]}
