{"type":"FeatureCollection","features":[{"type":"Feature","properties":{"source_fid":426151,"county":"Mayo","bog_geom_ha":121.35908702321977,"low15_pct":97.702001482579689,"low15_ha":118.57025700267135,"overlay_ha":118.70047402168983,"area_delta":0.13021701901847393},"geometry":{"type":"MultiPolygon","coordinates":[[[[-9.850841,53.662117],[-9.850888,53.662104],[-9.850916,53.662082],[-9.850922,53.662076],[-9.850935,53.66206],[-9.850935,53.662059],[-9.850921,53.662054],[-9.850905,53.662049],[-9.850834,53.662041],[-9.850786,53.662047],[-9.850749,53.662077],[-9.850685,53.662078],[-9.850657,53.662053],[-9.850659,53.662023],[-9.850691,53.661997],[-9.850717,53.661966],[-9.850713,53.661939],[-9.850699,53.661928],[-9.85066,53.661912],[-9.850623,53.661912],[-9.850593,53.661921],[-9.850557,53.661943],[-9.850515,53.661974],[-9.85045,53.661997],[-9.850394,53.66199],[-9.850321,53.661968],[-9.850263,53.661927],[-9.850235,53.661893],[-9.8502,53.661855],[-9.850137,53.661826],[-9.850087,53.66181],[-9.849984,53.661798],[-9.849902,53.661778],[-9.849868,53.661778],[-9.849825,53.661778],[-9.849789,53.661786],[-9.84975,53.661805],[-9.849747,53.661823],[-9.84974,53.661853],[-9.849706,53.661903],[-9.849657,53.661925],[-9.849574,53.661943],[-9.849508,53.661954],[-9.849433,53.661952],[-9.849377,53.661935],[-9.849342,53.661903],[-9.849345,53.661877],[-9.849376,53.661859],[-9.849393,53.661822],[-9.849395,53.661801],[-9.849376,53.661764],[-9.849354,53.661729],[-9.849329,53.661706],[-9.849283,53.661687],[-9.849213,53.661681],[-9.849114,53.66169],[-9.849009,53.661712],[-9.848927,53.661737],[-9.848816,53.661765],[-9.84866,53.661776],[-9.848597,53.661772],[-9.848452,53.661717],[-9.848361,53.661685],[-9.84828,53.661656],[-9.848235,53.661619],[-9.848218,53.661598],[-9.848077,53.661556],[-9.847951,53.661517],[-9.847799,53.661478],[-9.847695,53.661439],[-9.847643,53.661423],[-9.847518,53.661411],[-9.847446,53.661402],[-9.847374,53.661372],[-9.847326,53.66134],[-9.847302,53.661309],[-9.847326,53.661281],[-9.847322,53.661267],[-9.847286,53.661251],[-9.847253,53.661232],[-9.847177,53.661215],[-9.847109,53.661212],[-9.847076,53.661209],[-9.847071,53.661214],[-9.847027,53.661218],[-9.84694,53.661214],[-9.846892,53.661191],[-9.846858,53.661186],[-9.846794,53.661174],[-9.846766,53.661158],[-9.846758,53.661137],[-9.846749,53.661128],[-9.846729,53.661119],[-9.846713,53.661114],[-9.846677,53.661111],[-9.846643,53.661097],[-9.846616,53.661073],[-9.846559,53.661026],[-9.846515,53.661008],[-9.845992,53.660706],[-9.844872,53.660458],[-9.844752,53.660374],[-9.843084,53.659911],[-9.841291,53.659071],[-9.837724,53.657201],[-9.837731,53.657361],[-9.837277,53.657368],[-9.837277,53.657361],[-9.833706,53.659648],[-9.833714,53.659651],[-9.833761,53.659682],[-9.833827,53.659733],[-9.833873,53.659772],[-9.833909,53.659812],[-9.833953,53.659862],[-9.834002,53.659906],[-9.834059,53.659958],[-9.834117,53.659978],[-9.834198,53.660019],[-9.834267,53.660048],[-9.834314,53.660086],[-9.834419,53.660099],[-9.834524,53.660125],[-9.834565,53.660156],[-9.834576,53.660192],[-9.834579,53.660225],[-9.834581,53.66029],[-9.834594,53.660327],[-9.834614,53.660343],[-9.834676,53.660348],[-9.834757,53.660343],[-9.8348,53.660343],[-9.834842,53.660349],[-9.834864,53.660367],[-9.834916,53.660401],[-9.83496,53.660442],[-9.835008,53.6605],[-9.835058,53.660556],[-9.835098,53.660573],[-9.835167,53.660583],[-9.835267,53.660585],[-9.835316,53.660594],[-9.835381,53.660614],[-9.835398,53.660651],[-9.835401,53.660705],[-9.835405,53.660748],[-9.835447,53.660792],[-9.835453,53.660855],[-9.83544,53.660894],[-9.835412,53.66094],[-9.835371,53.660973],[-9.835376,53.661006],[-9.835392,53.66103],[-9.835453,53.661039],[-9.835514,53.661038],[-9.835593,53.661044],[-9.835633,53.661059],[-9.835661,53.661079],[-9.835709,53.661132],[-9.835778,53.661202],[-9.835844,53.661282],[-9.835892,53.661331],[-9.835992,53.661369],[-9.836052,53.661412],[-9.836099,53.661447],[-9.836124,53.661482],[-9.836133,53.661514],[-9.836113,53.661558],[-9.836075,53.661602],[-9.836047,53.661632],[-9.836039,53.66166],[-9.836057,53.661697],[-9.836116,53.661733],[-9.836227,53.661775],[-9.836372,53.661807],[-9.836441,53.661835],[-9.836511,53.661876],[-9.836517,53.661921],[-9.836514,53.661973],[-9.836528,53.662022],[-9.836565,53.662053],[-9.836636,53.662073],[-9.836734,53.662073],[-9.836787,53.662074],[-9.836831,53.662094],[-9.836934,53.662159],[-9.836997,53.662203],[-9.837049,53.662226],[-9.837094,53.662232],[-9.837172,53.662229],[-9.837309,53.662223],[-9.83741,53.662221],[-9.83749,53.662224],[-9.837568,53.662239],[-9.837627,53.662262],[-9.837658,53.662279],[-9.837669,53.6623],[-9.837648,53.662336],[-9.83763,53.662361],[-9.837632,53.662388],[-9.837679,53.662428],[-9.837775,53.662472],[-9.83785,53.662484],[-9.837903,53.662497],[-9.83797,53.662509],[-9.838005,53.662533],[-9.838035,53.662583],[-9.838064,53.662632],[-9.838081,53.662655],[-9.838129,53.662676],[-9.838186,53.662691],[-9.83829,53.662696],[-9.838358,53.66269],[-9.83845,53.662686],[-9.838518,53.662687],[-9.838607,53.662708],[-9.83869,53.662744],[-9.838781,53.6628],[-9.838815,53.662831],[-9.838855,53.66288],[-9.838865,53.662933],[-9.838891,53.662961],[-9.838943,53.662985],[-9.839025,53.662992],[-9.839133,53.663005],[-9.839186,53.663016],[-9.839251,53.663032],[-9.839288,53.663058],[-9.839348,53.663085],[-9.839413,53.663105],[-9.839497,53.663128],[-9.839609,53.663139],[-9.839749,53.663154],[-9.839825,53.663172],[-9.839876,53.663193],[-9.839915,53.663226],[-9.839921,53.663266],[-9.83997,53.663339],[-9.840055,53.663421],[-9.840107,53.663477],[-9.840159,53.663505],[-9.840273,53.663514],[-9.840344,53.663499],[-9.840458,53.663469],[-9.84056,53.663443],[-9.840626,53.663445],[-9.840706,53.663474],[-9.840778,53.663514],[-9.840821,53.66354],[-9.840906,53.663569],[-9.841036,53.663591],[-9.841156,53.663618],[-9.841248,53.663654],[-9.841325,53.663705],[-9.841399,53.663753],[-9.841488,53.663764],[-9.841583,53.663788],[-9.841679,53.663839],[-9.841684,53.66386],[-9.841679,53.663881],[-9.841741,53.663909],[-9.841905,53.663978],[-9.842042,53.664022],[-9.842132,53.664059],[-9.842146,53.664078],[-9.842134,53.664101],[-9.842162,53.664124],[-9.842219,53.664134],[-9.842297,53.664164],[-9.842377,53.664157],[-9.842512,53.664143],[-9.842626,53.664145],[-9.842721,53.664167],[-9.842834,53.664202],[-9.843002,53.664248],[-9.8431,53.664299],[-9.843187,53.664354],[-9.843224,53.664387],[-9.843205,53.664431],[-9.843168,53.664473],[-9.843171,53.664503],[-9.843209,53.664554],[-9.843276,53.664571],[-9.84333,53.664561],[-9.843374,53.664535],[-9.843416,53.664475],[-9.843449,53.664437],[-9.843485,53.664415],[-9.843525,53.664401],[-9.843597,53.664397],[-9.843723,53.664417],[-9.843836,53.664457],[-9.843936,53.664498],[-9.844027,53.66456],[-9.844063,53.664588],[-9.844103,53.664599],[-9.844179,53.664595],[-9.84426,53.664568],[-9.844304,53.664557],[-9.844374,53.664549],[-9.844439,53.664569],[-9.844492,53.664605],[-9.844517,53.664651],[-9.844518,53.664706],[-9.844517,53.664751],[-9.84455,53.664796],[-9.844571,53.664849],[-9.844585,53.664902],[-9.844628,53.664943],[-9.844713,53.66499],[-9.844809,53.665046],[-9.844877,53.665106],[-9.844942,53.665165],[-9.845011,53.665244],[-9.845092,53.665334],[-9.845165,53.6654],[-9.845219,53.665465],[-9.845229,53.665541],[-9.845217,53.665598],[-9.845157,53.665647],[-9.84503,53.665682],[-9.844959,53.665703],[-9.844922,53.66574],[-9.844907,53.665797],[-9.844844,53.665873],[-9.844778,53.665954],[-9.844772,53.666023],[-9.84479,53.666104],[-9.844832,53.66615],[-9.844855,53.666178],[-9.844945,53.666188],[-9.845045,53.666203],[-9.845151,53.666245],[-9.845302,53.666296],[-9.84536,53.666337],[-9.845421,53.666416],[-9.845501,53.666496],[-9.845546,53.666567],[-9.845605,53.666642],[-9.845661,53.666671],[-9.84572,53.666686],[-9.845812,53.666681],[-9.845884,53.666689],[-9.845958,53.666677],[-9.846065,53.666636],[-9.846133,53.666603],[-9.846188,53.666594],[-9.84624,53.666598],[-9.846312,53.66662],[-9.846358,53.666651],[-9.84638,53.666685],[-9.846378,53.66672],[-9.846308,53.666801],[-9.846302,53.666839],[-9.846318,53.666888],[-9.846382,53.666928],[-9.846433,53.666962],[-9.84653,53.667056],[-9.846538,53.667109],[-9.846578,53.667151],[-9.846588,53.667244],[-9.846584,53.66732],[-9.84658,53.667395],[-9.846584,53.66742],[-9.846645,53.667433],[-9.846723,53.667404],[-9.846759,53.667376],[-9.846776,53.667369],[-9.846933,53.667379],[-9.847037,53.667401],[-9.847066,53.66742],[-9.847065,53.667452],[-9.847028,53.667488],[-9.846966,53.66753],[-9.846938,53.667583],[-9.846943,53.667643],[-9.846933,53.667748],[-9.846941,53.667795],[-9.846951,53.667809],[-9.847021,53.667841],[-9.847153,53.667895],[-9.847194,53.667941],[-9.847251,53.668],[-9.847274,53.667999],[-9.847276,53.668026],[-9.847281,53.668032],[-9.847315,53.668083],[-9.847391,53.668114],[-9.847504,53.668152],[-9.8476,53.668152],[-9.847657,53.668136],[-9.847699,53.66811],[-9.847698,53.668061],[-9.847683,53.668022],[-9.847697,53.667994],[-9.847802,53.667947],[-9.847867,53.667933],[-9.847928,53.667939],[-9.847976,53.667966],[-9.848046,53.668026],[-9.848117,53.668122],[-9.84818,53.668248],[-9.848219,53.668343],[-9.848243,53.668402],[-9.848277,53.668494],[-9.848308,53.668533],[-9.848395,53.668558],[-9.84852,53.668588],[-9.848672,53.668625],[-9.848755,53.668671],[-9.848859,53.668727],[-9.848975,53.668782],[-9.849065,53.668781],[-9.849207,53.668745],[-9.849378,53.668721],[-9.849496,53.668698],[-9.849626,53.668687],[-9.849914,53.668683],[-9.850029,53.668693],[-9.85002,53.668496],[-9.850474,53.668489],[-9.850486,53.668759],[-9.85094,53.668752],[-9.850952,53.669021],[-9.851859,53.669007],[-9.851871,53.669276],[-9.852325,53.669269],[-9.852336,53.669539],[-9.85279,53.669532],[-9.852802,53.669801],[-9.855071,53.669766],[-9.855083,53.670036],[-9.85599,53.670022],[-9.855978,53.669752],[-9.858247,53.669717],[-9.858254,53.669887],[-9.858277,53.669885],[-9.858345,53.669913],[-9.858426,53.670008],[-9.858528,53.670094],[-9.858594,53.670151],[-9.858595,53.670202],[-9.858654,53.67025],[-9.859178,53.670242],[-9.859179,53.670262],[-9.859295,53.670233],[-9.859339,53.67018],[-9.859405,53.670153],[-9.85955,53.67015],[-9.85973,53.670172],[-9.859978,53.670242],[-9.860238,53.670315],[-9.860458,53.670368],[-9.86061,53.670389],[-9.860702,53.670362],[-9.860764,53.670297],[-9.860866,53.670186],[-9.860969,53.670097],[-9.861047,53.670059],[-9.86112,53.670045],[-9.861296,53.670036],[-9.861394,53.670001],[-9.861491,53.669983],[-9.861686,53.669934],[-9.861784,53.669908],[-9.861909,53.66988],[-9.862054,53.669859],[-9.86217,53.669844],[-9.862205,53.669806],[-9.862274,53.669775],[-9.862365,53.669757],[-9.862496,53.669761],[-9.862606,53.669687],[-9.862728,53.669617],[-9.862804,53.669594],[-9.862847,53.669585],[-9.862883,53.669584],[-9.862914,53.669587],[-9.863064,53.669603],[-9.863184,53.669615],[-9.863237,53.669599],[-9.863487,53.669529],[-9.863674,53.669497],[-9.863794,53.669493],[-9.863905,53.669415],[-9.864002,53.669364],[-9.864064,53.669337],[-9.864215,53.669326],[-9.864348,53.669343],[-9.864496,53.669414],[-9.864588,53.669484],[-9.864623,53.669577],[-9.864655,53.669662],[-9.864708,53.669723],[-9.864805,53.669774],[-9.864902,53.669799],[-9.86507,53.669787],[-9.865194,53.669781],[-9.865353,53.669817],[-9.86547,53.669879],[-9.865615,53.670019],[-9.865727,53.67011],[-9.865849,53.670159],[-9.866092,53.670169],[-9.866394,53.670193],[-9.86641,53.670196],[-9.866395,53.669858],[-9.868225,53.66983],[-9.868378,53.66973],[-9.868591,53.669588],[-9.86879,53.669461],[-9.868844,53.669427],[-9.868887,53.669424],[-9.868932,53.669411],[-9.868871,53.669397],[-9.868731,53.66939],[-9.868406,53.669338],[-9.867251,53.669125],[-9.866973,53.669026],[-9.866558,53.668839],[-9.866539,53.66883],[-9.866385,53.66875],[-9.866337,53.668725],[-9.86612,53.668608],[-9.865809,53.66843],[-9.865796,53.668422],[-9.865717,53.668377],[-9.865129,53.668036],[-9.864545,53.667718],[-9.863397,53.667366],[-9.862474,53.667069],[-9.862377,53.667038],[-9.862359,53.667033],[-9.86235,53.66703],[-9.860937,53.666384],[-9.860683,53.666273],[-9.860551,53.666207],[-9.860361,53.666125],[-9.860174,53.666045],[-9.860035,53.665974],[-9.859875,53.66589],[-9.85966,53.665773],[-9.859453,53.665658],[-9.859445,53.665654],[-9.85943,53.665654],[-9.85943,53.665646],[-9.85922,53.665535],[-9.859315,53.665479],[-9.85942,53.665417],[-9.859418,53.665385],[-9.858965,53.665392],[-9.858953,53.665122],[-9.858499,53.665129],[-9.858487,53.66486],[-9.858753,53.664856],[-9.858184,53.664672],[-9.857775,53.664562],[-9.857774,53.664321],[-9.857749,53.663999],[-9.857739,53.663764],[-9.857721,53.663516],[-9.857722,53.663461],[-9.857722,53.663446],[-9.857722,53.663432],[-9.857643,53.663355],[-9.85762,53.663273],[-9.857608,53.663154],[-9.857533,53.662933],[-9.857466,53.662708],[-9.857433,53.662593],[-9.857425,53.662566],[-9.857388,53.66244],[-9.857329,53.66226],[-9.857318,53.662203],[-9.857363,53.662064],[-9.857379,53.661996],[-9.857322,53.661973],[-9.857264,53.66197],[-9.857223,53.66198],[-9.857205,53.661998],[-9.857198,53.662022],[-9.857205,53.662043],[-9.857225,53.662055],[-9.857274,53.662129],[-9.857287,53.662188],[-9.857287,53.66223],[-9.857264,53.662264],[-9.857216,53.662291],[-9.857169,53.662314],[-9.857154,53.662326],[-9.857144,53.662359],[-9.857121,53.662374],[-9.85708,53.66238],[-9.857024,53.662377],[-9.856965,53.662367],[-9.856919,53.662358],[-9.856818,53.662354],[-9.856702,53.662345],[-9.856638,53.662335],[-9.856616,53.662338],[-9.856578,53.662349],[-9.856526,53.662363],[-9.856488,53.66237],[-9.856477,53.662375],[-9.856472,53.66243],[-9.856463,53.662447],[-9.856447,53.662473],[-9.85642,53.66254],[-9.856349,53.662564],[-9.856274,53.662561],[-9.856211,53.662543],[-9.856158,53.662522],[-9.856079,53.662493],[-9.856046,53.662493],[-9.856023,53.662508],[-9.856,53.662537],[-9.85595,53.662561],[-9.855885,53.662556],[-9.855824,53.662531],[-9.855746,53.662519],[-9.855692,53.662524],[-9.855642,53.662543],[-9.855603,53.662574],[-9.855548,53.662629],[-9.855539,53.662674],[-9.855497,53.662725],[-9.855381,53.66279],[-9.855317,53.662806],[-9.855218,53.662776],[-9.855228,53.663023],[-9.855682,53.663016],[-9.855694,53.663285],[-9.854787,53.663299],[-9.854775,53.66303],[-9.854763,53.66276],[-9.855133,53.662755],[-9.855071,53.66274],[-9.85495,53.662716],[-9.854825,53.662704],[-9.854712,53.662691],[-9.854641,53.662699],[-9.854572,53.662723],[-9.854513,53.662752],[-9.854466,53.662792],[-9.854387,53.662829],[-9.854344,53.66283],[-9.854307,53.662844],[-9.854254,53.662904],[-9.854204,53.662938],[-9.854149,53.662968],[-9.854048,53.662981],[-9.853976,53.662976],[-9.853875,53.662942],[-9.853796,53.662903],[-9.853755,53.66286],[-9.853745,53.662824],[-9.853752,53.662813],[-9.853751,53.662811],[-9.853709,53.662796],[-9.853631,53.662781],[-9.853554,53.662766],[-9.853466,53.662726],[-9.853421,53.662687],[-9.853382,53.662649],[-9.853339,53.662632],[-9.853238,53.662627],[-9.853174,53.662615],[-9.853083,53.662582],[-9.853,53.662569],[-9.85286,53.662543],[-9.852711,53.662519],[-9.852608,53.662504],[-9.852499,53.662504],[-9.852441,53.662512],[-9.852397,53.662542],[-9.852353,53.66259],[-9.852303,53.662625],[-9.852234,53.66263],[-9.85213,53.662608],[-9.852079,53.662582],[-9.852056,53.662548],[-9.85204,53.662507],[-9.851996,53.662483],[-9.851903,53.66246],[-9.851811,53.662422],[-9.851737,53.662387],[-9.851702,53.66236],[-9.851633,53.662319],[-9.851551,53.662287],[-9.851532,53.662255],[-9.851505,53.662236],[-9.851433,53.662235],[-9.851329,53.662217],[-9.851266,53.662194],[-9.851187,53.662183],[-9.851114,53.662184],[-9.851037,53.662211],[-9.850963,53.662247],[-9.85093,53.662268],[-9.850914,53.662279],[-9.850854,53.662276],[-9.850802,53.662251],[-9.850793,53.66221],[-9.850795,53.662168],[-9.850841,53.662117]],[[-9.860516,53.669682],[-9.861423,53.669668],[-9.861435,53.669937],[-9.860527,53.669951],[-9.860516,53.669682]]],[[[-9.859425,53.665084],[-9.859405,53.665076],[-9.859406,53.665115],[-9.859503,53.665114],[-9.859425,53.665084]]],[[[-9.850256,53.668871],[-9.85033,53.668909],[-9.850393,53.668964],[-9.850442,53.668995],[-9.850484,53.669012],[-9.850497,53.669012],[-9.850486,53.668759],[-9.850157,53.668764],[-9.850187,53.66879],[-9.850207,53.668838],[-9.850256,53.668871]]],[[[-9.85087,53.669022],[-9.850937,53.669052],[-9.850953,53.669063],[-9.850952,53.669021],[-9.85087,53.669022]]],[[[-9.851048,53.669383],[-9.851065,53.669452],[-9.851117,53.669485],[-9.85119,53.669496],[-9.851315,53.669494],[-9.85142,53.669519],[-9.851427,53.669521],[-9.851417,53.669283],[-9.851034,53.669289],[-9.851033,53.669294],[-9.851048,53.669383]]],[[[-9.851548,53.669553],[-9.851614,53.669583],[-9.851672,53.669608],[-9.851754,53.669635],[-9.851873,53.669648],[-9.851887,53.669651],[-9.851883,53.669546],[-9.85154,53.669551],[-9.851548,53.669553]]],[[[-9.852802,53.669801],[-9.852203,53.669811],[-9.852331,53.669898],[-9.852484,53.669981],[-9.852581,53.670038],[-9.85262,53.670074],[-9.852814,53.670071],[-9.852802,53.669801]]],[[[-9.857199,53.670173],[-9.85732,53.670201],[-9.857484,53.670174],[-9.857678,53.670102],[-9.857833,53.670009],[-9.857876,53.669992],[-9.856898,53.670007],[-9.856903,53.670128],[-9.857015,53.670134],[-9.857176,53.67016],[-9.857199,53.670173]]],[[[-9.85384,53.670416],[-9.853962,53.670364],[-9.853966,53.670302],[-9.853994,53.670236],[-9.854071,53.670138],[-9.854106,53.670057],[-9.854114,53.670051],[-9.852814,53.670071],[-9.852818,53.670169],[-9.852891,53.670184],[-9.853004,53.670194],[-9.853066,53.670185],[-9.853101,53.670169],[-9.853189,53.670185],[-9.853297,53.67022],[-9.853399,53.670265],[-9.853496,53.670297],[-9.853567,53.670329],[-9.853733,53.670326],[-9.853737,53.670417],[-9.85384,53.670416]]],[[[-9.85573,53.670506],[-9.855848,53.670534],[-9.855902,53.670536],[-9.856,53.670513],[-9.856226,53.670397],[-9.856398,53.670314],[-9.856465,53.670284],[-9.855094,53.670305],[-9.855083,53.670036],[-9.854697,53.670042],[-9.854733,53.670065],[-9.85476,53.670102],[-9.854821,53.670153],[-9.854911,53.670225],[-9.85501,53.670328],[-9.855061,53.670376],[-9.855168,53.670432],[-9.855232,53.670463],[-9.855173,53.670483],[-9.855068,53.670514],[-9.855048,53.670526],[-9.855042,53.670563],[-9.855051,53.670611],[-9.855075,53.67064],[-9.855122,53.670669],[-9.855128,53.670649],[-9.855152,53.670624],[-9.855213,53.67059],[-9.855272,53.67056],[-9.855357,53.67051],[-9.855408,53.670476],[-9.855568,53.670481],[-9.85573,53.670506]]]]}}]}
