{"type":"FeatureCollection","features":[{"type":"Feature","properties":{"source_fid":431504,"county":"Mayo","bog_geom_ha":319.18924653301127,"low15_pct":95.322626091856861,"low15_ha":304.25957199807755,"overlay_ha":304.29007258039644,"area_delta":0.030500582318893521},"geometry":{"type":"MultiPolygon","coordinates":[[[[-9.985364,54.286267],[-9.985355,54.286237],[-9.985314,54.286196],[-9.985286,54.286162],[-9.984758,54.286171],[-9.984734,54.28566],[-9.984688,54.285615],[-9.984575,54.285494],[-9.98441,54.285367],[-9.984583,54.285247],[-9.984753,54.285113],[-9.985022,54.284911],[-9.985238,54.28475],[-9.984837,54.284427],[-9.984369,54.284069],[-9.984288,54.283994],[-9.98427,54.283947],[-9.984284,54.283904],[-9.984334,54.283846],[-9.984345,54.283777],[-9.98431,54.28366],[-9.984267,54.283448],[-9.984178,54.283168],[-9.98407,54.282762],[-9.983959,54.282505],[-9.984446,54.282143],[-9.986129,54.282318],[-9.986195,54.282338],[-9.986242,54.282342],[-9.987088,54.282419],[-9.988687,54.282583],[-9.988739,54.282588],[-9.989025,54.282617],[-9.990149,54.282735],[-9.990244,54.282731],[-9.990316,54.282703],[-9.990326,54.282697],[-9.99036,54.282673],[-9.990432,54.282665],[-9.99063,54.282689],[-9.991209,54.282786],[-9.991644,54.282829],[-9.992317,54.282895],[-9.992366,54.282898],[-9.992353,54.282918],[-9.992343,54.282933],[-9.992389,54.282938],[-9.992848,54.282983],[-9.994134,54.283107],[-9.994183,54.283111],[-9.994852,54.283176],[-9.995843,54.283272],[-9.996506,54.283337],[-9.996827,54.283368],[-9.996923,54.283377],[-9.997834,54.283468],[-9.998763,54.283554],[-9.99875,54.283933],[-9.998721,54.284485],[-9.998695,54.285201],[-9.998682,54.28549],[-9.998671,54.286036],[-9.99864,54.286666],[-9.998613,54.287225],[-9.998595,54.287543],[-9.998582,54.287927],[-9.998566,54.288316],[-9.998209,54.288485],[-9.997357,54.288894],[-9.9971,54.289024],[-9.996789,54.289181],[-9.996734,54.289208],[-9.996254,54.289442],[-9.995728,54.289708],[-9.995412,54.289876],[-9.995053,54.290055],[-9.994614,54.290269],[-9.994351,54.290407],[-9.994267,54.29038],[-9.993716,54.290651],[-9.993118,54.290935],[-9.992785,54.291112],[-9.992589,54.291209],[-9.991919,54.291526],[-9.991567,54.291694],[-9.991417,54.291754],[-9.991233,54.291844],[-9.991237,54.291911],[-9.99139,54.291986],[-9.991421,54.292037],[-9.991703,54.292032],[-9.991716,54.292302],[-9.991729,54.292571],[-9.991762,54.293244],[-9.992778,54.293227],[-9.992821,54.294125],[-9.994356,54.294099],[-9.994368,54.294359],[-9.994534,54.294363],[-9.995276,54.294363],[-9.995783,54.294358],[-9.995904,54.294355],[-9.995891,54.294074],[-10.000495,54.293998],[-10.000452,54.2931],[-10.003521,54.293049],[-10.003478,54.292151],[-10.005012,54.292126],[-10.004969,54.291228],[-10.004925,54.29033],[-10.00646,54.290304],[-10.007994,54.290279],[-10.007951,54.289381],[-10.012555,54.289304],[-10.012511,54.288407],[-10.014045,54.288381],[-10.014002,54.287483],[-10.015484,54.287458],[-10.015534,54.287417],[-10.015492,54.286562],[-10.015398,54.286494],[-10.014044,54.28556],[-10.01389,54.285453],[-10.013824,54.285406],[-10.013346,54.285092],[-10.012713,54.284665],[-10.012197,54.284315],[-10.011572,54.283905],[-10.011149,54.28363],[-10.010375,54.28309],[-10.009355,54.28242],[-10.00861,54.281956],[-10.008063,54.281604],[-10.007663,54.281341],[-10.006905,54.280836],[-10.006238,54.280426],[-10.005661,54.280066],[-10.005349,54.279861],[-10.005212,54.279766],[-10.005094,54.279698],[-10.004676,54.279447],[-10.00418,54.279115],[-10.003706,54.278808],[-10.003514,54.278674],[-10.003317,54.278559],[-10.003271,54.278523],[-10.003027,54.278383],[-10.002691,54.278162],[-10.002192,54.27784],[-10.001474,54.277376],[-10.000837,54.276944],[-10.000218,54.276551],[-9.999824,54.276264],[-9.998384,54.275334],[-9.99728,54.274741],[-9.996883,54.274526],[-9.996465,54.274309],[-9.996097,54.274109],[-9.996059,54.274089],[-9.994347,54.27319],[-9.993905,54.272945],[-9.993735,54.272851],[-9.993434,54.272689],[-9.993002,54.272454],[-9.992698,54.272289],[-9.98571,54.274737],[-9.970508,54.279999],[-9.97067,54.280127],[-9.970753,54.280244],[-9.970861,54.280242],[-9.970868,54.280391],[-9.971067,54.280576],[-9.971286,54.280774],[-9.971347,54.280773],[-9.97135,54.280832],[-9.97138,54.280859],[-9.971588,54.281076],[-9.972115,54.281586],[-9.972487,54.281947],[-9.972725,54.282184],[-9.972752,54.282296],[-9.972808,54.282659],[-9.972875,54.283027],[-9.972959,54.283456],[-9.973047,54.283871],[-9.973105,54.284231],[-9.973181,54.284608],[-9.973255,54.285054],[-9.973323,54.285404],[-9.973419,54.285926],[-9.973442,54.286044],[-9.973501,54.286356],[-9.974017,54.286347],[-9.974023,54.286472],[-9.974403,54.28653],[-9.975299,54.286657],[-9.975569,54.286698],[-9.975551,54.286322],[-9.977086,54.286297],[-9.977043,54.285399],[-9.978577,54.285374],[-9.978661,54.287124],[-9.979024,54.287118],[-9.979011,54.286849],[-9.979471,54.286841],[-9.979458,54.286572],[-9.979407,54.285494],[-9.979368,54.284686],[-9.978907,54.284694],[-9.978895,54.284424],[-9.978869,54.283886],[-9.977027,54.283916],[-9.977014,54.283646],[-9.975633,54.283669],[-9.97562,54.2834],[-9.975594,54.282861],[-9.975581,54.282591],[-9.976042,54.282584],[-9.976029,54.282314],[-9.976016,54.282045],[-9.975555,54.282053],[-9.975542,54.281783],[-9.97553,54.281514],[-9.975517,54.281244],[-9.976437,54.281229],[-9.97645,54.281499],[-9.976911,54.281491],[-9.976924,54.281761],[-9.977845,54.281745],[-9.977857,54.282015],[-9.978778,54.282],[-9.978791,54.282269],[-9.979252,54.282262],[-9.979265,54.282531],[-9.979277,54.2828],[-9.980198,54.282785],[-9.980224,54.283324],[-9.980685,54.283317],[-9.980697,54.283586],[-9.981158,54.283578],[-9.981171,54.283848],[-9.981631,54.28384],[-9.981657,54.284379],[-9.982118,54.284371],[-9.982131,54.284641],[-9.98167,54.284648],[-9.981709,54.285457],[-9.981248,54.285464],[-9.9813,54.286542],[-9.98084,54.286549],[-9.980853,54.286819],[-9.980866,54.287088],[-9.980405,54.287096],[-9.980418,54.287365],[-9.980354,54.287366],[-9.980488,54.287387],[-9.9807,54.287415],[-9.981318,54.287508],[-9.982074,54.287609],[-9.982933,54.287736],[-9.983746,54.287854],[-9.984138,54.28791],[-9.984811,54.288004],[-9.985236,54.28806],[-9.985745,54.28813],[-9.985987,54.288173],[-9.98597,54.287813],[-9.987351,54.28779],[-9.987338,54.287521],[-9.987724,54.287515],[-9.987618,54.287357],[-9.98749,54.287203],[-9.9874,54.287086],[-9.987304,54.287069],[-9.987191,54.287051],[-9.986871,54.286968],[-9.986768,54.286932],[-9.986721,54.286815],[-9.986278,54.286663],[-9.986003,54.286565],[-9.985502,54.286405],[-9.985364,54.286267]],[[-9.999722,54.276801],[-10.000182,54.276793],[-10.000195,54.277063],[-9.999735,54.27707],[-9.999722,54.276801]],[[-10.000209,54.277332],[-10.000195,54.277063],[-10.000656,54.277055],[-10.000669,54.277325],[-10.000209,54.277332]],[[-9.98219,54.276282],[-9.98265,54.276274],[-9.982754,54.278429],[-9.982293,54.278437],[-9.98219,54.276282]],[[-9.980977,54.279807],[-9.981437,54.279799],[-9.981463,54.280338],[-9.981003,54.280346],[-9.980977,54.279807]],[[-9.981476,54.280607],[-9.981463,54.280338],[-9.981924,54.28033],[-9.981936,54.2806],[-9.981476,54.280607]],[[-9.988855,54.280755],[-9.989316,54.280748],[-9.989355,54.281556],[-9.988894,54.281564],[-9.988855,54.280755]],[[-9.977664,54.277974],[-9.977677,54.278243],[-9.978137,54.278236],[-9.97815,54.278505],[-9.978163,54.278774],[-9.978623,54.278767],[-9.978636,54.279036],[-9.977715,54.279051],[-9.977703,54.278782],[-9.977242,54.27879],[-9.977229,54.27852],[-9.976769,54.278528],[-9.976756,54.278258],[-9.976743,54.277989],[-9.977664,54.277974]]]]}}]}
