{"type":"FeatureCollection","features":[{"type":"Feature","properties":{"source_fid":442379,"county":"Mayo","bog_geom_ha":148.81743336367677,"low15_pct":84.863221884498486,"low15_ha":126.2912686782327,"overlay_ha":126.3409743789724,"area_delta":0.049705700739707481},"geometry":{"type":"MultiPolygon","coordinates":[[[[-9.850597,54.308072],[-9.848167,54.308109],[-9.848178,54.308337],[-9.84956,54.308316],[-9.849572,54.308586],[-9.850033,54.308579],[-9.850045,54.308848],[-9.850506,54.308841],[-9.850518,54.30911],[-9.850978,54.309103],[-9.85099,54.309373],[-9.85053,54.30938],[-9.850542,54.309649],[-9.847596,54.309694],[-9.847606,54.309914],[-9.847687,54.31171],[-9.846151,54.311734],[-9.846191,54.312632],[-9.84312,54.312679],[-9.843129,54.312871],[-9.843189,54.312869],[-9.843451,54.31284],[-9.843836,54.312798],[-9.843929,54.312789],[-9.844229,54.312831],[-9.844429,54.31286],[-9.84446,54.312973],[-9.844439,54.313051],[-9.844421,54.3131],[-9.844244,54.313165],[-9.844193,54.313183],[-9.844053,54.313199],[-9.84384,54.313183],[-9.843139,54.313098],[-9.84316,54.313576],[-9.844696,54.313553],[-9.844816,54.316247],[-9.84328,54.31627],[-9.84324,54.315372],[-9.842869,54.315378],[-9.842866,54.31543],[-9.84285,54.315596],[-9.842816,54.31595],[-9.842808,54.316028],[-9.842796,54.3162],[-9.842765,54.316624],[-9.842763,54.31665],[-9.84272,54.316945],[-9.842698,54.317092],[-9.842657,54.317395],[-9.842599,54.317824],[-9.841348,54.31788],[-9.840626,54.317903],[-9.840421,54.317612],[-9.840348,54.317494],[-9.840145,54.317182],[-9.839926,54.316806],[-9.839662,54.316825],[-9.839796,54.316823],[-9.839808,54.317093],[-9.838426,54.317114],[-9.838438,54.317383],[-9.837977,54.31739],[-9.837965,54.317121],[-9.837043,54.317135],[-9.837038,54.317019],[-9.836578,54.317051],[-9.836582,54.317142],[-9.836257,54.317147],[-9.836269,54.317192],[-9.836232,54.3175],[-9.836211,54.317658],[-9.836174,54.317847],[-9.836089,54.318077],[-9.836038,54.318399],[-9.835959,54.318692],[-9.835874,54.319067],[-9.83589,54.319163],[-9.835743,54.319615],[-9.835734,54.319823],[-9.835652,54.320047],[-9.835652,54.320059],[-9.835694,54.320086],[-9.835695,54.32023],[-9.835654,54.320678],[-9.835571,54.321039],[-9.835492,54.321446],[-9.835469,54.321779],[-9.835598,54.322131],[-9.835864,54.322512],[-9.836029,54.322698],[-9.836125,54.322811],[-9.836374,54.322807],[-9.836361,54.322538],[-9.836822,54.322531],[-9.83681,54.322261],[-9.836798,54.321992],[-9.837259,54.321985],[-9.837247,54.321715],[-9.837708,54.321708],[-9.837696,54.321439],[-9.838157,54.321432],[-9.838145,54.321162],[-9.838133,54.320893],[-9.839055,54.320879],[-9.839043,54.320609],[-9.839965,54.320595],[-9.839953,54.320326],[-9.840413,54.320319],[-9.840401,54.32005],[-9.840862,54.320042],[-9.840874,54.320312],[-9.840886,54.320581],[-9.840425,54.320588],[-9.840437,54.320858],[-9.840449,54.321127],[-9.84091,54.32112],[-9.840922,54.32139],[-9.840934,54.321659],[-9.840474,54.321666],[-9.840486,54.321935],[-9.840498,54.322205],[-9.840037,54.322212],[-9.840049,54.322481],[-9.840061,54.322751],[-9.8396,54.322758],[-9.839612,54.323027],[-9.839151,54.323034],[-9.839172,54.323503],[-9.840927,54.323582],[-9.840723,54.323782],[-9.84026,54.324236],[-9.843673,54.325045],[-9.843642,54.324351],[-9.845203,54.324327],[-9.845966,54.323866],[-9.846642,54.323153],[-9.846661,54.323123],[-9.846633,54.322508],[-9.847202,54.3225],[-9.847306,54.3224],[-9.848255,54.322254],[-9.84952,54.322386],[-9.849698,54.322461],[-9.849705,54.322461],[-9.849706,54.322465],[-9.851858,54.323378],[-9.853285,54.323863],[-9.854359,54.324247],[-9.854397,54.324248],[-9.854394,54.324186],[-9.855806,54.324165],[-9.855804,54.324127],[-9.855929,54.324125],[-9.855769,54.320571],[-9.857177,54.320549],[-9.857,54.319795],[-9.856993,54.319795],[-9.856991,54.319754],[-9.856967,54.319654],[-9.855728,54.319673],[-9.855686,54.318737],[-9.855562,54.318739],[-9.855574,54.319008],[-9.855113,54.319015],[-9.855125,54.319285],[-9.854203,54.319299],[-9.854215,54.319568],[-9.853294,54.319582],[-9.853306,54.319852],[-9.852845,54.319859],[-9.852857,54.320128],[-9.852396,54.320136],[-9.852384,54.319866],[-9.852372,54.319597],[-9.85145,54.319611],[-9.851438,54.319341],[-9.851899,54.319334],[-9.851887,54.319065],[-9.852348,54.319058],[-9.852336,54.318788],[-9.852796,54.318781],[-9.852784,54.318512],[-9.853245,54.318505],[-9.853233,54.318235],[-9.854155,54.318221],[-9.854143,54.317952],[-9.854131,54.317682],[-9.854591,54.317675],[-9.854567,54.317136],[-9.855028,54.317129],[-9.855016,54.31686],[-9.855004,54.316591],[-9.855465,54.316583],[-9.855452,54.316314],[-9.855952,54.316306],[-9.855946,54.31629],[-9.855861,54.316077],[-9.855567,54.316082],[-9.855529,54.315242],[-9.855526,54.315234],[-9.855404,54.315236],[-9.855392,54.314967],[-9.854931,54.314974],[-9.854919,54.314705],[-9.855312,54.314699],[-9.854999,54.314164],[-9.854434,54.314173],[-9.854422,54.313903],[-9.853961,54.31391],[-9.853949,54.313641],[-9.853938,54.313411],[-9.85391,54.313412],[-9.853872,54.312564],[-9.85344,54.31257],[-9.853427,54.312301],[-9.851124,54.312336],[-9.851136,54.312606],[-9.850214,54.31262],[-9.850226,54.312889],[-9.849765,54.312896],[-9.849753,54.312627],[-9.849292,54.312634],[-9.84928,54.312365],[-9.847898,54.312386],[-9.847886,54.312116],[-9.848347,54.312109],[-9.848323,54.311571],[-9.848298,54.311032],[-9.851063,54.310989],[-9.851051,54.31072],[-9.852433,54.310699],[-9.852421,54.310429],[-9.852882,54.310422],[-9.852821,54.309075],[-9.852815,54.308936],[-9.850637,54.308969],[-9.850597,54.308072]],[[-9.850989,54.319618],[-9.85145,54.319611],[-9.851462,54.31988],[-9.851001,54.319887],[-9.850989,54.319618]],[[-9.851935,54.320143],[-9.852396,54.320136],[-9.852408,54.320405],[-9.851947,54.320412],[-9.851935,54.320143]],[[-9.841784,54.320028],[-9.840862,54.320042],[-9.84085,54.319773],[-9.840838,54.319504],[-9.840377,54.319511],[-9.840365,54.319241],[-9.840353,54.318972],[-9.840814,54.318965],[-9.840826,54.319234],[-9.841748,54.31922],[-9.84176,54.31949],[-9.842221,54.319483],[-9.842233,54.319752],[-9.841772,54.319759],[-9.841784,54.320028]],[[-9.840317,54.318164],[-9.839856,54.318171],[-9.839844,54.317901],[-9.840305,54.317894],[-9.840317,54.318164]]],[[[-9.856179,54.316971],[-9.856136,54.316843],[-9.855938,54.316846],[-9.855943,54.316974],[-9.856179,54.316971]]],[[[-9.85565,54.317929],[-9.855613,54.31712],[-9.855489,54.317122],[-9.855513,54.317661],[-9.855525,54.317931],[-9.85565,54.317929]]],[[[-9.84603,54.30904],[-9.846825,54.309028],[-9.84682,54.308897],[-9.846025,54.30891],[-9.84603,54.30904]]],[[[-9.855064,54.317938],[-9.855076,54.318207],[-9.855537,54.3182],[-9.855525,54.317931],[-9.855064,54.317938]]],[[[-9.854616,54.318214],[-9.854628,54.318484],[-9.855089,54.318476],[-9.855076,54.318207],[-9.854616,54.318214]]],[[[-9.85464,54.318753],[-9.854628,54.318484],[-9.854167,54.318491],[-9.854179,54.31876],[-9.85464,54.318753]]],[[[-9.852833,54.31959],[-9.852821,54.31932],[-9.85236,54.319327],[-9.852372,54.319597],[-9.852833,54.31959]]],[[[-9.853282,54.319313],[-9.853269,54.319044],[-9.852809,54.319051],[-9.852821,54.31932],[-9.853282,54.319313]]],[[[-9.853257,54.318774],[-9.853269,54.319044],[-9.85373,54.319037],[-9.853718,54.318767],[-9.853257,54.318774]]]]}}]}
