{"type":"FeatureCollection","features":[{"type":"Feature","properties":{"source_fid":454538,"county":"Mayo","bog_geom_ha":199.83282694354222,"low15_pct":100.0,"low15_ha":199.83282694354222,"overlay_ha":199.83282694354222,"area_delta":0.0},"geometry":{"type":"MultiPolygon","coordinates":[[[[-9.61741,54.115149],[-9.618567,54.115025],[-9.619839,54.114901],[-9.621187,54.114783],[-9.621935,54.114724],[-9.622539,54.114688],[-9.622578,54.114744],[-9.622629,54.114733],[-9.622942,54.114745],[-9.622957,54.114773],[-9.622974,54.114803],[-9.623149,54.114795],[-9.623187,54.114792],[-9.623352,54.114779],[-9.62356,54.114668],[-9.623714,54.114601],[-9.623771,54.11459],[-9.623855,54.114573],[-9.623954,54.114659],[-9.623975,54.114678],[-9.623961,54.114783],[-9.624035,54.114826],[-9.624128,54.114804],[-9.624191,54.114765],[-9.62422,54.114747],[-9.624188,54.114652],[-9.624164,54.114586],[-9.624296,54.114502],[-9.624532,54.114455],[-9.624687,54.114453],[-9.624707,54.114453],[-9.624741,54.114392],[-9.624621,54.114319],[-9.624535,54.114268],[-9.624432,54.114113],[-9.624423,54.113879],[-9.624438,54.113731],[-9.62444,54.113709],[-9.624531,54.113662],[-9.623239,54.113679],[-9.623204,54.112781],[-9.624218,54.112767],[-9.624186,54.112647],[-9.624118,54.11253],[-9.624127,54.112459],[-9.624155,54.112233],[-9.624089,54.112026],[-9.623949,54.111905],[-9.623691,54.111885],[-9.623603,54.111877],[-9.623566,54.111797],[-9.623616,54.11168],[-9.623687,54.111598],[-9.623789,54.111537],[-9.623741,54.111386],[-9.62366,54.111238],[-9.623651,54.111082],[-9.623648,54.111036],[-9.623659,54.110756],[-9.623653,54.110605],[-9.623339,54.110336],[-9.623218,54.11021],[-9.623041,54.110134],[-9.622937,54.109979],[-9.622951,54.109909],[-9.623058,54.109861],[-9.62294,54.109698],[-9.622749,54.109649],[-9.622596,54.109489],[-9.622634,54.10943],[-9.622702,54.109371],[-9.622736,54.109353],[-9.622773,54.109332],[-9.622726,54.109309],[-9.622707,54.109311],[-9.622634,54.109318],[-9.622553,54.109369],[-9.62245,54.109393],[-9.622294,54.109323],[-9.622311,54.109224],[-9.622351,54.109198],[-9.622406,54.109161],[-9.622464,54.109074],[-9.622449,54.109018],[-9.622394,54.108979],[-9.622279,54.108936],[-9.622267,54.108907],[-9.622322,54.108833],[-9.622523,54.108726],[-9.622682,54.108663],[-9.622786,54.108622],[-9.622863,54.108603],[-9.62289,54.10858],[-9.622959,54.108538],[-9.623017,54.10854],[-9.623141,54.108498],[-9.623218,54.108435],[-9.62325,54.108325],[-9.623255,54.108239],[-9.623342,54.108208],[-9.623514,54.108159],[-9.623659,54.10814],[-9.623663,54.108138],[-9.62369,54.10812],[-9.623906,54.108042],[-9.624028,54.107976],[-9.62415,54.10789],[-9.624163,54.107837],[-9.624143,54.107765],[-9.624167,54.107719],[-9.624128,54.107699],[-9.624121,54.107696],[-9.623988,54.107639],[-9.623898,54.107559],[-9.623877,54.107489],[-9.62396,54.107353],[-9.624004,54.107267],[-9.624021,54.107179],[-9.624076,54.107112],[-9.624119,54.107105],[-9.624163,54.107054],[-9.624188,54.107024],[-9.624194,54.106875],[-9.624173,54.106691],[-9.624084,54.106537],[-9.624052,54.106474],[-9.624089,54.106419],[-9.624174,54.106409],[-9.624395,54.106439],[-9.624407,54.106449],[-9.624458,54.10649],[-9.624484,54.106507],[-9.624493,54.106549],[-9.624536,54.106594],[-9.624655,54.106602],[-9.62485,54.106575],[-9.624916,54.106552],[-9.624995,54.106525],[-9.625038,54.10647],[-9.625135,54.106413],[-9.625248,54.106365],[-9.625369,54.106349],[-9.625553,54.106342],[-9.625637,54.106333],[-9.625659,54.10633],[-9.625681,54.106319],[-9.6257,54.106309],[-9.625726,54.106295],[-9.625781,54.106245],[-9.625856,54.106209],[-9.625973,54.106172],[-9.626177,54.106157],[-9.626215,54.106154],[-9.62629,54.10614],[-9.626351,54.106076],[-9.626361,54.106066],[-9.626354,54.106038],[-9.626318,54.10602],[-9.626383,54.105951],[-9.626429,54.105923],[-9.626461,54.105904],[-9.626478,54.105893],[-9.626624,54.10591],[-9.626699,54.105933],[-9.626839,54.105976],[-9.626867,54.106021],[-9.626875,54.106093],[-9.626845,54.106135],[-9.626874,54.106166],[-9.627014,54.106151],[-9.627172,54.106107],[-9.627269,54.106057],[-9.627297,54.105976],[-9.627315,54.105875],[-9.627363,54.105821],[-9.627387,54.105666],[-9.627424,54.105631],[-9.627403,54.105563],[-9.627314,54.10554],[-9.627193,54.105552],[-9.627163,54.10557],[-9.627094,54.105613],[-9.627045,54.105616],[-9.626966,54.10562],[-9.626897,54.105593],[-9.626876,54.105541],[-9.626879,54.105499],[-9.626963,54.105442],[-9.627093,54.105421],[-9.627211,54.105366],[-9.627307,54.105292],[-9.627411,54.105234],[-9.627403,54.105211],[-9.627454,54.105209],[-9.627489,54.105229],[-9.62753,54.10523],[-9.627567,54.105238],[-9.627605,54.105239],[-9.627696,54.105196],[-9.627714,54.105187],[-9.627772,54.105118],[-9.627778,54.105066],[-9.627751,54.105002],[-9.627714,54.104992],[-9.627659,54.104978],[-9.627543,54.10492],[-9.627543,54.104874],[-9.627592,54.104807],[-9.627675,54.104763],[-9.627801,54.104703],[-9.627988,54.104657],[-9.628071,54.10468],[-9.628095,54.104683],[-9.62812,54.104685],[-9.628176,54.104672],[-9.628183,54.104658],[-9.628199,54.104622],[-9.628165,54.104568],[-9.62819,54.104543],[-9.628212,54.104521],[-9.628214,54.104446],[-9.628172,54.104382],[-9.628092,54.104361],[-9.627983,54.104371],[-9.627861,54.104429],[-9.627795,54.10447],[-9.627741,54.104463],[-9.627661,54.104411],[-9.627643,54.104371],[-9.627614,54.10431],[-9.627529,54.104195],[-9.627548,54.104121],[-9.627586,54.10407],[-9.62762,54.104047],[-9.627655,54.104023],[-9.627754,54.104002],[-9.62786,54.104053],[-9.627881,54.104068],[-9.627921,54.104097],[-9.627978,54.104106],[-9.628038,54.104107],[-9.628102,54.104108],[-9.628203,54.104104],[-9.628291,54.104077],[-9.628301,54.104073],[-9.628338,54.104079],[-9.628378,54.104044],[-9.628354,54.104007],[-9.628281,54.103971],[-9.628211,54.103981],[-9.628206,54.103981],[-9.628143,54.103966],[-9.628114,54.103898],[-9.628109,54.103835],[-9.628134,54.103796],[-9.62823,54.103744],[-9.628265,54.103703],[-9.628341,54.103698],[-9.628361,54.103677],[-9.628379,54.103657],[-9.628373,54.103637],[-9.628367,54.10362],[-9.62839,54.103578],[-9.628402,54.103571],[-9.628439,54.103549],[-9.628573,54.103467],[-9.628613,54.103454],[-9.628682,54.103432],[-9.628847,54.103423],[-9.628915,54.103425],[-9.629013,54.103377],[-9.629044,54.103361],[-9.629095,54.103336],[-9.629108,54.103309],[-9.629017,54.103274],[-9.628979,54.103264],[-9.628905,54.103245],[-9.628848,54.103194],[-9.628839,54.103144],[-9.628835,54.103124],[-9.628831,54.10312],[-9.628779,54.103078],[-9.628719,54.103049],[-9.628714,54.103001],[-9.62876,54.102966],[-9.628898,54.102958],[-9.629209,54.102937],[-9.629302,54.102954],[-9.62942,54.10293],[-9.629504,54.102906],[-9.629618,54.102853],[-9.629773,54.102802],[-9.629956,54.102784],[-9.630067,54.102789],[-9.630154,54.102794],[-9.630198,54.102784],[-9.630241,54.102739],[-9.630265,54.102709],[-9.630279,54.102692],[-9.630323,54.102637],[-9.630376,54.102584],[-9.630429,54.102557],[-9.630447,54.102474],[-9.630494,54.102466],[-9.630593,54.102467],[-9.630605,54.102467],[-9.630667,54.102543],[-9.630666,54.102577],[-9.630666,54.102581],[-9.630669,54.102583],[-9.630723,54.102613],[-9.630804,54.10263],[-9.630879,54.102619],[-9.630919,54.102669],[-9.630996,54.102684],[-9.631045,54.102669],[-9.631142,54.10261],[-9.631191,54.102554],[-9.631247,54.10251],[-9.63128,54.102465],[-9.631341,54.102434],[-9.631379,54.102343],[-9.631342,54.102334],[-9.631285,54.102324],[-9.63129,54.102296],[-9.631348,54.10227],[-9.631544,54.102244],[-9.631626,54.102262],[-9.631652,54.102277],[-9.631707,54.102251],[-9.6317,54.102203],[-9.631719,54.102177],[-9.631745,54.102142],[-9.631836,54.102082],[-9.631842,54.10205],[-9.631906,54.102033],[-9.632048,54.102019],[-9.632116,54.102026],[-9.632222,54.102064],[-9.632264,54.102062],[-9.632287,54.102057],[-9.632322,54.102049],[-9.632387,54.101995],[-9.632388,54.101987],[-9.632396,54.101936],[-9.632401,54.10188],[-9.632415,54.101859],[-9.632568,54.101792],[-9.632643,54.101748],[-9.632703,54.101686],[-9.632697,54.101619],[-9.632634,54.101506],[-9.632619,54.101401],[-9.63266,54.101316],[-9.63269,54.101218],[-9.632699,54.101191],[-9.632727,54.101081],[-9.632767,54.101026],[-9.632811,54.100982],[-9.632805,54.100957],[-9.63276,54.100919],[-9.632758,54.100912],[-9.632749,54.100879],[-9.632793,54.10083],[-9.632877,54.100824],[-9.632942,54.100802],[-9.632963,54.100759],[-9.633108,54.100777],[-9.633375,54.100817],[-9.633459,54.100827],[-9.633496,54.100839],[-9.633502,54.100841],[-9.633607,54.100833],[-9.633671,54.100822],[-9.633679,54.100788],[-9.633616,54.100705],[-9.633613,54.100704],[-9.633568,54.100681],[-9.63358,54.100574],[-9.633579,54.100526],[-9.633579,54.100444],[-9.633575,54.100322],[-9.633646,54.10022],[-9.633671,54.100152],[-9.633684,54.100106],[-9.633695,54.100069],[-9.633667,54.100005],[-9.633576,54.099903],[-9.63353,54.099897],[-9.63349,54.099872],[-9.6334,54.099879],[-9.633395,54.099883],[-9.633351,54.099912],[-9.633276,54.09991],[-9.633237,54.099873],[-9.633239,54.099842],[-9.63324,54.099813],[-9.633241,54.099813],[-9.633329,54.099753],[-9.633409,54.099726],[-9.633512,54.099725],[-9.633569,54.0997],[-9.633609,54.099649],[-9.633687,54.099604],[-9.633788,54.099565],[-9.633829,54.099559],[-9.633919,54.099545],[-9.634002,54.099524],[-9.634016,54.099488],[-9.634075,54.099475],[-9.634176,54.099509],[-9.634217,54.099555],[-9.634199,54.099569],[-9.634218,54.099579],[-9.634255,54.099558],[-9.634289,54.099531],[-9.634265,54.09948],[-9.634205,54.099377],[-9.634148,54.099304],[-9.634148,54.099303],[-9.634118,54.099277],[-9.633993,54.099169],[-9.633965,54.09914],[-9.633939,54.099141],[-9.633911,54.099141],[-9.63389,54.099175],[-9.633941,54.099202],[-9.633887,54.099218],[-9.633866,54.09921],[-9.633809,54.099188],[-9.633811,54.099126],[-9.633824,54.099056],[-9.633856,54.099003],[-9.633871,54.098976],[-9.633883,54.09897],[-9.633954,54.098933],[-9.634042,54.098885],[-9.634142,54.098824],[-9.63418,54.098801],[-9.634249,54.098754],[-9.634395,54.098689],[-9.634455,54.098607],[-9.634455,54.098561],[-9.634454,54.098461],[-9.634442,54.098433],[-9.63441,54.098355],[-9.634376,54.098327],[-9.634276,54.098318],[-9.634164,54.098311],[-9.634139,54.098303],[-9.634095,54.09829],[-9.634095,54.098271],[-9.634094,54.098235],[-9.634061,54.098216],[-9.633967,54.09813],[-9.633842,54.098123],[-9.633839,54.098123],[-9.633719,54.098112],[-9.633592,54.098065],[-9.633505,54.098004],[-9.633478,54.097943],[-9.633456,54.09791],[-9.633425,54.097871],[-9.633383,54.097859],[-9.63337,54.097829],[-9.633251,54.097769],[-9.633198,54.097708],[-9.633179,54.097669],[-9.633185,54.097636],[-9.633134,54.097591],[-9.633099,54.09757],[-9.633098,54.097532],[-9.633098,54.097531],[-9.633108,54.09751],[-9.633046,54.097467],[-9.633001,54.09739],[-9.632939,54.097384],[-9.632823,54.097375],[-9.632768,54.09735],[-9.632737,54.09734],[-9.632695,54.097325],[-9.632637,54.097316],[-9.632606,54.097275],[-9.632593,54.097258],[-9.632597,54.097214],[-9.632583,54.097179],[-9.632541,54.09715],[-9.632408,54.097133],[-9.632357,54.097125],[-9.632275,54.097098],[-9.632247,54.097033],[-9.632242,54.097004],[-9.632232,54.09695],[-9.632197,54.096894],[-9.632147,54.096884],[-9.63203,54.096902],[-9.632031,54.096929],[-9.631982,54.09694],[-9.631976,54.096941],[-9.631907,54.096922],[-9.631822,54.096825],[-9.631804,54.096799],[-9.631761,54.096787],[-9.631705,54.096717],[-9.631673,54.096599],[-9.631566,54.096504],[-9.631543,54.096465],[-9.631508,54.096406],[-9.631469,54.096345],[-9.631441,54.096231],[-9.631381,54.096101],[-9.631347,54.096086],[-9.631284,54.09601],[-9.631244,54.095954],[-9.631207,54.095903],[-9.63121,54.09582],[-9.63123,54.095748],[-9.631257,54.0957],[-9.631227,54.095664],[-9.631218,54.095591],[-9.631127,54.095539],[-9.631032,54.095467],[-9.630982,54.095389],[-9.630998,54.09533],[-9.631104,54.095279],[-9.631096,54.095207],[-9.631076,54.095139],[-9.63104,54.095073],[-9.630973,54.095024],[-9.630896,54.094968],[-9.630882,54.094955],[-9.630908,54.094922],[-9.631035,54.094914],[-9.631068,54.094904],[-9.631126,54.094846],[-9.631114,54.094764],[-9.631059,54.09471],[-9.630896,54.094622],[-9.630808,54.094556],[-9.630763,54.094506],[-9.630761,54.094463],[-9.630825,54.094427],[-9.630805,54.094395],[-9.630692,54.094362],[-9.630564,54.094326],[-9.630463,54.094304],[-9.630424,54.094287],[-9.630363,54.094163],[-9.630321,54.094083],[-9.630266,54.094053],[-9.630253,54.093995],[-9.630277,54.093942],[-9.630313,54.093898],[-9.630457,54.093849],[-9.630521,54.093836],[-9.630601,54.093794],[-9.630639,54.093741],[-9.630597,54.093628],[-9.630547,54.093619],[-9.63051,54.093602],[-9.630485,54.093522],[-9.630496,54.09348],[-9.630569,54.093462],[-9.630617,54.093408],[-9.630665,54.093351],[-9.630686,54.093238],[-9.630745,54.093208],[-9.630777,54.093101],[-9.630738,54.093054],[-9.630686,54.093005],[-9.630584,54.092981],[-9.630506,54.092936],[-9.630421,54.092933],[-9.630375,54.092921],[-9.630314,54.092867],[-9.630307,54.092784],[-9.630339,54.092702],[-9.630411,54.092613],[-9.630378,54.092522],[-9.630354,54.092396],[-9.630354,54.092229],[-9.630351,54.092179],[-9.630408,54.092187],[-9.630426,54.092188],[-9.630448,54.092147],[-9.630413,54.092122],[-9.630401,54.092104],[-9.630329,54.092083],[-9.630296,54.092052],[-9.630277,54.091983],[-9.630342,54.091903],[-9.630364,54.091888],[-9.630348,54.091858],[-9.630307,54.091842],[-9.630266,54.091829],[-9.63031,54.091785],[-9.630148,54.091592],[-9.629746,54.09113],[-9.629347,54.090621],[-9.629201,54.090384],[-9.628656,54.089802],[-9.628187,54.089309],[-9.627511,54.088519],[-9.627095,54.088035],[-9.627086,54.088028],[-9.626454,54.088425],[-9.624965,54.089375],[-9.624274,54.089787],[-9.623861,54.089966],[-9.623267,54.090259],[-9.622974,54.09042],[-9.622745,54.090488],[-9.622438,54.090533],[-9.622051,54.090638],[-9.621675,54.090747],[-9.621079,54.090968],[-9.620624,54.091162],[-9.620427,54.091188],[-9.620188,54.09124],[-9.620017,54.091299],[-9.619782,54.091263],[-9.619808,54.091404],[-9.619897,54.091627],[-9.619856,54.09197],[-9.619745,54.093315],[-9.619709,54.094531],[-9.619647,54.095365],[-9.619588,54.096058],[-9.619553,54.096388],[-9.619551,54.096514],[-9.619494,54.097202],[-9.619449,54.097611],[-9.619447,54.097629],[-9.619323,54.097957],[-9.618953,54.098776],[-9.617965,54.100507],[-9.61751,54.1013],[-9.617295,54.101675],[-9.616794,54.102591],[-9.615836,54.10432],[-9.6156,54.104773],[-9.615542,54.105011],[-9.615512,54.105098],[-9.61526,54.105992],[-9.615101,54.106514],[-9.614844,54.107138],[-9.615246,54.109261],[-9.616353,54.113367],[-9.616597,54.115168],[-9.61741,54.115149]]],[[[-9.624752,54.113282],[-9.624756,54.113258],[-9.624751,54.113255],[-9.624752,54.113282]]],[[[-9.624759,54.113462],[-9.624765,54.113605],[-9.624788,54.113584],[-9.624791,54.113582],[-9.624759,54.113462]]]]}}]}
