{"type":"FeatureCollection","features":[{"type":"Feature","properties":{"source_fid":455173,"county":"Mayo","bog_geom_ha":245.22204932338008,"low15_pct":96.5946539729037,"low15_ha":236.87139000918222,"overlay_ha":236.70017705340885,"area_delta":-0.17121295577337037},"geometry":{"type":"MultiPolygon","coordinates":[[[[-9.837807,54.247273],[-9.837871,54.247197],[-9.837891,54.247167],[-9.837818,54.247169],[-9.83775,54.247184],[-9.837638,54.247171],[-9.83713,54.247179],[-9.83709,54.246281],[-9.837575,54.246274],[-9.837573,54.24622],[-9.837113,54.246227],[-9.837101,54.245957],[-9.837089,54.245688],[-9.837077,54.245418],[-9.837065,54.245149],[-9.836605,54.245156],[-9.836593,54.244887],[-9.836581,54.244617],[-9.837041,54.24461],[-9.837053,54.244879],[-9.837973,54.244865],[-9.837985,54.245135],[-9.838445,54.245128],[-9.838457,54.245397],[-9.838917,54.24539],[-9.838929,54.24566],[-9.839389,54.245653],[-9.839401,54.245922],[-9.839861,54.245915],[-9.839873,54.246185],[-9.840333,54.246178],[-9.840345,54.246447],[-9.842185,54.246419],[-9.842197,54.246688],[-9.84296,54.246677],[-9.842973,54.246589],[-9.842984,54.246547],[-9.843021,54.246493],[-9.843148,54.246521],[-9.843547,54.246599],[-9.843926,54.246671],[-9.843956,54.24689],[-9.843958,54.246931],[-9.84497,54.246915],[-9.844976,54.247059],[-9.846329,54.247038],[-9.846335,54.247164],[-9.846362,54.247164],[-9.84635,54.246894],[-9.846643,54.24689],[-9.846647,54.246861],[-9.846659,54.246825],[-9.846675,54.24682],[-9.846899,54.246808],[-9.847119,54.246817],[-9.847178,54.246825],[-9.847225,54.246854],[-9.847256,54.24688],[-9.84727,54.24688],[-9.847271,54.246893],[-9.847406,54.247015],[-9.847412,54.24702],[-9.847491,54.247036],[-9.847531,54.247058],[-9.847547,54.247087],[-9.847561,54.247142],[-9.847564,54.247415],[-9.847754,54.247412],[-9.847742,54.247143],[-9.847868,54.247141],[-9.847862,54.247015],[-9.850544,54.246974],[-9.850607,54.246754],[-9.850652,54.246551],[-9.850721,54.246316],[-9.850758,54.246146],[-9.850845,54.245831],[-9.850794,54.245824],[-9.850727,54.245816],[-9.85017,54.245746],[-9.850043,54.245729],[-9.849559,54.245662],[-9.849367,54.245636],[-9.84892,54.245554],[-9.8489,54.245551],[-9.848702,54.245508],[-9.848291,54.24542],[-9.848263,54.245414],[-9.84799,54.245352],[-9.847844,54.245318],[-9.847712,54.245288],[-9.847437,54.245225],[-9.847091,54.245147],[-9.847019,54.24513],[-9.846755,54.245078],[-9.846441,54.245016],[-9.846352,54.244998],[-9.846018,54.244932],[-9.845575,54.244844],[-9.845174,54.244764],[-9.844748,54.244683],[-9.844552,54.244645],[-9.844295,54.244563],[-9.843962,54.244447],[-9.844483,54.244014],[-9.845131,54.243653],[-9.845304,54.24346],[-9.845327,54.243449],[-9.845504,54.243318],[-9.845613,54.243112],[-9.84576,54.242961],[-9.845871,54.24295],[-9.846155,54.242539],[-9.84618,54.242517],[-9.84617,54.242516],[-9.845715,54.24248],[-9.845471,54.242457],[-9.845325,54.242423],[-9.845849,54.242115],[-9.846066,54.24198],[-9.846161,54.241935],[-9.846239,54.241938],[-9.846574,54.242166],[-9.846778,54.241942],[-9.84736,54.241277],[-9.84739,54.241228],[-9.847262,54.241247],[-9.84721,54.241258],[-9.847119,54.241275],[-9.847029,54.241275],[-9.846796,54.241312],[-9.846481,54.241404],[-9.8463,54.241459],[-9.846158,54.241478],[-9.845968,54.241476],[-9.845919,54.241452],[-9.845884,54.24139],[-9.845867,54.24116],[-9.845952,54.241108],[-9.846138,54.241097],[-9.846292,54.241074],[-9.846372,54.241032],[-9.84676,54.240801],[-9.846895,54.240796],[-9.847009,54.240733],[-9.847224,54.240737],[-9.847375,54.240662],[-9.847496,54.240679],[-9.847658,54.240788],[-9.847693,54.240742],[-9.847938,54.240428],[-9.848043,54.240359],[-9.848189,54.240237],[-9.848378,54.240076],[-9.848602,54.239834],[-9.848933,54.239512],[-9.849088,54.239323],[-9.849522,54.238721],[-9.849671,54.238506],[-9.849967,54.238061],[-9.850555,54.237333],[-9.850905,54.237019],[-9.85117,54.236742],[-9.851081,54.23671],[-9.851004,54.236672],[-9.850923,54.236642],[-9.850878,54.236615],[-9.850797,54.236585],[-9.850586,54.236499],[-9.850516,54.236474],[-9.850449,54.236446],[-9.850227,54.236356],[-9.85019,54.236346],[-9.850164,54.236336],[-9.849795,54.236191],[-9.849489,54.236071],[-9.849457,54.236059],[-9.848878,54.235846],[-9.849512,54.235431],[-9.850146,54.235016],[-9.850811,54.234569],[-9.851419,54.234156],[-9.852064,54.233725],[-9.852608,54.23336],[-9.853474,54.232796],[-9.854322,54.232237],[-9.854567,54.232072],[-9.854616,54.23203],[-9.855484,54.231603],[-9.855534,54.231577],[-9.856029,54.231338],[-9.856979,54.230886],[-9.857015,54.230871],[-9.856914,54.230592],[-9.856859,54.230452],[-9.856788,54.230271],[-9.856763,54.230206],[-9.856683,54.229999],[-9.856593,54.229834],[-9.856515,54.229734],[-9.856549,54.229718],[-9.85677,54.229619],[-9.857239,54.22938],[-9.857858,54.229047],[-9.858486,54.228694],[-9.858946,54.228429],[-9.85929,54.228191],[-9.859254,54.227384],[-9.858892,54.227312],[-9.858469,54.227249],[-9.857929,54.227125],[-9.857798,54.227095],[-9.857707,54.227096],[-9.856175,54.22712],[-9.856153,54.226644],[-9.855984,54.226634],[-9.855851,54.226629],[-9.855842,54.226632],[-9.855802,54.226624],[-9.855801,54.226624],[-9.855801,54.226624],[-9.855752,54.226621],[-9.855715,54.226619],[-9.85565,54.226623],[-9.854964,54.226669],[-9.854622,54.226691],[-9.854642,54.227144],[-9.853457,54.227162],[-9.853465,54.22719],[-9.853494,54.227228],[-9.853507,54.22726],[-9.853507,54.22726],[-9.853507,54.22726],[-9.853488,54.227269],[-9.853442,54.227284],[-9.853367,54.2273],[-9.853343,54.2273],[-9.853297,54.227298],[-9.853182,54.227297],[-9.853092,54.227282],[-9.853025,54.227249],[-9.852965,54.227223],[-9.852905,54.22717],[-9.852682,54.227174],[-9.852661,54.2272],[-9.852624,54.227259],[-9.852612,54.227289],[-9.852604,54.227304],[-9.8526,54.227316],[-9.852587,54.227328],[-9.852563,54.227348],[-9.852563,54.227348],[-9.852563,54.227348],[-9.852541,54.227351],[-9.852516,54.227349],[-9.852375,54.227276],[-9.852252,54.227237],[-9.852251,54.227237],[-9.85203,54.227184],[-9.850611,54.227206],[-9.850767,54.227297],[-9.850957,54.227407],[-9.851126,54.227501],[-9.85134,54.22761],[-9.851475,54.227671],[-9.85144,54.227698],[-9.85072,54.228186],[-9.849698,54.228779],[-9.848802,54.229298],[-9.847769,54.229907],[-9.847215,54.230231],[-9.847185,54.23025],[-9.846975,54.230388],[-9.846773,54.23051],[-9.846569,54.230636],[-9.84638,54.230744],[-9.8461,54.230907],[-9.845657,54.231169],[-9.845334,54.23136],[-9.845264,54.231397],[-9.845182,54.23142],[-9.845086,54.231434],[-9.844838,54.23143],[-9.844583,54.231424],[-9.844378,54.231423],[-9.844328,54.231423],[-9.84425,54.231422],[-9.843868,54.231415],[-9.843667,54.231417],[-9.843404,54.231413],[-9.843358,54.231412],[-9.843365,54.231572],[-9.843377,54.231842],[-9.842917,54.231849],[-9.842905,54.231579],[-9.842445,54.231586],[-9.842436,54.231393],[-9.842239,54.231387],[-9.842047,54.231386],[-9.841798,54.231383],[-9.841746,54.231386],[-9.841532,54.231386],[-9.841459,54.231381],[-9.841424,54.231382],[-9.841311,54.23138],[-9.841187,54.231363],[-9.84111,54.231355],[-9.841054,54.23135],[-9.841065,54.231607],[-9.841077,54.231877],[-9.840158,54.231891],[-9.840146,54.231621],[-9.839226,54.231635],[-9.839214,54.231366],[-9.838754,54.231373],[-9.838742,54.231104],[-9.837822,54.231118],[-9.83781,54.230848],[-9.836431,54.230869],[-9.836419,54.2306],[-9.835499,54.230614],[-9.835487,54.230344],[-9.834107,54.230365],[-9.834119,54.230635],[-9.833199,54.230649],[-9.833187,54.230379],[-9.833647,54.230372],[-9.833635,54.230103],[-9.834095,54.230096],[-9.834083,54.229827],[-9.835463,54.229805],[-9.835451,54.229536],[-9.835911,54.229529],[-9.835923,54.229798],[-9.837534,54.229774],[-9.837458,54.229741],[-9.837258,54.229655],[-9.836931,54.229521],[-9.836555,54.229361],[-9.836447,54.229318],[-9.836282,54.229254],[-9.836136,54.229183],[-9.835681,54.228988],[-9.835448,54.228853],[-9.835028,54.228653],[-9.834748,54.228701],[-9.834452,54.228746],[-9.834365,54.228782],[-9.834332,54.228802],[-9.834309,54.228831],[-9.834294,54.228859],[-9.834281,54.228914],[-9.83428,54.228955],[-9.834326,54.229041],[-9.834325,54.229082],[-9.834304,54.2291],[-9.834263,54.229099],[-9.834228,54.229092],[-9.834181,54.229081],[-9.83411,54.229046],[-9.834062,54.229006],[-9.83405,54.228952],[-9.834019,54.2289],[-9.83386,54.228912],[-9.833821,54.228919],[-9.833765,54.228948],[-9.833752,54.228967],[-9.833749,54.229],[-9.833773,54.229022],[-9.833813,54.229061],[-9.833822,54.229096],[-9.833809,54.229117],[-9.833767,54.229135],[-9.833733,54.22914],[-9.833685,54.229133],[-9.833646,54.229123],[-9.83361,54.229115],[-9.833582,54.229096],[-9.83355,54.229055],[-9.833473,54.229015],[-9.833356,54.228984],[-9.833274,54.22896],[-9.833219,54.228951],[-9.833185,54.228955],[-9.833152,54.22897],[-9.833113,54.228996],[-9.833082,54.229025],[-9.833077,54.229063],[-9.833067,54.229106],[-9.833068,54.229138],[-9.83309,54.229183],[-9.83311,54.229204],[-9.833126,54.229225],[-9.83312,54.229251],[-9.833107,54.229272],[-9.833087,54.229287],[-9.833039,54.229317],[-9.833027,54.229322],[-9.832999,54.229326],[-9.832978,54.22933],[-9.83297,54.22933],[-9.832943,54.22932],[-9.832866,54.229294],[-9.832809,54.229275],[-9.832777,54.22927],[-9.832752,54.22927],[-9.8327,54.229298],[-9.832648,54.229328],[-9.832516,54.229417],[-9.832262,54.229566],[-9.832223,54.229592],[-9.83222,54.229597],[-9.832221,54.229602],[-9.832248,54.229628],[-9.832255,54.22964],[-9.832259,54.229651],[-9.83225,54.229689],[-9.832246,54.229708],[-9.832244,54.229715],[-9.832203,54.229729],[-9.832147,54.229739],[-9.832101,54.229743],[-9.832049,54.229734],[-9.831994,54.229724],[-9.831977,54.229723],[-9.831972,54.229728],[-9.831966,54.229754],[-9.831955,54.229767],[-9.831847,54.229856],[-9.83168,54.230018],[-9.831671,54.230046],[-9.831633,54.230106],[-9.831586,54.230148],[-9.83158,54.230151],[-9.83157,54.230155],[-9.83156,54.230158],[-9.83155,54.23016],[-9.831525,54.23016],[-9.831435,54.230155],[-9.831319,54.230156],[-9.831263,54.230166],[-9.831209,54.230186],[-9.831147,54.23022],[-9.83111,54.230239],[-9.831036,54.230255],[-9.830946,54.230269],[-9.830936,54.23027],[-9.830926,54.23027],[-9.830914,54.230269],[-9.830905,54.230269],[-9.830885,54.230264],[-9.830875,54.23026],[-9.830866,54.230256],[-9.830847,54.230213],[-9.830845,54.23015],[-9.830815,54.230101],[-9.830805,54.230094],[-9.830797,54.23009],[-9.830785,54.230087],[-9.830714,54.230074],[-9.830653,54.230069],[-9.830533,54.230069],[-9.83051,54.230073],[-9.830489,54.23008],[-9.830477,54.230089],[-9.830469,54.230098],[-9.830457,54.230131],[-9.830452,54.23015],[-9.830478,54.230181],[-9.83049,54.230221],[-9.830488,54.230232],[-9.830485,54.230242],[-9.830477,54.230254],[-9.830467,54.230265],[-9.83046,54.23027],[-9.830448,54.230276],[-9.830418,54.230283],[-9.830375,54.23029],[-9.83029,54.230297],[-9.830197,54.230309],[-9.830163,54.230322],[-9.830136,54.230333],[-9.830103,54.230358],[-9.830097,54.230362],[-9.830058,54.230373],[-9.829987,54.230395],[-9.829882,54.230435],[-9.82987,54.230443],[-9.829857,54.230455],[-9.829851,54.230462],[-9.829845,54.230471],[-9.829834,54.230518],[-9.829826,54.230527],[-9.829814,54.230534],[-9.829777,54.23055],[-9.829742,54.230561],[-9.829715,54.230567],[-9.829698,54.230569],[-9.829678,54.230569],[-9.829658,54.230566],[-9.82965,54.230564],[-9.829637,54.230549],[-9.829619,54.230499],[-9.829602,54.230492],[-9.829595,54.23049],[-9.829584,54.230489],[-9.82955,54.230493],[-9.829531,54.230498],[-9.829511,54.230505],[-9.829481,54.230524],[-9.82943,54.230603],[-9.829372,54.230673],[-9.829334,54.230694],[-9.829293,54.230713],[-9.829215,54.230765],[-9.829185,54.230801],[-9.829184,54.230826],[-9.829169,54.230837],[-9.829132,54.230836],[-9.829104,54.230834],[-9.829052,54.230822],[-9.828988,54.230798],[-9.828889,54.230778],[-9.828832,54.230773],[-9.828738,54.230788],[-9.828627,54.230823],[-9.828548,54.230858],[-9.82849,54.230897],[-9.828439,54.230919],[-9.828327,54.230973],[-9.828268,54.230995],[-9.828209,54.231037],[-9.828133,54.231099],[-9.82807,54.23114],[-9.827995,54.231177],[-9.827893,54.231242],[-9.827828,54.231273],[-9.827807,54.231274],[-9.827779,54.231269],[-9.827743,54.231264],[-9.827722,54.231267],[-9.827711,54.231279],[-9.827688,54.231303],[-9.827664,54.231355],[-9.827598,54.231425],[-9.82756,54.231449],[-9.827534,54.231454],[-9.82749,54.231462],[-9.827447,54.231473],[-9.827407,54.231499],[-9.827349,54.231536],[-9.827297,54.231585],[-9.827268,54.231619],[-9.827242,54.231678],[-9.827206,54.231709],[-9.827161,54.231725],[-9.827142,54.231733],[-9.827084,54.231753],[-9.827059,54.231773],[-9.827051,54.231789],[-9.827043,54.231805],[-9.827035,54.231839],[-9.827029,54.231882],[-9.827031,54.231947],[-9.82703,54.231969],[-9.827005,54.231989],[-9.82693,54.232024],[-9.826881,54.232042],[-9.826851,54.232047],[-9.826811,54.232039],[-9.826743,54.232031],[-9.826672,54.232033],[-9.82665,54.232038],[-9.826622,54.232051],[-9.826591,54.232077],[-9.826572,54.232085],[-9.826538,54.232111],[-9.826499,54.23214],[-9.826465,54.23216],[-9.826416,54.232172],[-9.826378,54.232178],[-9.826357,54.232195],[-9.82635,54.232213],[-9.826344,54.232315],[-9.826276,54.23234],[-9.826288,54.232415],[-9.826295,54.232458],[-9.826313,54.232604],[-9.826376,54.232795],[-9.826393,54.233036],[-9.826439,54.233255],[-9.826412,54.233527],[-9.826431,54.23381],[-9.826532,54.234121],[-9.82658,54.234276],[-9.826578,54.234472],[-9.826575,54.234558],[-9.826552,54.234585],[-9.826488,54.234629],[-9.82653,54.234647],[-9.826549,54.234729],[-9.826626,54.234881],[-9.826773,54.235101],[-9.826749,54.235176],[-9.82704,54.235457],[-9.827179,54.235577],[-9.827566,54.235902],[-9.827808,54.236073],[-9.82807,54.236253],[-9.828344,54.236412],[-9.828594,54.236571],[-9.82874,54.236647],[-9.828922,54.236769],[-9.829046,54.23688],[-9.829316,54.23712],[-9.829637,54.237389],[-9.829759,54.2375],[-9.829944,54.237672],[-9.830274,54.237962],[-9.83049,54.238149],[-9.830755,54.238388],[-9.830832,54.238577],[-9.83088,54.238743],[-9.83091,54.238882],[-9.830921,54.23891],[-9.83095,54.238984],[-9.830956,54.239011],[-9.83097,54.239195],[-9.830994,54.23943],[-9.831055,54.239629],[-9.831062,54.239652],[-9.831149,54.239843],[-9.831229,54.24003],[-9.831313,54.240139],[-9.83137,54.240227],[-9.83149,54.240331],[-9.831578,54.240455],[-9.831703,54.240573],[-9.831812,54.240645],[-9.831883,54.240798],[-9.831979,54.240933],[-9.831991,54.240967],[-9.831991,54.240967],[-9.832085,54.241257],[-9.832202,54.241446],[-9.832438,54.241612],[-9.832379,54.241695],[-9.83259,54.2419],[-9.832724,54.242069],[-9.83295,54.24225],[-9.833035,54.242284],[-9.833205,54.242407],[-9.833191,54.242434],[-9.833122,54.242651],[-9.833145,54.242699],[-9.833279,54.242741],[-9.833479,54.242858],[-9.833611,54.242998],[-9.833727,54.243059],[-9.833883,54.243143],[-9.833969,54.243232],[-9.834124,54.243371],[-9.834193,54.24349],[-9.834374,54.243733],[-9.834505,54.243798],[-9.834686,54.243841],[-9.834761,54.243875],[-9.834775,54.243907],[-9.834734,54.244071],[-9.834784,54.244122],[-9.834808,54.244206],[-9.834783,54.244311],[-9.834809,54.244351],[-9.834856,54.244359],[-9.834931,54.244386],[-9.834944,54.244425],[-9.83492,54.244466],[-9.834892,54.244519],[-9.834919,54.244575],[-9.835006,54.244612],[-9.835035,54.244643],[-9.835025,54.244679],[-9.834979,54.244744],[-9.835003,54.244764],[-9.835052,54.244808],[-9.835091,54.244945],[-9.835184,54.245014],[-9.835194,54.24505],[-9.835207,54.24514],[-9.835246,54.245209],[-9.835426,54.245309],[-9.835498,54.245353],[-9.835517,54.245407],[-9.835501,54.245464],[-9.835469,54.245572],[-9.835513,54.245668],[-9.835586,54.245723],[-9.835597,54.245775],[-9.835647,54.245835],[-9.835714,54.245868],[-9.835675,54.245989],[-9.835632,54.246042],[-9.835634,54.246083],[-9.835693,54.246093],[-9.835784,54.246072],[-9.835841,54.246051],[-9.835891,54.246049],[-9.835939,54.246066],[-9.835956,54.2461],[-9.835936,54.246146],[-9.83588,54.246177],[-9.835893,54.246215],[-9.835995,54.246301],[-9.835987,54.246485],[-9.835997,54.246526],[-9.836024,54.246527],[-9.836073,54.246512],[-9.836168,54.246474],[-9.83623,54.246472],[-9.836289,54.246489],[-9.836295,54.246536],[-9.83629,54.246575],[-9.836219,54.246618],[-9.836195,54.246673],[-9.83623,54.246742],[-9.836283,54.246786],[-9.836331,54.24681],[-9.836371,54.246837],[-9.836361,54.246857],[-9.836307,54.246863],[-9.836258,54.246889],[-9.836313,54.246965],[-9.836362,54.247005],[-9.836332,54.247155],[-9.836289,54.247206],[-9.836299,54.247258],[-9.836343,54.247275],[-9.83637,54.247345],[-9.836509,54.247479],[-9.836479,54.247613],[-9.836532,54.247652],[-9.836542,54.247716],[-9.836502,54.247756],[-9.836544,54.247776],[-9.836628,54.247816],[-9.83665,54.24782],[-9.836743,54.247836],[-9.836963,54.247841],[-9.837197,54.247826],[-9.837351,54.247839],[-9.83738,54.247842],[-9.837497,54.247872],[-9.837499,54.247856],[-9.837498,54.247834],[-9.837526,54.247814],[-9.837534,54.247805],[-9.83751,54.247739],[-9.837503,54.247697],[-9.837525,54.247656],[-9.837584,54.247565],[-9.837641,54.247485],[-9.837712,54.2474],[-9.837807,54.247273]],[[-9.839233,54.233058],[-9.839384,54.233069],[-9.839728,54.233093],[-9.839425,54.234937],[-9.839086,54.234916],[-9.83877,54.234896],[-9.838432,54.234874],[-9.838134,54.234856],[-9.837881,54.23484],[-9.837574,54.23482],[-9.837272,54.234801],[-9.836936,54.23478],[-9.836615,54.23476],[-9.836631,54.234641],[-9.836138,54.234648],[-9.836126,54.234379],[-9.836668,54.234371],[-9.83687,54.232899],[-9.837016,54.232905],[-9.83722,54.232918],[-9.837569,54.232941],[-9.837887,54.232961],[-9.838085,54.232974],[-9.838173,54.23298],[-9.838422,54.232999],[-9.838729,54.233021],[-9.83906,54.233045],[-9.839233,54.233058]],[[-9.83737,54.247634],[-9.837277,54.247636],[-9.837231,54.247637],[-9.837162,54.247714],[-9.83708,54.247702],[-9.836937,54.247776],[-9.836773,54.247748],[-9.83667,54.247712],[-9.836641,54.24767],[-9.836663,54.247594],[-9.836561,54.247358],[-9.836762,54.247231],[-9.83686,54.247251],[-9.836967,54.247289],[-9.83708,54.247312],[-9.837197,54.24732],[-9.837395,54.24734],[-9.837513,54.247371],[-9.837553,54.247395],[-9.83737,54.247634]],[[-9.844754,54.241491],[-9.844957,54.241656],[-9.844568,54.241773],[-9.844523,54.241788],[-9.844368,54.24184],[-9.844201,54.241674],[-9.844245,54.241657],[-9.844294,54.241636],[-9.84433,54.241621],[-9.844364,54.241607],[-9.84444,54.241576],[-9.844682,54.241514],[-9.844754,54.241491]],[[-9.846138,54.24153],[-9.846334,54.241518],[-9.846618,54.241624],[-9.846642,54.241761],[-9.846279,54.241831],[-9.846126,54.241593],[-9.846138,54.24153]],[[-9.834519,54.229281],[-9.834531,54.22955],[-9.833612,54.229564],[-9.8336,54.229295],[-9.834519,54.229281]],[[-9.833379,54.23469],[-9.833367,54.234421],[-9.832907,54.234428],[-9.832895,54.234158],[-9.835654,54.234116],[-9.835666,54.234386],[-9.834286,54.234407],[-9.834298,54.234676],[-9.833379,54.23469]],[[-9.833181,54.240625],[-9.833193,54.240894],[-9.832733,54.240901],[-9.832721,54.240632],[-9.833181,54.240625]],[[-9.834125,54.24115],[-9.834137,54.241419],[-9.833217,54.241433],[-9.833205,54.241164],[-9.834125,54.24115]]],[[[-9.837898,54.229931],[-9.837767,54.229874],[-9.837774,54.23004],[-9.837902,54.230038],[-9.837898,54.229931]]],[[[-9.849691,54.226552],[-9.849747,54.226595],[-9.850027,54.226811],[-9.850006,54.226337],[-9.849999,54.226334],[-9.849948,54.226317],[-9.849416,54.226325],[-9.849447,54.226352],[-9.849455,54.226359],[-9.849691,54.226552]]]]}}]}
