{"type":"FeatureCollection","features":[{"type":"Feature","properties":{"source_fid":457933,"county":"Mayo","bog_geom_ha":105.43845262707472,"low15_pct":98.549488054607508,"low15_ha":103.909055276682,"overlay_ha":103.90845262709409,"area_delta":-0.00060264958790412493},"geometry":{"type":"MultiPolygon","coordinates":[[[[-9.775596,54.219698],[-9.776192,54.215267],[-9.774729,54.213557],[-9.774727,54.213556],[-9.774551,54.213349],[-9.774137,54.212856],[-9.774086,54.212796],[-9.773789,54.212446],[-9.773713,54.212354],[-9.77361,54.212229],[-9.773637,54.212223],[-9.773637,54.212223],[-9.773287,54.211782],[-9.772725,54.21111],[-9.772719,54.211103],[-9.772668,54.21104],[-9.772661,54.211031],[-9.772544,54.210874],[-9.772544,54.210177],[-9.772547,54.209575],[-9.772548,54.209286],[-9.772548,54.209273],[-9.772556,54.208714],[-9.772393,54.208693],[-9.772079,54.208663],[-9.772026,54.208677],[-9.771977,54.208663],[-9.771887,54.208992],[-9.771679,54.209039],[-9.771298,54.208999],[-9.77093,54.208933],[-9.770662,54.20893],[-9.770456,54.208933],[-9.770336,54.20897],[-9.770119,54.209038],[-9.77006,54.209074],[-9.770001,54.209111],[-9.769966,54.209147],[-9.769969,54.209218],[-9.769936,54.209304],[-9.769877,54.209334],[-9.769697,54.209393],[-9.769613,54.209423],[-9.769457,54.209475],[-9.769349,54.20952],[-9.76923,54.209578],[-9.769181,54.209579],[-9.769159,54.209629],[-9.769172,54.209651],[-9.769174,54.209693],[-9.769127,54.209737],[-9.76908,54.209773],[-9.769081,54.209802],[-9.769083,54.209845],[-9.769158,54.209893],[-9.769197,54.20995],[-9.769198,54.209971],[-9.769199,54.210007],[-9.769189,54.210043],[-9.769119,54.210122],[-9.76906,54.210152],[-9.769001,54.210202],[-9.768978,54.210231],[-9.76898,54.210288],[-9.768993,54.210295],[-9.769019,54.210345],[-9.769071,54.210408],[-9.768986,54.210431],[-9.768743,54.210442],[-9.768647,54.210464],[-9.768551,54.210502],[-9.76848,54.210538],[-9.768432,54.210553],[-9.768373,54.210604],[-9.768338,54.210647],[-9.768279,54.210691],[-9.768159,54.210728],[-9.768038,54.210737],[-9.767949,54.210745],[-9.767895,54.210772],[-9.76787,54.210791],[-9.767866,54.21082],[-9.767898,54.210862],[-9.767945,54.210882],[-9.768001,54.210899],[-9.768047,54.210901],[-9.768093,54.210912],[-9.768154,54.210914],[-9.768226,54.210943],[-9.768298,54.210948],[-9.76839,54.210982],[-9.768442,54.211017],[-9.768504,54.21104],[-9.768526,54.211075],[-9.768523,54.21112],[-9.768489,54.211153],[-9.768469,54.211153],[-9.768361,54.211128],[-9.76827,54.21113],[-9.768183,54.211122],[-9.768112,54.211114],[-9.767934,54.211105],[-9.767808,54.211118],[-9.767626,54.211145],[-9.767476,54.211183],[-9.767442,54.211207],[-9.767423,54.211249],[-9.76747,54.211278],[-9.767507,54.211313],[-9.767584,54.211339],[-9.767661,54.211361],[-9.767728,54.21139],[-9.767795,54.211407],[-9.767871,54.211415],[-9.767902,54.211432],[-9.767934,54.211461],[-9.767931,54.211512],[-9.767902,54.211542],[-9.767874,54.21159],[-9.767773,54.211612],[-9.767595,54.211591],[-9.767482,54.211551],[-9.76739,54.211535],[-9.767272,54.211504],[-9.767134,54.211488],[-9.767047,54.211471],[-9.766935,54.211452],[-9.766864,54.211465],[-9.766784,54.211493],[-9.766745,54.211532],[-9.766682,54.21159],[-9.766604,54.211671],[-9.766509,54.211818],[-9.766406,54.212013],[-9.766327,54.212192],[-9.766259,54.212259],[-9.766237,54.212327],[-9.766224,54.212372],[-9.76626,54.212387],[-9.766372,54.212409],[-9.766537,54.212422],[-9.766503,54.212448],[-9.766479,54.21257],[-9.766458,54.212791],[-9.766414,54.212957],[-9.766366,54.213053],[-9.766152,54.213256],[-9.765994,54.213367],[-9.765647,54.213572],[-9.765474,54.213705],[-9.765399,54.213858],[-9.765433,54.21394],[-9.765465,54.214005],[-9.765478,54.214135],[-9.765483,54.214244],[-9.765464,54.21434],[-9.765459,54.214372],[-9.765291,54.214336],[-9.765223,54.214256],[-9.765212,54.2142],[-9.765135,54.21411],[-9.764997,54.214108],[-9.764814,54.214177],[-9.764678,54.214222],[-9.76455,54.214271],[-9.764373,54.214307],[-9.764177,54.214286],[-9.76403,54.214264],[-9.763951,54.214304],[-9.763912,54.214339],[-9.763841,54.214409],[-9.763769,54.214458],[-9.763832,54.214484],[-9.763977,54.214546],[-9.764036,54.214607],[-9.764076,54.214668],[-9.764116,54.214723],[-9.764126,54.214782],[-9.764087,54.214839],[-9.764123,54.2149],[-9.764126,54.214939],[-9.764136,54.215019],[-9.764136,54.215024],[-9.764137,54.215025],[-9.764154,54.215054],[-9.76417,54.215092],[-9.764227,54.215125],[-9.764357,54.215201],[-9.764426,54.215253],[-9.764465,54.215298],[-9.764557,54.215323],[-9.764622,54.215342],[-9.764698,54.21537],[-9.764732,54.215396],[-9.764792,54.215481],[-9.764952,54.215515],[-9.764968,54.215563],[-9.764975,54.215691],[-9.764975,54.215758],[-9.764853,54.215895],[-9.764836,54.215914],[-9.764648,54.216156],[-9.764387,54.216469],[-9.764158,54.216754],[-9.764035,54.216905],[-9.763954,54.217006],[-9.763912,54.217066],[-9.763798,54.217229],[-9.763562,54.217518],[-9.763455,54.217656],[-9.763431,54.217718],[-9.763438,54.21777],[-9.76307,54.218316],[-9.762882,54.218605],[-9.762849,54.218662],[-9.762841,54.218734],[-9.76284,54.21881],[-9.762864,54.21891],[-9.762888,54.219],[-9.762912,54.219071],[-9.762944,54.219128],[-9.763,54.219209],[-9.763073,54.219309],[-9.763105,54.219328],[-9.763154,54.219348],[-9.763202,54.219376],[-9.763194,54.219409],[-9.763194,54.219457],[-9.763218,54.219509],[-9.763242,54.219552],[-9.762529,54.219437],[-9.761715,54.219276],[-9.761715,54.219276],[-9.761714,54.21928],[-9.761711,54.219288],[-9.761439,54.219234],[-9.761221,54.219191],[-9.761211,54.219189],[-9.761203,54.219257],[-9.761253,54.219309],[-9.761268,54.219333],[-9.761277,54.219349],[-9.761289,54.219368],[-9.761295,54.219405],[-9.761354,54.219408],[-9.761412,54.219409],[-9.761418,54.219437],[-9.761428,54.219591],[-9.761439,54.219771],[-9.761035,54.219713],[-9.76049,54.21958],[-9.760055,54.219478],[-9.759304,54.2193],[-9.759062,54.219237],[-9.759016,54.219216],[-9.758909,54.219165],[-9.758891,54.219187],[-9.75878,54.219324],[-9.75862,54.219499],[-9.758548,54.219564],[-9.758537,54.219574],[-9.758415,54.219535],[-9.758414,54.219535],[-9.758414,54.219535],[-9.758412,54.219537],[-9.758307,54.21948],[-9.758162,54.219404],[-9.758041,54.219266],[-9.757988,54.219165],[-9.758002,54.21909],[-9.758012,54.219023],[-9.758101,54.218855],[-9.758115,54.218813],[-9.757988,54.218673],[-9.757828,54.218484],[-9.757429,54.218156],[-9.757362,54.218178],[-9.757268,54.218192],[-9.75722,54.218195],[-9.757074,54.218203],[-9.756966,54.218232],[-9.756908,54.218273],[-9.756883,54.218303],[-9.756875,54.218353],[-9.756868,54.218386],[-9.756867,54.218438],[-9.756855,54.2185],[-9.756846,54.218521],[-9.756839,54.218538],[-9.756762,54.218663],[-9.75669,54.218725],[-9.756571,54.218816],[-9.7565,54.218869],[-9.756388,54.218946],[-9.756308,54.218985],[-9.756189,54.219076],[-9.756118,54.219129],[-9.756083,54.219144],[-9.756006,54.219178],[-9.755941,54.219197],[-9.755869,54.219222],[-9.755861,54.219236],[-9.755782,54.219284],[-9.755725,54.21929],[-9.755644,54.219309],[-9.75561,54.219332],[-9.755536,54.219341],[-9.755513,54.219315],[-9.75542,54.219318],[-9.755703,54.219784],[-9.754847,54.220013],[-9.75453,54.220202],[-9.754214,54.220553],[-9.753871,54.220597],[-9.753725,54.221137],[-9.7535,54.221277],[-9.753388,54.221337],[-9.753303,54.221383],[-9.753191,54.221457],[-9.75316,54.221483],[-9.753337,54.221584],[-9.753449,54.221702],[-9.753507,54.22184],[-9.753546,54.222083],[-9.753559,54.222165],[-9.753601,54.222166],[-9.754089,54.222153],[-9.754597,54.222205],[-9.755155,54.222311],[-9.75559,54.222474],[-9.756253,54.222852],[-9.756892,54.223058],[-9.75787,54.223313],[-9.758181,54.223377],[-9.758484,54.223334],[-9.758547,54.22332],[-9.758739,54.223311],[-9.758826,54.223297],[-9.758932,54.223288],[-9.759084,54.223307],[-9.759235,54.223354],[-9.759397,54.223416],[-9.759583,54.223378],[-9.759815,54.223319],[-9.760197,54.223211],[-9.760676,54.223045],[-9.761359,54.222828],[-9.761814,54.222677],[-9.762125,54.222584],[-9.76252,54.222459],[-9.763502,54.222138],[-9.76351,54.222135],[-9.763964,54.22199],[-9.764182,54.221926],[-9.764739,54.22177],[-9.765003,54.221703],[-9.765259,54.221638],[-9.765747,54.221525],[-9.766274,54.221416],[-9.766997,54.22129],[-9.767671,54.221172],[-9.768304,54.221069],[-9.769092,54.220932],[-9.769837,54.220807],[-9.770389,54.220712],[-9.770728,54.220658],[-9.770809,54.220646],[-9.771115,54.220589],[-9.771885,54.220453],[-9.77242,54.220368],[-9.77304,54.220265],[-9.773391,54.220202],[-9.773522,54.220182],[-9.774056,54.220078],[-9.774264,54.220039],[-9.774534,54.219985],[-9.774807,54.219921],[-9.775091,54.21985],[-9.775465,54.219732],[-9.775596,54.219698]],[[-9.772238,54.214845],[-9.772697,54.214838],[-9.772709,54.215108],[-9.772721,54.215377],[-9.772261,54.215384],[-9.772272,54.215653],[-9.771813,54.21566],[-9.771847,54.216469],[-9.771859,54.216738],[-9.772318,54.216731],[-9.77233,54.217001],[-9.772342,54.21727],[-9.771882,54.217277],[-9.77187,54.217007],[-9.771411,54.217014],[-9.771399,54.216745],[-9.771387,54.216475],[-9.770928,54.216482],[-9.770893,54.215674],[-9.771353,54.215667],[-9.771341,54.215398],[-9.77133,54.215128],[-9.771318,54.214859],[-9.771778,54.214852],[-9.77179,54.215121],[-9.772249,54.215115],[-9.772238,54.214845]]]]}}]}
