{"type":"FeatureCollection","features":[{"type":"Feature","properties":{"source_fid":458510,"county":"Mayo","bog_geom_ha":197.39221494503605,"low15_pct":99.954275262917236,"low15_ha":197.30195787373057,"overlay_ha":197.34340769109428,"area_delta":0.041449817363712782},"geometry":{"type":"MultiPolygon","coordinates":[[[[-9.478414,54.183527],[-9.481647,54.183939],[-9.481647,54.183939],[-9.481647,54.183939],[-9.484028,54.184242],[-9.484102,54.184251],[-9.485614,54.183752],[-9.485931,54.183397],[-9.485967,54.183357],[-9.485973,54.183351],[-9.486182,54.183116],[-9.487267,54.182786],[-9.487259,54.182574],[-9.487718,54.182568],[-9.487721,54.182648],[-9.488189,54.182506],[-9.490445,54.182708],[-9.492962,54.182943],[-9.493458,54.183069],[-9.493904,54.183182],[-9.494539,54.183345],[-9.494896,54.183462],[-9.49541,54.183596],[-9.495955,54.183759],[-9.496118,54.183794],[-9.496362,54.183846],[-9.498064,54.184354],[-9.498184,54.184332],[-9.498268,54.184317],[-9.498268,54.184317],[-9.50077,54.18387],[-9.500852,54.183919],[-9.500925,54.183943],[-9.501125,54.184009],[-9.501293,54.184013],[-9.501634,54.184044],[-9.502238,54.184055],[-9.503404,54.184107],[-9.503925,54.184139],[-9.504159,54.184135],[-9.504229,54.184149],[-9.504338,54.184195],[-9.504423,54.184194],[-9.504585,54.184167],[-9.504886,54.18415],[-9.505074,54.184164],[-9.50518,54.184192],[-9.505226,54.184192],[-9.505263,54.184187],[-9.505282,54.183936],[-9.505278,54.183722],[-9.505304,54.183362],[-9.505312,54.182931],[-9.505359,54.18259],[-9.505385,54.182332],[-9.505385,54.182332],[-9.505385,54.182332],[-9.505385,54.182332],[-9.505385,54.182332],[-9.505414,54.182328],[-9.505466,54.18232],[-9.505515,54.182173],[-9.505516,54.181994],[-9.505507,54.181839],[-9.505491,54.181843],[-9.505372,54.181868],[-9.505297,54.181846],[-9.505249,54.181832],[-9.505134,54.181851],[-9.50501,54.181824],[-9.504984,54.181798],[-9.504966,54.18178],[-9.504977,54.18174],[-9.505002,54.181732],[-9.505035,54.181721],[-9.505063,54.181662],[-9.505012,54.181628],[-9.505063,54.181577],[-9.505193,54.181487],[-9.505227,54.181374],[-9.505266,54.181285],[-9.505362,54.181165],[-9.505429,54.180877],[-9.505417,54.180789],[-9.505383,54.180739],[-9.505116,54.18048],[-9.505293,54.18034],[-9.50532,54.180289],[-9.505164,54.180285],[-9.505197,54.180123],[-9.505254,54.180085],[-9.505278,54.180042],[-9.505281,54.179976],[-9.505232,54.179956],[-9.505327,54.179909],[-9.505381,54.180029],[-9.505431,54.180028],[-9.505554,54.180049],[-9.505609,54.179478],[-9.505615,54.179163],[-9.505605,54.178827],[-9.505628,54.178475],[-9.505615,54.178475],[-9.5056,54.178474],[-9.5056,54.178474],[-9.5056,54.178474],[-9.505574,54.178473],[-9.505565,54.178419],[-9.505565,54.178419],[-9.505565,54.178419],[-9.505651,54.178395],[-9.505672,54.178173],[-9.505697,54.177771],[-9.505726,54.177559],[-9.50572,54.177048],[-9.505715,54.176624],[-9.505723,54.176277],[-9.505699,54.175874],[-9.505663,54.175836],[-9.50561,54.175781],[-9.505611,54.175767],[-9.505611,54.17574],[-9.505614,54.175595],[-9.505612,54.175564],[-9.505612,54.175564],[-9.505612,54.175564],[-9.505599,54.175567],[-9.505553,54.17559],[-9.505479,54.175646],[-9.505368,54.175654],[-9.505341,54.175684],[-9.505328,54.175769],[-9.505301,54.175788],[-9.505215,54.175792],[-9.505146,54.175831],[-9.505089,54.17582],[-9.50496,54.175829],[-9.504879,54.175856],[-9.504838,54.175884],[-9.504802,54.176023],[-9.504783,54.176053],[-9.504621,54.176216],[-9.504436,54.176244],[-9.504363,54.176262],[-9.504304,54.176401],[-9.504246,54.176418],[-9.50414,54.176415],[-9.503906,54.176353],[-9.503831,54.17627],[-9.503273,54.176214],[-9.503263,54.176213],[-9.503166,54.1762],[-9.503138,54.176177],[-9.503144,54.176135],[-9.503096,54.176108],[-9.502976,54.176104],[-9.502895,54.176119],[-9.502738,54.176201],[-9.502658,54.176217],[-9.50256,54.176211],[-9.502359,54.176154],[-9.502036,54.176138],[-9.501983,54.176167],[-9.501926,54.17617],[-9.501831,54.176232],[-9.50177,54.176244],[-9.501638,54.176223],[-9.501634,54.176205],[-9.501678,54.176175],[-9.501682,54.176136],[-9.501715,54.176104],[-9.501693,54.176063],[-9.501662,54.176016],[-9.50151,54.175926],[-9.501463,54.17594],[-9.501462,54.175908],[-9.501358,54.175839],[-9.501283,54.175834],[-9.501252,54.175855],[-9.501194,54.175846],[-9.501168,54.175798],[-9.501179,54.175734],[-9.501036,54.175642],[-9.500502,54.175605],[-9.500462,54.175584],[-9.500264,54.175551],[-9.500205,54.175562],[-9.500135,54.175542],[-9.500114,54.175532],[-9.50005,54.175474],[-9.499992,54.175448],[-9.499475,54.175257],[-9.499411,54.175245],[-9.499158,54.175265],[-9.499112,54.175265],[-9.499074,54.175256],[-9.49896,54.17515],[-9.498975,54.175082],[-9.498878,54.175032],[-9.498832,54.175038],[-9.49876,54.174986],[-9.498749,54.174942],[-9.498724,54.17492],[-9.49865,54.174907],[-9.498608,54.174912],[-9.498579,54.174904],[-9.498313,54.174721],[-9.498209,54.174685],[-9.498161,54.174685],[-9.498136,54.174643],[-9.498119,54.174615],[-9.498049,54.17459],[-9.49798,54.174585],[-9.49771,54.174602],[-9.497606,54.174601],[-9.497534,54.174586],[-9.497478,54.174544],[-9.497423,54.174419],[-9.497402,54.174394],[-9.497257,54.174337],[-9.497185,54.174319],[-9.497089,54.174326],[-9.497048,54.174323],[-9.497002,54.174306],[-9.496704,54.174115],[-9.496554,54.174054],[-9.496319,54.174009],[-9.496214,54.173976],[-9.496089,54.17384],[-9.496034,54.173805],[-9.49582,54.173751],[-9.495695,54.173673],[-9.495597,54.173674],[-9.495551,54.173655],[-9.495409,54.173553],[-9.4951,54.17341],[-9.495067,54.173353],[-9.495,54.173313],[-9.494929,54.1733],[-9.494829,54.173247],[-9.4948,54.173124],[-9.494737,54.173079],[-9.494672,54.172948],[-9.494622,54.172925],[-9.494599,54.172808],[-9.494578,54.172781],[-9.494301,54.17267],[-9.494266,54.17265],[-9.494189,54.172529],[-9.494145,54.172509],[-9.493889,54.172446],[-9.493874,54.172437],[-9.493868,54.172288],[-9.49383,54.172234],[-9.493468,54.172124],[-9.493407,54.172044],[-9.493317,54.172018],[-9.493281,54.171991],[-9.493188,54.171962],[-9.493185,54.171958],[-9.493242,54.171846],[-9.493225,54.171812],[-9.493144,54.171777],[-9.493083,54.171786],[-9.493037,54.171788],[-9.493008,54.171777],[-9.492955,54.17174],[-9.492914,54.171734],[-9.492893,54.171713],[-9.492835,54.171705],[-9.492757,54.171661],[-9.492738,54.171639],[-9.49251,54.171596],[-9.492421,54.171599],[-9.492302,54.171552],[-9.492257,54.171567],[-9.492131,54.171518],[-9.492111,54.171443],[-9.492015,54.171429],[-9.492007,54.171394],[-9.491581,54.17116],[-9.491379,54.171107],[-9.491267,54.171129],[-9.491072,54.171088],[-9.490987,54.171039],[-9.490858,54.171062],[-9.490822,54.171063],[-9.490648,54.170993],[-9.490563,54.170887],[-9.490272,54.170844],[-9.490202,54.17082],[-9.490153,54.170815],[-9.490115,54.170813],[-9.490066,54.170837],[-9.489997,54.170841],[-9.489794,54.170826],[-9.489691,54.170837],[-9.489668,54.17083],[-9.489568,54.17071],[-9.489248,54.170582],[-9.489248,54.170582],[-9.489248,54.170582],[-9.489249,54.170616],[-9.489098,54.170678],[-9.489024,54.170688],[-9.488904,54.170736],[-9.488546,54.170672],[-9.488403,54.170676],[-9.488393,54.170677],[-9.48837,54.17068],[-9.488344,54.1707],[-9.488319,54.17072],[-9.488239,54.170747],[-9.488111,54.170763],[-9.487867,54.170754],[-9.487726,54.170772],[-9.487653,54.170791],[-9.487585,54.170807],[-9.487426,54.170884],[-9.487359,54.170916],[-9.487162,54.17095],[-9.48712,54.170982],[-9.48708,54.171028],[-9.487088,54.171087],[-9.487012,54.171121],[-9.486996,54.171172],[-9.486656,54.171314],[-9.486632,54.171316],[-9.486605,54.171318],[-9.48656,54.171345],[-9.48655,54.171401],[-9.486533,54.171417],[-9.486507,54.171441],[-9.486422,54.171662],[-9.486433,54.171725],[-9.48633,54.171822],[-9.486309,54.171861],[-9.486321,54.171865],[-9.486343,54.171874],[-9.486326,54.171986],[-9.486301,54.172143],[-9.486276,54.17216],[-9.486266,54.172167],[-9.486013,54.17221],[-9.485965,54.172209],[-9.485909,54.172245],[-9.485896,54.172248],[-9.485898,54.172255],[-9.485822,54.172307],[-9.485799,54.172304],[-9.485777,54.172345],[-9.485766,54.172366],[-9.485648,54.172465],[-9.485552,54.172497],[-9.485522,54.172521],[-9.485485,54.17255],[-9.485439,54.172587],[-9.485382,54.172633],[-9.485366,54.17268],[-9.485317,54.17273],[-9.485352,54.172743],[-9.485285,54.172865],[-9.485257,54.172892],[-9.485214,54.173121],[-9.485171,54.173154],[-9.485161,54.173175],[-9.48515,54.173198],[-9.485104,54.173194],[-9.484848,54.17319],[-9.484414,54.173172],[-9.484219,54.173158],[-9.483841,54.17313],[-9.483196,54.173094],[-9.482804,54.17306],[-9.482726,54.173051],[-9.482726,54.173051],[-9.482318,54.173531],[-9.48223,54.173753],[-9.482072,54.174153],[-9.481897,54.174301],[-9.481755,54.174422],[-9.480546,54.175772],[-9.478644,54.177877],[-9.476542,54.180203],[-9.475803,54.1811],[-9.475704,54.181221],[-9.475099,54.18222],[-9.476223,54.18271],[-9.478414,54.183527]],[[-9.503329,54.180825],[-9.503362,54.181723],[-9.501831,54.181742],[-9.501864,54.18264],[-9.500332,54.182659],[-9.500267,54.180863],[-9.503329,54.180825]]]]}}]}
