{"type":"FeatureCollection","features":[{"type":"Feature","properties":{"source_fid":459522,"county":"Mayo","bog_geom_ha":188.33317546812907,"low15_pct":100.0,"low15_ha":188.33317546812907,"overlay_ha":188.33317546812907,"area_delta":0.0},"geometry":{"type":"MultiPolygon","coordinates":[[[[-9.488561,54.163157],[-9.48853,54.163246],[-9.489023,54.163128],[-9.48981,54.162923],[-9.490742,54.16268],[-9.490869,54.162647],[-9.490943,54.162628],[-9.491114,54.162731],[-9.491211,54.162707],[-9.492202,54.162468],[-9.492923,54.162285],[-9.492923,54.162285],[-9.49324,54.161859],[-9.493816,54.161061],[-9.494605,54.159994],[-9.495162,54.159222],[-9.495481,54.158766],[-9.495534,54.15869],[-9.49555,54.158667],[-9.495683,54.158476],[-9.495831,54.158475],[-9.495946,54.158448],[-9.496032,54.158428],[-9.496183,54.158331],[-9.496195,54.158321],[-9.496305,54.158235],[-9.496451,54.158121],[-9.496798,54.157702],[-9.496933,54.157331],[-9.497131,54.156879],[-9.49737,54.156786],[-9.498072,54.156559],[-9.498389,54.156449],[-9.498931,54.156281],[-9.499049,54.156234],[-9.499148,54.156194],[-9.499177,54.156191],[-9.499899,54.156115],[-9.499985,54.156105],[-9.500727,54.156019],[-9.501373,54.155938],[-9.501807,54.155718],[-9.501884,54.155684],[-9.502459,54.155402],[-9.503464,54.154922],[-9.503878,54.154764],[-9.504861,54.154462],[-9.505167,54.154341],[-9.505198,54.154329],[-9.505222,54.154298],[-9.50541,54.154056],[-9.505669,54.153491],[-9.505701,54.153413],[-9.505561,54.152914],[-9.505476,54.152645],[-9.505157,54.152196],[-9.505054,54.151917],[-9.500395,54.152449],[-9.498853,54.152432],[-9.498139,54.152403],[-9.496581,54.152365],[-9.494458,54.152183],[-9.493791,54.152138],[-9.490728,54.152111],[-9.490088,54.152202],[-9.489943,54.152324],[-9.489438,54.152397],[-9.489267,54.152512],[-9.487611,54.152906],[-9.487487,54.152829],[-9.486629,54.152939],[-9.485252,54.152864],[-9.484332,54.152677],[-9.482997,54.152574],[-9.482483,54.152559],[-9.481258,54.152586],[-9.480517,54.152671],[-9.479155,54.153014],[-9.477547,54.153499],[-9.475176,54.154163],[-9.475935,54.155674],[-9.476083,54.155733],[-9.476096,54.155919],[-9.476361,54.156156],[-9.476447,54.156327],[-9.476387,54.156518],[-9.47663,54.156662],[-9.476547,54.157426],[-9.476232,54.157501],[-9.475717,54.158329],[-9.475965,54.158432],[-9.475882,54.158826],[-9.476055,54.159346],[-9.476294,54.159446],[-9.476475,54.159992],[-9.476148,54.160099],[-9.475743,54.160091],[-9.475397,54.160294],[-9.475052,54.160298],[-9.474338,54.160691],[-9.473638,54.160874],[-9.471387,54.160794],[-9.471826,54.161182],[-9.472298,54.161541],[-9.472689,54.161467],[-9.47303,54.162284],[-9.473273,54.1626],[-9.473403,54.162904],[-9.474213,54.163345],[-9.47444,54.163771],[-9.474357,54.164417],[-9.474544,54.164937],[-9.474812,54.165682],[-9.476865,54.166026],[-9.477452,54.166121],[-9.479681,54.164483],[-9.479745,54.164509],[-9.479831,54.164543],[-9.479845,54.164549],[-9.480404,54.164776],[-9.481122,54.165069],[-9.481447,54.165159],[-9.48151,54.165129],[-9.481654,54.165026],[-9.482379,54.164509],[-9.483447,54.163707],[-9.483603,54.163647],[-9.4842,54.163466],[-9.48804,54.162473],[-9.488509,54.162316],[-9.48898,54.162217],[-9.488962,54.162264],[-9.488683,54.162513],[-9.489099,54.16241],[-9.489102,54.162516],[-9.48906,54.162664],[-9.48897,54.162835],[-9.48876,54.163013],[-9.488561,54.163157]]]]}}]}
