{"type":"FeatureCollection","features":[{"type":"Feature","properties":{"source_fid":462275,"county":"Mayo","bog_geom_ha":462.92670244192209,"low15_pct":78.883071553228618,"low15_ha":365.17080192626315,"overlay_ha":365.19641381757606,"area_delta":0.025611891312905755},"geometry":{"type":"MultiPolygon","coordinates":[[[[-9.620263,53.610267],[-9.620334,53.610292],[-9.620362,53.610297],[-9.62042,53.610301],[-9.620446,53.6103],[-9.620465,53.610293],[-9.620485,53.610284],[-9.62049,53.610281],[-9.620466,53.609641],[-9.618238,53.609671],[-9.618218,53.609685],[-9.618183,53.609696],[-9.618158,53.60971],[-9.618171,53.609738],[-9.618201,53.60976],[-9.618299,53.609791],[-9.618322,53.609814],[-9.618317,53.609853],[-9.618294,53.609875],[-9.618297,53.609895],[-9.618289,53.609931],[-9.618207,53.609968],[-9.618153,53.610053],[-9.618132,53.61006],[-9.618101,53.61007],[-9.61804,53.610067],[-9.617969,53.610082],[-9.617921,53.610104],[-9.617871,53.610202],[-9.617811,53.610393],[-9.61774,53.610583],[-9.617746,53.61069],[-9.617731,53.610709],[-9.617694,53.610721],[-9.61764,53.610742],[-9.617638,53.610766],[-9.61763,53.610783],[-9.617647,53.61079],[-9.61766,53.610798],[-9.61776,53.610878],[-9.617827,53.610929],[-9.617848,53.610941],[-9.618003,53.61103],[-9.618024,53.611043],[-9.618085,53.61109],[-9.618106,53.611103],[-9.618135,53.611115],[-9.618162,53.611117],[-9.618168,53.611109],[-9.618171,53.611091],[-9.618164,53.611062],[-9.618164,53.611045],[-9.618185,53.610968],[-9.618194,53.610951],[-9.61829,53.610844],[-9.618309,53.610831],[-9.618416,53.610777],[-9.618503,53.610746],[-9.618531,53.610739],[-9.618634,53.610722],[-9.618709,53.610715],[-9.618755,53.610713],[-9.618764,53.610716],[-9.618784,53.610728],[-9.618815,53.610764],[-9.618835,53.610776],[-9.618843,53.610779],[-9.618884,53.610773],[-9.61891,53.610765],[-9.618953,53.61074],[-9.618969,53.610669],[-9.618968,53.610661],[-9.618964,53.610643],[-9.618959,53.610632],[-9.618964,53.610616],[-9.618979,53.610603],[-9.618992,53.610598],[-9.61899,53.61056],[-9.619412,53.610554],[-9.619415,53.610552],[-9.619422,53.610545],[-9.619434,53.610528],[-9.619441,53.610514],[-9.619458,53.6105],[-9.619609,53.610459],[-9.619715,53.610428],[-9.619789,53.610364],[-9.619893,53.610267],[-9.619942,53.610235],[-9.619965,53.610226],[-9.620026,53.610221],[-9.620143,53.610225],[-9.620179,53.61023],[-9.620206,53.610238],[-9.620263,53.610267]]],[[[-9.620017,53.610245],[-9.619992,53.610253],[-9.619927,53.610291],[-9.619851,53.610366],[-9.619751,53.610459],[-9.619611,53.61049],[-9.619514,53.610522],[-9.619493,53.610534],[-9.619473,53.610553],[-9.6205,53.610539],[-9.620492,53.610311],[-9.620471,53.61032],[-9.62046,53.610323],[-9.620432,53.610325],[-9.620354,53.610316],[-9.620326,53.610311],[-9.620282,53.6103],[-9.620258,53.61029],[-9.620226,53.610271],[-9.620203,53.61026],[-9.620169,53.61025],[-9.620141,53.610245],[-9.620067,53.610242],[-9.620037,53.610243],[-9.620017,53.610245]]],[[[-9.616157,53.61224],[-9.616208,53.612231],[-9.616262,53.612249],[-9.616301,53.612292],[-9.61635,53.612349],[-9.616393,53.612363],[-9.616448,53.612361],[-9.616504,53.612369],[-9.616548,53.612387],[-9.616562,53.612389],[-9.616596,53.612389],[-9.61662,53.612371],[-9.616611,53.61234],[-9.616589,53.612316],[-9.616571,53.612305],[-9.616541,53.612292],[-9.616495,53.612278],[-9.616432,53.612282],[-9.616401,53.61228],[-9.616378,53.612275],[-9.616358,53.612264],[-9.616348,53.612252],[-9.616345,53.612232],[-9.61635,53.612209],[-9.616365,53.612184],[-9.616394,53.612173],[-9.616446,53.612165],[-9.616525,53.612164],[-9.616614,53.61213],[-9.616715,53.612112],[-9.616769,53.612081],[-9.616753,53.612032],[-9.616727,53.611991],[-9.616662,53.611966],[-9.616619,53.611973],[-9.616536,53.611977],[-9.616435,53.61197],[-9.616408,53.611926],[-9.616426,53.611848],[-9.616485,53.611802],[-9.616566,53.611671],[-9.616625,53.611663],[-9.616696,53.611662],[-9.616838,53.611652],[-9.616875,53.611638],[-9.616884,53.61161],[-9.616834,53.611559],[-9.616742,53.611517],[-9.616677,53.611521],[-9.61662,53.611532],[-9.616513,53.611521],[-9.616437,53.611511],[-9.616408,53.611466],[-9.616434,53.611412],[-9.616493,53.611327],[-9.616489,53.611295],[-9.616487,53.611269],[-9.616517,53.611234],[-9.616568,53.611228],[-9.616623,53.611255],[-9.616725,53.611303],[-9.616782,53.611319],[-9.61683,53.61131],[-9.616878,53.611284],[-9.616893,53.611246],[-9.616912,53.611209],[-9.616902,53.611179],[-9.616871,53.611158],[-9.616891,53.61113],[-9.616992,53.611125],[-9.617064,53.611115],[-9.61709,53.611093],[-9.617177,53.611112],[-9.617219,53.61115],[-9.617206,53.611198],[-9.617214,53.611225],[-9.617296,53.611213],[-9.61735,53.611166],[-9.617398,53.61114],[-9.617474,53.611128],[-9.617466,53.611096],[-9.617406,53.61105],[-9.617339,53.611001],[-9.617338,53.610966],[-9.617375,53.610874],[-9.617385,53.610858],[-9.617434,53.610802],[-9.617455,53.610791],[-9.617516,53.61078],[-9.617545,53.610777],[-9.617598,53.610778],[-9.617617,53.61078],[-9.617632,53.610765],[-9.617634,53.61074],[-9.617677,53.610722],[-9.617723,53.610707],[-9.617737,53.610691],[-9.61773,53.610583],[-9.617801,53.610393],[-9.617861,53.610203],[-9.617912,53.610101],[-9.617969,53.610076],[-9.618038,53.610063],[-9.618097,53.610065],[-9.618144,53.610052],[-9.618177,53.610003],[-9.618202,53.609964],[-9.61828,53.609929],[-9.61829,53.609901],[-9.618285,53.609874],[-9.618311,53.60985],[-9.618315,53.609815],[-9.618297,53.609796],[-9.618248,53.609779],[-9.618199,53.609765],[-9.618164,53.609742],[-9.618151,53.609709],[-9.618178,53.609694],[-9.618213,53.609683],[-9.61823,53.609671],[-9.618027,53.609674],[-9.618034,53.609842],[-9.617128,53.609854],[-9.617138,53.610124],[-9.616685,53.61013],[-9.616705,53.610669],[-9.616252,53.610675],[-9.616262,53.610944],[-9.616293,53.611753],[-9.616014,53.611757],[-9.616035,53.61232],[-9.616068,53.612308],[-9.616119,53.612265],[-9.616157,53.61224]]],[[[-9.616546,53.612204],[-9.616486,53.612199],[-9.616458,53.612216],[-9.616487,53.612241],[-9.616595,53.612284],[-9.616673,53.61233],[-9.616702,53.612371],[-9.616692,53.612388],[-9.617549,53.612376],[-9.617514,53.611478],[-9.619025,53.611458],[-9.618997,53.610741],[-9.618996,53.610745],[-9.618989,53.610752],[-9.618972,53.610766],[-9.618935,53.610787],[-9.618923,53.610792],[-9.618895,53.610798],[-9.618817,53.610812],[-9.618809,53.61081],[-9.618788,53.610799],[-9.61876,53.610768],[-9.61874,53.610756],[-9.618731,53.610753],[-9.618694,53.610755],[-9.618624,53.610755],[-9.618525,53.610772],[-9.618498,53.610779],[-9.618408,53.610811],[-9.618385,53.610822],[-9.618318,53.610865],[-9.618301,53.610886],[-9.618268,53.610926],[-9.618236,53.610966],[-9.618206,53.611055],[-9.618209,53.611106],[-9.618202,53.611126],[-9.618195,53.611133],[-9.618177,53.611139],[-9.618149,53.611142],[-9.618128,53.61114],[-9.618102,53.611133],[-9.618034,53.611087],[-9.617922,53.611015],[-9.617831,53.610953],[-9.61776,53.610917],[-9.617741,53.610903],[-9.617665,53.610835],[-9.617622,53.61081],[-9.617596,53.610804],[-9.617531,53.610804],[-9.617505,53.61081],[-9.617463,53.610832],[-9.617446,53.610846],[-9.617412,53.610898],[-9.617396,53.610965],[-9.617391,53.610985],[-9.617452,53.611037],[-9.617545,53.611096],[-9.617583,53.611122],[-9.617574,53.61115],[-9.617485,53.611165],[-9.617413,53.611186],[-9.617319,53.611232],[-9.617231,53.611265],[-9.617159,53.611261],[-9.617122,53.611231],[-9.617146,53.611193],[-9.61715,53.611162],[-9.617125,53.611138],[-9.617051,53.611149],[-9.616988,53.611152],[-9.616955,53.611163],[-9.616954,53.611216],[-9.616914,53.611264],[-9.6169,53.61134],[-9.616868,53.611369],[-9.616827,53.611371],[-9.616794,53.611355],[-9.616768,53.61135],[-9.616712,53.611344],[-9.61666,53.611312],[-9.616598,53.611274],[-9.61657,53.611266],[-9.616542,53.611282],[-9.61654,53.611313],[-9.616516,53.611366],[-9.616475,53.611434],[-9.616461,53.611466],[-9.616488,53.611479],[-9.616572,53.611494],[-9.616636,53.611499],[-9.616738,53.611491],[-9.616771,53.61149],[-9.616926,53.611576],[-9.616981,53.611605],[-9.61697,53.611639],[-9.616879,53.611673],[-9.616783,53.61169],[-9.616629,53.61169],[-9.616601,53.611713],[-9.616503,53.611843],[-9.616485,53.611894],[-9.616487,53.611925],[-9.616553,53.611936],[-9.616614,53.611932],[-9.616712,53.611951],[-9.616775,53.611984],[-9.616792,53.611993],[-9.616834,53.612028],[-9.616832,53.612091],[-9.616795,53.612115],[-9.616706,53.61215],[-9.616621,53.612174],[-9.616546,53.612204]]],[[[-9.616402,53.612388],[-9.616325,53.612389],[-9.616288,53.612362],[-9.616272,53.612311],[-9.616229,53.61228],[-9.616174,53.61229],[-9.616095,53.612341],[-9.616039,53.612394],[-9.616038,53.612395],[-9.616038,53.612397],[-9.616429,53.612391],[-9.616402,53.612388]]],[[[-9.615618,53.6131],[-9.61567,53.613049],[-9.615703,53.613013],[-9.615719,53.612907],[-9.615721,53.612661],[-9.615716,53.612613],[-9.615717,53.612571],[-9.615732,53.61247],[-9.615779,53.612412],[-9.615807,53.6124],[-9.615411,53.612405],[-9.615418,53.612574],[-9.614965,53.61258],[-9.614975,53.612849],[-9.614985,53.613119],[-9.614555,53.613124],[-9.614596,53.614213],[-9.614825,53.61421],[-9.614833,53.614204],[-9.614954,53.614102],[-9.614991,53.614042],[-9.61502,53.613919],[-9.615101,53.613792],[-9.61518,53.613645],[-9.615162,53.613548],[-9.615134,53.613479],[-9.615139,53.613403],[-9.615153,53.613389],[-9.615238,53.613357],[-9.615341,53.613292],[-9.615416,53.613211],[-9.615514,53.613142],[-9.615618,53.6131]]],[[[-9.615246,53.613696],[-9.615237,53.613713],[-9.615152,53.613823],[-9.615098,53.613901],[-9.615083,53.614019],[-9.615043,53.614103],[-9.614978,53.614161],[-9.61492,53.614209],[-9.616107,53.614193],[-9.616038,53.612397],[-9.616035,53.612397],[-9.615984,53.61243],[-9.615927,53.612429],[-9.615866,53.612417],[-9.615822,53.612429],[-9.615771,53.612497],[-9.615771,53.612581],[-9.615772,53.612672],[-9.615764,53.612909],[-9.615748,53.613033],[-9.61574,53.61305],[-9.615716,53.613078],[-9.615663,53.613124],[-9.615641,53.613135],[-9.615544,53.613162],[-9.615453,53.613226],[-9.615385,53.6133],[-9.615367,53.613315],[-9.615275,53.613373],[-9.615213,53.613427],[-9.615209,53.613481],[-9.615266,53.613567],[-9.615264,53.613633],[-9.615246,53.613696]]],[[[-9.614606,53.614528],[-9.614609,53.614539],[-9.614608,53.61451],[-9.614608,53.61451],[-9.614606,53.614528]]],[[[-9.607079,53.615213],[-9.607065,53.614843],[-9.606889,53.614845],[-9.606879,53.614576],[-9.606869,53.614317],[-9.605534,53.614335],[-9.605554,53.614863],[-9.605983,53.614858],[-9.605997,53.615227],[-9.607079,53.615213]]],[[[-9.614605,53.616083],[-9.614666,53.616031],[-9.614611,53.614605],[-9.614598,53.614603],[-9.614586,53.614598],[-9.614567,53.614584],[-9.614554,53.614566],[-9.61455,53.614549],[-9.61456,53.614513],[-9.614604,53.614414],[-9.614596,53.614213],[-9.61412,53.61422],[-9.61414,53.614748],[-9.613687,53.614754],[-9.613698,53.615023],[-9.613708,53.615293],[-9.613728,53.615832],[-9.613739,53.616101],[-9.613749,53.616371],[-9.613296,53.616377],[-9.613306,53.616646],[-9.613178,53.616648],[-9.613189,53.616928],[-9.614512,53.61691],[-9.6145,53.61688],[-9.614503,53.616863],[-9.614541,53.616812],[-9.614557,53.616797],[-9.61462,53.616757],[-9.614643,53.616745],[-9.614692,53.616723],[-9.614672,53.616179],[-9.61467,53.61618],[-9.614643,53.616175],[-9.614602,53.616156],[-9.614583,53.616121],[-9.614605,53.616083]]],[[[-9.614648,53.616125],[-9.614663,53.616139],[-9.61467,53.616141],[-9.614668,53.616077],[-9.614654,53.616088],[-9.614645,53.616104],[-9.614646,53.616118],[-9.614648,53.616125]]],[[[-9.61456,53.616909],[-9.614699,53.616907],[-9.614694,53.616759],[-9.614643,53.61679],[-9.614616,53.616817],[-9.614553,53.616866],[-9.614547,53.616882],[-9.614557,53.616907],[-9.61456,53.616909]]],[[[-9.61343,53.619209],[-9.613405,53.619216],[-9.613345,53.619257],[-9.613331,53.619273],[-9.613254,53.619445],[-9.613279,53.61955],[-9.613325,53.619616],[-9.613333,53.619622],[-9.614779,53.619602],[-9.614779,53.619593],[-9.614802,53.619592],[-9.61475,53.618245],[-9.614727,53.618245],[-9.614711,53.617806],[-9.613872,53.617817],[-9.613794,53.617836],[-9.61365,53.617835],[-9.61354,53.617855],[-9.613431,53.617893],[-9.613375,53.617916],[-9.613352,53.617941],[-9.613369,53.617958],[-9.613385,53.617966],[-9.613491,53.617973],[-9.61352,53.617978],[-9.613635,53.618006],[-9.613658,53.618017],[-9.613665,53.618022],[-9.613676,53.618055],[-9.613675,53.618072],[-9.613658,53.618143],[-9.613603,53.618281],[-9.61355,53.618335],[-9.613495,53.618361],[-9.613441,53.618379],[-9.613316,53.618396],[-9.613215,53.618405],[-9.613129,53.618412],[-9.613038,53.618437],[-9.612998,53.618485],[-9.612987,53.618561],[-9.613015,53.618619],[-9.613129,53.618726],[-9.613156,53.618782],[-9.61312,53.618891],[-9.613024,53.619035],[-9.612966,53.619111],[-9.612913,53.619153],[-9.612934,53.619164],[-9.612986,53.619174],[-9.613115,53.61915],[-9.613207,53.619117],[-9.613269,53.619102],[-9.613339,53.619089],[-9.613445,53.619077],[-9.613524,53.619073],[-9.613552,53.619077],[-9.613616,53.619098],[-9.613677,53.619136],[-9.613681,53.619151],[-9.613643,53.619201],[-9.613568,53.619208],[-9.61343,53.619209]]],[[[-9.613623,53.618046],[-9.613604,53.618032],[-9.613494,53.618],[-9.613367,53.617992],[-9.613334,53.617976],[-9.6133,53.617942],[-9.613341,53.617898],[-9.613406,53.617871],[-9.613522,53.61783],[-9.613573,53.617821],[-9.613223,53.617826],[-9.613189,53.616928],[-9.612863,53.616932],[-9.612873,53.617192],[-9.61242,53.617198],[-9.61243,53.617467],[-9.611977,53.617473],[-9.611987,53.617743],[-9.611998,53.618012],[-9.611719,53.618016],[-9.611747,53.618744],[-9.611572,53.618747],[-9.611575,53.618827],[-9.611585,53.619096],[-9.611596,53.619366],[-9.61026,53.619384],[-9.61027,53.619663],[-9.611781,53.619642],[-9.611849,53.621439],[-9.61336,53.621418],[-9.613347,53.621088],[-9.613343,53.621096],[-9.613334,53.621113],[-9.613315,53.621155],[-9.613301,53.62117],[-9.613265,53.621193],[-9.613253,53.621198],[-9.613227,53.621207],[-9.613205,53.621213],[-9.613121,53.621225],[-9.613094,53.621232],[-9.613077,53.621239],[-9.61305,53.621244],[-9.613002,53.621245],[-9.612979,53.621237],[-9.612942,53.621199],[-9.612831,53.621097],[-9.612808,53.621087],[-9.612752,53.621078],[-9.612727,53.62107],[-9.612702,53.621055],[-9.612688,53.62104],[-9.612679,53.62101],[-9.612663,53.620997],[-9.612619,53.620984],[-9.612601,53.620971],[-9.612596,53.62096],[-9.612599,53.620944],[-9.612626,53.620914],[-9.612682,53.62082],[-9.612779,53.620786],[-9.612807,53.620782],[-9.612981,53.620789],[-9.613042,53.620793],[-9.613098,53.620793],[-9.613144,53.620762],[-9.613139,53.620734],[-9.613105,53.62072],[-9.613088,53.620683],[-9.613024,53.620648],[-9.612967,53.620628],[-9.61288,53.620585],[-9.612755,53.620562],[-9.612607,53.620562],[-9.612519,53.620543],[-9.612456,53.620516],[-9.612389,53.620474],[-9.612376,53.62042],[-9.612411,53.620389],[-9.612532,53.620363],[-9.612672,53.620329],[-9.612808,53.620306],[-9.612853,53.620313],[-9.612938,53.620331],[-9.613005,53.620328],[-9.613037,53.620304],[-9.613018,53.620271],[-9.612931,53.620223],[-9.612753,53.620126],[-9.612664,53.62009],[-9.612581,53.620094],[-9.612544,53.620085],[-9.612549,53.620043],[-9.612561,53.620006],[-9.612636,53.619968],[-9.612712,53.619924],[-9.612799,53.619854],[-9.612881,53.619824],[-9.612996,53.619785],[-9.613068,53.619745],[-9.61312,53.619728],[-9.613167,53.61973],[-9.613211,53.619734],[-9.613252,53.619751],[-9.613295,53.619761],[-9.613297,53.619761],[-9.613294,53.619683],[-9.613261,53.619648],[-9.613232,53.619588],[-9.613199,53.619456],[-9.613238,53.619335],[-9.613297,53.619243],[-9.613349,53.61919],[-9.613413,53.619183],[-9.61356,53.619182],[-9.613618,53.619176],[-9.613637,53.619151],[-9.6136,53.619131],[-9.613539,53.619111],[-9.613504,53.619108],[-9.613443,53.619115],[-9.613286,53.619128],[-9.613254,53.619136],[-9.613187,53.619165],[-9.613146,53.619179],[-9.613068,53.619197],[-9.612986,53.61921],[-9.612935,53.619204],[-9.612881,53.619188],[-9.612862,53.619176],[-9.612848,53.619158],[-9.612846,53.619141],[-9.612862,53.619108],[-9.612875,53.619093],[-9.612943,53.619043],[-9.612958,53.619028],[-9.61308,53.618858],[-9.613086,53.618841],[-9.613084,53.618758],[-9.613023,53.618684],[-9.612956,53.618622],[-9.612938,53.61859],[-9.612927,53.618543],[-9.612954,53.618481],[-9.612979,53.618441],[-9.61304,53.618409],[-9.613129,53.618374],[-9.613266,53.618359],[-9.613416,53.618342],[-9.613442,53.618335],[-9.613488,53.618312],[-9.613505,53.618297],[-9.613602,53.618132],[-9.613629,53.618071],[-9.613629,53.618063],[-9.613623,53.618046]]],[[[-9.610236,53.618765],[-9.610239,53.618845],[-9.610669,53.618839],[-9.610666,53.618759],[-9.610236,53.618765]]],[[[-9.613075,53.621181],[-9.613118,53.621165],[-9.613184,53.621168],[-9.613212,53.621167],[-9.613225,53.621151],[-9.613231,53.621132],[-9.613238,53.621074],[-9.613304,53.621035],[-9.613328,53.620981],[-9.613343,53.620977],[-9.613298,53.619799],[-9.61327,53.619795],[-9.613209,53.619764],[-9.613157,53.619759],[-9.613099,53.619771],[-9.612984,53.619824],[-9.612846,53.619876],[-9.612721,53.619955],[-9.61264,53.62],[-9.612628,53.620018],[-9.612629,53.620031],[-9.612643,53.620039],[-9.612674,53.620047],[-9.612802,53.620104],[-9.612952,53.620184],[-9.613018,53.620222],[-9.613147,53.620282],[-9.613162,53.620303],[-9.613163,53.620318],[-9.613146,53.620336],[-9.61311,53.620352],[-9.613027,53.620364],[-9.612912,53.62036],[-9.612852,53.620345],[-9.612802,53.620343],[-9.612722,53.620357],[-9.612617,53.620381],[-9.612507,53.620398],[-9.612484,53.62044],[-9.612446,53.62046],[-9.612477,53.620497],[-9.612559,53.620517],[-9.612621,53.620525],[-9.612722,53.620528],[-9.612838,53.62055],[-9.612921,53.620573],[-9.613059,53.620641],[-9.613184,53.620712],[-9.613195,53.620759],[-9.613159,53.620795],[-9.613083,53.620832],[-9.613013,53.620836],[-9.612919,53.620819],[-9.612829,53.620818],[-9.612777,53.620835],[-9.612732,53.620867],[-9.612697,53.620921],[-9.612697,53.620951],[-9.612708,53.620984],[-9.612733,53.621012],[-9.612755,53.621027],[-9.612789,53.621046],[-9.61283,53.621055],[-9.612855,53.621067],[-9.612928,53.62112],[-9.61301,53.621179],[-9.613038,53.621192],[-9.613075,53.621181]]],[[[-9.58061,53.599391],[-9.580798,53.599389],[-9.580797,53.599364],[-9.58061,53.599391]]],[[[-9.577812,53.600327],[-9.577804,53.600124],[-9.577591,53.600242],[-9.577447,53.600332],[-9.577812,53.600327]]],[[[-9.569303,53.608819],[-9.569258,53.60888],[-9.569236,53.608909],[-9.569233,53.608913],[-9.569167,53.60898],[-9.56898,53.609206],[-9.568827,53.609426],[-9.568824,53.609431],[-9.572105,53.609387],[-9.572139,53.610286],[-9.575159,53.610246],[-9.575193,53.611144],[-9.57637,53.611128],[-9.576363,53.610937],[-9.576816,53.610931],[-9.576806,53.610662],[-9.577259,53.610656],[-9.577249,53.610387],[-9.576796,53.610392],[-9.576786,53.610123],[-9.576776,53.609854],[-9.576322,53.609859],[-9.576312,53.60959],[-9.576766,53.609584],[-9.576756,53.609326],[-9.576636,53.609328],[-9.576636,53.609316],[-9.576302,53.60932],[-9.576292,53.609051],[-9.576272,53.608512],[-9.575819,53.608518],[-9.575799,53.607979],[-9.575789,53.607709],[-9.575336,53.607715],[-9.575326,53.607446],[-9.575779,53.60744],[-9.575769,53.607171],[-9.575759,53.606901],[-9.575306,53.606907],[-9.575296,53.60665],[-9.575026,53.606653],[-9.575059,53.607551],[-9.570344,53.607613],[-9.570296,53.607667],[-9.570235,53.607735],[-9.570189,53.607781],[-9.569988,53.608025],[-9.569913,53.608109],[-9.569862,53.608168],[-9.569792,53.608256],[-9.569705,53.608352],[-9.569585,53.60848],[-9.569524,53.608555],[-9.569358,53.608747],[-9.569303,53.608819]]],[[[-9.56706,53.611155],[-9.566909,53.611253],[-9.567641,53.611243],[-9.567618,53.610618],[-9.567566,53.610668],[-9.567384,53.610848],[-9.56706,53.611155]]],[[[-9.604006,53.613878],[-9.60399,53.613457],[-9.60337,53.613465],[-9.603395,53.613497],[-9.603502,53.613564],[-9.60358,53.613645],[-9.60369,53.613735],[-9.603825,53.613825],[-9.604003,53.613878],[-9.604006,53.613878]]],[[[-9.603251,53.613468],[-9.603251,53.613467],[-9.60248,53.613477],[-9.602446,53.612579],[-9.600935,53.6126],[-9.600952,53.613038],[-9.601379,53.613032],[-9.601389,53.613301],[-9.601842,53.613295],[-9.601863,53.613834],[-9.602316,53.613828],[-9.602326,53.614098],[-9.602336,53.614367],[-9.602347,53.614637],[-9.602357,53.614906],[-9.60281,53.6149],[-9.60282,53.61517],[-9.603727,53.615157],[-9.603731,53.615258],[-9.604058,53.615253],[-9.604008,53.613947],[-9.603907,53.613922],[-9.603778,53.613888],[-9.603712,53.613854],[-9.603558,53.613745],[-9.603444,53.61363],[-9.603356,53.613557],[-9.60329,53.613527],[-9.603273,53.613513],[-9.603256,53.613486],[-9.603251,53.613468]]],[[[-9.601037,53.615294],[-9.601464,53.615288],[-9.601461,53.615188],[-9.601033,53.615194],[-9.601037,53.615294]]],[[[-9.567649,53.615364],[-9.567647,53.615366],[-9.567794,53.615364],[-9.567774,53.614836],[-9.567603,53.614838],[-9.567602,53.614855],[-9.567608,53.614894],[-9.567629,53.614936],[-9.567676,53.614992],[-9.567677,53.61503],[-9.567668,53.615039],[-9.567619,53.61504],[-9.567602,53.615046],[-9.567597,53.615063],[-9.567596,53.615078],[-9.567599,53.6151],[-9.567613,53.615128],[-9.567652,53.615153],[-9.567667,53.615163],[-9.567679,53.615184],[-9.56767,53.615201],[-9.56764,53.615226],[-9.567551,53.615258],[-9.567541,53.615285],[-9.567547,53.615305],[-9.567563,53.615317],[-9.56759,53.615319],[-9.567645,53.615316],[-9.567677,53.615322],[-9.567688,53.615336],[-9.567683,53.615352],[-9.567649,53.615364]]],[[[-9.60662,53.619712],[-9.607249,53.619703],[-9.607215,53.618805],[-9.606133,53.61882],[-9.606136,53.6189],[-9.606146,53.619169],[-9.6066,53.619163],[-9.60661,53.619433],[-9.60662,53.619702],[-9.60662,53.619712]]],[[[-9.605637,53.617029],[-9.604252,53.617048],[-9.604262,53.617307],[-9.604715,53.617301],[-9.604725,53.617571],[-9.605632,53.617559],[-9.605642,53.617828],[-9.605652,53.618098],[-9.605662,53.618367],[-9.605687,53.618367],[-9.605637,53.617029]]],[[[-9.572506,53.620165],[-9.572485,53.619616],[-9.572151,53.619621],[-9.572161,53.61989],[-9.572181,53.620429],[-9.572635,53.620423],[-9.572625,53.620163],[-9.572506,53.620165]]],[[[-9.549136,53.627623],[-9.548864,53.627986],[-9.548623,53.628268],[-9.5484,53.628543],[-9.54811,53.628903],[-9.547953,53.6291],[-9.547767,53.629338],[-9.547668,53.629474],[-9.548665,53.629461],[-9.548681,53.629903],[-9.549399,53.629894],[-9.549389,53.629624],[-9.553017,53.629577],[-9.553026,53.629847],[-9.552573,53.629853],[-9.552583,53.630122],[-9.550769,53.630146],[-9.550779,53.630415],[-9.551233,53.630409],[-9.551243,53.630679],[-9.550336,53.63069],[-9.550346,53.63096],[-9.548985,53.630978],[-9.548995,53.631247],[-9.54873,53.631251],[-9.54873,53.631258],[-9.547219,53.631277],[-9.547239,53.631809],[-9.547655,53.631804],[-9.547645,53.631534],[-9.549459,53.631511],[-9.549449,53.631241],[-9.551262,53.631218],[-9.551252,53.630948],[-9.552613,53.630931],[-9.552603,53.630661],[-9.55351,53.630649],[-9.5535,53.63038],[-9.553953,53.630374],[-9.553963,53.630643],[-9.554416,53.630638],[-9.554406,53.630368],[-9.555313,53.630356],[-9.555303,53.630087],[-9.55621,53.630075],[-9.5562,53.629805],[-9.556654,53.6298],[-9.556663,53.630069],[-9.556673,53.630339],[-9.556683,53.630608],[-9.555776,53.63062],[-9.555786,53.630889],[-9.554426,53.630907],[-9.554436,53.631177],[-9.553529,53.631188],[-9.553539,53.631458],[-9.552179,53.631475],[-9.552169,53.631206],[-9.551716,53.631212],[-9.551726,53.631481],[-9.550819,53.631493],[-9.550829,53.631763],[-9.550375,53.631768],[-9.550385,53.632038],[-9.549932,53.632044],[-9.549942,53.632313],[-9.549488,53.632319],[-9.549498,53.632589],[-9.549045,53.632595],[-9.549055,53.632864],[-9.547694,53.632882],[-9.547704,53.633151],[-9.547251,53.633157],[-9.547261,53.633427],[-9.546506,53.633436],[-9.546576,53.633605],[-9.546655,53.633797],[-9.546767,53.634017],[-9.546829,53.634155],[-9.546891,53.634295],[-9.54697,53.634458],[-9.547076,53.634689],[-9.547192,53.634902],[-9.54732,53.635112],[-9.547455,53.635289],[-9.547544,53.635436],[-9.547637,53.635582],[-9.547816,53.63587],[-9.547969,53.636101],[-9.548022,53.63619],[-9.548097,53.636321],[-9.54819,53.636461],[-9.548295,53.636619],[-9.54839,53.636754],[-9.548496,53.636945],[-9.548632,53.637181],[-9.548676,53.637288],[-9.548753,53.637405],[-9.548776,53.637451],[-9.549676,53.63744],[-9.549666,53.63717],[-9.551026,53.637152],[-9.551036,53.637422],[-9.55149,53.637416],[-9.5515,53.637686],[-9.55151,53.637955],[-9.552416,53.637943],[-9.552426,53.638213],[-9.55288,53.638207],[-9.55289,53.638476],[-9.5529,53.638746],[-9.553807,53.638734],[-9.553817,53.639004],[-9.553826,53.639273],[-9.554733,53.639261],[-9.554723,53.638992],[-9.555177,53.638986],[-9.555187,53.639256],[-9.55564,53.63925],[-9.55563,53.63898],[-9.556537,53.638968],[-9.556528,53.638699],[-9.557434,53.638687],[-9.557444,53.638957],[-9.557898,53.638951],[-9.557888,53.638681],[-9.558341,53.638675],[-9.558351,53.638945],[-9.558361,53.639214],[-9.558815,53.639208],[-9.558815,53.639214],[-9.559606,53.639203],[-9.559625,53.639737],[-9.559742,53.639735],[-9.559752,53.640005],[-9.562019,53.639975],[-9.562009,53.639706],[-9.561999,53.639436],[-9.561546,53.639442],[-9.561536,53.639173],[-9.559268,53.639202],[-9.559258,53.638933],[-9.559248,53.638663],[-9.560155,53.638652],[-9.560145,53.638382],[-9.560599,53.638376],[-9.560589,53.638107],[-9.560579,53.637837],[-9.560569,53.637568],[-9.560549,53.637029],[-9.560539,53.636759],[-9.560519,53.63622],[-9.560973,53.636214],[-9.560963,53.635945],[-9.560953,53.635675],[-9.560987,53.635675],[-9.560984,53.635591],[-9.561403,53.635586],[-9.561396,53.6354],[-9.561386,53.63513],[-9.561376,53.634861],[-9.56183,53.634855],[-9.56182,53.634586],[-9.56181,53.634316],[-9.562263,53.63431],[-9.562253,53.634041],[-9.562252,53.633988],[-9.562234,53.633947],[-9.562171,53.633862],[-9.562112,53.633779],[-9.562061,53.633656],[-9.562044,53.633632],[-9.56189,53.633482],[-9.561695,53.633351],[-9.561678,53.633328],[-9.561657,53.633224],[-9.561525,53.633011],[-9.561441,53.63287],[-9.561371,53.632706],[-9.561328,53.632601],[-9.561218,53.632465],[-9.561144,53.632423],[-9.561145,53.632436],[-9.561126,53.632461],[-9.561099,53.63248],[-9.561065,53.632492],[-9.561012,53.632498],[-9.560977,53.632502],[-9.56095,53.632512],[-9.56092,53.63252],[-9.560883,53.632523],[-9.560819,53.632526],[-9.560779,53.632516],[-9.560737,53.632499],[-9.560744,53.632444],[-9.560651,53.632435],[-9.560616,53.632458],[-9.560585,53.632447],[-9.560556,53.632432],[-9.560545,53.63241],[-9.560546,53.632384],[-9.560584,53.6323],[-9.560596,53.632292],[-9.560652,53.632257],[-9.560701,53.632244],[-9.560739,53.632265],[-9.560815,53.632264],[-9.560827,53.632242],[-9.560866,53.632241],[-9.560901,53.632248],[-9.560958,53.632273],[-9.560986,53.632307],[-9.560966,53.632333],[-9.561021,53.632372],[-9.561035,53.6324],[-9.561138,53.632411],[-9.561231,53.632467],[-9.561321,53.632578],[-9.561337,53.632599],[-9.561451,53.632866],[-9.561667,53.633229],[-9.561674,53.633253],[-9.561687,53.633325],[-9.561706,53.633348],[-9.561898,53.633477],[-9.562048,53.633626],[-9.562072,53.633655],[-9.562122,53.633779],[-9.562232,53.633932],[-9.562243,53.633949],[-9.562251,53.633965],[-9.562243,53.633771],[-9.562697,53.633765],[-9.562707,53.634035],[-9.563614,53.634023],[-9.563604,53.633753],[-9.564511,53.633742],[-9.564501,53.633472],[-9.564524,53.633472],[-9.564519,53.633439],[-9.564508,53.633418],[-9.564491,53.633398],[-9.564452,53.633353],[-9.564396,53.633298],[-9.56435,53.633261],[-9.564246,53.633186],[-9.564193,53.633144],[-9.564168,53.633122],[-9.564145,53.633098],[-9.564101,53.633049],[-9.564064,53.632998],[-9.564043,53.632964],[-9.564013,53.632899],[-9.564005,53.632876],[-9.563995,53.632834],[-9.563992,53.632795],[-9.563993,53.63277],[-9.563999,53.63272],[-9.564016,53.632602],[-9.564015,53.632545],[-9.564002,53.632492],[-9.563962,53.632394],[-9.56394,53.632327],[-9.563923,53.632291],[-9.563897,53.632252],[-9.563879,53.63223],[-9.563837,53.632189],[-9.563809,53.632165],[-9.563757,53.632125],[-9.56365,53.632051],[-9.563499,53.631956],[-9.563411,53.631929],[-9.563316,53.631924],[-9.563316,53.631919],[-9.563413,53.631923],[-9.563504,53.631951],[-9.563681,53.632063],[-9.563842,53.632183],[-9.563903,53.632245],[-9.563931,53.632287],[-9.563947,53.632326],[-9.56401,53.632486],[-9.564026,53.632542],[-9.564026,53.632607],[-9.564004,53.632766],[-9.564009,53.632851],[-9.56403,53.63292],[-9.564071,53.632994],[-9.564108,53.633045],[-9.564161,53.633105],[-9.564235,53.633171],[-9.5644,53.633288],[-9.564518,53.633416],[-9.564529,53.633442],[-9.564534,53.633472],[-9.565407,53.63346],[-9.565417,53.63373],[-9.565871,53.633724],[-9.565871,53.63373],[-9.567685,53.633706],[-9.567685,53.6337],[-9.568138,53.633694],[-9.568128,53.633425],[-9.568118,53.633155],[-9.568108,53.632886],[-9.568443,53.632881],[-9.56844,53.632798],[-9.568558,53.632796],[-9.568551,53.63261],[-9.571725,53.632568],[-9.571715,53.632299],[-9.572169,53.632293],[-9.572159,53.632024],[-9.573519,53.632006],[-9.573529,53.632275],[-9.573539,53.632545],[-9.573086,53.632551],[-9.573093,53.632737],[-9.577506,53.632679],[-9.577473,53.631781],[-9.5785,53.631767],[-9.578496,53.63167],[-9.577136,53.631688],[-9.577126,53.631419],[-9.576219,53.631431],[-9.576229,53.6317],[-9.575776,53.631706],[-9.575766,53.631437],[-9.574859,53.631449],[-9.574849,53.631179],[-9.577569,53.631143],[-9.577559,53.630874],[-9.578466,53.630862],[-9.578456,53.630593],[-9.579363,53.630581],[-9.579353,53.630311],[-9.582527,53.630269],[-9.582516,53.63],[-9.583423,53.629988],[-9.583413,53.629718],[-9.583866,53.629712],[-9.583856,53.629443],[-9.584763,53.629431],[-9.584753,53.629161],[-9.585206,53.629155],[-9.585196,53.628886],[-9.584743,53.628892],[-9.584733,53.628622],[-9.584713,53.628083],[-9.584703,53.627814],[-9.585156,53.627808],[-9.585146,53.627538],[-9.586959,53.627514],[-9.586949,53.627245],[-9.587856,53.627233],[-9.587846,53.626963],[-9.588752,53.626951],[-9.588763,53.627221],[-9.588773,53.62749],[-9.589679,53.627478],[-9.589669,53.627209],[-9.589659,53.626939],[-9.589206,53.626945],[-9.589196,53.626676],[-9.590556,53.626658],[-9.590546,53.626388],[-9.590999,53.626382],[-9.591009,53.626652],[-9.591916,53.626639],[-9.591926,53.626909],[-9.592833,53.626897],[-9.59284,53.627084],[-9.593925,53.62707],[-9.593938,53.627421],[-9.594666,53.627412],[-9.594656,53.627142],[-9.594646,53.626873],[-9.594636,53.626603],[-9.593729,53.626615],[-9.593719,53.626346],[-9.593266,53.626352],[-9.593255,53.626082],[-9.592802,53.626088],[-9.592792,53.625819],[-9.593245,53.625813],[-9.593235,53.625543],[-9.592782,53.625549],[-9.592772,53.62528],[-9.591412,53.625298],[-9.591432,53.625837],[-9.590525,53.625849],[-9.590505,53.62531],[-9.589598,53.625322],[-9.589608,53.625592],[-9.589335,53.625595],[-9.589359,53.626232],[-9.587848,53.626252],[-9.586459,53.626271],[-9.586465,53.626442],[-9.586476,53.626712],[-9.581035,53.626784],[-9.581045,53.627053],[-9.579685,53.627071],[-9.579695,53.627341],[-9.578335,53.627359],[-9.578325,53.627089],[-9.579232,53.627077],[-9.579222,53.626808],[-9.580582,53.62679],[-9.580572,53.62652],[-9.581479,53.626508],[-9.581469,53.626239],[-9.581015,53.626245],[-9.581005,53.625975],[-9.581912,53.625963],[-9.581902,53.625694],[-9.582808,53.625682],[-9.582799,53.625421],[-9.581439,53.625439],[-9.581448,53.6257],[-9.580088,53.625718],[-9.580098,53.625987],[-9.579192,53.625999],[-9.579202,53.626269],[-9.576482,53.626305],[-9.576472,53.626035],[-9.576925,53.626029],[-9.576918,53.625851],[-9.576838,53.62587],[-9.576693,53.625873],[-9.576662,53.625905],[-9.5766,53.625927],[-9.576571,53.625932],[-9.576385,53.625911],[-9.576314,53.625903],[-9.576263,53.625901],[-9.576245,53.625909],[-9.576247,53.62592],[-9.576286,53.62593],[-9.576336,53.62595],[-9.576336,53.625963],[-9.576335,53.625974],[-9.576305,53.625986],[-9.576236,53.625996],[-9.576077,53.625999],[-9.576045,53.626002],[-9.576003,53.62602],[-9.575989,53.626028],[-9.575958,53.626077],[-9.575924,53.626089],[-9.575897,53.62609],[-9.575867,53.626087],[-9.575821,53.626066],[-9.5758,53.626041],[-9.575792,53.62604],[-9.57578,53.626055],[-9.575732,53.626143],[-9.575663,53.626192],[-9.575605,53.626204],[-9.575574,53.626203],[-9.575504,53.626186],[-9.575402,53.626185],[-9.575316,53.626203],[-9.575259,53.626222],[-9.575253,53.626231],[-9.575248,53.626243],[-9.575248,53.626258],[-9.575231,53.626279],[-9.575177,53.626308],[-9.575113,53.626342],[-9.57503,53.626413],[-9.57499,53.626425],[-9.574955,53.62642],[-9.574937,53.626409],[-9.574912,53.626406],[-9.574858,53.626433],[-9.574842,53.626445],[-9.574824,53.626455],[-9.5748,53.626459],[-9.574788,53.626459],[-9.574717,53.626458],[-9.574613,53.626469],[-9.574565,53.626474],[-9.574337,53.626581],[-9.574219,53.626637],[-9.574123,53.626643],[-9.573902,53.626702],[-9.573836,53.626737],[-9.573747,53.626755],[-9.573594,53.626746],[-9.573567,53.626748],[-9.573474,53.626754],[-9.573388,53.626784],[-9.573359,53.626826],[-9.573308,53.626874],[-9.57296,53.626939],[-9.572809,53.626934],[-9.572679,53.626941],[-9.572604,53.626948],[-9.57244,53.626968],[-9.572377,53.626975],[-9.572184,53.626979],[-9.57217,53.62698],[-9.572133,53.626988],[-9.572105,53.627004],[-9.5721,53.627021],[-9.572123,53.627034],[-9.572142,53.627045],[-9.572148,53.627055],[-9.572121,53.627099],[-9.572093,53.627107],[-9.572056,53.627095],[-9.571978,53.627067],[-9.571914,53.627055],[-9.571886,53.627055],[-9.571859,53.627064],[-9.571634,53.6272],[-9.571596,53.627215],[-9.571542,53.627229],[-9.571479,53.627238],[-9.571333,53.627257],[-9.571261,53.627281],[-9.571219,53.627312],[-9.571149,53.627377],[-9.571119,53.627394],[-9.571072,53.627403],[-9.571016,53.627409],[-9.570865,53.627413],[-9.570827,53.62742],[-9.570758,53.627439],[-9.57065,53.627475],[-9.570382,53.627561],[-9.570175,53.627637],[-9.570115,53.627657],[-9.569968,53.627699],[-9.569871,53.627722],[-9.569806,53.62773],[-9.569709,53.627731],[-9.56968,53.627735],[-9.569636,53.627755],[-9.569557,53.627807],[-9.569509,53.627827],[-9.569438,53.627837],[-9.569361,53.627841],[-9.569283,53.627845],[-9.569245,53.627846],[-9.5692,53.627851],[-9.569141,53.627859],[-9.568992,53.627895],[-9.568815,53.627934],[-9.568709,53.627945],[-9.568616,53.627945],[-9.568528,53.627933],[-9.568441,53.627907],[-9.568362,53.627862],[-9.568262,53.6278],[-9.568051,53.627699],[-9.567958,53.627654],[-9.56792,53.627632],[-9.56787,53.627599],[-9.567822,53.627554],[-9.567765,53.627508],[-9.567738,53.627497],[-9.567693,53.627494],[-9.567661,53.627498],[-9.567586,53.627511],[-9.567547,53.627509],[-9.567508,53.627494],[-9.567477,53.627471],[-9.567455,53.627444],[-9.567447,53.627395],[-9.567439,53.627346],[-9.567434,53.627312],[-9.567394,53.627229],[-9.56734,53.627143],[-9.567329,53.627102],[-9.567324,53.626965],[-9.567322,53.626817],[-9.567336,53.626797],[-9.567347,53.626777],[-9.567338,53.62676],[-9.567303,53.626739],[-9.567282,53.626719],[-9.567278,53.626666],[-9.567247,53.626602],[-9.567215,53.626554],[-9.567224,53.626555],[-9.567268,53.626622],[-9.567282,53.62665],[-9.567287,53.626663],[-9.56729,53.626683],[-9.567292,53.626715],[-9.567298,53.626727],[-9.567311,53.626737],[-9.567332,53.626749],[-9.567342,53.626754],[-9.567349,53.62676],[-9.567358,53.626773],[-9.567357,53.626782],[-9.567336,53.626808],[-9.567332,53.626819],[-9.567331,53.626846],[-9.56733,53.626914],[-9.567337,53.627043],[-9.567338,53.627101],[-9.567343,53.627123],[-9.567353,53.627144],[-9.567388,53.627199],[-9.567428,53.627274],[-9.567442,53.627309],[-9.567449,53.627336],[-9.567453,53.627379],[-9.567461,53.627428],[-9.56747,53.627451],[-9.567484,53.627469],[-9.567496,53.627478],[-9.567521,53.627493],[-9.567546,53.627502],[-9.56756,53.627505],[-9.567585,53.627505],[-9.56768,53.627488],[-9.567708,53.627487],[-9.567721,53.627488],[-9.567739,53.627491],[-9.567766,53.6275],[-9.56779,53.627516],[-9.567834,53.627556],[-9.567877,53.627597],[-9.567913,53.627621],[-9.567964,53.62765],[-9.568091,53.627712],[-9.568208,53.627765],[-9.568259,53.62779],[-9.568304,53.627816],[-9.568356,53.62785],[-9.568379,53.627865],[-9.568424,53.62789],[-9.568446,53.6279],[-9.568482,53.627914],[-9.568538,53.627929],[-9.568569,53.627935],[-9.568621,53.627941],[-9.568678,53.627942],[-9.568719,53.62794],[-9.568803,53.62793],[-9.568867,53.627919],[-9.568993,53.62789],[-9.569109,53.627861],[-9.569166,53.627849],[-9.569222,53.627842],[-9.569329,53.627837],[-9.56942,53.627834],[-9.56946,53.62783],[-9.569505,53.627821],[-9.569526,53.627814],[-9.569552,53.627802],[-9.569621,53.627755],[-9.569659,53.627737],[-9.569681,53.627731],[-9.569716,53.627725],[-9.569756,53.627724],[-9.569799,53.627724],[-9.569826,53.627722],[-9.569874,53.627715],[-9.569967,53.627694],[-9.570035,53.627676],[-9.570164,53.627636],[-9.570375,53.627557],[-9.570651,53.62747],[-9.570771,53.627427],[-9.570818,53.627415],[-9.570865,53.627409],[-9.57096,53.627407],[-9.571003,53.627404],[-9.571073,53.627397],[-9.571107,53.627391],[-9.571121,53.627386],[-9.571141,53.627374],[-9.571213,53.627306],[-9.57124,53.627287],[-9.571255,53.627278],[-9.571281,53.627267],[-9.571325,53.627253],[-9.571379,53.627243],[-9.571489,53.62723],[-9.571548,53.627221],[-9.571574,53.627216],[-9.571611,53.627203],[-9.571648,53.627183],[-9.571726,53.627134],[-9.571801,53.627086],[-9.571832,53.627068],[-9.571866,53.627053],[-9.571881,53.627049],[-9.571906,53.627048],[-9.571937,53.627051],[-9.571983,53.627062],[-9.572007,53.627069],[-9.572068,53.627093],[-9.572096,53.627099],[-9.572106,53.627097],[-9.572114,53.627092],[-9.572125,53.627077],[-9.572135,53.627056],[-9.572132,53.627047],[-9.572094,53.627026],[-9.57209,53.627019],[-9.572091,53.62701],[-9.572094,53.627005],[-9.572107,53.626994],[-9.572137,53.626981],[-9.572158,53.626977],[-9.572194,53.626973],[-9.572343,53.626971],[-9.572406,53.626966],[-9.572535,53.626949],[-9.572676,53.626934],[-9.572827,53.626928],[-9.572964,53.626934],[-9.573152,53.626898],[-9.573302,53.626868],[-9.573345,53.626827],[-9.573381,53.626781],[-9.573478,53.626747],[-9.573591,53.62674],[-9.573752,53.62675],[-9.573834,53.626731],[-9.573893,53.626698],[-9.574043,53.626659],[-9.574126,53.626639],[-9.574214,53.626634],[-9.57429,53.626595],[-9.574483,53.626505],[-9.57456,53.626472],[-9.574587,53.626465],[-9.574716,53.62645],[-9.5748,53.626452],[-9.574825,53.626446],[-9.57487,53.626417],[-9.574894,53.626407],[-9.574912,53.626401],[-9.574936,53.626402],[-9.574962,53.626416],[-9.574987,53.62642],[-9.574996,53.626419],[-9.575019,53.62641],[-9.575105,53.626338],[-9.575226,53.626274],[-9.575238,53.626259],[-9.575241,53.626232],[-9.575255,53.626218],[-9.57531,53.626199],[-9.5754,53.626179],[-9.575506,53.626181],[-9.575577,53.626198],[-9.575605,53.626199],[-9.575659,53.626187],[-9.575724,53.62614],[-9.575772,53.626049],[-9.575787,53.626033],[-9.575801,53.626034],[-9.575826,53.626061],[-9.575869,53.626082],[-9.575896,53.626086],[-9.575927,53.626083],[-9.575948,53.626073],[-9.575985,53.626021],[-9.576003,53.626009],[-9.576046,53.625997],[-9.576073,53.625993],[-9.576233,53.62599],[-9.576301,53.625981],[-9.576325,53.625972],[-9.576329,53.625968],[-9.576326,53.625955],[-9.576283,53.625934],[-9.576242,53.625922],[-9.576234,53.625909],[-9.576238,53.625903],[-9.576258,53.625895],[-9.576311,53.625898],[-9.576426,53.625909],[-9.576565,53.625927],[-9.576592,53.625924],[-9.576654,53.6259],[-9.57669,53.625867],[-9.576827,53.625865],[-9.576918,53.625846],[-9.576915,53.62576],[-9.576905,53.625498],[-9.575728,53.625514],[-9.575717,53.625236],[-9.575082,53.625244],[-9.575072,53.624975],[-9.572805,53.625005],[-9.572795,53.624735],[-9.572342,53.624741],[-9.572332,53.624472],[-9.570065,53.624502],[-9.570058,53.624308],[-9.570048,53.624311],[-9.569906,53.624353],[-9.569827,53.624398],[-9.569769,53.624446],[-9.569701,53.624474],[-9.569621,53.624507],[-9.56955,53.624537],[-9.569545,53.624534],[-9.569606,53.624508],[-9.569755,53.624444],[-9.569837,53.624384],[-9.569907,53.624345],[-9.56998,53.624322],[-9.570047,53.624304],[-9.570057,53.624301],[-9.570055,53.624232],[-9.569602,53.624238],[-9.569592,53.623968],[-9.568685,53.62398],[-9.568675,53.623711],[-9.567315,53.623729],[-9.567305,53.623459],[-9.565945,53.623477],[-9.565934,53.62317],[-9.565814,53.623185],[-9.56579,53.623193],[-9.565755,53.623212],[-9.565708,53.623215],[-9.565623,53.623215],[-9.565592,53.623208],[-9.565577,53.623206],[-9.565554,53.623202],[-9.565519,53.623192],[-9.565487,53.623163],[-9.565475,53.623139],[-9.56546,53.623124],[-9.565431,53.623113],[-9.565353,53.623084],[-9.56529,53.623056],[-9.565263,53.623047],[-9.565199,53.623045],[-9.565133,53.623059],[-9.565108,53.623065],[-9.565064,53.623089],[-9.565045,53.623097],[-9.565008,53.623102],[-9.564973,53.623105],[-9.564917,53.623102],[-9.564899,53.6231],[-9.564878,53.623089],[-9.564851,53.623034],[-9.564849,53.623032],[-9.564769,53.623016],[-9.564707,53.622998],[-9.564683,53.622979],[-9.564674,53.622964],[-9.564657,53.622953],[-9.564651,53.622953],[-9.564622,53.622938],[-9.564536,53.62292],[-9.564501,53.622911],[-9.564367,53.622867],[-9.564249,53.622834],[-9.56422,53.622821],[-9.564176,53.622801],[-9.564144,53.622782],[-9.564125,53.622768],[-9.564079,53.622753],[-9.564043,53.622741],[-9.564022,53.622735],[-9.563958,53.622729],[-9.563927,53.622718],[-9.563888,53.62269],[-9.563875,53.622672],[-9.563864,53.622655],[-9.563843,53.622643],[-9.563742,53.62261],[-9.563719,53.622593],[-9.563705,53.622589],[-9.563647,53.622594],[-9.56356,53.622594],[-9.563537,53.62259],[-9.563504,53.622593],[-9.563474,53.622621],[-9.56339,53.622652],[-9.563341,53.62266],[-9.563266,53.622659],[-9.563197,53.622639],[-9.563158,53.622636],[-9.5631,53.622637],[-9.562982,53.622625],[-9.562946,53.622618],[-9.562855,53.622619],[-9.562664,53.622657],[-9.562644,53.622659],[-9.562588,53.622665],[-9.562555,53.622661],[-9.562486,53.622651],[-9.562446,53.62264],[-9.562381,53.622616],[-9.562339,53.6226],[-9.562277,53.622581],[-9.562288,53.622577],[-9.562333,53.62259],[-9.562361,53.622602],[-9.562383,53.622611],[-9.562452,53.622636],[-9.562479,53.622643],[-9.562542,53.622653],[-9.562573,53.622657],[-9.562602,53.622657],[-9.562667,53.622651],[-9.562733,53.622636],[-9.562853,53.622614],[-9.562948,53.622612],[-9.56298,53.622619],[-9.563099,53.62263],[-9.563176,53.622631],[-9.563204,53.622635],[-9.563262,53.622652],[-9.563291,53.622656],[-9.563356,53.622653],[-9.563384,53.622647],[-9.563451,53.622623],[-9.563473,53.622611],[-9.563498,53.622591],[-9.563509,53.622588],[-9.563537,53.622586],[-9.56358,53.622589],[-9.563644,53.622588],[-9.563702,53.622583],[-9.563726,53.622588],[-9.563752,53.622606],[-9.563855,53.62264],[-9.563874,53.622653],[-9.563888,53.622676],[-9.563903,53.622691],[-9.563939,53.622715],[-9.563964,53.622724],[-9.564037,53.622733],[-9.564126,53.622763],[-9.564177,53.622794],[-9.56424,53.622825],[-9.564265,53.622835],[-9.564368,53.622862],[-9.564517,53.622911],[-9.564545,53.622917],[-9.564619,53.622932],[-9.564632,53.622936],[-9.564655,53.622948],[-9.56467,53.622952],[-9.564686,53.622966],[-9.564694,53.62298],[-9.564712,53.622993],[-9.564779,53.623012],[-9.564854,53.623028],[-9.564859,53.623032],[-9.564869,53.623049],[-9.564869,53.623054],[-9.564876,53.623071],[-9.564888,53.623088],[-9.56491,53.623096],[-9.564978,53.623099],[-9.565035,53.623094],[-9.565061,53.623086],[-9.565102,53.623062],[-9.56517,53.623044],[-9.565199,53.62304],[-9.565245,53.623039],[-9.565273,53.623044],[-9.56533,53.623067],[-9.565381,53.623089],[-9.565406,53.623099],[-9.565464,53.623119],[-9.565481,53.623136],[-9.565495,53.623158],[-9.565527,53.623188],[-9.565538,53.623192],[-9.565565,53.623199],[-9.565601,53.623203],[-9.565621,53.623208],[-9.56565,53.623212],[-9.565719,53.62321],[-9.565748,53.623206],[-9.56576,53.623203],[-9.565783,53.62319],[-9.565808,53.623182],[-9.565903,53.62317],[-9.565931,53.623164],[-9.565933,53.623163],[-9.565925,53.622938],[-9.565915,53.622669],[-9.565905,53.622399],[-9.566358,53.622393],[-9.566338,53.621854],[-9.566792,53.621848],[-9.566782,53.621579],[-9.566772,53.621309],[-9.567225,53.621303],[-9.567215,53.621034],[-9.567205,53.620764],[-9.567195,53.620495],[-9.567175,53.619956],[-9.566722,53.619962],[-9.566712,53.619692],[-9.566702,53.619423],[-9.566692,53.619153],[-9.566682,53.618884],[-9.567135,53.618878],[-9.567125,53.618608],[-9.567095,53.6178],[-9.567549,53.617794],[-9.567539,53.617524],[-9.567085,53.61753],[-9.567065,53.616991],[-9.566612,53.616997],[-9.566602,53.616728],[-9.566149,53.616734],[-9.566139,53.616464],[-9.566129,53.616195],[-9.566582,53.616189],[-9.566572,53.615919],[-9.566562,53.61565],[-9.567015,53.615644],[-9.567005,53.615374],[-9.567637,53.615366],[-9.56765,53.615357],[-9.567674,53.615348],[-9.567679,53.615336],[-9.567671,53.615329],[-9.567648,53.615322],[-9.567602,53.615325],[-9.567564,53.615322],[-9.567543,53.615313],[-9.567534,53.6153],[-9.56753,53.615283],[-9.567532,53.615267],[-9.567547,53.615253],[-9.567634,53.615222],[-9.567662,53.615199],[-9.567665,53.615184],[-9.56765,53.615161],[-9.567606,53.615134],[-9.567593,53.615119],[-9.567586,53.615078],[-9.567588,53.615061],[-9.567594,53.615046],[-9.567612,53.615037],[-9.567662,53.615034],[-9.567669,53.615027],[-9.567667,53.614998],[-9.567659,53.614981],[-9.567614,53.614931],[-9.567596,53.614882],[-9.56759,53.614838],[-9.566264,53.614855],[-9.566231,53.613957],[-9.56472,53.613977],[-9.564687,53.613079],[-9.566197,53.613059],[-9.566149,53.611742],[-9.566082,53.611785],[-9.565508,53.612141],[-9.564963,53.612493],[-9.564783,53.612601],[-9.564287,53.612918],[-9.564069,53.613049],[-9.563596,53.613357],[-9.563183,53.613634],[-9.562835,53.613859],[-9.562553,53.614031],[-9.561939,53.614431],[-9.561664,53.614597],[-9.56162,53.614624],[-9.561589,53.614643],[-9.561372,53.614766],[-9.560886,53.615042],[-9.56012,53.615467],[-9.559464,53.615858],[-9.559136,53.616041],[-9.558746,53.616274],[-9.558295,53.616538],[-9.558056,53.616683],[-9.557748,53.616861],[-9.557473,53.617031],[-9.557107,53.617238],[-9.556591,53.617523],[-9.555825,53.618008],[-9.555506,53.618204],[-9.555206,53.618365],[-9.554926,53.618539],[-9.554808,53.618603],[-9.554497,53.61876],[-9.554202,53.618943],[-9.553783,53.619196],[-9.552831,53.619749],[-9.552464,53.620023],[-9.552333,53.620157],[-9.552306,53.620186],[-9.552188,53.620452],[-9.552119,53.620709],[-9.552108,53.620784],[-9.552046,53.621201],[-9.552029,53.621479],[-9.55201,53.621605],[-9.551965,53.621858],[-9.551916,53.622041],[-9.551863,53.622333],[-9.551846,53.622599],[-9.551786,53.622693],[-9.551773,53.622861],[-9.551729,53.623195],[-9.551676,53.623524],[-9.551473,53.623978],[-9.551313,53.624279],[-9.551055,53.624744],[-9.55105,53.624749],[-9.550861,53.624939],[-9.550823,53.624969],[-9.550802,53.624992],[-9.550712,53.625124],[-9.550589,53.625379],[-9.550404,53.625723],[-9.550213,53.626082],[-9.550077,53.62632],[-9.549937,53.626533],[-9.549805,53.626716],[-9.549617,53.626987],[-9.549349,53.627354],[-9.549136,53.627623]],[[-9.582456,53.628383],[-9.583363,53.628371],[-9.583373,53.62864],[-9.582466,53.628652],[-9.582456,53.628383]],[[-9.580673,53.629215],[-9.579766,53.629227],[-9.579756,53.628958],[-9.580663,53.628946],[-9.580673,53.629215]],[[-9.579313,53.629233],[-9.579766,53.629227],[-9.579776,53.629497],[-9.579323,53.629503],[-9.579313,53.629233]],[[-9.564072,53.621884],[-9.564062,53.621614],[-9.563609,53.62162],[-9.563599,53.621351],[-9.564505,53.621339],[-9.564515,53.621608],[-9.564525,53.621878],[-9.564072,53.621884]],[[-9.577862,53.626826],[-9.577409,53.626832],[-9.577399,53.626562],[-9.577852,53.626556],[-9.577862,53.626826]],[[-9.576955,53.626838],[-9.577409,53.626832],[-9.577419,53.627101],[-9.576965,53.627107],[-9.576955,53.626838]],[[-9.577429,53.627371],[-9.577882,53.627365],[-9.577892,53.627634],[-9.577439,53.62764],[-9.577429,53.627371]],[[-9.576532,53.627652],[-9.576985,53.627646],[-9.576995,53.627916],[-9.576542,53.627922],[-9.576532,53.627652]],[[-9.569892,53.632053],[-9.569438,53.632059],[-9.569428,53.63179],[-9.568975,53.631796],[-9.568965,53.631526],[-9.570325,53.631508],[-9.570335,53.631778],[-9.569882,53.631784],[-9.569892,53.632053]],[[-9.563997,53.63213],[-9.563987,53.631861],[-9.564441,53.631855],[-9.564451,53.632125],[-9.563997,53.63213]],[[-9.563977,53.631591],[-9.563987,53.631861],[-9.563534,53.631867],[-9.563524,53.631597],[-9.563977,53.631591]],[[-9.555942,53.622799],[-9.556396,53.622793],[-9.556406,53.623062],[-9.556859,53.623056],[-9.556869,53.623326],[-9.556879,53.623595],[-9.557332,53.623589],[-9.557342,53.623859],[-9.557795,53.623853],[-9.557805,53.624122],[-9.557815,53.624392],[-9.557362,53.624398],[-9.557382,53.624937],[-9.557835,53.624931],[-9.557845,53.6252],[-9.558752,53.625189],[-9.558761,53.625458],[-9.559215,53.625452],[-9.559225,53.625722],[-9.559235,53.625991],[-9.559688,53.625985],[-9.559698,53.626255],[-9.559708,53.626524],[-9.559718,53.626794],[-9.560171,53.626788],[-9.560191,53.627327],[-9.560211,53.627866],[-9.560664,53.62786],[-9.560674,53.628129],[-9.560684,53.628399],[-9.561138,53.628393],[-9.561148,53.628663],[-9.561158,53.628932],[-9.560704,53.628938],[-9.560694,53.628668],[-9.560241,53.628674],[-9.560231,53.628405],[-9.559778,53.628411],[-9.559768,53.628141],[-9.559314,53.628147],[-9.559304,53.627878],[-9.558851,53.627884],[-9.558831,53.627345],[-9.558378,53.627351],[-9.558358,53.626812],[-9.557904,53.626817],[-9.557895,53.626548],[-9.557441,53.626554],[-9.557431,53.626284],[-9.556978,53.62629],[-9.556968,53.626021],[-9.556958,53.625751],[-9.556505,53.625757],[-9.556495,53.625488],[-9.556485,53.625218],[-9.556032,53.625224],[-9.556022,53.624955],[-9.556002,53.624416],[-9.555548,53.624421],[-9.555539,53.624152],[-9.555085,53.624158],[-9.555075,53.623888],[-9.555065,53.623619],[-9.554612,53.623625],[-9.554602,53.623355],[-9.554149,53.623361],[-9.554139,53.623092],[-9.553686,53.623098],[-9.553676,53.622828],[-9.553222,53.622834],[-9.553213,53.622564],[-9.553203,53.622295],[-9.553193,53.622025],[-9.553646,53.62202],[-9.553656,53.622289],[-9.554563,53.622277],[-9.554572,53.622547],[-9.555932,53.622529],[-9.555942,53.622799]],[[-9.554278,53.626865],[-9.554288,53.627134],[-9.554297,53.627404],[-9.553844,53.627409],[-9.553854,53.627679],[-9.553864,53.627948],[-9.552504,53.627966],[-9.552494,53.627697],[-9.552947,53.627691],[-9.552937,53.627421],[-9.553391,53.627415],[-9.553381,53.627146],[-9.553834,53.62714],[-9.553824,53.62687],[-9.554278,53.626865]],[[-9.553913,53.629296],[-9.553903,53.629026],[-9.554357,53.629021],[-9.554367,53.62929],[-9.55482,53.629284],[-9.55484,53.629823],[-9.553933,53.629835],[-9.553913,53.629296]],[[-9.554899,53.63144],[-9.555806,53.631428],[-9.555816,53.631698],[-9.555363,53.631704],[-9.555373,53.631973],[-9.554466,53.631985],[-9.554476,53.632255],[-9.554022,53.63226],[-9.554032,53.63253],[-9.553125,53.632542],[-9.553135,53.632811],[-9.552228,53.632823],[-9.552238,53.633092],[-9.551785,53.633098],[-9.551775,53.632829],[-9.551765,53.632559],[-9.552219,53.632553],[-9.552209,53.632284],[-9.552662,53.632278],[-9.552652,53.632009],[-9.554012,53.631991],[-9.554003,53.631721],[-9.554909,53.63171],[-9.554899,53.63144]],[[-9.562657,53.632687],[-9.56311,53.632681],[-9.56312,53.632951],[-9.562667,53.632957],[-9.562657,53.632687]],[[-9.552533,53.628775],[-9.552524,53.628505],[-9.55343,53.628493],[-9.55344,53.628763],[-9.552987,53.628769],[-9.552997,53.629038],[-9.55209,53.62905],[-9.55208,53.62878],[-9.552533,53.628775]]],[[[-9.58164,53.630827],[-9.583,53.630809],[-9.583,53.630802],[-9.58436,53.630784],[-9.58435,53.630515],[-9.58163,53.630551],[-9.58164,53.63082],[-9.58164,53.630827]]],[[[-9.551958,53.640092],[-9.552041,53.640077],[-9.552032,53.639836],[-9.551579,53.639842],[-9.551569,53.639572],[-9.550694,53.639583],[-9.550721,53.639635],[-9.550781,53.639744],[-9.550803,53.63981],[-9.550859,53.639839],[-9.550959,53.639846],[-9.551026,53.639842],[-9.551056,53.639796],[-9.551126,53.63977],[-9.551227,53.639758],[-9.551309,53.639763],[-9.551388,53.639795],[-9.551493,53.639911],[-9.551511,53.639943],[-9.551539,53.639961],[-9.55159,53.639973],[-9.55162,53.639991],[-9.551653,53.640037],[-9.551683,53.640053],[-9.551735,53.640062],[-9.551917,53.640088],[-9.551958,53.640092]]],[[[-9.550617,53.63942],[-9.550659,53.639509],[-9.550652,53.639314],[-9.55057,53.639315],[-9.550617,53.63942]]],[[[-9.550341,53.639014],[-9.550375,53.639048],[-9.550642,53.639045],[-9.550652,53.639314],[-9.551559,53.639303],[-9.551549,53.639033],[-9.552003,53.639027],[-9.551993,53.638758],[-9.551086,53.638769],[-9.551076,53.6385],[-9.550622,53.638506],[-9.550612,53.638236],[-9.550159,53.638242],[-9.550149,53.637973],[-9.550139,53.637703],[-9.549686,53.637709],[-9.549696,53.637979],[-9.549242,53.637984],[-9.549232,53.637715],[-9.548917,53.637719],[-9.548954,53.637781],[-9.548999,53.637859],[-9.549049,53.637952],[-9.549095,53.638032],[-9.54915,53.638116],[-9.549223,53.638188],[-9.549297,53.638249],[-9.549367,53.638305],[-9.549457,53.63836],[-9.549468,53.638365],[-9.54951,53.638385],[-9.549629,53.638468],[-9.549847,53.63862],[-9.550119,53.638826],[-9.550341,53.639014]]],[[[-9.561092,53.632411],[-9.561072,53.632409],[-9.561024,53.632406],[-9.561017,53.632381],[-9.560996,53.632359],[-9.560958,53.632334],[-9.560978,53.632309],[-9.560959,53.632287],[-9.560948,53.632277],[-9.560934,53.632269],[-9.560904,53.632256],[-9.560874,53.632248],[-9.560855,53.632246],[-9.560834,53.632246],[-9.560817,53.63227],[-9.560739,53.632271],[-9.560703,53.632252],[-9.560683,53.632254],[-9.560671,53.632258],[-9.560648,53.632267],[-9.560598,53.632298],[-9.560557,53.632388],[-9.560555,53.632398],[-9.560557,53.632417],[-9.560566,53.632429],[-9.560579,53.632438],[-9.56059,53.632443],[-9.560613,53.632451],[-9.560648,53.63243],[-9.560749,53.632441],[-9.560746,53.632495],[-9.560788,53.632515],[-9.560804,53.632518],[-9.560819,53.63252],[-9.560848,53.63252],[-9.560897,53.632517],[-9.560927,53.632512],[-9.56094,53.632508],[-9.560976,53.632496],[-9.56102,53.632492],[-9.561061,53.632486],[-9.56108,53.63248],[-9.561097,53.632473],[-9.561118,53.632457],[-9.561125,53.632449],[-9.561132,53.632432],[-9.561135,53.632417],[-9.561114,53.632416],[-9.561092,53.632411]]],[[[-9.582819,53.625951],[-9.581912,53.625963],[-9.581922,53.626233],[-9.582829,53.626221],[-9.582819,53.625951]]],[[[-9.594605,53.625795],[-9.594152,53.625801],[-9.594162,53.62607],[-9.594615,53.626064],[-9.594605,53.625795]]],[[[-9.593678,53.625268],[-9.594132,53.625262],[-9.594121,53.624992],[-9.593668,53.624998],[-9.593678,53.625268]]],[[[-9.550603,53.637967],[-9.550612,53.638236],[-9.551066,53.63823],[-9.551056,53.637961],[-9.550603,53.637967]]]]}}]}
