{"type":"FeatureCollection","features":[{"type":"Feature","properties":{"source_fid":462256,"county":"Mayo","bog_geom_ha":651.13338462377544,"low15_pct":100.0,"low15_ha":651.13338462377544,"overlay_ha":651.13338462377544,"area_delta":0.0},"geometry":{"type":"MultiPolygon","coordinates":[[[[-9.49324,54.161859],[-9.492923,54.162285],[-9.494387,54.161912],[-9.4948,54.161826],[-9.494761,54.161856],[-9.494087,54.162269],[-9.494368,54.162201],[-9.491638,54.163783],[-9.490806,54.164737],[-9.490744,54.164809],[-9.48865,54.167194],[-9.488271,54.167625],[-9.487159,54.168729],[-9.487093,54.168853],[-9.490209,54.167882],[-9.49023,54.167875],[-9.494267,54.166618],[-9.495267,54.167131],[-9.505942,54.169097],[-9.507939,54.169077],[-9.508009,54.169081],[-9.508026,54.169082],[-9.50814,54.169088],[-9.50816,54.169089],[-9.508244,54.169094],[-9.508265,54.169095],[-9.508461,54.169049],[-9.508692,54.169046],[-9.508789,54.169045],[-9.510056,54.169029],[-9.510061,54.169029],[-9.510149,54.169028],[-9.510169,54.169028],[-9.513807,54.168984],[-9.514516,54.168975],[-9.514899,54.168971],[-9.515476,54.168964],[-9.51638,54.168953],[-9.525283,54.169422],[-9.525589,54.169438],[-9.528511,54.169592],[-9.528619,54.169526],[-9.528629,54.16952],[-9.52871,54.169469],[-9.528722,54.169462],[-9.529244,54.169137],[-9.529252,54.169133],[-9.529338,54.169079],[-9.529346,54.169074],[-9.530909,54.168103],[-9.531118,54.167973],[-9.531261,54.167885],[-9.531449,54.167768],[-9.531683,54.167623],[-9.531857,54.167514],[-9.532895,54.166846],[-9.53406,54.166096],[-9.534401,54.165862],[-9.534758,54.16549],[-9.535513,54.16476],[-9.536074,54.164239],[-9.536155,54.164167],[-9.537624,54.162848],[-9.538359,54.162149],[-9.53847,54.162054],[-9.53929,54.161654],[-9.539294,54.161652],[-9.539413,54.161594],[-9.539535,54.161534],[-9.54125,54.160736],[-9.542864,54.16002],[-9.543555,54.159688],[-9.543394,54.158819],[-9.543208,54.157362],[-9.543037,54.156048],[-9.542861,54.154346],[-9.542694,54.153427],[-9.542645,54.152949],[-9.541171,54.15311],[-9.540543,54.152733],[-9.540471,54.152689],[-9.540538,54.152693],[-9.541003,54.152717],[-9.541288,54.152681],[-9.541934,54.152675],[-9.54214,54.152511],[-9.54303,54.152258],[-9.54466,54.152123],[-9.545401,54.152336],[-9.546648,54.15263],[-9.546475,54.151862],[-9.546435,54.151524],[-9.546429,54.151476],[-9.546283,54.151422],[-9.546288,54.151304],[-9.546293,54.151217],[-9.546482,54.151051],[-9.546555,54.151047],[-9.54666,54.151042],[-9.546669,54.150971],[-9.546671,54.150955],[-9.546652,54.150941],[-9.546583,54.150888],[-9.546627,54.150817],[-9.546536,54.150739],[-9.546645,54.150631],[-9.546724,54.150391],[-9.54674,54.150341],[-9.547099,54.14925],[-9.547558,54.147667],[-9.547759,54.146222],[-9.548045,54.144864],[-9.547746,54.144781],[-9.546794,54.144528],[-9.546514,54.144171],[-9.546374,54.143991],[-9.546329,54.143933],[-9.546149,54.143702],[-9.54579,54.143206],[-9.545398,54.142695],[-9.54523,54.142497],[-9.545142,54.142396],[-9.545014,54.14235],[-9.544168,54.142481],[-9.543092,54.142652],[-9.541661,54.142851],[-9.541111,54.14293],[-9.539889,54.142942],[-9.538213,54.142916],[-9.537635,54.143571],[-9.537007,54.144149],[-9.536157,54.144743],[-9.534245,54.145608],[-9.531103,54.147089],[-9.530693,54.147288],[-9.529886,54.147679],[-9.528573,54.14828],[-9.527481,54.148815],[-9.527302,54.148854],[-9.52672,54.148884],[-9.523767,54.148996],[-9.521334,54.149063],[-9.518735,54.149162],[-9.517278,54.149204],[-9.51549,54.149259],[-9.513412,54.149338],[-9.511684,54.149385],[-9.51046,54.149432],[-9.510574,54.148276],[-9.50998,54.148456],[-9.508172,54.149044],[-9.507007,54.14942],[-9.506528,54.149664],[-9.50597,54.150003],[-9.504752,54.150721],[-9.504573,54.150839],[-9.504573,54.150925],[-9.504703,54.151139],[-9.504851,54.151392],[-9.504979,54.151713],[-9.505054,54.151917],[-9.505157,54.152196],[-9.505476,54.152645],[-9.505561,54.152914],[-9.505701,54.153413],[-9.505669,54.153491],[-9.50541,54.154056],[-9.505222,54.154298],[-9.505198,54.154329],[-9.505167,54.154341],[-9.504861,54.154462],[-9.503878,54.154764],[-9.503464,54.154922],[-9.502459,54.155402],[-9.501884,54.155684],[-9.501807,54.155718],[-9.501373,54.155938],[-9.500727,54.156019],[-9.499985,54.156105],[-9.499899,54.156115],[-9.499177,54.156191],[-9.499148,54.156194],[-9.499049,54.156234],[-9.498931,54.156281],[-9.498389,54.156449],[-9.498072,54.156559],[-9.49737,54.156786],[-9.497131,54.156879],[-9.496933,54.157331],[-9.496798,54.157702],[-9.496451,54.158121],[-9.496305,54.158235],[-9.496195,54.158321],[-9.496183,54.158331],[-9.496032,54.158428],[-9.495946,54.158448],[-9.495831,54.158475],[-9.495683,54.158476],[-9.49555,54.158667],[-9.495534,54.15869],[-9.495481,54.158766],[-9.495162,54.159222],[-9.494605,54.159994],[-9.493816,54.161061],[-9.49324,54.161859]],[[-9.521207,54.162943],[-9.521094,54.162659],[-9.520967,54.16265],[-9.52058,54.162644],[-9.519397,54.162617],[-9.519166,54.162608],[-9.519034,54.162603],[-9.518469,54.162582],[-9.517532,54.162535],[-9.51751,54.162534],[-9.516781,54.162518],[-9.516016,54.162501],[-9.515893,54.162498],[-9.514604,54.162463],[-9.513381,54.162416],[-9.512468,54.162376],[-9.512114,54.162365],[-9.512707,54.162221],[-9.513566,54.162011],[-9.513563,54.162012],[-9.514253,54.161841],[-9.514023,54.161839],[-9.516396,54.16118],[-9.516386,54.160895],[-9.517473,54.160881],[-9.519427,54.160339],[-9.519413,54.159958],[-9.520862,54.15994],[-9.522458,54.159497],[-9.522441,54.159022],[-9.524251,54.158999],[-9.525225,54.158728],[-9.525489,54.158655],[-9.525677,54.158603],[-9.525833,54.158788],[-9.526556,54.158598],[-9.526713,54.158556],[-9.526822,54.158528],[-9.526876,54.158513],[-9.526987,54.158658],[-9.527085,54.158786],[-9.527177,54.158905],[-9.527223,54.158961],[-9.528562,54.158944],[-9.528628,54.16074],[-9.527148,54.160759],[-9.527099,54.160809],[-9.527164,54.162556],[-9.525379,54.162578],[-9.525285,54.162709],[-9.524882,54.162714],[-9.524848,54.162817],[-9.524262,54.163003],[-9.523876,54.162995],[-9.521207,54.162943]]]]}}]}
