{"type":"FeatureCollection","features":[{"type":"Feature","properties":{"source_fid":462291,"county":"Mayo","bog_geom_ha":334.07819542781266,"low15_pct":98.46319762739283,"low15_ha":328.94407379411479,"overlay_ha":328.94970456865337,"area_delta":0.0056307745385879571},"geometry":{"type":"MultiPolygon","coordinates":[[[[-9.610025,54.183691],[-9.609987,54.183692],[-9.609799,54.18484],[-9.609651,54.185741],[-9.609591,54.186111],[-9.609354,54.188135],[-9.609315,54.188471],[-9.60929,54.188683],[-9.609201,54.188685],[-9.609141,54.188722],[-9.609052,54.188718],[-9.608976,54.188701],[-9.608891,54.188732],[-9.608842,54.188732],[-9.608787,54.188732],[-9.608623,54.188741],[-9.608498,54.188644],[-9.608379,54.188622],[-9.608286,54.188606],[-9.608221,54.188516],[-9.608141,54.188474],[-9.607966,54.188469],[-9.607851,54.18846],[-9.607783,54.188455],[-9.607682,54.188447],[-9.607457,54.18843],[-9.607212,54.188335],[-9.607095,54.188321],[-9.60709,54.188314],[-9.606987,54.188315],[-9.606983,54.188212],[-9.606914,54.188182],[-9.606741,54.188158],[-9.606638,54.188133],[-9.606496,54.188063],[-9.606416,54.188046],[-9.60631,54.188034],[-9.606224,54.188028],[-9.606146,54.188002],[-9.60605,54.187965],[-9.605876,54.187956],[-9.605701,54.187895],[-9.605388,54.187839],[-9.60523,54.187804],[-9.605116,54.187763],[-9.604971,54.187778],[-9.604876,54.18778],[-9.604816,54.187756],[-9.604699,54.187772],[-9.604529,54.187717],[-9.604399,54.187683],[-9.604175,54.187611],[-9.604091,54.187571],[-9.603954,54.187503],[-9.603874,54.187497],[-9.603799,54.187508],[-9.603737,54.187507],[-9.603671,54.187493],[-9.603569,54.187452],[-9.60347,54.187435],[-9.603263,54.187414],[-9.603154,54.187377],[-9.603059,54.187317],[-9.602992,54.1873],[-9.602944,54.187293],[-9.602893,54.187309],[-9.60286,54.187319],[-9.602793,54.187303],[-9.602782,54.187275],[-9.602769,54.187243],[-9.602716,54.187192],[-9.602515,54.187202],[-9.602439,54.187197],[-9.60233,54.187162],[-9.602249,54.187162],[-9.602131,54.187215],[-9.602054,54.187255],[-9.601991,54.187248],[-9.601992,54.187194],[-9.601949,54.187143],[-9.601892,54.187133],[-9.601838,54.187104],[-9.601739,54.187112],[-9.601599,54.187042],[-9.601539,54.186978],[-9.601454,54.186937],[-9.601411,54.186898],[-9.601391,54.186759],[-9.601358,54.186693],[-9.601234,54.18667],[-9.601085,54.186649],[-9.600954,54.186621],[-9.600866,54.186622],[-9.600836,54.186595],[-9.600788,54.186551],[-9.600849,54.186461],[-9.600866,54.186428],[-9.600785,54.186416],[-9.600742,54.186427],[-9.600678,54.186418],[-9.600596,54.186408],[-9.600549,54.186357],[-9.600535,54.186323],[-9.600524,54.186304],[-9.600479,54.186286],[-9.600412,54.18627],[-9.600295,54.186175],[-9.600171,54.186079],[-9.600119,54.186034],[-9.600064,54.18606],[-9.600026,54.186062],[-9.599896,54.186017],[-9.599829,54.186005],[-9.599792,54.186004],[-9.59963,54.185966],[-9.599411,54.185916],[-9.599361,54.18588],[-9.599294,54.18584],[-9.599211,54.185755],[-9.599044,54.185656],[-9.598932,54.185507],[-9.598486,54.185455],[-9.59833,54.18535],[-9.598317,54.185278],[-9.598438,54.185193],[-9.598439,54.185142],[-9.598361,54.185086],[-9.598259,54.185062],[-9.598252,54.184989],[-9.598301,54.184813],[-9.59817,54.184836],[-9.597913,54.184826],[-9.597669,54.184714],[-9.597405,54.184551],[-9.597352,54.1845],[-9.597243,54.184159],[-9.597075,54.184096],[-9.596936,54.184105],[-9.596831,54.184091],[-9.596769,54.184052],[-9.596775,54.183982],[-9.596687,54.183861],[-9.596513,54.183772],[-9.596387,54.183754],[-9.596292,54.183636],[-9.596279,54.183526],[-9.596185,54.183272],[-9.59616,54.183251],[-9.596112,54.183211],[-9.596007,54.183121],[-9.595894,54.18308],[-9.595764,54.183078],[-9.595733,54.183052],[-9.595727,54.183037],[-9.595716,54.183008],[-9.595674,54.182901],[-9.595595,54.18283],[-9.595338,54.182782],[-9.595191,54.182689],[-9.595178,54.182578],[-9.595136,54.182545],[-9.595071,54.182539],[-9.594962,54.182557],[-9.594858,54.182544],[-9.594717,54.182464],[-9.59462,54.182271],[-9.594525,54.182183],[-9.594184,54.181966],[-9.594119,54.181887],[-9.594163,54.181729],[-9.594106,54.181617],[-9.594211,54.181417],[-9.594395,54.181342],[-9.594429,54.181225],[-9.594887,54.180141],[-9.595201,54.180039],[-9.595996,54.179716],[-9.596465,54.179679],[-9.597312,54.179573],[-9.598695,54.179378],[-9.597697,54.178961],[-9.595465,54.178002],[-9.592863,54.17691],[-9.592757,54.176911],[-9.592755,54.176865],[-9.590657,54.175984],[-9.590289,54.175974],[-9.58999,54.178184],[-9.588255,54.179238],[-9.588196,54.179129],[-9.58816,54.179072],[-9.588085,54.179051],[-9.587926,54.179054],[-9.587921,54.179085],[-9.587864,54.179187],[-9.587831,54.179216],[-9.587779,54.179221],[-9.587693,54.179225],[-9.58763,54.179231],[-9.587511,54.179266],[-9.587421,54.179275],[-9.587226,54.179267],[-9.587113,54.179239],[-9.587081,54.179177],[-9.586959,54.179109],[-9.586961,54.179078],[-9.586978,54.179013],[-9.587004,54.178968],[-9.586977,54.17891],[-9.586867,54.178852],[-9.586727,54.178869],[-9.586658,54.178877],[-9.586607,54.178873],[-9.586571,54.178864],[-9.586533,54.178834],[-9.586502,54.1788],[-9.58638,54.178694],[-9.586319,54.178644],[-9.586261,54.178545],[-9.586162,54.178408],[-9.586149,54.178355],[-9.586117,54.17832],[-9.585933,54.178287],[-9.585841,54.178271],[-9.585769,54.178278],[-9.585678,54.178251],[-9.585629,54.178194],[-9.585643,54.178136],[-9.585685,54.178096],[-9.585677,54.178057],[-9.585627,54.178019],[-9.58551,54.178008],[-9.58543,54.178016],[-9.585167,54.178038],[-9.584872,54.178023],[-9.5848,54.177908],[-9.58467,54.177822],[-9.584492,54.177781],[-9.584371,54.17776],[-9.58434,54.177675],[-9.58434,54.177608],[-9.584214,54.17754],[-9.584103,54.177542],[-9.583947,54.177463],[-9.583853,54.177413],[-9.583683,54.177355],[-9.583547,54.177334],[-9.583474,54.177254],[-9.583364,54.177135],[-9.583302,54.177114],[-9.583151,54.177107],[-9.583051,54.177045],[-9.582983,54.177035],[-9.582927,54.176983],[-9.582881,54.176941],[-9.582784,54.176876],[-9.582698,54.176838],[-9.582563,54.17676],[-9.582496,54.176714],[-9.582384,54.176678],[-9.582299,54.17664],[-9.582216,54.176635],[-9.582167,54.176638],[-9.582117,54.176664],[-9.582094,54.176675],[-9.582008,54.176683],[-9.582086,54.176886],[-9.582443,54.17757],[-9.582527,54.177717],[-9.582548,54.17791],[-9.58262,54.178156],[-9.583014,54.178915],[-9.583146,54.179173],[-9.583252,54.179435],[-9.58363,54.180139],[-9.584019,54.180971],[-9.584414,54.181825],[-9.584694,54.182379],[-9.584868,54.182776],[-9.585128,54.183396],[-9.585362,54.183855],[-9.585543,54.184225],[-9.585562,54.184284],[-9.58562,54.184513],[-9.58582,54.184895],[-9.586043,54.185298],[-9.58637,54.185933],[-9.58653,54.186282],[-9.586777,54.186849],[-9.586985,54.187259],[-9.587245,54.187802],[-9.587449,54.188256],[-9.587763,54.188897],[-9.587837,54.189081],[-9.588011,54.189518],[-9.588089,54.189704],[-9.588177,54.189749],[-9.588189,54.189756],[-9.588254,54.18979],[-9.588691,54.190119],[-9.589182,54.190504],[-9.589512,54.19076],[-9.590271,54.191362],[-9.591263,54.192188],[-9.592523,54.193208],[-9.593628,54.194046],[-9.594143,54.194473],[-9.594905,54.195082],[-9.595576,54.195637],[-9.595795,54.195812],[-9.596458,54.196339],[-9.596496,54.196371],[-9.597331,54.197086],[-9.597957,54.197577],[-9.598028,54.197632],[-9.598315,54.197872],[-9.598986,54.198433],[-9.599558,54.198883],[-9.599853,54.199115],[-9.601403,54.200352],[-9.602745,54.201426],[-9.603144,54.201739],[-9.60427,54.202624],[-9.60435,54.202652],[-9.604371,54.20266],[-9.604423,54.202679],[-9.604467,54.202694],[-9.604475,54.202699],[-9.604618,54.202787],[-9.604728,54.202864],[-9.605395,54.203422],[-9.605951,54.203863],[-9.606284,54.204118],[-9.606615,54.20437],[-9.606687,54.204389],[-9.606697,54.204394],[-9.60678,54.204434],[-9.606838,54.204464],[-9.606859,54.204475],[-9.606875,54.204485],[-9.60696,54.20454],[-9.607211,54.20476],[-9.607462,54.204979],[-9.607768,54.205212],[-9.608003,54.205391],[-9.608089,54.205336],[-9.608227,54.205249],[-9.608706,54.204946],[-9.608819,54.204867],[-9.608923,54.204794],[-9.609451,54.204424],[-9.609522,54.204374],[-9.610014,54.204001],[-9.609093,54.203004],[-9.607627,54.202157],[-9.606397,54.201623],[-9.604407,54.201098],[-9.603628,54.200636],[-9.603452,54.199562],[-9.604107,54.199134],[-9.606148,54.19866],[-9.61335,54.19798],[-9.613713,54.197128],[-9.614061,54.196715],[-9.614182,54.196628],[-9.614388,54.196511],[-9.614615,54.196359],[-9.614874,54.19621],[-9.615111,54.196058],[-9.615269,54.195938],[-9.615538,54.195779],[-9.615706,54.195657],[-9.615897,54.195528],[-9.615974,54.195477],[-9.616154,54.195334],[-9.616282,54.195255],[-9.616449,54.195173],[-9.616472,54.19516],[-9.616482,54.195157],[-9.616626,54.195086],[-9.616729,54.195055],[-9.616808,54.195035],[-9.617866,54.1949],[-9.618022,54.19486],[-9.618193,54.194798],[-9.618313,54.194741],[-9.61849,54.194645],[-9.618516,54.194628],[-9.61868,54.194537],[-9.618849,54.19444],[-9.619098,54.194307],[-9.619289,54.194228],[-9.619592,54.194103],[-9.619912,54.193976],[-9.620295,54.193829],[-9.620784,54.193629],[-9.621078,54.193537],[-9.621413,54.193412],[-9.621807,54.193264],[-9.622093,54.193168],[-9.622304,54.193089],[-9.622502,54.193028],[-9.622826,54.192914],[-9.622848,54.192907],[-9.622914,54.191932],[-9.622988,54.190856],[-9.623141,54.189528],[-9.623223,54.188812],[-9.622914,54.18832],[-9.62275,54.188104],[-9.622608,54.188106],[-9.6226,54.187906],[-9.622399,54.187638],[-9.622239,54.187488],[-9.622121,54.187377],[-9.621906,54.18726],[-9.621761,54.187182],[-9.621619,54.187122],[-9.621289,54.186985],[-9.620989,54.186834],[-9.620971,54.186824],[-9.620666,54.186613],[-9.620425,54.186533],[-9.620024,54.18643],[-9.619657,54.186334],[-9.619521,54.186298],[-9.619385,54.186262],[-9.619318,54.186263],[-9.619318,54.186244],[-9.619292,54.186238],[-9.618589,54.186052],[-9.618219,54.185948],[-9.617592,54.185771],[-9.617216,54.185686],[-9.617056,54.185649],[-9.616906,54.185625],[-9.616532,54.185564],[-9.616103,54.185483],[-9.616017,54.185466],[-9.61571,54.185433],[-9.615,54.185357],[-9.614319,54.185287],[-9.615003,54.185065],[-9.614579,54.184836],[-9.614274,54.184679],[-9.61381,54.184442],[-9.613513,54.184297],[-9.612726,54.183916],[-9.611942,54.183552],[-9.611269,54.183204],[-9.610155,54.182664],[-9.610105,54.182969],[-9.610031,54.183422],[-9.610933,54.18341],[-9.610944,54.183679],[-9.610954,54.183949],[-9.611414,54.183942],[-9.611424,54.184212],[-9.610965,54.184218],[-9.610975,54.184487],[-9.610516,54.184494],[-9.610526,54.184763],[-9.610067,54.184769],[-9.610056,54.1845],[-9.610046,54.18423],[-9.610035,54.183961],[-9.610025,54.183691]],[[-9.622149,54.188112],[-9.622608,54.188106],[-9.622619,54.188375],[-9.622159,54.188381],[-9.622149,54.188112]],[[-9.591711,54.185582],[-9.592743,54.186082],[-9.592737,54.186087],[-9.592515,54.186259],[-9.592021,54.186619],[-9.591565,54.186934],[-9.590116,54.186241],[-9.591302,54.185384],[-9.591651,54.185553],[-9.59171,54.185552],[-9.591711,54.185582]],[[-9.617744,54.193024],[-9.617736,54.19282],[-9.617145,54.192828],[-9.617075,54.191032],[-9.618607,54.191012],[-9.618677,54.192808],[-9.618195,54.192814],[-9.618203,54.193018],[-9.617744,54.193024]],[[-9.615614,54.192849],[-9.617145,54.192828],[-9.61718,54.193726],[-9.615649,54.193747],[-9.615614,54.192849]],[[-9.615579,54.191951],[-9.615614,54.192849],[-9.614083,54.192869],[-9.614048,54.191971],[-9.615579,54.191951]],[[-9.620279,54.187328],[-9.620739,54.187322],[-9.620792,54.188669],[-9.620332,54.188676],[-9.620279,54.187328]],[[-9.615706,54.187929],[-9.615727,54.188468],[-9.615748,54.189007],[-9.615769,54.189546],[-9.615309,54.189552],[-9.615288,54.189013],[-9.614829,54.189019],[-9.614808,54.18848],[-9.615267,54.188474],[-9.615246,54.187935],[-9.615706,54.187929]],[[-9.617137,54.189258],[-9.617596,54.189252],[-9.617617,54.189791],[-9.617158,54.189797],[-9.617137,54.189258]],[[-9.620353,54.189215],[-9.620813,54.189208],[-9.620844,54.190017],[-9.620385,54.190023],[-9.620353,54.189215]],[[-9.618954,54.188694],[-9.619413,54.188688],[-9.619497,54.190844],[-9.619038,54.19085],[-9.618954,54.188694]],[[-9.617179,54.190336],[-9.617638,54.190329],[-9.617649,54.190599],[-9.617189,54.190605],[-9.617179,54.190336]],[[-9.614433,54.190642],[-9.614443,54.190912],[-9.614454,54.191181],[-9.613994,54.191187],[-9.614005,54.191457],[-9.613545,54.191463],[-9.613535,54.191193],[-9.613524,54.190924],[-9.613984,54.190918],[-9.613973,54.190648],[-9.614433,54.190642]],[[-9.590332,54.185571],[-9.590342,54.18584],[-9.589883,54.185846],[-9.589873,54.185577],[-9.590332,54.185571]],[[-9.589423,54.185852],[-9.589883,54.185846],[-9.589904,54.186385],[-9.589914,54.186655],[-9.589454,54.186661],[-9.589465,54.18693],[-9.589005,54.186936],[-9.588995,54.186667],[-9.588985,54.186397],[-9.589444,54.186391],[-9.589423,54.185852]],[[-9.591783,54.187439],[-9.591793,54.187708],[-9.591334,54.187714],[-9.591323,54.187445],[-9.591783,54.187439]],[[-9.590415,54.187726],[-9.591334,54.187714],[-9.591344,54.187984],[-9.590885,54.18799],[-9.590895,54.188259],[-9.590435,54.188265],[-9.590425,54.187996],[-9.590415,54.187726]],[[-9.590905,54.188529],[-9.591365,54.188523],[-9.591375,54.188792],[-9.590916,54.188798],[-9.590905,54.188529]],[[-9.591385,54.189062],[-9.591375,54.188792],[-9.592294,54.18878],[-9.592304,54.189049],[-9.591385,54.189062]],[[-9.610683,54.188805],[-9.610694,54.189075],[-9.610234,54.189081],[-9.610224,54.188811],[-9.610683,54.188805]]]]}}]}
