{"type":"FeatureCollection","features":[{"type":"Feature","properties":{"source_fid":462292,"county":"Mayo","bog_geom_ha":144.74932221989599,"low15_pct":100.0,"low15_ha":144.74932221989599,"overlay_ha":144.74932221989599,"area_delta":0.0},"geometry":{"type":"MultiPolygon","coordinates":[[[[-9.632272,54.285574],[-9.631642,54.283176],[-9.630454,54.283261],[-9.627949,54.283413],[-9.626693,54.2795],[-9.626669,54.279429],[-9.625423,54.27928],[-9.620774,54.27873],[-9.620878,54.278645],[-9.61877,54.278975],[-9.615719,54.278468],[-9.61296,54.278378],[-9.612956,54.278094],[-9.612954,54.277973],[-9.612954,54.277981],[-9.612954,54.277981],[-9.612952,54.278006],[-9.612945,54.278088],[-9.612945,54.278201],[-9.612958,54.27829],[-9.612953,54.278368],[-9.612967,54.278686],[-9.612943,54.279008],[-9.612912,54.279393],[-9.612775,54.279476],[-9.612666,54.279515],[-9.612603,54.279538],[-9.612379,54.279557],[-9.61214,54.279577],[-9.611968,54.279666],[-9.611796,54.279696],[-9.61172,54.279677],[-9.6116,54.279678],[-9.611513,54.279681],[-9.611459,54.279694],[-9.611412,54.279702],[-9.61142,54.279795],[-9.611347,54.279879],[-9.611279,54.280011],[-9.611336,54.280084],[-9.611381,54.280135],[-9.611429,54.280168],[-9.611411,54.280253],[-9.611506,54.280301],[-9.611581,54.280332],[-9.611636,54.280549],[-9.611657,54.280675],[-9.611616,54.280779],[-9.611581,54.280876],[-9.611536,54.280935],[-9.611431,54.280974],[-9.611336,54.280991],[-9.611263,54.281035],[-9.611186,54.281118],[-9.611113,54.281213],[-9.6111,54.281278],[-9.611129,54.281339],[-9.611187,54.281394],[-9.611198,54.281431],[-9.611251,54.281519],[-9.611312,54.281631],[-9.611347,54.28173],[-9.611357,54.281791],[-9.611316,54.28189],[-9.61128,54.281949],[-9.611185,54.282049],[-9.611115,54.282124],[-9.611039,54.282239],[-9.61099,54.282318],[-9.611006,54.282385],[-9.611104,54.282458],[-9.611186,54.282539],[-9.611182,54.282574],[-9.611195,54.28264],[-9.611249,54.282679],[-9.61135,54.282733],[-9.611416,54.282797],[-9.611449,54.28287],[-9.611571,54.282969],[-9.611613,54.283008],[-9.611606,54.283071],[-9.611624,54.283104],[-9.61172,54.283134],[-9.611907,54.283235],[-9.611964,54.283329],[-9.612146,54.283404],[-9.612224,54.283461],[-9.612248,54.283546],[-9.612253,54.28368],[-9.612272,54.283735],[-9.612353,54.283799],[-9.612466,54.283835],[-9.612546,54.283844],[-9.612564,54.283846],[-9.612661,54.283846],[-9.612785,54.28389],[-9.612827,54.283937],[-9.612892,54.283992],[-9.613053,54.284079],[-9.613175,54.284139],[-9.613244,54.284195],[-9.6133,54.284233],[-9.613386,54.284318],[-9.613474,54.284361],[-9.613687,54.284341],[-9.613766,54.284319],[-9.613935,54.28429],[-9.614017,54.284276],[-9.614079,54.284265],[-9.614428,54.284213],[-9.614835,54.28435],[-9.615391,54.284527],[-9.615901,54.284663],[-9.616316,54.284839],[-9.616476,54.284924],[-9.61686,54.28513],[-9.617577,54.285509],[-9.618118,54.285815],[-9.61867,54.286122],[-9.618726,54.286152],[-9.619049,54.286327],[-9.619476,54.286608],[-9.619491,54.286739],[-9.619519,54.286845],[-9.619553,54.286897],[-9.619611,54.286925],[-9.619784,54.286947],[-9.619876,54.286982],[-9.619934,54.287007],[-9.619998,54.286995],[-9.620116,54.286969],[-9.620202,54.286972],[-9.620282,54.287],[-9.620373,54.287081],[-9.620431,54.287153],[-9.620587,54.287311],[-9.620653,54.287434],[-9.620742,54.287561],[-9.620802,54.287617],[-9.620836,54.287618],[-9.620924,54.287606],[-9.621094,54.28757],[-9.621228,54.28756],[-9.621299,54.287579],[-9.621433,54.287644],[-9.621543,54.28772],[-9.621619,54.28779],[-9.621681,54.287884],[-9.621743,54.288013],[-9.621815,54.28807],[-9.621957,54.288117],[-9.622056,54.288121],[-9.622157,54.288148],[-9.622433,54.288269],[-9.622491,54.288332],[-9.622568,54.288434],[-9.622646,54.288499],[-9.622752,54.28863],[-9.622801,54.288722],[-9.622795,54.288813],[-9.622727,54.288946],[-9.622648,54.289],[-9.622625,54.289071],[-9.622739,54.289188],[-9.622777,54.289264],[-9.622793,54.289318],[-9.622823,54.289424],[-9.622824,54.289436],[-9.622828,54.289477],[-9.623025,54.289528],[-9.623094,54.289577],[-9.623173,54.28961],[-9.623235,54.289625],[-9.623321,54.289643],[-9.623333,54.289694],[-9.623324,54.289765],[-9.623322,54.289835],[-9.623349,54.289867],[-9.623377,54.289914],[-9.623437,54.289954],[-9.62352,54.290024],[-9.623514,54.290102],[-9.623513,54.290132],[-9.623509,54.290224],[-9.623505,54.290306],[-9.623551,54.290415],[-9.623572,54.290471],[-9.623616,54.290561],[-9.62364,54.290645],[-9.623606,54.290712],[-9.623572,54.290783],[-9.623552,54.29087],[-9.623558,54.290941],[-9.623598,54.290984],[-9.623681,54.29101],[-9.623753,54.291057],[-9.623838,54.291106],[-9.623898,54.291155],[-9.62391,54.291237],[-9.623938,54.291333],[-9.623984,54.291442],[-9.623981,54.291489],[-9.623967,54.291517],[-9.623921,54.291542],[-9.623877,54.291541],[-9.623797,54.291544],[-9.623729,54.291543],[-9.623691,54.291573],[-9.623691,54.291617],[-9.623698,54.291647],[-9.623718,54.291734],[-9.623654,54.291825],[-9.623584,54.291944],[-9.623589,54.292085],[-9.623637,54.292133],[-9.623802,54.292219],[-9.623929,54.2923],[-9.624166,54.292433],[-9.624263,54.292534],[-9.624364,54.292667],[-9.624464,54.292804],[-9.624529,54.292901],[-9.624636,54.29297],[-9.624778,54.293037],[-9.624832,54.293051],[-9.625003,54.293008],[-9.625124,54.292956],[-9.625211,54.292909],[-9.625234,54.29287],[-9.625255,54.292785],[-9.625282,54.292756],[-9.625429,54.292788],[-9.625853,54.292875],[-9.626221,54.292951],[-9.626241,54.292954],[-9.62665,54.293029],[-9.627107,54.293115],[-9.627565,54.293201],[-9.627837,54.293247],[-9.627964,54.293269],[-9.628286,54.293339],[-9.628692,54.29344],[-9.629444,54.293633],[-9.629806,54.293754],[-9.630181,54.293879],[-9.630545,54.294014],[-9.630679,54.294076],[-9.630788,54.294126],[-9.6311,54.294242],[-9.631571,54.294394],[-9.632111,54.294563],[-9.6327,54.294739],[-9.63292,54.294833],[-9.632986,54.294901],[-9.633087,54.295004],[-9.633597,54.295582],[-9.634142,54.295609],[-9.634862,54.295616],[-9.633951,54.292066],[-9.633595,54.290652],[-9.632272,54.285574]]],[[[-9.632226,54.283134],[-9.632471,54.283117],[-9.631848,54.283106],[-9.631866,54.283142],[-9.632226,54.283134]]],[[[-9.637985,54.283252],[-9.638354,54.283292],[-9.638316,54.283254],[-9.637858,54.28324],[-9.637985,54.283252]]],[[[-9.612951,54.277817],[-9.612952,54.277837],[-9.612952,54.277819],[-9.612951,54.277817]]]]}}]}
