{"type":"FeatureCollection","features":[{"type":"Feature","properties":{"source_fid":521273,"county":"Kerry","bog_geom_ha":130.7441201911106,"low15_pct":83.379310344827587,"low15_ha":109.01354573176049,"overlay_ha":108.86322728673997,"area_delta":-0.15031844502051683},"geometry":{"type":"MultiPolygon","coordinates":[[[[-9.247041,51.970237],[-9.247035,51.970226],[-9.241307,51.970287],[-9.241315,51.970556],[-9.240005,51.97057],[-9.239998,51.9703],[-9.239561,51.970305],[-9.239569,51.970575],[-9.237386,51.970598],[-9.237379,51.970349],[-9.237129,51.970363],[-9.237089,51.970383],[-9.237014,51.97042],[-9.236946,51.970453],[-9.23695,51.970602],[-9.236635,51.970605],[-9.236626,51.97061],[-9.236515,51.970673],[-9.236521,51.970876],[-9.236148,51.97088],[-9.236085,51.970914],[-9.236091,51.97115],[-9.235655,51.971155],[-9.235655,51.971143],[-9.235467,51.971242],[-9.235306,51.971331],[-9.234518,51.971767],[-9.234466,51.971794],[-9.233838,51.972127],[-9.23377,51.972153],[-9.233558,51.972162],[-9.231813,51.972194],[-9.231175,51.972203],[-9.231035,51.972209],[-9.23064,51.972258],[-9.230296,51.972332],[-9.230026,51.972391],[-9.228589,51.972699],[-9.227359,51.972953],[-9.226757,51.97308],[-9.226473,51.973139],[-9.225474,51.973337],[-9.225153,51.973401],[-9.224638,51.973509],[-9.225147,51.973861],[-9.225875,51.974373],[-9.226303,51.974674],[-9.227617,51.975603],[-9.2289,51.976544],[-9.22896,51.976589],[-9.229091,51.976683],[-9.229352,51.976871],[-9.229647,51.97708],[-9.229684,51.977107],[-9.230224,51.977489],[-9.230473,51.977665],[-9.230878,51.977947],[-9.231038,51.977946],[-9.231041,51.978061],[-9.231099,51.978101],[-9.231257,51.978213],[-9.231482,51.978211],[-9.231486,51.978375],[-9.23154,51.978413],[-9.231632,51.978479],[-9.231926,51.978476],[-9.231932,51.978694],[-9.232003,51.978745],[-9.23237,51.978741],[-9.232377,51.97901],[-9.233251,51.979001],[-9.233265,51.97954],[-9.233702,51.979536],[-9.233709,51.979805],[-9.234146,51.979801],[-9.234153,51.98007],[-9.23459,51.980066],[-9.234597,51.980335],[-9.235034,51.980331],[-9.235041,51.9806],[-9.235915,51.980591],[-9.235922,51.980861],[-9.234913,51.980872],[-9.235007,51.980942],[-9.235323,51.981178],[-9.235395,51.981231],[-9.235551,51.981346],[-9.235634,51.981406],[-9.236195,51.9814],[-9.236797,51.981153],[-9.237098,51.981034],[-9.237207,51.981005],[-9.237331,51.980986],[-9.237381,51.980987],[-9.237616,51.980989],[-9.237845,51.980994],[-9.238107,51.980921],[-9.238105,51.980838],[-9.238418,51.980835],[-9.238519,51.980806],[-9.238541,51.980797],[-9.238534,51.980564],[-9.237661,51.980573],[-9.237646,51.980034],[-9.23721,51.980038],[-9.237202,51.979769],[-9.237195,51.979499],[-9.238505,51.979485],[-9.238512,51.979755],[-9.238949,51.97975],[-9.238956,51.98002],[-9.238971,51.980559],[-9.238971,51.980578],[-9.239014,51.980556],[-9.239219,51.980434],[-9.239348,51.98036],[-9.23948,51.980281],[-9.239608,51.98022],[-9.239866,51.980095],[-9.24013,51.979976],[-9.240454,51.979825],[-9.24075,51.979687],[-9.240867,51.979632],[-9.241003,51.979567],[-9.241094,51.979514],[-9.241139,51.979491],[-9.241162,51.979479],[-9.241319,51.979396],[-9.241492,51.979296],[-9.24163,51.979209],[-9.241792,51.979119],[-9.241962,51.979028],[-9.241985,51.979017],[-9.241982,51.978909],[-9.241546,51.978914],[-9.241538,51.978644],[-9.240665,51.978654],[-9.240673,51.978923],[-9.240236,51.978928],[-9.240229,51.978658],[-9.238919,51.978672],[-9.238911,51.978402],[-9.237165,51.978421],[-9.237172,51.97869],[-9.236299,51.978699],[-9.236292,51.97843],[-9.236284,51.97816],[-9.237594,51.978147],[-9.237587,51.977877],[-9.241079,51.97784],[-9.241087,51.97811],[-9.24196,51.978101],[-9.241967,51.97837],[-9.242404,51.978366],[-9.242412,51.978635],[-9.242412,51.978639],[-9.243285,51.97863],[-9.243285,51.978626],[-9.243277,51.978356],[-9.242841,51.978361],[-9.242833,51.978091],[-9.242826,51.977822],[-9.243262,51.977817],[-9.243255,51.977548],[-9.244565,51.977534],[-9.244557,51.977264],[-9.24543,51.977255],[-9.245423,51.976985],[-9.245859,51.976981],[-9.245852,51.976711],[-9.246288,51.976706],[-9.246281,51.976437],[-9.246273,51.976167],[-9.245837,51.976172],[-9.245829,51.975902],[-9.246266,51.975898],[-9.246251,51.975358],[-9.246244,51.975089],[-9.247117,51.97508],[-9.247124,51.975349],[-9.247561,51.975344],[-9.247576,51.975884],[-9.247583,51.976153],[-9.247591,51.976423],[-9.247154,51.976428],[-9.247162,51.976697],[-9.246725,51.976702],[-9.246733,51.976971],[-9.24674,51.977241],[-9.247177,51.977236],[-9.247169,51.976967],[-9.247606,51.976962],[-9.247598,51.976693],[-9.248035,51.976688],[-9.248037,51.976782],[-9.248171,51.97678],[-9.248152,51.976692],[-9.248147,51.976637],[-9.24814,51.976582],[-9.248139,51.976564],[-9.248134,51.976539],[-9.248116,51.976497],[-9.248087,51.976427],[-9.248048,51.976357],[-9.248021,51.976265],[-9.248008,51.976223],[-9.247999,51.976195],[-9.247966,51.976029],[-9.247929,51.975863],[-9.247915,51.975765],[-9.247914,51.975691],[-9.247914,51.975681],[-9.247908,51.975625],[-9.247908,51.975592],[-9.247908,51.975586],[-9.247895,51.975531],[-9.247885,51.97548],[-9.24789,51.975437],[-9.247896,51.975399],[-9.247904,51.97535],[-9.24791,51.975223],[-9.247898,51.975067],[-9.247883,51.974979],[-9.247862,51.974892],[-9.247835,51.97477],[-9.247812,51.9747],[-9.247767,51.974544],[-9.247729,51.974412],[-9.247701,51.974336],[-9.24769,51.974294],[-9.247692,51.97426],[-9.247669,51.974207],[-9.24766,51.974174],[-9.247649,51.974129],[-9.247635,51.974066],[-9.24763,51.974038],[-9.247613,51.974006],[-9.247586,51.973947],[-9.247581,51.97392],[-9.247569,51.973891],[-9.247547,51.973848],[-9.24749,51.973786],[-9.247449,51.973735],[-9.247422,51.973685],[-9.24741,51.973643],[-9.247437,51.973554],[-9.247462,51.97348],[-9.247476,51.973441],[-9.24748,51.973432],[-9.247495,51.973398],[-9.247515,51.973345],[-9.247513,51.973319],[-9.247515,51.973286],[-9.247509,51.97326],[-9.247493,51.97324],[-9.24749,51.973221],[-9.247473,51.973196],[-9.247471,51.97314],[-9.247473,51.973062],[-9.247476,51.973032],[-9.24748,51.973009],[-9.247478,51.97298],[-9.247478,51.972944],[-9.247488,51.972902],[-9.247509,51.972858],[-9.247528,51.972821],[-9.247559,51.972788],[-9.247584,51.972759],[-9.247638,51.97269],[-9.247709,51.97264],[-9.247766,51.972591],[-9.247801,51.972557],[-9.247824,51.972509],[-9.247849,51.972452],[-9.24786,51.972423],[-9.247889,51.972376],[-9.247938,51.972326],[-9.247975,51.972286],[-9.248019,51.972253],[-9.24807,51.972226],[-9.248117,51.972184],[-9.248201,51.972113],[-9.248238,51.972086],[-9.248282,51.97206],[-9.248302,51.972044],[-9.248343,51.971982],[-9.248378,51.971937],[-9.248382,51.971907],[-9.248401,51.971879],[-9.248433,51.971859],[-9.248484,51.971816],[-9.248504,51.971789],[-9.248522,51.971775],[-9.248557,51.971732],[-9.24858,51.971669],[-9.248587,51.971603],[-9.248579,51.971559],[-9.248549,51.971499],[-9.248469,51.971383],[-9.248445,51.971347],[-9.248431,51.971327],[-9.248414,51.97131],[-9.248381,51.971284],[-9.248336,51.97121],[-9.248309,51.971178],[-9.248282,51.971134],[-9.24827,51.9711],[-9.248259,51.971057],[-9.248257,51.971047],[-9.248255,51.971023],[-9.248254,51.970979],[-9.248247,51.970944],[-9.248224,51.970898],[-9.248178,51.970817],[-9.24817,51.970794],[-9.248152,51.970764],[-9.248134,51.970739],[-9.248102,51.970695],[-9.248015,51.970635],[-9.247918,51.970577],[-9.24782,51.970526],[-9.247762,51.970492],[-9.247564,51.970442],[-9.247366,51.970389],[-9.247195,51.970341],[-9.247098,51.970294],[-9.247041,51.970237]],[[-9.247094,51.974271],[-9.246658,51.974275],[-9.24665,51.974006],[-9.246214,51.97401],[-9.246199,51.973471],[-9.246635,51.973466],[-9.246605,51.972388],[-9.247042,51.972383],[-9.247072,51.973462],[-9.247087,51.974001],[-9.247094,51.974271]],[[-9.241382,51.972983],[-9.241374,51.972713],[-9.240938,51.972718],[-9.24093,51.972448],[-9.240923,51.972178],[-9.241359,51.972174],[-9.241345,51.971635],[-9.241337,51.971365],[-9.24221,51.971356],[-9.242218,51.971625],[-9.242654,51.971621],[-9.242669,51.97216],[-9.242677,51.97243],[-9.242684,51.972699],[-9.242247,51.972704],[-9.242255,51.972973],[-9.243565,51.97296],[-9.243572,51.973229],[-9.243135,51.973234],[-9.243143,51.973503],[-9.24315,51.973773],[-9.243587,51.973768],[-9.243594,51.974038],[-9.244031,51.974033],[-9.244038,51.974303],[-9.244046,51.974573],[-9.244053,51.974842],[-9.243617,51.974847],[-9.243624,51.975116],[-9.243632,51.975386],[-9.243195,51.975391],[-9.24321,51.97593],[-9.243218,51.976199],[-9.242781,51.976204],[-9.242788,51.976474],[-9.241042,51.976492],[-9.241035,51.976223],[-9.241908,51.976213],[-9.2419,51.975944],[-9.242337,51.975939],[-9.242322,51.9754],[-9.241449,51.975409],[-9.241441,51.975139],[-9.241878,51.975135],[-9.241871,51.974865],[-9.242307,51.974861],[-9.2423,51.974591],[-9.241863,51.974596],[-9.241856,51.974326],[-9.242292,51.974321],[-9.242285,51.974052],[-9.242277,51.973782],[-9.241841,51.973787],[-9.241833,51.973517],[-9.241397,51.973522],[-9.241389,51.973252],[-9.241382,51.972983]],[[-9.244527,51.976186],[-9.243654,51.976195],[-9.243647,51.975925],[-9.24452,51.975916],[-9.244527,51.976186]],[[-9.24102,51.975683],[-9.240583,51.975688],[-9.240576,51.975418],[-9.241012,51.975414],[-9.24102,51.975683]],[[-9.237535,51.97599],[-9.237098,51.975994],[-9.237091,51.975725],[-9.237527,51.97572],[-9.237535,51.97599]],[[-9.236662,51.975999],[-9.237098,51.975994],[-9.237106,51.976264],[-9.236669,51.976268],[-9.236662,51.975999]]],[[[-9.248068,51.979437],[-9.248052,51.978845],[-9.247658,51.978849],[-9.247676,51.979482],[-9.247765,51.979481],[-9.248068,51.979437]]],[[[-9.245134,51.97861],[-9.246341,51.978597],[-9.246333,51.978324],[-9.24546,51.978333],[-9.245453,51.978064],[-9.245016,51.978068],[-9.245024,51.978338],[-9.245031,51.978607],[-9.244594,51.978612],[-9.244604,51.97895],[-9.244779,51.978967],[-9.244947,51.978987],[-9.245146,51.97901],[-9.245134,51.97861]]],[[[-9.234554,51.980606],[-9.234606,51.980644],[-9.234605,51.980605],[-9.234554,51.980606]]],[[[-9.237868,51.970321],[-9.237839,51.970323],[-9.238252,51.970319],[-9.238251,51.9703],[-9.237868,51.970321]]],[[[-9.241367,51.972443],[-9.241374,51.972713],[-9.241811,51.972708],[-9.241803,51.972439],[-9.241367,51.972443]]]]}}]}
