{"type":"FeatureCollection","features":[{"type":"Feature","properties":{"source_fid":550151,"county":"Kerry","bog_geom_ha":310.84208717876777,"low15_pct":64.583933198963422,"low15_ha":200.75404593779905,"overlay_ha":201.08666583552164,"area_delta":0.33261989772259426},"geometry":{"type":"MultiPolygon","coordinates":[[[[-9.353593,51.844394],[-9.353259,51.844325],[-9.352715,51.844217],[-9.352134,51.844138],[-9.351873,51.844099],[-9.351701,51.844066],[-9.351712,51.844416],[-9.353593,51.844394]]],[[[-9.35654,51.845259],[-9.3563,51.84518],[-9.356085,51.845103],[-9.35609,51.845265],[-9.35654,51.845259]]],[[[-9.360214,51.846116],[-9.359598,51.846004],[-9.359011,51.845892],[-9.359019,51.846129],[-9.360214,51.846116]]],[[[-9.360848,51.858662],[-9.360823,51.857853],[-9.359729,51.857866],[-9.359737,51.858135],[-9.35938,51.858139],[-9.359397,51.858679],[-9.360848,51.858662]]],[[[-9.36668,51.859523],[-9.36666,51.858864],[-9.365857,51.858873],[-9.365865,51.859143],[-9.36543,51.859148],[-9.365438,51.859418],[-9.365003,51.859423],[-9.365011,51.859692],[-9.364575,51.859697],[-9.364583,51.859967],[-9.364148,51.859972],[-9.364156,51.860242],[-9.362414,51.860262],[-9.362423,51.860531],[-9.361552,51.860542],[-9.36156,51.860811],[-9.360689,51.860821],[-9.360681,51.860552],[-9.359375,51.860567],[-9.359383,51.860836],[-9.358947,51.860841],[-9.358939,51.860572],[-9.358504,51.860577],[-9.358502,51.860516],[-9.356549,51.860539],[-9.356527,51.859791],[-9.355867,51.859798],[-9.355862,51.859648],[-9.354992,51.859658],[-9.354996,51.859808],[-9.354125,51.859818],[-9.354133,51.860088],[-9.353698,51.860093],[-9.353706,51.860362],[-9.353641,51.860363],[-9.353649,51.860633],[-9.353714,51.860632],[-9.353722,51.860902],[-9.354158,51.860897],[-9.354166,51.861166],[-9.355037,51.861156],[-9.355045,51.861426],[-9.35548,51.861421],[-9.355481,51.86145],[-9.359479,51.861404],[-9.359506,51.862302],[-9.360957,51.862285],[-9.362408,51.862268],[-9.362381,51.86137],[-9.363832,51.861353],[-9.363805,51.860455],[-9.366707,51.860421],[-9.36668,51.859523]]],[[[-9.363778,51.859556],[-9.362394,51.859572],[-9.362398,51.859723],[-9.362406,51.859992],[-9.364148,51.859972],[-9.36414,51.859702],[-9.364132,51.859433],[-9.363774,51.859437],[-9.363778,51.859556]]],[[[-9.363751,51.858658],[-9.363766,51.859167],[-9.364994,51.859153],[-9.364986,51.858884],[-9.365422,51.858879],[-9.365414,51.858638],[-9.363751,51.858658]]],[[[-9.3528,51.863278],[-9.352924,51.863326],[-9.352922,51.863277],[-9.3528,51.863278]]],[[[-9.358109,51.864116],[-9.357304,51.864125],[-9.357311,51.864366],[-9.357319,51.864636],[-9.356884,51.864641],[-9.3569,51.86518],[-9.356689,51.865183],[-9.356712,51.865929],[-9.358163,51.865913],[-9.358109,51.864116]]],[[[-9.356739,51.866828],[-9.356712,51.865929],[-9.356052,51.865937],[-9.356062,51.866269],[-9.355626,51.866274],[-9.355642,51.866813],[-9.356078,51.866808],[-9.356079,51.866835],[-9.356739,51.866828]]],[[[-9.347333,51.843568],[-9.34883,51.84355],[-9.348613,51.843489],[-9.348167,51.84334],[-9.347729,51.843217],[-9.347523,51.843173],[-9.347321,51.84318],[-9.347333,51.843568]]],[[[-9.330009,51.846565],[-9.330005,51.846461],[-9.331456,51.846445],[-9.331444,51.846044],[-9.330268,51.846238],[-9.329805,51.846374],[-9.330009,51.846565]]],[[[-9.338707,51.860665],[-9.338628,51.860997],[-9.33854,51.861275],[-9.338986,51.861261],[-9.34002,51.86107],[-9.341473,51.860929],[-9.342046,51.86095],[-9.342038,51.860705],[-9.343489,51.860688],[-9.343463,51.85979],[-9.344542,51.859778],[-9.344538,51.859658],[-9.34453,51.859389],[-9.344965,51.859384],[-9.344957,51.859114],[-9.345393,51.859109],[-9.345377,51.85857],[-9.345812,51.858565],[-9.345804,51.858296],[-9.344933,51.858305],[-9.344925,51.858036],[-9.344917,51.857766],[-9.344909,51.857497],[-9.345344,51.857492],[-9.345353,51.857761],[-9.346223,51.857751],[-9.346215,51.857482],[-9.346651,51.857477],[-9.346635,51.856938],[-9.346627,51.856668],[-9.347062,51.856663],[-9.347054,51.856393],[-9.347489,51.856388],[-9.347481,51.856119],[-9.347465,51.85558],[-9.347457,51.85531],[-9.347892,51.855305],[-9.347884,51.855035],[-9.34832,51.85503],[-9.348312,51.854761],[-9.348747,51.854756],[-9.348755,51.855025],[-9.348763,51.855295],[-9.348771,51.855565],[-9.348336,51.85557],[-9.348352,51.856109],[-9.347917,51.856114],[-9.347925,51.856383],[-9.347933,51.856653],[-9.347497,51.856658],[-9.347505,51.856928],[-9.348376,51.856918],[-9.348392,51.857457],[-9.3484,51.857726],[-9.348408,51.857996],[-9.347973,51.858001],[-9.347981,51.858271],[-9.347989,51.85854],[-9.347554,51.858545],[-9.34757,51.859084],[-9.347578,51.859354],[-9.347804,51.859351],[-9.347789,51.858842],[-9.348433,51.858834],[-9.348433,51.858805],[-9.348425,51.858535],[-9.34886,51.85853],[-9.348852,51.858261],[-9.349223,51.858256],[-9.349213,51.857927],[-9.350584,51.857911],[-9.350569,51.857432],[-9.351005,51.857427],[-9.350997,51.857157],[-9.350989,51.856888],[-9.351424,51.856883],[-9.351416,51.856613],[-9.35098,51.856618],[-9.350972,51.856348],[-9.350964,51.856079],[-9.3514,51.856074],[-9.351392,51.855804],[-9.352262,51.855794],[-9.35227,51.856064],[-9.352706,51.856059],[-9.352714,51.856328],[-9.352279,51.856333],[-9.352287,51.856603],[-9.352295,51.856873],[-9.353165,51.856863],[-9.353169,51.856982],[-9.353604,51.856977],[-9.353601,51.856858],[-9.354472,51.856848],[-9.354464,51.856578],[-9.354899,51.856573],[-9.354891,51.856303],[-9.355326,51.856298],[-9.355318,51.856029],[-9.356189,51.856019],[-9.356197,51.856288],[-9.357939,51.856268],[-9.357947,51.856538],[-9.357511,51.856543],[-9.357519,51.856812],[-9.355342,51.856838],[-9.355351,51.857107],[-9.354995,51.857111],[-9.355003,51.857381],[-9.355359,51.857377],[-9.355373,51.857856],[-9.356468,51.857843],[-9.356478,51.858173],[-9.35756,51.85816],[-9.357568,51.85843],[-9.357937,51.858426],[-9.357892,51.856928],[-9.3597,51.856907],[-9.359696,51.856787],[-9.360567,51.856777],[-9.360559,51.856508],[-9.36143,51.856498],[-9.361422,51.856228],[-9.362225,51.856219],[-9.362218,51.855979],[-9.36272,51.855973],[-9.36272,51.855943],[-9.364026,51.855928],[-9.364027,51.855958],[-9.366204,51.855933],[-9.366203,51.855903],[-9.367073,51.855893],[-9.367041,51.854814],[-9.367476,51.854809],[-9.367468,51.85454],[-9.367903,51.854535],[-9.367895,51.854265],[-9.36746,51.85427],[-9.367452,51.854],[-9.367016,51.854006],[-9.367008,51.853736],[-9.367443,51.853731],[-9.367427,51.853192],[-9.368733,51.853176],[-9.368717,51.852637],[-9.369152,51.852632],[-9.369144,51.852363],[-9.369366,51.85236],[-9.369341,51.851551],[-9.368684,51.851559],[-9.368679,51.85141],[-9.368244,51.851415],[-9.368249,51.851564],[-9.366943,51.851579],[-9.366934,51.85131],[-9.366499,51.851315],[-9.366491,51.851045],[-9.363008,51.851085],[-9.363016,51.851355],[-9.362146,51.851365],[-9.362154,51.851635],[-9.361283,51.851645],[-9.361291,51.851914],[-9.359985,51.851929],[-9.359993,51.852199],[-9.359558,51.852204],[-9.359566,51.852474],[-9.359131,51.852479],[-9.359139,51.852748],[-9.359574,51.852743],[-9.359583,51.853013],[-9.359591,51.853282],[-9.35872,51.853293],[-9.358712,51.853023],[-9.358276,51.853028],[-9.358268,51.852758],[-9.356962,51.852773],[-9.35697,51.853043],[-9.356535,51.853048],[-9.356527,51.852778],[-9.356519,51.852509],[-9.356511,51.852239],[-9.356075,51.852244],[-9.356067,51.851975],[-9.355197,51.851985],[-9.355205,51.852254],[-9.355221,51.852794],[-9.355656,51.852789],[-9.355664,51.853058],[-9.354358,51.853073],[-9.35435,51.852804],[-9.354334,51.852264],[-9.354769,51.852259],[-9.354761,51.85199],[-9.353891,51.852],[-9.353882,51.85173],[-9.353012,51.85174],[-9.353004,51.851471],[-9.352133,51.851481],[-9.352125,51.851211],[-9.35169,51.851216],[-9.351698,51.851486],[-9.351706,51.851755],[-9.350835,51.851765],[-9.350827,51.851496],[-9.349956,51.851506],[-9.349948,51.851236],[-9.349513,51.851241],[-9.349505,51.850971],[-9.350376,51.850961],[-9.350367,51.850692],[-9.350359,51.850422],[-9.350351,51.850153],[-9.346433,51.850198],[-9.346441,51.850467],[-9.345571,51.850477],[-9.345579,51.850747],[-9.344273,51.850762],[-9.344281,51.851031],[-9.34341,51.851041],[-9.343402,51.850772],[-9.342531,51.850781],[-9.34254,51.851051],[-9.341669,51.851061],[-9.341677,51.851331],[-9.340371,51.851346],[-9.340379,51.851615],[-9.339943,51.85162],[-9.339935,51.85135],[-9.3395,51.851355],[-9.339492,51.851086],[-9.340798,51.851071],[-9.34079,51.850801],[-9.340782,51.850532],[-9.338605,51.850557],[-9.338597,51.850287],[-9.337727,51.850297],[-9.337719,51.850027],[-9.337711,51.849758],[-9.337703,51.849488],[-9.337268,51.849493],[-9.33726,51.849223],[-9.335954,51.849238],[-9.335946,51.848969],[-9.334204,51.848988],[-9.334212,51.849258],[-9.333777,51.849263],[-9.333769,51.848993],[-9.333334,51.848998],[-9.333342,51.849268],[-9.332906,51.849273],[-9.332914,51.849542],[-9.332406,51.849548],[-9.332495,51.849658],[-9.332632,51.849755],[-9.332726,51.849854],[-9.332831,51.849899],[-9.333037,51.849961],[-9.333274,51.850036],[-9.333456,51.850111],[-9.333564,51.850154],[-9.333648,51.850225],[-9.333729,51.850343],[-9.333802,51.850429],[-9.333918,51.850537],[-9.33396,51.850578],[-9.334082,51.850608],[-9.334263,51.850648],[-9.33434,51.850715],[-9.334445,51.850805],[-9.334463,51.850868],[-9.334394,51.851023],[-9.33444,51.85106],[-9.334496,51.851116],[-9.334534,51.851146],[-9.334775,51.851221],[-9.334755,51.851275],[-9.334755,51.851315],[-9.334863,51.851393],[-9.33486,51.851442],[-9.334829,51.851488],[-9.334854,51.851531],[-9.334812,51.851606],[-9.334847,51.851658],[-9.334865,51.851703],[-9.334893,51.851744],[-9.334841,51.851813],[-9.33484,51.851839],[-9.334838,51.851861],[-9.334828,51.851913],[-9.334839,51.851941],[-9.334864,51.852018],[-9.335011,51.852139],[-9.335109,51.852244],[-9.335085,51.852279],[-9.335179,51.852356],[-9.335204,51.852403],[-9.33527,51.852392],[-9.335454,51.852407],[-9.335479,51.852426],[-9.335421,51.852541],[-9.33541,51.852597],[-9.335417,51.852614],[-9.335466,51.852608],[-9.335543,51.852575],[-9.335557,51.852584],[-9.335543,51.852623],[-9.335613,51.852659],[-9.335791,51.852725],[-9.335906,51.85274],[-9.335914,51.85277],[-9.335951,51.852813],[-9.336088,51.85291],[-9.336349,51.852903],[-9.336645,51.852961],[-9.33668,51.853012],[-9.336608,51.853056],[-9.336611,51.853081],[-9.336734,51.853159],[-9.336575,51.853375],[-9.336498,51.853407],[-9.336499,51.853446],[-9.3366,51.853498],[-9.336806,51.853648],[-9.336873,51.853769],[-9.336874,51.853853],[-9.337038,51.853911],[-9.337042,51.853954],[-9.337157,51.854016],[-9.337189,51.85413],[-9.337323,51.854176],[-9.337569,51.854259],[-9.337611,51.854317],[-9.337748,51.854373],[-9.337943,51.854396],[-9.338041,51.854544],[-9.3381,51.854551],[-9.33823,51.85463],[-9.338282,51.854697],[-9.338384,51.85479],[-9.338207,51.85482],[-9.338055,51.854923],[-9.338104,51.855094],[-9.33812,51.855188],[-9.338138,51.855268],[-9.338146,51.855307],[-9.338151,51.855401],[-9.338142,51.855474],[-9.337905,51.855486],[-9.337727,51.855571],[-9.337639,51.85568],[-9.337596,51.855781],[-9.33761,51.855913],[-9.337677,51.856034],[-9.337933,51.856212],[-9.33802,51.856246],[-9.338219,51.85625],[-9.338723,51.856242],[-9.338943,51.856235],[-9.339143,51.856265],[-9.339203,51.856318],[-9.339327,51.856426],[-9.339339,51.85669],[-9.339498,51.856862],[-9.33959,51.857009],[-9.339654,51.85711],[-9.339619,51.857179],[-9.339689,51.857286],[-9.339949,51.857618],[-9.339935,51.857682],[-9.340044,51.857878],[-9.340012,51.857991],[-9.339868,51.85806],[-9.339834,51.858098],[-9.339843,51.858168],[-9.339858,51.858194],[-9.339962,51.858231],[-9.339988,51.858296],[-9.34012,51.858358],[-9.340173,51.858482],[-9.340135,51.858538],[-9.340119,51.858676],[-9.340142,51.858753],[-9.340093,51.858853],[-9.339863,51.858941],[-9.339792,51.859155],[-9.339668,51.859301],[-9.339684,51.859424],[-9.339697,51.859437],[-9.339897,51.859517],[-9.33989,51.85957],[-9.339846,51.85965],[-9.339644,51.859791],[-9.33954,51.860109],[-9.339437,51.860146],[-9.339455,51.860226],[-9.339186,51.860316],[-9.338988,51.860525],[-9.338707,51.860665]],[[-9.368709,51.852368],[-9.368717,51.852637],[-9.368281,51.852642],[-9.36829,51.852912],[-9.366983,51.852927],[-9.366975,51.852658],[-9.367411,51.852652],[-9.367402,51.852383],[-9.367838,51.852378],[-9.36783,51.852108],[-9.3687,51.852098],[-9.368709,51.852368]],[[-9.355286,51.85495],[-9.355269,51.854411],[-9.35614,51.854401],[-9.356156,51.85494],[-9.355286,51.85495]],[[-9.354834,51.854416],[-9.354399,51.854421],[-9.354391,51.854152],[-9.354826,51.854147],[-9.354834,51.854416]],[[-9.353528,51.854431],[-9.354399,51.854421],[-9.354407,51.854691],[-9.353536,51.854701],[-9.353528,51.854431]],[[-9.335534,51.849782],[-9.335542,51.850052],[-9.335107,51.850057],[-9.335099,51.849787],[-9.335534,51.849782]],[[-9.33555,51.850322],[-9.335542,51.850052],[-9.335978,51.850047],[-9.335985,51.850317],[-9.33555,51.850322]],[[-9.339764,51.860252],[-9.3402,51.860247],[-9.340208,51.860517],[-9.339772,51.860522],[-9.339764,51.860252]]],[[[-9.335808,51.846395],[-9.335812,51.846543],[-9.335874,51.846542],[-9.335869,51.846395],[-9.335808,51.846395]]],[[[-9.338683,51.845464],[-9.338698,51.845971],[-9.338905,51.845968],[-9.338897,51.845699],[-9.340203,51.845684],[-9.340196,51.845447],[-9.338683,51.845464]]],[[[-9.341557,51.844532],[-9.341567,51.844859],[-9.34279,51.844845],[-9.342782,51.844576],[-9.345911,51.84454],[-9.345882,51.843584],[-9.342981,51.843617],[-9.343008,51.844516],[-9.341557,51.844532]]],[[[-9.360523,51.84791],[-9.360514,51.847608],[-9.360291,51.847611],[-9.360283,51.847341],[-9.359847,51.847346],[-9.359839,51.847077],[-9.358533,51.847092],[-9.358541,51.847361],[-9.358106,51.847366],[-9.358098,51.847097],[-9.356792,51.847112],[-9.3568,51.847381],[-9.355494,51.847396],[-9.355502,51.847666],[-9.355067,51.847671],[-9.355059,51.847402],[-9.353753,51.847417],[-9.353745,51.847147],[-9.352439,51.847162],[-9.352431,51.846892],[-9.351996,51.846897],[-9.352004,51.847167],[-9.352012,51.847437],[-9.3494,51.847467],[-9.349408,51.847736],[-9.347667,51.847756],[-9.347675,51.848026],[-9.346369,51.848041],[-9.346377,51.84831],[-9.345071,51.848325],[-9.345087,51.848864],[-9.346828,51.848845],[-9.34682,51.848575],[-9.347691,51.848565],[-9.347683,51.848295],[-9.348554,51.848285],[-9.348562,51.848555],[-9.34857,51.848825],[-9.348134,51.84883],[-9.348142,51.849099],[-9.347272,51.849109],[-9.34728,51.849379],[-9.346845,51.849384],[-9.346853,51.849653],[-9.348594,51.849633],[-9.348586,51.849364],[-9.349456,51.849354],[-9.349465,51.849623],[-9.350771,51.849608],[-9.350762,51.849339],[-9.350327,51.849344],[-9.350319,51.849074],[-9.350311,51.848805],[-9.351617,51.84879],[-9.351625,51.849059],[-9.351851,51.849057],[-9.351846,51.848908],[-9.353297,51.848892],[-9.353309,51.84931],[-9.353374,51.849309],[-9.353366,51.849039],[-9.353802,51.849034],[-9.35381,51.849304],[-9.353818,51.849573],[-9.355559,51.849553],[-9.355567,51.849823],[-9.355575,51.850093],[-9.356011,51.850087],[-9.356002,51.849818],[-9.356438,51.849813],[-9.35643,51.849543],[-9.3573,51.849533],[-9.357308,51.849803],[-9.357317,51.850072],[-9.357752,51.850067],[-9.35776,51.850337],[-9.357768,51.850607],[-9.359509,51.850586],[-9.359501,51.850317],[-9.361243,51.850297],[-9.361234,51.850027],[-9.362105,51.850017],[-9.362097,51.849747],[-9.362532,51.849742],[-9.362524,51.849473],[-9.362959,51.849468],[-9.362951,51.849198],[-9.363387,51.849193],[-9.363378,51.848924],[-9.364907,51.848906],[-9.364903,51.848758],[-9.363452,51.848775],[-9.362001,51.848791],[-9.361974,51.847893],[-9.360523,51.84791]]],[[[-9.353324,51.84979],[-9.353389,51.84979],[-9.353382,51.849578],[-9.353317,51.849579],[-9.353324,51.84979]]],[[[-9.3435,51.861044],[-9.344183,51.861281],[-9.344586,51.861276],[-9.344578,51.861006],[-9.345014,51.861001],[-9.345006,51.860732],[-9.345004,51.860671],[-9.343489,51.860688],[-9.3435,51.861044]]],[[[-9.350815,51.862935],[-9.350795,51.862284],[-9.350715,51.862285],[-9.350723,51.862554],[-9.350731,51.862824],[-9.350295,51.862829],[-9.350298,51.862907],[-9.350815,51.862935]]],[[[-9.34691,51.862606],[-9.347241,51.862651],[-9.347239,51.862594],[-9.348545,51.862579],[-9.348537,51.86231],[-9.348102,51.862315],[-9.348094,51.862045],[-9.348086,51.861775],[-9.348078,51.861506],[-9.34807,51.861236],[-9.348062,51.860967],[-9.347626,51.860972],[-9.347618,51.860702],[-9.347183,51.860707],[-9.347191,51.860977],[-9.347199,51.861246],[-9.346763,51.861251],[-9.346779,51.86179],[-9.346344,51.861795],[-9.346352,51.862065],[-9.34636,51.862335],[-9.346796,51.86233],[-9.346803,51.862588],[-9.34691,51.862606]]],[[[-9.352334,51.865182],[-9.352149,51.865235],[-9.352335,51.865233],[-9.352334,51.865182]]],[[[-9.352368,51.866311],[-9.35236,51.866041],[-9.352134,51.866044],[-9.352126,51.865774],[-9.352118,51.865505],[-9.351247,51.865515],[-9.351263,51.866054],[-9.349723,51.866072],[-9.349724,51.866104],[-9.349313,51.866106],[-9.349431,51.866359],[-9.351279,51.866578],[-9.351271,51.866324],[-9.352368,51.866311]]],[[[-9.352613,51.866875],[-9.352882,51.866956],[-9.353035,51.867039],[-9.35303,51.866871],[-9.352613,51.866875]]],[[[-9.353168,51.867111],[-9.353478,51.867279],[-9.353473,51.867107],[-9.353168,51.867111]]],[[[-9.34067,51.846757],[-9.340662,51.846488],[-9.341968,51.846473],[-9.34196,51.846203],[-9.339348,51.846233],[-9.339356,51.846503],[-9.339791,51.846498],[-9.339799,51.846767],[-9.34067,51.846757]]],[[[-9.346659,51.857746],[-9.346223,51.857751],[-9.346231,51.858021],[-9.346667,51.858016],[-9.346659,51.857746]]],[[[-9.347586,51.859624],[-9.347578,51.859354],[-9.346707,51.859364],[-9.346715,51.859634],[-9.347586,51.859624]]]]}}]}
