{"type":"FeatureCollection","features":[{"type":"Feature","properties":{"source_fid":583522,"county":"Donegal","bog_geom_ha":146.4903358120296,"low15_pct":85.058175137783223,"low15_ha":124.60200639492291,"overlay_ha":124.21046194636482,"area_delta":-0.39154444855809345},"geometry":{"type":"MultiPolygon","coordinates":[[[[-7.288657,55.206532],[-7.288997,55.206683],[-7.289055,55.206725],[-7.289118,55.206701],[-7.289165,55.206728],[-7.289216,55.206744],[-7.289309,55.206769],[-7.289391,55.206783],[-7.289565,55.206897],[-7.289714,55.207024],[-7.289782,55.207085],[-7.289873,55.207202],[-7.289919,55.207276],[-7.289995,55.207335],[-7.290076,55.20741],[-7.290093,55.207436],[-7.290107,55.2075],[-7.290107,55.207501],[-7.290147,55.207522],[-7.290169,55.207547],[-7.290205,55.207615],[-7.290229,55.207665],[-7.290239,55.207702],[-7.290236,55.207722],[-7.290251,55.207774],[-7.290258,55.207813],[-7.290281,55.207851],[-7.29029,55.207858],[-7.290403,55.207933],[-7.290471,55.207987],[-7.290589,55.208047],[-7.290638,55.208099],[-7.29067,55.208156],[-7.290696,55.20817],[-7.290749,55.208238],[-7.29074,55.208315],[-7.290752,55.208321],[-7.290832,55.208334],[-7.290862,55.208357],[-7.290873,55.207773],[-7.290663,55.207771],[-7.290668,55.207502],[-7.290197,55.207499],[-7.290201,55.20723],[-7.290206,55.20696],[-7.289735,55.206957],[-7.28974,55.206688],[-7.289745,55.206418],[-7.289749,55.206149],[-7.290221,55.206152],[-7.29023,55.205613],[-7.290235,55.205343],[-7.289764,55.20534],[-7.289768,55.205071],[-7.29024,55.205074],[-7.290245,55.204804],[-7.290716,55.204807],[-7.290721,55.204537],[-7.291663,55.204543],[-7.291658,55.204812],[-7.291653,55.205082],[-7.291649,55.205351],[-7.292591,55.205357],[-7.292601,55.204818],[-7.293072,55.204821],[-7.293077,55.204551],[-7.292606,55.204548],[-7.29261,55.204279],[-7.292615,55.204009],[-7.293086,55.204012],[-7.293091,55.203742],[-7.293101,55.203203],[-7.293572,55.203206],[-7.293577,55.202937],[-7.294519,55.202942],[-7.294524,55.202673],[-7.294995,55.202675],[-7.295,55.202406],[-7.295471,55.202409],[-7.295466,55.202678],[-7.295462,55.202948],[-7.295457,55.203217],[-7.295452,55.203487],[-7.294981,55.203484],[-7.294976,55.203753],[-7.294505,55.203751],[-7.2945,55.20402],[-7.294029,55.204017],[-7.294024,55.204287],[-7.294967,55.204292],[-7.294971,55.204023],[-7.296385,55.204031],[-7.29639,55.203762],[-7.297332,55.203767],[-7.297337,55.203497],[-7.298279,55.203503],[-7.298284,55.203233],[-7.299227,55.203239],[-7.299231,55.202969],[-7.299703,55.202972],[-7.299707,55.202703],[-7.300179,55.202705],[-7.300183,55.202436],[-7.300188,55.202166],[-7.30113,55.202172],[-7.301135,55.201902],[-7.301606,55.201905],[-7.301611,55.201635],[-7.302553,55.201641],[-7.302558,55.201371],[-7.303501,55.201377],[-7.303505,55.201107],[-7.304448,55.201112],[-7.304452,55.200843],[-7.305477,55.200849],[-7.305795,55.198575],[-7.305824,55.198477],[-7.305851,55.198426],[-7.30591,55.198327],[-7.305952,55.198258],[-7.305953,55.198253],[-7.305962,55.198196],[-7.30594,55.198151],[-7.305895,55.1981],[-7.305843,55.19802],[-7.305838,55.197969],[-7.305844,55.19791],[-7.305843,55.197842],[-7.305833,55.197797],[-7.305787,55.197758],[-7.305725,55.197713],[-7.305637,55.19765],[-7.305565,55.197587],[-7.305524,55.197527],[-7.305487,55.197474],[-7.305434,55.197425],[-7.305312,55.197367],[-7.305238,55.19734],[-7.305209,55.197307],[-7.305181,55.197251],[-7.305151,55.197203],[-7.305073,55.197145],[-7.304958,55.197057],[-7.304828,55.196963],[-7.304739,55.196899],[-7.304645,55.196834],[-7.304535,55.196742],[-7.304425,55.196682],[-7.304361,55.196626],[-7.304278,55.196583],[-7.304261,55.196575],[-7.304175,55.196543],[-7.30412,55.196515],[-7.30409,55.196466],[-7.304075,55.196423],[-7.304057,55.196375],[-7.303984,55.196301],[-7.303905,55.196237],[-7.303842,55.196185],[-7.303804,55.196144],[-7.303766,55.196101],[-7.30379,55.196065],[-7.303821,55.196041],[-7.303796,55.19597],[-7.303752,55.195914],[-7.303725,55.195891],[-7.303715,55.195827],[-7.3037,55.19576],[-7.303644,55.195729],[-7.303606,55.195684],[-7.303562,55.195645],[-7.303475,55.195634],[-7.303456,55.195635],[-7.303427,55.195607],[-7.303416,55.195593],[-7.303619,55.195554],[-7.303787,55.195538],[-7.304064,55.195527],[-7.304406,55.195463],[-7.304689,55.195409],[-7.304815,55.195394],[-7.30538,55.195346],[-7.305693,55.195162],[-7.305878,55.195158],[-7.306054,55.195081],[-7.306907,55.19508],[-7.30786,55.194546],[-7.307863,55.194394],[-7.30813,55.194395],[-7.308336,55.194279],[-7.308339,55.194127],[-7.308606,55.194128],[-7.309082,55.193861],[-7.308815,55.19386],[-7.308815,55.193836],[-7.307049,55.194869],[-7.307003,55.1949],[-7.306909,55.194935],[-7.306824,55.194958],[-7.30675,55.194965],[-7.30662,55.194974],[-7.306409,55.194969],[-7.30633,55.194975],[-7.306205,55.194976],[-7.306128,55.194979],[-7.306046,55.194986],[-7.305912,55.195004],[-7.305813,55.195043],[-7.305754,55.19506],[-7.305695,55.195072],[-7.305616,55.195073],[-7.305538,55.195089],[-7.305475,55.195121],[-7.305423,55.195157],[-7.305376,55.195202],[-7.305351,55.195223],[-7.305268,55.19523],[-7.305176,55.195221],[-7.305071,55.195215],[-7.305,55.195218],[-7.304939,55.195225],[-7.304853,55.195242],[-7.30471,55.195307],[-7.304625,55.195343],[-7.304462,55.195347],[-7.304362,55.195361],[-7.304285,55.195372],[-7.304206,55.195381],[-7.304049,55.195388],[-7.303888,55.195396],[-7.30367,55.195428],[-7.303538,55.195446],[-7.303487,55.195442],[-7.303401,55.195447],[-7.303318,55.195441],[-7.303277,55.195431],[-7.303238,55.195401],[-7.303206,55.195384],[-7.303179,55.195377],[-7.303135,55.195372],[-7.303073,55.195385],[-7.303018,55.195406],[-7.302945,55.195436],[-7.302826,55.19545],[-7.302779,55.195449],[-7.30276,55.195442],[-7.302743,55.195431],[-7.302721,55.195404],[-7.302706,55.195388],[-7.302666,55.19537],[-7.30261,55.195353],[-7.302546,55.19534],[-7.302359,55.19532],[-7.302241,55.195319],[-7.302197,55.195318],[-7.302154,55.195312],[-7.302076,55.1953],[-7.301918,55.195268],[-7.301864,55.195254],[-7.301772,55.195256],[-7.301687,55.195264],[-7.30159,55.195265],[-7.30148,55.195265],[-7.301355,55.195274],[-7.30127,55.195291],[-7.301239,55.195309],[-7.301228,55.195344],[-7.301205,55.195368],[-7.301173,55.195389],[-7.301125,55.19539],[-7.301052,55.195394],[-7.300965,55.195394],[-7.300875,55.195378],[-7.300831,55.195368],[-7.300795,55.195375],[-7.300713,55.195366],[-7.300659,55.19536],[-7.300568,55.195329],[-7.300496,55.195313],[-7.300396,55.195315],[-7.300223,55.195269],[-7.300163,55.195263],[-7.300127,55.195266],[-7.300052,55.19531],[-7.299978,55.19534],[-7.29983,55.195345],[-7.299699,55.195463],[-7.29967,55.195503],[-7.299627,55.195522],[-7.29957,55.195537],[-7.299406,55.195573],[-7.299398,55.195589],[-7.299371,55.195597],[-7.299344,55.195593],[-7.299314,55.195588],[-7.299273,55.1956],[-7.29915,55.195619],[-7.299094,55.195624],[-7.299026,55.195628],[-7.29897,55.195628],[-7.298916,55.195622],[-7.298878,55.195631],[-7.298859,55.195635],[-7.298829,55.195636],[-7.298806,55.195628],[-7.29879,55.195619],[-7.29875,55.195557],[-7.298735,55.195536],[-7.298719,55.19553],[-7.298687,55.195529],[-7.298604,55.195563],[-7.298572,55.195574],[-7.298484,55.195573],[-7.298424,55.195584],[-7.298375,55.195583],[-7.298335,55.195581],[-7.298291,55.195573],[-7.298238,55.19556],[-7.298217,55.195549],[-7.298188,55.195517],[-7.298142,55.195449],[-7.298118,55.195439],[-7.298082,55.195438],[-7.298062,55.195445],[-7.298052,55.195462],[-7.298028,55.195488],[-7.297972,55.195515],[-7.297936,55.195534],[-7.297825,55.195547],[-7.297754,55.19556],[-7.297684,55.195517],[-7.297641,55.195484],[-7.297614,55.195457],[-7.297577,55.195436],[-7.297542,55.195423],[-7.297483,55.195419],[-7.297445,55.195425],[-7.297362,55.195444],[-7.297432,55.195252],[-7.29782,55.193769],[-7.298088,55.193311],[-7.298132,55.193228],[-7.298756,55.192721],[-7.299454,55.192013],[-7.299492,55.191882],[-7.300103,55.19044],[-7.301206,55.189104],[-7.301394,55.188883],[-7.30141,55.188819],[-7.301397,55.188743],[-7.301251,55.188434],[-7.301187,55.188324],[-7.301063,55.188163],[-7.301079,55.187934],[-7.301024,55.187935],[-7.300909,55.187937],[-7.300908,55.187937],[-7.300905,55.188155],[-7.3009,55.188424],[-7.300895,55.188694],[-7.300424,55.188691],[-7.300419,55.188961],[-7.299057,55.188953],[-7.299027,55.190685],[-7.297457,55.190676],[-7.29743,55.192178],[-7.298007,55.192181],[-7.298003,55.192451],[-7.297531,55.192448],[-7.297527,55.192717],[-7.297421,55.192717],[-7.297393,55.194268],[-7.295823,55.194259],[-7.295808,55.195157],[-7.294237,55.195148],[-7.294222,55.196046],[-7.286371,55.196001],[-7.286355,55.196899],[-7.283317,55.196881],[-7.283316,55.196947],[-7.282845,55.196944],[-7.282846,55.196878],[-7.282483,55.196876],[-7.28265,55.197206],[-7.282744,55.197368],[-7.283009,55.197846],[-7.28318,55.198209],[-7.28372,55.199075],[-7.283781,55.199178],[-7.284123,55.199752],[-7.28416,55.199849],[-7.284631,55.200582],[-7.28485,55.200923],[-7.284851,55.200924],[-7.285076,55.201273],[-7.285181,55.201437],[-7.285512,55.202109],[-7.285669,55.202095],[-7.285918,55.202097],[-7.286136,55.202414],[-7.286238,55.202636],[-7.286468,55.202995],[-7.286801,55.203452],[-7.286844,55.203557],[-7.286918,55.203737],[-7.286902,55.203832],[-7.287537,55.205067],[-7.287588,55.205148],[-7.287603,55.205171],[-7.287651,55.205367],[-7.287783,55.205564],[-7.287907,55.205763],[-7.288524,55.206523],[-7.28855,55.206524],[-7.288657,55.206532]],[[-7.298478,55.192184],[-7.298007,55.192181],[-7.298012,55.191912],[-7.298483,55.191914],[-7.298478,55.192184]],[[-7.30162,55.201096],[-7.301616,55.201366],[-7.301145,55.201363],[-7.30114,55.201633],[-7.300669,55.20163],[-7.300664,55.201899],[-7.29925,55.201891],[-7.299255,55.201622],[-7.299726,55.201625],[-7.299731,55.201355],[-7.300202,55.201358],[-7.300207,55.201088],[-7.300678,55.201091],[-7.300683,55.200821],[-7.301625,55.200827],[-7.30162,55.201096]],[[-7.298784,55.201619],[-7.298313,55.201616],[-7.298308,55.201886],[-7.298303,55.202155],[-7.296889,55.202147],[-7.29688,55.202686],[-7.296875,55.202956],[-7.296404,55.202953],[-7.296409,55.202684],[-7.295938,55.202681],[-7.295947,55.202142],[-7.296418,55.202145],[-7.296423,55.201875],[-7.297365,55.20188],[-7.29737,55.201611],[-7.297841,55.201614],[-7.297846,55.201344],[-7.298317,55.201347],[-7.298322,55.201077],[-7.298793,55.20108],[-7.298789,55.20135],[-7.298784,55.201619]]],[[[-7.299074,55.188007],[-7.299071,55.188144],[-7.299492,55.188147],[-7.299494,55.187984],[-7.299293,55.187991],[-7.299074,55.188007]]],[[[-7.309347,55.193713],[-7.309288,55.19371],[-7.309288,55.193746],[-7.309347,55.193713]]],[[[-7.305383,55.201515],[-7.305401,55.201387],[-7.305385,55.201387],[-7.305383,55.201515]]],[[[-7.305134,55.203295],[-7.305288,55.202195],[-7.304429,55.20219],[-7.304424,55.20246],[-7.303482,55.202455],[-7.303477,55.202724],[-7.303472,55.202994],[-7.303468,55.203263],[-7.302525,55.203258],[-7.30252,55.203527],[-7.302516,55.203797],[-7.302513,55.203944],[-7.30345,55.203825],[-7.303508,55.203817],[-7.303517,55.203286],[-7.305134,55.203295]]],[[[-7.30036,55.204166],[-7.301095,55.20417],[-7.301102,55.203789],[-7.300631,55.203786],[-7.300636,55.203516],[-7.300164,55.203514],[-7.30016,55.203783],[-7.299688,55.203781],[-7.299684,55.20405],[-7.299212,55.204047],[-7.299208,55.204317],[-7.298736,55.204314],[-7.298732,55.204584],[-7.29826,55.204581],[-7.298256,55.20485],[-7.295899,55.204837],[-7.295896,55.205038],[-7.300296,55.205064],[-7.300345,55.205038],[-7.30036,55.204166]]],[[[-7.295617,55.205935],[-7.295622,55.205644],[-7.294943,55.20564],[-7.294947,55.20537],[-7.294476,55.205368],[-7.294471,55.205637],[-7.294,55.205634],[-7.293995,55.205926],[-7.295617,55.205935]]],[[[-7.292462,55.206704],[-7.292467,55.206434],[-7.292101,55.206432],[-7.292096,55.206702],[-7.292462,55.206704]]],[[[-7.307803,55.193274],[-7.307764,55.193264],[-7.307626,55.193235],[-7.307626,55.193235],[-7.30765,55.193264],[-7.307737,55.193307],[-7.30789,55.193368],[-7.307937,55.193382],[-7.307922,55.193337],[-7.307893,55.193318],[-7.30789,55.193316],[-7.307882,55.193316],[-7.307882,55.193311],[-7.307847,55.193292],[-7.307803,55.193274]]],[[[-7.307572,55.193051],[-7.307567,55.193035],[-7.307537,55.193019],[-7.307539,55.193041],[-7.307561,55.193077],[-7.30757,55.193068],[-7.307572,55.193051]]],[[[-7.307511,55.192751],[-7.30726,55.192646],[-7.307047,55.192571],[-7.307121,55.192619],[-7.307257,55.192689],[-7.307296,55.192705],[-7.307464,55.192795],[-7.307511,55.192751]]],[[[-7.306997,55.192406],[-7.306611,55.192263],[-7.306559,55.192254],[-7.306567,55.192262],[-7.306588,55.192278],[-7.306788,55.192345],[-7.306881,55.192377],[-7.30692,55.192396],[-7.306949,55.192431],[-7.306981,55.192502],[-7.306998,55.192526],[-7.306997,55.192406]]],[[[-7.306209,55.191788],[-7.306174,55.191795],[-7.306161,55.191803],[-7.306172,55.191815],[-7.306246,55.191862],[-7.306372,55.191957],[-7.306379,55.191964],[-7.306382,55.191955],[-7.306371,55.191912],[-7.306289,55.191837],[-7.306209,55.191788]]],[[[-7.305707,55.191131],[-7.305668,55.191119],[-7.30566,55.191113],[-7.30571,55.191172],[-7.305793,55.191241],[-7.305808,55.191266],[-7.305831,55.191252],[-7.305867,55.191244],[-7.305859,55.191231],[-7.305795,55.191188],[-7.305731,55.191169],[-7.305707,55.191131]]],[[[-7.305586,55.190683],[-7.305541,55.190724],[-7.305511,55.190731],[-7.30558,55.190755],[-7.305682,55.190796],[-7.305692,55.190822],[-7.305693,55.190852],[-7.305701,55.190844],[-7.305713,55.190797],[-7.305699,55.190758],[-7.305657,55.190703],[-7.305611,55.190679],[-7.305586,55.190683]]],[[[-7.305084,55.190484],[-7.305038,55.190469],[-7.304957,55.190442],[-7.304961,55.190448],[-7.304989,55.190478],[-7.305036,55.190503],[-7.305208,55.190564],[-7.305288,55.190593],[-7.305295,55.190589],[-7.305336,55.190577],[-7.305344,55.190551],[-7.305272,55.190496],[-7.305193,55.190472],[-7.305136,55.190468],[-7.305084,55.190484]]],[[[-7.304921,55.190029],[-7.304856,55.190018],[-7.304816,55.19002],[-7.304919,55.190078],[-7.304973,55.190093],[-7.304975,55.190095],[-7.304973,55.190064],[-7.304921,55.190029]]],[[[-7.30533,55.189119],[-7.305284,55.189084],[-7.305281,55.189083],[-7.305333,55.189132],[-7.30533,55.189119]]],[[[-7.304691,55.188505],[-7.30464,55.188506],[-7.304636,55.188508],[-7.304682,55.188517],[-7.304713,55.188523],[-7.304691,55.188505]]],[[[-7.303864,55.188207],[-7.303643,55.188233],[-7.303638,55.188233],[-7.303683,55.188242],[-7.303903,55.18821],[-7.303987,55.188198],[-7.304021,55.188198],[-7.304078,55.188221],[-7.30421,55.188307],[-7.304318,55.188367],[-7.304318,55.188367],[-7.304277,55.188305],[-7.304215,55.188252],[-7.304114,55.188228],[-7.304055,55.188204],[-7.30395,55.188142],[-7.303927,55.18814],[-7.303903,55.188148],[-7.303864,55.188207]]],[[[-7.302894,55.187952],[-7.302795,55.187903],[-7.302757,55.187887],[-7.302766,55.187907],[-7.302843,55.187965],[-7.302939,55.188021],[-7.303093,55.188079],[-7.303224,55.18813],[-7.303368,55.188174],[-7.303548,55.188213],[-7.303493,55.188187],[-7.303454,55.188119],[-7.303302,55.188094],[-7.303246,55.188068],[-7.303102,55.188039],[-7.30299,55.187973],[-7.302894,55.187952]]],[[[-7.294514,55.203212],[-7.293572,55.203206],[-7.293562,55.203745],[-7.294034,55.203748],[-7.294038,55.203478],[-7.29451,55.203481],[-7.294514,55.203212]]],[[[-7.294019,55.204556],[-7.294024,55.204287],[-7.293553,55.204284],[-7.293548,55.204554],[-7.294019,55.204556]]]]}}]}
