{"type":"FeatureCollection","features":[{"type":"Feature","properties":{"source_fid":586794,"county":"Donegal","bog_geom_ha":161.68434900456685,"low15_pct":78.42046718576195,"low15_ha":126.79362185563919,"overlay_ha":126.73303555036742,"area_delta":-0.060586305271769447},"geometry":{"type":"MultiPolygon","coordinates":[[[[-7.341069,55.216847],[-7.341155,55.216679],[-7.340948,55.216678],[-7.340966,55.2156],[-7.340494,55.215598],[-7.340499,55.215328],[-7.340028,55.215326],[-7.340036,55.214787],[-7.338622,55.214779],[-7.338627,55.21451],[-7.338155,55.214507],[-7.338173,55.213429],[-7.337702,55.213426],[-7.337711,55.212887],[-7.337715,55.212618],[-7.337244,55.212615],[-7.337249,55.212346],[-7.337253,55.212076],[-7.33631,55.212071],[-7.336315,55.211802],[-7.3361,55.211801],[-7.335916,55.211987],[-7.335035,55.212873],[-7.335354,55.212875],[-7.33535,55.213144],[-7.335345,55.213414],[-7.334874,55.213411],[-7.334878,55.213142],[-7.334769,55.213141],[-7.334567,55.213344],[-7.333836,55.214128],[-7.333402,55.214568],[-7.333334,55.214638],[-7.332227,55.215675],[-7.33211,55.215783],[-7.331882,55.215978],[-7.331652,55.216197],[-7.331446,55.216404],[-7.331226,55.216625],[-7.33152,55.216627],[-7.331511,55.217166],[-7.331983,55.217169],[-7.331974,55.217708],[-7.331969,55.217977],[-7.331965,55.218247],[-7.331022,55.218241],[-7.331026,55.217972],[-7.330555,55.217969],[-7.330559,55.2177],[-7.330252,55.217698],[-7.33018,55.217792],[-7.330012,55.218021],[-7.329915,55.218138],[-7.329667,55.218472],[-7.329567,55.218584],[-7.329296,55.218917],[-7.329123,55.219147],[-7.32877,55.21958],[-7.328587,55.219804],[-7.328507,55.21991],[-7.328405,55.220025],[-7.328223,55.220247],[-7.327876,55.220685],[-7.327774,55.2208],[-7.327503,55.221138],[-7.327415,55.221242],[-7.327136,55.221575],[-7.326967,55.22178],[-7.326779,55.222013],[-7.326506,55.222326],[-7.326387,55.222481],[-7.326247,55.222638],[-7.326073,55.222853],[-7.326003,55.222945],[-7.325827,55.223173],[-7.325223,55.223883],[-7.324875,55.224307],[-7.324306,55.22499],[-7.323935,55.225433],[-7.323425,55.226034],[-7.32299,55.226551],[-7.322505,55.227039],[-7.322113,55.227439],[-7.321472,55.228116],[-7.321424,55.228173],[-7.321419,55.228431],[-7.321891,55.228433],[-7.321886,55.228703],[-7.321877,55.229242],[-7.323292,55.22925],[-7.323296,55.22898],[-7.322353,55.228975],[-7.322358,55.228705],[-7.322829,55.228708],[-7.322834,55.228438],[-7.322838,55.228169],[-7.323782,55.228174],[-7.323786,55.227905],[-7.324729,55.22791],[-7.324725,55.228179],[-7.325196,55.228182],[-7.325192,55.228452],[-7.326135,55.228457],[-7.326139,55.228187],[-7.326144,55.227918],[-7.326148,55.227648],[-7.32662,55.227651],[-7.326615,55.22792],[-7.327087,55.227923],[-7.327082,55.228192],[-7.327554,55.228195],[-7.327558,55.227926],[-7.32803,55.227928],[-7.328034,55.227659],[-7.329449,55.227666],[-7.329453,55.227397],[-7.329925,55.227399],[-7.329929,55.22713],[-7.330872,55.227135],[-7.330877,55.226866],[-7.33182,55.226871],[-7.331825,55.226601],[-7.331829,55.226332],[-7.332772,55.226337],[-7.332768,55.226606],[-7.333239,55.226609],[-7.333235,55.226879],[-7.332763,55.226876],[-7.332759,55.227145],[-7.332287,55.227143],[-7.332282,55.227412],[-7.330868,55.227405],[-7.330863,55.227674],[-7.330859,55.227944],[-7.328973,55.227933],[-7.328968,55.228203],[-7.328025,55.228198],[-7.328021,55.228467],[-7.327549,55.228465],[-7.327545,55.228734],[-7.32754,55.229004],[-7.327536,55.229273],[-7.328007,55.229276],[-7.328003,55.229545],[-7.326588,55.229537],[-7.326583,55.229807],[-7.327055,55.229809],[-7.32705,55.230079],[-7.328465,55.230087],[-7.32847,55.229817],[-7.330356,55.229828],[-7.33036,55.229558],[-7.330832,55.229561],[-7.330836,55.229291],[-7.330841,55.229022],[-7.331784,55.229027],[-7.331788,55.228757],[-7.33226,55.22876],[-7.332264,55.22849],[-7.333207,55.228496],[-7.333203,55.228765],[-7.333198,55.229035],[-7.333194,55.229304],[-7.332722,55.229302],[-7.332718,55.229571],[-7.333661,55.229576],[-7.333657,55.229846],[-7.333185,55.229843],[-7.33318,55.230113],[-7.333176,55.230382],[-7.332704,55.23038],[-7.3327,55.230649],[-7.333171,55.230652],[-7.333167,55.230921],[-7.333162,55.231191],[-7.333158,55.23146],[-7.332686,55.231458],[-7.332682,55.231727],[-7.332388,55.231725],[-7.332722,55.232193],[-7.333046,55.232645],[-7.333089,55.232641],[-7.333188,55.232624],[-7.33327,55.232585],[-7.333326,55.232525],[-7.33335,55.232417],[-7.33332,55.232355],[-7.333239,55.232332],[-7.333261,55.232254],[-7.333289,55.232226],[-7.333419,55.232206],[-7.333454,55.232197],[-7.333532,55.232175],[-7.333558,55.232115],[-7.333517,55.232068],[-7.333504,55.231997],[-7.333579,55.23194],[-7.333681,55.231906],[-7.333755,55.231875],[-7.333826,55.231797],[-7.333971,55.231708],[-7.334002,55.231652],[-7.334014,55.231575],[-7.334134,55.231544],[-7.33424,55.231525],[-7.334381,55.231491],[-7.334406,55.231461],[-7.33445,55.231358],[-7.334525,55.231324],[-7.334692,55.231276],[-7.334872,55.231222],[-7.334904,55.23117],[-7.334947,55.231105],[-7.33496,55.231085],[-7.335001,55.23104],[-7.335059,55.231003],[-7.335178,55.230944],[-7.335293,55.230853],[-7.33539,55.230752],[-7.335499,55.230675],[-7.33558,55.230634],[-7.335657,55.230586],[-7.335691,55.230479],[-7.335664,55.230426],[-7.335606,55.230344],[-7.335526,55.230241],[-7.335419,55.230179],[-7.335372,55.230129],[-7.335362,55.230098],[-7.335401,55.230004],[-7.335466,55.229983],[-7.335668,55.229967],[-7.335732,55.229948],[-7.335756,55.229931],[-7.335735,55.229849],[-7.335739,55.22972],[-7.33572,55.229604],[-7.335746,55.229559],[-7.335853,55.229525],[-7.335937,55.229484],[-7.335973,55.229445],[-7.335967,55.229416],[-7.335939,55.229386],[-7.335941,55.229321],[-7.335994,55.229261],[-7.336051,55.229213],[-7.336068,55.229177],[-7.336051,55.229133],[-7.336003,55.229069],[-7.335998,55.229038],[-7.335999,55.229006],[-7.335963,55.22889],[-7.335958,55.228801],[-7.335938,55.228713],[-7.33591,55.228682],[-7.335868,55.228636],[-7.335853,55.228579],[-7.335926,55.228492],[-7.336039,55.228431],[-7.336048,55.228389],[-7.336026,55.228352],[-7.335963,55.228315],[-7.335909,55.22825],[-7.33586,55.228217],[-7.335806,55.228203],[-7.335758,55.228212],[-7.335695,55.228191],[-7.335657,55.228168],[-7.335597,55.228082],[-7.335604,55.228002],[-7.335673,55.22791],[-7.335781,55.227897],[-7.335843,55.227802],[-7.335846,55.227777],[-7.335853,55.227725],[-7.335854,55.227715],[-7.335796,55.227649],[-7.335744,55.227552],[-7.335802,55.227473],[-7.335854,55.227406],[-7.335863,55.227329],[-7.335883,55.227292],[-7.335902,55.227268],[-7.335993,55.227191],[-7.336012,55.227154],[-7.335993,55.227025],[-7.335996,55.226983],[-7.336052,55.226895],[-7.336078,55.226796],[-7.336115,55.226713],[-7.336166,55.226711],[-7.336226,55.226694],[-7.336278,55.226667],[-7.336282,55.226646],[-7.336276,55.226618],[-7.336249,55.226541],[-7.336092,55.226479],[-7.33606,55.226459],[-7.336102,55.226423],[-7.336216,55.226371],[-7.336314,55.226336],[-7.336351,55.226267],[-7.336358,55.22619],[-7.336474,55.226106],[-7.336487,55.226046],[-7.336609,55.225986],[-7.336664,55.225947],[-7.336628,55.225845],[-7.336726,55.225738],[-7.336765,55.225683],[-7.336719,55.225571],[-7.336794,55.22547],[-7.336891,55.225304],[-7.336979,55.225162],[-7.337031,55.225174],[-7.337128,55.225178],[-7.337166,55.225083],[-7.337148,55.225035],[-7.337077,55.224998],[-7.337036,55.224971],[-7.337006,55.22494],[-7.337046,55.224894],[-7.337136,55.224884],[-7.337212,55.224858],[-7.337236,55.22483],[-7.337226,55.224792],[-7.337153,55.224729],[-7.337173,55.224689],[-7.337281,55.224479],[-7.337672,55.223611],[-7.337854,55.223238],[-7.337971,55.223016],[-7.338094,55.222796],[-7.338165,55.22269],[-7.338251,55.222543],[-7.338373,55.222363],[-7.338439,55.22225],[-7.338544,55.222021],[-7.338656,55.22177],[-7.338816,55.221437],[-7.338877,55.221306],[-7.339057,55.220965],[-7.339124,55.22084],[-7.33924,55.220622],[-7.339377,55.220388],[-7.33948,55.22016],[-7.339616,55.219922],[-7.339727,55.219679],[-7.339833,55.21944],[-7.33999,55.219099],[-7.340041,55.218968],[-7.340187,55.218622],[-7.340247,55.218486],[-7.340459,55.218027],[-7.340632,55.217665],[-7.340686,55.217546],[-7.340824,55.217318],[-7.340887,55.217184],[-7.340937,55.217079],[-7.341069,55.216847]],[[-7.326153,55.227379],[-7.326148,55.227648],[-7.325677,55.227646],[-7.325681,55.227376],[-7.326153,55.227379]],[[-7.337693,55.213965],[-7.33768,55.214774],[-7.337675,55.215043],[-7.337204,55.215041],[-7.337199,55.21531],[-7.336257,55.215305],[-7.336261,55.215036],[-7.336266,55.214766],[-7.336737,55.214769],[-7.33675,55.21396],[-7.336755,55.213691],[-7.337226,55.213693],[-7.337222,55.213963],[-7.337693,55.213965]],[[-7.335291,55.216648],[-7.33482,55.216645],[-7.334815,55.216915],[-7.334344,55.216912],[-7.334349,55.216643],[-7.334353,55.216373],[-7.334824,55.216376],[-7.334829,55.216106],[-7.336714,55.216116],[-7.33671,55.216386],[-7.335296,55.216378],[-7.335291,55.216648]]],[[[-7.330327,55.231532],[-7.331271,55.231489],[-7.331272,55.23145],[-7.330329,55.231445],[-7.330327,55.231532]]],[[[-7.325777,55.231823],[-7.32702,55.231889],[-7.327023,55.231696],[-7.327028,55.231426],[-7.327032,55.231157],[-7.326561,55.231154],[-7.326565,55.230885],[-7.324679,55.230874],[-7.324683,55.230605],[-7.324688,55.230335],[-7.324693,55.230066],[-7.32375,55.230061],[-7.323745,55.23033],[-7.32233,55.230322],[-7.322326,55.230592],[-7.322321,55.230861],[-7.322152,55.23086],[-7.324913,55.231578],[-7.325777,55.231823]]],[[[-7.321089,55.230585],[-7.321381,55.230661],[-7.321383,55.230587],[-7.321089,55.230585]]],[[[-7.320023,55.230309],[-7.320912,55.230539],[-7.320916,55.230315],[-7.320444,55.230312],[-7.320449,55.230042],[-7.320453,55.229773],[-7.320316,55.229772],[-7.320104,55.23018],[-7.320023,55.230309]]],[[[-7.339836,55.210674],[-7.337748,55.210662],[-7.337742,55.211001],[-7.339156,55.211009],[-7.339152,55.211278],[-7.339623,55.211281],[-7.339619,55.21155],[-7.339614,55.21182],[-7.33961,55.212089],[-7.340081,55.212092],[-7.340077,55.212361],[-7.341019,55.212366],[-7.341024,55.212097],[-7.341065,55.212097],[-7.341074,55.211555],[-7.341028,55.211523],[-7.340628,55.211245],[-7.340453,55.211119],[-7.34031,55.211015],[-7.339836,55.210674]]],[[[-7.324253,55.228177],[-7.323782,55.228174],[-7.323777,55.228444],[-7.324248,55.228446],[-7.324253,55.228177]]],[[[-7.330823,55.2301],[-7.330351,55.230097],[-7.330347,55.230367],[-7.330818,55.230369],[-7.330823,55.2301]]]]}}]}
