{"type":"FeatureCollection","features":[{"type":"Feature","properties":{"source_fid":586912,"county":"Donegal","bog_geom_ha":264.74427271433899,"low15_pct":94.416070820565196,"low15_ha":249.96114001936058,"overlay_ha":249.97952249609605,"area_delta":0.01838247673546789},"geometry":{"type":"MultiPolygon","coordinates":[[[[-7.158625,55.222134],[-7.158612,55.222736],[-7.158717,55.222797],[-7.159152,55.223033],[-7.159157,55.223035],[-7.159311,55.223037],[-7.159315,55.222839],[-7.158844,55.222836],[-7.15885,55.222567],[-7.158861,55.222028],[-7.158867,55.221758],[-7.159338,55.221761],[-7.15935,55.221222],[-7.159821,55.221226],[-7.15981,55.221765],[-7.159804,55.222034],[-7.160275,55.222037],[-7.160264,55.222576],[-7.160735,55.22258],[-7.16073,55.222849],[-7.160718,55.223388],[-7.160247,55.223385],[-7.160236,55.223924],[-7.160707,55.223927],[-7.160707,55.223944],[-7.16173,55.223951],[-7.161711,55.22485],[-7.163282,55.22486],[-7.163244,55.226657],[-7.161673,55.226646],[-7.161669,55.226827],[-7.161946,55.226912],[-7.161773,55.22709],[-7.161661,55.227203],[-7.161635,55.228442],[-7.163207,55.228453],[-7.163189,55.22927],[-7.163596,55.22932],[-7.163436,55.229721],[-7.163311,55.229933],[-7.163497,55.229815],[-7.163871,55.229521],[-7.164712,55.228836],[-7.165477,55.22823],[-7.166141,55.227697],[-7.166618,55.227319],[-7.167245,55.226816],[-7.167746,55.226399],[-7.168198,55.226032],[-7.16892,55.225445],[-7.169473,55.225008],[-7.169378,55.224951],[-7.169344,55.22488],[-7.169352,55.22475],[-7.169459,55.224657],[-7.169437,55.224577],[-7.169311,55.224449],[-7.169131,55.224319],[-7.169091,55.224269],[-7.169105,55.224229],[-7.169142,55.224207],[-7.169239,55.224199],[-7.169304,55.224214],[-7.169402,55.224274],[-7.169574,55.224343],[-7.169655,55.224344],[-7.169707,55.224284],[-7.169672,55.224172],[-7.169717,55.224068],[-7.169689,55.223995],[-7.16956,55.223929],[-7.169337,55.223862],[-7.169244,55.223855],[-7.169208,55.22381],[-7.169254,55.22369],[-7.169295,55.223627],[-7.169287,55.22354],[-7.169216,55.223447],[-7.169215,55.223351],[-7.169249,55.223277],[-7.169403,55.223194],[-7.169474,55.22312],[-7.169503,55.22308],[-7.169485,55.223019],[-7.169473,55.222976],[-7.169548,55.222936],[-7.169628,55.222931],[-7.169679,55.222909],[-7.169667,55.222861],[-7.169731,55.222816],[-7.169776,55.222796],[-7.169939,55.222802],[-7.169993,55.222778],[-7.169972,55.222713],[-7.170009,55.222698],[-7.170071,55.222684],[-7.170141,55.222679],[-7.170143,55.222652],[-7.17021,55.222642],[-7.170278,55.222613],[-7.170368,55.22255],[-7.170435,55.222451],[-7.170581,55.222408],[-7.170661,55.222329],[-7.170714,55.22228],[-7.170816,55.222254],[-7.17087,55.222217],[-7.170903,55.222147],[-7.171017,55.222101],[-7.171109,55.222088],[-7.171197,55.222081],[-7.171362,55.222068],[-7.171445,55.222066],[-7.171545,55.222055],[-7.171591,55.222065],[-7.171657,55.222063],[-7.171752,55.222034],[-7.171935,55.221997],[-7.172788,55.221589],[-7.17414,55.220708],[-7.174547,55.220173],[-7.175204,55.219061],[-7.176112,55.217361],[-7.17735,55.215282],[-7.179345,55.211829],[-7.180004,55.210838],[-7.180486,55.210324],[-7.18109,55.209894],[-7.180546,55.20948],[-7.179789,55.208915],[-7.179789,55.208914],[-7.179661,55.208803],[-7.179459,55.20862],[-7.179244,55.208417],[-7.178926,55.208087],[-7.178768,55.207933],[-7.171924,55.208193],[-7.17169,55.208201],[-7.171537,55.208208],[-7.163253,55.206958],[-7.163261,55.206927],[-7.163228,55.2069],[-7.163102,55.206882],[-7.162863,55.206824],[-7.162628,55.206762],[-7.162372,55.206693],[-7.162118,55.206602],[-7.161944,55.206522],[-7.161795,55.20644],[-7.161643,55.20635],[-7.161476,55.206246],[-7.161319,55.206118],[-7.161192,55.205985],[-7.161081,55.205853],[-7.161019,55.20577],[-7.160914,55.205655],[-7.160837,55.205558],[-7.160736,55.205427],[-7.160698,55.205355],[-7.16065,55.205219],[-7.160591,55.20501],[-7.160528,55.204859],[-7.160439,55.204582],[-7.160342,55.204313],[-7.160342,55.204313],[-7.160309,55.204338],[-7.16021,55.204414],[-7.159686,55.204802],[-7.159291,55.205089],[-7.158895,55.205374],[-7.158615,55.205579],[-7.158497,55.205932],[-7.158378,55.206293],[-7.158246,55.206758],[-7.158125,55.207244],[-7.157992,55.207703],[-7.157836,55.208188],[-7.15775,55.208488],[-7.157674,55.208653],[-7.157595,55.208944],[-7.157527,55.209249],[-7.157447,55.209583],[-7.157387,55.209791],[-7.157312,55.210159],[-7.157205,55.210514],[-7.157036,55.211013],[-7.156901,55.211474],[-7.156865,55.211599],[-7.156714,55.212103],[-7.156579,55.212558],[-7.156446,55.212928],[-7.156328,55.213166],[-7.156085,55.213493],[-7.155818,55.213833],[-7.155433,55.21434],[-7.155394,55.214391],[-7.155123,55.214712],[-7.155113,55.214724],[-7.155244,55.214725],[-7.155232,55.215264],[-7.155227,55.215534],[-7.155698,55.215537],[-7.155692,55.215807],[-7.155687,55.216076],[-7.155681,55.216346],[-7.156152,55.216349],[-7.156147,55.216618],[-7.156618,55.216622],[-7.156607,55.217161],[-7.157078,55.217164],[-7.157067,55.217703],[-7.157538,55.217706],[-7.157527,55.218245],[-7.157998,55.218248],[-7.157992,55.218518],[-7.158464,55.218521],[-7.158458,55.218791],[-7.158447,55.21933],[-7.158918,55.219333],[-7.158907,55.219872],[-7.159378,55.219875],[-7.159372,55.220145],[-7.159844,55.220148],[-7.159838,55.220417],[-7.159832,55.220687],[-7.158418,55.220677],[-7.158412,55.220946],[-7.157941,55.220943],[-7.157947,55.220674],[-7.156532,55.220664],[-7.156538,55.220394],[-7.155595,55.220388],[-7.155601,55.220118],[-7.15513,55.220115],[-7.155135,55.219846],[-7.154664,55.219842],[-7.154675,55.219303],[-7.154687,55.218764],[-7.154215,55.218761],[-7.154221,55.218492],[-7.154227,55.218222],[-7.154238,55.217683],[-7.15425,55.217144],[-7.153778,55.217141],[-7.15379,55.216602],[-7.153447,55.2166],[-7.153047,55.217039],[-7.152831,55.217269],[-7.152338,55.217839],[-7.151974,55.218209],[-7.151716,55.218493],[-7.151566,55.218658],[-7.151393,55.218843],[-7.151117,55.219172],[-7.150937,55.219386],[-7.152398,55.219396],[-7.152379,55.220294],[-7.15395,55.220305],[-7.153931,55.221203],[-7.155502,55.221214],[-7.155483,55.222112],[-7.157387,55.222125],[-7.157387,55.222125],[-7.157434,55.222063],[-7.157542,55.222126],[-7.157543,55.222126],[-7.158625,55.222134]],[[-7.175595,55.210822],[-7.176067,55.210825],[-7.176061,55.211094],[-7.17559,55.211091],[-7.175595,55.210822]],[[-7.17417,55.211351],[-7.174165,55.21162],[-7.175107,55.211627],[-7.175102,55.211896],[-7.175096,55.212166],[-7.175567,55.212169],[-7.175562,55.212438],[-7.174619,55.212432],[-7.174625,55.212163],[-7.174154,55.212159],[-7.174159,55.21189],[-7.173688,55.211887],[-7.173693,55.211617],[-7.173699,55.211348],[-7.173228,55.211345],[-7.173233,55.211075],[-7.173705,55.211078],[-7.17371,55.210809],[-7.174181,55.210812],[-7.174176,55.211081],[-7.17417,55.211351]]]]}}]}
