{"type":"FeatureCollection","features":[{"type":"Feature","properties":{"source_fid":589488,"county":"Donegal","bog_geom_ha":184.70310215668212,"low15_pct":68.722680913064593,"low15_ha":126.93292353166838,"overlay_ha":127.59068361551957,"area_delta":0.65776008385118701},"geometry":{"type":"MultiPolygon","coordinates":[[[[-7.742639,55.134942],[-7.742659,55.134942],[-7.74266,55.134912],[-7.742639,55.134942]]],[[[-7.742906,55.134546],[-7.742665,55.134903],[-7.74313,55.134904],[-7.743132,55.134635],[-7.743602,55.134636],[-7.743604,55.134366],[-7.743716,55.134366],[-7.743719,55.134046],[-7.743235,55.134045],[-7.743135,55.134198],[-7.743134,55.134365],[-7.743025,55.134365],[-7.742906,55.134546]]],[[[-7.746389,55.140339],[-7.745448,55.140337],[-7.745446,55.140569],[-7.744976,55.140568],[-7.744974,55.140838],[-7.744033,55.140836],[-7.744031,55.141105],[-7.74262,55.141102],[-7.742618,55.141372],[-7.742147,55.141371],[-7.742149,55.141101],[-7.742105,55.141101],[-7.742104,55.141228],[-7.740737,55.141225],[-7.740731,55.142176],[-7.742098,55.142179],[-7.742099,55.142127],[-7.743667,55.14213],[-7.743666,55.142183],[-7.744024,55.142183],[-7.744023,55.142453],[-7.743665,55.142452],[-7.743661,55.143028],[-7.74496,55.143031],[-7.74496,55.142994],[-7.745901,55.142996],[-7.745903,55.142726],[-7.746374,55.142727],[-7.746375,55.142458],[-7.747787,55.142461],[-7.747785,55.14273],[-7.747784,55.143],[-7.747313,55.142999],[-7.747311,55.143268],[-7.746841,55.143267],[-7.746839,55.143537],[-7.746369,55.143536],[-7.746367,55.143805],[-7.745896,55.143804],[-7.745895,55.143931],[-7.746791,55.143933],[-7.746786,55.144831],[-7.748354,55.144834],[-7.748354,55.144888],[-7.748713,55.144888],[-7.748711,55.145158],[-7.749182,55.145159],[-7.74918,55.145428],[-7.749919,55.14543],[-7.749922,55.144838],[-7.750595,55.144839],[-7.750597,55.144623],[-7.751067,55.144624],[-7.751069,55.144354],[-7.753422,55.144359],[-7.75342,55.144628],[-7.753419,55.144845],[-7.754627,55.144847],[-7.754627,55.1449],[-7.75483,55.144901],[-7.754827,55.14544],[-7.754623,55.145439],[-7.754616,55.146644],[-7.751525,55.146637],[-7.751525,55.146781],[-7.751995,55.146782],[-7.75199,55.14759],[-7.752461,55.147591],[-7.752459,55.147861],[-7.75293,55.147862],[-7.752928,55.148131],[-7.752457,55.14813],[-7.752456,55.1484],[-7.752185,55.148399],[-7.752212,55.148435],[-7.753036,55.148437],[-7.753031,55.149335],[-7.754599,55.149338],[-7.754588,55.151135],[-7.756157,55.151138],[-7.756151,55.152036],[-7.75772,55.152039],[-7.757714,55.152937],[-7.757704,55.154603],[-7.757765,55.154547],[-7.757861,55.154448],[-7.758077,55.154433],[-7.758069,55.154335],[-7.758047,55.154266],[-7.758056,55.154215],[-7.758128,55.154144],[-7.758197,55.154102],[-7.758315,55.154107],[-7.758403,55.154117],[-7.758489,55.154117],[-7.758715,55.154048],[-7.758858,55.154047],[-7.758932,55.154028],[-7.75896,55.153975],[-7.759013,55.153934],[-7.759222,55.153885],[-7.759277,55.153846],[-7.759277,55.153839],[-7.759287,55.153839],[-7.759335,55.153804],[-7.759355,55.153765],[-7.759361,55.153711],[-7.759353,55.153659],[-7.759377,55.153647],[-7.759427,55.153672],[-7.759487,55.153712],[-7.759559,55.153696],[-7.759628,55.153684],[-7.759687,55.153651],[-7.759809,55.153556],[-7.759948,55.153405],[-7.760047,55.153341],[-7.76007,55.153319],[-7.76,55.15324],[-7.759976,55.152942],[-7.759973,55.152898],[-7.759943,55.152831],[-7.75989,55.152809],[-7.759794,55.152779],[-7.759764,55.152763],[-7.759734,55.152729],[-7.759726,55.152688],[-7.759735,55.152655],[-7.759795,55.152604],[-7.759865,55.152544],[-7.759909,55.152445],[-7.759911,55.152406],[-7.759811,55.152274],[-7.759719,55.152211],[-7.759646,55.152162],[-7.759637,55.152142],[-7.759619,55.152104],[-7.759635,55.152032],[-7.759701,55.151937],[-7.759659,55.151864],[-7.759652,55.15176],[-7.759726,55.151683],[-7.759751,55.151667],[-7.759807,55.15163],[-7.759861,55.151518],[-7.7599,55.151418],[-7.760045,55.151191],[-7.760088,55.151048],[-7.760205,55.150967],[-7.760236,55.150836],[-7.760317,55.150801],[-7.760387,55.150779],[-7.760458,55.150761],[-7.760613,55.150753],[-7.760688,55.150685],[-7.760765,55.150563],[-7.76079,55.150476],[-7.760859,55.150354],[-7.760867,55.150322],[-7.760873,55.149351],[-7.761965,55.149353],[-7.762061,55.149291],[-7.762068,55.149261],[-7.762099,55.149182],[-7.762078,55.149104],[-7.762136,55.149091],[-7.762317,55.149166],[-7.762361,55.149195],[-7.762395,55.149219],[-7.762556,55.149163],[-7.762716,55.149123],[-7.76292,55.149039],[-7.763045,55.149025],[-7.763113,55.149017],[-7.76333,55.148867],[-7.763496,55.148824],[-7.763618,55.148736],[-7.763832,55.148747],[-7.763835,55.148634],[-7.764014,55.14859],[-7.764039,55.148584],[-7.764073,55.148508],[-7.764193,55.148344],[-7.764393,55.148263],[-7.764402,55.1482],[-7.764477,55.148147],[-7.764522,55.148043],[-7.76454,55.147943],[-7.764572,55.147892],[-7.764695,55.147835],[-7.764701,55.147832],[-7.764784,55.147777],[-7.764841,55.147635],[-7.764939,55.147437],[-7.764994,55.147219],[-7.764936,55.147135],[-7.765026,55.146986],[-7.764957,55.146874],[-7.765051,55.146744],[-7.764989,55.146409],[-7.764985,55.146368],[-7.76498,55.146303],[-7.764924,55.146211],[-7.764921,55.146138],[-7.764931,55.146071],[-7.764912,55.146022],[-7.764789,55.145997],[-7.764786,55.145968],[-7.764765,55.145897],[-7.764764,55.145892],[-7.764716,55.145814],[-7.764707,55.145809],[-7.764638,55.145776],[-7.764427,55.145672],[-7.764225,55.145557],[-7.76424,55.145483],[-7.764332,55.145446],[-7.764421,55.145345],[-7.764486,55.145293],[-7.764666,55.145225],[-7.764703,55.145181],[-7.764711,55.145178],[-7.764874,55.145109],[-7.764872,55.145079],[-7.764854,55.145038],[-7.764841,55.145015],[-7.764843,55.144986],[-7.764914,55.144897],[-7.764942,55.144818],[-7.764949,55.144798],[-7.764964,55.144728],[-7.764955,55.144666],[-7.765014,55.144619],[-7.76505,55.14447],[-7.765089,55.144353],[-7.765109,55.144297],[-7.765109,55.144261],[-7.765089,55.144206],[-7.764967,55.144062],[-7.764983,55.144003],[-7.764986,55.14397],[-7.764965,55.14379],[-7.764936,55.143536],[-7.764939,55.143185],[-7.764941,55.143043],[-7.764937,55.142521],[-7.764942,55.142044],[-7.764948,55.141719],[-7.764961,55.141492],[-7.764855,55.141334],[-7.764734,55.141153],[-7.76465,55.141026],[-7.764355,55.140564],[-7.764086,55.140152],[-7.763944,55.139935],[-7.763723,55.139595],[-7.763625,55.139452],[-7.763607,55.139426],[-7.763528,55.139287],[-7.762998,55.139258],[-7.7627,55.139263],[-7.762602,55.139263],[-7.762542,55.139264],[-7.762449,55.139265],[-7.762229,55.139269],[-7.761909,55.139289],[-7.76144,55.139345],[-7.761105,55.139355],[-7.760757,55.139356],[-7.76051,55.139377],[-7.760509,55.139522],[-7.759408,55.139519],[-7.75923,55.139549],[-7.75882,55.139593],[-7.758681,55.139608],[-7.758627,55.139613],[-7.758626,55.139787],[-7.758624,55.140057],[-7.758619,55.140865],[-7.758616,55.141405],[-7.757204,55.141402],[-7.757203,55.141671],[-7.756262,55.141669],[-7.75626,55.141939],[-7.75579,55.141938],[-7.755788,55.142207],[-7.755785,55.142747],[-7.755314,55.142746],[-7.755309,55.143554],[-7.75578,55.143555],[-7.755776,55.144094],[-7.755775,55.144364],[-7.754363,55.144361],[-7.754365,55.144091],[-7.753894,55.14409],[-7.753897,55.143551],[-7.753902,55.142743],[-7.753906,55.142204],[-7.753435,55.142203],[-7.753437,55.141933],[-7.753907,55.141934],[-7.753909,55.141665],[-7.753911,55.141395],[-7.756734,55.141401],[-7.756737,55.140862],[-7.756267,55.140861],[-7.756272,55.140052],[-7.755801,55.140051],[-7.755803,55.139782],[-7.755332,55.139781],[-7.755334,55.139511],[-7.755335,55.139242],[-7.754865,55.139241],[-7.754863,55.13951],[-7.754862,55.13978],[-7.753921,55.139778],[-7.753922,55.139508],[-7.753452,55.139507],[-7.753453,55.139238],[-7.753455,55.138968],[-7.752514,55.138967],[-7.752512,55.139236],[-7.752042,55.139235],[-7.75204,55.139505],[-7.750629,55.139502],[-7.750627,55.139771],[-7.750625,55.140041],[-7.750624,55.14031],[-7.749683,55.140308],[-7.749681,55.140578],[-7.746387,55.140571],[-7.746389,55.140339]],[[-7.760508,55.139791],[-7.760509,55.139522],[-7.76098,55.139522],[-7.760978,55.139792],[-7.760508,55.139791]],[[-7.756212,55.142156],[-7.75778,55.142159],[-7.757779,55.142211],[-7.758141,55.142212],[-7.758139,55.142482],[-7.758137,55.142751],[-7.757776,55.14275],[-7.757775,55.14302],[-7.758136,55.143021],[-7.758131,55.143829],[-7.75766,55.143828],[-7.757665,55.143057],[-7.756206,55.143054],[-7.756212,55.142156]],[[-7.75813,55.143956],[-7.758131,55.143829],[-7.758601,55.14383],[-7.758601,55.143957],[-7.759337,55.143958],[-7.759332,55.144857],[-7.757763,55.144853],[-7.757769,55.143955],[-7.75813,55.143956]],[[-7.758595,55.144908],[-7.759065,55.144909],[-7.759062,55.145448],[-7.758592,55.145447],[-7.758595,55.144908]],[[-7.754822,55.146248],[-7.755293,55.146249],[-7.755291,55.146519],[-7.75482,55.146518],[-7.754822,55.146248]],[[-7.754809,55.148405],[-7.754338,55.148404],[-7.754337,55.148673],[-7.753866,55.148672],[-7.753868,55.148403],[-7.753397,55.148402],[-7.753402,55.147593],[-7.753873,55.147594],[-7.753876,55.147055],[-7.754817,55.147057],[-7.754814,55.147596],[-7.754809,55.148405]],[[-7.749671,55.142195],[-7.7492,55.142194],[-7.749202,55.141925],[-7.749204,55.141655],[-7.749674,55.141656],[-7.749676,55.141386],[-7.750146,55.141387],[-7.750145,55.141657],[-7.750143,55.141926],[-7.749673,55.141926],[-7.749671,55.142195]],[[-7.74873,55.142193],[-7.7492,55.142194],[-7.749199,55.142464],[-7.748728,55.142463],[-7.74873,55.142193]],[[-7.745908,55.141918],[-7.745438,55.141917],[-7.745439,55.141647],[-7.74591,55.141648],[-7.745908,55.141918]],[[-7.744967,55.141916],[-7.745438,55.141917],[-7.745436,55.142186],[-7.744965,55.142185],[-7.744967,55.141916]]],[[[-7.74682,55.139442],[-7.74682,55.139494],[-7.747806,55.139496],[-7.747806,55.139444],[-7.74682,55.139442]]],[[[-7.748393,55.138689],[-7.748389,55.139228],[-7.748748,55.139228],[-7.74875,55.138959],[-7.749221,55.13896],[-7.749222,55.13869],[-7.748393,55.138689]]],[[[-7.748399,55.137649],[-7.748398,55.13788],[-7.749227,55.137882],[-7.749229,55.137612],[-7.7497,55.137613],[-7.749701,55.137344],[-7.749703,55.137074],[-7.749232,55.137073],[-7.749234,55.136804],[-7.747823,55.136801],[-7.747821,55.13707],[-7.74641,55.137067],[-7.746408,55.137337],[-7.745467,55.137335],[-7.745469,55.137065],[-7.744998,55.137064],[-7.745,55.136795],[-7.746882,55.136799],[-7.746882,55.136747],[-7.746837,55.136747],[-7.746843,55.135849],[-7.748411,55.135852],[-7.748416,55.134954],[-7.746893,55.134951],[-7.746892,55.135182],[-7.746889,55.135721],[-7.745948,55.135719],[-7.745946,55.135988],[-7.745274,55.135987],[-7.745269,55.136744],[-7.744059,55.136741],[-7.744059,55.136793],[-7.744057,55.137062],[-7.744528,55.137063],[-7.744526,55.137333],[-7.744055,55.137332],[-7.744054,55.137601],[-7.743696,55.137601],[-7.743691,55.138409],[-7.744519,55.138411],[-7.744521,55.138141],[-7.74526,55.138143],[-7.745263,55.137642],[-7.745935,55.137644],[-7.745936,55.137605],[-7.747818,55.137609],[-7.747817,55.137647],[-7.748399,55.137649]]],[[[-7.743699,55.137062],[-7.743697,55.137331],[-7.744055,55.137332],[-7.744057,55.137062],[-7.743699,55.137062]]],[[[-7.74924,55.135854],[-7.748411,55.135852],[-7.748406,55.136532],[-7.748765,55.136533],[-7.748767,55.136264],[-7.749238,55.136265],[-7.74924,55.135854]]],[[[-7.75312,55.134925],[-7.753117,55.135464],[-7.753477,55.135465],[-7.753475,55.135734],[-7.753472,55.136273],[-7.753942,55.136274],[-7.753941,55.136544],[-7.754411,55.136545],[-7.754414,55.136006],[-7.753944,55.136005],[-7.753946,55.135735],[-7.753947,55.135466],[-7.754418,55.135467],[-7.754416,55.135736],[-7.754886,55.135737],[-7.754888,55.135467],[-7.755257,55.135468],[-7.755256,55.135463],[-7.755229,55.135199],[-7.75489,55.135198],[-7.754891,55.134928],[-7.754893,55.134659],[-7.754423,55.134658],[-7.754421,55.134927],[-7.75312,55.134925]]],[[[-7.745292,55.133151],[-7.745494,55.133151],[-7.745496,55.132754],[-7.745311,55.13278],[-7.74515,55.132811],[-7.745061,55.132811],[-7.744772,55.132795],[-7.744383,55.132785],[-7.744068,55.132778],[-7.743723,55.133302],[-7.743719,55.134046],[-7.745017,55.134049],[-7.745019,55.13383],[-7.74502,55.133561],[-7.745289,55.133561],[-7.745292,55.133151]]],[[[-7.746052,55.132688],[-7.745967,55.132697],[-7.745966,55.132754],[-7.747848,55.132758],[-7.74785,55.132488],[-7.747379,55.132487],[-7.74738,55.132459],[-7.747337,55.132468],[-7.747152,55.132524],[-7.746955,55.13257],[-7.746801,55.132607],[-7.746564,55.132633],[-7.74634,55.13266],[-7.746052,55.132688]]],[[[-7.748325,55.132171],[-7.748322,55.132172],[-7.748322,55.13222],[-7.749263,55.132222],[-7.749261,55.132491],[-7.750202,55.132493],[-7.7502,55.132763],[-7.751141,55.132765],[-7.751138,55.133304],[-7.751608,55.133305],[-7.751607,55.133574],[-7.752077,55.133575],[-7.752075,55.133845],[-7.753016,55.133847],[-7.753018,55.133577],[-7.753488,55.133578],[-7.75349,55.133308],[-7.753892,55.133309],[-7.753716,55.133099],[-7.753687,55.13305],[-7.753441,55.133005],[-7.75261,55.132838],[-7.752195,55.132746],[-7.751087,55.132541],[-7.750775,55.132472],[-7.750311,55.132377],[-7.749908,55.132295],[-7.749679,55.132203],[-7.749355,55.132141],[-7.749089,55.132086],[-7.748823,55.132034],[-7.748662,55.132074],[-7.748537,55.132112],[-7.748363,55.132164],[-7.748325,55.132171]]],[[[-7.751998,55.148432],[-7.752134,55.148399],[-7.751985,55.148399],[-7.751985,55.148435],[-7.751987,55.148435],[-7.751998,55.148432]]],[[[-7.749905,55.147532],[-7.7499,55.148395],[-7.751515,55.148398],[-7.751516,55.148128],[-7.751046,55.148127],[-7.751047,55.147858],[-7.751049,55.147588],[-7.750578,55.147587],[-7.750583,55.146779],[-7.750113,55.146778],[-7.750114,55.146508],[-7.749644,55.146507],[-7.749646,55.146238],[-7.749175,55.146237],[-7.749173,55.146506],[-7.748703,55.146506],[-7.748704,55.146236],[-7.748234,55.146235],[-7.748236,55.145965],[-7.747765,55.145965],[-7.747766,55.145731],[-7.747296,55.14573],[-7.747293,55.146233],[-7.747291,55.146503],[-7.74682,55.146502],[-7.74682,55.146628],[-7.748343,55.146631],[-7.74834,55.147044],[-7.74917,55.147046],[-7.749168,55.147315],[-7.749167,55.147531],[-7.749905,55.147532]]],[[[-7.746777,55.146232],[-7.746775,55.146502],[-7.74682,55.146502],[-7.746822,55.146232],[-7.746777,55.146232]]],[[[-7.742093,55.143025],[-7.742096,55.142449],[-7.740729,55.142446],[-7.740727,55.142715],[-7.740527,55.142715],[-7.740525,55.143022],[-7.742093,55.143025]]],[[[-7.743684,55.139435],[-7.743682,55.139757],[-7.74404,55.139758],[-7.744042,55.139488],[-7.744512,55.139489],[-7.744513,55.139437],[-7.743684,55.139435]]],[[[-7.742057,55.135806],[-7.742034,55.135839],[-7.742139,55.135839],[-7.74214,55.135683],[-7.742057,55.135806]]],[[[-7.742122,55.138534],[-7.741695,55.138533],[-7.741694,55.138675],[-7.742121,55.138675],[-7.742122,55.138534]]],[[[-7.740523,55.143254],[-7.740525,55.143022],[-7.738956,55.143018],[-7.738953,55.14352],[-7.739781,55.143522],[-7.739783,55.143252],[-7.740523,55.143254]]],[[[-7.746786,55.144831],[-7.745218,55.144828],[-7.745222,55.144073],[-7.744953,55.144072],[-7.744952,55.144341],[-7.744481,55.144341],[-7.744479,55.14461],[-7.743538,55.144608],[-7.743537,55.144878],[-7.743535,55.145147],[-7.743064,55.145146],[-7.743061,55.145722],[-7.743644,55.145723],[-7.744002,55.145724],[-7.744002,55.145687],[-7.745414,55.14569],[-7.745415,55.145421],[-7.745886,55.145422],[-7.745888,55.145152],[-7.746784,55.145154],[-7.746786,55.144831]]],[[[-7.740505,55.146048],[-7.740506,55.145949],[-7.740236,55.145949],[-7.740235,55.146005],[-7.740362,55.146024],[-7.740505,55.146048]]],[[[-7.739772,55.144816],[-7.739302,55.144815],[-7.739301,55.144869],[-7.739772,55.14487],[-7.739772,55.144816]]],[[[-7.741655,55.14482],[-7.741184,55.144819],[-7.741184,55.144873],[-7.741654,55.144874],[-7.741655,55.14482]]],[[[-7.742084,55.144335],[-7.742083,55.144605],[-7.742127,55.144605],[-7.742128,55.144336],[-7.742084,55.144335]]],[[[-7.742093,55.143025],[-7.742088,55.143796],[-7.742132,55.143796],[-7.742134,55.143527],[-7.743658,55.14353],[-7.743661,55.143028],[-7.742093,55.143025]]],[[[-7.752517,55.138427],[-7.752516,55.138697],[-7.753457,55.138699],[-7.75346,55.13816],[-7.753462,55.13789],[-7.752991,55.137889],[-7.75299,55.138159],[-7.752519,55.138158],[-7.752517,55.138427]]],[[[-7.750175,55.136806],[-7.750646,55.136806],[-7.750647,55.136537],[-7.750177,55.136536],[-7.750175,55.136806]]],[[[-7.75488,55.136815],[-7.754409,55.136814],[-7.754408,55.137084],[-7.754878,55.137085],[-7.75488,55.136815]]],[[[-7.75347,55.136543],[-7.753,55.136542],[-7.753001,55.136272],[-7.752531,55.136271],[-7.752529,55.136541],[-7.752527,55.13681],[-7.753468,55.136812],[-7.75347,55.136543]]],[[[-7.751583,55.137347],[-7.751113,55.137346],[-7.751111,55.137616],[-7.751581,55.137617],[-7.751583,55.137347]]],[[[-7.751587,55.136808],[-7.751585,55.137078],[-7.752055,55.137079],[-7.752057,55.136809],[-7.751587,55.136808]]]]}}]}
