{"type":"FeatureCollection","features":[{"type":"Feature","properties":{"source_fid":591177,"county":"Donegal","bog_geom_ha":246.82795394021338,"low15_pct":50.780966218670542,"low15_ha":125.34161990861544,"overlay_ha":126.01691270566397,"area_delta":0.6752927970485274},"geometry":{"type":"MultiPolygon","coordinates":[[[[-7.281491,55.154122],[-7.281628,55.154148],[-7.281698,55.154162],[-7.281864,55.154192],[-7.281903,55.1542],[-7.282019,55.154144],[-7.282211,55.154052],[-7.282244,55.154037],[-7.282576,55.153886],[-7.282724,55.153794],[-7.282802,55.153746],[-7.282935,55.153743],[-7.282931,55.153728],[-7.282957,55.153704],[-7.282959,55.153694],[-7.282981,55.153678],[-7.283038,55.153666],[-7.283078,55.153664],[-7.283094,55.15366],[-7.283177,55.153654],[-7.283251,55.153659],[-7.283438,55.153653],[-7.28353,55.153647],[-7.283498,55.153575],[-7.283498,55.153557],[-7.283573,55.153496],[-7.283704,55.153396],[-7.283729,55.153388],[-7.283738,55.153383],[-7.283996,55.153314],[-7.284274,55.153261],[-7.284301,55.153252],[-7.284298,55.153211],[-7.284292,55.153194],[-7.284164,55.153141],[-7.284048,55.153106],[-7.283979,55.153077],[-7.283941,55.153055],[-7.283839,55.152931],[-7.283683,55.152745],[-7.283661,55.152679],[-7.283701,55.152627],[-7.283797,55.152586],[-7.283902,55.152574],[-7.284204,55.152594],[-7.284351,55.152564],[-7.284734,55.152485],[-7.284864,55.152479],[-7.285063,55.152576],[-7.285178,55.152565],[-7.285123,55.15233],[-7.285116,55.152306],[-7.285134,55.152289],[-7.285502,55.152215],[-7.285797,55.152178],[-7.285827,55.152175],[-7.28588,55.152191],[-7.286175,55.15238],[-7.286495,55.152511],[-7.286823,55.15262],[-7.286937,55.152634],[-7.287152,55.152636],[-7.287406,55.152592],[-7.287524,55.152552],[-7.287616,55.152498],[-7.287672,55.152415],[-7.28777,55.152216],[-7.287797,55.15209],[-7.287901,55.152035],[-7.28812,55.151986],[-7.28825,55.151952],[-7.288439,55.151917],[-7.288641,55.151907],[-7.288724,55.151902],[-7.289051,55.151718],[-7.2895,55.151511],[-7.289718,55.151416],[-7.289843,55.151291],[-7.289885,55.15121],[-7.28992,55.151093],[-7.289969,55.15105],[-7.290136,55.151004],[-7.290258,55.150991],[-7.290312,55.150968],[-7.290327,55.150962],[-7.290568,55.150729],[-7.290714,55.1507],[-7.291085,55.150688],[-7.291106,55.150673],[-7.291148,55.150686],[-7.291297,55.150681],[-7.291637,55.150688],[-7.291691,55.150686],[-7.291913,55.15067],[-7.292185,55.150665],[-7.292231,55.150676],[-7.292263,55.150695],[-7.292272,55.150735],[-7.292272,55.150792],[-7.292299,55.15084],[-7.292437,55.150997],[-7.292544,55.15116],[-7.292564,55.151208],[-7.292579,55.151228],[-7.292744,55.151318],[-7.292845,55.151348],[-7.293095,55.151395],[-7.293229,55.151432],[-7.293347,55.151489],[-7.293777,55.151658],[-7.293855,55.151713],[-7.293875,55.151697],[-7.294013,55.151636],[-7.294375,55.151476],[-7.294404,55.151306],[-7.29446,55.151214],[-7.294842,55.151093],[-7.294868,55.150936],[-7.29484,55.1509],[-7.294811,55.150865],[-7.294793,55.150814],[-7.294809,55.150767],[-7.294816,55.150755],[-7.294842,55.150705],[-7.294842,55.150705],[-7.294842,55.150705],[-7.294888,55.150619],[-7.294918,55.150561],[-7.294983,55.150484],[-7.295045,55.150448],[-7.295083,55.150435],[-7.295119,55.150423],[-7.295215,55.150409],[-7.295221,55.150408],[-7.295332,55.150395],[-7.295414,55.150377],[-7.29542,55.150375],[-7.295424,55.150374],[-7.2955,55.15035],[-7.295539,55.150331],[-7.295629,55.150288],[-7.295678,55.150255],[-7.295719,55.150209],[-7.295732,55.150193],[-7.295758,55.15016],[-7.295814,55.150106],[-7.295878,55.150077],[-7.296009,55.150053],[-7.296047,55.150037],[-7.296065,55.150017],[-7.296068,55.150013],[-7.296097,55.149902],[-7.296128,55.1498],[-7.296171,55.149737],[-7.296174,55.149734],[-7.296176,55.149729],[-7.296235,55.149614],[-7.296252,55.149562],[-7.296239,55.149493],[-7.296226,55.149459],[-7.29624,55.149441],[-7.296322,55.149428],[-7.296356,55.149421],[-7.296404,55.149412],[-7.296445,55.149391],[-7.296455,55.149344],[-7.29645,55.14932],[-7.296442,55.149287],[-7.296442,55.149287],[-7.2964,55.149214],[-7.296403,55.149174],[-7.29644,55.149113],[-7.296494,55.14908],[-7.296501,55.149076],[-7.296501,55.149076],[-7.296501,55.149076],[-7.296506,55.149073],[-7.29657,55.149044],[-7.296603,55.149008],[-7.296622,55.148987],[-7.296637,55.148958],[-7.29665,55.148931],[-7.296654,55.148904],[-7.296657,55.148891],[-7.296683,55.148877],[-7.296709,55.148862],[-7.296711,55.148858],[-7.296727,55.148818],[-7.296705,55.148762],[-7.296702,55.148753],[-7.296658,55.148705],[-7.296622,55.148567],[-7.296606,55.148535],[-7.296585,55.148489],[-7.296565,55.148458],[-7.296543,55.148425],[-7.296494,55.148364],[-7.296482,55.148289],[-7.296479,55.148268],[-7.296479,55.148255],[-7.296479,55.148201],[-7.296567,55.148039],[-7.296569,55.148035],[-7.296577,55.148027],[-7.296641,55.147949],[-7.296899,55.147771],[-7.296929,55.14775],[-7.297021,55.147689],[-7.297159,55.147598],[-7.297206,55.147548],[-7.29722,55.147532],[-7.297274,55.14744],[-7.297339,55.147326],[-7.297045,55.14716],[-7.296825,55.147036],[-7.296657,55.14695],[-7.295642,55.14643],[-7.295209,55.146197],[-7.294776,55.145964],[-7.294422,55.14578],[-7.294119,55.145622],[-7.293631,55.145368],[-7.292898,55.144989],[-7.292555,55.14483],[-7.292383,55.144758],[-7.292155,55.144663],[-7.291778,55.144527],[-7.291762,55.144521],[-7.291352,55.1444],[-7.290826,55.144282],[-7.290577,55.144188],[-7.29043,55.144091],[-7.290145,55.143902],[-7.289953,55.143812],[-7.28973,55.143706],[-7.28949,55.143611],[-7.289018,55.1436],[-7.288415,55.143606],[-7.287667,55.143624],[-7.287513,55.143623],[-7.287201,55.14362],[-7.286499,55.143568],[-7.286077,55.143538],[-7.285828,55.14352],[-7.285704,55.143513],[-7.285686,55.143512],[-7.285684,55.143594],[-7.286155,55.143596],[-7.28615,55.143866],[-7.286621,55.143869],[-7.286616,55.144138],[-7.286611,55.144408],[-7.286141,55.144405],[-7.286145,55.144135],[-7.285675,55.144133],[-7.28567,55.144402],[-7.285665,55.144672],[-7.286136,55.144674],[-7.286131,55.144944],[-7.286601,55.144947],[-7.286597,55.145216],[-7.287067,55.145219],[-7.287062,55.145488],[-7.287058,55.145758],[-7.287528,55.145761],[-7.287523,55.14603],[-7.287053,55.146027],[-7.28705,55.146193],[-7.287069,55.146182],[-7.287147,55.146138],[-7.287318,55.146223],[-7.287579,55.146363],[-7.287691,55.146417],[-7.287721,55.146431],[-7.287929,55.146543],[-7.287926,55.146545],[-7.287511,55.146744],[-7.287509,55.146839],[-7.287504,55.147108],[-7.287034,55.147105],[-7.287029,55.147375],[-7.287024,55.147644],[-7.286553,55.147642],[-7.286549,55.147911],[-7.286078,55.147908],[-7.286073,55.148178],[-7.286068,55.148447],[-7.285598,55.148445],[-7.285593,55.148714],[-7.285122,55.148711],[-7.285118,55.148981],[-7.284647,55.148978],[-7.284642,55.149248],[-7.283701,55.149242],[-7.283696,55.149512],[-7.283226,55.149509],[-7.283221,55.149778],[-7.28228,55.149773],[-7.282275,55.150042],[-7.280863,55.150034],[-7.280858,55.150303],[-7.277564,55.150284],[-7.277559,55.150554],[-7.277088,55.150551],[-7.277083,55.15082],[-7.276142,55.150815],[-7.276137,55.151084],[-7.273314,55.151067],[-7.273319,55.150798],[-7.272848,55.150795],[-7.272853,55.150526],[-7.272382,55.150523],[-7.272387,55.150253],[-7.271446,55.150248],[-7.271441,55.150517],[-7.270971,55.150514],[-7.270966,55.150784],[-7.267201,55.150761],[-7.267206,55.150492],[-7.267676,55.150495],[-7.267681,55.150225],[-7.268622,55.150231],[-7.268627,55.149961],[-7.269569,55.149967],[-7.269573,55.149697],[-7.270044,55.1497],[-7.270049,55.149431],[-7.270054,55.149161],[-7.269583,55.149158],[-7.269588,55.148889],[-7.270059,55.148892],[-7.270064,55.148622],[-7.270534,55.148625],[-7.270539,55.148355],[-7.270544,55.148086],[-7.269603,55.14808],[-7.269598,55.14835],[-7.269128,55.148347],[-7.269118,55.148886],[-7.268647,55.148883],[-7.268642,55.149153],[-7.268172,55.14915],[-7.268167,55.149419],[-7.267225,55.149414],[-7.267221,55.149683],[-7.26675,55.14968],[-7.266745,55.14995],[-7.266274,55.149947],[-7.266269,55.150217],[-7.265799,55.150214],[-7.265794,55.150483],[-7.264853,55.150478],[-7.264848,55.150747],[-7.263907,55.150741],[-7.263902,55.151011],[-7.263431,55.151008],[-7.263436,55.150739],[-7.263441,55.150469],[-7.261553,55.150458],[-7.261537,55.150586],[-7.261507,55.150886],[-7.26149,55.151542],[-7.261486,55.151874],[-7.261481,55.1523],[-7.261493,55.152519],[-7.261493,55.152519],[-7.261493,55.152519],[-7.26186,55.152511],[-7.26261,55.152496],[-7.26589,55.152458],[-7.266966,55.152461],[-7.269134,55.152467],[-7.270313,55.15245],[-7.270873,55.152443],[-7.271198,55.152447],[-7.272474,55.152466],[-7.272941,55.152537],[-7.273442,55.152613],[-7.273557,55.152612],[-7.273722,55.152611],[-7.274012,55.152645],[-7.274173,55.152664],[-7.274342,55.152713],[-7.274484,55.152754],[-7.275016,55.152894],[-7.275128,55.152915],[-7.275293,55.152945],[-7.275963,55.153097],[-7.276521,55.153194],[-7.276779,55.153277],[-7.277259,55.153443],[-7.277496,55.153528],[-7.277741,55.153605],[-7.277902,55.153631],[-7.278074,55.153639],[-7.278163,55.153633],[-7.278464,55.153635],[-7.278464,55.153635],[-7.278464,55.153635],[-7.278545,55.15365],[-7.278808,55.153702],[-7.278946,55.153725],[-7.279188,55.153767],[-7.279501,55.153857],[-7.279549,55.153859],[-7.279715,55.153866],[-7.279923,55.153883],[-7.280163,55.153903],[-7.280623,55.153994],[-7.280681,55.154003],[-7.280956,55.154044],[-7.281491,55.154122]],[[-7.26673,55.150758],[-7.267201,55.150761],[-7.267196,55.151031],[-7.266725,55.151028],[-7.26673,55.150758]]],[[[-7.261633,55.149647],[-7.261633,55.149649],[-7.262044,55.149652],[-7.262049,55.149382],[-7.26252,55.149385],[-7.262515,55.149655],[-7.262985,55.149658],[-7.26299,55.149388],[-7.263931,55.149394],[-7.263936,55.149124],[-7.263941,55.148855],[-7.264412,55.148858],[-7.264422,55.148319],[-7.263481,55.148313],[-7.263476,55.148583],[-7.26166,55.148572],[-7.261652,55.148734],[-7.261649,55.148974],[-7.261637,55.149393],[-7.261633,55.149647]]],[[[-7.261228,55.144651],[-7.262607,55.144659],[-7.262609,55.144534],[-7.262614,55.144265],[-7.262143,55.144262],[-7.262139,55.144531],[-7.261668,55.144529],[-7.261673,55.144259],[-7.261678,55.14399],[-7.262619,55.143995],[-7.262624,55.143726],[-7.263094,55.143729],[-7.263104,55.14319],[-7.263575,55.143192],[-7.26358,55.142923],[-7.263109,55.14292],[-7.263114,55.142651],[-7.261703,55.142642],[-7.261698,55.142912],[-7.260757,55.142906],[-7.260752,55.143175],[-7.260217,55.143172],[-7.260303,55.143299],[-7.260501,55.143591],[-7.260714,55.143893],[-7.260954,55.144249],[-7.261176,55.144571],[-7.261228,55.144651]]],[[[-7.259777,55.142478],[-7.259822,55.14255],[-7.259826,55.142361],[-7.259701,55.14236],[-7.259777,55.142478]]],[[[-7.259238,55.141608],[-7.259359,55.141819],[-7.259836,55.141822],[-7.259841,55.141553],[-7.259846,55.141283],[-7.259375,55.14128],[-7.25937,55.14155],[-7.259206,55.141549],[-7.259238,55.141608]]],[[[-7.259182,55.14087],[-7.259135,55.141009],[-7.25938,55.141011],[-7.259385,55.140741],[-7.260326,55.140747],[-7.260331,55.140477],[-7.259343,55.140471],[-7.259261,55.140655],[-7.259182,55.14087]]],[[[-7.260629,55.138378],[-7.259928,55.139127],[-7.26412,55.139153],[-7.264115,55.139422],[-7.265526,55.139431],[-7.265521,55.1397],[-7.266462,55.139706],[-7.266457,55.139975],[-7.266928,55.139978],[-7.266924,55.140194],[-7.26855,55.140203],[-7.268544,55.140527],[-7.269741,55.140534],[-7.269736,55.140804],[-7.271147,55.140812],[-7.271142,55.141082],[-7.272554,55.14109],[-7.272553,55.141126],[-7.272798,55.141127],[-7.272766,55.1411],[-7.272722,55.141019],[-7.272653,55.140996],[-7.272575,55.140982],[-7.272438,55.140956],[-7.272149,55.140928],[-7.272015,55.140869],[-7.271926,55.14085],[-7.27176,55.140824],[-7.27153,55.14074],[-7.271368,55.140701],[-7.271266,55.140736],[-7.271204,55.140699],[-7.271147,55.140633],[-7.271032,55.140604],[-7.270947,55.14061],[-7.270771,55.140703],[-7.270628,55.140703],[-7.270571,55.140682],[-7.270517,55.14061],[-7.2704,55.140573],[-7.270252,55.140531],[-7.270047,55.140482],[-7.269925,55.140437],[-7.269813,55.140462],[-7.269516,55.140379],[-7.269431,55.140356],[-7.269246,55.140327],[-7.269159,55.140354],[-7.269032,55.140366],[-7.26894,55.140348],[-7.268889,55.140311],[-7.268791,55.140265],[-7.268753,55.140236],[-7.26865,55.140205],[-7.268514,55.140182],[-7.268472,55.140155],[-7.268093,55.139987],[-7.267908,55.139935],[-7.267714,55.139929],[-7.267658,55.139908],[-7.26759,55.1399],[-7.26755,55.139908],[-7.26751,55.139964],[-7.26746,55.139966],[-7.267417,55.139936],[-7.26739,55.139892],[-7.267348,55.139803],[-7.267287,55.139785],[-7.267226,55.139778],[-7.267161,55.139796],[-7.267084,55.139805],[-7.267018,55.13981],[-7.266965,55.139802],[-7.26695,55.139775],[-7.26694,55.139723],[-7.2669,55.139704],[-7.26684,55.139703],[-7.266768,55.139715],[-7.266723,55.13973],[-7.266648,55.139717],[-7.266463,55.139668],[-7.266425,55.139644],[-7.266395,55.139612],[-7.266382,55.139577],[-7.266414,55.139533],[-7.26641,55.139495],[-7.266307,55.139446],[-7.26616,55.139403],[-7.266108,55.139408],[-7.266048,55.139434],[-7.265961,55.139437],[-7.265927,55.139423],[-7.265884,55.139381],[-7.265891,55.139347],[-7.265968,55.139241],[-7.265983,55.139203],[-7.265954,55.139141],[-7.265897,55.139118],[-7.265809,55.139104],[-7.265734,55.139106],[-7.265656,55.139113],[-7.265631,55.13908],[-7.26563,55.138952],[-7.265654,55.138897],[-7.265668,55.138866],[-7.265606,55.138789],[-7.265492,55.138738],[-7.265454,55.138707],[-7.265354,55.138598],[-7.265194,55.138465],[-7.265057,55.138418],[-7.264832,55.13827],[-7.264691,55.138186],[-7.264547,55.138119],[-7.264423,55.138061],[-7.264315,55.137985],[-7.264231,55.137897],[-7.264122,55.13777],[-7.263916,55.137588],[-7.263818,55.137553],[-7.263672,55.137456],[-7.263594,55.137407],[-7.263513,55.137419],[-7.263404,55.137278],[-7.263397,55.137223],[-7.263431,55.13717],[-7.263428,55.137133],[-7.263368,55.137035],[-7.263247,55.136933],[-7.263209,55.136901],[-7.263142,55.136885],[-7.263085,55.136889],[-7.263037,55.136908],[-7.262943,55.136885],[-7.262731,55.136878],[-7.262641,55.136863],[-7.262551,55.136867],[-7.262211,55.136791],[-7.262057,55.136762],[-7.261894,55.136713],[-7.261912,55.136874],[-7.261905,55.137008],[-7.261891,55.137096],[-7.26187,55.137148],[-7.261687,55.13733],[-7.261298,55.137703],[-7.261063,55.137942],[-7.260786,55.13822],[-7.260629,55.138378]]],[[[-7.273238,55.14113],[-7.273233,55.141364],[-7.27349,55.141365],[-7.273485,55.141635],[-7.274674,55.141642],[-7.274666,55.141631],[-7.274669,55.141604],[-7.274721,55.141555],[-7.274724,55.141526],[-7.274684,55.141498],[-7.274636,55.141477],[-7.274544,55.141463],[-7.274365,55.14145],[-7.274266,55.141435],[-7.274164,55.141412],[-7.274059,55.141412],[-7.273982,55.141406],[-7.27387,55.141356],[-7.273839,55.141334],[-7.273836,55.141332],[-7.273822,55.141322],[-7.273784,55.141296],[-7.273735,55.141255],[-7.273716,55.141246],[-7.27371,55.141242],[-7.273699,55.141236],[-7.273682,55.141228],[-7.27365,55.141224],[-7.273627,55.141235],[-7.273547,55.141274],[-7.273488,55.14128],[-7.273443,55.141276],[-7.273392,55.141257],[-7.2733,55.141173],[-7.273252,55.141132],[-7.273189,55.141109],[-7.273041,55.141081],[-7.272955,55.141054],[-7.272927,55.141051],[-7.272894,55.141056],[-7.272881,55.141073],[-7.272844,55.141127],[-7.273238,55.14113]]],[[[-7.275016,55.14166],[-7.274896,55.141669],[-7.274892,55.141913],[-7.276303,55.141921],[-7.276298,55.14219],[-7.277239,55.142196],[-7.277242,55.142072],[-7.277141,55.142107],[-7.276986,55.14215],[-7.276952,55.142152],[-7.276873,55.142158],[-7.276862,55.142155],[-7.276799,55.14214],[-7.276733,55.142102],[-7.27665,55.142048],[-7.276601,55.142011],[-7.276448,55.141968],[-7.276389,55.141926],[-7.276367,55.141901],[-7.276219,55.141852],[-7.276129,55.141817],[-7.276078,55.141752],[-7.275889,55.141738],[-7.275702,55.141721],[-7.275594,55.141711],[-7.275449,55.141696],[-7.275395,55.14161],[-7.275316,55.141548],[-7.275231,55.141502],[-7.275165,55.141454],[-7.275106,55.141428],[-7.275015,55.141402],[-7.274988,55.141387],[-7.274965,55.141391],[-7.274956,55.141414],[-7.274992,55.141453],[-7.275064,55.141483],[-7.275072,55.141497],[-7.275061,55.141526],[-7.275114,55.141557],[-7.275103,55.141603],[-7.275016,55.14166]]],[[[-7.277457,55.141858],[-7.277426,55.141928],[-7.278185,55.141932],[-7.27819,55.141663],[-7.277734,55.14166],[-7.277731,55.14166],[-7.277621,55.141686],[-7.277537,55.141712],[-7.277499,55.141756],[-7.277457,55.141858]]],[[[-7.279186,55.141271],[-7.279138,55.141276],[-7.279136,55.141399],[-7.281018,55.14141],[-7.281013,55.141679],[-7.282425,55.141688],[-7.28242,55.141957],[-7.283361,55.141963],[-7.283363,55.141833],[-7.283116,55.141805],[-7.283082,55.141796],[-7.282985,55.141771],[-7.282907,55.14171],[-7.2828,55.141672],[-7.282747,55.141654],[-7.282674,55.141621],[-7.282581,55.141527],[-7.282553,55.141506],[-7.282521,55.141483],[-7.282531,55.14146],[-7.282532,55.141458],[-7.282514,55.141419],[-7.282429,55.141418],[-7.282431,55.141308],[-7.282422,55.141297],[-7.282402,55.141274],[-7.282402,55.141274],[-7.282402,55.141274],[-7.282398,55.141259],[-7.282387,55.14122],[-7.282387,55.14122],[-7.28216,55.141209],[-7.282103,55.141205],[-7.281986,55.141217],[-7.281893,55.141242],[-7.281873,55.141254],[-7.281867,55.141285],[-7.281816,55.141306],[-7.281605,55.141333],[-7.281414,55.141287],[-7.281278,55.141249],[-7.281206,55.141248],[-7.281054,55.141257],[-7.28099,55.141274],[-7.280813,55.141284],[-7.280533,55.141217],[-7.280316,55.141153],[-7.280201,55.141135],[-7.280166,55.141135],[-7.280108,55.141187],[-7.28007,55.141199],[-7.28002,55.14126],[-7.279931,55.141283],[-7.279894,55.141316],[-7.279796,55.141312],[-7.279744,55.14128],[-7.279699,55.141271],[-7.279618,55.141263],[-7.279564,55.141259],[-7.279511,55.141271],[-7.279442,55.141302],[-7.279299,55.141285],[-7.279186,55.141271]]],[[[-7.283787,55.142156],[-7.283828,55.142142],[-7.283831,55.141965],[-7.283361,55.141963],[-7.283356,55.142232],[-7.283351,55.142502],[-7.283822,55.142504],[-7.283823,55.142422],[-7.283765,55.142349],[-7.28364,55.142286],[-7.283635,55.142245],[-7.283635,55.142245],[-7.283657,55.142226],[-7.283678,55.142207],[-7.283719,55.142167],[-7.283719,55.142167],[-7.283719,55.142167],[-7.283787,55.142156]]],[[[-7.284021,55.14266],[-7.28389,55.142505],[-7.283822,55.142504],[-7.283817,55.142774],[-7.283812,55.143043],[-7.284232,55.143046],[-7.284209,55.142968],[-7.284128,55.142917],[-7.284101,55.142896],[-7.284075,55.142877],[-7.284056,55.142855],[-7.284031,55.142824],[-7.284037,55.142767],[-7.284043,55.142706],[-7.284021,55.14266]]],[[[-7.284283,55.143111],[-7.284281,55.143109],[-7.284278,55.143316],[-7.284638,55.143318],[-7.284626,55.1433],[-7.284549,55.143275],[-7.284549,55.143275],[-7.284549,55.143275],[-7.284437,55.143181],[-7.284384,55.143173],[-7.284338,55.143166],[-7.284314,55.143142],[-7.284283,55.143111]]],[[[-7.284747,55.143402],[-7.284747,55.143402],[-7.284743,55.143588],[-7.284739,55.143858],[-7.285209,55.14386],[-7.285214,55.143591],[-7.285215,55.143508],[-7.285082,55.143518],[-7.285026,55.143528],[-7.28498,55.143537],[-7.284964,55.143531],[-7.284914,55.143511],[-7.284914,55.143511],[-7.284914,55.143511],[-7.28489,55.143496],[-7.284747,55.143402]]],[[[-7.276292,55.145639],[-7.274724,55.14563],[-7.274747,55.144338],[-7.272966,55.144327],[-7.272971,55.144057],[-7.27203,55.144052],[-7.272025,55.144321],[-7.27202,55.144591],[-7.271079,55.144585],[-7.271084,55.144316],[-7.269672,55.144307],[-7.269667,55.144577],[-7.268726,55.144571],[-7.268731,55.144302],[-7.268736,55.144032],[-7.269206,55.144035],[-7.269211,55.143765],[-7.270152,55.143771],[-7.270157,55.143502],[-7.269687,55.143499],[-7.269692,55.143229],[-7.269221,55.143226],[-7.269216,55.143496],[-7.268275,55.14349],[-7.26828,55.143221],[-7.268285,55.142951],[-7.266403,55.14294],[-7.266408,55.14267],[-7.265467,55.142665],[-7.265462,55.142934],[-7.265457,55.143204],[-7.265447,55.143743],[-7.265918,55.143746],[-7.265913,55.144015],[-7.264972,55.144009],[-7.264967,55.144279],[-7.264962,55.144548],[-7.264491,55.144546],[-7.264481,55.145085],[-7.264476,55.145354],[-7.264947,55.145357],[-7.264932,55.146165],[-7.265403,55.146168],[-7.265407,55.145899],[-7.268701,55.145919],[-7.268706,55.145649],[-7.270588,55.14566],[-7.270593,55.145391],[-7.271064,55.145394],[-7.271069,55.145124],[-7.27201,55.14513],[-7.272005,55.145399],[-7.272476,55.145402],[-7.272471,55.145672],[-7.273412,55.145677],[-7.273417,55.145408],[-7.274358,55.145413],[-7.274353,55.145683],[-7.273882,55.14568],[-7.273877,55.14595],[-7.274818,55.145955],[-7.274814,55.146225],[-7.275755,55.14623],[-7.27575,55.1465],[-7.277161,55.146508],[-7.277166,55.146239],[-7.278578,55.146247],[-7.278573,55.146517],[-7.279044,55.146519],[-7.279053,55.14598],[-7.279058,55.145711],[-7.278588,55.145708],[-7.278593,55.145438],[-7.278122,55.145436],[-7.278117,55.145705],[-7.277176,55.1457],[-7.277181,55.14543],[-7.277186,55.145161],[-7.277191,55.144891],[-7.276306,55.144886],[-7.276292,55.145639]]],[[[-7.285204,55.14413],[-7.285675,55.144133],[-7.28568,55.143863],[-7.285209,55.14386],[-7.285204,55.14413]]],[[[-7.279131,55.141668],[-7.279136,55.141399],[-7.278665,55.141396],[-7.278661,55.141665],[-7.279131,55.141668]]],[[[-7.270995,55.149167],[-7.271936,55.149172],[-7.271941,55.148903],[-7.271946,55.148633],[-7.271005,55.148628],[-7.271,55.148897],[-7.270995,55.149167]]],[[[-7.273373,55.147833],[-7.273843,55.147836],[-7.273848,55.147567],[-7.273858,55.147028],[-7.273387,55.147025],[-7.273392,55.146755],[-7.272922,55.146752],[-7.272917,55.147022],[-7.272446,55.147019],[-7.272441,55.147289],[-7.271971,55.147286],[-7.271966,55.147555],[-7.273377,55.147564],[-7.273373,55.147833]]],[[[-7.274789,55.147572],[-7.274794,55.147303],[-7.275265,55.147305],[-7.275269,55.147036],[-7.274328,55.14703],[-7.274319,55.147569],[-7.274789,55.147572]]]]}}]}
