{"type":"FeatureCollection","features":[{"type":"Feature","properties":{"source_fid":592873,"county":"Donegal","bog_geom_ha":136.37334411132335,"low15_pct":92.475247524752476,"low15_ha":126.11158752472872,"overlay_ha":125.7493847090323,"area_delta":-0.36220281569642054},"geometry":{"type":"MultiPolygon","coordinates":[[[[-7.912559,54.559299],[-7.912611,54.559299],[-7.91273,54.5593],[-7.912733,54.558058],[-7.912343,54.558058],[-7.912344,54.557788],[-7.91188,54.557788],[-7.91188,54.557518],[-7.911882,54.556979],[-7.911189,54.556979],[-7.911186,54.558326],[-7.911879,54.558327],[-7.911878,54.558596],[-7.911877,54.558866],[-7.91095,54.558865],[-7.910949,54.559135],[-7.909558,54.559134],[-7.909558,54.558864],[-7.910022,54.558865],[-7.910023,54.558595],[-7.91095,54.558596],[-7.910951,54.55849],[-7.90964,54.558489],[-7.909644,54.556692],[-7.908172,54.556691],[-7.908172,54.556707],[-7.907708,54.556706],[-7.907707,54.556976],[-7.907244,54.556976],[-7.907244,54.556706],[-7.906781,54.556706],[-7.906781,54.55669],[-7.906553,54.55669],[-7.906555,54.555791],[-7.910957,54.555795],[-7.910957,54.555631],[-7.909566,54.55563],[-7.909566,54.55536],[-7.909102,54.55536],[-7.909103,54.55509],[-7.908176,54.555089],[-7.908176,54.55482],[-7.907712,54.55482],[-7.907713,54.55455],[-7.907249,54.55455],[-7.90725,54.55428],[-7.906559,54.55428],[-7.906557,54.554893],[-7.905012,54.554892],[-7.905014,54.553994],[-7.903541,54.553992],[-7.90354,54.554008],[-7.904004,54.554008],[-7.904004,54.554278],[-7.904467,54.554278],[-7.904466,54.554817],[-7.904465,54.555087],[-7.904465,54.555356],[-7.904001,54.555356],[-7.904002,54.555086],[-7.903736,54.555086],[-7.903759,54.555119],[-7.903836,54.555214],[-7.904052,54.555503],[-7.904314,54.55582],[-7.904455,54.556039],[-7.904482,54.556109],[-7.904473,54.556235],[-7.904473,54.556247],[-7.90448,54.556686],[-7.904506,54.556753],[-7.904621,54.5569],[-7.904866,54.557219],[-7.904946,54.557323],[-7.905084,54.557492],[-7.905214,54.557646],[-7.905193,54.557876],[-7.905171,54.55808],[-7.905135,54.558272],[-7.90511,54.558448],[-7.905109,54.55867],[-7.905058,54.559091],[-7.905035,54.559331],[-7.905064,54.559386],[-7.905112,54.559431],[-7.905188,54.559494],[-7.9053,54.559568],[-7.905449,54.559644],[-7.905614,54.559718],[-7.90574,54.559757],[-7.905928,54.559801],[-7.906283,54.55985],[-7.90685,54.559881],[-7.907216,54.559891],[-7.907502,54.559862],[-7.907596,54.559874],[-7.908005,54.559952],[-7.908231,54.559996],[-7.908819,54.560106],[-7.908887,54.560122],[-7.909349,54.56021],[-7.909965,54.560329],[-7.910181,54.560363],[-7.910885,54.560494],[-7.911775,54.560672],[-7.912805,54.560861],[-7.913548,54.560996],[-7.913804,54.560984],[-7.913851,54.560941],[-7.913867,54.560905],[-7.913883,54.560882],[-7.913937,54.560858],[-7.913946,54.560808],[-7.913888,54.560759],[-7.91378,54.56072],[-7.913726,54.560688],[-7.913844,54.560629],[-7.913923,54.560609],[-7.913964,54.56059],[-7.914033,54.560579],[-7.914144,54.560567],[-7.914242,54.560545],[-7.914304,54.560537],[-7.914342,54.560537],[-7.914388,54.560519],[-7.914389,54.560489],[-7.914426,54.560477],[-7.914457,54.56046],[-7.9145,54.560459],[-7.914542,54.560459],[-7.914557,54.560494],[-7.914591,54.560529],[-7.914644,54.560572],[-7.914736,54.560631],[-7.914793,54.560632],[-7.91488,54.560632],[-7.915017,54.560645],[-7.915088,54.560646],[-7.91516,54.560641],[-7.915198,54.560617],[-7.915203,54.560543],[-7.915219,54.560501],[-7.915179,54.560434],[-7.915145,54.56037],[-7.915079,54.560323],[-7.915006,54.560285],[-7.914832,54.560253],[-7.914751,54.560252],[-7.914641,54.560251],[-7.914546,54.560272],[-7.914488,54.560271],[-7.914407,54.560245],[-7.914356,54.560216],[-7.91426,54.560169],[-7.914217,54.560162],[-7.91412,54.560148],[-7.914023,54.560131],[-7.91396,54.560129],[-7.913883,54.560128],[-7.913821,54.560115],[-7.913775,54.560096],[-7.913653,54.560072],[-7.913546,54.560053],[-7.913424,54.560037],[-7.913281,54.559965],[-7.913225,54.559934],[-7.913134,54.559894],[-7.913053,54.559859],[-7.912963,54.559823],[-7.912863,54.559795],[-7.912809,54.55979],[-7.912758,54.559784],[-7.912694,54.55976],[-7.912543,54.559757],[-7.912394,54.559761],[-7.912324,54.559763],[-7.912262,54.559768],[-7.912148,54.559767],[-7.91204,54.559756],[-7.912007,54.55975],[-7.912008,54.559729],[-7.911975,54.559691],[-7.911952,54.559667],[-7.911926,54.559651],[-7.911897,54.559651],[-7.911857,54.559639],[-7.911814,54.559601],[-7.911786,54.559581],[-7.911782,54.559566],[-7.911817,54.559541],[-7.911912,54.559476],[-7.911939,54.559459],[-7.911976,54.559428],[-7.912059,54.559419],[-7.912174,54.559396],[-7.912201,54.559374],[-7.912264,54.559351],[-7.912303,54.559358],[-7.912343,54.559358],[-7.91238,54.559339],[-7.912434,54.559331],[-7.912495,54.559331],[-7.912519,54.559333],[-7.912538,54.559313],[-7.912559,54.559299]],[[-7.911877,54.559135],[-7.911877,54.558866],[-7.912341,54.558866],[-7.912341,54.559136],[-7.911877,54.559135]],[[-7.909096,54.558325],[-7.908168,54.558324],[-7.908169,54.558054],[-7.907705,54.558054],[-7.907706,54.557785],[-7.907242,54.557784],[-7.907242,54.557515],[-7.907243,54.557245],[-7.907707,54.557245],[-7.907706,54.557515],[-7.90817,54.557515],[-7.908169,54.557785],[-7.908633,54.557785],[-7.908633,54.558055],[-7.909096,54.558055],[-7.909096,54.558325]],[[-7.905856,54.555357],[-7.905392,54.555357],[-7.905393,54.555087],[-7.905857,54.555088],[-7.905856,54.555357]]],[[[-7.906594,54.551712],[-7.906328,54.551747],[-7.906328,54.551853],[-7.906327,54.552123],[-7.906791,54.552123],[-7.90679,54.552393],[-7.906788,54.553471],[-7.907252,54.553471],[-7.907251,54.553741],[-7.907715,54.553741],[-7.907714,54.554011],[-7.908178,54.554011],[-7.908177,54.554281],[-7.908641,54.554281],[-7.90864,54.554551],[-7.909104,54.554551],[-7.909104,54.554821],[-7.909567,54.554821],[-7.909567,54.55509],[-7.910494,54.555091],[-7.910494,54.555361],[-7.911193,54.555361],[-7.911194,54.554897],[-7.912739,54.554898],[-7.912739,54.555303],[-7.912795,54.555302],[-7.912878,54.555288],[-7.912919,54.555272],[-7.912984,54.555269],[-7.91304,54.555269],[-7.913085,54.555276],[-7.913104,54.555297],[-7.913129,54.555326],[-7.913148,54.55534],[-7.913183,54.555365],[-7.913181,54.55539],[-7.913165,54.555431],[-7.913189,54.55546],[-7.913269,54.555508],[-7.913323,54.555546],[-7.913323,54.555578],[-7.913301,54.555605],[-7.913314,54.555626],[-7.913371,54.555674],[-7.913466,54.555725],[-7.913537,54.555739],[-7.91359,54.555735],[-7.913623,54.555754],[-7.913708,54.555788],[-7.913765,54.555797],[-7.913944,54.555797],[-7.914029,54.555779],[-7.914148,54.555708],[-7.914243,54.55567],[-7.914293,54.55565],[-7.914328,54.55565],[-7.914385,54.555652],[-7.914425,54.555657],[-7.914449,54.555646],[-7.914487,54.555647],[-7.914537,54.55566],[-7.914587,54.555669],[-7.914622,54.555659],[-7.91465,54.555607],[-7.914659,54.555567],[-7.914649,54.555536],[-7.914609,54.555499],[-7.914593,54.555459],[-7.914594,54.555422],[-7.914594,54.555413],[-7.914642,54.5554],[-7.914707,54.555364],[-7.914714,54.555344],[-7.914731,54.555328],[-7.914785,54.555301],[-7.914833,54.555268],[-7.914854,54.555225],[-7.914909,54.555195],[-7.914963,54.555168],[-7.914999,54.555135],[-7.914999,54.555113],[-7.915001,54.555101],[-7.915048,54.55509],[-7.915117,54.555091],[-7.915198,54.555111],[-7.915275,54.555112],[-7.915341,54.555108],[-7.91539,54.555096],[-7.9154,54.555111],[-7.915399,54.555129],[-7.915461,54.555171],[-7.91551,54.5552],[-7.915555,54.555232],[-7.915636,54.555302],[-7.915582,54.555333],[-7.915572,54.555347],[-7.915574,54.555359],[-7.91561,54.555375],[-7.915639,54.555381],[-7.915639,54.555397],[-7.91563,54.555428],[-7.915589,54.55545],[-7.915562,54.555478],[-7.915562,54.555501],[-7.915578,54.555564],[-7.915573,54.555589],[-7.915518,54.555627],[-7.915485,54.555637],[-7.915474,54.555695],[-7.915473,54.555754],[-7.915497,54.555772],[-7.915574,54.5558],[-7.915601,54.55582],[-7.915643,54.555837],[-7.915688,54.555828],[-7.915771,54.555817],[-7.915927,54.555839],[-7.916073,54.55584],[-7.916178,54.555849],[-7.916288,54.555878],[-7.916388,54.555933],[-7.916538,54.556089],[-7.916561,54.556126],[-7.91655,54.556175],[-7.916525,54.556194],[-7.916448,54.55623],[-7.916362,54.556273],[-7.916361,54.556293],[-7.916371,54.556311],[-7.916398,54.556335],[-7.916385,54.55637],[-7.916361,54.556403],[-7.916364,54.55642],[-7.91639,54.556449],[-7.916397,54.556466],[-7.916396,54.556492],[-7.916372,54.556502],[-7.916352,54.556515],[-7.916352,54.556532],[-7.916414,54.556558],[-7.916474,54.556575],[-7.916585,54.556591],[-7.916711,54.556611],[-7.916816,54.556612],[-7.916858,54.55661],[-7.916872,54.55661],[-7.916906,54.556646],[-7.916924,54.556678],[-7.916966,54.556678],[-7.916982,54.556673],[-7.917059,54.556673],[-7.917252,54.556702],[-7.91738,54.556723],[-7.917422,54.556717],[-7.917475,54.55669],[-7.917546,54.556652],[-7.917547,54.556625],[-7.917585,54.556625],[-7.917618,54.556631],[-7.917629,54.556648],[-7.917682,54.556655],[-7.917746,54.556656],[-7.917791,54.556668],[-7.917938,54.556757],[-7.918005,54.556803],[-7.918032,54.556815],[-7.918073,54.556797],[-7.918089,54.556771],[-7.91809,54.556749],[-7.91814,54.55675],[-7.91818,54.556763],[-7.918189,54.55679],[-7.918175,54.55681],[-7.918137,54.556848],[-7.918133,54.556878],[-7.918132,54.556918],[-7.918167,54.556931],[-7.918216,54.556946],[-7.918246,54.556991],[-7.918265,54.557035],[-7.918302,54.557044],[-7.918341,54.557044],[-7.91839,54.557044],[-7.918457,54.557045],[-7.918456,54.557074],[-7.918438,54.557097],[-7.918433,54.557194],[-7.91845,54.557253],[-7.918838,54.557253],[-7.918838,54.556984],[-7.918839,54.556714],[-7.918918,54.556714],[-7.918918,54.556699],[-7.919766,54.556699],[-7.919767,54.556445],[-7.92255,54.556447],[-7.922549,54.556717],[-7.923477,54.556717],[-7.923476,54.556774],[-7.923523,54.556764],[-7.923555,54.556753],[-7.923556,54.555803],[-7.924887,54.555804],[-7.92496,54.555708],[-7.924992,54.555639],[-7.924996,54.555573],[-7.924987,54.555469],[-7.924937,54.555167],[-7.924918,54.555076],[-7.924884,54.554991],[-7.924826,54.554811],[-7.924761,54.554507],[-7.924744,54.55421],[-7.924728,54.55394],[-7.924749,54.553762],[-7.92479,54.553548],[-7.924808,54.553312],[-7.924832,54.553214],[-7.923947,54.553213],[-7.923947,54.552944],[-7.924411,54.552944],[-7.924412,54.552675],[-7.925059,54.552675],[-7.925168,54.552599],[-7.92564,54.552427],[-7.926091,54.552427],[-7.926091,54.552427],[-7.926167,54.552237],[-7.92622,54.552061],[-7.92626,54.55187],[-7.926256,54.55176],[-7.926231,54.551313],[-7.926223,54.550997],[-7.926259,54.550291],[-7.926307,54.549372],[-7.926371,54.54856],[-7.926435,54.548046],[-7.926257,54.548064],[-7.925701,54.548121],[-7.925287,54.548164],[-7.925057,54.548199],[-7.924985,54.548173],[-7.924984,54.548174],[-7.924948,54.548181],[-7.924948,54.548181],[-7.924654,54.548274],[-7.924312,54.5483],[-7.924152,54.548264],[-7.924152,54.548264],[-7.924011,54.548238],[-7.924011,54.548238],[-7.923985,54.548236],[-7.923779,54.548196],[-7.923779,54.548196],[-7.923486,54.548142],[-7.923255,54.548092],[-7.923255,54.548092],[-7.92292,54.548021],[-7.92272,54.547975],[-7.922641,54.547956],[-7.922641,54.547956],[-7.922505,54.547926],[-7.922505,54.547926],[-7.922274,54.54788],[-7.922274,54.54788],[-7.92163,54.547782],[-7.921526,54.547775],[-7.921526,54.547775],[-7.920611,54.547753],[-7.920611,54.547753],[-7.920497,54.547751],[-7.919755,54.54774],[-7.919755,54.54774],[-7.919364,54.547737],[-7.919349,54.547735],[-7.919349,54.547735],[-7.919283,54.547734],[-7.919187,54.547744],[-7.919187,54.547745],[-7.919185,54.547744],[-7.918776,54.54774],[-7.918482,54.547733],[-7.918328,54.547736],[-7.917888,54.547741],[-7.917747,54.547747],[-7.917527,54.54776],[-7.917265,54.547791],[-7.91708,54.547818],[-7.916603,54.547919],[-7.916458,54.547943],[-7.915731,54.548128],[-7.915546,54.548176],[-7.914902,54.548328],[-7.914257,54.548497],[-7.91394,54.548567],[-7.913501,54.548676],[-7.912827,54.548853],[-7.912816,54.548856],[-7.912051,54.549047],[-7.911312,54.549225],[-7.910521,54.549443],[-7.909666,54.549665],[-7.909625,54.549629],[-7.909625,54.549629],[-7.909438,54.549678],[-7.90882,54.549842],[-7.908484,54.549912],[-7.908265,54.54998],[-7.908117,54.550045],[-7.908093,54.550062],[-7.907998,54.550147],[-7.907976,54.55016],[-7.907764,54.550288],[-7.907048,54.550586],[-7.906485,54.550846],[-7.906399,54.550877],[-7.906408,54.5509],[-7.906412,54.550926],[-7.906477,54.551073],[-7.906597,54.5513],[-7.906699,54.551546],[-7.906713,54.551628],[-7.906751,54.551699],[-7.906594,54.551712]],[[-7.925112,54.550414],[-7.923567,54.550413],[-7.92357,54.548617],[-7.925115,54.548618],[-7.925112,54.550414]],[[-7.914291,54.552204],[-7.912819,54.552203],[-7.912819,54.552397],[-7.912355,54.552397],[-7.912354,54.552936],[-7.91189,54.552936],[-7.911891,54.552397],[-7.911892,54.552127],[-7.912356,54.552127],[-7.912356,54.551858],[-7.912746,54.551858],[-7.912747,54.551304],[-7.914293,54.551306],[-7.914291,54.551859],[-7.914675,54.55186],[-7.914674,54.552129],[-7.914291,54.552129],[-7.914291,54.552204]],[[-7.914674,54.552399],[-7.914674,54.552129],[-7.915602,54.55213],[-7.915601,54.552399],[-7.914674,54.552399]],[[-7.915601,54.552669],[-7.915601,54.552399],[-7.916065,54.5524],[-7.916064,54.552669],[-7.915601,54.552669]],[[-7.912741,54.553999],[-7.911196,54.553998],[-7.911198,54.5531],[-7.912743,54.553101],[-7.912741,54.553999]],[[-7.909106,54.553742],[-7.909105,54.554012],[-7.908642,54.554012],[-7.908642,54.553742],[-7.908179,54.553742],[-7.908179,54.553472],[-7.909107,54.553473],[-7.909106,54.553742]],[[-7.909105,54.554281],[-7.909105,54.554012],[-7.909569,54.554012],[-7.909569,54.554282],[-7.909105,54.554281]],[[-7.909568,54.554551],[-7.909569,54.554282],[-7.910032,54.554282],[-7.910032,54.554552],[-7.909568,54.554551]],[[-7.910031,54.554821],[-7.910032,54.554552],[-7.910495,54.554552],[-7.910495,54.554822],[-7.910031,54.554821]]],[[[-7.922009,54.556986],[-7.922008,54.557525],[-7.922084,54.557525],[-7.922085,54.556986],[-7.922009,54.556986]]],[[[-7.920462,54.557598],[-7.919765,54.557598],[-7.919763,54.558602],[-7.919762,54.558871],[-7.918834,54.558871],[-7.918833,54.55941],[-7.91837,54.55941],[-7.918369,54.559679],[-7.917905,54.559679],[-7.917906,54.559409],[-7.917907,54.558987],[-7.917906,54.558989],[-7.917854,54.559083],[-7.917755,54.559141],[-7.917632,54.559197],[-7.917576,54.559231],[-7.917547,54.559255],[-7.917502,54.559278],[-7.917466,54.559337],[-7.917437,54.559384],[-7.917369,54.55949],[-7.917294,54.559539],[-7.917293,54.559579],[-7.9173,54.559588],[-7.917325,54.559589],[-7.917329,54.559617],[-7.917328,54.55966],[-7.917307,54.559687],[-7.917265,54.559709],[-7.917233,54.559775],[-7.917202,54.559804],[-7.917132,54.55984],[-7.917119,54.559856],[-7.917105,54.559873],[-7.917092,54.559931],[-7.917057,54.559963],[-7.917018,54.559974],[-7.916922,54.560033],[-7.916842,54.560051],[-7.916775,54.560065],[-7.916625,54.560112],[-7.916434,54.560176],[-7.916269,54.560213],[-7.915987,54.560271],[-7.915859,54.560296],[-7.915793,54.560326],[-7.915725,54.560396],[-7.915704,54.56044],[-7.915703,54.560457],[-7.915709,54.560496],[-7.915724,54.560517],[-7.915759,54.560541],[-7.915759,54.560563],[-7.915759,54.560579],[-7.915821,54.560609],[-7.915894,54.560664],[-7.915936,54.560744],[-7.915947,54.560838],[-7.915952,54.561117],[-7.915913,54.561164],[-7.915838,54.561166],[-7.915711,54.561155],[-7.915644,54.56117],[-7.915612,54.561266],[-7.915545,54.561266],[-7.915357,54.561254],[-7.915258,54.561262],[-7.915167,54.561311],[-7.915398,54.561339],[-7.916453,54.561555],[-7.916898,54.561645],[-7.917345,54.561726],[-7.917556,54.561525],[-7.917604,54.561444],[-7.917659,54.561321],[-7.917666,54.561286],[-7.917745,54.561272],[-7.918058,54.561219],[-7.918333,54.561219],[-7.91858,54.561224],[-7.919078,54.561229],[-7.919463,54.561253],[-7.919587,54.561267],[-7.919665,54.561285],[-7.919742,54.561315],[-7.919834,54.561378],[-7.919984,54.56148],[-7.920138,54.561568],[-7.9203,54.561667],[-7.920425,54.561771],[-7.920492,54.561859],[-7.920494,54.561902],[-7.920471,54.561953],[-7.920382,54.562046],[-7.920192,54.562187],[-7.919978,54.562376],[-7.920183,54.562453],[-7.9207,54.562646],[-7.921459,54.562934],[-7.92152,54.562962],[-7.921646,54.562862],[-7.921931,54.562645],[-7.922146,54.562485],[-7.922287,54.56238],[-7.922643,54.562102],[-7.922693,54.562063],[-7.922846,54.561947],[-7.922932,54.561877],[-7.923037,54.561792],[-7.923299,54.561595],[-7.923415,54.561515],[-7.92364,54.561292],[-7.923758,54.561172],[-7.923833,54.561134],[-7.92393,54.561104],[-7.924081,54.561072],[-7.924409,54.561021],[-7.924601,54.561004],[-7.924581,54.560966],[-7.924365,54.560988],[-7.924206,54.561012],[-7.924118,54.560868],[-7.923802,54.560688],[-7.923775,54.560698],[-7.923518,54.560556],[-7.923334,54.560621],[-7.922323,54.560077],[-7.922426,54.560053],[-7.922718,54.55997],[-7.922798,54.559952],[-7.922543,54.559951],[-7.922544,54.559475],[-7.922364,54.559412],[-7.921616,54.559412],[-7.921616,54.559395],[-7.920458,54.559395],[-7.920462,54.557598]],[[-7.921136,54.560579],[-7.922695,54.561328],[-7.923216,54.561578],[-7.923136,54.561644],[-7.922964,54.561787],[-7.922822,54.561898],[-7.922694,54.56184],[-7.920914,54.561036],[-7.921136,54.560579]]],[[[-7.923154,54.559688],[-7.923007,54.559637],[-7.923007,54.559866],[-7.923041,54.559834],[-7.923154,54.559688]]],[[[-7.918104,54.558556],[-7.918063,54.558601],[-7.918371,54.558601],[-7.918372,54.557973],[-7.918323,54.55804],[-7.918223,54.558179],[-7.918168,54.558298],[-7.918166,54.558362],[-7.918164,54.558447],[-7.918151,54.558481],[-7.918104,54.558556]]],[[[-7.912404,54.556694],[-7.912346,54.556694],[-7.912345,54.556979],[-7.912647,54.55698],[-7.91258,54.556895],[-7.91252,54.556825],[-7.91248,54.556768],[-7.912439,54.556728],[-7.912406,54.556697],[-7.912404,54.556694]]]]}}]}
