{"type":"FeatureCollection","features":[{"type":"Feature","properties":{"source_fid":595406,"county":"Donegal","bog_geom_ha":368.58875806211364,"low15_pct":77.46101364522417,"low15_ha":285.51258817725619,"overlay_ha":286.25303587035381,"area_delta":0.7404476930976216},"geometry":{"type":"MultiPolygon","coordinates":[[[[-7.770481,55.12027],[-7.770053,55.120474],[-7.770081,55.120502],[-7.770211,55.120583],[-7.770322,55.120626],[-7.770449,55.120626],[-7.770447,55.120847],[-7.770507,55.120876],[-7.770592,55.120885],[-7.770681,55.120892],[-7.770746,55.120921],[-7.770769,55.120946],[-7.770749,55.120981],[-7.770759,55.121037],[-7.770813,55.121071],[-7.770885,55.121111],[-7.770974,55.12114],[-7.770997,55.121152],[-7.771081,55.121196],[-7.771103,55.121257],[-7.771097,55.12133],[-7.771073,55.121386],[-7.771035,55.121405],[-7.771018,55.121414],[-7.770948,55.121425],[-7.770862,55.121458],[-7.770807,55.121484],[-7.770787,55.121518],[-7.770728,55.121551],[-7.770704,55.121575],[-7.770623,55.121586],[-7.770522,55.121583],[-7.77036,55.121567],[-7.770198,55.121528],[-7.770183,55.121524],[-7.769338,55.121522],[-7.769306,55.121529],[-7.769174,55.121528],[-7.769125,55.121522],[-7.768876,55.121521],[-7.768876,55.121472],[-7.768835,55.121462],[-7.768573,55.121381],[-7.768396,55.121302],[-7.768262,55.121242],[-7.7681,55.121199],[-7.767931,55.12116],[-7.76778,55.12113],[-7.767545,55.121054],[-7.767357,55.120971],[-7.767243,55.120897],[-7.767113,55.120825],[-7.766982,55.120771],[-7.766762,55.120723],[-7.766566,55.120667],[-7.766447,55.12061],[-7.766259,55.120516],[-7.766102,55.120437],[-7.76601,55.120386],[-7.765894,55.12035],[-7.765779,55.12032],[-7.765664,55.120264],[-7.765595,55.120217],[-7.765554,55.120166],[-7.765466,55.120112],[-7.765393,55.12006],[-7.765275,55.119986],[-7.765172,55.119915],[-7.76508,55.11987],[-7.765022,55.11978],[-7.764907,55.119773],[-7.76486,55.119796],[-7.764759,55.119844],[-7.764697,55.119873],[-7.764657,55.119892],[-7.764519,55.120003],[-7.764381,55.120085],[-7.76428,55.120104],[-7.76407,55.120126],[-7.764015,55.120179],[-7.763951,55.120232],[-7.763889,55.120236],[-7.763772,55.120291],[-7.76372,55.120376],[-7.763687,55.120453],[-7.763644,55.120471],[-7.763531,55.120464],[-7.763438,55.120463],[-7.763334,55.120474],[-7.763266,55.120549],[-7.763135,55.12068],[-7.763051,55.120791],[-7.763023,55.120806],[-7.762973,55.120833],[-7.762839,55.120903],[-7.762831,55.120941],[-7.762753,55.120974],[-7.762612,55.121022],[-7.762529,55.121073],[-7.762474,55.12114],[-7.762356,55.121182],[-7.762251,55.121197],[-7.762201,55.121216],[-7.76218,55.121276],[-7.762163,55.121323],[-7.762104,55.121381],[-7.762067,55.121451],[-7.762051,55.121799],[-7.76204,55.121823],[-7.762039,55.121841],[-7.762013,55.121929],[-7.761998,55.121954],[-7.761971,55.121963],[-7.761838,55.121987],[-7.761783,55.121995],[-7.761717,55.122032],[-7.761667,55.122075],[-7.761604,55.122097],[-7.761575,55.122118],[-7.761551,55.122124],[-7.761499,55.122107],[-7.761462,55.122101],[-7.761438,55.122108],[-7.761364,55.122156],[-7.761356,55.122174],[-7.761362,55.122215],[-7.761344,55.122235],[-7.761284,55.122282],[-7.761233,55.122308],[-7.761161,55.122327],[-7.761109,55.122329],[-7.761058,55.122334],[-7.760992,55.122358],[-7.760982,55.122374],[-7.760988,55.122432],[-7.760975,55.12244],[-7.760888,55.122458],[-7.760798,55.122532],[-7.760698,55.122562],[-7.760673,55.122569],[-7.760624,55.122602],[-7.760614,55.122621],[-7.760626,55.122638],[-7.760679,55.122654],[-7.760698,55.122664],[-7.760686,55.122678],[-7.760602,55.122683],[-7.760562,55.122686],[-7.760547,55.122715],[-7.760531,55.122731],[-7.760524,55.122764],[-7.760511,55.122825],[-7.760479,55.122877],[-7.760451,55.122901],[-7.760408,55.12293],[-7.760306,55.122966],[-7.760317,55.122975],[-7.76034,55.123],[-7.76036,55.123024],[-7.760405,55.123267],[-7.76035,55.123354],[-7.760262,55.123418],[-7.760111,55.123443],[-7.760007,55.123454],[-7.759966,55.123478],[-7.759939,55.123523],[-7.759807,55.123574],[-7.759712,55.123628],[-7.759675,55.123637],[-7.759447,55.123659],[-7.759382,55.123679],[-7.759337,55.123716],[-7.759315,55.123814],[-7.759327,55.123868],[-7.759305,55.123903],[-7.759275,55.123932],[-7.759237,55.123958],[-7.759208,55.123988],[-7.759229,55.124008],[-7.759222,55.124028],[-7.759178,55.124069],[-7.759154,55.124102],[-7.75911,55.124108],[-7.759036,55.124107],[-7.759029,55.12412],[-7.759064,55.124242],[-7.759054,55.124285],[-7.75902,55.124314],[-7.758991,55.124316],[-7.758964,55.124319],[-7.758943,55.124328],[-7.758932,55.124387],[-7.758938,55.124442],[-7.758958,55.124469],[-7.759012,55.124487],[-7.759118,55.124507],[-7.759138,55.124552],[-7.759136,55.124579],[-7.759117,55.124633],[-7.759125,55.124687],[-7.759118,55.124733],[-7.759065,55.12478],[-7.759068,55.125047],[-7.759001,55.125135],[-7.758965,55.125166],[-7.758834,55.125257],[-7.758768,55.125265],[-7.758721,55.1253],[-7.758688,55.125329],[-7.758656,55.125344],[-7.758593,55.12536],[-7.758514,55.125434],[-7.758491,55.125461],[-7.758449,55.125499],[-7.758356,55.125524],[-7.758134,55.125625],[-7.758049,55.125663],[-7.757906,55.125738],[-7.757806,55.125786],[-7.757782,55.125824],[-7.757791,55.125882],[-7.757672,55.126023],[-7.757621,55.126076],[-7.757533,55.126143],[-7.757423,55.126179],[-7.757387,55.126203],[-7.757345,55.126237],[-7.757325,55.126296],[-7.757384,55.12632],[-7.757445,55.126425],[-7.757454,55.126544],[-7.757498,55.126621],[-7.757565,55.126672],[-7.757742,55.126741],[-7.7586,55.126364],[-7.759888,55.125828],[-7.762655,55.127625],[-7.763029,55.127855],[-7.764806,55.12895],[-7.764917,55.129019],[-7.765276,55.129019],[-7.765275,55.129239],[-7.765356,55.129289],[-7.765745,55.12929],[-7.765744,55.129527],[-7.765795,55.129559],[-7.766214,55.12956],[-7.766212,55.129816],[-7.766679,55.1301],[-7.767151,55.130101],[-7.767153,55.129831],[-7.766683,55.129831],[-7.766686,55.129291],[-7.766687,55.129022],[-7.766689,55.128752],[-7.76669,55.128483],[-7.766694,55.127944],[-7.767164,55.127945],[-7.767166,55.127675],[-7.767636,55.127676],[-7.767637,55.127407],[-7.767639,55.127137],[-7.768109,55.127138],[-7.768111,55.126868],[-7.768113,55.126599],[-7.768114,55.126329],[-7.768117,55.12579],[-7.768588,55.125791],[-7.768591,55.125252],[-7.768592,55.124983],[-7.769533,55.124984],[-7.769532,55.125115],[-7.770423,55.125117],[-7.770418,55.126015],[-7.769997,55.126014],[-7.769996,55.126333],[-7.770936,55.126335],[-7.770938,55.126065],[-7.771878,55.126067],[-7.771877,55.126336],[-7.771875,55.126606],[-7.772346,55.126607],[-7.772344,55.126876],[-7.772815,55.126877],[-7.772813,55.127147],[-7.772811,55.127416],[-7.773282,55.127417],[-7.77328,55.127687],[-7.773279,55.127956],[-7.77516,55.12796],[-7.775162,55.12769],[-7.775632,55.127691],[-7.775631,55.127961],[-7.775629,55.12823],[-7.775628,55.1285],[-7.776568,55.128501],[-7.776567,55.128771],[-7.777037,55.128772],[-7.777036,55.129041],[-7.778447,55.129044],[-7.778448,55.128774],[-7.778919,55.128775],[-7.778922,55.128236],[-7.778451,55.128235],[-7.778456,55.127427],[-7.778457,55.127157],[-7.778459,55.126888],[-7.778929,55.126889],[-7.778931,55.126619],[-7.779871,55.126621],[-7.779873,55.126351],[-7.781754,55.126355],[-7.781756,55.126085],[-7.782226,55.126086],[-7.782228,55.125837],[-7.782225,55.125836],[-7.781941,55.125634],[-7.78183,55.125338],[-7.781648,55.124751],[-7.781568,55.124557],[-7.781489,55.124275],[-7.781393,55.124182],[-7.781281,55.124049],[-7.781233,55.123993],[-7.781234,55.123845],[-7.781243,55.123591],[-7.781276,55.123406],[-7.781293,55.123254],[-7.781294,55.123212],[-7.781304,55.123148],[-7.781313,55.123094],[-7.781258,55.123041],[-7.780849,55.122678],[-7.780454,55.122428],[-7.780035,55.122196],[-7.778774,55.121769],[-7.778725,55.121713],[-7.778306,55.121531],[-7.77781,55.121351],[-7.777206,55.121179],[-7.776174,55.120841],[-7.775609,55.120638],[-7.775151,55.120478],[-7.774921,55.120397],[-7.774122,55.120213],[-7.773672,55.120058],[-7.773291,55.119945],[-7.772979,55.119863],[-7.772859,55.119854],[-7.77263,55.11985],[-7.772387,55.119829],[-7.772101,55.119781],[-7.771954,55.119774],[-7.771772,55.119762],[-7.771635,55.119806],[-7.771097,55.119975],[-7.770481,55.12027]],[[-7.771995,55.124222],[-7.770428,55.124219],[-7.770428,55.124178],[-7.770008,55.124177],[-7.770009,55.123907],[-7.769539,55.123906],[-7.769541,55.123637],[-7.76907,55.123636],[-7.769072,55.123366],[-7.769073,55.123097],[-7.769544,55.123098],[-7.769542,55.123367],[-7.770013,55.123368],[-7.770011,55.123638],[-7.770431,55.123638],[-7.770433,55.12332],[-7.771424,55.123322],[-7.771425,55.123101],[-7.771427,55.122832],[-7.771897,55.122833],[-7.771895,55.123102],[-7.772366,55.123103],[-7.772364,55.123373],[-7.772363,55.123642],[-7.772833,55.123643],[-7.772831,55.123912],[-7.771997,55.123911],[-7.771995,55.124222]],[[-7.773774,55.123645],[-7.773775,55.123375],[-7.773777,55.123106],[-7.774247,55.123107],[-7.774248,55.122837],[-7.774719,55.122838],[-7.774717,55.123107],[-7.774716,55.123377],[-7.774245,55.123376],[-7.774244,55.123646],[-7.773774,55.123645]],[[-7.774236,55.124993],[-7.773766,55.124992],[-7.773764,55.125262],[-7.772824,55.12526],[-7.772825,55.124991],[-7.772827,55.124721],[-7.773297,55.124722],[-7.7733,55.124183],[-7.773771,55.124184],[-7.773772,55.123914],[-7.774713,55.123916],[-7.774711,55.124186],[-7.774708,55.124725],[-7.774238,55.124724],[-7.774236,55.124993]],[[-7.771885,55.124989],[-7.770944,55.124987],[-7.770942,55.125257],[-7.770472,55.125256],[-7.770474,55.124986],[-7.770475,55.124717],[-7.770945,55.124718],[-7.770947,55.124448],[-7.771417,55.124449],[-7.771416,55.124718],[-7.771886,55.124719],[-7.771885,55.124989]],[[-7.768611,55.121748],[-7.768608,55.122287],[-7.768138,55.122286],[-7.768141,55.121747],[-7.768611,55.121748]],[[-7.768605,55.122826],[-7.768608,55.122287],[-7.769078,55.122288],[-7.769075,55.122827],[-7.768605,55.122826]],[[-7.761531,55.126047],[-7.762001,55.126048],[-7.761996,55.126857],[-7.761526,55.126856],[-7.761531,55.126047]]],[[[-7.783801,55.126628],[-7.783635,55.126532],[-7.783634,55.126627],[-7.783801,55.126628]]],[[[-7.784283,55.126959],[-7.784104,55.12681],[-7.784103,55.126898],[-7.784102,55.127167],[-7.782691,55.127165],[-7.782689,55.127434],[-7.782219,55.127434],[-7.782217,55.127703],[-7.780336,55.1277],[-7.780337,55.12743],[-7.779867,55.127429],[-7.779863,55.128238],[-7.77986,55.128777],[-7.779858,55.129046],[-7.779857,55.129316],[-7.779855,55.129585],[-7.779854,55.129855],[-7.780324,55.129856],[-7.780327,55.129317],[-7.780797,55.129318],[-7.780794,55.129857],[-7.780793,55.130126],[-7.781263,55.130127],[-7.781259,55.130936],[-7.781257,55.131205],[-7.781256,55.131424],[-7.782197,55.131426],[-7.782198,55.131207],[-7.782206,55.129859],[-7.782676,55.12986],[-7.782669,55.131208],[-7.783139,55.131209],[-7.783138,55.131478],[-7.783132,55.132556],[-7.782661,55.132555],[-7.782663,55.132325],[-7.781356,55.132323],[-7.781351,55.133221],[-7.781246,55.133221],[-7.781246,55.133361],[-7.781716,55.133362],[-7.781713,55.133901],[-7.781712,55.134171],[-7.782182,55.134172],[-7.782179,55.134711],[-7.782178,55.13498],[-7.782648,55.134981],[-7.782642,55.136059],[-7.782639,55.136598],[-7.78311,55.136599],[-7.783108,55.136869],[-7.783104,55.137677],[-7.783575,55.137678],[-7.783573,55.137948],[-7.783103,55.137947],[-7.783098,55.138755],[-7.782628,55.138754],[-7.782632,55.137946],[-7.782162,55.137945],[-7.782163,55.137714],[-7.781326,55.137712],[-7.781331,55.136814],[-7.781697,55.136815],[-7.781698,55.136597],[-7.781701,55.136057],[-7.781231,55.136057],[-7.781237,55.134979],[-7.781238,55.134709],[-7.780768,55.134708],[-7.780771,55.134169],[-7.780772,55.1339],[-7.780302,55.133899],[-7.780305,55.13336],[-7.779834,55.133359],[-7.779835,55.133218],[-7.779783,55.133218],[-7.779784,55.133089],[-7.779365,55.133088],[-7.779368,55.132549],[-7.778898,55.132549],[-7.778896,55.132818],[-7.778895,55.133088],[-7.778425,55.133087],[-7.778423,55.133356],[-7.777953,55.133355],[-7.777951,55.133625],[-7.77701,55.133623],[-7.777009,55.133893],[-7.776538,55.133892],[-7.776534,55.1347],[-7.776532,55.13497],[-7.777003,55.134971],[-7.777001,55.13524],[-7.776531,55.13524],[-7.776529,55.135509],[-7.776528,55.135779],[-7.776057,55.135778],[-7.776056,55.136047],[-7.775115,55.136046],[-7.775113,55.136315],[-7.774643,55.136314],[-7.77464,55.136853],[-7.774638,55.137123],[-7.774637,55.137392],[-7.774166,55.137391],[-7.774165,55.137661],[-7.774635,55.137662],[-7.774634,55.137931],[-7.775104,55.137932],[-7.775103,55.138202],[-7.774632,55.138201],[-7.774631,55.13847],[-7.77416,55.138469],[-7.774159,55.138739],[-7.774157,55.139009],[-7.774156,55.139278],[-7.774154,55.139548],[-7.772743,55.139545],[-7.772741,55.139814],[-7.77274,55.140084],[-7.772341,55.140083],[-7.772362,55.1401],[-7.77255,55.140258],[-7.772724,55.140459],[-7.772809,55.140589],[-7.772886,55.140706],[-7.773019,55.140886],[-7.773121,55.140999],[-7.773145,55.141158],[-7.773083,55.141466],[-7.773165,55.141715],[-7.773211,55.141875],[-7.773239,55.142056],[-7.773256,55.142197],[-7.773266,55.142316],[-7.773223,55.142344],[-7.773168,55.142365],[-7.772964,55.142533],[-7.77304,55.142642],[-7.773138,55.142699],[-7.773257,55.142757],[-7.773375,55.142896],[-7.773502,55.143098],[-7.773654,55.143186],[-7.773887,55.143276],[-7.773958,55.143292],[-7.774069,55.143254],[-7.774234,55.143233],[-7.774349,55.143224],[-7.774394,55.14318],[-7.774615,55.143125],[-7.774852,55.143075],[-7.7749,55.143101],[-7.775181,55.143061],[-7.775407,55.143015],[-7.77555,55.143012],[-7.775616,55.142994],[-7.775738,55.142947],[-7.775883,55.142929],[-7.775956,55.142954],[-7.77599,55.142992],[-7.776165,55.143008],[-7.776273,55.143009],[-7.776335,55.143036],[-7.776345,55.143069],[-7.776345,55.143093],[-7.776345,55.143105],[-7.776338,55.143141],[-7.776327,55.143205],[-7.776438,55.143261],[-7.776451,55.143267],[-7.776465,55.143274],[-7.776528,55.143306],[-7.776618,55.143351],[-7.776652,55.143404],[-7.776668,55.143439],[-7.776737,55.143587],[-7.776855,55.143681],[-7.776905,55.143721],[-7.777156,55.143922],[-7.777237,55.143993],[-7.777293,55.144049],[-7.777402,55.144137],[-7.777436,55.144204],[-7.777366,55.144231],[-7.7773,55.144245],[-7.777301,55.144285],[-7.777415,55.14437],[-7.777515,55.144451],[-7.777643,55.144601],[-7.77773,55.144717],[-7.777791,55.144797],[-7.777864,55.144948],[-7.777875,55.145018],[-7.777881,55.145057],[-7.777864,55.145086],[-7.777862,55.145158],[-7.777914,55.145239],[-7.77792,55.145289],[-7.777946,55.145315],[-7.77804,55.145328],[-7.778154,55.145338],[-7.778244,55.145307],[-7.778326,55.145283],[-7.778426,55.14529],[-7.778431,55.145328],[-7.778384,55.145384],[-7.778373,55.145434],[-7.778396,55.145476],[-7.778476,55.145541],[-7.778591,55.145593],[-7.778606,55.145612],[-7.778669,55.145689],[-7.778745,55.145808],[-7.778792,55.14591],[-7.778796,55.146008],[-7.778827,55.146095],[-7.778908,55.146182],[-7.779075,55.146306],[-7.77908,55.146309],[-7.779177,55.146379],[-7.779132,55.146428],[-7.77918,55.146534],[-7.779239,55.146624],[-7.779282,55.146699],[-7.779287,55.146762],[-7.779345,55.146848],[-7.779498,55.146949],[-7.779625,55.146972],[-7.779708,55.147032],[-7.779728,55.147082],[-7.779748,55.147134],[-7.779748,55.147152],[-7.779747,55.14723],[-7.779715,55.14732],[-7.779719,55.147348],[-7.779781,55.147435],[-7.779884,55.147491],[-7.779913,55.147511],[-7.77987,55.147571],[-7.779877,55.147634],[-7.779923,55.147698],[-7.780029,55.147745],[-7.780163,55.147788],[-7.780172,55.147791],[-7.78024,55.147827],[-7.780248,55.147928],[-7.780284,55.147985],[-7.780302,55.148013],[-7.780285,55.148026],[-7.780218,55.148024],[-7.78019,55.148048],[-7.780126,55.148105],[-7.780045,55.148138],[-7.780003,55.148156],[-7.779999,55.148184],[-7.780008,55.148201],[-7.780013,55.14823],[-7.780049,55.148267],[-7.7801,55.148293],[-7.780107,55.148346],[-7.78019,55.148368],[-7.780303,55.148391],[-7.780367,55.148396],[-7.780381,55.148423],[-7.780344,55.148444],[-7.780314,55.148465],[-7.78032,55.148513],[-7.780371,55.148567],[-7.780297,55.148664],[-7.780272,55.148754],[-7.780284,55.148778],[-7.780325,55.148791],[-7.780422,55.148778],[-7.780536,55.148779],[-7.780655,55.148729],[-7.780791,55.148725],[-7.780862,55.148755],[-7.780886,55.148767],[-7.780909,55.148779],[-7.780927,55.148819],[-7.780865,55.148872],[-7.780916,55.148915],[-7.780961,55.148987],[-7.781022,55.149085],[-7.781056,55.149138],[-7.781044,55.149217],[-7.781037,55.149255],[-7.781002,55.14929],[-7.780984,55.149298],[-7.780935,55.149321],[-7.780874,55.149352],[-7.780816,55.149395],[-7.780733,55.149472],[-7.78069,55.149517],[-7.78069,55.149533],[-7.780711,55.149543],[-7.780751,55.149536],[-7.780839,55.149513],[-7.780893,55.149506],[-7.780945,55.149529],[-7.781047,55.149593],[-7.781148,55.149641],[-7.781168,55.14964],[-7.781236,55.14965],[-7.781261,55.149649],[-7.781262,55.149389],[-7.782831,55.149392],[-7.782831,55.149406],[-7.782922,55.14938],[-7.783065,55.149342],[-7.783223,55.149293],[-7.783401,55.149241],[-7.783592,55.149188],[-7.783739,55.149146],[-7.783872,55.149111],[-7.784038,55.149064],[-7.784043,55.149062],[-7.784161,55.149026],[-7.78421,55.14901],[-7.784176,55.14896],[-7.784253,55.148941],[-7.78429,55.148981],[-7.784409,55.148946],[-7.784643,55.148876],[-7.784738,55.148844],[-7.784786,55.148828],[-7.78515,55.148731],[-7.785391,55.148668],[-7.785536,55.148627],[-7.78577,55.148562],[-7.786205,55.148436],[-7.786542,55.148338],[-7.786776,55.148274],[-7.78716,55.148168],[-7.787406,55.148102],[-7.787446,55.148112],[-7.787481,55.148158],[-7.787545,55.148253],[-7.787647,55.148399],[-7.787742,55.148538],[-7.787811,55.148636],[-7.787881,55.148742],[-7.787942,55.148835],[-7.788008,55.148928],[-7.788112,55.149073],[-7.788207,55.149215],[-7.788251,55.149283],[-7.788256,55.149292],[-7.788289,55.149338],[-7.788428,55.149532],[-7.788515,55.149662],[-7.788591,55.149665],[-7.788607,55.149666],[-7.788628,55.149666],[-7.788822,55.149673],[-7.789006,55.14968],[-7.789103,55.149684],[-7.789104,55.149403],[-7.789333,55.149403],[-7.789355,55.149318],[-7.78939,55.14921],[-7.78962,55.149218],[-7.789779,55.14923],[-7.79002,55.149238],[-7.790262,55.149243],[-7.790331,55.14926],[-7.790477,55.14926],[-7.790625,55.149263],[-7.790673,55.149264],[-7.790679,55.148202],[-7.790577,55.148202],[-7.790578,55.147932],[-7.79058,55.147663],[-7.790682,55.147663],[-7.790692,55.145813],[-7.79226,55.145815],[-7.792259,55.145907],[-7.792267,55.145907],[-7.792273,55.145844],[-7.79228,55.145786],[-7.79227,55.14575],[-7.79226,55.145695],[-7.792239,55.14565],[-7.792202,55.145627],[-7.792169,55.1456],[-7.792175,55.145578],[-7.79216,55.14556],[-7.792147,55.145527],[-7.792143,55.145482],[-7.79219,55.145437],[-7.792262,55.145387],[-7.792262,55.145308],[-7.792239,55.145292],[-7.792224,55.145267],[-7.79223,55.145245],[-7.792238,55.145195],[-7.792203,55.145123],[-7.792123,55.14504],[-7.792088,55.145024],[-7.792052,55.145004],[-7.792054,55.144975],[-7.79208,55.144968],[-7.792109,55.144957],[-7.792133,55.144926],[-7.792158,55.144821],[-7.792133,55.144706],[-7.792107,55.144666],[-7.792088,55.144643],[-7.792055,55.144624],[-7.792031,55.144583],[-7.792021,55.144546],[-7.792001,55.144518],[-7.791939,55.144492],[-7.791957,55.144463],[-7.791921,55.144413],[-7.791864,55.144336],[-7.791876,55.144301],[-7.791917,55.144244],[-7.791865,55.144215],[-7.791826,55.144152],[-7.791746,55.144122],[-7.791717,55.144103],[-7.79171,55.144081],[-7.79168,55.144048],[-7.791623,55.144036],[-7.791623,55.144019],[-7.791629,55.14399],[-7.791661,55.143911],[-7.791613,55.143835],[-7.79161,55.143777],[-7.791681,55.143739],[-7.79167,55.143692],[-7.791593,55.143641],[-7.79146,55.143545],[-7.791442,55.143482],[-7.791373,55.14342],[-7.791307,55.143396],[-7.791247,55.143448],[-7.791215,55.143449],[-7.791191,55.143439],[-7.791169,55.143412],[-7.791202,55.143274],[-7.791224,55.143165],[-7.791137,55.143047],[-7.791017,55.142866],[-7.790873,55.142719],[-7.790775,55.14271],[-7.79077,55.142688],[-7.790813,55.142603],[-7.790854,55.142496],[-7.790982,55.142343],[-7.791109,55.142188],[-7.791196,55.142111],[-7.791378,55.141958],[-7.791416,55.141927],[-7.791579,55.141792],[-7.791657,55.141779],[-7.791749,55.141681],[-7.791868,55.141562],[-7.791998,55.141433],[-7.792,55.141342],[-7.792034,55.141222],[-7.792102,55.141122],[-7.792015,55.141024],[-7.791939,55.140939],[-7.79193,55.140843],[-7.79195,55.140788],[-7.791893,55.140725],[-7.791895,55.140672],[-7.791954,55.140632],[-7.792016,55.140459],[-7.792014,55.140343],[-7.792009,55.140209],[-7.791982,55.14006],[-7.791918,55.139784],[-7.791854,55.139488],[-7.791812,55.139314],[-7.791809,55.139076],[-7.791775,55.138871],[-7.791794,55.138706],[-7.791776,55.138624],[-7.791753,55.138448],[-7.791744,55.138323],[-7.791711,55.138072],[-7.791711,55.137876],[-7.791695,55.137731],[-7.791691,55.137538],[-7.791682,55.137248],[-7.791692,55.136981],[-7.791689,55.136924],[-7.791681,55.136759],[-7.79164,55.136505],[-7.791588,55.136385],[-7.791576,55.136238],[-7.791524,55.135968],[-7.791477,55.135806],[-7.791416,55.135594],[-7.791335,55.135369],[-7.791251,55.135119],[-7.791126,55.134805],[-7.790835,55.134234],[-7.790792,55.134135],[-7.790813,55.133991],[-7.791352,55.133712],[-7.791742,55.133507],[-7.792155,55.133308],[-7.791758,55.132743],[-7.791533,55.132425],[-7.791019,55.132185],[-7.790764,55.132068],[-7.790661,55.132021],[-7.790661,55.13203],[-7.79066,55.1323],[-7.79019,55.132299],[-7.790185,55.133108],[-7.790184,55.133377],[-7.789714,55.133376],[-7.789712,55.133646],[-7.789711,55.133915],[-7.790181,55.133916],[-7.79018,55.134186],[-7.790178,55.134455],[-7.790174,55.135264],[-7.790168,55.136342],[-7.790166,55.136881],[-7.789695,55.13688],[-7.789694,55.13715],[-7.789223,55.137149],[-7.789222,55.137418],[-7.788751,55.137418],[-7.78875,55.137687],[-7.788746,55.138496],[-7.787805,55.138494],[-7.787809,55.137685],[-7.787338,55.137685],[-7.78734,55.137415],[-7.78781,55.137416],[-7.787812,55.137146],[-7.787813,55.136877],[-7.787343,55.136876],[-7.787346,55.136337],[-7.787605,55.136337],[-7.787611,55.135259],[-7.786881,55.135258],[-7.786885,55.134449],[-7.786415,55.134449],[-7.786416,55.134179],[-7.785946,55.134178],[-7.785947,55.133909],[-7.785949,55.133639],[-7.785478,55.133638],[-7.78548,55.133369],[-7.785481,55.133099],[-7.78407,55.133097],[-7.784074,55.132288],[-7.784076,55.132019],[-7.784078,55.13148],[-7.78408,55.13121],[-7.784081,55.130941],[-7.784552,55.130942],[-7.784553,55.130672],[-7.784559,55.129594],[-7.78456,55.129324],[-7.78409,55.129324],[-7.784092,55.129054],[-7.784094,55.128515],[-7.784096,55.128245],[-7.783626,55.128245],[-7.783627,55.127975],[-7.784097,55.127976],[-7.7841,55.127437],[-7.784571,55.127438],[-7.784572,55.127197],[-7.784283,55.126959]],[[-7.78641,55.135257],[-7.786881,55.135258],[-7.786878,55.135797],[-7.786408,55.135796],[-7.78641,55.135257]],[[-7.786872,55.136875],[-7.787343,55.136876],[-7.787341,55.137146],[-7.786871,55.137145],[-7.786872,55.136875]],[[-7.78268,55.129051],[-7.782682,55.128782],[-7.783152,55.128783],[-7.783151,55.129052],[-7.78268,55.129051]],[[-7.784061,55.134714],[-7.784531,55.134715],[-7.78453,55.134984],[-7.78406,55.134984],[-7.784061,55.134714]],[[-7.784058,55.135253],[-7.784529,55.135254],[-7.784526,55.135793],[-7.784055,55.135792],[-7.784058,55.135253]],[[-7.784986,55.13768],[-7.784045,55.137679],[-7.784048,55.13714],[-7.784518,55.137141],[-7.78452,55.136871],[-7.785461,55.136873],[-7.785459,55.137142],[-7.784989,55.137141],[-7.784986,55.13768]],[[-7.784983,55.13822],[-7.785454,55.13822],[-7.785452,55.13849],[-7.784982,55.138489],[-7.784983,55.13822]],[[-7.786374,55.141995],[-7.786372,55.142534],[-7.785901,55.142534],[-7.785904,55.141995],[-7.786374,55.141995]],[[-7.786363,55.144152],[-7.786372,55.142534],[-7.786842,55.142535],[-7.786833,55.144152],[-7.786363,55.144152]],[[-7.778368,55.143329],[-7.777427,55.143327],[-7.777428,55.143057],[-7.77743,55.142788],[-7.7779,55.142789],[-7.777899,55.143058],[-7.778369,55.143059],[-7.778368,55.143329]],[[-7.776026,55.141438],[-7.776496,55.141439],[-7.776493,55.141978],[-7.776023,55.141977],[-7.776026,55.141438]],[[-7.774609,55.142244],[-7.77508,55.142245],[-7.775075,55.143053],[-7.774605,55.143052],[-7.774609,55.142244]]],[[[-7.786035,55.128518],[-7.785976,55.128467],[-7.785976,55.128518],[-7.786035,55.128518]]],[[[-7.786527,55.128955],[-7.786444,55.128881],[-7.786443,55.129058],[-7.786635,55.129058],[-7.786527,55.128955]]],[[[-7.786916,55.129329],[-7.786912,55.129325],[-7.786912,55.129328],[-7.786916,55.129329]]],[[[-7.788091,55.130337],[-7.787849,55.130131],[-7.787846,55.130678],[-7.788316,55.130679],[-7.788315,55.130948],[-7.788785,55.130949],[-7.788784,55.131218],[-7.789237,55.131219],[-7.789198,55.131193],[-7.788834,55.13093],[-7.788378,55.130585],[-7.788091,55.130337]]],[[[-7.789637,55.131489],[-7.789254,55.131231],[-7.789253,55.131489],[-7.789637,55.131489]]],[[[-7.77199,55.139813],[-7.772269,55.140028],[-7.772271,55.139814],[-7.77199,55.139813]]],[[[-7.771694,55.139552],[-7.771801,55.139647],[-7.771802,55.139543],[-7.771685,55.139543],[-7.771694,55.139552]]],[[[-7.771049,55.13902],[-7.771333,55.139163],[-7.771334,55.139003],[-7.770963,55.139003],[-7.771049,55.13902]]],[[[-7.770736,55.138989],[-7.770864,55.138996],[-7.770865,55.138733],[-7.770867,55.138463],[-7.770396,55.138462],[-7.770398,55.138193],[-7.770401,55.137692],[-7.770351,55.137692],[-7.770352,55.137384],[-7.769932,55.137383],[-7.769934,55.137114],[-7.769937,55.136575],[-7.769466,55.136574],[-7.769465,55.136844],[-7.76946,55.137652],[-7.76946,55.137662],[-7.76966,55.137922],[-7.769929,55.137923],[-7.769927,55.138206],[-7.770218,55.138532],[-7.770512,55.138892],[-7.770659,55.139061],[-7.7707,55.139015],[-7.770736,55.138989]]],[[[-7.768544,55.136338],[-7.768731,55.136573],[-7.768996,55.136573],[-7.768997,55.136304],[-7.769468,55.136304],[-7.769469,55.136035],[-7.76994,55.136036],[-7.769941,55.135766],[-7.769944,55.135227],[-7.769474,55.135226],[-7.769475,55.134957],[-7.769005,55.134956],[-7.769007,55.134686],[-7.76901,55.134097],[-7.76854,55.134096],[-7.768539,55.134146],[-7.768538,55.134416],[-7.768067,55.134415],[-7.768069,55.134146],[-7.767725,55.134145],[-7.767573,55.134551],[-7.767486,55.134804],[-7.767658,55.135098],[-7.767898,55.135466],[-7.768242,55.135922],[-7.768544,55.136338]]],[[[-7.767808,55.132679],[-7.768077,55.13278],[-7.768078,55.132528],[-7.76808,55.132259],[-7.768081,55.131989],[-7.76714,55.131988],[-7.767139,55.132176],[-7.767218,55.132243],[-7.767246,55.132264],[-7.767808,55.132679]]],[[[-7.770397,55.129608],[-7.770396,55.129838],[-7.770446,55.129838],[-7.770444,55.130107],[-7.770443,55.130377],[-7.770913,55.130378],[-7.770908,55.131186],[-7.771379,55.131187],[-7.771377,55.131457],[-7.771376,55.131726],[-7.772787,55.131729],[-7.772789,55.131459],[-7.772792,55.13092],[-7.773262,55.130921],[-7.773264,55.130652],[-7.773265,55.130382],[-7.773735,55.130383],[-7.773737,55.130113],[-7.774678,55.130115],[-7.774679,55.129846],[-7.775099,55.129846],[-7.7751,55.129617],[-7.775151,55.129617],[-7.775151,55.129577],[-7.775622,55.129578],[-7.775623,55.129308],[-7.773742,55.129305],[-7.773743,55.129035],[-7.772802,55.129033],[-7.772801,55.129303],[-7.77233,55.129302],[-7.772329,55.129572],[-7.771965,55.129571],[-7.771965,55.129611],[-7.770397,55.129608]]],[[[-7.77823,55.130521],[-7.776557,55.130518],[-7.776556,55.130658],[-7.777027,55.130658],[-7.777025,55.130928],[-7.777024,55.131198],[-7.776553,55.131197],[-7.776552,55.131466],[-7.77655,55.131736],[-7.776656,55.131736],[-7.776658,55.131416],[-7.777963,55.131419],[-7.777965,55.131199],[-7.778226,55.1312],[-7.77823,55.130521]]],[[[-7.778231,55.130391],[-7.77823,55.130521],[-7.779798,55.130524],[-7.779796,55.130933],[-7.779848,55.130933],[-7.779852,55.130125],[-7.779382,55.130124],[-7.77938,55.130393],[-7.77891,55.130392],[-7.778911,55.130123],[-7.778441,55.130122],[-7.778439,55.130392],[-7.778231,55.130391]]],[[[-7.77508,55.13321],[-7.77508,55.133081],[-7.77372,55.133078],[-7.773722,55.132809],[-7.772781,55.132807],[-7.772782,55.132537],[-7.772312,55.132536],[-7.772314,55.132267],[-7.770902,55.132264],[-7.770904,55.131995],[-7.769963,55.131993],[-7.769961,55.132262],[-7.770432,55.132263],[-7.77043,55.132533],[-7.770901,55.132534],[-7.770899,55.132803],[-7.770429,55.132802],[-7.770426,55.133341],[-7.770424,55.133611],[-7.770423,55.133881],[-7.770418,55.134689],[-7.770888,55.13469],[-7.770887,55.13496],[-7.770885,55.135229],[-7.770882,55.135768],[-7.771353,55.135769],[-7.771351,55.136039],[-7.77135,55.136308],[-7.771348,55.136578],[-7.771347,55.136796],[-7.771924,55.136797],[-7.771923,55.136848],[-7.772287,55.136849],[-7.772286,55.137118],[-7.772756,55.137119],[-7.772758,55.13685],[-7.773228,55.136851],[-7.773227,55.13712],[-7.773697,55.137121],[-7.773699,55.136851],[-7.774169,55.136852],[-7.774172,55.136313],[-7.774174,55.136044],[-7.774175,55.135774],[-7.774646,55.135775],[-7.774644,55.136045],[-7.775115,55.136046],[-7.775116,55.135776],[-7.775118,55.135506],[-7.774647,55.135506],[-7.774649,55.135236],[-7.775119,55.135237],[-7.775121,55.134967],[-7.775122,55.134698],[-7.775593,55.134699],[-7.775597,55.13389],[-7.775599,55.133621],[-7.7756,55.133351],[-7.775601,55.133211],[-7.77508,55.13321]],[[-7.773502,55.135003],[-7.773507,55.134156],[-7.773244,55.134155],[-7.773245,55.133886],[-7.774186,55.133888],[-7.774185,55.134106],[-7.775075,55.134108],[-7.77507,55.135006],[-7.773502,55.135003]],[[-7.7723,55.134693],[-7.771829,55.134692],[-7.771831,55.134422],[-7.771832,55.134153],[-7.772303,55.134154],[-7.772304,55.133884],[-7.772775,55.133885],[-7.772773,55.134154],[-7.772772,55.134424],[-7.772301,55.134423],[-7.7723,55.134693]]],[[[-7.776077,55.132313],[-7.776547,55.132314],[-7.776549,55.132005],[-7.776078,55.132004],[-7.776077,55.132274],[-7.776077,55.132313]]],[[[-7.771919,55.137695],[-7.771812,55.137695],[-7.771809,55.138196],[-7.77228,55.138196],[-7.772278,55.138466],[-7.772277,55.138736],[-7.772747,55.138736],[-7.772746,55.139006],[-7.772744,55.139275],[-7.773215,55.139276],[-7.773216,55.139007],[-7.773687,55.139008],[-7.773688,55.138738],[-7.773218,55.138737],[-7.773219,55.138468],[-7.772749,55.138467],[-7.77275,55.138197],[-7.772752,55.137928],[-7.772281,55.137927],[-7.772283,55.137657],[-7.771919,55.137657],[-7.771919,55.137695]]],[[[-7.7704,55.129029],[-7.770402,55.128759],[-7.769982,55.128759],[-7.76998,55.129028],[-7.7704,55.129029]]],[[[-7.770397,55.129608],[-7.770399,55.129299],[-7.769978,55.129298],[-7.769977,55.129607],[-7.770397,55.129608]]],[[[-7.792292,55.146336],[-7.792257,55.146321],[-7.792257,55.146373],[-7.792295,55.146346],[-7.792292,55.146336]]],[[[-7.792256,55.146632],[-7.792266,55.146609],[-7.792256,55.146601],[-7.792256,55.146632]]],[[[-7.772753,55.137658],[-7.772752,55.137928],[-7.774163,55.13793],[-7.774165,55.137661],[-7.773224,55.137659],[-7.773225,55.13739],[-7.772755,55.137389],[-7.772753,55.137658]]],[[[-7.775613,55.131195],[-7.775614,55.130925],[-7.775144,55.130925],[-7.775141,55.131464],[-7.775611,55.131464],[-7.775613,55.131195]]],[[[-7.775616,55.130656],[-7.775614,55.130925],[-7.776084,55.130926],[-7.776086,55.130657],[-7.775616,55.130656]]],[[[-7.78925,55.132028],[-7.789253,55.131489],[-7.788783,55.131488],[-7.78878,55.132027],[-7.78925,55.132028]]]]}}]}
