{"type":"FeatureCollection","features":[{"type":"Feature","properties":{"source_fid":608890,"county":"Donegal","bog_geom_ha":127.68795599624181,"low15_pct":94.088669950738918,"low15_ha":120.1398994841487,"overlay_ha":120.1279559962146,"area_delta":-0.011943487934104269},"geometry":{"type":"MultiPolygon","coordinates":[[[[-7.439518,55.199278],[-7.438856,55.199435],[-7.438638,55.199579],[-7.438627,55.20039],[-7.437423,55.200384],[-7.43706,55.200624],[-7.437053,55.200629],[-7.437031,55.202179],[-7.43421,55.202166],[-7.433837,55.202337],[-7.433431,55.202514],[-7.433361,55.202794],[-7.43331,55.203011],[-7.4332,55.203312],[-7.433085,55.20359],[-7.433001,55.203838],[-7.432931,55.204015],[-7.432881,55.204159],[-7.432821,55.2044],[-7.432815,55.204413],[-7.432748,55.204571],[-7.432693,55.204725],[-7.432649,55.204849],[-7.432569,55.205064],[-7.432461,55.20537],[-7.432386,55.205579],[-7.432283,55.205836],[-7.432254,55.205907],[-7.432196,55.206048],[-7.432084,55.206347],[-7.432046,55.206455],[-7.432095,55.206554],[-7.432148,55.206614],[-7.432186,55.206648],[-7.432256,55.206648],[-7.432255,55.206713],[-7.432273,55.20673],[-7.432345,55.20686],[-7.432466,55.207065],[-7.432567,55.20728],[-7.432735,55.207496],[-7.432802,55.20758],[-7.432934,55.207661],[-7.433142,55.207774],[-7.433332,55.207871],[-7.43341,55.207906],[-7.433544,55.207937],[-7.433714,55.207976],[-7.433971,55.208041],[-7.434293,55.208129],[-7.434486,55.20821],[-7.434702,55.20827],[-7.434815,55.20833],[-7.434918,55.208409],[-7.435003,55.208461],[-7.435112,55.208518],[-7.435231,55.20859],[-7.435275,55.208673],[-7.435727,55.208509],[-7.436786,55.2082],[-7.437669,55.207969],[-7.437821,55.207957],[-7.437928,55.207833],[-7.438072,55.207815],[-7.438289,55.207752],[-7.438435,55.207765],[-7.438621,55.207836],[-7.438832,55.207844],[-7.439024,55.207882],[-7.439184,55.207919],[-7.439298,55.207882],[-7.439481,55.207846],[-7.43974,55.207852],[-7.440113,55.207893],[-7.440427,55.20788],[-7.440535,55.207918],[-7.440612,55.207931],[-7.440701,55.207998],[-7.440798,55.208066],[-7.440859,55.208099],[-7.440886,55.208118],[-7.440908,55.208124],[-7.441036,55.208112],[-7.441272,55.208219],[-7.441314,55.20821],[-7.441345,55.208195],[-7.441371,55.208184],[-7.441393,55.208172],[-7.441424,55.208172],[-7.441504,55.20818],[-7.441592,55.208166],[-7.44166,55.208151],[-7.441699,55.208134],[-7.441734,55.208126],[-7.441765,55.208125],[-7.441786,55.208134],[-7.441813,55.208155],[-7.441824,55.208163],[-7.441849,55.208174],[-7.441904,55.208177],[-7.44204,55.208213],[-7.442194,55.208234],[-7.442291,55.208219],[-7.442461,55.208201],[-7.442649,55.208185],[-7.442769,55.208161],[-7.442851,55.208131],[-7.442899,55.208116],[-7.443027,55.208097],[-7.443163,55.208086],[-7.443393,55.208052],[-7.443494,55.208042],[-7.443542,55.20803],[-7.443569,55.208008],[-7.443597,55.207986],[-7.443632,55.207974],[-7.443665,55.207969],[-7.443698,55.207972],[-7.443733,55.207979],[-7.443765,55.207985],[-7.443804,55.207979],[-7.443928,55.207972],[-7.444068,55.207969],[-7.444143,55.207963],[-7.444204,55.207942],[-7.444274,55.207925],[-7.444347,55.207924],[-7.444411,55.207922],[-7.444453,55.207915],[-7.444522,55.20791],[-7.444597,55.207918],[-7.44466,55.207929],[-7.444733,55.207945],[-7.444767,55.207947],[-7.444808,55.207947],[-7.444848,55.20795],[-7.445013,55.207976],[-7.445146,55.207996],[-7.445194,55.208008],[-7.445254,55.208035],[-7.445331,55.20808],[-7.445358,55.20809],[-7.445418,55.208095],[-7.445499,55.208085],[-7.44566,55.208052],[-7.445811,55.208016],[-7.446004,55.207956],[-7.446175,55.207893],[-7.446245,55.207856],[-7.446275,55.207852],[-7.446307,55.207852],[-7.446413,55.20785],[-7.446454,55.207834],[-7.446556,55.207815],[-7.446765,55.207796],[-7.447065,55.207758],[-7.4473,55.207745],[-7.447394,55.207736],[-7.447538,55.207775],[-7.447683,55.207795],[-7.447767,55.207814],[-7.447779,55.207789],[-7.447801,55.20778],[-7.447852,55.207715],[-7.447909,55.207657],[-7.447944,55.207634],[-7.447946,55.207614],[-7.447952,55.207588],[-7.447937,55.207564],[-7.44793,55.207536],[-7.447908,55.207485],[-7.447903,55.207452],[-7.447916,55.207406],[-7.44796,55.207351],[-7.447961,55.207343],[-7.448018,55.207292],[-7.44808,55.207257],[-7.448151,55.207247],[-7.448262,55.207244],[-7.448551,55.20727],[-7.44862,55.207272],[-7.448658,55.207273],[-7.448732,55.207253],[-7.448941,55.207133],[-7.449037,55.20708],[-7.449094,55.207059],[-7.449124,55.207056],[-7.449158,55.207061],[-7.449176,55.207065],[-7.449238,55.207073],[-7.449321,55.207095],[-7.44941,55.207121],[-7.449563,55.20712],[-7.449653,55.207117],[-7.449852,55.207093],[-7.450013,55.207064],[-7.450076,55.20704],[-7.450139,55.207014],[-7.450242,55.206972],[-7.450342,55.206916],[-7.450446,55.206901],[-7.450519,55.206898],[-7.450603,55.206886],[-7.450759,55.20686],[-7.450829,55.206851],[-7.450914,55.206856],[-7.451034,55.20685],[-7.451129,55.20683],[-7.451201,55.206805],[-7.451295,55.206767],[-7.451478,55.206675],[-7.45158,55.206626],[-7.45161,55.206595],[-7.451621,55.20656],[-7.451635,55.206543],[-7.45167,55.20652],[-7.45176,55.206486],[-7.451935,55.206428],[-7.45214,55.206379],[-7.452267,55.206336],[-7.452369,55.20633],[-7.452409,55.206326],[-7.452514,55.206307],[-7.452543,55.2063],[-7.452584,55.206289],[-7.452622,55.20627],[-7.452632,55.206259],[-7.452709,55.206243],[-7.452798,55.206215],[-7.452908,55.206225],[-7.452998,55.2062],[-7.453208,55.206143],[-7.453404,55.20609],[-7.453546,55.20604],[-7.453629,55.206005],[-7.453671,55.205986],[-7.453745,55.205954],[-7.453771,55.205941],[-7.4538,55.205936],[-7.453826,55.205936],[-7.45385,55.205935],[-7.453879,55.205928],[-7.453905,55.205915],[-7.453927,55.205905],[-7.453947,55.205904],[-7.453978,55.205905],[-7.454031,55.205916],[-7.454128,55.20595],[-7.454316,55.206008],[-7.454343,55.206016],[-7.454458,55.206049],[-7.454488,55.206054],[-7.454538,55.206045],[-7.45462,55.206026],[-7.454628,55.206027],[-7.454623,55.206009],[-7.454622,55.206005],[-7.45461,55.205917],[-7.454606,55.205832],[-7.454624,55.205793],[-7.454644,55.205767],[-7.454674,55.205733],[-7.454694,55.205697],[-7.454711,55.205667],[-7.454731,55.205642],[-7.454783,55.20563],[-7.454856,55.205609],[-7.454892,55.205573],[-7.454928,55.205519],[-7.454969,55.205475],[-7.455023,55.205443],[-7.455066,55.205414],[-7.455099,55.205378],[-7.455129,55.205343],[-7.455167,55.205311],[-7.455232,55.205311],[-7.45526,55.205319],[-7.455277,55.205291],[-7.455278,55.205239],[-7.455281,55.205205],[-7.455261,55.205184],[-7.455223,55.205172],[-7.455169,55.205166],[-7.455099,55.205179],[-7.454951,55.205205],[-7.454857,55.205218],[-7.454801,55.205217],[-7.45475,55.205198],[-7.454724,55.205165],[-7.454704,55.205152],[-7.454662,55.205147],[-7.454608,55.205124],[-7.454592,55.205115],[-7.454517,55.205054],[-7.454503,55.205023],[-7.454516,55.205006],[-7.454555,55.204987],[-7.454595,55.204971],[-7.454631,55.204956],[-7.454642,55.204943],[-7.454637,55.204921],[-7.454616,55.2049],[-7.454589,55.204888],[-7.454448,55.204832],[-7.454305,55.204777],[-7.454215,55.204721],[-7.454146,55.204644],[-7.454049,55.204489],[-7.453961,55.204338],[-7.453911,55.20427],[-7.453858,55.204234],[-7.453755,55.204185],[-7.453723,55.204159],[-7.453718,55.20414],[-7.453729,55.204115],[-7.453743,55.204079],[-7.453775,55.204055],[-7.453823,55.204033],[-7.453887,55.204018],[-7.453932,55.204025],[-7.45401,55.204069],[-7.454035,55.204079],[-7.454059,55.204078],[-7.454079,55.204074],[-7.454112,55.204064],[-7.454119,55.20405],[-7.454126,55.204014],[-7.454113,55.203948],[-7.454065,55.203856],[-7.454041,55.203817],[-7.454026,55.203798],[-7.454006,55.203791],[-7.45398,55.203786],[-7.453914,55.203758],[-7.453889,55.203726],[-7.453868,55.203688],[-7.453865,55.203602],[-7.453899,55.203547],[-7.45392,55.203517],[-7.453937,55.203495],[-7.453926,55.203476],[-7.453907,55.203461],[-7.453858,55.20345],[-7.453744,55.203464],[-7.453671,55.203473],[-7.453637,55.203466],[-7.45362,55.203455],[-7.453601,55.20344],[-7.453596,55.203415],[-7.453614,55.203357],[-7.453635,55.203333],[-7.45365,55.203315],[-7.453666,55.203235],[-7.453622,55.203183],[-7.453606,55.203133],[-7.453624,55.203104],[-7.453646,55.203087],[-7.453676,55.20307],[-7.453702,55.203056],[-7.453724,55.203032],[-7.453723,55.203011],[-7.453673,55.202906],[-7.453576,55.202764],[-7.453528,55.202734],[-7.453463,55.202697],[-7.453395,55.202666],[-7.453366,55.202644],[-7.453337,55.202576],[-7.453344,55.202493],[-7.453345,55.202469],[-7.45334,55.202449],[-7.453326,55.202433],[-7.453308,55.202423],[-7.453226,55.202394],[-7.453155,55.202354],[-7.453112,55.202262],[-7.453096,55.202172],[-7.453113,55.202057],[-7.453111,55.201982],[-7.453101,55.201955],[-7.45308,55.201936],[-7.453062,55.201914],[-7.453061,55.201873],[-7.453049,55.201838],[-7.453029,55.201805],[-7.453011,55.201724],[-7.452955,55.201662],[-7.452912,55.201576],[-7.452831,55.201384],[-7.452816,55.201348],[-7.452838,55.20119],[-7.452853,55.201162],[-7.45287,55.201138],[-7.452869,55.201119],[-7.452857,55.201103],[-7.452747,55.201054],[-7.452646,55.20101],[-7.452618,55.201004],[-7.452588,55.200983],[-7.452484,55.200853],[-7.452425,55.200792],[-7.452413,55.200768],[-7.45241,55.200741],[-7.452418,55.200724],[-7.452416,55.200708],[-7.452397,55.200683],[-7.452384,55.200674],[-7.452363,55.200658],[-7.452351,55.20064],[-7.452342,55.200564],[-7.452355,55.200529],[-7.452358,55.20051],[-7.452344,55.200483],[-7.452285,55.200411],[-7.452263,55.200377],[-7.452261,55.200358],[-7.452282,55.20032],[-7.452315,55.200262],[-7.452316,55.200208],[-7.452311,55.200176],[-7.452297,55.200164],[-7.452276,55.200155],[-7.452151,55.200046],[-7.452058,55.199981],[-7.452018,55.199942],[-7.452005,55.199914],[-7.451989,55.199893],[-7.451955,55.199876],[-7.451944,55.199862],[-7.451957,55.199832],[-7.451956,55.199816],[-7.451922,55.199774],[-7.451892,55.19976],[-7.451876,55.199757],[-7.451861,55.199749],[-7.451849,55.199728],[-7.451825,55.19961],[-7.45182,55.199561],[-7.451823,55.199537],[-7.451818,55.199514],[-7.451804,55.199505],[-7.451789,55.199495],[-7.451779,55.199475],[-7.451783,55.199455],[-7.451783,55.199444],[-7.451769,55.199425],[-7.451746,55.199406],[-7.451745,55.199387],[-7.451751,55.19937],[-7.451766,55.199345],[-7.451766,55.199328],[-7.451753,55.199292],[-7.451619,55.19918],[-7.451534,55.199129],[-7.451508,55.199105],[-7.451512,55.199061],[-7.45154,55.198986],[-7.45153,55.198959],[-7.45149,55.198938],[-7.451466,55.198932],[-7.451439,55.198916],[-7.451433,55.198895],[-7.451447,55.19884],[-7.45144,55.198811],[-7.451423,55.198787],[-7.451399,55.198769],[-7.451383,55.198757],[-7.451378,55.198738],[-7.451375,55.198722],[-7.451378,55.198696],[-7.4514,55.198664],[-7.451424,55.198613],[-7.451428,55.198591],[-7.451423,55.198559],[-7.451396,55.198489],[-7.451358,55.198452],[-7.451325,55.198342],[-7.451287,55.198161],[-7.451268,55.198137],[-7.451247,55.198116],[-7.451179,55.198041],[-7.451112,55.197957],[-7.450958,55.197862],[-7.450929,55.19784],[-7.45091,55.197819],[-7.450899,55.197801],[-7.450898,55.197787],[-7.450904,55.197766],[-7.450921,55.197742],[-7.45093,55.197722],[-7.450933,55.197701],[-7.450922,55.197636],[-7.450882,55.197546],[-7.450855,55.197525],[-7.450825,55.197509],[-7.450803,55.197487],[-7.450794,55.197443],[-7.4508,55.197395],[-7.450806,55.197373],[-7.450832,55.197349],[-7.450855,55.197329],[-7.450861,55.197309],[-7.450858,55.197296],[-7.450842,55.197278],[-7.450827,55.197272],[-7.450733,55.197251],[-7.450628,55.197219],[-7.450599,55.197199],[-7.450589,55.197178],[-7.450573,55.19716],[-7.450551,55.197144],[-7.450537,55.197133],[-7.450528,55.197119],[-7.450507,55.197044],[-7.450471,55.196953],[-7.450465,55.196909],[-7.450456,55.196892],[-7.450436,55.19687],[-7.450416,55.196851],[-7.450376,55.196805],[-7.450334,55.196775],[-7.450287,55.196736],[-7.450281,55.196711],[-7.450277,55.196695],[-7.450281,55.196677],[-7.450295,55.196619],[-7.450294,55.196591],[-7.450282,55.196585],[-7.450239,55.196562],[-7.450209,55.19653],[-7.450193,55.19649],[-7.450189,55.196447],[-7.450189,55.196377],[-7.450119,55.196343],[-7.450035,55.196292],[-7.450004,55.196262],[-7.449938,55.196256],[-7.449851,55.196244],[-7.449681,55.196221],[-7.44964,55.196205],[-7.449574,55.196185],[-7.449497,55.196154],[-7.449455,55.196151],[-7.449419,55.196157],[-7.449333,55.196186],[-7.44928,55.196186],[-7.449206,55.196164],[-7.449138,55.196161],[-7.449075,55.196152],[-7.448816,55.196106],[-7.44865,55.196078],[-7.448635,55.196057],[-7.448574,55.196008],[-7.448566,55.196006],[-7.448452,55.195989],[-7.448344,55.195985],[-7.448249,55.196003],[-7.448187,55.196018],[-7.448082,55.196039],[-7.448001,55.196048],[-7.447951,55.196045],[-7.447869,55.196039],[-7.447767,55.196051],[-7.447637,55.19607],[-7.447432,55.196163],[-7.446999,55.196381],[-7.44672,55.196514],[-7.446363,55.196673],[-7.446012,55.196831],[-7.445224,55.197226],[-7.444334,55.197704],[-7.44415,55.197793],[-7.444093,55.197798],[-7.444054,55.197795],[-7.443968,55.197805],[-7.443837,55.197841],[-7.443714,55.197921],[-7.443642,55.197981],[-7.443546,55.198005],[-7.44345,55.198043],[-7.44338,55.198075],[-7.443325,55.198103],[-7.443256,55.198141],[-7.443172,55.198176],[-7.443072,55.198214],[-7.442938,55.198258],[-7.44287,55.19829],[-7.442698,55.198433],[-7.4426,55.198499],[-7.442469,55.19855],[-7.442364,55.198574],[-7.442277,55.198619],[-7.4422,55.198651],[-7.442148,55.198681],[-7.44208,55.198711],[-7.441991,55.198745],[-7.441924,55.198764],[-7.441868,55.198769],[-7.441806,55.198779],[-7.441692,55.198759],[-7.441594,55.19877],[-7.441457,55.198822],[-7.441424,55.198832],[-7.441386,55.198838],[-7.441327,55.198848],[-7.441266,55.198869],[-7.44123,55.198885],[-7.441192,55.198893],[-7.441187,55.198894],[-7.441129,55.1989],[-7.441113,55.198901],[-7.441472,55.199239],[-7.441392,55.199256],[-7.441337,55.199268],[-7.441336,55.199268],[-7.440961,55.198919],[-7.440907,55.198953],[-7.440876,55.198964],[-7.440819,55.198974],[-7.440704,55.19897],[-7.440643,55.198969],[-7.440696,55.199056],[-7.440841,55.199294],[-7.440794,55.199316],[-7.44026,55.199574],[-7.439506,55.199492],[-7.439518,55.199278]],[[-7.434491,55.203921],[-7.434705,55.20399],[-7.435044,55.204052],[-7.434865,55.20411],[-7.434723,55.204165],[-7.434633,55.204101],[-7.434598,55.204076],[-7.434547,55.20406],[-7.434459,55.204053],[-7.434242,55.204081],[-7.433947,55.204136],[-7.433779,55.204165],[-7.433788,55.204056],[-7.43385,55.203978],[-7.433979,55.2039],[-7.434184,55.203772],[-7.43429,55.20383],[-7.434364,55.203867],[-7.434491,55.203921]],[[-7.445382,55.19887],[-7.446324,55.198874],[-7.44632,55.199144],[-7.445378,55.199139],[-7.445382,55.19887]],[[-7.447674,55.203462],[-7.448146,55.203464],[-7.448142,55.203734],[-7.448138,55.204003],[-7.448134,55.204273],[-7.447663,55.204271],[-7.447659,55.20454],[-7.447656,55.20481],[-7.447184,55.204808],[-7.447181,55.205077],[-7.446709,55.205075],[-7.446706,55.205345],[-7.445292,55.205338],[-7.445288,55.205608],[-7.444817,55.205605],[-7.444821,55.205336],[-7.444824,55.205066],[-7.444353,55.205064],[-7.444357,55.204795],[-7.442943,55.204788],[-7.442947,55.204519],[-7.442951,55.204249],[-7.442479,55.204247],[-7.442483,55.203978],[-7.442487,55.203708],[-7.444372,55.203717],[-7.444376,55.203447],[-7.445318,55.203452],[-7.445322,55.203182],[-7.445793,55.203184],[-7.445797,55.202915],[-7.445801,55.202645],[-7.446743,55.202649],[-7.446739,55.202919],[-7.446268,55.202917],[-7.446264,55.203186],[-7.446261,55.203456],[-7.445789,55.203454],[-7.445786,55.203723],[-7.445314,55.203721],[-7.445311,55.203991],[-7.444839,55.203988],[-7.444836,55.204258],[-7.444832,55.204527],[-7.446246,55.204534],[-7.446249,55.204264],[-7.446721,55.204266],[-7.446724,55.203997],[-7.447196,55.203999],[-7.447199,55.20373],[-7.447671,55.203732],[-7.447674,55.203462]],[[-7.448617,55.203466],[-7.448146,55.203464],[-7.448149,55.203195],[-7.448621,55.203197],[-7.448617,55.203466]],[[-7.433529,55.203936],[-7.433526,55.204206],[-7.433054,55.204204],[-7.433058,55.203934],[-7.433529,55.203936]],[[-7.440104,55.205584],[-7.4401,55.205853],[-7.440097,55.206123],[-7.439625,55.206121],[-7.439622,55.20639],[-7.438679,55.206386],[-7.438675,55.206655],[-7.438204,55.206653],[-7.4382,55.206923],[-7.438196,55.207192],[-7.437725,55.20719],[-7.437721,55.20746],[-7.43725,55.207457],[-7.437246,55.207727],[-7.436304,55.207723],[-7.436307,55.207453],[-7.436311,55.207184],[-7.436782,55.207186],[-7.436786,55.206916],[-7.437258,55.206918],[-7.437261,55.206649],[-7.437265,55.206379],[-7.437736,55.206382],[-7.43774,55.206112],[-7.438683,55.206116],[-7.438687,55.205847],[-7.439158,55.205849],[-7.439162,55.20558],[-7.439633,55.205582],[-7.439637,55.205312],[-7.440108,55.205314],[-7.440104,55.205584]],[[-7.437752,55.205304],[-7.437748,55.205573],[-7.437744,55.205843],[-7.43633,55.205836],[-7.436334,55.205567],[-7.437277,55.205571],[-7.43728,55.205301],[-7.437752,55.205304]]]]}}]}
