{"type":"FeatureCollection","features":[{"type":"Feature","properties":{"source_fid":615340,"county":"Donegal","bog_geom_ha":154.5871522357244,"low15_pct":99.180807489760099,"low15_ha":153.32078586281619,"overlay_ha":153.25201081196872,"area_delta":-0.068775050847477814},"geometry":{"type":"MultiPolygon","coordinates":[[[[-8.197256,55.101073],[-8.197074,55.10091],[-8.196892,55.100767],[-8.196649,55.10078],[-8.196482,55.10079],[-8.196479,55.100799],[-8.195915,55.100818],[-8.195427,55.10091],[-8.195086,55.100868],[-8.194937,55.100899],[-8.194629,55.100912],[-8.194225,55.100869],[-8.19414,55.100857],[-8.193778,55.100705],[-8.193629,55.100705],[-8.193331,55.1007],[-8.192071,55.100612],[-8.191092,55.100604],[-8.190656,55.10055],[-8.19005,55.100447],[-8.189784,55.100454],[-8.189273,55.100442],[-8.188476,55.100517],[-8.188397,55.100545],[-8.188346,55.10074],[-8.188237,55.100854],[-8.188232,55.100848],[-8.188232,55.100849],[-8.188206,55.100912],[-8.188207,55.100943],[-8.188227,55.100985],[-8.188247,55.101025],[-8.188299,55.101083],[-8.188323,55.101107],[-8.188339,55.101149],[-8.18834,55.101183],[-8.188322,55.101246],[-8.188322,55.101284],[-8.188346,55.101317],[-8.18839,55.101352],[-8.188441,55.101372],[-8.1885,55.101412],[-8.188563,55.101442],[-8.188614,55.10146],[-8.188637,55.101486],[-8.188666,55.101533],[-8.188686,55.101593],[-8.188676,55.101656],[-8.188685,55.101741],[-8.188736,55.10179],[-8.188756,55.101824],[-8.188756,55.101825],[-8.188846,55.101897],[-8.188935,55.101957],[-8.189008,55.102007],[-8.189043,55.102038],[-8.189086,55.102057],[-8.189165,55.102076],[-8.189315,55.102101],[-8.189341,55.102111],[-8.189361,55.102128],[-8.18939,55.102141],[-8.189413,55.102158],[-8.189423,55.102179],[-8.189456,55.102257],[-8.18949,55.102288],[-8.189501,55.102351],[-8.189499,55.102374],[-8.189517,55.10239],[-8.189568,55.102396],[-8.189629,55.10241],[-8.189722,55.10246],[-8.189752,55.10246],[-8.189779,55.102461],[-8.18983,55.10247],[-8.189856,55.102481],[-8.189884,55.102498],[-8.189939,55.102549],[-8.189953,55.102582],[-8.189971,55.102611],[-8.190007,55.102642],[-8.190059,55.10265],[-8.1901,55.102655],[-8.19016,55.102681],[-8.190239,55.10272],[-8.190279,55.102745],[-8.190326,55.102769],[-8.190374,55.102803],[-8.190406,55.102826],[-8.190589,55.102899],[-8.190635,55.102913],[-8.190702,55.102932],[-8.19075,55.102952],[-8.190782,55.102977],[-8.190782,55.103001],[-8.190794,55.103035],[-8.190833,55.103078],[-8.190974,55.10314],[-8.1911,55.103175],[-8.191201,55.103181],[-8.191256,55.103179],[-8.191289,55.103189],[-8.191319,55.103205],[-8.191321,55.103224],[-8.191327,55.103257],[-8.191347,55.103289],[-8.191367,55.103306],[-8.191415,55.10333],[-8.191451,55.103354],[-8.19151,55.103409],[-8.19155,55.103441],[-8.191627,55.103464],[-8.191709,55.103468],[-8.191759,55.103482],[-8.191799,55.103496],[-8.191843,55.10351],[-8.191883,55.103554],[-8.19191,55.103574],[-8.191992,55.1036],[-8.192075,55.103618],[-8.192092,55.103627],[-8.192116,55.103644],[-8.192126,55.103666],[-8.192138,55.103704],[-8.192131,55.103728],[-8.192136,55.103775],[-8.192132,55.103822],[-8.192128,55.103857],[-8.192154,55.103892],[-8.192204,55.103926],[-8.192244,55.103948],[-8.192265,55.10398],[-8.192242,55.10402],[-8.192187,55.104086],[-8.192174,55.104141],[-8.192181,55.104215],[-8.1922,55.104241],[-8.192291,55.104297],[-8.192343,55.104334],[-8.192363,55.10435],[-8.192389,55.104379],[-8.192382,55.104403],[-8.192368,55.104428],[-8.192297,55.104474],[-8.192244,55.1045],[-8.192162,55.104515],[-8.192139,55.104526],[-8.192105,55.104549],[-8.192112,55.10457],[-8.192138,55.104614],[-8.192147,55.104641],[-8.192145,55.104699],[-8.192142,55.104719],[-8.192144,55.104747],[-8.192156,55.104762],[-8.192164,55.104788],[-8.192164,55.104819],[-8.192141,55.104871],[-8.192106,55.104922],[-8.192098,55.104965],[-8.192111,55.105001],[-8.192143,55.105035],[-8.192192,55.105067],[-8.192223,55.10508],[-8.192247,55.105104],[-8.192249,55.105126],[-8.192261,55.105137],[-8.192282,55.105153],[-8.192275,55.105185],[-8.192253,55.105205],[-8.192219,55.105222],[-8.192149,55.105233],[-8.192116,55.105246],[-8.192086,55.105263],[-8.192064,55.10528],[-8.192049,55.105297],[-8.192042,55.105307],[-8.19201,55.105347],[-8.191997,55.105374],[-8.19199,55.10542],[-8.191991,55.105445],[-8.192015,55.105452],[-8.192042,55.105449],[-8.192066,55.105454],[-8.192084,55.105464],[-8.192088,55.105483],[-8.192076,55.105504],[-8.19207,55.105519],[-8.192091,55.105541],[-8.192114,55.105562],[-8.192123,55.105599],[-8.19212,55.105612],[-8.192097,55.105641],[-8.192075,55.105649],[-8.192013,55.105631],[-8.191978,55.105622],[-8.191957,55.105614],[-8.191943,55.105614],[-8.191903,55.105614],[-8.191863,55.105606],[-8.191818,55.105609],[-8.191794,55.105619],[-8.191766,55.105648],[-8.191733,55.105698],[-8.191744,55.105718],[-8.191786,55.105744],[-8.19183,55.105768],[-8.191854,55.105788],[-8.191857,55.105812],[-8.191856,55.10584],[-8.191835,55.10586],[-8.19178,55.10587],[-8.191754,55.105888],[-8.19172,55.105925],[-8.191706,55.105951],[-8.191713,55.105975],[-8.191728,55.105992],[-8.191737,55.106],[-8.191756,55.106017],[-8.191776,55.106035],[-8.191821,55.106045],[-8.19185,55.106066],[-8.191862,55.106094],[-8.191845,55.106116],[-8.191778,55.106123],[-8.191761,55.106133],[-8.191732,55.106153],[-8.191688,55.106213],[-8.191675,55.106261],[-8.191686,55.10629],[-8.191709,55.106316],[-8.191726,55.106335],[-8.191819,55.106372],[-8.191837,55.10639],[-8.191832,55.106405],[-8.191824,55.106413],[-8.191813,55.106436],[-8.191818,55.106457],[-8.19182,55.106475],[-8.191783,55.106543],[-8.191753,55.106602],[-8.191712,55.106649],[-8.1917,55.106675],[-8.191698,55.106721],[-8.1917,55.106747],[-8.191688,55.106792],[-8.191667,55.106814],[-8.191642,55.106843],[-8.191618,55.106884],[-8.19161,55.106899],[-8.191595,55.106937],[-8.191591,55.10696],[-8.191566,55.106998],[-8.191529,55.10703],[-8.191503,55.107049],[-8.191451,55.107074],[-8.191431,55.107083],[-8.191417,55.107107],[-8.191444,55.107135],[-8.191481,55.107162],[-8.191505,55.107196],[-8.191522,55.107262],[-8.191542,55.10729],[-8.191551,55.107314],[-8.191551,55.107323],[-8.19155,55.107347],[-8.191568,55.107362],[-8.191582,55.107369],[-8.191599,55.107389],[-8.191592,55.107427],[-8.191592,55.107479],[-8.191609,55.107495],[-8.191633,55.107542],[-8.191626,55.107563],[-8.191591,55.107598],[-8.191534,55.10765],[-8.191524,55.107684],[-8.191519,55.10772],[-8.191525,55.107759],[-8.191534,55.107788],[-8.191553,55.107814],[-8.191571,55.107842],[-8.191593,55.107876],[-8.191614,55.10792],[-8.191625,55.107978],[-8.191599,55.108009],[-8.191569,55.108042],[-8.191502,55.108059],[-8.19149,55.108073],[-8.191492,55.108111],[-8.191479,55.108132],[-8.191471,55.108181],[-8.19147,55.108215],[-8.191456,55.108233],[-8.19142,55.108261],[-8.191359,55.108309],[-8.191346,55.108328],[-8.191346,55.108373],[-8.191357,55.108408],[-8.191385,55.10843],[-8.191409,55.108453],[-8.191424,55.108513],[-8.191432,55.108541],[-8.19142,55.108583],[-8.191357,55.108622],[-8.191329,55.108664],[-8.191325,55.10873],[-8.191328,55.108785],[-8.191315,55.10882],[-8.191307,55.108855],[-8.191323,55.10889],[-8.191366,55.108935],[-8.191372,55.108945],[-8.191385,55.108966],[-8.19138,55.109012],[-8.191334,55.109046],[-8.191297,55.109087],[-8.191281,55.109125],[-8.191272,55.10916],[-8.191264,55.109188],[-8.191259,55.109259],[-8.191259,55.109337],[-8.191265,55.109389],[-8.19127,55.109413],[-8.191276,55.109456],[-8.191265,55.109497],[-8.191262,55.109522],[-8.191269,55.109534],[-8.191284,55.109594],[-8.191307,55.109603],[-8.191331,55.10962],[-8.191312,55.10966],[-8.191241,55.109753],[-8.19124,55.109797],[-8.191252,55.109834],[-8.191252,55.109901],[-8.191232,55.109922],[-8.191195,55.109951],[-8.191176,55.109971],[-8.191174,55.110001],[-8.191204,55.110072],[-8.191215,55.110098],[-8.191234,55.110134],[-8.19123,55.110176],[-8.19123,55.110226],[-8.191237,55.110271],[-8.191246,55.110327],[-8.19124,55.110379],[-8.19123,55.110414],[-8.191224,55.110433],[-8.191224,55.11047],[-8.191254,55.110534],[-8.191289,55.110579],[-8.191336,55.110619],[-8.191364,55.110652],[-8.191362,55.110678],[-8.191364,55.110706],[-8.191383,55.110762],[-8.191407,55.1108],[-8.191431,55.110845],[-8.191421,55.110864],[-8.191396,55.110886],[-8.191348,55.110919],[-8.19131,55.110955],[-8.191287,55.110979],[-8.19119,55.111055],[-8.19114,55.111104],[-8.191116,55.111143],[-8.191102,55.11119],[-8.191113,55.111232],[-8.191133,55.111258],[-8.191187,55.111291],[-8.19121,55.111303],[-8.191204,55.111369],[-8.191192,55.111424],[-8.191196,55.111476],[-8.191202,55.111518],[-8.191191,55.111576],[-8.191169,55.111628],[-8.191156,55.11168],[-8.191151,55.111716],[-8.19115,55.11175],[-8.191162,55.111788],[-8.191174,55.111807],[-8.191184,55.111822],[-8.191196,55.111844],[-8.191214,55.111896],[-8.191226,55.111944],[-8.191269,55.112005],[-8.191325,55.112037],[-8.191366,55.112063],[-8.191386,55.112132],[-8.191382,55.112177],[-8.191346,55.112241],[-8.191339,55.112268],[-8.191323,55.112299],[-8.191276,55.112331],[-8.191223,55.112355],[-8.191202,55.112381],[-8.191187,55.112399],[-8.19116,55.112434],[-8.19112,55.112492],[-8.191109,55.112518],[-8.191088,55.112553],[-8.19107,55.11258],[-8.191023,55.112649],[-8.191024,55.112679],[-8.191031,55.1127],[-8.191049,55.112718],[-8.191056,55.112728],[-8.191075,55.112748],[-8.19108,55.112773],[-8.191063,55.112798],[-8.191033,55.112824],[-8.191004,55.112849],[-8.191001,55.112905],[-8.191026,55.112937],[-8.19105,55.112983],[-8.191056,55.113022],[-8.191053,55.113069],[-8.191051,55.113112],[-8.19105,55.113154],[-8.191043,55.113203],[-8.19101,55.113254],[-8.191002,55.113279],[-8.191022,55.1133],[-8.191065,55.113324],[-8.191082,55.113376],[-8.191095,55.113445],[-8.191083,55.11348],[-8.191073,55.113525],[-8.19111,55.113575],[-8.191179,55.113612],[-8.191217,55.113635],[-8.191271,55.113673],[-8.191279,55.113705],[-8.191269,55.113736],[-8.19128,55.113768],[-8.191327,55.113818],[-8.191379,55.11386],[-8.191408,55.113857],[-8.19148,55.11384],[-8.191584,55.113832],[-8.191658,55.113846],[-8.191726,55.113885],[-8.191782,55.113917],[-8.191884,55.113978],[-8.191943,55.114013],[-8.192124,55.114117],[-8.19229,55.114227],[-8.1924,55.114307],[-8.192466,55.114354],[-8.192578,55.114435],[-8.192717,55.114534],[-8.192888,55.114656],[-8.192971,55.114732],[-8.193002,55.114763],[-8.193084,55.114841],[-8.193125,55.114877],[-8.193133,55.114935],[-8.193142,55.115014],[-8.193149,55.115077],[-8.193262,55.115077],[-8.193264,55.115346],[-8.193734,55.115345],[-8.193736,55.115884],[-8.194207,55.115884],[-8.194208,55.116153],[-8.194209,55.116423],[-8.193739,55.116423],[-8.193738,55.116154],[-8.193267,55.116155],[-8.193266,55.115885],[-8.193199,55.115885],[-8.193155,55.116161],[-8.193127,55.116331],[-8.1931,55.11671],[-8.193111,55.117017],[-8.193127,55.117099],[-8.193125,55.117233],[-8.193124,55.117282],[-8.19358,55.117232],[-8.19572,55.116999],[-8.195756,55.117229],[-8.195762,55.117269],[-8.19579,55.117444],[-8.195827,55.117681],[-8.195857,55.117878],[-8.195889,55.118079],[-8.195925,55.118313],[-8.195963,55.118554],[-8.196014,55.118883],[-8.196622,55.118816],[-8.198196,55.118658],[-8.198363,55.118646],[-8.198501,55.118636],[-8.198808,55.118605],[-8.199245,55.118556],[-8.19948,55.118546],[-8.199546,55.118537],[-8.200546,55.118399],[-8.201678,55.118274],[-8.201655,55.118233],[-8.201672,55.11819],[-8.201704,55.118162],[-8.201777,55.11807],[-8.201777,55.118058],[-8.20176,55.118003],[-8.201759,55.117972],[-8.201814,55.117944],[-8.201817,55.117925],[-8.201815,55.117905],[-8.201811,55.117857],[-8.201831,55.117821],[-8.201845,55.117796],[-8.201845,55.117764],[-8.201848,55.117732],[-8.201886,55.117681],[-8.201885,55.11767],[-8.201883,55.117646],[-8.20188,55.117623],[-8.201892,55.117579],[-8.201928,55.117435],[-8.201954,55.117378],[-8.201968,55.117348],[-8.201968,55.117319],[-8.201943,55.11722],[-8.201942,55.117219],[-8.201914,55.117114],[-8.201934,55.117085],[-8.201936,55.117057],[-8.201925,55.117003],[-8.201902,55.116921],[-8.201894,55.116847],[-8.201901,55.116779],[-8.201923,55.116693],[-8.201953,55.116594],[-8.201947,55.116534],[-8.201928,55.116474],[-8.20191,55.116388],[-8.201913,55.116332],[-8.201938,55.11627],[-8.201946,55.116211],[-8.201945,55.116144],[-8.201955,55.116103],[-8.201966,55.116038],[-8.201953,55.115983],[-8.201915,55.115927],[-8.201902,55.115889],[-8.201898,55.115791],[-8.201897,55.115775],[-8.201906,55.115694],[-8.201905,55.115618],[-8.201893,55.115543],[-8.201892,55.115533],[-8.201895,55.115439],[-8.201911,55.115324],[-8.20189,55.115284],[-8.201882,55.115274],[-8.201876,55.115266],[-8.201826,55.115202],[-8.201799,55.115192],[-8.201769,55.115178],[-8.201747,55.115148],[-8.201726,55.115106],[-8.201721,55.115071],[-8.203018,55.115583],[-8.204699,55.116235],[-8.204726,55.116376],[-8.204767,55.116588],[-8.204809,55.116804],[-8.204849,55.117012],[-8.204888,55.117214],[-8.204891,55.117227],[-8.204933,55.117443],[-8.204983,55.117703],[-8.204991,55.117744],[-8.204992,55.117749],[-8.205022,55.117906],[-8.205071,55.118156],[-8.205107,55.118342],[-8.205154,55.118587],[-8.205156,55.118595],[-8.205198,55.118791],[-8.205251,55.119038],[-8.205307,55.119297],[-8.20536,55.119544],[-8.205394,55.1197],[-8.205421,55.119783],[-8.205508,55.120052],[-8.205624,55.120408],[-8.205815,55.120886],[-8.205932,55.121175],[-8.206426,55.121255],[-8.206519,55.12127],[-8.207315,55.121398],[-8.20731,55.12138],[-8.207341,55.121362],[-8.207352,55.121331],[-8.207351,55.121297],[-8.20737,55.121279],[-8.207409,55.121265],[-8.207436,55.121252],[-8.207455,55.121225],[-8.20747,55.121211],[-8.207529,55.121213],[-8.207587,55.121199],[-8.207613,55.121168],[-8.207609,55.121141],[-8.207604,55.121116],[-8.207615,55.12108],[-8.207645,55.121041],[-8.207672,55.121004],[-8.207683,55.120986],[-8.207733,55.120956],[-8.207775,55.12092],[-8.207763,55.12088],[-8.2077,55.120856],[-8.207688,55.120843],[-8.207687,55.1208],[-8.207718,55.120762],[-8.207744,55.120731],[-8.207759,55.120708],[-8.207767,55.120677],[-8.207766,55.120648],[-8.207727,55.120635],[-8.207711,55.120619],[-8.207711,55.120601],[-8.207718,55.120566],[-8.207744,55.120534],[-8.207756,55.120518],[-8.207792,55.120388],[-8.207792,55.120371],[-8.207724,55.120313],[-8.207704,55.12028],[-8.207707,55.120242],[-8.207698,55.120161],[-8.207707,55.120131],[-8.207716,55.120099],[-8.20775,55.120072],[-8.207788,55.120024],[-8.207788,55.119995],[-8.207776,55.119966],[-8.207763,55.119942],[-8.207783,55.119928],[-8.207821,55.119919],[-8.207836,55.119901],[-8.207805,55.119879],[-8.207789,55.119868],[-8.207804,55.119843],[-8.207812,55.119836],[-8.207796,55.119817],[-8.207787,55.119788],[-8.207811,55.119774],[-8.207822,55.119765],[-8.207802,55.119761],[-8.207759,55.119748],[-8.207739,55.119719],[-8.207739,55.119685],[-8.207738,55.119641],[-8.207745,55.11962],[-8.207795,55.119566],[-8.207824,55.119468],[-8.207827,55.119434],[-8.207803,55.119392],[-8.207779,55.119372],[-8.207776,55.119242],[-8.207776,55.119216],[-8.207745,55.119055],[-8.207742,55.119023],[-8.207722,55.118845],[-8.207701,55.118805],[-8.207697,55.118801],[-8.207606,55.118724],[-8.207591,55.11869],[-8.207581,55.118608],[-8.20759,55.118487],[-8.207616,55.118368],[-8.207661,55.118153],[-8.207711,55.117923],[-8.207731,55.117775],[-8.207748,55.117677],[-8.207762,55.11759],[-8.20778,55.117492],[-8.207815,55.117308],[-8.207821,55.11726],[-8.207829,55.117209],[-8.207847,55.117075],[-8.207854,55.117011],[-8.20787,55.116946],[-8.207871,55.116817],[-8.207875,55.116767],[-8.207892,55.116738],[-8.207904,55.116705],[-8.207902,55.116654],[-8.207874,55.116607],[-8.207882,55.116554],[-8.207886,55.116489],[-8.207891,55.116426],[-8.207891,55.116391],[-8.207891,55.116364],[-8.207866,55.116315],[-8.207801,55.116221],[-8.207756,55.116156],[-8.207734,55.116123],[-8.207702,55.116057],[-8.207688,55.115988],[-8.207681,55.115926],[-8.207662,55.115849],[-8.207621,55.115771],[-8.207587,55.115558],[-8.207519,55.115084],[-8.207456,55.114707],[-8.20746,55.114682],[-8.20747,55.114651],[-8.207448,55.11462],[-8.207404,55.114571],[-8.207376,55.114512],[-8.207325,55.114416],[-8.207248,55.114282],[-8.207244,55.114247],[-8.207212,55.114203],[-8.207174,55.114161],[-8.207142,55.114104],[-8.207089,55.114021],[-8.207077,55.113975],[-8.207091,55.113937],[-8.207112,55.113898],[-8.207146,55.113871],[-8.207164,55.113845],[-8.207148,55.11379],[-8.207115,55.113728],[-8.20709,55.113593],[-8.207063,55.113475],[-8.207049,55.113418],[-8.206968,55.113339],[-8.206935,55.113315],[-8.206906,55.113273],[-8.206911,55.113226],[-8.206957,55.11318],[-8.20697,55.113149],[-8.206957,55.113133],[-8.206942,55.1131],[-8.206911,55.113062],[-8.206851,55.112873],[-8.206764,55.112612],[-8.20672,55.112459],[-8.206669,55.112348],[-8.206526,55.11214],[-8.206058,55.111497],[-8.205829,55.111197],[-8.205695,55.111043],[-8.205364,55.110676],[-8.205112,55.110356],[-8.204986,55.110195],[-8.204808,55.109881],[-8.204594,55.109566],[-8.204382,55.109228],[-8.204184,55.108941],[-8.204026,55.108716],[-8.203872,55.108465],[-8.203814,55.108355],[-8.203679,55.108149],[-8.203425,55.107735],[-8.203315,55.107513],[-8.203099,55.107514],[-8.203097,55.107117],[-8.203073,55.107084],[-8.202969,55.106942],[-8.202893,55.106841],[-8.20277,55.106674],[-8.202632,55.106437],[-8.202489,55.106261],[-8.20234,55.106021],[-8.202169,55.105736],[-8.202051,55.105556],[-8.201891,55.105317],[-8.201805,55.105185],[-8.20173,55.10509],[-8.201676,55.10509],[-8.201676,55.105023],[-8.201595,55.104922],[-8.201446,55.104704],[-8.201311,55.104492],[-8.201188,55.104342],[-8.200953,55.104171],[-8.200681,55.103948],[-8.200454,55.103742],[-8.200312,55.103614],[-8.200296,55.103602],[-8.200144,55.103476],[-8.19996,55.103343],[-8.199906,55.103299],[-8.199862,55.103256],[-8.199665,55.103093],[-8.199515,55.102958],[-8.199314,55.102803],[-8.199315,55.102938],[-8.198375,55.10294],[-8.198373,55.10267],[-8.197903,55.102671],[-8.197902,55.102401],[-8.19882,55.1024],[-8.198645,55.102265],[-8.198486,55.102127],[-8.198341,55.102],[-8.198113,55.101801],[-8.197928,55.101646],[-8.197621,55.101371],[-8.197412,55.101232],[-8.197256,55.101073]],[[-8.199792,55.104285],[-8.19979,55.104015],[-8.20026,55.104015],[-8.200262,55.104284],[-8.199792,55.104285]],[[-8.204532,55.112093],[-8.204534,55.112363],[-8.205004,55.112362],[-8.205005,55.112632],[-8.205007,55.112901],[-8.204537,55.112902],[-8.204535,55.112632],[-8.204065,55.112633],[-8.204064,55.112364],[-8.204062,55.112094],[-8.204532,55.112093]]],[[[-8.198877,55.102444],[-8.198842,55.102417],[-8.198843,55.102669],[-8.199146,55.102669],[-8.198877,55.102444]]]]}}]}
