{"type":"FeatureCollection","features":[{"type":"Feature","properties":{"source_fid":615342,"county":"Donegal","bog_geom_ha":151.66205036878128,"low15_pct":97.5,"low15_ha":147.87049910956173,"overlay_ha":147.74160716623194,"area_delta":-0.12889194332979059},"geometry":{"type":"MultiPolygon","coordinates":[[[[-8.085836,55.083386],[-8.085712,55.083176],[-8.085791,55.083312],[-8.085836,55.083386]]],[[[-8.08607,55.083961],[-8.086059,55.083916],[-8.086082,55.084013],[-8.08607,55.083961]]],[[[-8.087178,55.086595],[-8.087156,55.086554],[-8.087186,55.08661],[-8.087178,55.086595]]],[[[-8.087428,55.086933],[-8.087405,55.086909],[-8.087416,55.086921],[-8.087428,55.086933]]],[[[-8.069243,55.086957],[-8.069276,55.086922],[-8.069242,55.086957],[-8.069243,55.086957]]],[[[-8.087447,55.08695],[-8.087428,55.086933],[-8.087439,55.086943],[-8.087447,55.08695]]],[[[-8.069756,55.087757],[-8.069774,55.087756],[-8.069736,55.087758],[-8.069756,55.087757]]],[[[-8.070545,55.092578],[-8.070587,55.092591],[-8.070605,55.092612],[-8.070628,55.092634],[-8.070643,55.092685],[-8.070636,55.092761],[-8.070602,55.092843],[-8.070584,55.092881],[-8.07058,55.092914],[-8.07058,55.092933],[-8.070606,55.092957],[-8.07064,55.092976],[-8.070641,55.092977],[-8.070655,55.093004],[-8.070663,55.093037],[-8.070648,55.093084],[-8.070644,55.093114],[-8.070648,55.093134],[-8.070716,55.093157],[-8.070768,55.093155],[-8.070828,55.093155],[-8.070866,55.09317],[-8.070889,55.093213],[-8.070885,55.093252],[-8.070863,55.093282],[-8.070851,55.093308],[-8.070844,55.093329],[-8.070833,55.093362],[-8.070814,55.093396],[-8.070754,55.093414],[-8.070694,55.09342],[-8.070653,55.093444],[-8.07063,55.093463],[-8.070623,55.093509],[-8.070638,55.093588],[-8.070646,55.093616],[-8.07071,55.093661],[-8.070755,55.093689],[-8.070789,55.093717],[-8.070811,55.093763],[-8.070826,55.093786],[-8.070789,55.093799],[-8.070759,55.093817],[-8.070725,55.093866],[-8.070722,55.093905],[-8.070729,55.093942],[-8.070759,55.093965],[-8.070808,55.093989],[-8.070842,55.094013],[-8.070853,55.094038],[-8.070853,55.094081],[-8.070809,55.094131],[-8.070782,55.094161],[-8.070722,55.094174],[-8.0707,55.094187],[-8.0707,55.094211],[-8.070711,55.094235],[-8.070749,55.094254],[-8.070775,55.094273],[-8.070817,55.094303],[-8.070817,55.094325],[-8.070813,55.094351],[-8.070734,55.094405],[-8.070663,55.094448],[-8.070644,55.094468],[-8.070644,55.094493],[-8.070659,55.094532],[-8.070686,55.094554],[-8.070735,55.094577],[-8.070761,55.09461],[-8.070787,55.094655],[-8.070799,55.094691],[-8.070769,55.094726],[-8.070739,55.094754],[-8.070735,55.094793],[-8.070754,55.094849],[-8.070769,55.094903],[-8.070766,55.094941],[-8.070747,55.094978],[-8.070721,55.095015],[-8.070698,55.095032],[-8.070665,55.095045],[-8.07065,55.095047],[-8.070646,55.095064],[-8.070623,55.095097],[-8.070605,55.095118],[-8.070556,55.095129],[-8.070537,55.095153],[-8.070511,55.095183],[-8.070526,55.095216],[-8.070567,55.095228],[-8.070601,55.095239],[-8.070601,55.095271],[-8.07062,55.095287],[-8.070631,55.095323],[-8.070624,55.095364],[-8.070643,55.095401],[-8.070651,55.095444],[-8.070639,55.095472],[-8.070583,55.095524],[-8.070557,55.09555],[-8.070561,55.095597],[-8.07055,55.095664],[-8.070539,55.095722],[-8.070445,55.095858],[-8.070397,55.095923],[-8.070344,55.095979],[-8.070303,55.096009],[-8.070293,55.096028],[-8.070284,55.096043],[-8.070273,55.096099],[-8.070277,55.096268],[-8.070277,55.096324],[-8.07027,55.09636],[-8.070293,55.096397],[-8.070342,55.096457],[-8.070368,55.096481],[-8.070428,55.0965],[-8.070477,55.096504],[-8.070485,55.096522],[-8.070485,55.096565],[-8.070477,55.096597],[-8.070481,55.096631],[-8.070534,55.096675],[-8.070605,55.096735],[-8.070654,55.096752],[-8.070684,55.096765],[-8.070774,55.096769],[-8.070846,55.09678],[-8.070921,55.096797],[-8.070981,55.096801],[-8.071049,55.096799],[-8.071094,55.096797],[-8.071131,55.096796],[-8.071157,55.096807],[-8.071161,55.096833],[-8.071161,55.096848],[-8.071176,55.096874],[-8.07118,55.096904],[-8.071158,55.096934],[-8.071154,55.096977],[-8.071181,55.097005],[-8.071244,55.097016],[-8.071301,55.097031],[-8.071301,55.097053],[-8.071282,55.097089],[-8.071203,55.097126],[-8.071166,55.09715],[-8.071151,55.097174],[-8.071151,55.097202],[-8.071185,55.097234],[-8.071268,55.097277],[-8.071313,55.097303],[-8.071313,55.097339],[-8.071298,55.097376],[-8.071245,55.097391],[-8.071193,55.097395],[-8.071136,55.097385],[-8.071084,55.097406],[-8.071035,55.097419],[-8.070919,55.097443],[-8.070878,55.097456],[-8.070878,55.097482],[-8.070904,55.097536],[-8.070987,55.097585],[-8.071054,55.097609],[-8.071148,55.097615],[-8.071212,55.097617],[-8.071257,55.097626],[-8.071314,55.097626],[-8.071355,55.097634],[-8.071708,55.097653],[-8.072344,55.097657],[-8.072693,55.097651],[-8.072791,55.09765],[-8.072965,55.097647],[-8.073946,55.097675],[-8.074224,55.097675],[-8.074469,55.097674],[-8.074959,55.097674],[-8.075203,55.097682],[-8.075202,55.096879],[-8.075672,55.096878],[-8.075673,55.097687],[-8.07528,55.097687],[-8.075767,55.097764],[-8.076097,55.09788],[-8.076453,55.098011],[-8.076834,55.098178],[-8.077304,55.098403],[-8.077812,55.098789],[-8.078339,55.099068],[-8.078638,55.099226],[-8.078981,55.099407],[-8.079299,55.099611],[-8.079642,55.099946],[-8.079746,55.100087],[-8.079826,55.100196],[-8.079893,55.100289],[-8.079907,55.100307],[-8.080109,55.100504],[-8.080198,55.100591],[-8.08032,55.10071],[-8.08044,55.100825],[-8.080688,55.101063],[-8.08073,55.101104],[-8.080741,55.101114],[-8.081048,55.101396],[-8.081126,55.101467],[-8.081265,55.101596],[-8.081336,55.101695],[-8.081454,55.101788],[-8.081467,55.101802],[-8.081532,55.101865],[-8.081546,55.101878],[-8.081732,55.102053],[-8.081838,55.102152],[-8.081872,55.102184],[-8.081982,55.102311],[-8.082046,55.102385],[-8.082191,55.102512],[-8.082266,55.102577],[-8.082544,55.102741],[-8.082559,55.102754],[-8.082595,55.102787],[-8.082642,55.102828],[-8.082676,55.102858],[-8.082717,55.102894],[-8.082785,55.102954],[-8.082814,55.103003],[-8.083046,55.103014],[-8.084484,55.101969],[-8.084869,55.102256],[-8.084922,55.102222],[-8.085021,55.102293],[-8.085167,55.102428],[-8.085249,55.10251],[-8.086094,55.101928],[-8.086936,55.101333],[-8.086951,55.101322],[-8.086966,55.101312],[-8.087021,55.101272],[-8.087076,55.101234],[-8.087247,55.101113],[-8.087372,55.101025],[-8.087563,55.10089],[-8.087716,55.100782],[-8.087857,55.100682],[-8.088003,55.100579],[-8.088149,55.100476],[-8.088273,55.100388],[-8.088352,55.100332],[-8.08839,55.100305],[-8.088524,55.100211],[-8.088564,55.100182],[-8.088564,55.100151],[-8.088608,55.100151],[-8.088708,55.10008],[-8.088874,55.099963],[-8.089077,55.099819],[-8.089208,55.099726],[-8.089395,55.099593],[-8.088898,55.098323],[-8.088895,55.098315],[-8.089068,55.098233],[-8.089067,55.09823],[-8.089114,55.098209],[-8.089336,55.098109],[-8.090788,55.097412],[-8.090872,55.097371],[-8.090892,55.097361],[-8.090674,55.097146],[-8.090724,55.097125],[-8.092398,55.096397],[-8.091874,55.096159],[-8.09179,55.096121],[-8.090832,55.095686],[-8.090765,55.095654],[-8.08974,55.096114],[-8.089736,55.096116],[-8.089664,55.09615],[-8.089335,55.095825],[-8.089371,55.095797],[-8.089525,55.095676],[-8.089716,55.095518],[-8.090014,55.095275],[-8.090022,55.095292],[-8.090135,55.095544],[-8.091346,55.095178],[-8.091333,55.094902],[-8.091331,55.094859],[-8.091315,55.094543],[-8.091313,55.094503],[-8.091265,55.094463],[-8.091216,55.094433],[-8.091166,55.094403],[-8.091067,55.094353],[-8.091066,55.094352],[-8.091028,55.094324],[-8.090978,55.094286],[-8.090943,55.09426],[-8.090823,55.094187],[-8.090769,55.094147],[-8.090786,55.094104],[-8.090791,55.094093],[-8.09073,55.094051],[-8.090718,55.094044],[-8.090675,55.093994],[-8.090629,55.093947],[-8.090582,55.093922],[-8.090506,55.093887],[-8.09045,55.093872],[-8.090348,55.093845],[-8.09028,55.093831],[-8.090216,55.093823],[-8.090178,55.093796],[-8.090125,55.093754],[-8.090071,55.093716],[-8.089996,55.093686],[-8.089933,55.093651],[-8.0899,55.093608],[-8.089899,55.093562],[-8.089931,55.093504],[-8.08997,55.09345],[-8.089981,55.093324],[-8.089958,55.093193],[-8.089935,55.093081],[-8.089916,55.092971],[-8.089895,55.092919],[-8.089849,55.092869],[-8.089825,55.092793],[-8.089821,55.092714],[-8.089808,55.092675],[-8.089764,55.09261],[-8.089753,55.092557],[-8.089756,55.0925],[-8.089755,55.092453],[-8.08974,55.09242],[-8.089738,55.092416],[-8.089729,55.092375],[-8.089737,55.092352],[-8.089762,55.092322],[-8.089781,55.092299],[-8.08982,55.092277],[-8.08987,55.092275],[-8.089929,55.092272],[-8.089944,55.092254],[-8.089951,55.092221],[-8.089965,55.092178],[-8.089986,55.092149],[-8.090052,55.092086],[-8.090092,55.09204],[-8.090116,55.09201],[-8.090109,55.091987],[-8.090108,55.091966],[-8.090126,55.091947],[-8.090152,55.091916],[-8.090151,55.09188],[-8.090135,55.09185],[-8.090104,55.091828],[-8.090102,55.091804],[-8.090078,55.091783],[-8.090062,55.091754],[-8.090049,55.091716],[-8.090022,55.091674],[-8.089981,55.091653],[-8.089949,55.091641],[-8.089913,55.091641],[-8.089878,55.09162],[-8.089852,55.091571],[-8.089845,55.091535],[-8.089836,55.091484],[-8.089816,55.091448],[-8.089817,55.091419],[-8.089817,55.091383],[-8.089821,55.091352],[-8.089846,55.091333],[-8.089888,55.091308],[-8.089912,55.091282],[-8.089902,55.091254],[-8.089876,55.091222],[-8.089837,55.091188],[-8.089789,55.091166],[-8.089756,55.091132],[-8.089769,55.091108],[-8.089788,55.091082],[-8.089768,55.091065],[-8.089719,55.091051],[-8.08968,55.091028],[-8.089642,55.091],[-8.089617,55.090962],[-8.089606,55.090947],[-8.089592,55.090944],[-8.089548,55.09095],[-8.089503,55.090943],[-8.089425,55.090946],[-8.089353,55.090909],[-8.089302,55.090832],[-8.089242,55.090768],[-8.089177,55.090733],[-8.089159,55.090712],[-8.089147,55.090676],[-8.089114,55.090642],[-8.089046,55.090608],[-8.088997,55.090587],[-8.088964,55.090578],[-8.088932,55.090569],[-8.088875,55.090548],[-8.088775,55.090539],[-8.088714,55.090524],[-8.088684,55.090496],[-8.088652,55.090445],[-8.088625,55.09042],[-8.08857,55.090415],[-8.08848,55.09039],[-8.088455,55.090364],[-8.088398,55.090326],[-8.088357,55.090304],[-8.088326,55.090272],[-8.088298,55.090246],[-8.088298,55.090233],[-8.088318,55.090165],[-8.088335,55.090108],[-8.088331,55.090067],[-8.088308,55.090039],[-8.088222,55.090031],[-8.088102,55.090011],[-8.088068,55.089996],[-8.088034,55.089979],[-8.088034,55.089951],[-8.088038,55.089912],[-8.088015,55.089887],[-8.087992,55.089859],[-8.087962,55.089839],[-8.087917,55.089822],[-8.08788,55.089798],[-8.08788,55.089766],[-8.087887,55.089688],[-8.087905,55.089648],[-8.087958,55.089611],[-8.088022,55.089611],[-8.088074,55.089561],[-8.088063,55.089529],[-8.088021,55.089507],[-8.088003,55.089477],[-8.087969,55.089447],[-8.087961,55.089423],[-8.088025,55.089367],[-8.088037,55.089335],[-8.088043,55.089318],[-8.088017,55.089292],[-8.087968,55.089275],[-8.087874,55.089266],[-8.08784,55.089182],[-8.08784,55.089105],[-8.087844,55.089046],[-8.087817,55.088902],[-8.08782,55.088833],[-8.08785,55.088773],[-8.08785,55.08873],[-8.087842,55.088697],[-8.087824,55.088674],[-8.087823,55.088637],[-8.08779,55.088609],[-8.087699,55.088577],[-8.087654,55.088512],[-8.08765,55.088491],[-8.08768,55.088443],[-8.087684,55.0884],[-8.087684,55.088368],[-8.087669,55.088342],[-8.087638,55.088312],[-8.087668,55.088238],[-8.087672,55.088185],[-8.087513,55.087948],[-8.086972,55.088045],[-8.086933,55.088052],[-8.086933,55.088246],[-8.086463,55.088246],[-8.086464,55.088516],[-8.085524,55.088516],[-8.085524,55.088304],[-8.085054,55.088388],[-8.085054,55.088517],[-8.084584,55.088517],[-8.084585,55.088787],[-8.083667,55.088787],[-8.083645,55.088799],[-8.083646,55.089057],[-8.083179,55.089057],[-8.083176,55.089059],[-8.083176,55.089327],[-8.082706,55.089327],[-8.082707,55.089866],[-8.081298,55.089867],[-8.081298,55.090136],[-8.080828,55.090137],[-8.080828,55.089867],[-8.080828,55.089821],[-8.080789,55.089844],[-8.080667,55.089971],[-8.08055,55.090059],[-8.08051,55.090006],[-8.080501,55.089978],[-8.080408,55.089696],[-8.080392,55.089646],[-8.080336,55.089466],[-8.080261,55.089373],[-8.080039,55.089231],[-8.079457,55.089071],[-8.079391,55.089053],[-8.078828,55.088898],[-8.078447,55.088794],[-8.078013,55.088684],[-8.077529,55.08855],[-8.076934,55.088388],[-8.076856,55.088342],[-8.076734,55.088334],[-8.076638,55.088344],[-8.076432,55.088424],[-8.076113,55.08859],[-8.076016,55.088641],[-8.075969,55.088665],[-8.075461,55.088567],[-8.075073,55.088492],[-8.075045,55.088588],[-8.075042,55.088598],[-8.075017,55.088598],[-8.074954,55.088604],[-8.074634,55.088629],[-8.074439,55.088655],[-8.074247,55.088708],[-8.074247,55.088793],[-8.074009,55.088793],[-8.073777,55.088842],[-8.073777,55.089063],[-8.073273,55.089063],[-8.073168,55.089082],[-8.073106,55.089093],[-8.073,55.089066],[-8.072997,55.089066],[-8.072903,55.089119],[-8.072691,55.089246],[-8.072551,55.089329],[-8.07255,55.089329],[-8.072368,55.089239],[-8.072368,55.089334],[-8.071842,55.089334],[-8.071666,55.089663],[-8.071852,55.089764],[-8.071957,55.089874],[-8.071966,55.089883],[-8.07211,55.090026],[-8.071991,55.090182],[-8.071848,55.090262],[-8.07193,55.090472],[-8.071979,55.090738],[-8.071076,55.09054],[-8.07048,55.090349],[-8.069848,55.090182],[-8.069836,55.09018],[-8.069296,55.09006],[-8.069311,55.090105],[-8.069307,55.09014],[-8.069262,55.090183],[-8.069246,55.090192],[-8.069165,55.090237],[-8.069107,55.090285],[-8.069116,55.090354],[-8.06915,55.090377],[-8.06921,55.090392],[-8.069267,55.090401],[-8.069297,55.090416],[-8.069327,55.090435],[-8.069361,55.09047],[-8.069361,55.090517],[-8.069338,55.090554],[-8.069323,55.090575],[-8.069309,55.09061],[-8.069331,55.09064],[-8.069324,55.090666],[-8.069294,55.090694],[-8.069226,55.090741],[-8.069144,55.090765],[-8.069117,55.090791],[-8.069118,55.090821],[-8.069125,55.090854],[-8.06914,55.090882],[-8.069125,55.090912],[-8.069103,55.090929],[-8.069065,55.090951],[-8.068994,55.090966],[-8.068919,55.090966],[-8.068874,55.090977],[-8.06884,55.090996],[-8.068822,55.091026],[-8.068837,55.091048],[-8.068923,55.091074],[-8.068987,55.091106],[-8.069028,55.091132],[-8.069118,55.091147],[-8.069276,55.091153],[-8.069355,55.091155],[-8.069411,55.091166],[-8.069456,55.091183],[-8.069483,55.091202],[-8.069505,55.091237],[-8.069491,55.091284],[-8.069539,55.091338],[-8.069588,55.091372],[-8.069607,55.091389],[-8.069652,55.0914],[-8.06969,55.091407],[-8.069727,55.091426],[-8.069746,55.091463],[-8.069754,55.091475],[-8.069795,55.091497],[-8.069844,55.091559],[-8.069867,55.09162],[-8.069878,55.091663],[-8.069908,55.091702],[-8.06995,55.091734],[-8.070023,55.09175],[-8.070022,55.091222],[-8.070492,55.091221],[-8.070493,55.09176],[-8.07005,55.091761],[-8.07007,55.09177],[-8.070111,55.091809],[-8.070123,55.091859],[-8.0701,55.091925],[-8.070067,55.091947],[-8.070063,55.09196],[-8.070097,55.09199],[-8.070116,55.092016],[-8.070135,55.09207],[-8.070157,55.092108],[-8.070176,55.092132],[-8.070244,55.09216],[-8.070278,55.09219],[-8.070297,55.092229],[-8.070293,55.092263],[-8.070293,55.092289],[-8.070312,55.092317],[-8.070364,55.092334],[-8.070409,55.092343],[-8.070462,55.092349],[-8.070522,55.092345],[-8.070571,55.092345],[-8.070605,55.092351],[-8.070616,55.092371],[-8.07056,55.092416],[-8.070511,55.092468],[-8.070492,55.092494],[-8.0705,55.092528],[-8.070515,55.092563],[-8.070545,55.092578]],[[-8.070021,55.090952],[-8.070022,55.091222],[-8.069552,55.091222],[-8.069551,55.090952],[-8.070021,55.090952]],[[-8.07566,55.090679],[-8.075661,55.090949],[-8.075663,55.092027],[-8.076132,55.092027],[-8.076134,55.092566],[-8.076135,55.093374],[-8.075195,55.093375],[-8.075194,55.092566],[-8.074724,55.092566],[-8.074723,55.092027],[-8.074721,55.090949],[-8.075191,55.090949],[-8.07519,55.090679],[-8.07566,55.090679]],[[-8.083655,55.093639],[-8.084125,55.093638],[-8.084126,55.093908],[-8.083656,55.093908],[-8.083655,55.093639]]]]}}]}
