{"type":"FeatureCollection","features":[{"type":"Feature","properties":{"source_fid":615897,"county":"Donegal","bog_geom_ha":390.91583308571887,"low15_pct":96.389144434222629,"low15_ha":376.80042696923823,"overlay_ha":376.77618444444585,"area_delta":-0.024242524792384756},"geometry":{"type":"MultiPolygon","coordinates":[[[[-7.333402,55.214568],[-7.333836,55.214128],[-7.334567,55.213344],[-7.334769,55.213141],[-7.334407,55.213139],[-7.334412,55.212869],[-7.334416,55.2126],[-7.334887,55.212603],[-7.334883,55.212872],[-7.335035,55.212873],[-7.335916,55.211987],[-7.3361,55.211801],[-7.335372,55.211797],[-7.335368,55.212066],[-7.334896,55.212063],[-7.334901,55.211794],[-7.33443,55.211791],[-7.334434,55.211543],[-7.333962,55.21154],[-7.333958,55.211789],[-7.333487,55.211786],[-7.333482,55.212056],[-7.333011,55.212053],[-7.333006,55.212323],[-7.331121,55.212312],[-7.331126,55.212043],[-7.330654,55.21204],[-7.330659,55.211771],[-7.330663,55.211522],[-7.330078,55.211519],[-7.330083,55.211229],[-7.329725,55.211227],[-7.32973,55.210957],[-7.328787,55.210952],[-7.328792,55.210682],[-7.328793,55.210613],[-7.328523,55.210612],[-7.328526,55.210411],[-7.328325,55.21041],[-7.328329,55.210141],[-7.327387,55.210136],[-7.327382,55.210405],[-7.326911,55.210403],[-7.326906,55.210672],[-7.326435,55.210669],[-7.32644,55.2104],[-7.326444,55.21013],[-7.326453,55.209591],[-7.325982,55.209589],[-7.325987,55.209319],[-7.325991,55.20905],[-7.325995,55.208802],[-7.323639,55.208788],[-7.323625,55.209576],[-7.324097,55.209578],[-7.324092,55.209848],[-7.324088,55.210117],[-7.324559,55.21012],[-7.324554,55.210389],[-7.32455,55.210659],[-7.325964,55.210667],[-7.325955,55.211206],[-7.326426,55.211208],[-7.326421,55.211478],[-7.326417,55.211747],[-7.325946,55.211745],[-7.325941,55.212014],[-7.325936,55.212284],[-7.324522,55.212276],[-7.324527,55.212007],[-7.324056,55.212004],[-7.32406,55.211734],[-7.324065,55.211465],[-7.323593,55.211462],[-7.323598,55.211193],[-7.323127,55.21119],[-7.323136,55.210651],[-7.32314,55.210382],[-7.322669,55.210379],[-7.322674,55.21011],[-7.322678,55.20984],[-7.322207,55.209837],[-7.32221,55.209679],[-7.320685,55.20967],[-7.320669,55.210568],[-7.319099,55.21056],[-7.319068,55.212356],[-7.317497,55.212347],[-7.317482,55.213245],[-7.315911,55.213237],[-7.31588,55.215033],[-7.314309,55.215024],[-7.314294,55.215922],[-7.312675,55.215913],[-7.312674,55.215983],[-7.312669,55.216253],[-7.312198,55.21625],[-7.312203,55.215981],[-7.311731,55.215978],[-7.311732,55.215908],[-7.311261,55.215905],[-7.31126,55.215975],[-7.311151,55.215975],[-7.311136,55.216803],[-7.309565,55.216794],[-7.309534,55.21859],[-7.307963,55.218581],[-7.307948,55.219479],[-7.306377,55.21947],[-7.306392,55.218572],[-7.304821,55.218563],[-7.304143,55.218559],[-7.304142,55.21863],[-7.304133,55.219169],[-7.304604,55.219172],[-7.3046,55.219441],[-7.304595,55.219711],[-7.303652,55.219706],[-7.303657,55.219436],[-7.303235,55.219434],[-7.303234,55.219452],[-7.301663,55.219443],[-7.301648,55.220342],[-7.301284,55.22034],[-7.301281,55.220501],[-7.301276,55.22077],[-7.300805,55.220767],[-7.300809,55.220498],[-7.300338,55.220495],[-7.300341,55.220334],[-7.295363,55.220305],[-7.295379,55.219407],[-7.294699,55.219403],[-7.294695,55.219654],[-7.293752,55.219649],[-7.293757,55.219379],[-7.293285,55.219376],[-7.29329,55.219107],[-7.292347,55.219101],[-7.292356,55.218623],[-7.292342,55.21863],[-7.29193,55.218824],[-7.291691,55.218937],[-7.292208,55.219301],[-7.292808,55.219716],[-7.293027,55.219867],[-7.29353,55.220224],[-7.293959,55.220527],[-7.294058,55.220591],[-7.29421,55.220649],[-7.294547,55.220727],[-7.29458,55.220746],[-7.294627,55.220729],[-7.294669,55.22074],[-7.29471,55.220785],[-7.294775,55.220804],[-7.294829,55.220824],[-7.294835,55.220852],[-7.294855,55.220868],[-7.294902,55.220881],[-7.295008,55.220988],[-7.295061,55.220992],[-7.295094,55.221004],[-7.295129,55.221],[-7.295207,55.221041],[-7.295302,55.221067],[-7.295355,55.221127],[-7.295449,55.221223],[-7.296127,55.222051],[-7.296209,55.222154],[-7.296334,55.222338],[-7.296355,55.222402],[-7.296395,55.222525],[-7.296467,55.222603],[-7.296512,55.222718],[-7.296521,55.22281],[-7.296578,55.222835],[-7.296626,55.222838],[-7.296629,55.222875],[-7.296712,55.222947],[-7.296767,55.222958],[-7.296766,55.222974],[-7.296721,55.223008],[-7.296739,55.22304],[-7.296867,55.223081],[-7.296817,55.22318],[-7.296822,55.22327],[-7.296881,55.223333],[-7.296849,55.22353],[-7.296743,55.223676],[-7.296042,55.22442],[-7.295663,55.224798],[-7.295604,55.224858],[-7.295566,55.224921],[-7.295643,55.224965],[-7.29573,55.225025],[-7.295781,55.225089],[-7.295967,55.225191],[-7.296329,55.225485],[-7.296381,55.22552],[-7.296413,55.225541],[-7.296709,55.22574],[-7.297126,55.226008],[-7.297594,55.226337],[-7.297946,55.226573],[-7.297997,55.226575],[-7.298159,55.226697],[-7.29862,55.227025],[-7.298942,55.227258],[-7.299334,55.227513],[-7.29957,55.227661],[-7.299675,55.22778],[-7.299892,55.227974],[-7.299763,55.228007],[-7.299675,55.228061],[-7.299635,55.228107],[-7.299623,55.228146],[-7.299723,55.228217],[-7.299742,55.228258],[-7.299793,55.228276],[-7.299884,55.2283],[-7.299907,55.228352],[-7.300096,55.22851],[-7.300191,55.228693],[-7.300276,55.228734],[-7.300333,55.228811],[-7.300346,55.228878],[-7.300264,55.22896],[-7.300267,55.228978],[-7.300272,55.229087],[-7.300381,55.229146],[-7.300496,55.22919],[-7.300621,55.229255],[-7.300852,55.229359],[-7.300954,55.22942],[-7.301045,55.229483],[-7.301221,55.229531],[-7.301533,55.2296],[-7.301695,55.229708],[-7.301833,55.229728],[-7.301902,55.22974],[-7.302068,55.229792],[-7.302181,55.229822],[-7.302274,55.2299],[-7.302297,55.23001],[-7.302319,55.230049],[-7.302402,55.230107],[-7.302424,55.230167],[-7.302512,55.230205],[-7.30266,55.230338],[-7.302826,55.230367],[-7.302888,55.230419],[-7.302938,55.230449],[-7.303007,55.230513],[-7.303141,55.230588],[-7.303257,55.230663],[-7.303355,55.230659],[-7.303696,55.230798],[-7.303713,55.230882],[-7.303788,55.230933],[-7.303844,55.230945],[-7.303991,55.231091],[-7.304003,55.231166],[-7.304147,55.231259],[-7.304227,55.231409],[-7.304346,55.23154],[-7.304426,55.231685],[-7.304431,55.231783],[-7.304458,55.231841],[-7.304578,55.231912],[-7.304723,55.232047],[-7.304935,55.232214],[-7.304963,55.232259],[-7.30525,55.232399],[-7.305313,55.232504],[-7.305561,55.232657],[-7.305661,55.232736],[-7.3057,55.232856],[-7.305736,55.232879],[-7.305816,55.232981],[-7.306019,55.2332],[-7.306302,55.233439],[-7.306407,55.233505],[-7.306472,55.233564],[-7.306514,55.23356],[-7.306577,55.233602],[-7.306589,55.233637],[-7.306589,55.23367],[-7.306549,55.233743],[-7.30657,55.233818],[-7.306629,55.233855],[-7.306792,55.233947],[-7.306773,55.234027],[-7.306753,55.234163],[-7.306869,55.234217],[-7.306893,55.234251],[-7.306876,55.234298],[-7.306893,55.234353],[-7.306975,55.234439],[-7.30694,55.234557],[-7.306933,55.234638],[-7.306989,55.23474],[-7.307079,55.234801],[-7.307126,55.234825],[-7.307304,55.23487],[-7.307403,55.234971],[-7.307432,55.235047],[-7.307321,55.235262],[-7.307346,55.235303],[-7.307524,55.235334],[-7.307589,55.235372],[-7.307617,55.235576],[-7.307726,55.235724],[-7.3079,55.235887],[-7.307889,55.236019],[-7.307938,55.236124],[-7.308031,55.236345],[-7.308282,55.236174],[-7.308363,55.236173],[-7.308453,55.236254],[-7.308312,55.236463],[-7.308684,55.236573],[-7.308799,55.236614],[-7.308915,55.236697],[-7.308973,55.236792],[-7.309018,55.23682],[-7.309076,55.236855],[-7.309088,55.236915],[-7.309026,55.237054],[-7.309133,55.237441],[-7.309216,55.237549],[-7.309364,55.237724],[-7.309381,55.237851],[-7.309408,55.238079],[-7.30936,55.238343],[-7.309371,55.23842],[-7.309363,55.238455],[-7.309292,55.238588],[-7.309212,55.238672],[-7.309217,55.238707],[-7.309289,55.23879],[-7.309244,55.238814],[-7.309111,55.238797],[-7.309033,55.238786],[-7.308927,55.238802],[-7.308902,55.238855],[-7.308806,55.238963],[-7.308619,55.238999],[-7.308467,55.239017],[-7.308413,55.239058],[-7.308581,55.239199],[-7.308646,55.239264],[-7.308652,55.239358],[-7.308625,55.239406],[-7.308489,55.239503],[-7.308329,55.239726],[-7.308323,55.239755],[-7.308365,55.239775],[-7.308447,55.239831],[-7.308463,55.239929],[-7.308494,55.240018],[-7.308577,55.240115],[-7.308637,55.240084],[-7.309072,55.239865],[-7.309211,55.239795],[-7.309567,55.239609],[-7.309911,55.239428],[-7.310198,55.239288],[-7.31062,55.239072],[-7.310905,55.238928],[-7.311197,55.238781],[-7.311401,55.238676],[-7.311739,55.238496],[-7.311974,55.238382],[-7.312255,55.238236],[-7.312473,55.238129],[-7.312598,55.238068],[-7.312757,55.237983],[-7.312945,55.23787],[-7.313133,55.237787],[-7.313319,55.237695],[-7.313536,55.237586],[-7.313735,55.237469],[-7.314,55.237315],[-7.31419,55.237196],[-7.314392,55.237083],[-7.314589,55.236965],[-7.314789,55.236848],[-7.314804,55.236839],[-7.315023,55.236708],[-7.315231,55.236587],[-7.316309,55.235966],[-7.31669,55.235737],[-7.316846,55.235458],[-7.317103,55.235011],[-7.317181,55.234885],[-7.317761,55.233966],[-7.318023,55.233551],[-7.318369,55.233001],[-7.318942,55.23208],[-7.319461,55.231221],[-7.319602,55.230988],[-7.320023,55.230309],[-7.320104,55.23018],[-7.320316,55.229772],[-7.319982,55.22977],[-7.319986,55.229501],[-7.319991,55.229231],[-7.319519,55.229229],[-7.319529,55.22869],[-7.320472,55.228695],[-7.320476,55.228425],[-7.320005,55.228423],[-7.320009,55.228153],[-7.320014,55.227884],[-7.320019,55.227614],[-7.32049,55.227617],[-7.320485,55.227886],[-7.320957,55.227889],[-7.320952,55.228158],[-7.321424,55.228161],[-7.321424,55.228173],[-7.321472,55.228116],[-7.322113,55.227439],[-7.322505,55.227039],[-7.32299,55.226551],[-7.323425,55.226034],[-7.323935,55.225433],[-7.324306,55.22499],[-7.324875,55.224307],[-7.325223,55.223883],[-7.325827,55.223173],[-7.326003,55.222945],[-7.326073,55.222853],[-7.326247,55.222638],[-7.326387,55.222481],[-7.326506,55.222326],[-7.326779,55.222013],[-7.326967,55.22178],[-7.327136,55.221575],[-7.327415,55.221242],[-7.327503,55.221138],[-7.327774,55.2208],[-7.327876,55.220685],[-7.328223,55.220247],[-7.328405,55.220025],[-7.328507,55.21991],[-7.328587,55.219804],[-7.32877,55.21958],[-7.329123,55.219147],[-7.329296,55.218917],[-7.329567,55.218584],[-7.329667,55.218472],[-7.329915,55.218138],[-7.330012,55.218021],[-7.33018,55.217792],[-7.330252,55.217698],[-7.330088,55.217697],[-7.330097,55.217158],[-7.330106,55.216619],[-7.329635,55.216617],[-7.329644,55.216078],[-7.330115,55.21608],[-7.33012,55.215811],[-7.330591,55.215813],[-7.330586,55.216083],[-7.331058,55.216085],[-7.331049,55.216624],[-7.331226,55.216625],[-7.331446,55.216404],[-7.331652,55.216197],[-7.331882,55.215978],[-7.33211,55.215783],[-7.332227,55.215675],[-7.333334,55.214638],[-7.333402,55.214568]],[[-7.307201,55.22562],[-7.305916,55.225889],[-7.305442,55.226019],[-7.30539,55.225926],[-7.307358,55.225534],[-7.307428,55.2255],[-7.307617,55.225394],[-7.307718,55.22531],[-7.307759,55.225248],[-7.307797,55.225153],[-7.308,55.22493],[-7.308137,55.224737],[-7.308157,55.224698],[-7.308345,55.22472],[-7.308126,55.224931],[-7.307893,55.225202],[-7.30746,55.225557],[-7.307201,55.22562]],[[-7.310653,55.223788],[-7.310182,55.223786],[-7.310201,55.222708],[-7.310672,55.22271],[-7.310653,55.223788]],[[-7.309715,55.223513],[-7.309244,55.223511],[-7.309239,55.22378],[-7.308296,55.223775],[-7.308301,55.223505],[-7.308772,55.223508],[-7.308777,55.223239],[-7.30972,55.223244],[-7.309715,55.223513]]],[[[-7.293824,55.2185],[-7.293772,55.2185],[-7.293771,55.218571],[-7.293823,55.218571],[-7.293824,55.2185]]]]}}]}
