{"type":"FeatureCollection","features":[{"type":"Feature","properties":{"source_fid":618660,"county":"Donegal","bog_geom_ha":113.90567041098252,"low15_pct":98.269079464988195,"low15_ha":111.93405377129596,"overlay_ha":111.91709725603424,"area_delta":-0.016956515261725258},"geometry":{"type":"MultiPolygon","coordinates":[[[[-7.843959,55.130582],[-7.845225,55.130187],[-7.845642,55.13005],[-7.845644,55.129727],[-7.846616,55.129728],[-7.848598,55.129073],[-7.850351,55.1285],[-7.850357,55.127038],[-7.848789,55.127036],[-7.848793,55.126138],[-7.849465,55.126139],[-7.849487,55.126113],[-7.849487,55.12598],[-7.84922,55.125725],[-7.849062,55.125419],[-7.849083,55.12524],[-7.848796,55.12524],[-7.848799,55.124358],[-7.848706,55.124127],[-7.848634,55.123887],[-7.848346,55.123696],[-7.848275,55.12353],[-7.847928,55.123497],[-7.847857,55.123248],[-7.84793,55.12283],[-7.846085,55.121893],[-7.845754,55.121652],[-7.845495,55.121279],[-7.845237,55.120799],[-7.845181,55.120364],[-7.845254,55.120116],[-7.844823,55.11961],[-7.844766,55.119362],[-7.844897,55.119006],[-7.844711,55.118608],[-7.844453,55.118144],[-7.844425,55.117809],[-7.843762,55.117527],[-7.843488,55.117344],[-7.843474,55.117253],[-7.843778,55.117105],[-7.844125,55.117039],[-7.844256,55.116882],[-7.844107,55.116512],[-7.843935,55.116121],[-7.843918,55.116117],[-7.84356,55.116095],[-7.843559,55.116094],[-7.843557,55.116094],[-7.843556,55.116094],[-7.843555,55.116094],[-7.843553,55.116094],[-7.843552,55.116094],[-7.843551,55.116094],[-7.84355,55.116094],[-7.843548,55.116094],[-7.843547,55.116094],[-7.843546,55.116094],[-7.843544,55.116093],[-7.843543,55.116093],[-7.843542,55.116093],[-7.84354,55.116093],[-7.843539,55.116093],[-7.843538,55.116093],[-7.843536,55.116093],[-7.843535,55.116093],[-7.843534,55.116092],[-7.843532,55.116092],[-7.843531,55.116092],[-7.84353,55.116092],[-7.843529,55.116092],[-7.843527,55.116092],[-7.843526,55.116092],[-7.843525,55.116091],[-7.843523,55.116091],[-7.843522,55.116091],[-7.843521,55.116091],[-7.843519,55.116091],[-7.843518,55.116091],[-7.843517,55.116091],[-7.843515,55.11609],[-7.843514,55.11609],[-7.843513,55.11609],[-7.843511,55.11609],[-7.84351,55.11609],[-7.843509,55.11609],[-7.843508,55.11609],[-7.843506,55.116089],[-7.843505,55.116089],[-7.843504,55.116089],[-7.843502,55.116089],[-7.843501,55.116089],[-7.8435,55.116089],[-7.843499,55.116088],[-7.843497,55.116088],[-7.843496,55.116088],[-7.843495,55.116088],[-7.843493,55.116088],[-7.843492,55.116087],[-7.843491,55.116087],[-7.84349,55.116087],[-7.843488,55.116087],[-7.843487,55.116087],[-7.843486,55.116086],[-7.843484,55.116086],[-7.843483,55.116086],[-7.843482,55.116086],[-7.84348,55.116086],[-7.843479,55.116085],[-7.843478,55.116085],[-7.843477,55.116085],[-7.843475,55.116085],[-7.843474,55.116085],[-7.843473,55.116084],[-7.843472,55.116084],[-7.84347,55.116084],[-7.843469,55.116084],[-7.843468,55.116083],[-7.843467,55.116083],[-7.843465,55.116083],[-7.843464,55.116083],[-7.843463,55.116082],[-7.843461,55.116082],[-7.84346,55.116082],[-7.843459,55.116082],[-7.843458,55.116081],[-7.843456,55.116081],[-7.843455,55.116081],[-7.843454,55.116081],[-7.843453,55.11608],[-7.843451,55.11608],[-7.84345,55.11608],[-7.843449,55.11608],[-7.843448,55.116079],[-7.843446,55.116079],[-7.843445,55.116079],[-7.843444,55.116079],[-7.843443,55.116078],[-7.843441,55.116078],[-7.84344,55.116078],[-7.843439,55.116077],[-7.843438,55.116077],[-7.843436,55.116077],[-7.843435,55.116077],[-7.843434,55.116076],[-7.843433,55.116076],[-7.843432,55.116076],[-7.84343,55.116075],[-7.843429,55.116075],[-7.843428,55.116075],[-7.843427,55.116075],[-7.843425,55.116074],[-7.843424,55.116074],[-7.843423,55.116074],[-7.843422,55.116073],[-7.843421,55.116073],[-7.843419,55.116073],[-7.843418,55.116072],[-7.843417,55.116072],[-7.843416,55.116072],[-7.843414,55.116072],[-7.843413,55.116071],[-7.843412,55.116071],[-7.843411,55.116071],[-7.84341,55.11607],[-7.843408,55.11607],[-7.843407,55.11607],[-7.843406,55.116069],[-7.843405,55.116069],[-7.843404,55.116069],[-7.843402,55.116068],[-7.843401,55.116068],[-7.8434,55.116068],[-7.843399,55.116067],[-7.843398,55.116067],[-7.843396,55.116067],[-7.843395,55.116066],[-7.843394,55.116066],[-7.843393,55.116065],[-7.843392,55.116065],[-7.843391,55.116065],[-7.843389,55.116064],[-7.843388,55.116064],[-7.843387,55.116064],[-7.843386,55.116063],[-7.843385,55.116063],[-7.843383,55.116063],[-7.843382,55.116062],[-7.843381,55.116062],[-7.84338,55.116061],[-7.843379,55.116061],[-7.843378,55.116061],[-7.843377,55.11606],[-7.843375,55.11606],[-7.843374,55.11606],[-7.843373,55.116059],[-7.843372,55.116059],[-7.843371,55.116058],[-7.84337,55.116058],[-7.843369,55.116058],[-7.843367,55.116057],[-7.843366,55.116057],[-7.843365,55.116057],[-7.843364,55.116056],[-7.843363,55.116056],[-7.843362,55.116055],[-7.84336,55.116055],[-7.843359,55.116054],[-7.843358,55.116054],[-7.843357,55.116054],[-7.843356,55.116053],[-7.843355,55.116053],[-7.84313,55.115969],[-7.843129,55.115969],[-7.843127,55.115969],[-7.843126,55.115969],[-7.843125,55.115969],[-7.843123,55.115969],[-7.843122,55.115968],[-7.843121,55.115968],[-7.84312,55.115968],[-7.843118,55.115968],[-7.843117,55.115968],[-7.843116,55.115968],[-7.843114,55.115967],[-7.843113,55.115967],[-7.843112,55.115967],[-7.84311,55.115967],[-7.843109,55.115967],[-7.843108,55.115966],[-7.843107,55.115966],[-7.843105,55.115966],[-7.843104,55.115966],[-7.843103,55.115966],[-7.843101,55.115966],[-7.8431,55.115965],[-7.843099,55.115965],[-7.843098,55.115965],[-7.843096,55.115965],[-7.843095,55.115965],[-7.843094,55.115964],[-7.843092,55.115964],[-7.843091,55.115964],[-7.84309,55.115964],[-7.843088,55.115963],[-7.843087,55.115963],[-7.843086,55.115963],[-7.843085,55.115963],[-7.843083,55.115963],[-7.843082,55.115962],[-7.843081,55.115962],[-7.84308,55.115962],[-7.843078,55.115962],[-7.843077,55.115961],[-7.843076,55.115961],[-7.843075,55.115961],[-7.843073,55.115961],[-7.843072,55.11596],[-7.843071,55.11596],[-7.843069,55.11596],[-7.843068,55.11596],[-7.843067,55.115959],[-7.843066,55.115959],[-7.843064,55.115959],[-7.843063,55.115959],[-7.843062,55.115958],[-7.843061,55.115958],[-7.843059,55.115958],[-7.843058,55.115958],[-7.843057,55.115957],[-7.843056,55.115957],[-7.843054,55.115957],[-7.843053,55.115957],[-7.843052,55.115956],[-7.84305,55.115956],[-7.843049,55.115956],[-7.843048,55.115955],[-7.843047,55.115955],[-7.843046,55.115955],[-7.843044,55.115955],[-7.843043,55.115954],[-7.843042,55.115954],[-7.843041,55.115954],[-7.843039,55.115954],[-7.843038,55.115953],[-7.843037,55.115953],[-7.843036,55.115953],[-7.843034,55.115952],[-7.843033,55.115952],[-7.843032,55.115952],[-7.843031,55.115951],[-7.84303,55.115951],[-7.843028,55.115951],[-7.843027,55.11595],[-7.843026,55.11595],[-7.843025,55.11595],[-7.843023,55.115949],[-7.843022,55.115949],[-7.843021,55.115949],[-7.84302,55.115949],[-7.843019,55.115948],[-7.843017,55.115948],[-7.843016,55.115948],[-7.843015,55.115947],[-7.843014,55.115947],[-7.843013,55.115946],[-7.843011,55.115946],[-7.84301,55.115946],[-7.843009,55.115945],[-7.843008,55.115945],[-7.843007,55.115945],[-7.843005,55.115944],[-7.843004,55.115944],[-7.843003,55.115944],[-7.843002,55.115943],[-7.843001,55.115943],[-7.843,55.115943],[-7.842998,55.115942],[-7.842997,55.115942],[-7.842996,55.115942],[-7.842995,55.115941],[-7.842994,55.115941],[-7.842993,55.11594],[-7.842991,55.11594],[-7.84299,55.11594],[-7.842989,55.115939],[-7.842988,55.115939],[-7.842987,55.115939],[-7.842936,55.115922],[-7.842935,55.115921],[-7.842933,55.115921],[-7.842932,55.115921],[-7.842931,55.11592],[-7.84293,55.11592],[-7.842929,55.115919],[-7.842928,55.115919],[-7.842927,55.115919],[-7.842925,55.115918],[-7.842924,55.115918],[-7.842923,55.115918],[-7.842922,55.115917],[-7.842921,55.115917],[-7.84292,55.115916],[-7.842919,55.115916],[-7.842917,55.115915],[-7.842916,55.115915],[-7.842915,55.115915],[-7.842914,55.115914],[-7.842913,55.115914],[-7.842912,55.115913],[-7.842911,55.115913],[-7.84291,55.115913],[-7.842909,55.115912],[-7.842908,55.115912],[-7.842906,55.115911],[-7.842905,55.115911],[-7.842904,55.11591],[-7.842903,55.11591],[-7.842902,55.11591],[-7.842901,55.115909],[-7.8429,55.115909],[-7.842899,55.115908],[-7.842898,55.115908],[-7.842897,55.115907],[-7.842896,55.115907],[-7.842894,55.115907],[-7.842893,55.115906],[-7.842892,55.115906],[-7.842891,55.115905],[-7.84289,55.115905],[-7.842821,55.115875],[-7.84282,55.115875],[-7.842819,55.115874],[-7.842818,55.115874],[-7.842817,55.115874],[-7.842816,55.115873],[-7.842815,55.115873],[-7.842814,55.115872],[-7.842813,55.115872],[-7.842812,55.115871],[-7.84281,55.115871],[-7.842809,55.11587],[-7.842808,55.11587],[-7.842807,55.115869],[-7.842806,55.115869],[-7.842805,55.115868],[-7.842804,55.115868],[-7.842803,55.115867],[-7.842802,55.115867],[-7.842801,55.115866],[-7.8428,55.115866],[-7.842799,55.115865],[-7.842798,55.115865],[-7.842797,55.115864],[-7.842796,55.115864],[-7.842795,55.115863],[-7.842794,55.115863],[-7.842793,55.115862],[-7.842792,55.115862],[-7.842791,55.115861],[-7.84279,55.115861],[-7.842789,55.11586],[-7.842788,55.11586],[-7.842787,55.115859],[-7.842786,55.115859],[-7.842785,55.115858],[-7.842784,55.115858],[-7.842783,55.115857],[-7.842782,55.115857],[-7.842781,55.115856],[-7.84278,55.115856],[-7.842779,55.115855],[-7.842778,55.115855],[-7.842777,55.115854],[-7.842776,55.115854],[-7.842775,55.115853],[-7.842774,55.115853],[-7.842773,55.115852],[-7.842772,55.115852],[-7.842771,55.115851],[-7.84277,55.11585],[-7.842769,55.11585],[-7.842769,55.115849],[-7.842768,55.115849],[-7.842767,55.115848],[-7.842766,55.115848],[-7.842765,55.115847],[-7.842764,55.115847],[-7.842763,55.115846],[-7.842762,55.115846],[-7.842761,55.115845],[-7.84276,55.115845],[-7.842759,55.115844],[-7.842758,55.115843],[-7.842757,55.115843],[-7.842756,55.115842],[-7.842756,55.115842],[-7.842755,55.115841],[-7.842754,55.115841],[-7.842753,55.11584],[-7.842752,55.115839],[-7.842751,55.115839],[-7.84275,55.115838],[-7.842749,55.115838],[-7.842748,55.115837],[-7.842748,55.115837],[-7.842747,55.115836],[-7.842746,55.115835],[-7.842745,55.115835],[-7.842744,55.115834],[-7.842743,55.115834],[-7.842742,55.115833],[-7.842741,55.115833],[-7.842741,55.115832],[-7.84274,55.115831],[-7.842739,55.115831],[-7.842738,55.11583],[-7.842737,55.11583],[-7.842736,55.115829],[-7.842736,55.115828],[-7.842735,55.115828],[-7.842734,55.115827],[-7.842733,55.115827],[-7.842732,55.115826],[-7.842731,55.115825],[-7.842731,55.115825],[-7.84273,55.115824],[-7.842729,55.115824],[-7.842728,55.115823],[-7.842727,55.115822],[-7.842727,55.115822],[-7.842726,55.115821],[-7.842725,55.115821],[-7.842724,55.11582],[-7.842723,55.115819],[-7.842723,55.115819],[-7.842722,55.115818],[-7.842721,55.115818],[-7.84272,55.115817],[-7.842719,55.115816],[-7.842719,55.115816],[-7.842718,55.115815],[-7.842717,55.115814],[-7.842716,55.115814],[-7.842715,55.115813],[-7.842715,55.115812],[-7.842714,55.115812],[-7.842713,55.115811],[-7.842712,55.115811],[-7.842712,55.11581],[-7.842711,55.115809],[-7.84271,55.115809],[-7.84271,55.115808],[-7.842709,55.115807],[-7.842708,55.115807],[-7.842707,55.115806],[-7.842707,55.115806],[-7.842706,55.115805],[-7.842705,55.115804],[-7.842704,55.115804],[-7.842704,55.115803],[-7.842703,55.115802],[-7.842536,55.115757],[-7.841502,55.116533],[-7.840503,55.117282],[-7.840021,55.117643],[-7.839431,55.118075],[-7.836894,55.120021],[-7.835067,55.121448],[-7.833672,55.122523],[-7.832199,55.123677],[-7.832191,55.123684],[-7.832177,55.123695],[-7.831813,55.12398],[-7.831157,55.124494],[-7.830819,55.124759],[-7.83026,55.1252],[-7.830055,55.125354],[-7.82987,55.125425],[-7.829901,55.125434],[-7.829972,55.125429],[-7.830726,55.125376],[-7.830903,55.125365],[-7.831081,55.125353],[-7.831177,55.125346],[-7.831552,55.12531],[-7.832409,55.125213],[-7.832692,55.125184],[-7.833236,55.125109],[-7.833635,55.125051],[-7.833746,55.125034],[-7.833871,55.125018],[-7.834099,55.124981],[-7.834246,55.124961],[-7.83432,55.125039],[-7.83436,55.125093],[-7.834408,55.125135],[-7.834532,55.125299],[-7.834713,55.125492],[-7.834782,55.125559],[-7.834838,55.125626],[-7.834911,55.125719],[-7.835,55.125805],[-7.835064,55.125898],[-7.835167,55.12602],[-7.835272,55.126169],[-7.835376,55.126169],[-7.835375,55.12632],[-7.835482,55.126475],[-7.835721,55.126761],[-7.835828,55.126915],[-7.836038,55.127269],[-7.836163,55.127462],[-7.836445,55.127922],[-7.836744,55.128429],[-7.837022,55.128888],[-7.83709,55.128993],[-7.837119,55.129048],[-7.837242,55.12926],[-7.837335,55.129407],[-7.837591,55.129854],[-7.837834,55.130273],[-7.837915,55.130384],[-7.838088,55.130616],[-7.83816,55.130728],[-7.838216,55.130828],[-7.838401,55.131143],[-7.838469,55.131242],[-7.838662,55.131563],[-7.838768,55.131737],[-7.83885,55.131871],[-7.838914,55.131972],[-7.838941,55.132019],[-7.839077,55.132246],[-7.839488,55.132086],[-7.84085,55.131553],[-7.841063,55.131494],[-7.84153,55.131342],[-7.841818,55.131259],[-7.84184,55.131253],[-7.841861,55.131246],[-7.842319,55.131082],[-7.84281,55.130933],[-7.843035,55.130855],[-7.843197,55.13081],[-7.843549,55.130713],[-7.843845,55.130624],[-7.843959,55.130582]],[[-7.839613,55.125097],[-7.840084,55.125097],[-7.840083,55.125367],[-7.839612,55.125366],[-7.839609,55.126175],[-7.839606,55.126983],[-7.839135,55.126983],[-7.839139,55.126174],[-7.838668,55.126174],[-7.838672,55.125365],[-7.838201,55.125364],[-7.838202,55.125095],[-7.838203,55.124825],[-7.839614,55.124827],[-7.839613,55.125097]],[[-7.842429,55.126718],[-7.842899,55.126718],[-7.842898,55.126988],[-7.842428,55.126987],[-7.842429,55.126718]],[[-7.840073,55.127793],[-7.840074,55.127523],[-7.840544,55.127524],[-7.840543,55.127793],[-7.840073,55.127793]],[[-7.839129,55.1286],[-7.838188,55.128599],[-7.838189,55.128329],[-7.83866,55.12833],[-7.838661,55.12806],[-7.839131,55.128061],[-7.83913,55.12833],[-7.839129,55.1286]],[[-7.837718,55.128598],[-7.838188,55.128599],[-7.838187,55.128868],[-7.837717,55.128868],[-7.837718,55.128598]]]]}}]}
