{"type":"FeatureCollection","features":[{"type":"Feature","properties":{"source_fid":624614,"county":"Donegal","bog_geom_ha":210.37457224918566,"low15_pct":74.075648108797282,"low15_ha":155.83632784969427,"overlay_ha":156.16807407632564,"area_delta":0.33174622663136688},"geometry":{"type":"MultiPolygon","coordinates":[[[[-7.404479,55.199681],[-7.404386,55.199691],[-7.40427,55.199697],[-7.404164,55.199683],[-7.404088,55.199621],[-7.404039,55.20292],[-7.403333,55.202917],[-7.403329,55.202972],[-7.403312,55.203176],[-7.403294,55.203792],[-7.403393,55.203791],[-7.403772,55.203763],[-7.403933,55.203754],[-7.404056,55.203744],[-7.404334,55.203731],[-7.404627,55.203739],[-7.404884,55.203763],[-7.405112,55.203788],[-7.405255,55.203806],[-7.405255,55.203802],[-7.405726,55.203804],[-7.405725,55.203869],[-7.405886,55.203881],[-7.406149,55.203904],[-7.406493,55.203932],[-7.406876,55.203966],[-7.407237,55.203987],[-7.407442,55.204003],[-7.407702,55.204012],[-7.407983,55.204026],[-7.408262,55.204037],[-7.4086,55.204049],[-7.408632,55.204052],[-7.408991,55.204084],[-7.409452,55.204114],[-7.409697,55.204133],[-7.409484,55.20517],[-7.409947,55.205172],[-7.409939,55.205711],[-7.409468,55.205709],[-7.409464,55.205979],[-7.408993,55.205976],[-7.408995,55.205827],[-7.40858,55.20626],[-7.408416,55.206442],[-7.407582,55.206332],[-7.407085,55.206262],[-7.406813,55.206433],[-7.406674,55.206526],[-7.407127,55.206528],[-7.407119,55.207045],[-7.407563,55.207047],[-7.407559,55.207317],[-7.40803,55.207319],[-7.408038,55.20678],[-7.408509,55.206782],[-7.408513,55.206513],[-7.409456,55.206518],[-7.40946,55.206248],[-7.409931,55.20625],[-7.409927,55.20652],[-7.409923,55.206789],[-7.409452,55.206787],[-7.409444,55.207326],[-7.408973,55.207324],[-7.408969,55.207593],[-7.408965,55.207863],[-7.408493,55.207861],[-7.408485,55.2084],[-7.408957,55.208402],[-7.408949,55.208941],[-7.408933,55.210019],[-7.409875,55.210023],[-7.409874,55.210135],[-7.410215,55.210136],[-7.410228,55.209238],[-7.412244,55.209248],[-7.412244,55.209226],[-7.412248,55.208957],[-7.412719,55.208959],[-7.412715,55.209229],[-7.413187,55.209231],[-7.41319,55.208961],[-7.413374,55.208962],[-7.413382,55.208355],[-7.414953,55.208363],[-7.414966,55.207464],[-7.41604,55.20747],[-7.416042,55.207358],[-7.416513,55.20736],[-7.416512,55.207472],[-7.416537,55.207472],[-7.416535,55.20763],[-7.416981,55.207632],[-7.416977,55.207901],[-7.416973,55.208171],[-7.41697,55.208372],[-7.418094,55.208378],[-7.41809,55.208715],[-7.418379,55.208717],[-7.418375,55.208986],[-7.418371,55.209256],[-7.418842,55.209258],[-7.418838,55.209527],[-7.418834,55.209797],[-7.417892,55.209792],[-7.417896,55.209523],[-7.417558,55.209521],[-7.417546,55.209533],[-7.417488,55.209576],[-7.417387,55.209629],[-7.417349,55.209668],[-7.41733,55.209712],[-7.417331,55.209737],[-7.417365,55.209746],[-7.417442,55.209746],[-7.417515,55.209733],[-7.417586,55.209717],[-7.417638,55.209696],[-7.417674,55.209653],[-7.417688,55.209643],[-7.417732,55.209628],[-7.417804,55.209622],[-7.417831,55.209627],[-7.417847,55.209652],[-7.417839,55.209676],[-7.417821,55.209708],[-7.417798,55.209726],[-7.417772,55.209744],[-7.417738,55.20977],[-7.417731,55.209796],[-7.417742,55.209814],[-7.41778,55.209833],[-7.417877,55.209872],[-7.417905,55.209895],[-7.417918,55.20992],[-7.417922,55.20997],[-7.417922,55.209972],[-7.417936,55.209991],[-7.417972,55.210009],[-7.418034,55.21002],[-7.418249,55.210049],[-7.418371,55.210086],[-7.418476,55.210117],[-7.418559,55.210117],[-7.418626,55.210093],[-7.418682,55.210068],[-7.418811,55.210074],[-7.418907,55.210077],[-7.419064,55.210027],[-7.419219,55.21001],[-7.419368,55.209996],[-7.419452,55.210069],[-7.419773,55.210071],[-7.419777,55.209801],[-7.420248,55.209804],[-7.420256,55.209265],[-7.420727,55.209267],[-7.420731,55.208997],[-7.420735,55.208728],[-7.421207,55.20873],[-7.421211,55.208461],[-7.421214,55.208191],[-7.421686,55.208193],[-7.42169,55.207924],[-7.421694,55.207654],[-7.422165,55.207656],[-7.422169,55.207387],[-7.422173,55.207117],[-7.422644,55.20712],[-7.422648,55.20685],[-7.423119,55.206852],[-7.423127,55.206313],[-7.424069,55.206318],[-7.424073,55.206048],[-7.425016,55.206053],[-7.42502,55.205783],[-7.424548,55.205781],[-7.424552,55.205512],[-7.424556,55.205242],[-7.423142,55.205235],[-7.423139,55.205505],[-7.422667,55.205503],[-7.42266,55.206042],[-7.422656,55.206311],[-7.422184,55.206309],[-7.42218,55.206578],[-7.422177,55.206848],[-7.421705,55.206846],[-7.421701,55.207115],[-7.421697,55.207385],[-7.42125,55.207383],[-7.421249,55.207494],[-7.421225,55.207494],[-7.421222,55.207652],[-7.42028,55.207648],[-7.420276,55.207917],[-7.419333,55.207913],[-7.419329,55.208182],[-7.418858,55.20818],[-7.418854,55.208449],[-7.418383,55.208447],[-7.418387,55.208178],[-7.417915,55.208175],[-7.417919,55.207906],[-7.417448,55.207904],[-7.417452,55.207634],[-7.417456,55.207365],[-7.417927,55.207367],[-7.417931,55.207097],[-7.418113,55.207098],[-7.418121,55.206581],[-7.420766,55.206594],[-7.420767,55.206572],[-7.421238,55.206574],[-7.421242,55.206304],[-7.421246,55.206035],[-7.421717,55.206037],[-7.421725,55.205498],[-7.421729,55.205229],[-7.4222,55.205231],[-7.422204,55.204961],[-7.422675,55.204964],[-7.422679,55.204694],[-7.42315,55.204696],[-7.423154,55.204427],[-7.424568,55.204434],[-7.424572,55.204164],[-7.425043,55.204166],[-7.425051,55.203627],[-7.425055,55.203358],[-7.425526,55.20336],[-7.425538,55.202551],[-7.426009,55.202554],[-7.426017,55.202015],[-7.425545,55.202012],[-7.425549,55.201743],[-7.425553,55.201473],[-7.425082,55.201471],[-7.425086,55.201202],[-7.42509,55.200932],[-7.425561,55.200934],[-7.425562,55.200844],[-7.425451,55.200819],[-7.424995,55.200726],[-7.424732,55.200675],[-7.424503,55.200629],[-7.424156,55.20056],[-7.424153,55.200559],[-7.424151,55.200658],[-7.423209,55.200654],[-7.423205,55.200923],[-7.422734,55.200921],[-7.42273,55.20119],[-7.423201,55.201193],[-7.423197,55.201462],[-7.422726,55.20146],[-7.422722,55.201729],[-7.421779,55.201725],[-7.421783,55.201456],[-7.421787,55.201186],[-7.421316,55.201184],[-7.42132,55.200914],[-7.422262,55.200919],[-7.422266,55.200649],[-7.42227,55.20038],[-7.421799,55.200377],[-7.421803,55.200108],[-7.421332,55.200106],[-7.421334,55.199952],[-7.421148,55.199906],[-7.421055,55.199873],[-7.420903,55.199819],[-7.420776,55.199763],[-7.420642,55.19969],[-7.420557,55.199655],[-7.4205,55.199642],[-7.420394,55.199681],[-7.420283,55.19971],[-7.420204,55.199714],[-7.420087,55.199724],[-7.41996,55.19975],[-7.419852,55.199743],[-7.419726,55.199751],[-7.419639,55.19979],[-7.419575,55.199899],[-7.419523,55.199908],[-7.419326,55.199902],[-7.419193,55.199957],[-7.41905,55.200031],[-7.41897,55.200066],[-7.418825,55.200053],[-7.418668,55.200047],[-7.418477,55.200067],[-7.41845,55.200072],[-7.418283,55.200103],[-7.418083,55.200147],[-7.41793,55.20019],[-7.417847,55.200225],[-7.417734,55.200218],[-7.417641,55.200236],[-7.417512,55.200278],[-7.417431,55.200287],[-7.417284,55.200259],[-7.417061,55.20021],[-7.416987,55.200209],[-7.41689,55.200237],[-7.41681,55.200296],[-7.416764,55.20033],[-7.416675,55.20033],[-7.416604,55.200342],[-7.416519,55.200369],[-7.416481,55.200392],[-7.416419,55.200396],[-7.41629,55.200375],[-7.416182,55.200366],[-7.416147,55.200325],[-7.416102,55.200302],[-7.415987,55.200286],[-7.415934,55.200271],[-7.415917,55.200239],[-7.415873,55.200229],[-7.41582,55.200234],[-7.415752,55.200259],[-7.415664,55.200246],[-7.415579,55.200286],[-7.415462,55.200339],[-7.415372,55.20034],[-7.415307,55.200308],[-7.415225,55.20024],[-7.415194,55.200228],[-7.415151,55.200231],[-7.415139,55.200267],[-7.415056,55.20028],[-7.414957,55.200297],[-7.4149,55.200293],[-7.414839,55.200292],[-7.414807,55.200326],[-7.414779,55.200341],[-7.414743,55.200355],[-7.41466,55.200324],[-7.414603,55.200351],[-7.414543,55.200353],[-7.414496,55.200362],[-7.414424,55.200398],[-7.414377,55.200369],[-7.414349,55.200364],[-7.414171,55.20032],[-7.414092,55.200339],[-7.414005,55.20033],[-7.413909,55.200337],[-7.413851,55.200387],[-7.413797,55.200368],[-7.413762,55.200322],[-7.41366,55.200338],[-7.413607,55.200394],[-7.413549,55.200447],[-7.413464,55.200433],[-7.41339,55.200434],[-7.413374,55.20043],[-7.413343,55.200423],[-7.413271,55.20042],[-7.413215,55.200401],[-7.413169,55.200401],[-7.413078,55.200436],[-7.413015,55.200462],[-7.412925,55.200464],[-7.412842,55.200411],[-7.412783,55.200408],[-7.412736,55.200433],[-7.412579,55.200452],[-7.412494,55.20041],[-7.412444,55.200385],[-7.412322,55.200364],[-7.412251,55.200367],[-7.412124,55.200374],[-7.412032,55.200344],[-7.411939,55.200348],[-7.411839,55.200359],[-7.411763,55.200356],[-7.411736,55.200328],[-7.411714,55.200304],[-7.411574,55.200327],[-7.411477,55.200311],[-7.41139,55.200313],[-7.411314,55.200333],[-7.411192,55.200317],[-7.411041,55.200292],[-7.410987,55.200309],[-7.410909,55.200365],[-7.410841,55.20039],[-7.410736,55.200374],[-7.410611,55.20038],[-7.410456,55.200387],[-7.410383,55.200423],[-7.410303,55.200417],[-7.41023,55.200379],[-7.410121,55.200386],[-7.410043,55.200399],[-7.409897,55.200356],[-7.409763,55.200313],[-7.409624,55.200289],[-7.409488,55.20031],[-7.409353,55.200307],[-7.409282,55.20025],[-7.409213,55.200231],[-7.409103,55.200211],[-7.409022,55.200159],[-7.408952,55.200147],[-7.408841,55.200153],[-7.408793,55.200105],[-7.408792,55.200105],[-7.408757,55.200098],[-7.408629,55.200149],[-7.408549,55.200162],[-7.408499,55.200148],[-7.408479,55.200097],[-7.40841,55.200042],[-7.408343,55.200011],[-7.40829,55.200035],[-7.408215,55.200062],[-7.408127,55.199947],[-7.40807,55.199937],[-7.408023,55.199939],[-7.407996,55.19999],[-7.407932,55.200002],[-7.407911,55.200038],[-7.407905,55.200063],[-7.407848,55.200078],[-7.40774,55.200094],[-7.407685,55.200067],[-7.407643,55.200016],[-7.407583,55.200006],[-7.407545,55.199983],[-7.407477,55.199917],[-7.407449,55.199918],[-7.407316,55.199952],[-7.407222,55.199937],[-7.407143,55.1999],[-7.407112,55.199863],[-7.407044,55.199851],[-7.406943,55.19986],[-7.406828,55.199824],[-7.406756,55.1998],[-7.406676,55.199824],[-7.406607,55.199864],[-7.406549,55.199886],[-7.406487,55.199852],[-7.406473,55.199825],[-7.40639,55.199823],[-7.406334,55.199876],[-7.406347,55.199915],[-7.406368,55.199941],[-7.406301,55.199959],[-7.406234,55.199932],[-7.406129,55.199886],[-7.406057,55.19986],[-7.405961,55.199853],[-7.405807,55.199885],[-7.405644,55.199892],[-7.40556,55.199873],[-7.405403,55.199809],[-7.405194,55.199733],[-7.404983,55.199699],[-7.404926,55.199723],[-7.40481,55.199789],[-7.404754,55.199828],[-7.404674,55.199828],[-7.404607,55.199778],[-7.404479,55.199681]],[[-7.421308,55.201723],[-7.421779,55.201725],[-7.421776,55.201995],[-7.421304,55.201992],[-7.4213,55.202262],[-7.420829,55.20226],[-7.420825,55.202529],[-7.420354,55.202527],[-7.420342,55.203335],[-7.419871,55.203333],[-7.419867,55.203603],[-7.419863,55.203872],[-7.419392,55.20387],[-7.419388,55.204139],[-7.419384,55.204409],[-7.418913,55.204407],[-7.418909,55.204676],[-7.418905,55.204946],[-7.418434,55.204943],[-7.41843,55.205213],[-7.417959,55.205211],[-7.417963,55.204941],[-7.417966,55.204672],[-7.418438,55.204674],[-7.418442,55.204404],[-7.418446,55.204135],[-7.418917,55.204137],[-7.418921,55.203868],[-7.418925,55.203598],[-7.419396,55.2036],[-7.4194,55.203331],[-7.419412,55.202522],[-7.419883,55.202525],[-7.419887,55.202255],[-7.419891,55.201986],[-7.420362,55.201988],[-7.420366,55.201718],[-7.420837,55.201721],[-7.420841,55.201451],[-7.421312,55.201453],[-7.421308,55.201723]],[[-7.410418,55.205175],[-7.409947,55.205172],[-7.409955,55.204633],[-7.410426,55.204636],[-7.410418,55.205175]],[[-7.411369,55.20464],[-7.410426,55.204636],[-7.41043,55.204366],[-7.410902,55.204368],[-7.410906,55.204099],[-7.411377,55.204101],[-7.411373,55.204371],[-7.411369,55.20464]],[[-7.418885,55.206293],[-7.419357,55.206296],[-7.419353,55.206565],[-7.418881,55.206563],[-7.418885,55.206293]],[[-7.41041,55.205714],[-7.410414,55.205444],[-7.410886,55.205446],[-7.410882,55.205716],[-7.41041,55.205714]]],[[[-7.422024,55.200109],[-7.421804,55.20006],[-7.421803,55.200108],[-7.422024,55.200109]]],[[[-7.427159,55.201172],[-7.426972,55.201131],[-7.426971,55.20121],[-7.426499,55.201208],[-7.426496,55.201478],[-7.426492,55.201747],[-7.426963,55.201749],[-7.426959,55.202019],[-7.426951,55.202558],[-7.42694,55.203367],[-7.426936,55.203636],[-7.426465,55.203634],[-7.426457,55.204173],[-7.426453,55.204442],[-7.426449,55.204712],[-7.42692,55.204714],[-7.426916,55.204984],[-7.426913,55.205253],[-7.427855,55.205258],[-7.427851,55.205527],[-7.42738,55.205525],[-7.427378,55.205646],[-7.427946,55.205514],[-7.428797,55.205335],[-7.428798,55.205262],[-7.429136,55.205264],[-7.429269,55.205235],[-7.429273,55.204995],[-7.42928,55.204456],[-7.429288,55.203917],[-7.428817,55.203914],[-7.428821,55.203645],[-7.428825,55.203375],[-7.428828,55.203106],[-7.429771,55.20311],[-7.429767,55.20338],[-7.430238,55.203382],[-7.430242,55.203112],[-7.430713,55.203115],[-7.430717,55.202845],[-7.43166,55.20285],[-7.431656,55.203119],[-7.431185,55.203117],[-7.431181,55.203386],[-7.43071,55.203384],[-7.430706,55.203654],[-7.429763,55.203649],[-7.429759,55.203919],[-7.429752,55.204458],[-7.430223,55.20446],[-7.430215,55.204999],[-7.430387,55.205],[-7.431686,55.204726],[-7.432693,55.204725],[-7.432748,55.204571],[-7.432815,55.204413],[-7.432821,55.2044],[-7.432881,55.204159],[-7.432931,55.204015],[-7.433001,55.203838],[-7.433085,55.20359],[-7.4332,55.203312],[-7.43331,55.203011],[-7.433361,55.202794],[-7.433431,55.202514],[-7.433449,55.20242],[-7.433477,55.202277],[-7.433483,55.202162],[-7.433083,55.202161],[-7.433081,55.202317],[-7.43261,55.202315],[-7.432606,55.202584],[-7.431664,55.20258],[-7.431667,55.202311],[-7.43167,55.202118],[-7.431461,55.202124],[-7.431242,55.202138],[-7.430843,55.202157],[-7.430639,55.202158],[-7.430358,55.202118],[-7.430161,55.202073],[-7.429958,55.202033],[-7.429746,55.201974],[-7.429495,55.201912],[-7.429244,55.201841],[-7.429143,55.20182],[-7.428988,55.201788],[-7.428767,55.201733],[-7.428529,55.201663],[-7.428332,55.201563],[-7.428199,55.201486],[-7.427438,55.201482],[-7.427442,55.20123],[-7.427159,55.201172]],[[-7.428326,55.20526],[-7.427855,55.205258],[-7.427859,55.204988],[-7.427863,55.204719],[-7.428334,55.204721],[-7.428338,55.204451],[-7.428809,55.204453],[-7.428805,55.204723],[-7.428801,55.204992],[-7.42833,55.20499],[-7.428326,55.20526]]],[[[-7.425918,55.210639],[-7.425893,55.210594],[-7.425892,55.210639],[-7.425918,55.210639]]],[[[-7.428121,55.211188],[-7.427769,55.211232],[-7.427762,55.211726],[-7.427291,55.211724],[-7.427287,55.211993],[-7.42823,55.211998],[-7.428229,55.212018],[-7.429038,55.212022],[-7.429049,55.211193],[-7.428713,55.211191],[-7.428714,55.211116],[-7.428242,55.211174],[-7.428241,55.211189],[-7.428121,55.211188]]],[[[-7.430521,55.210894],[-7.430239,55.210929],[-7.430602,55.210931],[-7.430599,55.211131],[-7.430621,55.211131],[-7.43062,55.2112],[-7.431069,55.211202],[-7.431066,55.211472],[-7.431058,55.212011],[-7.431054,55.21228],[-7.43105,55.21255],[-7.430579,55.212548],[-7.430583,55.212278],[-7.430111,55.212276],[-7.430115,55.212027],[-7.429038,55.212022],[-7.429026,55.21281],[-7.429161,55.21281],[-7.429157,55.21308],[-7.431514,55.213091],[-7.43151,55.21336],[-7.431981,55.213363],[-7.431978,55.213632],[-7.43197,55.214171],[-7.431962,55.21471],[-7.432905,55.214715],[-7.432901,55.214984],[-7.432893,55.215523],[-7.432422,55.215521],[-7.432414,55.21606],[-7.431943,55.216058],[-7.431935,55.216597],[-7.434764,55.21661],[-7.43476,55.216879],[-7.435703,55.216884],[-7.435706,55.216614],[-7.437121,55.216621],[-7.437117,55.21689],[-7.437588,55.216893],[-7.437584,55.217162],[-7.438527,55.217166],[-7.438524,55.217387],[-7.438741,55.217357],[-7.438783,55.217316],[-7.438798,55.217298],[-7.438828,55.217259],[-7.438837,55.217237],[-7.43883,55.217203],[-7.43879,55.217135],[-7.438729,55.217091],[-7.438678,55.217057],[-7.438638,55.217002],[-7.438631,55.21693],[-7.438641,55.216816],[-7.438655,55.216702],[-7.438638,55.216602],[-7.438605,55.216502],[-7.43856,55.216446],[-7.438467,55.216366],[-7.43841,55.216294],[-7.438362,55.216235],[-7.438356,55.216202],[-7.438364,55.216165],[-7.438379,55.216086],[-7.438351,55.215962],[-7.438368,55.215941],[-7.438387,55.215919],[-7.438406,55.215903],[-7.438446,55.215876],[-7.438452,55.215854],[-7.438446,55.215815],[-7.438438,55.215715],[-7.438441,55.215688],[-7.438446,55.215662],[-7.438467,55.215619],[-7.438456,55.215532],[-7.438471,55.215422],[-7.438455,55.21534],[-7.438429,55.215261],[-7.438393,55.215227],[-7.438342,55.215192],[-7.438235,55.215139],[-7.438159,55.215071],[-7.438128,55.215029],[-7.43811,55.214978],[-7.438097,55.214883],[-7.438141,55.214701],[-7.438196,55.214548],[-7.43822,55.21446],[-7.438198,55.214407],[-7.438113,55.214332],[-7.437965,55.214243],[-7.437842,55.214176],[-7.437745,55.214053],[-7.43769,55.213973],[-7.437611,55.213787],[-7.437616,55.213761],[-7.43763,55.213652],[-7.437563,55.213486],[-7.437559,55.21336],[-7.437582,55.213222],[-7.437578,55.213189],[-7.437597,55.21311],[-7.437632,55.213085],[-7.437644,55.213054],[-7.43765,55.213016],[-7.437657,55.212955],[-7.437668,55.212849],[-7.437694,55.212649],[-7.437718,55.212529],[-7.437781,55.212472],[-7.437823,55.212391],[-7.437876,55.212329],[-7.437926,55.212277],[-7.437977,55.212251],[-7.437991,55.212207],[-7.438019,55.212067],[-7.438025,55.212013],[-7.438069,55.21195],[-7.438132,55.211906],[-7.438195,55.211875],[-7.438247,55.211833],[-7.438284,55.211781],[-7.438282,55.211727],[-7.438278,55.211711],[-7.438342,55.211685],[-7.438443,55.211662],[-7.438477,55.211633],[-7.438476,55.211577],[-7.438522,55.211501],[-7.438595,55.211469],[-7.438716,55.211446],[-7.438763,55.211419],[-7.438765,55.211396],[-7.438724,55.211352],[-7.438634,55.211299],[-7.438628,55.211283],[-7.438683,55.211271],[-7.438752,55.211252],[-7.438824,55.211219],[-7.438874,55.211143],[-7.438947,55.210984],[-7.438936,55.210972],[-7.438912,55.210946],[-7.438941,55.210921],[-7.438962,55.210903],[-7.439012,55.210851],[-7.439086,55.210805],[-7.439176,55.210778],[-7.439204,55.210737],[-7.439201,55.210679],[-7.439214,55.210638],[-7.439335,55.210554],[-7.439411,55.210492],[-7.439423,55.210391],[-7.439385,55.210334],[-7.439354,55.21028],[-7.439345,55.21026],[-7.439376,55.210216],[-7.439369,55.210161],[-7.439456,55.210081],[-7.439553,55.209976],[-7.439582,55.209957],[-7.439638,55.209935],[-7.439698,55.209899],[-7.439784,55.209822],[-7.43981,55.209748],[-7.439861,55.209703],[-7.439893,55.209663],[-7.439928,55.209632],[-7.439952,55.209618],[-7.439999,55.209475],[-7.439992,55.209444],[-7.440014,55.209411],[-7.44006,55.209404],[-7.44016,55.209424],[-7.440226,55.209408],[-7.440299,55.209354],[-7.44032,55.209325],[-7.440403,55.209182],[-7.440496,55.209085],[-7.440549,55.209039],[-7.440684,55.209001],[-7.44075,55.208957],[-7.440827,55.208925],[-7.441039,55.208906],[-7.441174,55.208893],[-7.441206,55.208866],[-7.441235,55.20882],[-7.441242,55.2088],[-7.441246,55.208791],[-7.441317,55.208712],[-7.441378,55.208619],[-7.441432,55.208556],[-7.441535,55.208478],[-7.4416,55.208432],[-7.441684,55.20841],[-7.441813,55.208376],[-7.441941,55.208337],[-7.442078,55.20828],[-7.442126,55.208259],[-7.442194,55.208234],[-7.44204,55.208213],[-7.441904,55.208177],[-7.441849,55.208174],[-7.441824,55.208163],[-7.441813,55.208155],[-7.441786,55.208134],[-7.441765,55.208125],[-7.441734,55.208126],[-7.441699,55.208134],[-7.44166,55.208151],[-7.441592,55.208166],[-7.441504,55.20818],[-7.441424,55.208172],[-7.441393,55.208172],[-7.441371,55.208184],[-7.441345,55.208195],[-7.441314,55.20821],[-7.441272,55.208219],[-7.441036,55.208112],[-7.440908,55.208124],[-7.440886,55.208118],[-7.440859,55.208099],[-7.440798,55.208066],[-7.440701,55.207998],[-7.440612,55.207931],[-7.440535,55.207918],[-7.440427,55.20788],[-7.440113,55.207893],[-7.43974,55.207852],[-7.439481,55.207846],[-7.439298,55.207882],[-7.439184,55.207919],[-7.439024,55.207882],[-7.438832,55.207844],[-7.438621,55.207836],[-7.438435,55.207765],[-7.438289,55.207752],[-7.438072,55.207815],[-7.437928,55.207833],[-7.437821,55.207957],[-7.437669,55.207969],[-7.436786,55.2082],[-7.435727,55.208509],[-7.435275,55.208673],[-7.435231,55.20859],[-7.435112,55.208518],[-7.435003,55.208461],[-7.434918,55.208409],[-7.434815,55.20833],[-7.434702,55.20827],[-7.434486,55.20821],[-7.434293,55.208129],[-7.433971,55.208041],[-7.433714,55.207976],[-7.433544,55.207937],[-7.433099,55.208021],[-7.433028,55.208036],[-7.432907,55.208055],[-7.43279,55.208066],[-7.432714,55.208061],[-7.43184,55.207989],[-7.431921,55.208773],[-7.432097,55.210159],[-7.431553,55.210327],[-7.431552,55.210396],[-7.432966,55.210402],[-7.43297,55.210133],[-7.433441,55.210135],[-7.433445,55.209866],[-7.434388,55.20987],[-7.434392,55.2096],[-7.434863,55.209603],[-7.434859,55.209872],[-7.434855,55.210142],[-7.434384,55.21014],[-7.43438,55.210409],[-7.433909,55.210407],[-7.433905,55.210676],[-7.433434,55.210674],[-7.43343,55.210944],[-7.432959,55.210941],[-7.432955,55.211211],[-7.432012,55.211207],[-7.432008,55.211476],[-7.431537,55.211474],[-7.431541,55.211204],[-7.431545,55.210935],[-7.431548,55.210665],[-7.431155,55.210664],[-7.431175,55.210671],[-7.431359,55.210726],[-7.430521,55.210894]],[[-7.433924,55.209329],[-7.43392,55.209598],[-7.433449,55.209596],[-7.433453,55.209327],[-7.433457,55.209057],[-7.433928,55.209059],[-7.433932,55.20879],[-7.434403,55.208792],[-7.434399,55.209061],[-7.434395,55.209331],[-7.433924,55.209329]]],[[[-7.431051,55.210628],[-7.431077,55.210637],[-7.43108,55.210474],[-7.43087,55.210539],[-7.430955,55.210588],[-7.431051,55.210628]]],[[[-7.430368,55.218611],[-7.430493,55.218592],[-7.430494,55.218477],[-7.429551,55.218472],[-7.429554,55.218312],[-7.428948,55.218309],[-7.42894,55.21884],[-7.429075,55.218822],[-7.429076,55.21874],[-7.429547,55.218742],[-7.429547,55.218748],[-7.429755,55.218708],[-7.430072,55.21865],[-7.430368,55.218611]]],[[[-7.42896,55.217411],[-7.430509,55.217419],[-7.43051,55.217399],[-7.430981,55.217401],[-7.430985,55.217131],[-7.430513,55.217129],[-7.430517,55.21686],[-7.430046,55.216858],[-7.43005,55.216588],[-7.430057,55.216049],[-7.429586,55.216047],[-7.429594,55.215508],[-7.429601,55.214969],[-7.430073,55.214971],[-7.430077,55.214701],[-7.430084,55.214162],[-7.429613,55.21416],[-7.429621,55.213621],[-7.429149,55.213619],[-7.429153,55.213349],[-7.429019,55.213349],[-7.428972,55.216583],[-7.429107,55.216584],[-7.429099,55.217123],[-7.428965,55.217122],[-7.42896,55.217411]]],[[[-7.417415,55.209484],[-7.417425,55.209484],[-7.417428,55.209273],[-7.417089,55.209271],[-7.417094,55.209272],[-7.41722,55.209287],[-7.417302,55.209287],[-7.417358,55.209298],[-7.417369,55.209325],[-7.417359,55.20937],[-7.41736,55.209426],[-7.417372,55.209465],[-7.417415,55.209484]]],[[[-7.409441,55.205382],[-7.409113,55.205707],[-7.409468,55.205709],[-7.409475,55.205213],[-7.409441,55.205382]]],[[[-7.416623,55.209375],[-7.416666,55.209363],[-7.41668,55.209338],[-7.416657,55.209304],[-7.416638,55.209271],[-7.416639,55.209269],[-7.416485,55.209268],[-7.416484,55.209385],[-7.416574,55.209378],[-7.416623,55.209375]]],[[[-7.416111,55.209533],[-7.416134,55.209514],[-7.41601,55.209514],[-7.416008,55.209666],[-7.416027,55.209665],[-7.416072,55.209653],[-7.416092,55.209634],[-7.416072,55.209604],[-7.41607,55.20958],[-7.416111,55.209533]]],[[[-7.415898,55.209786],[-7.415899,55.209783],[-7.415535,55.209781],[-7.415534,55.209883],[-7.415564,55.209836],[-7.4156,55.209797],[-7.415622,55.209787],[-7.415659,55.209787],[-7.415735,55.209808],[-7.415815,55.209814],[-7.415862,55.209804],[-7.415898,55.209786]]],[[[-7.415428,55.210081],[-7.415425,55.21005],[-7.41506,55.210048],[-7.415056,55.210318],[-7.414585,55.210316],[-7.414581,55.210585],[-7.414497,55.210585],[-7.414696,55.210687],[-7.414778,55.210736],[-7.414818,55.210722],[-7.414883,55.210712],[-7.414969,55.210683],[-7.415009,55.210653],[-7.415008,55.210629],[-7.414998,55.210611],[-7.414999,55.210592],[-7.415019,55.210573],[-7.415061,55.210539],[-7.41509,55.210527],[-7.415146,55.210519],[-7.415175,55.2105],[-7.415233,55.210446],[-7.415261,55.210415],[-7.415273,55.210377],[-7.415282,55.210359],[-7.415294,55.21035],[-7.415324,55.210348],[-7.41536,55.210363],[-7.415399,55.210364],[-7.415421,55.210355],[-7.415425,55.210322],[-7.415423,55.210289],[-7.415413,55.210282],[-7.415388,55.210287],[-7.415355,55.210287],[-7.415353,55.210267],[-7.415355,55.210244],[-7.415371,55.210211],[-7.4154,55.210188],[-7.415428,55.210174],[-7.415473,55.210173],[-7.415511,55.210168],[-7.415524,55.210153],[-7.415517,55.21013],[-7.415454,55.210097],[-7.415428,55.210081]]],[[[-7.413633,55.210943],[-7.413751,55.210851],[-7.413634,55.21085],[-7.413633,55.210943]]],[[[-7.413341,55.211171],[-7.413408,55.211119],[-7.413159,55.211117],[-7.413156,55.211316],[-7.413341,55.211171]]],[[[-7.412979,55.211454],[-7.413065,55.211386],[-7.412683,55.211385],[-7.412679,55.211654],[-7.412208,55.211652],[-7.412204,55.211921],[-7.412202,55.212072],[-7.412364,55.211943],[-7.412979,55.211454]]],[[[-7.411994,55.212238],[-7.412053,55.21219],[-7.411755,55.212189],[-7.411752,55.212431],[-7.411844,55.212365],[-7.411994,55.212238]]],[[[-7.418862,55.20791],[-7.418866,55.207641],[-7.418394,55.207639],[-7.418391,55.207908],[-7.418862,55.20791]]]]}}]}
