{"type":"FeatureCollection","features":[{"type":"Feature","properties":{"source_fid":631077,"county":"Donegal","bog_geom_ha":339.06014013863449,"low15_pct":82.105822919436321,"low15_ha":278.38811825261985,"overlay_ha":278.60156390607426,"area_delta":0.21344565345441424},"geometry":{"type":"MultiPolygon","coordinates":[[[[-8.517715,54.99005],[-8.518104,54.990657],[-8.518248,54.990819],[-8.518311,54.990957],[-8.518471,54.991291],[-8.518484,54.991319],[-8.518614,54.991584],[-8.518772,54.991839],[-8.518977,54.992179],[-8.519002,54.992221],[-8.519191,54.992509],[-8.519291,54.992756],[-8.519602,54.993253],[-8.519621,54.993283],[-8.519753,54.993485],[-8.519921,54.993746],[-8.520057,54.993983],[-8.520207,54.994229],[-8.520358,54.994387],[-8.520574,54.994624],[-8.520687,54.994742],[-8.520763,54.994831],[-8.520799,54.994873],[-8.521002,54.995066],[-8.521155,54.995089],[-8.521479,54.995156],[-8.522214,54.995283],[-8.522599,54.995369],[-8.522751,54.995399],[-8.522992,54.995444],[-8.523204,54.995488],[-8.523371,54.995516],[-8.523647,54.995566],[-8.523904,54.995621],[-8.524021,54.995925],[-8.524073,54.996091],[-8.524164,54.996354],[-8.524203,54.996451],[-8.524284,54.996696],[-8.524315,54.996767],[-8.524438,54.99712],[-8.524535,54.997432],[-8.524566,54.997545],[-8.524662,54.99783],[-8.524783,54.997873],[-8.524951,54.997754],[-8.524977,54.997766],[-8.525315,54.997916],[-8.525315,54.997916],[-8.524664,54.998475],[-8.524664,54.998475],[-8.524664,54.998475],[-8.524663,54.998507],[-8.524662,54.998666],[-8.524663,54.999047],[-8.524659,54.999304],[-8.524641,54.999617],[-8.524623,55.000019],[-8.524597,55.00019],[-8.524571,55.000289],[-8.524505,55.00052],[-8.524447,55.00074],[-8.524441,55.000763],[-8.52441,55.000897],[-8.524688,55.000896],[-8.524692,55.001165],[-8.524695,55.001435],[-8.524713,55.002782],[-8.524244,55.002784],[-8.524251,55.003323],[-8.52472,55.003321],[-8.524741,55.004938],[-8.52521,55.004936],[-8.525213,55.005206],[-8.524744,55.005208],[-8.524748,55.005478],[-8.524279,55.00548],[-8.524275,55.00521],[-8.523806,55.005212],[-8.523803,55.004942],[-8.523782,55.003325],[-8.523775,55.002786],[-8.52376,55.001615],[-8.523059,55.001708],[-8.522134,55.001838],[-8.521198,55.001972],[-8.52006,55.002128],[-8.520015,55.002136],[-8.520034,55.003611],[-8.520041,55.00415],[-8.52051,55.004148],[-8.520514,55.004418],[-8.520517,55.004687],[-8.520986,55.004685],[-8.520982,55.004416],[-8.521451,55.004414],[-8.521444,55.003874],[-8.520975,55.003876],[-8.520968,55.003337],[-8.521906,55.003333],[-8.521913,55.003872],[-8.522382,55.00387],[-8.522389,55.00441],[-8.522393,55.004679],[-8.522396,55.004949],[-8.5224,55.005218],[-8.522869,55.005216],[-8.522872,55.005486],[-8.52289,55.006833],[-8.522897,55.007372],[-8.5229,55.007642],[-8.522431,55.007644],[-8.522428,55.007374],[-8.52149,55.007378],[-8.521493,55.007648],[-8.521497,55.007917],[-8.521504,55.008456],[-8.521973,55.008454],[-8.52198,55.008993],[-8.521983,55.009263],[-8.522452,55.009261],[-8.522456,55.00953],[-8.522459,55.0098],[-8.522928,55.009798],[-8.522932,55.010067],[-8.52387,55.010063],[-8.523873,55.010333],[-8.524811,55.010329],[-8.524815,55.010598],[-8.525753,55.010594],[-8.525756,55.010864],[-8.527632,55.010856],[-8.527636,55.011125],[-8.527639,55.011365],[-8.527827,55.011394],[-8.529515,55.011387],[-8.529512,55.011117],[-8.529981,55.011115],[-8.529977,55.010846],[-8.531384,55.010839],[-8.531388,55.011109],[-8.531857,55.011107],[-8.53186,55.011376],[-8.531864,55.011638],[-8.531878,55.011647],[-8.531911,55.01167],[-8.531941,55.011694],[-8.531969,55.011719],[-8.531993,55.011744],[-8.532015,55.011771],[-8.532033,55.011799],[-8.532048,55.011827],[-8.53206,55.011855],[-8.532069,55.011884],[-8.532074,55.011913],[-8.532076,55.011943],[-8.532075,55.011972],[-8.532075,55.011975],[-8.532079,55.011985],[-8.532091,55.012013],[-8.5321,55.012042],[-8.532106,55.012071],[-8.532108,55.012101],[-8.532106,55.01213],[-8.532102,55.012159],[-8.532095,55.012184],[-8.53234,55.012183],[-8.532343,55.012452],[-8.532347,55.012722],[-8.53235,55.012992],[-8.532358,55.013531],[-8.533296,55.013526],[-8.533299,55.013796],[-8.532361,55.0138],[-8.532365,55.01407],[-8.532834,55.014068],[-8.532837,55.014337],[-8.532841,55.014607],[-8.53331,55.014605],[-8.533314,55.014874],[-8.533783,55.014872],[-8.533786,55.015142],[-8.534724,55.015137],[-8.534728,55.015407],[-8.534731,55.015676],[-8.5352,55.015674],[-8.535204,55.015944],[-8.535673,55.015942],[-8.535677,55.016211],[-8.536146,55.016209],[-8.536153,55.016748],[-8.536622,55.016746],[-8.536626,55.017016],[-8.537095,55.017014],[-8.537098,55.017283],[-8.537567,55.017281],[-8.537571,55.017551],[-8.537574,55.01782],[-8.538044,55.017818],[-8.538046,55.017985],[-8.538406,55.017911],[-8.538612,55.017862],[-8.538604,55.017253],[-8.539117,55.017251],[-8.539208,55.017139],[-8.53944,55.017018],[-8.53944,55.017003],[-8.539433,55.016464],[-8.539902,55.016462],[-8.539894,55.015923],[-8.540149,55.015922],[-8.540146,55.015681],[-8.540113,55.015643],[-8.54011,55.015472],[-8.540124,55.01545],[-8.540142,55.015421],[-8.54013,55.014552],[-8.54101,55.014548],[-8.541318,55.01414],[-8.541523,55.013789],[-8.54171,55.013607],[-8.542085,55.013387],[-8.542204,55.013354],[-8.542204,55.013351],[-8.542213,55.013351],[-8.54265,55.013228],[-8.543239,55.013237],[-8.543232,55.012741],[-8.544714,55.012735],[-8.544796,55.012604],[-8.544966,55.012375],[-8.545163,55.012231],[-8.545314,55.012199],[-8.545314,55.012199],[-8.544946,55.01176],[-8.544451,55.011148],[-8.544177,55.010787],[-8.543989,55.010418],[-8.543755,55.009997],[-8.543456,55.009442],[-8.543311,55.009148],[-8.54328,55.009084],[-8.543064,55.008704],[-8.542939,55.008253],[-8.542818,55.007999],[-8.542497,55.00741],[-8.542106,55.006722],[-8.541891,55.006299],[-8.541669,55.005849],[-8.541634,55.005783],[-8.541647,55.006751],[-8.54024,55.006757],[-8.540226,55.005679],[-8.540222,55.00541],[-8.54116,55.005406],[-8.541164,55.005675],[-8.541576,55.005673],[-8.541398,55.005337],[-8.540338,55.003518],[-8.540014,55.003394],[-8.540219,55.003317],[-8.540279,55.003294],[-8.54033,55.003251],[-8.540405,55.003159],[-8.540422,55.00313],[-8.539875,55.003011],[-8.539453,55.002874],[-8.539439,55.00287],[-8.539399,55.00286],[-8.539346,55.002887],[-8.539313,55.002904],[-8.539034,55.002892],[-8.538788,55.002852],[-8.538147,55.002648],[-8.537499,55.002485],[-8.537195,55.002417],[-8.536972,55.00238],[-8.536752,55.002355],[-8.536657,55.002324],[-8.53657,55.002385],[-8.536328,55.002306],[-8.53644,55.00222],[-8.536434,55.002217],[-8.535075,55.001543],[-8.53381,55.00091],[-8.53416,55.000648],[-8.534767,55.000203],[-8.534968,55.000056],[-8.534979,55.00005],[-8.534991,55.000042],[-8.532648,55.000052],[-8.532652,55.000322],[-8.530776,55.00033],[-8.530773,55.000061],[-8.530304,55.000063],[-8.5303,54.999793],[-8.530297,54.999524],[-8.529828,54.999526],[-8.529824,54.999256],[-8.529355,54.999258],[-8.529352,54.998989],[-8.528883,54.998991],[-8.528879,54.998721],[-8.528411,54.998723],[-8.528407,54.998454],[-8.528404,54.998184],[-8.5284,54.997915],[-8.530275,54.997906],[-8.530279,54.998176],[-8.531217,54.998172],[-8.53122,54.998441],[-8.533095,54.998433],[-8.533099,54.998703],[-8.534974,54.998695],[-8.534971,54.998425],[-8.536846,54.998417],[-8.53685,54.998686],[-8.537348,54.998684],[-8.537587,54.998568],[-8.537722,54.998497],[-8.537937,54.998395],[-8.537982,54.997822],[-8.537968,54.997421],[-8.537975,54.997125],[-8.537974,54.997069],[-8.537936,54.995806],[-8.537988,54.995278],[-8.53818,54.994795],[-8.538203,54.994725],[-8.538202,54.994637],[-8.537265,54.994641],[-8.537268,54.994911],[-8.535862,54.994917],[-8.535865,54.995187],[-8.534459,54.995193],[-8.534455,54.994923],[-8.534924,54.994921],[-8.534921,54.994652],[-8.535858,54.994648],[-8.535855,54.994378],[-8.536792,54.994374],[-8.536789,54.994104],[-8.53841,54.994097],[-8.538446,54.993987],[-8.538498,54.993827],[-8.538191,54.993829],[-8.538188,54.993559],[-8.53725,54.993563],[-8.537247,54.993294],[-8.538184,54.99329],[-8.538181,54.99302],[-8.538603,54.993018],[-8.538603,54.992974],[-8.538621,54.992771],[-8.538574,54.992646],[-8.538462,54.992458],[-8.538245,54.99218],[-8.538168,54.992085],[-8.538173,54.992481],[-8.538177,54.992751],[-8.535364,54.992763],[-8.535361,54.992493],[-8.536767,54.992487],[-8.536756,54.991679],[-8.537225,54.991677],[-8.537219,54.99121],[-8.536693,54.991212],[-8.536682,54.990389],[-8.536608,54.990314],[-8.535119,54.990321],[-8.535107,54.989422],[-8.533545,54.989429],[-8.533537,54.988838],[-8.533459,54.988862],[-8.533152,54.988954],[-8.532963,54.989009],[-8.532837,54.98905],[-8.53256,54.989128],[-8.532354,54.989192],[-8.532171,54.989027],[-8.531996,54.988937],[-8.531861,54.988886],[-8.531564,54.988757],[-8.53128,54.988661],[-8.53104,54.988573],[-8.530733,54.988467],[-8.530438,54.988389],[-8.530301,54.988359],[-8.530034,54.988278],[-8.529707,54.988179],[-8.529432,54.988087],[-8.528964,54.987943],[-8.528594,54.987824],[-8.528366,54.987752],[-8.528154,54.987689],[-8.527814,54.98759],[-8.527668,54.987544],[-8.527399,54.987448],[-8.527159,54.987362],[-8.526946,54.987287],[-8.526694,54.9872],[-8.526328,54.987075],[-8.525915,54.986925],[-8.5257,54.986855],[-8.525494,54.986787],[-8.524947,54.986603],[-8.524722,54.986524],[-8.524648,54.986497],[-8.524415,54.986398],[-8.524147,54.986297],[-8.523915,54.986207],[-8.52358,54.986059],[-8.523272,54.985936],[-8.522906,54.985788],[-8.522598,54.985669],[-8.522315,54.985564],[-8.522193,54.985509],[-8.522116,54.985479],[-8.521944,54.985412],[-8.521914,54.985402],[-8.521903,54.985398],[-8.521867,54.985418],[-8.521504,54.985597],[-8.521296,54.985711],[-8.520891,54.985928],[-8.520429,54.986178],[-8.519543,54.986635],[-8.519088,54.98687],[-8.518687,54.987073],[-8.518213,54.987339],[-8.517755,54.987588],[-8.517288,54.987836],[-8.516872,54.988051],[-8.516861,54.988057],[-8.516764,54.988117],[-8.516598,54.988196],[-8.516786,54.988516],[-8.516956,54.9888],[-8.51703,54.988799],[-8.517032,54.988926],[-8.51709,54.989023],[-8.517294,54.989365],[-8.517343,54.989446],[-8.517438,54.989603],[-8.517604,54.989878],[-8.517715,54.99005]],[[-8.532013,55.000636],[-8.532013,55.000636],[-8.532107,55.000677],[-8.532131,55.000687],[-8.532264,55.000745],[-8.532133,55.000822],[-8.531978,55.000914],[-8.531978,55.000914],[-8.531891,55.000874],[-8.531848,55.000855],[-8.531602,55.001024],[-8.531602,55.001024],[-8.531602,55.001024],[-8.531489,55.001013],[-8.531449,55.001009],[-8.531449,55.001009],[-8.531449,55.001009],[-8.531258,55.000964],[-8.531135,55.000935],[-8.531135,55.000935],[-8.531135,55.000935],[-8.531111,55.000928],[-8.531111,55.000928],[-8.531111,55.000928],[-8.531407,55.000689],[-8.531542,55.000734],[-8.531737,55.000799],[-8.531739,55.000798],[-8.532013,55.000636],[-8.532013,55.000636]],[[-8.531139,55.000985],[-8.531259,55.00101],[-8.531162,55.0011],[-8.530917,55.001029],[-8.531007,55.000945],[-8.531139,55.000985]],[[-8.531994,54.990334],[-8.531995,54.990352],[-8.532051,54.990352],[-8.532054,54.990621],[-8.532523,54.990619],[-8.532534,54.991428],[-8.532065,54.99143],[-8.532069,54.991699],[-8.532072,54.991969],[-8.532074,54.99213],[-8.53358,54.992124],[-8.533592,54.993022],[-8.53068,54.993035],[-8.53068,54.993053],[-8.530468,54.993054],[-8.530479,54.993934],[-8.528917,54.993941],[-8.528913,54.9936],[-8.528812,54.9936],[-8.528809,54.993331],[-8.528805,54.993061],[-8.528805,54.993043],[-8.528336,54.993045],[-8.528336,54.993063],[-8.527399,54.993067],[-8.527402,54.993337],[-8.526933,54.993339],[-8.52693,54.993069],[-8.525524,54.993075],[-8.525523,54.993057],[-8.524219,54.993063],[-8.524207,54.992165],[-8.521083,54.992178],[-8.521077,54.991747],[-8.520818,54.991748],[-8.520815,54.991478],[-8.520346,54.99148],[-8.520343,54.991211],[-8.519405,54.991215],[-8.519402,54.990945],[-8.518933,54.990947],[-8.518929,54.990678],[-8.518926,54.990408],[-8.519395,54.990406],[-8.519391,54.990137],[-8.51986,54.990135],[-8.519856,54.989865],[-8.520794,54.989861],[-8.520797,54.990131],[-8.520801,54.9904],[-8.520804,54.99067],[-8.520336,54.990672],[-8.520339,54.990941],[-8.520808,54.990939],[-8.520811,54.991209],[-8.52128,54.991207],[-8.521281,54.991279],[-8.525757,54.99126],[-8.525749,54.990649],[-8.525492,54.99065],[-8.525488,54.99038],[-8.524551,54.990384],[-8.524547,54.990115],[-8.525016,54.990113],[-8.525013,54.989843],[-8.525481,54.989841],[-8.525478,54.989572],[-8.525947,54.98957],[-8.525943,54.9893],[-8.526412,54.989298],[-8.526408,54.989029],[-8.527346,54.989024],[-8.527342,54.988755],[-8.527811,54.988753],[-8.527807,54.988483],[-8.530151,54.988473],[-8.530154,54.988743],[-8.531092,54.988739],[-8.531096,54.989008],[-8.531099,54.989278],[-8.530162,54.989282],[-8.530165,54.989551],[-8.529696,54.989553],[-8.5297,54.989823],[-8.527356,54.989833],[-8.52736,54.990103],[-8.527363,54.990354],[-8.530176,54.990342],[-8.530172,54.99009],[-8.530169,54.989821],[-8.531106,54.989817],[-8.53111,54.990086],[-8.531578,54.990084],[-8.531582,54.990336],[-8.531994,54.990334]],[[-8.536316,54.993837],[-8.535847,54.993839],[-8.535844,54.99357],[-8.535375,54.993572],[-8.535371,54.993302],[-8.536309,54.993298],[-8.536313,54.993567],[-8.536316,54.993837]],[[-8.535025,55.002468],[-8.535962,55.002464],[-8.535966,55.002733],[-8.534559,55.002739],[-8.534556,55.00247],[-8.533618,55.002474],[-8.533614,55.002204],[-8.532677,55.002209],[-8.532673,55.001939],[-8.532204,55.001941],[-8.532201,55.001672],[-8.531263,55.001676],[-8.531259,55.001406],[-8.531256,55.001137],[-8.531725,55.001135],[-8.531728,55.001404],[-8.532666,55.0014],[-8.532669,55.00167],[-8.533607,55.001665],[-8.533611,55.001935],[-8.534549,55.001931],[-8.534552,55.0022],[-8.535021,55.002198],[-8.535025,55.002468]],[[-8.539331,55.008918],[-8.539328,55.008648],[-8.539797,55.008646],[-8.5398,55.008916],[-8.539331,55.008918]],[[-8.535612,55.01136],[-8.535619,55.011899],[-8.535623,55.012169],[-8.53563,55.012708],[-8.534692,55.012712],[-8.534685,55.012173],[-8.534216,55.012175],[-8.534212,55.011905],[-8.533743,55.011907],[-8.533747,55.012177],[-8.533278,55.012179],[-8.533274,55.011909],[-8.533267,55.01137],[-8.532798,55.011372],[-8.532794,55.011103],[-8.532787,55.010564],[-8.533256,55.010562],[-8.533263,55.011101],[-8.534201,55.011097],[-8.534198,55.010827],[-8.535136,55.010823],[-8.535139,55.011093],[-8.535143,55.011362],[-8.535612,55.01136]],[[-8.533507,54.994119],[-8.532101,54.994125],[-8.532104,54.994395],[-8.531635,54.994397],[-8.531632,54.994127],[-8.531628,54.993858],[-8.532566,54.993853],[-8.532562,54.993584],[-8.533031,54.993582],[-8.533035,54.993851],[-8.533504,54.993849],[-8.533507,54.994119]],[[-8.533242,55.009484],[-8.533249,55.010023],[-8.532311,55.010027],[-8.532304,55.009488],[-8.531835,55.00949],[-8.531828,55.008951],[-8.532766,55.008947],[-8.532773,55.009486],[-8.533242,55.009484]],[[-8.527335,54.988216],[-8.526398,54.98822],[-8.526394,54.98795],[-8.527332,54.987946],[-8.527335,54.988216]],[[-8.524523,54.988228],[-8.526398,54.98822],[-8.526401,54.98849],[-8.525932,54.988492],[-8.525936,54.988761],[-8.525467,54.988763],[-8.525471,54.989033],[-8.525002,54.989035],[-8.525006,54.989304],[-8.524068,54.989308],[-8.524065,54.989039],[-8.523127,54.989043],[-8.523131,54.989312],[-8.522662,54.989314],[-8.522658,54.989045],[-8.522655,54.988775],[-8.523592,54.988771],[-8.523589,54.988502],[-8.524526,54.988498],[-8.524523,54.988228]],[[-8.524289,55.006288],[-8.524293,55.006558],[-8.523355,55.006562],[-8.523352,55.006292],[-8.52382,55.00629],[-8.523817,55.006021],[-8.524286,55.006019],[-8.524289,55.006288]],[[-8.524296,55.006827],[-8.524293,55.006558],[-8.524762,55.006556],[-8.524765,55.006825],[-8.525234,55.006823],[-8.525238,55.007093],[-8.525241,55.007362],[-8.524772,55.007364],[-8.524769,55.007095],[-8.5243,55.007097],[-8.524296,55.006827]],[[-8.525735,55.009247],[-8.525739,55.009516],[-8.526207,55.009514],[-8.526211,55.009784],[-8.526215,55.010053],[-8.525746,55.010055],[-8.525742,55.009786],[-8.525273,55.009788],[-8.52527,55.009518],[-8.525266,55.009249],[-8.524797,55.009251],[-8.524794,55.008981],[-8.524325,55.008983],[-8.524318,55.008444],[-8.524311,55.007905],[-8.524779,55.007903],[-8.524787,55.008442],[-8.525255,55.00844],[-8.525263,55.008979],[-8.525731,55.008977],[-8.525735,55.009247]]],[[[-8.538232,54.994637],[-8.538321,54.994367],[-8.538199,54.994368],[-8.538202,54.994637],[-8.538232,54.994637]]],[[[-8.53711,55.018177],[-8.537578,55.018081],[-8.537574,55.01782],[-8.537105,55.017822],[-8.537109,55.018092],[-8.53711,55.018177]]],[[[-8.521537,55.01104],[-8.522006,55.011038],[-8.522004,55.01088],[-8.522001,55.010611],[-8.521997,55.010341],[-8.521318,55.010344],[-8.521325,55.010883],[-8.521535,55.010882],[-8.521537,55.01104]]],[[[-8.520262,55.008999],[-8.520263,55.009001],[-8.520573,55.008999],[-8.520566,55.00846],[-8.520097,55.008462],[-8.52009,55.007923],[-8.519724,55.007925],[-8.519729,55.008352],[-8.519735,55.008794],[-8.519789,55.00883],[-8.519964,55.008886],[-8.520262,55.008999]]],[[[-8.519717,55.007454],[-8.51972,55.007655],[-8.520086,55.007654],[-8.520083,55.007384],[-8.520076,55.006845],[-8.520545,55.006843],[-8.520528,55.005496],[-8.520059,55.005498],[-8.520055,55.005228],[-8.520052,55.004959],[-8.519583,55.004961],[-8.519579,55.004691],[-8.519576,55.004422],[-8.519107,55.004424],[-8.519103,55.004154],[-8.519096,55.003615],[-8.518627,55.003617],[-8.518635,55.004185],[-8.518941,55.004629],[-8.518958,55.004628],[-8.519165,55.00492],[-8.519635,55.005568],[-8.518652,55.005533],[-8.518655,55.005773],[-8.518186,55.005775],[-8.51819,55.006045],[-8.518659,55.006043],[-8.518677,55.007459],[-8.519717,55.007454]]],[[[-8.529821,54.998987],[-8.53029,54.998985],[-8.530286,54.998715],[-8.529817,54.998717],[-8.529821,54.998987]]],[[[-8.531227,54.99898],[-8.53029,54.998985],[-8.530293,54.999254],[-8.530762,54.999252],[-8.530765,54.999522],[-8.531703,54.999517],[-8.5317,54.999248],[-8.531231,54.99925],[-8.531227,54.99898]]]]}}]}
