{"type":"FeatureCollection","features":[{"type":"Feature","properties":{"source_fid":633656,"county":"Donegal","bog_geom_ha":131.02574837096782,"low15_pct":94.387405886379199,"low15_ha":123.67180493057127,"overlay_ha":123.75971412580027,"area_delta":0.087909195229002535},"geometry":{"type":"MultiPolygon","coordinates":[[[[-8.042178,55.132696],[-8.0422,55.132748],[-8.042215,55.132784],[-8.042263,55.132894],[-8.042313,55.133032],[-8.042325,55.133094],[-8.042348,55.13322],[-8.04237,55.133388],[-8.042376,55.133435],[-8.042389,55.133509],[-8.042421,55.13369],[-8.042449,55.133899],[-8.042456,55.133993],[-8.042462,55.134086],[-8.042488,55.134219],[-8.042489,55.134226],[-8.0425,55.134302],[-8.042521,55.134453],[-8.042547,55.134575],[-8.04256,55.134636],[-8.042578,55.134744],[-8.042585,55.13481],[-8.042591,55.134875],[-8.042598,55.134995],[-8.044061,55.134297],[-8.044678,55.133999],[-8.046474,55.134855],[-8.047353,55.135278],[-8.048528,55.135847],[-8.048654,55.135764],[-8.048763,55.135697],[-8.048881,55.135571],[-8.049019,55.135518],[-8.049287,55.135421],[-8.049437,55.135374],[-8.049445,55.135376],[-8.049445,55.135204],[-8.049925,55.135204],[-8.050293,55.135031],[-8.050314,55.135025],[-8.050764,55.134834],[-8.050724,55.134781],[-8.051012,55.134655],[-8.051012,55.134306],[-8.052196,55.134305],[-8.052302,55.134141],[-8.052345,55.134091],[-8.052514,55.134012],[-8.052885,55.133842],[-8.052972,55.133784],[-8.053008,55.13376],[-8.053078,55.133713],[-8.053326,55.133524],[-8.053405,55.133448],[-8.053575,55.133284],[-8.053607,55.133256],[-8.054204,55.133095],[-8.054633,55.133003],[-8.054961,55.132924],[-8.054997,55.132927],[-8.055058,55.13288],[-8.055248,55.132776],[-8.055265,55.132718],[-8.05526,55.132683],[-8.055253,55.132637],[-8.055265,55.132528],[-8.055298,55.132391],[-8.055217,55.132284],[-8.055064,55.132163],[-8.054639,55.13196],[-8.054339,55.131809],[-8.054145,55.131795],[-8.053959,55.131742],[-8.053894,55.131726],[-8.0538,55.131702],[-8.053703,55.131618],[-8.053685,55.131596],[-8.053555,55.13144],[-8.053497,55.13137],[-8.053377,55.131248],[-8.053267,55.131137],[-8.053182,55.13104],[-8.05303,55.130865],[-8.052898,55.130713],[-8.052877,55.13069],[-8.052677,55.130471],[-8.052505,55.130283],[-8.052304,55.130062],[-8.052159,55.129903],[-8.051967,55.129692],[-8.051801,55.12951],[-8.051788,55.129496],[-8.051663,55.129353],[-8.051456,55.129116],[-8.05126,55.128893],[-8.050745,55.128304],[-8.050669,55.12822],[-8.050374,55.127896],[-8.050359,55.127878],[-8.050099,55.127577],[-8.049956,55.127411],[-8.049753,55.127189],[-8.049558,55.126977],[-8.049099,55.126475],[-8.049063,55.126435],[-8.049136,55.12635],[-8.048777,55.126089],[-8.048739,55.12605],[-8.048374,55.125664],[-8.048111,55.125387],[-8.047683,55.125142],[-8.047446,55.125006],[-8.047028,55.124664],[-8.046915,55.12454],[-8.046812,55.124427],[-8.044729,55.124428],[-8.044682,55.124428],[-8.044682,55.124655],[-8.043741,55.124655],[-8.043742,55.124925],[-8.043271,55.124925],[-8.043272,55.125195],[-8.043163,55.125195],[-8.043163,55.125326],[-8.042331,55.125327],[-8.042331,55.125465],[-8.041861,55.125465],[-8.041861,55.125734],[-8.041391,55.125734],[-8.041391,55.126004],[-8.040921,55.126004],[-8.040921,55.126274],[-8.040451,55.126274],[-8.040451,55.126543],[-8.039981,55.126543],[-8.039981,55.126813],[-8.038462,55.126813],[-8.038463,55.128023],[-8.040031,55.128022],[-8.040033,55.130717],[-8.041601,55.130716],[-8.041602,55.131614],[-8.039891,55.131615],[-8.039901,55.131634],[-8.039952,55.131786],[-8.039841,55.132076],[-8.039659,55.132594],[-8.039621,55.132703],[-8.039567,55.132864],[-8.039478,55.133115],[-8.039345,55.133539],[-8.039655,55.13338],[-8.04026,55.133106],[-8.040866,55.132818],[-8.041529,55.132503],[-8.041662,55.132438],[-8.042,55.132271],[-8.042046,55.132254],[-8.042046,55.132254],[-8.042046,55.132254],[-8.042048,55.132264],[-8.042059,55.132316],[-8.042102,55.132469],[-8.042157,55.132635],[-8.042178,55.132696]]],[[[-8.030491,55.123362],[-8.03041,55.123451],[-8.030326,55.123534],[-8.032189,55.123533],[-8.03219,55.124389],[-8.033394,55.124389],[-8.033394,55.124431],[-8.035325,55.124431],[-8.035324,55.123532],[-8.036891,55.123532],[-8.036892,55.123849],[-8.037156,55.123849],[-8.037155,55.12304],[-8.037625,55.12304],[-8.037625,55.122771],[-8.038566,55.12277],[-8.038566,55.122501],[-8.039506,55.122501],[-8.039506,55.12277],[-8.039977,55.12277],[-8.039977,55.12304],[-8.040447,55.123039],[-8.040448,55.123848],[-8.039037,55.123848],[-8.039037,55.124118],[-8.038567,55.124118],[-8.038567,55.12443],[-8.039508,55.124429],[-8.039508,55.124387],[-8.040449,55.124387],[-8.040448,55.124118],[-8.040919,55.124117],[-8.040918,55.123848],[-8.041594,55.123848],[-8.041594,55.12353],[-8.042799,55.12353],[-8.042799,55.123039],[-8.043269,55.123038],[-8.04327,55.12353],[-8.044728,55.123529],[-8.044727,55.122631],[-8.045712,55.122631],[-8.04568,55.122394],[-8.045633,55.122045],[-8.04549,55.121916],[-8.045307,55.121751],[-8.04523,55.121681],[-8.04484,55.1213],[-8.044526,55.120974],[-8.044393,55.120865],[-8.044032,55.120539],[-8.043891,55.120319],[-8.043829,55.120211],[-8.043759,55.120006],[-8.04372,55.119904],[-8.043713,55.119894],[-8.043709,55.119888],[-8.043692,55.119886],[-8.043442,55.119859],[-8.042962,55.11985],[-8.042813,55.119847],[-8.042264,55.119833],[-8.042227,55.119832],[-8.042188,55.11983],[-8.041804,55.119824],[-8.041144,55.119822],[-8.040481,55.119808],[-8.040154,55.119812],[-8.03936,55.119851],[-8.03856,55.11988],[-8.037946,55.119893],[-8.037664,55.119902],[-8.037086,55.11992],[-8.036519,55.119937],[-8.03577,55.119949],[-8.035033,55.119975],[-8.034407,55.119993],[-8.033629,55.12001],[-8.033065,55.120027],[-8.032544,55.120042],[-8.032094,55.120055],[-8.031919,55.12006],[-8.03171,55.120064],[-8.031494,55.120067],[-8.030909,55.120081],[-8.03051,55.120092],[-8.030464,55.120096],[-8.030381,55.120103],[-8.03007,55.12011],[-8.029729,55.120116],[-8.029446,55.120121],[-8.028802,55.120148],[-8.028401,55.120159],[-8.027852,55.120168],[-8.027482,55.120179],[-8.027096,55.120186],[-8.027049,55.120187],[-8.026829,55.120188],[-8.026691,55.120189],[-8.026249,55.120189],[-8.025703,55.120204],[-8.025604,55.120207],[-8.025032,55.120195],[-8.023362,55.120105],[-8.023365,55.120118],[-8.023377,55.120176],[-8.023506,55.120301],[-8.023573,55.120365],[-8.02355,55.120403],[-8.023527,55.120433],[-8.023529,55.120445],[-8.023531,55.120453],[-8.023562,55.120466],[-8.023617,55.120479],[-8.023671,55.120479],[-8.023678,55.120479],[-8.023741,55.120479],[-8.023816,55.120508],[-8.023828,55.120534],[-8.023913,55.120565],[-8.024023,55.120594],[-8.024093,55.120621],[-8.024124,55.120645],[-8.024101,55.120674],[-8.024082,55.120694],[-8.024004,55.120708],[-8.023973,55.120724],[-8.023981,55.120737],[-8.024005,55.120759],[-8.024021,55.120804],[-8.024048,55.120831],[-8.024095,55.120839],[-8.024138,55.120857],[-8.024208,55.120872],[-8.024251,55.120924],[-8.024283,55.120961],[-8.024318,55.12099],[-8.024357,55.120995],[-8.024404,55.120999],[-8.024482,55.120992],[-8.024544,55.120958],[-8.024551,55.120934],[-8.02466,55.120938],[-8.024719,55.120951],[-8.024738,55.120976],[-8.024739,55.121011],[-8.024743,55.121036],[-8.024755,55.121072],[-8.024763,55.121134],[-8.024763,55.121159],[-8.024795,55.121183],[-8.024861,55.121181],[-8.024911,55.121172],[-8.02495,55.121151],[-8.024997,55.121167],[-8.025052,55.121185],[-8.025161,55.121244],[-8.025216,55.121291],[-8.025302,55.121342],[-8.025342,55.121378],[-8.02535,55.121418],[-8.025346,55.12144],[-8.025346,55.121467],[-8.025331,55.121485],[-8.025257,55.121501],[-8.025206,55.121526],[-8.025211,55.121552],[-8.025238,55.121566],[-8.025289,55.121577],[-8.025366,55.121567],[-8.025374,55.121588],[-8.025414,55.121614],[-8.025464,55.121643],[-8.025496,55.121668],[-8.025523,55.121685],[-8.025632,55.121703],[-8.025718,55.121734],[-8.025773,55.121743],[-8.025796,55.121763],[-8.025824,55.121776],[-8.025906,55.121773],[-8.025956,55.121749],[-8.025956,55.121713],[-8.025963,55.121682],[-8.025994,55.121673],[-8.026057,55.121684],[-8.026108,55.121715],[-8.02619,55.121757],[-8.026221,55.121788],[-8.026241,55.121824],[-8.026249,55.121859],[-8.026218,55.121882],[-8.026214,55.1219],[-8.026238,55.121915],[-8.0263,55.121922],[-8.026401,55.121933],[-8.026437,55.12195],[-8.026476,55.121972],[-8.026492,55.121993],[-8.02648,55.122019],[-8.026441,55.122055],[-8.026539,55.122097],[-8.026606,55.122146],[-8.026699,55.12217],[-8.026762,55.122161],[-8.026808,55.12213],[-8.026863,55.122121],[-8.026886,55.122136],[-8.026929,55.12215],[-8.026968,55.12215],[-8.027089,55.122142],[-8.027213,55.12212],[-8.027295,55.122093],[-8.027365,55.122092],[-8.027431,55.122115],[-8.027474,55.122139],[-8.027498,55.122146],[-8.027529,55.122145],[-8.027579,55.122134],[-8.027548,55.122105],[-8.027571,55.122074],[-8.02761,55.122078],[-8.027637,55.122103],[-8.027665,55.122118],[-8.027801,55.122124],[-8.027937,55.122126],[-8.028004,55.122135],[-8.028094,55.122175],[-8.028113,55.122206],[-8.028184,55.122224],[-8.028324,55.122254],[-8.028375,55.122259],[-8.028449,55.12225],[-8.028495,55.122241],[-8.028593,55.122225],[-8.028643,55.122247],[-8.028741,55.122302],[-8.02878,55.122324],[-8.028901,55.122355],[-8.028952,55.122386],[-8.028972,55.122429],[-8.029069,55.12244],[-8.029112,55.122448],[-8.029249,55.122497],[-8.029319,55.122508],[-8.029378,55.122535],[-8.029483,55.122525],[-8.029557,55.122509],[-8.029676,55.122474],[-8.029685,55.122471],[-8.029764,55.122443],[-8.02984,55.122408],[-8.029961,55.122423],[-8.03,55.122425],[-8.030051,55.122425],[-8.030149,55.122485],[-8.030219,55.122527],[-8.030325,55.122569],[-8.030562,55.122613],[-8.03075,55.122651],[-8.03089,55.122688],[-8.030918,55.122699],[-8.031007,55.122699],[-8.031089,55.122676],[-8.031174,55.122685],[-8.031154,55.122703],[-8.03107,55.122781],[-8.031047,55.12281],[-8.030996,55.12282],[-8.03093,55.122824],[-8.030892,55.122856],[-8.030853,55.122898],[-8.030818,55.122914],[-8.030787,55.122941],[-8.030823,55.12299],[-8.030784,55.123028],[-8.030702,55.123033],[-8.030644,55.123077],[-8.030649,55.123167],[-8.030575,55.123185],[-8.030525,55.123203],[-8.030521,55.123261],[-8.030491,55.123362]],[[-8.042799,55.122769],[-8.042799,55.123039],[-8.041858,55.123039],[-8.041858,55.122769],[-8.041858,55.1225],[-8.042328,55.1225],[-8.042328,55.122769],[-8.042799,55.122769]]],[[[-8.036893,55.125328],[-8.037157,55.125328],[-8.037157,55.125197],[-8.036893,55.125197],[-8.036893,55.125328]]]]}}]}
