{"type":"FeatureCollection","features":[{"type":"Feature","properties":{"source_fid":633654,"county":"Donegal","bog_geom_ha":347.90308688746177,"low15_pct":96.332899869960983,"low15_ha":335.14513233580192,"overlay_ha":334.95992673194797,"area_delta":-0.18520560385394447},"geometry":{"type":"MultiPolygon","coordinates":[[[[-8.253487,55.145442],[-8.253248,55.144999],[-8.25311,55.144833],[-8.251287,55.144837],[-8.251287,55.144888],[-8.249875,55.144891],[-8.249875,55.14484],[-8.249405,55.144841],[-8.249405,55.144892],[-8.248464,55.144894],[-8.248462,55.144625],[-8.247991,55.144626],[-8.24799,55.144356],[-8.247519,55.144357],[-8.247518,55.144087],[-8.247047,55.144088],[-8.247045,55.143819],[-8.246575,55.14382],[-8.246573,55.14355],[-8.246103,55.143551],[-8.246101,55.143282],[-8.24563,55.143283],[-8.245629,55.143013],[-8.245158,55.143014],[-8.245156,55.142745],[-8.244686,55.142746],[-8.244684,55.142476],[-8.244214,55.142477],[-8.244212,55.142207],[-8.243271,55.142209],[-8.243273,55.142479],[-8.243276,55.143018],[-8.242335,55.14302],[-8.242332,55.142481],[-8.241861,55.142482],[-8.241859,55.142212],[-8.241858,55.141943],[-8.241855,55.141404],[-8.241853,55.141134],[-8.241382,55.141135],[-8.241381,55.140865],[-8.241377,55.140326],[-8.241848,55.140325],[-8.241846,55.140056],[-8.241843,55.139517],[-8.242314,55.139516],[-8.242317,55.140055],[-8.242787,55.140054],[-8.242789,55.140324],[-8.24326,55.140323],[-8.243263,55.140862],[-8.243733,55.140861],[-8.243735,55.14113],[-8.243737,55.1414],[-8.244207,55.141399],[-8.24421,55.141938],[-8.244681,55.141937],[-8.244683,55.142207],[-8.245153,55.142206],[-8.245155,55.142475],[-8.247037,55.142471],[-8.247035,55.142202],[-8.247032,55.141663],[-8.247029,55.141252],[-8.245465,55.141256],[-8.24546,55.140357],[-8.247024,55.140354],[-8.247024,55.140315],[-8.247028,55.140315],[-8.247022,55.139456],[-8.247959,55.139454],[-8.247958,55.139235],[-8.247956,55.138966],[-8.248427,55.138965],[-8.248425,55.138695],[-8.248586,55.138695],[-8.248585,55.138555],[-8.248895,55.138554],[-8.248892,55.138155],[-8.248889,55.137616],[-8.249359,55.137615],[-8.249358,55.137346],[-8.249356,55.137076],[-8.249354,55.136806],[-8.249353,55.136537],[-8.249823,55.136536],[-8.249822,55.136266],[-8.250139,55.136266],[-8.250136,55.135857],[-8.25013,55.134958],[-8.248563,55.134962],[-8.248551,55.133165],[-8.250119,55.133162],[-8.250108,55.131366],[-8.24854,55.131369],[-8.248529,55.129572],[-8.250097,55.129569],[-8.250093,55.129015],[-8.249016,55.129131],[-8.248228,55.129226],[-8.247656,55.129276],[-8.247549,55.129271],[-8.247354,55.129233],[-8.247322,55.129226],[-8.24726,55.129214],[-8.247158,55.129193],[-8.245915,55.128784],[-8.24495,55.128467],[-8.24381,55.12807],[-8.242846,55.128086],[-8.241232,55.128096],[-8.241138,55.128097],[-8.241058,55.128086],[-8.240203,55.127923],[-8.239673,55.127862],[-8.239289,55.12782],[-8.238806,55.127637],[-8.238632,55.12757],[-8.23824,55.127332],[-8.238072,55.127287],[-8.237576,55.127389],[-8.237218,55.127485],[-8.236931,55.127543],[-8.236898,55.127581],[-8.236877,55.127626],[-8.236801,55.127748],[-8.236643,55.127972],[-8.23657,55.128091],[-8.236372,55.128391],[-8.236173,55.128681],[-8.235472,55.129982],[-8.235304,55.130055],[-8.235201,55.130093],[-8.234351,55.130408],[-8.233305,55.130778],[-8.233415,55.130809],[-8.232425,55.131983],[-8.230616,55.133289],[-8.230402,55.133185],[-8.229951,55.132831],[-8.229729,55.132693],[-8.229781,55.132602],[-8.229819,55.132474],[-8.229769,55.132102],[-8.229489,55.132196],[-8.229204,55.132296],[-8.228985,55.132382],[-8.228642,55.132562],[-8.228527,55.132632],[-8.228036,55.132933],[-8.227689,55.133153],[-8.227345,55.13337],[-8.227216,55.133455],[-8.226774,55.133744],[-8.226442,55.133708],[-8.225986,55.133616],[-8.225419,55.13352],[-8.225377,55.133503],[-8.225311,55.133598],[-8.225083,55.133919],[-8.224966,55.134117],[-8.225012,55.134128],[-8.225557,55.134218],[-8.226007,55.134296],[-8.226339,55.134351],[-8.225982,55.135279],[-8.22595,55.135338],[-8.225812,55.135589],[-8.225809,55.135594],[-8.225743,55.135897],[-8.225741,55.135902],[-8.225695,55.136146],[-8.225628,55.13647],[-8.225623,55.136502],[-8.225578,55.13676],[-8.225545,55.136954],[-8.225475,55.137197],[-8.22542,55.137354],[-8.225359,55.137532],[-8.225203,55.137713],[-8.225209,55.137768],[-8.225109,55.137871],[-8.225076,55.138092],[-8.225433,55.138185],[-8.225673,55.138275],[-8.225969,55.138395],[-8.226167,55.138518],[-8.226485,55.138742],[-8.226617,55.138731],[-8.226783,55.138735],[-8.226876,55.138757],[-8.227114,55.138815],[-8.227008,55.138834],[-8.225706,55.139036],[-8.22565,55.139061],[-8.226008,55.139327],[-8.22637,55.13961],[-8.22664,55.1398],[-8.226638,55.139496],[-8.228206,55.139493],[-8.228212,55.140514],[-8.228595,55.140682],[-8.228641,55.140703],[-8.228892,55.140814],[-8.22899,55.140867],[-8.229069,55.140768],[-8.229231,55.140548],[-8.229265,55.140496],[-8.229336,55.140507],[-8.230038,55.140613],[-8.230064,55.140614],[-8.230084,55.140615],[-8.23071,55.140692],[-8.230937,55.141117],[-8.231058,55.141387],[-8.231061,55.141393],[-8.231181,55.141594],[-8.231298,55.14179],[-8.231349,55.141875],[-8.231374,55.141907],[-8.23151,55.14217],[-8.231621,55.142394],[-8.231634,55.142429],[-8.231652,55.142553],[-8.231673,55.142587],[-8.231684,55.142606],[-8.231804,55.142879],[-8.231891,55.142875],[-8.231844,55.142993],[-8.231918,55.143127],[-8.231916,55.143252],[-8.231414,55.143294],[-8.231364,55.143299],[-8.231368,55.143978],[-8.23134,55.143978],[-8.23134,55.14398],[-8.231342,55.144038],[-8.231333,55.144095],[-8.231032,55.144036],[-8.230978,55.144021],[-8.230982,55.144147],[-8.230965,55.144229],[-8.230894,55.144361],[-8.231053,55.144419],[-8.231431,55.144569],[-8.231202,55.144853],[-8.231022,55.145029],[-8.231117,55.145071],[-8.231035,55.145166],[-8.231031,55.145287],[-8.231028,55.145391],[-8.230997,55.145484],[-8.23097,55.145566],[-8.230926,55.145594],[-8.230944,55.145637],[-8.23106,55.145701],[-8.231089,55.145757],[-8.231077,55.145799],[-8.23107,55.14585],[-8.231042,55.145896],[-8.230938,55.145921],[-8.23085,55.145932],[-8.230756,55.146035],[-8.230896,55.146078],[-8.230841,55.146153],[-8.230768,55.146176],[-8.230631,55.14627],[-8.230603,55.146353],[-8.230563,55.146437],[-8.230538,55.146491],[-8.230519,55.146519],[-8.230857,55.146618],[-8.231384,55.146768],[-8.231384,55.146672],[-8.232952,55.146669],[-8.232957,55.147568],[-8.232151,55.147569],[-8.232152,55.147594],[-8.232153,55.147605],[-8.232171,55.147749],[-8.232184,55.147918],[-8.232226,55.147956],[-8.232224,55.148095],[-8.232224,55.148098],[-8.232226,55.148243],[-8.232252,55.148271],[-8.232247,55.148371],[-8.232283,55.148467],[-8.234531,55.148463],[-8.234536,55.149361],[-8.236104,55.149358],[-8.23611,55.150256],[-8.239247,55.15025],[-8.23925,55.150842],[-8.239558,55.150842],[-8.23956,55.151111],[-8.23956,55.151148],[-8.24082,55.151145],[-8.243957,55.151139],[-8.245526,55.151136],[-8.245529,55.151638],[-8.245682,55.151638],[-8.245683,55.151907],[-8.246154,55.151907],[-8.246155,55.152033],[-8.2471,55.152031],[-8.247105,55.152929],[-8.248674,55.152926],[-8.24868,55.153824],[-8.253385,55.153815],[-8.25338,55.152916],[-8.254948,55.152913],[-8.254942,55.152015],[-8.261693,55.152001],[-8.26168,55.151977],[-8.261723,55.151892],[-8.261736,55.151822],[-8.261724,55.151721],[-8.261788,55.151586],[-8.26178,55.151545],[-8.261696,55.151499],[-8.261583,55.15145],[-8.261448,55.151377],[-8.26144,55.151298],[-8.261458,55.151172],[-8.261484,55.15103],[-8.26146,55.150933],[-8.261422,55.15088],[-8.261351,55.150844],[-8.261275,55.150817],[-8.261153,55.150761],[-8.26109,55.150664],[-8.261095,55.150594],[-8.261105,55.150387],[-8.261109,55.150334],[-8.261093,55.150295],[-8.261059,55.150254],[-8.261005,55.150205],[-8.260941,55.150196],[-8.260887,55.150186],[-8.260798,55.150195],[-8.260752,55.150195],[-8.260701,55.150159],[-8.260727,55.150084],[-8.260774,55.150017],[-8.260842,55.14993],[-8.260994,55.149831],[-8.261079,55.149776],[-8.261138,55.14974],[-8.261151,55.149684],[-8.261127,55.149631],[-8.261097,55.149561],[-8.261102,55.14953],[-8.26111,55.149503],[-8.261124,55.149419],[-8.261145,55.14938],[-8.26115,55.149339],[-8.261154,55.149318],[-8.2602,55.149117],[-8.259653,55.149],[-8.259039,55.148865],[-8.25892,55.14881],[-8.258276,55.148536],[-8.257671,55.148239],[-8.257226,55.148007],[-8.256615,55.147713],[-8.256146,55.147472],[-8.255858,55.147359],[-8.255489,55.147244],[-8.254955,55.147107],[-8.254258,55.146933],[-8.254056,55.146891],[-8.253855,55.146337],[-8.253676,55.145889],[-8.253487,55.145442]],[[-8.246064,55.137352],[-8.245594,55.137353],[-8.245591,55.136814],[-8.246061,55.136813],[-8.246064,55.137352]],[[-8.244711,55.146788],[-8.24424,55.146789],[-8.244238,55.14652],[-8.244709,55.146519],[-8.244711,55.146788]],[[-8.249924,55.152707],[-8.249454,55.152708],[-8.249452,55.152439],[-8.249923,55.152438],[-8.249924,55.152707]],[[-8.240407,55.135477],[-8.240878,55.135476],[-8.240879,55.135745],[-8.24135,55.135744],[-8.241353,55.136284],[-8.240883,55.136284],[-8.240889,55.137363],[-8.239948,55.137364],[-8.239942,55.136286],[-8.239938,55.135747],[-8.239937,55.135478],[-8.239466,55.135479],[-8.239463,55.13494],[-8.239934,55.134939],[-8.239932,55.134669],[-8.240402,55.134668],[-8.240404,55.134938],[-8.240407,55.135477]],[[-8.235239,55.136565],[-8.234298,55.136567],[-8.234299,55.136836],[-8.233829,55.136837],[-8.233827,55.136568],[-8.233826,55.136298],[-8.234767,55.136296],[-8.234765,55.136027],[-8.235706,55.136025],[-8.235707,55.136295],[-8.235237,55.136295],[-8.235239,55.136565]],[[-8.237175,55.145725],[-8.237645,55.145724],[-8.23765,55.146533],[-8.23718,55.146534],[-8.237183,55.147073],[-8.236712,55.147074],[-8.236709,55.146535],[-8.236704,55.145726],[-8.236234,55.145727],[-8.236232,55.145458],[-8.237173,55.145456],[-8.237175,55.145725]],[[-8.237197,55.149499],[-8.236727,55.149499],[-8.236722,55.148691],[-8.237192,55.14869],[-8.237197,55.149499]]],[[[-8.252554,55.128719],[-8.251992,55.128775],[-8.25166,55.128837],[-8.251664,55.129566],[-8.253884,55.129561],[-8.253884,55.129561],[-8.253503,55.129169],[-8.253276,55.128929],[-8.253218,55.128868],[-8.253102,55.128764],[-8.253026,55.128721],[-8.252952,55.128701],[-8.252554,55.128719]]]]}}]}
