{"type":"FeatureCollection","features":[{"type":"Feature","properties":{"source_fid":652819,"county":"Donegal","bog_geom_ha":254.50477961147539,"low15_pct":75.088464260438784,"low15_ha":191.10373047967119,"overlay_ha":190.78769346558823,"area_delta":-0.31603701408295137},"geometry":{"type":"MultiPolygon","coordinates":[[[[-8.6579,54.681945],[-8.657507,54.682211],[-8.657245,54.682381],[-8.656839,54.682639],[-8.656651,54.682757],[-8.65641,54.682908],[-8.656157,54.68307],[-8.655846,54.683235],[-8.655886,54.683412],[-8.655943,54.683637],[-8.656024,54.683861],[-8.656148,54.684221],[-8.656188,54.684309],[-8.656281,54.684663],[-8.656427,54.685202],[-8.656615,54.685814],[-8.656723,54.686289],[-8.656894,54.686868],[-8.657046,54.687443],[-8.657203,54.688055],[-8.657381,54.688698],[-8.657558,54.68928],[-8.65775,54.689984],[-8.657851,54.690337],[-8.658051,54.691064],[-8.658136,54.691362],[-8.658204,54.691634],[-8.658307,54.691995],[-8.658441,54.692511],[-8.658439,54.692424],[-8.659835,54.692416],[-8.659831,54.692146],[-8.661227,54.692139],[-8.661231,54.692408],[-8.661696,54.692406],[-8.661692,54.692136],[-8.662157,54.692134],[-8.662148,54.691595],[-8.661683,54.691597],[-8.661687,54.691867],[-8.661222,54.691869],[-8.661218,54.6916],[-8.661213,54.69133],[-8.660748,54.691333],[-8.660744,54.691063],[-8.660278,54.691066],[-8.660274,54.690796],[-8.661833,54.690788],[-8.661615,54.690773],[-8.660888,54.690727],[-8.660768,54.69027],[-8.660569,54.689535],[-8.660517,54.689232],[-8.660516,54.689229],[-8.660478,54.689003],[-8.660457,54.688877],[-8.660456,54.688873],[-8.660435,54.688743],[-8.660433,54.688733],[-8.660424,54.688679],[-8.660394,54.688513],[-8.660354,54.688295],[-8.660233,54.687723],[-8.66007,54.686994],[-8.660028,54.686809],[-8.659944,54.686237],[-8.659818,54.685432],[-8.659747,54.68482],[-8.659736,54.684728],[-8.659684,54.68429],[-8.659652,54.683842],[-8.659573,54.683391],[-8.659571,54.683381],[-8.659509,54.68291],[-8.659507,54.682893],[-8.659462,54.682559],[-8.659407,54.682111],[-8.65933,54.681741],[-8.659309,54.681403],[-8.659277,54.681047],[-8.65906,54.681182],[-8.658805,54.681348],[-8.658544,54.681513],[-8.658278,54.681698],[-8.6579,54.681945]]],[[[-8.663067,54.690873],[-8.662136,54.690809],[-8.66214,54.691056],[-8.66307,54.691051],[-8.663067,54.690873]]],[[[-8.66386,54.690923],[-8.663533,54.690903],[-8.663535,54.691048],[-8.664001,54.691046],[-8.664005,54.691315],[-8.66447,54.691312],[-8.664475,54.691582],[-8.664484,54.692121],[-8.664949,54.692119],[-8.664953,54.692388],[-8.665419,54.692385],[-8.665423,54.692655],[-8.665432,54.693194],[-8.665436,54.693464],[-8.664971,54.693466],[-8.66498,54.694005],[-8.664984,54.694275],[-8.664989,54.694544],[-8.664523,54.694547],[-8.664528,54.694816],[-8.664993,54.694814],[-8.664997,54.695083],[-8.665463,54.695081],[-8.665467,54.69535],[-8.665002,54.695353],[-8.665006,54.695622],[-8.664541,54.695625],[-8.664536,54.695355],[-8.664532,54.695086],[-8.663136,54.695094],[-8.663132,54.694824],[-8.662666,54.694827],[-8.662662,54.694557],[-8.662658,54.694287],[-8.662192,54.69429],[-8.662205,54.695099],[-8.662671,54.695096],[-8.662675,54.695366],[-8.66314,54.695363],[-8.663145,54.695633],[-8.663149,54.695902],[-8.663615,54.6959],[-8.663628,54.696708],[-8.664093,54.696706],[-8.664097,54.696975],[-8.664101,54.697203],[-8.664171,54.697172],[-8.664319,54.697129],[-8.664451,54.697074],[-8.664603,54.697005],[-8.664648,54.697005],[-8.664659,54.697007],[-8.664669,54.697008],[-8.664702,54.697013],[-8.664805,54.697058],[-8.664907,54.697122],[-8.665018,54.697194],[-8.6651,54.697275],[-8.665178,54.697413],[-8.665252,54.697556],[-8.665359,54.69769],[-8.665491,54.697768],[-8.665717,54.69788],[-8.665815,54.697921],[-8.665832,54.697983],[-8.66579,54.698054],[-8.665704,54.698081],[-8.665634,54.698102],[-8.665663,54.698188],[-8.665613,54.698235],[-8.665564,54.698293],[-8.665329,54.698428],[-8.665177,54.698469],[-8.665009,54.698519],[-8.664918,54.698566],[-8.664889,54.698605],[-8.664955,54.698731],[-8.664967,54.698788],[-8.665037,54.69886],[-8.665185,54.69895],[-8.66537,54.699058],[-8.665423,54.69911],[-8.665468,54.699129],[-8.665547,54.699139],[-8.665608,54.699136],[-8.665707,54.69911],[-8.665769,54.699091],[-8.666102,54.699084],[-8.666316,54.699051],[-8.666419,54.699067],[-8.666484,54.699101],[-8.666558,54.699168],[-8.666628,54.699282],[-8.666727,54.699361],[-8.666842,54.699475],[-8.66692,54.699577],[-8.666933,54.699595],[-8.666929,54.699386],[-8.667395,54.699383],[-8.66739,54.699113],[-8.667856,54.699111],[-8.667851,54.698841],[-8.668317,54.698839],[-8.668321,54.699108],[-8.668786,54.699106],[-8.668791,54.699375],[-8.668795,54.699645],[-8.6688,54.699914],[-8.669265,54.699912],[-8.66927,54.700181],[-8.668804,54.700184],[-8.668809,54.700453],[-8.668343,54.700456],[-8.668348,54.700726],[-8.667882,54.700728],[-8.667886,54.700955],[-8.669307,54.701153],[-8.66976,54.701216],[-8.67083,54.70138],[-8.670665,54.701715],[-8.670506,54.702025],[-8.670495,54.702071],[-8.670449,54.702251],[-8.670389,54.702601],[-8.671171,54.702597],[-8.671167,54.702327],[-8.671632,54.702325],[-8.671628,54.702055],[-8.673955,54.702042],[-8.67395,54.701773],[-8.674416,54.70177],[-8.674411,54.701501],[-8.674407,54.701231],[-8.674402,54.700962],[-8.676264,54.700951],[-8.676255,54.700412],[-8.675789,54.700415],[-8.675785,54.700145],[-8.67625,54.700143],[-8.676246,54.699873],[-8.673919,54.699886],[-8.673914,54.699616],[-8.67391,54.699347],[-8.676702,54.699331],[-8.676698,54.699062],[-8.677163,54.699059],[-8.677159,54.69879],[-8.677624,54.698787],[-8.677619,54.698518],[-8.678085,54.698515],[-8.67808,54.698245],[-8.678546,54.698243],[-8.678541,54.697973],[-8.679007,54.697971],[-8.679002,54.697701],[-8.679933,54.697696],[-8.679928,54.697426],[-8.680394,54.697424],[-8.680389,54.697154],[-8.680385,54.696885],[-8.679454,54.69689],[-8.679449,54.696621],[-8.679445,54.696351],[-8.67898,54.696354],[-8.678975,54.696084],[-8.677114,54.696094],[-8.677109,54.695825],[-8.677575,54.695822],[-8.67757,54.695553],[-8.677566,54.695283],[-8.678031,54.695281],[-8.678026,54.695011],[-8.678022,54.694742],[-8.679883,54.694731],[-8.679888,54.695001],[-8.680353,54.694998],[-8.680357,54.695268],[-8.681288,54.695262],[-8.681293,54.695532],[-8.681758,54.695529],[-8.681762,54.695799],[-8.682228,54.695796],[-8.682232,54.696066],[-8.682698,54.696063],[-8.682702,54.696333],[-8.683168,54.69633],[-8.683181,54.697139],[-8.684112,54.697133],[-8.684116,54.697403],[-8.684121,54.697672],[-8.683656,54.697675],[-8.68366,54.697945],[-8.683665,54.698214],[-8.683669,54.698484],[-8.683204,54.698486],[-8.683208,54.698756],[-8.682743,54.698758],[-8.682747,54.699028],[-8.681351,54.699036],[-8.681356,54.699305],[-8.68089,54.699308],[-8.680895,54.699577],[-8.68043,54.69958],[-8.680434,54.69985],[-8.680439,54.700119],[-8.680443,54.700389],[-8.679978,54.700391],[-8.679987,54.70093],[-8.679521,54.700933],[-8.679526,54.701202],[-8.679061,54.701205],[-8.679065,54.701475],[-8.6786,54.701477],[-8.678604,54.701747],[-8.678139,54.701749],[-8.678143,54.702019],[-8.678148,54.702288],[-8.680475,54.702275],[-8.680479,54.702545],[-8.682341,54.702534],[-8.682344,54.702703],[-8.682921,54.702686],[-8.682926,54.702686],[-8.684107,54.702644],[-8.684352,54.702636],[-8.685278,54.702604],[-8.687102,54.70254],[-8.687269,54.702534],[-8.689574,54.702469],[-8.69356,54.702145],[-8.695143,54.702009],[-8.695123,54.701877],[-8.695121,54.701864],[-8.694866,54.7016],[-8.694598,54.701341],[-8.69438,54.70111],[-8.694148,54.700855],[-8.694143,54.70085],[-8.693483,54.700854],[-8.693488,54.701123],[-8.692557,54.701129],[-8.692561,54.701398],[-8.6907,54.701409],[-8.690704,54.701678],[-8.689774,54.701684],[-8.689769,54.701414],[-8.689304,54.701417],[-8.689299,54.701147],[-8.688834,54.70115],[-8.688829,54.70088],[-8.688825,54.700611],[-8.688359,54.700614],[-8.688355,54.700344],[-8.687424,54.700349],[-8.687419,54.70008],[-8.686023,54.700088],[-8.686019,54.699818],[-8.685553,54.699821],[-8.685549,54.699551],[-8.685083,54.699554],[-8.685079,54.699284],[-8.685074,54.699015],[-8.684609,54.699017],[-8.6846,54.698478],[-8.685065,54.698476],[-8.685056,54.697937],[-8.685987,54.697931],[-8.685996,54.698471],[-8.686927,54.698465],[-8.686936,54.699004],[-8.688332,54.698996],[-8.688327,54.698727],[-8.689258,54.698722],[-8.689249,54.698182],[-8.689714,54.69818],[-8.68971,54.69791],[-8.690175,54.697908],[-8.69018,54.698177],[-8.690189,54.698716],[-8.690654,54.698714],[-8.690659,54.698983],[-8.691589,54.698978],[-8.691585,54.698708],[-8.691958,54.698706],[-8.691952,54.698699],[-8.69181,54.698526],[-8.691638,54.698349],[-8.691388,54.69806],[-8.691235,54.697887],[-8.691176,54.697787],[-8.691168,54.697711],[-8.69117,54.697647],[-8.691167,54.697632],[-8.691101,54.697633],[-8.691099,54.697489],[-8.690728,54.696862],[-8.690637,54.696664],[-8.690588,54.696539],[-8.690515,54.696379],[-8.690448,54.696262],[-8.690418,54.696174],[-8.690416,54.696092],[-8.690426,54.696015],[-8.690427,54.69592],[-8.690447,54.695773],[-8.690458,54.695625],[-8.690487,54.695476],[-8.690505,54.695388],[-8.690512,54.695324],[-8.690545,54.6952],[-8.690577,54.695104],[-8.690589,54.69498],[-8.690626,54.694829],[-8.690687,54.694743],[-8.690741,54.694642],[-8.690816,54.694534],[-8.690864,54.694429],[-8.690942,54.69426],[-8.690984,54.694173],[-8.691028,54.694059],[-8.691068,54.693954],[-8.691102,54.693855],[-8.691143,54.693773],[-8.691157,54.693727],[-8.691173,54.693667],[-8.691208,54.693569],[-8.691253,54.693445],[-8.691321,54.693272],[-8.691376,54.693189],[-8.691415,54.693111],[-8.691428,54.693049],[-8.691319,54.692971],[-8.690999,54.692782],[-8.690801,54.692653],[-8.690631,54.692553],[-8.690478,54.692478],[-8.690355,54.692404],[-8.69005,54.692383],[-8.689776,54.692377],[-8.689654,54.692376],[-8.68942,54.692362],[-8.689249,54.692353],[-8.689038,54.692348],[-8.688765,54.692338],[-8.688537,54.692323],[-8.687923,54.692264],[-8.687583,54.692227],[-8.687363,54.692207],[-8.68706,54.692197],[-8.686716,54.692181],[-8.686503,54.69217],[-8.686244,54.692147],[-8.686127,54.692139],[-8.685966,54.692134],[-8.685684,54.69212],[-8.685406,54.692098],[-8.685183,54.69207],[-8.684976,54.692068],[-8.684756,54.692059],[-8.684499,54.692044],[-8.684235,54.692025],[-8.683953,54.692009],[-8.683605,54.691998],[-8.683257,54.691985],[-8.683075,54.691972],[-8.682239,54.691936],[-8.681094,54.691895],[-8.679956,54.691812],[-8.679248,54.69178],[-8.678546,54.691748],[-8.678538,54.691747],[-8.678477,54.691745],[-8.676693,54.691671],[-8.676367,54.691644],[-8.676357,54.691644],[-8.674364,54.691483],[-8.673315,54.691458],[-8.672382,54.691361],[-8.671586,54.69133],[-8.670947,54.691351],[-8.669441,54.691398],[-8.668945,54.691325],[-8.668434,54.691262],[-8.668426,54.691261],[-8.668395,54.691257],[-8.668083,54.691221],[-8.667276,54.691138],[-8.666989,54.691107],[-8.666391,54.69106],[-8.666069,54.691034],[-8.665396,54.691038],[-8.665396,54.691009],[-8.664795,54.69099],[-8.66386,54.690923]],[[-8.678998,54.697432],[-8.679002,54.697701],[-8.678071,54.697706],[-8.678067,54.697437],[-8.678532,54.697434],[-8.678528,54.697165],[-8.678993,54.697162],[-8.678998,54.697432]],[[-8.69059,54.69494],[-8.689659,54.694946],[-8.689655,54.694676],[-8.689189,54.694679],[-8.689185,54.694409],[-8.690581,54.694401],[-8.690585,54.694671],[-8.69059,54.69494]],[[-8.686525,54.702241],[-8.68652,54.701972],[-8.687917,54.701964],[-8.687921,54.702233],[-8.687926,54.702503],[-8.686995,54.702508],[-8.68699,54.702239],[-8.686525,54.702241]],[[-8.685133,54.702519],[-8.685124,54.70198],[-8.68559,54.701977],[-8.685599,54.702516],[-8.685133,54.702519]],[[-8.674344,54.697458],[-8.67434,54.697188],[-8.67527,54.697183],[-8.675275,54.697452],[-8.674344,54.697458]],[[-8.668241,54.694257],[-8.668707,54.694254],[-8.668711,54.694524],[-8.668715,54.694793],[-8.669181,54.694791],[-8.669185,54.69506],[-8.66919,54.69533],[-8.667794,54.695338],[-8.667789,54.695068],[-8.665928,54.695078],[-8.665924,54.694809],[-8.665919,54.694539],[-8.665454,54.694542],[-8.665449,54.694272],[-8.665915,54.69427],[-8.66591,54.694],[-8.667306,54.693992],[-8.667311,54.694262],[-8.667315,54.694531],[-8.668246,54.694526],[-8.668241,54.694257]],[[-8.669172,54.694252],[-8.668707,54.694254],[-8.668702,54.693985],[-8.669167,54.693982],[-8.669172,54.694252]],[[-8.667847,54.698572],[-8.667842,54.698302],[-8.668308,54.6983],[-8.668312,54.698569],[-8.667847,54.698572]],[[-8.671149,54.701249],[-8.670683,54.701252],[-8.670679,54.700982],[-8.671144,54.70098],[-8.671149,54.701249]]],[[[-8.667091,54.700852],[-8.66742,54.700894],[-8.667417,54.700731],[-8.667412,54.700461],[-8.667412,54.700408],[-8.667408,54.700433],[-8.667363,54.700555],[-8.667305,54.700619],[-8.667219,54.700659],[-8.667165,54.700686],[-8.667124,54.700762],[-8.667091,54.700852],[-8.667091,54.700852],[-8.667091,54.700852]]],[[[-8.667408,54.700328],[-8.66741,54.700338],[-8.66741,54.700326],[-8.667408,54.700328]]],[[[-8.667343,54.699897],[-8.667404,54.699953],[-8.667404,54.699922],[-8.667399,54.699653],[-8.666978,54.699655],[-8.667002,54.699687],[-8.667084,54.699756],[-8.667211,54.699849],[-8.667343,54.699897]]],[[[-8.664273,54.697746],[-8.664109,54.697691],[-8.664115,54.698053],[-8.66365,54.698056],[-8.663658,54.69854],[-8.663705,54.698561],[-8.66384,54.698647],[-8.663902,54.698683],[-8.664013,54.698697],[-8.664128,54.698699],[-8.664239,54.698685],[-8.664359,54.698633],[-8.664494,54.698602],[-8.664581,54.69855],[-8.664593,54.698504],[-8.664548,54.698457],[-8.664499,54.698385],[-8.664462,54.69833],[-8.664478,54.698302],[-8.664524,54.698223],[-8.664524,54.698073],[-8.664491,54.698009],[-8.664388,54.697868],[-8.664273,54.697746]]],[[[-8.66001,54.69866],[-8.660402,54.698658],[-8.660401,54.698613],[-8.660392,54.698074],[-8.660858,54.698071],[-8.660849,54.697532],[-8.660383,54.697535],[-8.660379,54.697265],[-8.659914,54.697268],[-8.659918,54.697537],[-8.659908,54.697537],[-8.65995,54.697673],[-8.659731,54.698078],[-8.659359,54.6989],[-8.659257,54.699152],[-8.659172,54.699354],[-8.659125,54.699428],[-8.659483,54.699426],[-8.659479,54.699157],[-8.659944,54.699154],[-8.65994,54.698885],[-8.660013,54.698884],[-8.66001,54.69866]]],[[[-8.659354,54.695643],[-8.659419,54.695922],[-8.660823,54.695915],[-8.660818,54.695645],[-8.661283,54.695643],[-8.661279,54.695373],[-8.661275,54.695104],[-8.661262,54.694295],[-8.660796,54.694298],[-8.660792,54.694028],[-8.660788,54.693759],[-8.661253,54.693756],[-8.661248,54.693487],[-8.660783,54.693489],[-8.660779,54.69322],[-8.662175,54.693212],[-8.66217,54.692942],[-8.66124,54.692947],[-8.661235,54.692678],[-8.661231,54.692408],[-8.660766,54.692411],[-8.66077,54.69268],[-8.659839,54.692686],[-8.659844,54.692955],[-8.658565,54.692962],[-8.658635,54.693205],[-8.658876,54.694003],[-8.658959,54.694331],[-8.659087,54.694731],[-8.659188,54.695047],[-8.659246,54.695206],[-8.659263,54.695267],[-8.659354,54.695643]]],[[[-8.665254,54.699472],[-8.665275,54.699524],[-8.66532,54.699596],[-8.665365,54.699636],[-8.665464,54.699684],[-8.66555,54.699725],[-8.66571,54.699722],[-8.665813,54.699718],[-8.66592,54.699691],[-8.66599,54.69968],[-8.666003,54.699594],[-8.66592,54.699546],[-8.6659,54.699441],[-8.665818,54.699377],[-8.665707,54.69932],[-8.6656,54.69927],[-8.665538,54.699253],[-8.665485,54.699251],[-8.66545,54.699246],[-8.665366,54.699298],[-8.66532,54.699334],[-8.66525,54.699403],[-8.665254,54.699472]]],[[[-8.663823,54.699369],[-8.663683,54.69934],[-8.663581,54.699352],[-8.663482,54.699336],[-8.663326,54.699328],[-8.663194,54.699326],[-8.663123,54.699326],[-8.663126,54.699542],[-8.663121,54.699542],[-8.663247,54.699652],[-8.663379,54.699741],[-8.663436,54.699772],[-8.663601,54.699805],[-8.663819,54.699824],[-8.663971,54.699822],[-8.664078,54.6998],[-8.664139,54.699765],[-8.664148,54.699739],[-8.664127,54.699717],[-8.664102,54.699693],[-8.664107,54.699641],[-8.664115,54.699593],[-8.664119,54.699565],[-8.664173,54.69956],[-8.664173,54.699541],[-8.664152,54.699517],[-8.664111,54.699486],[-8.664062,54.699436],[-8.664016,54.699386],[-8.663955,54.699388],[-8.663823,54.699369]]],[[[-8.662013,54.699704],[-8.662019,54.699682],[-8.661815,54.699683],[-8.661817,54.699826],[-8.661894,54.69979],[-8.662013,54.699704]]],[[[-8.676716,54.70014],[-8.67625,54.700143],[-8.676255,54.700412],[-8.67672,54.70041],[-8.676716,54.70014]]],[[[-8.677628,54.699057],[-8.677633,54.699326],[-8.678564,54.699321],[-8.678559,54.699051],[-8.679025,54.699049],[-8.67902,54.698779],[-8.679485,54.698777],[-8.679481,54.698507],[-8.67855,54.698512],[-8.678555,54.698782],[-8.678089,54.698785],[-8.678094,54.699054],[-8.677628,54.699057]]],[[[-8.677637,54.699596],[-8.677633,54.699326],[-8.677168,54.699329],[-8.677172,54.699598],[-8.677637,54.699596]]],[[[-8.681785,54.697146],[-8.681772,54.696338],[-8.681306,54.696341],[-8.681311,54.69661],[-8.680845,54.696613],[-8.68085,54.696882],[-8.680854,54.697152],[-8.681785,54.697146]]],[[[-8.663584,54.694013],[-8.663575,54.693474],[-8.662179,54.693481],[-8.662183,54.693751],[-8.662649,54.693748],[-8.662653,54.694018],[-8.663584,54.694013]]],[[[-8.664501,54.693199],[-8.664492,54.69266],[-8.664027,54.692663],[-8.664023,54.692393],[-8.663557,54.692396],[-8.663553,54.692126],[-8.662622,54.692131],[-8.662627,54.692401],[-8.662631,54.69267],[-8.663096,54.692668],[-8.663101,54.692937],[-8.663105,54.693207],[-8.664501,54.693199]]]]}}]}
