{"type":"FeatureCollection","features":[{"type":"Feature","properties":{"source_fid":654510,"county":"Donegal","bog_geom_ha":180.76432144941745,"low15_pct":94.875621890547265,"low15_ha":171.50127413136272,"overlay_ha":171.36269291384033,"area_delta":-0.13858121752238617},"geometry":{"type":"MultiPolygon","coordinates":[[[[-7.221424,55.211602],[-7.221581,55.211773],[-7.221602,55.211796],[-7.221658,55.211857],[-7.221679,55.211868],[-7.221768,55.211916],[-7.221773,55.211664],[-7.221778,55.211394],[-7.221784,55.211125],[-7.222255,55.211128],[-7.22225,55.211397],[-7.223192,55.211403],[-7.223187,55.211673],[-7.223658,55.211676],[-7.223653,55.211945],[-7.224124,55.211948],[-7.224119,55.212218],[-7.22459,55.212221],[-7.224585,55.21249],[-7.225057,55.212493],[-7.225051,55.212763],[-7.225994,55.212769],[-7.225989,55.213038],[-7.22646,55.213041],[-7.226455,55.213311],[-7.226926,55.213314],[-7.226921,55.213583],[-7.227392,55.213586],[-7.227387,55.213856],[-7.227377,55.214395],[-7.227848,55.214398],[-7.227843,55.214667],[-7.228314,55.21467],[-7.228319,55.214401],[-7.228791,55.214404],[-7.228786,55.214625],[-7.228795,55.214594],[-7.228944,55.214497],[-7.228921,55.214479],[-7.228998,55.214442],[-7.229117,55.21443],[-7.229298,55.214375],[-7.229288,55.214337],[-7.229298,55.214299],[-7.229338,55.214263],[-7.229415,55.214263],[-7.229561,55.214212],[-7.229621,55.214177],[-7.229657,55.214125],[-7.229698,55.214118],[-7.229734,55.214095],[-7.229765,55.214062],[-7.229825,55.214042],[-7.229883,55.213957],[-7.230029,55.213918],[-7.230069,55.213899],[-7.230229,55.213724],[-7.230252,55.213686],[-7.230506,55.213475],[-7.230648,55.213417],[-7.230799,55.213374],[-7.230948,55.213345],[-7.230985,55.213338],[-7.231089,55.213489],[-7.231186,55.213627],[-7.231244,55.21371],[-7.231358,55.213899],[-7.231429,55.214037],[-7.231497,55.214188],[-7.231553,55.214322],[-7.231627,55.214499],[-7.231723,55.214748],[-7.231805,55.214989],[-7.231866,55.215124],[-7.23188,55.215155],[-7.231963,55.215398],[-7.232077,55.215703],[-7.232174,55.215946],[-7.232276,55.216234],[-7.23231,55.216313],[-7.232525,55.216314],[-7.23252,55.216584],[-7.232414,55.216583],[-7.232438,55.216651],[-7.232542,55.216961],[-7.232656,55.217265],[-7.232774,55.217565],[-7.232853,55.217762],[-7.232928,55.21792],[-7.233034,55.218144],[-7.233129,55.218337],[-7.233211,55.218484],[-7.233368,55.21877],[-7.233489,55.218999],[-7.233554,55.219111],[-7.23368,55.219327],[-7.233806,55.219541],[-7.234004,55.219874],[-7.23404,55.219936],[-7.23409,55.220022],[-7.234124,55.220081],[-7.234203,55.22022],[-7.234304,55.220405],[-7.234392,55.220546],[-7.234478,55.220679],[-7.234608,55.220882],[-7.234674,55.220998],[-7.234688,55.221024],[-7.234792,55.2212],[-7.234912,55.221416],[-7.234991,55.221588],[-7.235034,55.221692],[-7.23505,55.221739],[-7.235074,55.221809],[-7.235113,55.221969],[-7.235144,55.222168],[-7.235149,55.222202],[-7.235151,55.222238],[-7.235174,55.222637],[-7.235189,55.222778],[-7.235199,55.222957],[-7.235214,55.223095],[-7.235225,55.223339],[-7.235237,55.223474],[-7.235247,55.223536],[-7.237165,55.223548],[-7.237148,55.224446],[-7.235576,55.224437],[-7.235559,55.225335],[-7.235233,55.225333],[-7.235212,55.225634],[-7.235184,55.225953],[-7.235183,55.225971],[-7.235167,55.226305],[-7.235154,55.226443],[-7.235132,55.22668],[-7.235097,55.227082],[-7.235086,55.227252],[-7.235083,55.227297],[-7.235067,55.227479],[-7.235049,55.227746],[-7.235049,55.227813],[-7.235971,55.22739],[-7.236647,55.227078],[-7.237104,55.226902],[-7.237118,55.226897],[-7.237376,55.226787],[-7.237785,55.226613],[-7.238089,55.226467],[-7.238107,55.226458],[-7.238365,55.226344],[-7.238938,55.2261],[-7.239057,55.226065],[-7.239197,55.226139],[-7.239682,55.226389],[-7.239967,55.226536],[-7.240202,55.226657],[-7.240411,55.226304],[-7.240615,55.225921],[-7.240771,55.225617],[-7.240853,55.225478],[-7.240883,55.225374],[-7.240979,55.225267],[-7.241426,55.225378],[-7.242017,55.225528],[-7.24208,55.225552],[-7.242108,55.225506],[-7.242165,55.225414],[-7.242382,55.225062],[-7.242591,55.224728],[-7.242884,55.224265],[-7.242951,55.22416],[-7.243117,55.223904],[-7.243136,55.223903],[-7.243119,55.223898],[-7.243097,55.223862],[-7.24314,55.223822],[-7.243228,55.223721],[-7.243228,55.223688],[-7.243081,55.22364],[-7.242951,55.223599],[-7.24294,55.223554],[-7.242912,55.223497],[-7.242935,55.223367],[-7.242937,55.223274],[-7.242861,55.22316],[-7.242741,55.22299],[-7.242665,55.222848],[-7.242641,55.222765],[-7.242612,55.222712],[-7.242605,55.222684],[-7.242605,55.222684],[-7.242592,55.222634],[-7.24243,55.222484],[-7.242411,55.222467],[-7.242242,55.222285],[-7.242159,55.222196],[-7.242016,55.222041],[-7.241998,55.221968],[-7.242009,55.221878],[-7.243293,55.221696],[-7.243885,55.221599],[-7.243918,55.221593],[-7.243963,55.221584],[-7.244185,55.221547],[-7.245032,55.22143],[-7.245637,55.22134],[-7.24602,55.221291],[-7.246544,55.221209],[-7.246638,55.221199],[-7.246641,55.221043],[-7.24655,55.220902],[-7.246358,55.220543],[-7.24622,55.220321],[-7.246144,55.220222],[-7.245959,55.220055],[-7.245845,55.219952],[-7.245654,55.219763],[-7.245487,55.219621],[-7.245296,55.219428],[-7.245051,55.219203],[-7.244662,55.218828],[-7.244368,55.218537],[-7.244272,55.21845],[-7.244066,55.218261],[-7.243897,55.218073],[-7.24381,55.217983],[-7.243714,55.217898],[-7.24353,55.217783],[-7.243405,55.217698],[-7.243049,55.217446],[-7.242829,55.217286],[-7.242804,55.217268],[-7.24256,55.217095],[-7.242384,55.216972],[-7.241966,55.216679],[-7.241648,55.216449],[-7.241618,55.216427],[-7.241383,55.216265],[-7.241107,55.21606],[-7.240934,55.215933],[-7.240757,55.215807],[-7.240748,55.215801],[-7.240472,55.21556],[-7.240438,55.215523],[-7.240214,55.215276],[-7.24006,55.215132],[-7.240021,55.215096],[-7.239969,55.215048],[-7.239833,55.214896],[-7.239797,55.214857],[-7.239618,55.214671],[-7.239543,55.214596],[-7.239425,55.214479],[-7.239341,55.214398],[-7.239334,55.214391],[-7.239278,55.214338],[-7.239231,55.214286],[-7.239144,55.214189],[-7.23906,55.214105],[-7.239011,55.214056],[-7.238999,55.214044],[-7.238816,55.213873],[-7.238753,55.213808],[-7.238712,55.213767],[-7.238675,55.213729],[-7.238546,55.213586],[-7.2384,55.213444],[-7.238358,55.213403],[-7.238262,55.213309],[-7.238118,55.21317],[-7.238027,55.213076],[-7.237929,55.212977],[-7.237746,55.212793],[-7.237696,55.212743],[-7.23746,55.212501],[-7.237394,55.212435],[-7.237129,55.212165],[-7.237101,55.212137],[-7.236946,55.211979],[-7.236821,55.211855],[-7.236757,55.211791],[-7.236574,55.2116],[-7.236533,55.211558],[-7.236385,55.211411],[-7.236197,55.211225],[-7.236088,55.211118],[-7.235963,55.210995],[-7.235776,55.210806],[-7.235654,55.210687],[-7.235532,55.210567],[-7.235316,55.210348],[-7.235304,55.210336],[-7.23506,55.210089],[-7.234957,55.209976],[-7.234765,55.209768],[-7.234497,55.209495],[-7.234489,55.209487],[-7.234351,55.209345],[-7.234282,55.209275],[-7.234223,55.209215],[-7.234076,55.209065],[-7.234022,55.209009],[-7.233977,55.208942],[-7.233956,55.208912],[-7.233787,55.208663],[-7.233738,55.208594],[-7.233578,55.208365],[-7.233539,55.208309],[-7.233362,55.208057],[-7.233348,55.208037],[-7.233257,55.207909],[-7.233166,55.207787],[-7.233163,55.207782],[-7.233146,55.207759],[-7.232929,55.207452],[-7.232862,55.207356],[-7.232652,55.207052],[-7.232662,55.207028],[-7.232674,55.206996],[-7.232675,55.206993],[-7.232937,55.206711],[-7.233036,55.206591],[-7.233144,55.206461],[-7.23334,55.206216],[-7.233363,55.206192],[-7.233399,55.206152],[-7.233473,55.206071],[-7.233523,55.205964],[-7.233571,55.205843],[-7.233597,55.205815],[-7.233736,55.20573],[-7.233842,55.205668],[-7.233933,55.205589],[-7.233998,55.205557],[-7.234072,55.20554],[-7.234269,55.205416],[-7.234282,55.20538],[-7.234347,55.205338],[-7.234382,55.205337],[-7.234468,55.205199],[-7.234563,55.205141],[-7.234604,55.205124],[-7.234633,55.205075],[-7.234656,55.205037],[-7.234658,55.205014],[-7.234623,55.205007],[-7.234728,55.20495],[-7.234736,55.204916],[-7.234788,55.204899],[-7.234854,55.20486],[-7.234908,55.204829],[-7.234925,55.204819],[-7.23506,55.204802],[-7.235221,55.204803],[-7.235248,55.204792],[-7.235473,55.204789],[-7.235533,55.204771],[-7.235602,55.204752],[-7.235692,55.204746],[-7.23575,55.204721],[-7.235874,55.204673],[-7.235853,55.20462],[-7.235792,55.204467],[-7.235731,55.204345],[-7.235694,55.204271],[-7.235587,55.204054],[-7.235583,55.204046],[-7.235545,55.203963],[-7.235532,55.203918],[-7.235515,55.203862],[-7.235488,55.203755],[-7.235447,55.203592],[-7.23544,55.203576],[-7.235417,55.203519],[-7.235363,55.203384],[-7.235291,55.203226],[-7.23525,55.203136],[-7.235198,55.203019],[-7.235182,55.202983],[-7.235105,55.202806],[-7.235055,55.202696],[-7.235008,55.202603],[-7.234929,55.202446],[-7.23478,55.202305],[-7.234685,55.202219],[-7.234633,55.202173],[-7.234409,55.202015],[-7.234297,55.201945],[-7.234215,55.201893],[-7.233964,55.201736],[-7.23375,55.20163],[-7.233445,55.201494],[-7.23337,55.201461],[-7.233137,55.201351],[-7.232959,55.20127],[-7.23283,55.201214],[-7.232647,55.201149],[-7.232504,55.201089],[-7.232337,55.20102],[-7.23209,55.200933],[-7.23194,55.200884],[-7.23185,55.200867],[-7.231476,55.200919],[-7.231187,55.200956],[-7.231024,55.200984],[-7.230753,55.201002],[-7.230499,55.201014],[-7.230319,55.201023],[-7.230211,55.201033],[-7.230124,55.201025],[-7.230088,55.20101],[-7.230078,55.200981],[-7.230038,55.200982],[-7.229994,55.201009],[-7.229947,55.201023],[-7.229886,55.201068],[-7.229855,55.201107],[-7.229856,55.201136],[-7.229856,55.201163],[-7.229914,55.201219],[-7.229912,55.201246],[-7.229958,55.201339],[-7.230002,55.201404],[-7.229992,55.201434],[-7.230009,55.201525],[-7.230037,55.201554],[-7.230024,55.201581],[-7.230001,55.201628],[-7.229958,55.201665],[-7.229901,55.201695],[-7.229799,55.201713],[-7.22974,55.201731],[-7.229705,55.201764],[-7.229714,55.20182],[-7.229793,55.201928],[-7.229793,55.201929],[-7.229805,55.201945],[-7.229815,55.202004],[-7.22981,55.202144],[-7.229785,55.202229],[-7.229746,55.202303],[-7.229704,55.20233],[-7.229628,55.202338],[-7.229565,55.202356],[-7.229522,55.202394],[-7.229518,55.202409],[-7.229507,55.202448],[-7.22952,55.202506],[-7.229506,55.20253],[-7.229516,55.20256],[-7.229491,55.202662],[-7.229474,55.202699],[-7.229393,55.202787],[-7.229345,55.202831],[-7.229144,55.202862],[-7.229052,55.202915],[-7.229095,55.202998],[-7.228976,55.20303],[-7.228854,55.203046],[-7.228785,55.203049],[-7.228714,55.203079],[-7.228694,55.203092],[-7.228636,55.203131],[-7.228561,55.203154],[-7.228385,55.203182],[-7.228304,55.203217],[-7.228286,55.203226],[-7.228161,55.203293],[-7.228145,55.203311],[-7.228101,55.20336],[-7.228025,55.203412],[-7.227928,55.203464],[-7.227851,55.203494],[-7.227757,55.203517],[-7.22764,55.203537],[-7.227516,55.203549],[-7.227432,55.203582],[-7.227425,55.203587],[-7.227358,55.203635],[-7.22727,55.203661],[-7.227228,55.203663],[-7.227175,55.203643],[-7.227017,55.203685],[-7.22694,55.203711],[-7.226888,55.203729],[-7.22682,55.203762],[-7.226817,55.203791],[-7.226815,55.203812],[-7.22683,55.203868],[-7.226806,55.20391],[-7.226728,55.203963],[-7.226611,55.204032],[-7.226468,55.204108],[-7.226267,55.204174],[-7.226119,55.204239],[-7.225984,55.204278],[-7.225834,55.204319],[-7.225765,55.204383],[-7.225614,55.204446],[-7.225454,55.20451],[-7.225419,55.204519],[-7.225377,55.204519],[-7.225211,55.204586],[-7.225046,55.204647],[-7.224992,55.204683],[-7.224955,55.204733],[-7.224896,55.204753],[-7.224893,55.204766],[-7.224886,55.204801],[-7.224846,55.204845],[-7.224773,55.204897],[-7.224641,55.20497],[-7.224557,55.205024],[-7.224407,55.205083],[-7.224383,55.205144],[-7.224286,55.205175],[-7.224282,55.205215],[-7.224306,55.205245],[-7.224269,55.205282],[-7.224188,55.205326],[-7.224031,55.205397],[-7.223872,55.205478],[-7.223743,55.205554],[-7.223675,55.205611],[-7.223642,55.205677],[-7.223589,55.205781],[-7.223553,55.205804],[-7.223511,55.205847],[-7.22347,55.205867],[-7.22327,55.205924],[-7.223135,55.20597],[-7.223097,55.205994],[-7.223091,55.206023],[-7.223108,55.206052],[-7.223157,55.206064],[-7.223199,55.206075],[-7.223216,55.20613],[-7.223234,55.206221],[-7.223218,55.206245],[-7.223165,55.206287],[-7.223097,55.206318],[-7.223032,55.206334],[-7.222999,55.206326],[-7.222923,55.206335],[-7.222854,55.206361],[-7.222836,55.206391],[-7.222839,55.206433],[-7.222855,55.206444],[-7.222906,55.206443],[-7.222971,55.206479],[-7.223122,55.206545],[-7.223173,55.206577],[-7.223175,55.206608],[-7.223152,55.206635],[-7.22307,55.206692],[-7.222951,55.20681],[-7.222877,55.206894],[-7.222871,55.206937],[-7.222899,55.206983],[-7.222933,55.206998],[-7.222998,55.207003],[-7.223085,55.207004],[-7.22311,55.207031],[-7.223116,55.20706],[-7.22311,55.207091],[-7.223078,55.207104],[-7.223004,55.207119],[-7.22296,55.207145],[-7.222893,55.207187],[-7.222873,55.207214],[-7.222885,55.207239],[-7.222911,55.207258],[-7.222948,55.207266],[-7.223015,55.207272],[-7.223047,55.207307],[-7.223055,55.207336],[-7.223037,55.207381],[-7.222998,55.207421],[-7.222942,55.207464],[-7.22283,55.207545],[-7.222699,55.207644],[-7.222669,55.207701],[-7.22265,55.207743],[-7.222639,55.207769],[-7.222594,55.207841],[-7.222554,55.207898],[-7.222501,55.207962],[-7.222476,55.208007],[-7.222469,55.208045],[-7.222478,55.208099],[-7.222504,55.208167],[-7.222491,55.208216],[-7.222461,55.208249],[-7.222429,55.208274],[-7.222428,55.208311],[-7.22242,55.208357],[-7.222427,55.208375],[-7.222459,55.208402],[-7.22247,55.208447],[-7.222437,55.208482],[-7.222367,55.208523],[-7.222254,55.208612],[-7.222227,55.208635],[-7.222217,55.208644],[-7.222203,55.20869],[-7.222185,55.208728],[-7.222129,55.208748],[-7.222053,55.208748],[-7.22199,55.208736],[-7.221952,55.208738],[-7.221927,55.208756],[-7.221904,55.208777],[-7.221832,55.208833],[-7.221807,55.208859],[-7.221797,55.208918],[-7.22178,55.208985],[-7.221718,55.209122],[-7.221711,55.209137],[-7.221682,55.209182],[-7.221583,55.209263],[-7.221616,55.20932],[-7.22163,55.209354],[-7.221623,55.20942],[-7.221628,55.209474],[-7.221659,55.209556],[-7.221678,55.209578],[-7.221663,55.20969],[-7.221631,55.209719],[-7.221632,55.209752],[-7.221575,55.209773],[-7.221547,55.20979],[-7.221517,55.209831],[-7.221517,55.209856],[-7.22154,55.209881],[-7.221479,55.209952],[-7.221443,55.209984],[-7.221409,55.210021],[-7.221341,55.210049],[-7.221214,55.210072],[-7.22114,55.2101],[-7.221067,55.210157],[-7.221091,55.210159],[-7.221087,55.210191],[-7.221049,55.210237],[-7.220956,55.210328],[-7.220937,55.210386],[-7.220971,55.210441],[-7.221047,55.210597],[-7.221046,55.210609],[-7.221045,55.210629],[-7.221017,55.210687],[-7.220962,55.210727],[-7.220826,55.210821],[-7.220841,55.210856],[-7.220906,55.210933],[-7.22092,55.210949],[-7.22092,55.211065],[-7.220912,55.211196],[-7.220929,55.211216],[-7.22096,55.211252],[-7.221082,55.211338],[-7.221284,55.211463],[-7.22131,55.211489],[-7.221424,55.211602]],[[-7.233939,55.216323],[-7.233934,55.216592],[-7.234406,55.216595],[-7.2344,55.216865],[-7.23439,55.217404],[-7.234861,55.217407],[-7.234851,55.217946],[-7.235322,55.217949],[-7.235302,55.219027],[-7.235297,55.219296],[-7.234825,55.219293],[-7.23482,55.219563],[-7.234349,55.21956],[-7.234354,55.21929],[-7.234359,55.219021],[-7.233888,55.219018],[-7.233908,55.21794],[-7.233437,55.217937],[-7.233447,55.217398],[-7.233458,55.216859],[-7.232986,55.216856],[-7.232991,55.216587],[-7.233463,55.216589],[-7.233468,55.21632],[-7.233939,55.216323]],[[-7.234804,55.220371],[-7.235276,55.220374],[-7.235266,55.220913],[-7.234794,55.22091],[-7.234804,55.220371]]],[[[-7.226336,55.215347],[-7.226415,55.21537],[-7.226418,55.215197],[-7.226327,55.215197],[-7.226324,55.215342],[-7.226336,55.215347]]],[[[-7.224798,55.214488],[-7.225018,55.214489],[-7.22502,55.21438],[-7.224604,55.214377],[-7.224631,55.214384],[-7.224787,55.214474],[-7.224798,55.214488]]],[[[-7.224489,55.21435],[-7.224549,55.214364],[-7.224559,55.213838],[-7.224088,55.213835],[-7.224093,55.213565],[-7.223664,55.213563],[-7.223664,55.213582],[-7.223665,55.213591],[-7.223663,55.213718],[-7.223681,55.213833],[-7.223707,55.213867],[-7.223788,55.213898],[-7.223899,55.213928],[-7.223985,55.213969],[-7.224028,55.214022],[-7.224042,55.21414],[-7.224189,55.214335],[-7.224387,55.214335],[-7.224489,55.21435]]],[[[-7.223602,55.213418],[-7.223624,55.213437],[-7.223627,55.213293],[-7.223632,55.213023],[-7.223238,55.213021],[-7.223253,55.213041],[-7.223318,55.213123],[-7.223376,55.213193],[-7.223385,55.213224],[-7.223379,55.213303],[-7.223412,55.213332],[-7.223515,55.21338],[-7.223602,55.213418]]],[[[-7.223105,55.212893],[-7.223162,55.212944],[-7.223166,55.212751],[-7.222899,55.212749],[-7.222899,55.212763],[-7.222928,55.212799],[-7.222974,55.21283],[-7.223105,55.212893]]],[[[-7.222652,55.212495],[-7.222699,55.212528],[-7.2227,55.212478],[-7.222705,55.212209],[-7.222515,55.212208],[-7.222532,55.212231],[-7.222508,55.212352],[-7.222498,55.212415],[-7.222507,55.212452],[-7.222534,55.212464],[-7.222652,55.212495]]],[[[-7.22211,55.212059],[-7.222236,55.212073],[-7.222239,55.211936],[-7.221802,55.211934],[-7.221893,55.211982],[-7.22199,55.212035],[-7.22211,55.212059]]]]}}]}
