{"type":"FeatureCollection","features":[{"type":"Feature","properties":{"source_fid":654689,"county":"Donegal","bog_geom_ha":167.88220270014475,"low15_pct":85.621970920840056,"low15_ha":143.7440507771837,"overlay_ha":143.51850985951447,"area_delta":-0.22554091766923534},"geometry":{"type":"MultiPolygon","coordinates":[[[[-8.638694,54.679591],[-8.638228,54.679593],[-8.638224,54.679324],[-8.639154,54.679319],[-8.639159,54.679588],[-8.640089,54.679583],[-8.640081,54.679044],[-8.63915,54.679049],[-8.639142,54.67851],[-8.638677,54.678513],[-8.638668,54.677974],[-8.639133,54.677971],[-8.639129,54.677702],[-8.639125,54.677432],[-8.63959,54.67743],[-8.639586,54.67716],[-8.639582,54.676891],[-8.639577,54.676621],[-8.640042,54.676619],[-8.640047,54.676888],[-8.640512,54.676886],[-8.640516,54.677155],[-8.640981,54.677153],[-8.640985,54.677422],[-8.64145,54.67742],[-8.641455,54.677689],[-8.64192,54.677687],[-8.641924,54.677956],[-8.641459,54.677959],[-8.641467,54.678498],[-8.641933,54.678495],[-8.641937,54.678765],[-8.641007,54.67877],[-8.641011,54.679039],[-8.641019,54.679578],[-8.641484,54.679576],[-8.641489,54.679846],[-8.640558,54.67985],[-8.640563,54.68012],[-8.640567,54.68039],[-8.641497,54.680385],[-8.641501,54.680654],[-8.641967,54.680652],[-8.641975,54.681191],[-8.64244,54.681188],[-8.642445,54.681458],[-8.64291,54.681455],[-8.642914,54.681725],[-8.643379,54.681722],[-8.643383,54.681992],[-8.642868,54.681995],[-8.642899,54.68201],[-8.64297,54.682059],[-8.643017,54.682062],[-8.643118,54.682062],[-8.643173,54.682058],[-8.643201,54.682055],[-8.643398,54.682115],[-8.643503,54.682152],[-8.643594,54.682194],[-8.643629,54.682205],[-8.643695,54.682224],[-8.643928,54.682269],[-8.643994,54.682276],[-8.64422,54.682307],[-8.644338,54.682311],[-8.644462,54.682329],[-8.644517,54.682332],[-8.644599,54.682321],[-8.644656,54.682359],[-8.644675,54.682426],[-8.644746,54.682492],[-8.644827,54.682537],[-8.644933,54.682552],[-8.645051,54.682589],[-8.645167,54.682648],[-8.645257,54.682655],[-8.64536,54.682654],[-8.645542,54.682725],[-8.645762,54.682795],[-8.645834,54.682806],[-8.645934,54.682819],[-8.646004,54.682818],[-8.646252,54.682787],[-8.64636,54.682782],[-8.646426,54.68279],[-8.646536,54.682841],[-8.646595,54.682844],[-8.646671,54.682867],[-8.646699,54.682896],[-8.646806,54.682828],[-8.646885,54.682789],[-8.64698,54.682719],[-8.647035,54.682658],[-8.647026,54.682529],[-8.646997,54.682475],[-8.64695,54.68239],[-8.64685,54.682304],[-8.646794,54.682244],[-8.646664,54.682233],[-8.64661,54.682203],[-8.646646,54.682064],[-8.646643,54.682009],[-8.646654,54.682009],[-8.646654,54.682067],[-8.646632,54.682148],[-8.646621,54.682203],[-8.646667,54.68223],[-8.6468,54.682241],[-8.646858,54.682304],[-8.646957,54.682388],[-8.647034,54.682531],[-8.647042,54.682604],[-8.647043,54.682659],[-8.646982,54.682725],[-8.646883,54.682794],[-8.6468,54.682838],[-8.646703,54.682899],[-8.646739,54.683021],[-8.646672,54.683059],[-8.646657,54.683094],[-8.646644,54.683136],[-8.646638,54.683166],[-8.646631,54.683206],[-8.646633,54.683229],[-8.64665,54.683299],[-8.646732,54.683389],[-8.646754,54.68343],[-8.646913,54.683426],[-8.646999,54.683431],[-8.647105,54.683431],[-8.647183,54.683411],[-8.647285,54.683413],[-8.647323,54.683431],[-8.647374,54.68345],[-8.647439,54.683456],[-8.647483,54.683486],[-8.64754,54.683543],[-8.647651,54.683612],[-8.647881,54.683655],[-8.648003,54.683684],[-8.648198,54.683727],[-8.648295,54.683766],[-8.648517,54.684058],[-8.64858,54.684086],[-8.648716,54.684113],[-8.648879,54.684135],[-8.649084,54.684159],[-8.649192,54.684173],[-8.649298,54.684171],[-8.649335,54.6842],[-8.649379,54.684209],[-8.649395,54.684212],[-8.649435,54.684202],[-8.649547,54.68415],[-8.649563,54.684116],[-8.64957,54.684085],[-8.649611,54.68406],[-8.64962,54.684033],[-8.649656,54.68401],[-8.649716,54.684001],[-8.649837,54.684027],[-8.649983,54.684016],[-8.650091,54.684012],[-8.65015,54.68396],[-8.650275,54.683881],[-8.65041,54.683838],[-8.650562,54.683827],[-8.650661,54.683806],[-8.650693,54.683801],[-8.65071,54.683784],[-8.650812,54.683687],[-8.650912,54.683609],[-8.651083,54.68355],[-8.651306,54.683494],[-8.651424,54.683483],[-8.651596,54.683489],[-8.651684,54.68349],[-8.651741,54.683428],[-8.65184,54.68337],[-8.65194,54.683357],[-8.65197,54.683353],[-8.651995,54.683351],[-8.652091,54.683287],[-8.652224,54.683294],[-8.65233,54.68328],[-8.652663,54.683339],[-8.652764,54.683327],[-8.652858,54.683349],[-8.65299,54.683384],[-8.653067,54.683405],[-8.653184,54.683451],[-8.65333,54.68348],[-8.653627,54.683477],[-8.653629,54.683485],[-8.653485,54.683483],[-8.653324,54.683484],[-8.65318,54.683456],[-8.653058,54.683411],[-8.652858,54.683354],[-8.652756,54.683332],[-8.652662,54.683346],[-8.652521,54.68332],[-8.652433,54.683303],[-8.65233,54.683286],[-8.652225,54.683299],[-8.652101,54.683294],[-8.652004,54.683356],[-8.651932,54.683362],[-8.651836,54.683377],[-8.651745,54.683432],[-8.651688,54.683494],[-8.651597,54.683494],[-8.651418,54.683488],[-8.651307,54.683499],[-8.651072,54.683559],[-8.650916,54.683612],[-8.650821,54.683685],[-8.650742,54.683763],[-8.650722,54.683781],[-8.650883,54.683871],[-8.651017,54.683903],[-8.65128,54.683895],[-8.651554,54.683957],[-8.651669,54.683966],[-8.651797,54.683991],[-8.651908,54.684052],[-8.651955,54.684105],[-8.651984,54.684156],[-8.651997,54.684221],[-8.651976,54.684341],[-8.651978,54.684357],[-8.652002,54.68447],[-8.652028,54.684533],[-8.652079,54.684655],[-8.652137,54.684704],[-8.65213,54.684707],[-8.652072,54.684657],[-8.652029,54.684552],[-8.651995,54.684471],[-8.651967,54.684341],[-8.65197,54.684332],[-8.651987,54.684223],[-8.651974,54.684152],[-8.651948,54.684102],[-8.651901,54.684054],[-8.651798,54.683996],[-8.651664,54.68397],[-8.651554,54.683962],[-8.651405,54.683929],[-8.651276,54.683901],[-8.651139,54.683905],[-8.651017,54.683908],[-8.65088,54.683875],[-8.650717,54.683786],[-8.650697,54.683805],[-8.65056,54.683831],[-8.650407,54.683843],[-8.650278,54.683885],[-8.650157,54.68396],[-8.650096,54.684018],[-8.650016,54.68402],[-8.649838,54.684032],[-8.649716,54.684005],[-8.649655,54.684014],[-8.649628,54.684036],[-8.649617,54.684063],[-8.649575,54.684087],[-8.649572,54.684118],[-8.649553,54.684153],[-8.649443,54.684204],[-8.649405,54.684215],[-8.649436,54.684259],[-8.64947,54.684339],[-8.6495,54.684392],[-8.649573,54.684519],[-8.64962,54.684626],[-8.649625,54.684714],[-8.649547,54.684814],[-8.649514,54.684857],[-8.649438,54.68501],[-8.649453,54.685052],[-8.64954,54.685093],[-8.649586,54.685133],[-8.649576,54.685176],[-8.649712,54.685202],[-8.649874,54.685238],[-8.64997,54.685276],[-8.650024,54.68533],[-8.650063,54.685422],[-8.650087,54.685447],[-8.650111,54.685468],[-8.65015,54.68549],[-8.650291,54.685436],[-8.650491,54.685355],[-8.650786,54.685235],[-8.650968,54.685162],[-8.651478,54.684968],[-8.65188,54.684812],[-8.651945,54.684786],[-8.652032,54.684751],[-8.652133,54.68471],[-8.652141,54.684707],[-8.653086,54.684326],[-8.653088,54.684325],[-8.653728,54.684071],[-8.654379,54.68382],[-8.654879,54.683625],[-8.655113,54.683521],[-8.655232,54.683467],[-8.655569,54.683361],[-8.655846,54.683235],[-8.656157,54.68307],[-8.65641,54.682908],[-8.656651,54.682757],[-8.656839,54.682639],[-8.657245,54.682381],[-8.657507,54.682211],[-8.6579,54.681945],[-8.658278,54.681698],[-8.658544,54.681513],[-8.658805,54.681348],[-8.65906,54.681182],[-8.659277,54.681047],[-8.659241,54.680892],[-8.659242,54.680882],[-8.659259,54.680706],[-8.659303,54.680611],[-8.659308,54.680606],[-8.659499,54.680409],[-8.659431,54.680061],[-8.659396,54.679884],[-8.659421,54.67973],[-8.659471,54.679642],[-8.659432,54.679464],[-8.659397,54.679321],[-8.659369,54.679252],[-8.659388,54.679249],[-8.659464,54.679236],[-8.659524,54.679207],[-8.659601,54.67922],[-8.65965,54.679218],[-8.659748,54.679112],[-8.659824,54.679037],[-8.659926,54.678983],[-8.660033,54.678928],[-8.660044,54.678906],[-8.660009,54.678884],[-8.660055,54.678793],[-8.660054,54.678782],[-8.66007,54.678782],[-8.660187,54.678703],[-8.66018,54.678698],[-8.660198,54.678672],[-8.660126,54.678646],[-8.660095,54.678662],[-8.66008,54.67867],[-8.660077,54.678694],[-8.66007,54.678696],[-8.660046,54.678703],[-8.659982,54.678701],[-8.659978,54.678691],[-8.659974,54.678681],[-8.659938,54.678696],[-8.659913,54.678706],[-8.659887,54.678708],[-8.659829,54.678715],[-8.659773,54.678713],[-8.659757,54.678713],[-8.659525,54.678786],[-8.659214,54.678877],[-8.658937,54.678957],[-8.658587,54.679053],[-8.65823,54.679146],[-8.657671,54.679302],[-8.657582,54.679327],[-8.657568,54.679332],[-8.657364,54.67939],[-8.656957,54.679504],[-8.656406,54.679653],[-8.655946,54.679775],[-8.655475,54.679911],[-8.655141,54.679995],[-8.654704,54.680122],[-8.654202,54.680253],[-8.653655,54.680411],[-8.653249,54.68052],[-8.65274,54.680662],[-8.652341,54.680771],[-8.651966,54.680631],[-8.651665,54.680519],[-8.651379,54.680409],[-8.650929,54.680251],[-8.650547,54.68012],[-8.650097,54.679942],[-8.649861,54.679857],[-8.649487,54.679718],[-8.649159,54.679604],[-8.648754,54.67946],[-8.648537,54.67937],[-8.648548,54.679269],[-8.648457,54.679269],[-8.648453,54.679],[-8.647523,54.679005],[-8.647519,54.678735],[-8.647053,54.678738],[-8.647049,54.678468],[-8.647045,54.678199],[-8.64658,54.678201],[-8.646575,54.677932],[-8.646571,54.677662],[-8.647501,54.677657],[-8.647506,54.677927],[-8.647971,54.677924],[-8.647975,54.678194],[-8.64844,54.678191],[-8.648445,54.678461],[-8.648558,54.67846],[-8.648552,54.678086],[-8.648553,54.677663],[-8.648562,54.67729],[-8.64856,54.677065],[-8.648565,54.676562],[-8.648578,54.676165],[-8.64857,54.675515],[-8.648571,54.675492],[-8.648576,54.675395],[-8.648587,54.675206],[-8.64859,54.674502],[-8.648575,54.673929],[-8.648582,54.673298],[-8.648572,54.673145],[-8.648556,54.672679],[-8.648556,54.672583],[-8.64848,54.672554],[-8.648176,54.672454],[-8.648007,54.672385],[-8.647854,54.672337],[-8.64732,54.672253],[-8.646952,54.672205],[-8.646561,54.672151],[-8.645949,54.672063],[-8.645387,54.672002],[-8.64466,54.671881],[-8.64409,54.671811],[-8.643697,54.671756],[-8.643687,54.671755],[-8.643691,54.672017],[-8.643226,54.672019],[-8.643222,54.67175],[-8.642756,54.671752],[-8.642755,54.671636],[-8.64018,54.671298],[-8.639958,54.671261],[-8.639962,54.671497],[-8.639032,54.671502],[-8.639035,54.671734],[-8.639323,54.671758],[-8.639424,54.671769],[-8.63954,54.671782],[-8.639602,54.671789],[-8.639967,54.671819],[-8.6414,54.671908],[-8.641939,54.672284],[-8.64331,54.673851],[-8.643395,54.673949],[-8.643514,54.67412],[-8.643575,54.674149],[-8.643672,54.674319],[-8.643775,54.674477],[-8.643852,54.674585],[-8.64399,54.674772],[-8.64412,54.674887],[-8.644243,54.674999],[-8.644281,54.675063],[-8.644282,54.675186],[-8.644272,54.675369],[-8.644254,54.675548],[-8.644024,54.675591],[-8.643539,54.675688],[-8.643296,54.675733],[-8.643009,54.675803],[-8.642706,54.67588],[-8.642589,54.675904],[-8.642426,54.675939],[-8.642141,54.676001],[-8.641791,54.676068],[-8.641463,54.676126],[-8.641087,54.676169],[-8.640904,54.67619],[-8.64042,54.676254],[-8.63992,54.676335],[-8.639628,54.676386],[-8.639392,54.676436],[-8.639076,54.676479],[-8.638801,54.676533],[-8.638444,54.676588],[-8.637904,54.676689],[-8.637455,54.676763],[-8.637051,54.676821],[-8.636839,54.676846],[-8.636771,54.676854],[-8.636553,54.6769],[-8.636337,54.676948],[-8.636136,54.676988],[-8.635907,54.677035],[-8.635826,54.677034],[-8.63577,54.677037],[-8.635557,54.677066],[-8.635511,54.676963],[-8.635451,54.676822],[-8.635428,54.676748],[-8.635343,54.676532],[-8.635269,54.676382],[-8.635134,54.676089],[-8.63501,54.675789],[-8.63493,54.6756],[-8.634931,54.675556],[-8.634908,54.675514],[-8.634909,54.675567],[-8.634444,54.67557],[-8.63444,54.6753],[-8.634798,54.675298],[-8.634775,54.675243],[-8.634745,54.67519],[-8.634733,54.675153],[-8.634664,54.675001],[-8.634579,54.6748],[-8.634552,54.674741],[-8.634506,54.674688],[-8.634421,54.674591],[-8.634315,54.674341],[-8.634267,54.674223],[-8.633958,54.674225],[-8.633954,54.673955],[-8.63395,54.673685],[-8.633485,54.673688],[-8.63348,54.673418],[-8.633476,54.673149],[-8.633011,54.673151],[-8.633007,54.672882],[-8.633728,54.672878],[-8.633512,54.67234],[-8.632068,54.672348],[-8.632073,54.672617],[-8.631608,54.672619],[-8.631616,54.673159],[-8.631524,54.673159],[-8.631521,54.673196],[-8.631522,54.673338],[-8.631518,54.67343],[-8.631508,54.673686],[-8.631498,54.673911],[-8.631493,54.673957],[-8.631488,54.673982],[-8.631465,54.674088],[-8.631432,54.674244],[-8.631421,54.674328],[-8.631426,54.674476],[-8.631427,54.674712],[-8.631421,54.674928],[-8.631414,54.675135],[-8.631404,54.675358],[-8.631416,54.675506],[-8.631417,54.675618],[-8.631418,54.675764],[-8.631422,54.675859],[-8.631422,54.675892],[-8.631424,54.676101],[-8.631421,54.676238],[-8.631681,54.676271],[-8.631865,54.67629],[-8.631893,54.676301],[-8.631928,54.676422],[-8.631929,54.67659],[-8.631869,54.676819],[-8.631776,54.677053],[-8.631724,54.677267],[-8.631713,54.677307],[-8.631671,54.677455],[-8.631661,54.677526],[-8.631657,54.677554],[-8.631671,54.677665],[-8.631681,54.677753],[-8.631701,54.677936],[-8.631705,54.677955],[-8.631709,54.677975],[-8.631721,54.678105],[-8.631749,54.678306],[-8.631772,54.678451],[-8.631788,54.678582],[-8.631816,54.67874],[-8.631828,54.678831],[-8.631828,54.678912],[-8.631844,54.678994],[-8.632004,54.679044],[-8.632225,54.679064],[-8.632496,54.679127],[-8.632576,54.679129],[-8.632705,54.679094],[-8.6328,54.679045],[-8.632918,54.679049],[-8.633017,54.679066],[-8.633185,54.679137],[-8.633326,54.679183],[-8.633657,54.679204],[-8.633802,54.679195],[-8.633885,54.67916],[-8.634037,54.679086],[-8.634136,54.679049],[-8.634296,54.679053],[-8.63449,54.67905],[-8.634498,54.67905],[-8.63449,54.678535],[-8.634025,54.678537],[-8.634021,54.678268],[-8.633556,54.67827],[-8.633548,54.677731],[-8.633543,54.677461],[-8.634008,54.677459],[-8.634013,54.677728],[-8.634478,54.677726],[-8.634486,54.678265],[-8.634951,54.678263],[-8.634956,54.678532],[-8.635421,54.67853],[-8.635429,54.679069],[-8.635433,54.679338],[-8.635278,54.679339],[-8.635324,54.679385],[-8.635338,54.679433],[-8.635422,54.679485],[-8.635567,54.679523],[-8.635684,54.679519],[-8.635773,54.679508],[-8.635853,54.679471],[-8.635964,54.679446],[-8.636055,54.679428],[-8.636117,54.679405],[-8.636204,54.679386],[-8.636484,54.679309],[-8.636646,54.679259],[-8.636767,54.679229],[-8.636917,54.679214],[-8.636987,54.679221],[-8.637124,54.679228],[-8.637198,54.679239],[-8.637302,54.679295],[-8.637374,54.679338],[-8.637428,54.679346],[-8.637513,54.679358],[-8.637605,54.679403],[-8.637664,54.679441],[-8.637718,54.679478],[-8.637781,54.679481],[-8.63787,54.679482],[-8.637933,54.679489],[-8.638021,54.67953],[-8.638078,54.679545],[-8.638188,54.679584],[-8.638469,54.679709],[-8.638523,54.679757],[-8.638641,54.679883],[-8.638645,54.679889],[-8.638659,54.67991],[-8.639164,54.679907],[-8.639163,54.679858],[-8.638698,54.67986],[-8.638694,54.679591]],[[-8.639966,54.671767],[-8.639962,54.671497],[-8.640427,54.671495],[-8.640431,54.671765],[-8.639966,54.671767]],[[-8.646567,54.677393],[-8.646571,54.677662],[-8.646106,54.677665],[-8.646102,54.677395],[-8.645637,54.677398],[-8.645632,54.677128],[-8.644237,54.677135],[-8.644228,54.676596],[-8.644694,54.676594],[-8.644689,54.676324],[-8.645154,54.676322],[-8.64515,54.676052],[-8.645615,54.67605],[-8.645619,54.676319],[-8.645624,54.676589],[-8.646089,54.676586],[-8.646097,54.677126],[-8.646563,54.677123],[-8.646567,54.677393]],[[-8.641941,54.679034],[-8.641937,54.678765],[-8.642402,54.678762],[-8.642406,54.679032],[-8.641941,54.679034]],[[-8.644169,54.672823],[-8.644181,54.673632],[-8.643251,54.673636],[-8.643239,54.672828],[-8.644169,54.672823]],[[-8.644258,54.678483],[-8.644254,54.678214],[-8.643789,54.678216],[-8.64378,54.677677],[-8.644711,54.677672],[-8.644719,54.678211],[-8.645649,54.678206],[-8.645654,54.678476],[-8.645658,54.678745],[-8.645193,54.678748],[-8.645189,54.678478],[-8.644258,54.678483]],[[-8.632596,54.676388],[-8.632131,54.676391],[-8.632127,54.676121],[-8.632123,54.675851],[-8.632588,54.675849],[-8.632592,54.676119],[-8.633522,54.676114],[-8.633527,54.676383],[-8.634457,54.676378],[-8.634461,54.676648],[-8.634926,54.676645],[-8.63493,54.676915],[-8.633535,54.676922],[-8.633531,54.676653],[-8.632601,54.676658],[-8.632596,54.676388]]],[[[-8.640093,54.679853],[-8.640558,54.67985],[-8.640554,54.679581],[-8.640089,54.679583],[-8.640093,54.679853]]],[[[-8.640072,54.678505],[-8.640081,54.679044],[-8.640546,54.679042],[-8.640541,54.678772],[-8.640537,54.678503],[-8.640072,54.678505]]],[[[-8.640009,54.680742],[-8.640116,54.68078],[-8.640228,54.680853],[-8.640253,54.680881],[-8.640378,54.681005],[-8.640488,54.681098],[-8.640566,54.681127],[-8.640579,54.681129],[-8.640571,54.680659],[-8.640106,54.680662],[-8.640102,54.680392],[-8.639648,54.680394],[-8.639762,54.680492],[-8.639809,54.680531],[-8.639834,54.680574],[-8.639841,54.680618],[-8.639885,54.680674],[-8.639945,54.680733],[-8.640009,54.680742]]],[[[-8.641017,54.681343],[-8.641048,54.681372],[-8.641045,54.681196],[-8.640815,54.681197],[-8.640867,54.681212],[-8.640944,54.681258],[-8.641017,54.681343]]],[[[-8.641838,54.681524],[-8.641981,54.681556],[-8.641979,54.68146],[-8.641494,54.681463],[-8.641507,54.681466],[-8.641651,54.681482],[-8.641838,54.681524]]],[[[-8.642369,54.681888],[-8.642452,54.681902],[-8.642449,54.681727],[-8.642241,54.681728],[-8.642246,54.68175],[-8.642289,54.681834],[-8.642369,54.681888]]],[[[-8.644907,54.685838],[-8.645506,54.685809],[-8.646115,54.685773],[-8.646922,54.68574],[-8.647522,54.685718],[-8.648133,54.685707],[-8.649037,54.685739],[-8.649046,54.685739],[-8.649472,54.685754],[-8.649792,54.685627],[-8.650145,54.685492],[-8.650105,54.68547],[-8.650055,54.685424],[-8.650013,54.685325],[-8.649963,54.685276],[-8.649864,54.685239],[-8.649681,54.6852],[-8.649576,54.68518],[-8.649543,54.685273],[-8.649488,54.685319],[-8.649403,54.685372],[-8.649298,54.685411],[-8.64922,54.685438],[-8.649196,54.685454],[-8.649133,54.685497],[-8.649032,54.685683],[-8.649045,54.685735],[-8.649036,54.685735],[-8.649025,54.685684],[-8.649063,54.685603],[-8.649127,54.685494],[-8.649214,54.685435],[-8.649298,54.685406],[-8.649396,54.685368],[-8.649472,54.685322],[-8.649533,54.685275],[-8.64954,54.685255],[-8.649569,54.685179],[-8.649578,54.685134],[-8.649536,54.685099],[-8.649448,54.685055],[-8.649428,54.685011],[-8.649507,54.684854],[-8.649617,54.684713],[-8.649613,54.684627],[-8.649562,54.684519],[-8.649467,54.684345],[-8.649428,54.68426],[-8.649397,54.684218],[-8.649336,54.684205],[-8.649298,54.684178],[-8.64923,54.684178],[-8.649188,54.684178],[-8.649085,54.684163],[-8.649005,54.684155],[-8.648826,54.684133],[-8.6487,54.684115],[-8.648578,54.684092],[-8.648509,54.684061],[-8.648409,54.683924],[-8.648344,54.683841],[-8.648279,54.683855],[-8.648205,54.683885],[-8.648092,54.683963],[-8.647968,54.684069],[-8.647964,54.684142],[-8.648007,54.684177],[-8.648038,54.684229],[-8.648007,54.684285],[-8.647941,54.684318],[-8.647888,54.684334],[-8.647847,54.684357],[-8.647777,54.684386],[-8.64775,54.6844],[-8.647674,54.684445],[-8.647597,54.684479],[-8.64753,54.684489],[-8.647518,54.68457],[-8.647512,54.684571],[-8.647526,54.684487],[-8.647597,54.684476],[-8.647672,54.684441],[-8.647769,54.684384],[-8.647843,54.684354],[-8.647884,54.684331],[-8.647936,54.684313],[-8.648001,54.684282],[-8.648027,54.684229],[-8.648,54.684179],[-8.647958,54.684146],[-8.647961,54.684073],[-8.647843,54.684099],[-8.647809,54.684128],[-8.647733,54.684161],[-8.647648,54.684152],[-8.647587,54.684154],[-8.647527,54.684183],[-8.647465,54.684202],[-8.647408,54.684204],[-8.647392,54.684228],[-8.647238,54.684277],[-8.647174,54.684311],[-8.647129,54.684335],[-8.647069,54.684335],[-8.647068,54.684331],[-8.647125,54.684331],[-8.647232,54.684273],[-8.647334,54.684242],[-8.647387,54.684224],[-8.647406,54.6842],[-8.647467,54.684198],[-8.647517,54.684182],[-8.647589,54.684151],[-8.647657,54.684149],[-8.647733,54.684157],[-8.647802,54.684126],[-8.64784,54.684097],[-8.647961,54.684068],[-8.648082,54.683965],[-8.648204,54.683881],[-8.648272,54.683852],[-8.648341,54.683837],[-8.64829,54.683772],[-8.648195,54.683731],[-8.647974,54.68368],[-8.647749,54.683635],[-8.647646,54.683615],[-8.647535,54.683547],[-8.647474,54.683485],[-8.647436,54.683461],[-8.647367,54.683452],[-8.647314,54.683433],[-8.647283,54.683417],[-8.647188,54.683415],[-8.647104,54.683435],[-8.647017,54.683435],[-8.64691,54.683431],[-8.646811,54.683431],[-8.646747,54.683434],[-8.646724,54.68339],[-8.646643,54.683304],[-8.646623,54.683213],[-8.646638,54.68313],[-8.646664,54.683057],[-8.646729,54.683021],[-8.646717,54.682971],[-8.646698,54.682902],[-8.646663,54.682871],[-8.646598,54.68285],[-8.646534,54.682845],[-8.646423,54.682795],[-8.646354,54.682786],[-8.646259,54.682791],[-8.646008,54.682824],[-8.645936,54.682825],[-8.645753,54.682798],[-8.645536,54.682731],[-8.64544,54.682691],[-8.64538,54.682741],[-8.645244,54.682866],[-8.645117,54.68293],[-8.645091,54.682944],[-8.644863,54.683012],[-8.644742,54.683102],[-8.644724,54.683185],[-8.644604,54.683475],[-8.644521,54.683537],[-8.644484,54.683567],[-8.644467,54.683724],[-8.644382,54.68381],[-8.644369,54.683855],[-8.644362,54.683857],[-8.644376,54.683806],[-8.64446,54.683724],[-8.644464,54.68365],[-8.644479,54.683565],[-8.644591,54.683475],[-8.644642,54.683361],[-8.644719,54.683183],[-8.644734,54.683101],[-8.644861,54.683006],[-8.645079,54.682942],[-8.645236,54.682865],[-8.645353,54.682763],[-8.645427,54.682686],[-8.64536,54.682663],[-8.645257,54.682661],[-8.645162,54.682652],[-8.645047,54.682595],[-8.644929,54.682558],[-8.644826,54.682542],[-8.644742,54.682498],[-8.644666,54.68243],[-8.644646,54.68236],[-8.644597,54.682327],[-8.644517,54.682336],[-8.644456,54.682334],[-8.644338,54.682316],[-8.64422,54.682312],[-8.643991,54.682279],[-8.643926,54.682275],[-8.643682,54.682225],[-8.643591,54.682199],[-8.643495,54.682153],[-8.643373,54.682113],[-8.643206,54.682061],[-8.643114,54.682065],[-8.643027,54.682068],[-8.642966,54.682063],[-8.642897,54.682015],[-8.642856,54.681995],[-8.642453,54.681997],[-8.642452,54.681906],[-8.642367,54.681893],[-8.642283,54.681837],[-8.642237,54.681752],[-8.642232,54.681728],[-8.641984,54.68173],[-8.641981,54.681561],[-8.64184,54.681528],[-8.641645,54.681486],[-8.641501,54.681471],[-8.641473,54.681463],[-8.641049,54.681465],[-8.641048,54.681381],[-8.641005,54.681342],[-8.640936,54.68126],[-8.640856,54.681212],[-8.640799,54.681197],[-8.64058,54.681198],[-8.640579,54.681133],[-8.640558,54.681129],[-8.640482,54.681102],[-8.640379,54.681014],[-8.640298,54.68094],[-8.640222,54.680858],[-8.640103,54.680779],[-8.640012,54.680748],[-8.639939,54.680737],[-8.639889,54.680689],[-8.639836,54.680621],[-8.639824,54.68057],[-8.639797,54.68053],[-8.639644,54.680398],[-8.639638,54.680394],[-8.639637,54.680394],[-8.639637,54.680393],[-8.639571,54.680346],[-8.639559,54.680343],[-8.639566,54.680803],[-8.639178,54.680805],[-8.639188,54.681475],[-8.639654,54.681473],[-8.639658,54.681742],[-8.640123,54.68174],[-8.640127,54.682009],[-8.640131,54.682279],[-8.639666,54.682281],[-8.63967,54.682551],[-8.639205,54.682553],[-8.639206,54.682593],[-8.639228,54.682603],[-8.639292,54.682609],[-8.639376,54.682608],[-8.639441,54.682648],[-8.63951,54.682681],[-8.639523,54.682767],[-8.639557,54.682784],[-8.639638,54.68279],[-8.63971,54.68281],[-8.639836,54.68288],[-8.640025,54.682973],[-8.640108,54.682977],[-8.640134,54.682979],[-8.640205,54.682943],[-8.640262,54.682894],[-8.640313,54.682885],[-8.640349,54.682901],[-8.640449,54.682864],[-8.640552,54.682839],[-8.640616,54.682838],[-8.640611,54.682843],[-8.640552,54.682843],[-8.640451,54.682867],[-8.640345,54.682906],[-8.640311,54.68289],[-8.64027,54.682896],[-8.640211,54.682947],[-8.640136,54.682983],[-8.640024,54.682977],[-8.63986,54.682899],[-8.639706,54.682815],[-8.639635,54.682795],[-8.639553,54.682789],[-8.639518,54.682769],[-8.639503,54.682683],[-8.639431,54.682648],[-8.639375,54.682614],[-8.639299,54.682614],[-8.639226,54.682607],[-8.639206,54.682599],[-8.63921,54.682823],[-8.638744,54.682825],[-8.638749,54.683095],[-8.638283,54.683097],[-8.638279,54.682828],[-8.638275,54.682558],[-8.63874,54.682556],[-8.638737,54.682346],[-8.638679,54.682311],[-8.638629,54.682225],[-8.638505,54.682126],[-8.638428,54.682118],[-8.638385,54.68207],[-8.638279,54.682051],[-8.637974,54.68195],[-8.637738,54.681848],[-8.637498,54.681777],[-8.637256,54.681671],[-8.637012,54.68158],[-8.636805,54.681545],[-8.636522,54.681527],[-8.636358,54.681511],[-8.636185,54.68156],[-8.636012,54.68159],[-8.635812,54.681592],[-8.635628,54.681583],[-8.635471,54.681612],[-8.635341,54.681642],[-8.635141,54.681656],[-8.634953,54.681661],[-8.63475,54.681672],[-8.634584,54.681654],[-8.634322,54.681594],[-8.634121,54.681538],[-8.633834,54.681462],[-8.633708,54.681376],[-8.633546,54.681305],[-8.633384,54.681197],[-8.633198,54.681102],[-8.633006,54.681064],[-8.632904,54.681029],[-8.632869,54.680972],[-8.632802,54.680942],[-8.632701,54.680937],[-8.632586,54.680915],[-8.632474,54.680938],[-8.632397,54.680924],[-8.632199,54.681002],[-8.63213,54.681011],[-8.632054,54.680996],[-8.632016,54.680976],[-8.632006,54.680978],[-8.631765,54.681031],[-8.631656,54.68105],[-8.631584,54.681055],[-8.631473,54.681064],[-8.631316,54.681084],[-8.631255,54.68109],[-8.63108,54.681115],[-8.630879,54.681142],[-8.630815,54.681151],[-8.63081,54.681154],[-8.630811,54.681249],[-8.631741,54.681245],[-8.631746,54.681514],[-8.632211,54.681512],[-8.632215,54.681781],[-8.63268,54.681779],[-8.632684,54.682048],[-8.63315,54.682046],[-8.633154,54.682315],[-8.632689,54.682318],[-8.632693,54.682587],[-8.633158,54.682585],[-8.633159,54.682634],[-8.633393,54.682632],[-8.633396,54.682853],[-8.633627,54.682852],[-8.633631,54.683122],[-8.633636,54.683391],[-8.634101,54.683389],[-8.634105,54.683658],[-8.634109,54.683928],[-8.633644,54.68393],[-8.63364,54.683661],[-8.633409,54.683662],[-8.63341,54.683724],[-8.633429,54.683743],[-8.633452,54.68381],[-8.633449,54.683902],[-8.633488,54.683981],[-8.633598,54.684069],[-8.633808,54.684151],[-8.634109,54.684214],[-8.634266,54.684262],[-8.634403,54.684271],[-8.634559,54.684321],[-8.634704,54.684316],[-8.634818,54.684345],[-8.63513,54.684421],[-8.635193,54.684438],[-8.635342,54.684508],[-8.635403,54.68455],[-8.635542,54.684645],[-8.635689,54.684745],[-8.63582,54.684881],[-8.635954,54.685004],[-8.636059,54.68514],[-8.636103,54.685239],[-8.636093,54.685268],[-8.63611,54.685284],[-8.636156,54.685313],[-8.636536,54.685311],[-8.636539,54.685543],[-8.636586,54.685571],[-8.636626,54.68558],[-8.636639,54.685576],[-8.636751,54.685523],[-8.636826,54.685528],[-8.636865,54.685556],[-8.63689,54.685614],[-8.636882,54.685685],[-8.636837,54.685776],[-8.636827,54.685853],[-8.636878,54.685885],[-8.63692,54.685917],[-8.63694,54.685919],[-8.636977,54.68591],[-8.637069,54.685867],[-8.63713,54.685839],[-8.637203,54.685831],[-8.637285,54.685853],[-8.637356,54.685886],[-8.637398,54.685951],[-8.637395,54.685797],[-8.63693,54.6858],[-8.636922,54.685261],[-8.636456,54.685263],[-8.636452,54.684994],[-8.635987,54.684996],[-8.635979,54.684457],[-8.635513,54.684459],[-8.635509,54.68419],[-8.635044,54.684192],[-8.63504,54.683923],[-8.63597,54.683918],[-8.635966,54.683648],[-8.635957,54.683109],[-8.635953,54.68284],[-8.637349,54.682832],[-8.637353,54.683102],[-8.637818,54.6831],[-8.637827,54.683639],[-8.638292,54.683636],[-8.638296,54.683906],[-8.6383,54.684175],[-8.638305,54.684445],[-8.638313,54.684984],[-8.638317,54.685253],[-8.638782,54.685251],[-8.638791,54.68579],[-8.639256,54.685787],[-8.63926,54.686057],[-8.639265,54.686327],[-8.63941,54.686326],[-8.639845,54.686267],[-8.640238,54.686214],[-8.640658,54.686167],[-8.640652,54.68578],[-8.641582,54.685775],[-8.641587,54.686083],[-8.64219,54.686022],[-8.642987,54.685957],[-8.643595,54.685918],[-8.644134,54.685874],[-8.644516,54.685862],[-8.644907,54.685838]],[[-8.640648,54.685511],[-8.640652,54.68578],[-8.639721,54.685785],[-8.639717,54.685516],[-8.639713,54.685246],[-8.640178,54.685244],[-8.640182,54.685513],[-8.640648,54.685511]],[[-8.642957,54.68442],[-8.643422,54.684418],[-8.643426,54.684687],[-8.642961,54.68469],[-8.642957,54.68442]],[[-8.642496,54.684692],[-8.642961,54.68469],[-8.642965,54.684959],[-8.6425,54.684962],[-8.642496,54.684692]],[[-8.635936,54.681762],[-8.636402,54.681759],[-8.636406,54.682029],[-8.635941,54.682031],[-8.635936,54.681762]]],[[[-8.639493,54.67123],[-8.639772,54.671229],[-8.639606,54.671201],[-8.639492,54.671186],[-8.639493,54.67123]]],[[[-8.633783,54.670953],[-8.633373,54.671049],[-8.633161,54.671106],[-8.632981,54.671149],[-8.632824,54.67118],[-8.632865,54.671307],[-8.632912,54.671512],[-8.632909,54.671534],[-8.632986,54.671534],[-8.63299,54.671804],[-8.633079,54.671803],[-8.633065,54.671773],[-8.633114,54.671731],[-8.633426,54.67173],[-8.633591,54.671731],[-8.633821,54.671739],[-8.634153,54.671741],[-8.634504,54.671722],[-8.634773,54.671713],[-8.634761,54.670947],[-8.636311,54.670939],[-8.63632,54.671517],[-8.636706,54.671515],[-8.636709,54.671692],[-8.6369,54.671677],[-8.637135,54.671651],[-8.637375,54.671648],[-8.637612,54.671646],[-8.63789,54.671643],[-8.638072,54.67166],[-8.638104,54.671663],[-8.638102,54.671507],[-8.638567,54.671505],[-8.638562,54.671235],[-8.63856,54.671059],[-8.638251,54.671013],[-8.637424,54.670934],[-8.636149,54.670756],[-8.634752,54.670659],[-8.633783,54.670953]]],[[[-8.634669,54.679109],[-8.634887,54.679197],[-8.634966,54.679219],[-8.634964,54.679071],[-8.634616,54.679073],[-8.634669,54.679109]]],[[[-8.639559,54.680338],[-8.639574,54.680342],[-8.639636,54.680386],[-8.639632,54.680125],[-8.639555,54.680125],[-8.639559,54.680338]]],[[[-8.637978,54.681946],[-8.638281,54.682046],[-8.638385,54.682062],[-8.63843,54.682114],[-8.638507,54.682121],[-8.638635,54.682221],[-8.638679,54.682306],[-8.638737,54.682339],[-8.638736,54.682286],[-8.639201,54.682284],[-8.639197,54.682014],[-8.638266,54.682019],[-8.638262,54.681749],[-8.638258,54.68148],[-8.637793,54.681482],[-8.63778,54.680674],[-8.637776,54.680404],[-8.638009,54.680403],[-8.638002,54.679913],[-8.638652,54.67991],[-8.638632,54.679884],[-8.638517,54.679759],[-8.638468,54.679715],[-8.63838,54.679678],[-8.638181,54.679588],[-8.638078,54.67955],[-8.638017,54.679535],[-8.63793,54.679493],[-8.637869,54.679487],[-8.637796,54.679487],[-8.637712,54.679483],[-8.637651,54.679439],[-8.637602,54.679408],[-8.637506,54.679362],[-8.63743,54.679353],[-8.637369,54.679342],[-8.637285,54.679292],[-8.637197,54.679243],[-8.637117,54.679233],[-8.636992,54.679226],[-8.636908,54.67922],[-8.636763,54.679233],[-8.636638,54.679266],[-8.636509,54.679306],[-8.63625,54.679378],[-8.636208,54.679391],[-8.636121,54.679409],[-8.636056,54.679431],[-8.635863,54.679473],[-8.635775,54.679511],[-8.635676,54.679524],[-8.635558,54.679529],[-8.635421,54.67949],[-8.635329,54.679435],[-8.635318,54.679386],[-8.635264,54.679339],[-8.634968,54.679341],[-8.634967,54.679257],[-8.634856,54.679228],[-8.634628,54.679136],[-8.634556,54.679087],[-8.634489,54.679085],[-8.634295,54.679088],[-8.634153,54.679084],[-8.634073,54.679115],[-8.633922,54.679187],[-8.633824,54.679229],[-8.633657,54.679239],[-8.633307,54.679217],[-8.633152,54.679166],[-8.63299,54.679098],[-8.632907,54.679084],[-8.632821,54.679081],[-8.632739,54.679123],[-8.632588,54.679164],[-8.632483,54.679162],[-8.632209,54.679097],[-8.631985,54.679078],[-8.631841,54.67904],[-8.631856,54.679106],[-8.631872,54.679221],[-8.631896,54.679404],[-8.631944,54.67975],[-8.631942,54.680048],[-8.631984,54.680118],[-8.632004,54.680231],[-8.632043,54.680392],[-8.632078,54.680555],[-8.632124,54.680705],[-8.632144,54.68078],[-8.632156,54.680859],[-8.632172,54.680952],[-8.632026,54.680975],[-8.632059,54.680992],[-8.632133,54.681005],[-8.632198,54.680997],[-8.632299,54.680959],[-8.632392,54.680919],[-8.632477,54.680933],[-8.632587,54.680909],[-8.632704,54.680932],[-8.632801,54.680936],[-8.632877,54.680968],[-8.632911,54.681026],[-8.633006,54.681058],[-8.633198,54.681095],[-8.633387,54.681193],[-8.633546,54.681299],[-8.633627,54.681336],[-8.633712,54.681372],[-8.633839,54.681458],[-8.634325,54.681591],[-8.634591,54.681651],[-8.634754,54.681668],[-8.634942,54.681658],[-8.635148,54.681652],[-8.635339,54.681638],[-8.635451,54.681612],[-8.635621,54.681578],[-8.635807,54.681588],[-8.636014,54.681586],[-8.636182,54.681557],[-8.636221,54.681546],[-8.63635,54.681507],[-8.636527,54.681523],[-8.636814,54.681541],[-8.637008,54.681577],[-8.637264,54.681667],[-8.637504,54.681773],[-8.637562,54.681792],[-8.637738,54.681841],[-8.637978,54.681946]],[[-8.637768,54.679865],[-8.637776,54.680404],[-8.636846,54.680409],[-8.636837,54.67987],[-8.636833,54.679601],[-8.637298,54.679598],[-8.637302,54.679868],[-8.637768,54.679865]],[[-8.635915,54.680414],[-8.636846,54.680409],[-8.63685,54.680679],[-8.636854,54.680948],[-8.636389,54.680951],[-8.636385,54.680681],[-8.63592,54.680684],[-8.635915,54.680414]],[[-8.634503,54.679343],[-8.634511,54.679882],[-8.634046,54.679885],[-8.634038,54.679346],[-8.634503,54.679343]]],[[[-8.630346,54.681263],[-8.630272,54.681294],[-8.630272,54.681343],[-8.630347,54.681325],[-8.630346,54.681263]]],[[[-8.630279,54.68175],[-8.630819,54.681748],[-8.630815,54.681519],[-8.63035,54.681521],[-8.630347,54.681332],[-8.630272,54.681349],[-8.630279,54.68175]]],[[[-8.637362,54.686526],[-8.637422,54.686613],[-8.637444,54.686627],[-8.637424,54.686634],[-8.637455,54.686629],[-8.637843,54.686567],[-8.638248,54.686508],[-8.638337,54.686494],[-8.638334,54.686331],[-8.637869,54.686334],[-8.637865,54.686064],[-8.637523,54.686066],[-8.637532,54.686085],[-8.63754,54.686114],[-8.637538,54.686121],[-8.637485,54.686201],[-8.637381,54.686295],[-8.637306,54.686367],[-8.63728,54.6864],[-8.637312,54.686461],[-8.637362,54.686526]]]]}}]}
