{"type":"FeatureCollection","features":[{"type":"Feature","properties":{"source_fid":659265,"county":"Donegal","bog_geom_ha":174.38611774358969,"low15_pct":73.168214654282764,"low15_ha":127.5952089579,"overlay_ha":127.47760296439044,"area_delta":-0.11760599350955658},"geometry":{"type":"MultiPolygon","coordinates":[[[[-8.593098,54.674509],[-8.593005,54.674411],[-8.59283,54.674157],[-8.592735,54.673986],[-8.592564,54.674037],[-8.592559,54.674038],[-8.592565,54.674434],[-8.592569,54.674704],[-8.593293,54.6747],[-8.593271,54.674689],[-8.593098,54.674509]]],[[[-8.591193,54.676058],[-8.591658,54.676056],[-8.591654,54.675786],[-8.591189,54.675789],[-8.591193,54.676058]]],[[[-8.592589,54.676051],[-8.591658,54.676056],[-8.591662,54.676325],[-8.592592,54.676321],[-8.592589,54.676051]]],[[[-8.590728,54.67606],[-8.589798,54.676065],[-8.589802,54.676334],[-8.589337,54.676337],[-8.589341,54.676606],[-8.589344,54.676876],[-8.58981,54.676873],[-8.589806,54.676604],[-8.590736,54.676599],[-8.590732,54.67633],[-8.590728,54.67606]]],[[[-8.583298,54.676905],[-8.583763,54.676903],[-8.583767,54.677172],[-8.582837,54.677177],[-8.582834,54.677018],[-8.582739,54.677094],[-8.582288,54.677449],[-8.582375,54.677449],[-8.582383,54.677988],[-8.582848,54.677985],[-8.582856,54.678524],[-8.583321,54.678522],[-8.583325,54.678792],[-8.585185,54.678783],[-8.585182,54.678513],[-8.585647,54.678511],[-8.585643,54.678241],[-8.585639,54.677972],[-8.585635,54.677702],[-8.58517,54.677705],[-8.585166,54.677435],[-8.585631,54.677433],[-8.585627,54.677163],[-8.586092,54.677161],[-8.586089,54.676892],[-8.586554,54.676889],[-8.58655,54.67662],[-8.587015,54.676617],[-8.587011,54.676348],[-8.587476,54.676346],[-8.587472,54.676076],[-8.588403,54.676072],[-8.588399,54.675802],[-8.588395,54.675533],[-8.58886,54.67553],[-8.588856,54.675261],[-8.589321,54.675259],[-8.589317,54.674989],[-8.590712,54.674982],[-8.590716,54.675252],[-8.592112,54.675245],[-8.592108,54.674975],[-8.591643,54.674978],[-8.591639,54.674708],[-8.591635,54.674439],[-8.5921,54.674436],[-8.592096,54.674149],[-8.59185,54.674218],[-8.591152,54.674406],[-8.590589,54.674569],[-8.590246,54.674668],[-8.589781,54.674802],[-8.589702,54.674823],[-8.588931,54.675025],[-8.588201,54.675203],[-8.587352,54.675433],[-8.586579,54.675624],[-8.585661,54.675849],[-8.584592,54.676124],[-8.584215,54.676222],[-8.58397,54.676269],[-8.58364,54.676494],[-8.583317,54.676682],[-8.583295,54.676698],[-8.583298,54.676905]]],[[[-8.591674,54.677134],[-8.591209,54.677136],[-8.591213,54.677406],[-8.592608,54.677399],[-8.592604,54.677129],[-8.593069,54.677127],[-8.593065,54.676858],[-8.593531,54.676855],[-8.593527,54.676586],[-8.592131,54.676593],[-8.592135,54.676862],[-8.59167,54.676864],[-8.591674,54.677134]]],[[[-8.594,54.677123],[-8.594004,54.677392],[-8.594469,54.67739],[-8.594465,54.67712],[-8.594,54.677123]]],[[[-8.594007,54.677662],[-8.594004,54.677392],[-8.593073,54.677397],[-8.593077,54.677666],[-8.594007,54.677662]]],[[[-8.597898,54.680642],[-8.597905,54.680592],[-8.597847,54.680511],[-8.597776,54.680435],[-8.597772,54.680429],[-8.597754,54.680397],[-8.597686,54.680288],[-8.597674,54.68028],[-8.597623,54.680246],[-8.597596,54.680125],[-8.597591,54.680119],[-8.597542,54.68006],[-8.597541,54.680018],[-8.597539,54.679986],[-8.597507,54.679936],[-8.59741,54.67987],[-8.5974,54.679801],[-8.597295,54.679802],[-8.597292,54.679615],[-8.597185,54.679573],[-8.596996,54.679439],[-8.596977,54.679396],[-8.596945,54.679329],[-8.596853,54.679272],[-8.59685,54.679265],[-8.596822,54.679265],[-8.596821,54.679194],[-8.596768,54.679086],[-8.596674,54.678921],[-8.596618,54.678835],[-8.596588,54.678809],[-8.596562,54.678771],[-8.596506,54.678693],[-8.59644,54.678578],[-8.596391,54.678442],[-8.596386,54.678253],[-8.59637,54.678183],[-8.596371,54.678152],[-8.596371,54.678114],[-8.596276,54.678043],[-8.596163,54.677915],[-8.595982,54.677735],[-8.595976,54.677684],[-8.595966,54.677684],[-8.59575,54.677592],[-8.595724,54.677575],[-8.595721,54.677522],[-8.595711,54.677462],[-8.59556,54.677309],[-8.595535,54.677225],[-8.595529,54.677156],[-8.595309,54.67698],[-8.595283,54.676926],[-8.595296,54.67689],[-8.595311,54.67684],[-8.595367,54.676766],[-8.595348,54.676719],[-8.595336,54.676681],[-8.595294,54.67664],[-8.595002,54.676528],[-8.594825,54.676476],[-8.594811,54.676424],[-8.594796,54.676358],[-8.59472,54.676327],[-8.594659,54.676288],[-8.594596,54.676269],[-8.594478,54.676239],[-8.594451,54.676192],[-8.594453,54.676312],[-8.594457,54.676581],[-8.594922,54.676579],[-8.594926,54.676848],[-8.59493,54.677118],[-8.595395,54.677116],[-8.595399,54.677385],[-8.595403,54.677655],[-8.594938,54.677657],[-8.594942,54.677927],[-8.594011,54.677931],[-8.594015,54.678201],[-8.59169,54.678212],[-8.591694,54.678482],[-8.590763,54.678486],[-8.590767,54.678756],[-8.590769,54.678902],[-8.590941,54.679013],[-8.591049,54.679129],[-8.591173,54.679241],[-8.591345,54.679313],[-8.591545,54.679375],[-8.591729,54.679421],[-8.591945,54.679501],[-8.592076,54.679554],[-8.592249,54.679673],[-8.592299,54.679722],[-8.592466,54.679753],[-8.592588,54.67979],[-8.592683,54.679883],[-8.592819,54.67996],[-8.593231,54.680088],[-8.593456,54.68014],[-8.593541,54.680159],[-8.59379,54.680251],[-8.59408,54.680338],[-8.594174,54.680382],[-8.594232,54.680424],[-8.594314,54.680487],[-8.594379,54.680496],[-8.594461,54.680505],[-8.594554,54.680516],[-8.594652,54.680543],[-8.594738,54.680583],[-8.594789,54.680685],[-8.594841,54.680842],[-8.594879,54.680927],[-8.595074,54.681104],[-8.595189,54.68119],[-8.595223,54.681232],[-8.595292,54.681248],[-8.595425,54.681231],[-8.595567,54.681237],[-8.595741,54.681228],[-8.595827,54.681249],[-8.595913,54.681286],[-8.59599,54.681295],[-8.596079,54.681291],[-8.596169,54.681307],[-8.596218,54.68133],[-8.596288,54.681356],[-8.596357,54.681355],[-8.596413,54.681343],[-8.596477,54.68131],[-8.596501,54.681281],[-8.596553,54.681281],[-8.596651,54.681292],[-8.596695,54.681285],[-8.59676,54.681261],[-8.596829,54.68126],[-8.596938,54.681238],[-8.597043,54.681223],[-8.597123,54.681201],[-8.597137,54.681197],[-8.597224,54.681168],[-8.59728,54.681137],[-8.597317,54.681172],[-8.597363,54.681197],[-8.59746,54.681211],[-8.59755,54.681236],[-8.597624,54.681271],[-8.597644,54.681304],[-8.597661,54.681331],[-8.597707,54.681378],[-8.59776,54.68138],[-8.597824,54.681368],[-8.597877,54.681353],[-8.597901,54.681354],[-8.598052,54.68136],[-8.597878,54.681278],[-8.597866,54.681264],[-8.597836,54.68124],[-8.597853,54.681188],[-8.597866,54.681145],[-8.597921,54.681026],[-8.597944,54.680977],[-8.597863,54.680926],[-8.597862,54.680851],[-8.597861,54.680805],[-8.597894,54.68066],[-8.597898,54.680642]],[[-8.592628,54.678747],[-8.595884,54.678731],[-8.595888,54.679],[-8.594957,54.679005],[-8.594961,54.679274],[-8.59217,54.679288],[-8.592167,54.679018],[-8.592632,54.679016],[-8.592628,54.678747]]],[[[-8.591558,54.679384],[-8.591367,54.679327],[-8.591329,54.679313],[-8.591158,54.679241],[-8.591031,54.679123],[-8.590931,54.679016],[-8.590769,54.678911],[-8.590771,54.679025],[-8.590306,54.679027],[-8.59031,54.679297],[-8.590318,54.679836],[-8.590326,54.680375],[-8.590791,54.680373],[-8.590799,54.680912],[-8.590333,54.680914],[-8.590337,54.681184],[-8.591733,54.681177],[-8.591737,54.681446],[-8.591745,54.681986],[-8.591748,54.682255],[-8.591283,54.682257],[-8.591287,54.682527],[-8.591291,54.682796],[-8.590826,54.682799],[-8.59083,54.683068],[-8.589899,54.683073],[-8.589903,54.683342],[-8.588973,54.683347],[-8.588969,54.683077],[-8.588965,54.682808],[-8.58943,54.682805],[-8.589426,54.682536],[-8.588961,54.682538],[-8.588957,54.682269],[-8.589423,54.682266],[-8.589419,54.681997],[-8.590349,54.681992],[-8.590341,54.681453],[-8.588946,54.68146],[-8.58895,54.68173],[-8.588484,54.681732],[-8.588488,54.682001],[-8.587558,54.682006],[-8.587554,54.681736],[-8.586624,54.681741],[-8.586628,54.68201],[-8.586162,54.682013],[-8.586166,54.682282],[-8.585236,54.682287],[-8.58524,54.682556],[-8.582449,54.68257],[-8.582445,54.6823],[-8.58198,54.682302],[-8.581976,54.682033],[-8.582906,54.682028],[-8.582902,54.681759],[-8.583833,54.681754],[-8.583829,54.681485],[-8.583364,54.681487],[-8.58336,54.681218],[-8.582429,54.681222],[-8.582425,54.680952],[-8.581495,54.680957],[-8.581491,54.680687],[-8.581026,54.68069],[-8.581022,54.68042],[-8.581018,54.680151],[-8.581015,54.679881],[-8.581011,54.679611],[-8.581476,54.679609],[-8.58148,54.679879],[-8.581945,54.679877],[-8.581949,54.680146],[-8.582414,54.680144],[-8.582418,54.680413],[-8.583348,54.680409],[-8.583352,54.680678],[-8.583817,54.680676],[-8.583821,54.680946],[-8.584286,54.680943],[-8.584282,54.680674],[-8.585213,54.680669],[-8.585217,54.680939],[-8.584751,54.680941],[-8.584755,54.681211],[-8.584759,54.68148],[-8.586155,54.681474],[-8.586151,54.681204],[-8.587081,54.6812],[-8.587077,54.68093],[-8.587069,54.680391],[-8.587535,54.680389],[-8.587527,54.67985],[-8.587062,54.679852],[-8.587054,54.679313],[-8.586124,54.679317],[-8.586127,54.679587],[-8.585662,54.679589],[-8.585666,54.679859],[-8.585201,54.679861],[-8.585197,54.679591],[-8.585193,54.679322],[-8.584263,54.679326],[-8.584267,54.679596],[-8.583802,54.679598],[-8.583798,54.679329],[-8.582402,54.679335],[-8.582406,54.679605],[-8.581941,54.679607],[-8.581937,54.679337],[-8.581472,54.67934],[-8.581468,54.67907],[-8.581464,54.678801],[-8.580999,54.678803],[-8.580995,54.678533],[-8.580994,54.678407],[-8.58072,54.678627],[-8.580392,54.678907],[-8.580153,54.679089],[-8.579877,54.679329],[-8.579873,54.679354],[-8.579874,54.679378],[-8.579866,54.679402],[-8.579883,54.679432],[-8.579888,54.679453],[-8.579876,54.679488],[-8.579828,54.679517],[-8.57978,54.679555],[-8.579761,54.679609],[-8.57973,54.679673],[-8.579738,54.679675],[-8.579664,54.679765],[-8.579593,54.679897],[-8.579602,54.679931],[-8.579636,54.679966],[-8.57963,54.680001],[-8.579591,54.680037],[-8.579547,54.680058],[-8.579484,54.680067],[-8.579479,54.680079],[-8.579496,54.680116],[-8.57947,54.680161],[-8.579404,54.68021],[-8.579355,54.680253],[-8.579341,54.680269],[-8.57934,54.680305],[-8.579329,54.680331],[-8.579266,54.680367],[-8.579246,54.680383],[-8.579263,54.680425],[-8.579285,54.68045],[-8.579253,54.680475],[-8.579198,54.680484],[-8.579164,54.680499],[-8.579168,54.680527],[-8.579163,54.680549],[-8.579047,54.68057],[-8.579046,54.680582],[-8.579116,54.680653],[-8.579198,54.680759],[-8.579279,54.680834],[-8.579323,54.680874],[-8.57945,54.680903],[-8.579623,54.681127],[-8.579765,54.681366],[-8.579784,54.681401],[-8.579821,54.681489],[-8.579849,54.681586],[-8.579847,54.681609],[-8.579762,54.681729],[-8.579715,54.681833],[-8.579667,54.681976],[-8.579612,54.68216],[-8.579548,54.682292],[-8.579485,54.682359],[-8.579478,54.68237],[-8.579477,54.682397],[-8.579454,54.682477],[-8.579495,54.682551],[-8.579502,54.682563],[-8.57951,54.682882],[-8.579532,54.682905],[-8.579622,54.682942],[-8.57972,54.682966],[-8.579776,54.682971],[-8.579837,54.682999],[-8.579966,54.683069],[-8.580069,54.683118],[-8.580154,54.683118],[-8.580358,54.683103],[-8.580592,54.683113],[-8.580636,54.683099],[-8.580659,54.68309],[-8.580719,54.683055],[-8.5808,54.683055],[-8.580834,54.683073],[-8.580862,54.683084],[-8.580907,54.683084],[-8.580964,54.683094],[-8.581027,54.683118],[-8.581097,54.683134],[-8.581131,54.683158],[-8.581171,54.683173],[-8.581224,54.683189],[-8.581242,54.683192],[-8.581344,54.683182],[-8.581534,54.683251],[-8.581762,54.683344],[-8.581841,54.683386],[-8.581877,54.683405],[-8.581899,54.68343],[-8.581949,54.683446],[-8.582053,54.683449],[-8.582098,54.683457],[-8.582189,54.683498],[-8.582368,54.683548],[-8.582544,54.683601],[-8.582648,54.683659],[-8.58271,54.683692],[-8.582746,54.683739],[-8.582773,54.683749],[-8.582851,54.683747],[-8.582923,54.683761],[-8.583011,54.683788],[-8.583035,54.683811],[-8.583085,54.683834],[-8.583174,54.683834],[-8.583202,54.68383],[-8.583257,54.683827],[-8.583371,54.683849],[-8.583456,54.683877],[-8.583505,54.683933],[-8.583531,54.683994],[-8.583518,54.684018],[-8.583518,54.684044],[-8.583558,54.684069],[-8.583575,54.684096],[-8.583555,54.68414],[-8.583596,54.684182],[-8.583693,54.6842],[-8.583848,54.684222],[-8.583886,54.684241],[-8.583921,54.684281],[-8.583917,54.684305],[-8.583923,54.68433],[-8.584042,54.684376],[-8.584045,54.684389],[-8.584045,54.684405],[-8.584148,54.684474],[-8.584205,54.684488],[-8.584316,54.684496],[-8.584357,54.684533],[-8.584361,54.684572],[-8.584342,54.684591],[-8.584342,54.684628],[-8.58435,54.684648],[-8.5844,54.684666],[-8.584468,54.684673],[-8.58454,54.684719],[-8.584602,54.684753],[-8.584646,54.684815],[-8.584651,54.684836],[-8.584676,54.684947],[-8.584663,54.68501],[-8.584656,54.685048],[-8.584629,54.685094],[-8.584579,54.685118],[-8.584421,54.685147],[-8.584408,54.685197],[-8.584425,54.685289],[-8.584458,54.685359],[-8.584536,54.685413],[-8.584626,54.685434],[-8.58467,54.685466],[-8.584659,54.685514],[-8.584657,54.685565],[-8.584711,54.685605],[-8.584748,54.685648],[-8.58482,54.685714],[-8.584867,54.68583],[-8.584892,54.685873],[-8.584903,54.685931],[-8.584937,54.685979],[-8.58504,54.686075],[-8.585114,54.686124],[-8.585174,54.686184],[-8.585185,54.686278],[-8.585187,54.686362],[-8.585217,54.686382],[-8.585284,54.686397],[-8.58533,54.686424],[-8.585365,54.686468],[-8.585385,54.68651],[-8.585356,54.686547],[-8.585322,54.686565],[-8.585255,54.686599],[-8.585218,54.686639],[-8.585177,54.68669],[-8.585162,54.686716],[-8.585125,54.686802],[-8.585105,54.686877],[-8.585105,54.686921],[-8.585102,54.686956],[-8.585043,54.686982],[-8.584978,54.687051],[-8.584924,54.687122],[-8.584923,54.687191],[-8.584865,54.687299],[-8.584813,54.687411],[-8.584787,54.687427],[-8.584741,54.687526],[-8.584716,54.687553],[-8.584706,54.687569],[-8.584566,54.687657],[-8.584533,54.687689],[-8.584445,54.687756],[-8.584414,54.687804],[-8.584363,54.687837],[-8.584325,54.687874],[-8.584332,54.687899],[-8.584426,54.687993],[-8.584435,54.688031],[-8.584364,54.688079],[-8.584232,54.688115],[-8.584162,54.688125],[-8.584123,54.688134],[-8.5841,54.688196],[-8.584094,54.688211],[-8.584027,54.688247],[-8.583968,54.688272],[-8.583913,54.688288],[-8.583879,54.6883],[-8.58388,54.688367],[-8.583799,54.688412],[-8.583746,54.688452],[-8.583745,54.688469],[-8.583785,54.688495],[-8.583892,54.688533],[-8.583901,54.688569],[-8.583903,54.688592],[-8.583846,54.688614],[-8.583757,54.688633],[-8.583723,54.688648],[-8.583676,54.68869],[-8.583583,54.688726],[-8.583526,54.688754],[-8.583434,54.688804],[-8.583391,54.688828],[-8.583351,54.688862],[-8.583344,54.688897],[-8.583358,54.68894],[-8.583386,54.688952],[-8.583515,54.688949],[-8.583601,54.688967],[-8.583756,54.68902],[-8.583826,54.689049],[-8.583873,54.689102],[-8.583971,54.68916],[-8.583995,54.68916],[-8.584016,54.689146],[-8.584026,54.689112],[-8.584032,54.68911],[-8.584071,54.689102],[-8.584119,54.689117],[-8.584147,54.689141],[-8.584141,54.689159],[-8.584136,54.689222],[-8.58416,54.689245],[-8.584179,54.689304],[-8.584162,54.689331],[-8.584146,54.689341],[-8.584156,54.689382],[-8.584179,54.68942],[-8.584199,54.689427],[-8.584237,54.689426],[-8.584286,54.689402],[-8.584331,54.689401],[-8.584481,54.689452],[-8.584521,54.689477],[-8.584577,54.689509],[-8.584637,54.689563],[-8.584689,54.689567],[-8.58481,54.689547],[-8.584905,54.68956],[-8.584943,54.689584],[-8.584947,54.689599],[-8.585003,54.689614],[-8.585168,54.689614],[-8.585259,54.689603],[-8.585336,54.689597],[-8.585412,54.689615],[-8.58546,54.689648],[-8.585504,54.6897],[-8.585541,54.689759],[-8.585601,54.689798],[-8.585687,54.689829],[-8.585759,54.689854],[-8.585818,54.689866],[-8.585862,54.689895],[-8.585853,54.689935],[-8.585844,54.689983],[-8.585864,54.690013],[-8.585924,54.690044],[-8.585948,54.690058],[-8.58596,54.690064],[-8.586008,54.690101],[-8.586009,54.690137],[-8.585985,54.690172],[-8.585932,54.690189],[-8.585861,54.690176],[-8.585787,54.690177],[-8.585748,54.69019],[-8.585746,54.69023],[-8.58576,54.690249],[-8.585808,54.690266],[-8.585908,54.690282],[-8.586177,54.690351],[-8.586287,54.690412],[-8.586348,54.690428],[-8.586386,54.690449],[-8.586448,54.690457],[-8.58647,54.690485],[-8.586447,54.690515],[-8.586453,54.690551],[-8.586553,54.690609],[-8.586572,54.690641],[-8.586558,54.690671],[-8.586558,54.690684],[-8.586499,54.690714],[-8.586482,54.690744],[-8.586554,54.690905],[-8.586506,54.69102],[-8.586508,54.69106],[-8.58654,54.691089],[-8.586575,54.69114],[-8.586563,54.691177],[-8.586471,54.691238],[-8.586341,54.691289],[-8.586304,54.691312],[-8.586142,54.691406],[-8.586022,54.691468],[-8.586006,54.691488],[-8.586021,54.691504],[-8.586128,54.691516],[-8.586174,54.691527],[-8.586214,54.691547],[-8.586277,54.691558],[-8.586299,54.691565],[-8.586311,54.691588],[-8.586286,54.691644],[-8.586303,54.691686],[-8.586254,54.691749],[-8.586263,54.691771],[-8.586282,54.69178],[-8.586306,54.691781],[-8.586344,54.691771],[-8.586389,54.691769],[-8.586447,54.69179],[-8.586497,54.691818],[-8.586551,54.691845],[-8.586599,54.691859],[-8.586669,54.691855],[-8.586736,54.691869],[-8.586812,54.691903],[-8.586866,54.691914],[-8.586949,54.691922],[-8.586983,54.691914],[-8.587031,54.691915],[-8.587046,54.69192],[-8.587059,54.691935],[-8.587073,54.691942],[-8.587116,54.691953],[-8.587162,54.691964],[-8.587202,54.691967],[-8.58723,54.691964],[-8.587295,54.691958],[-8.587327,54.691959],[-8.587357,54.691961],[-8.587479,54.692042],[-8.587515,54.692053],[-8.587541,54.692055],[-8.587568,54.692048],[-8.587647,54.692015],[-8.587702,54.691984],[-8.587813,54.691948],[-8.587876,54.691937],[-8.588043,54.691947],[-8.588111,54.691947],[-8.588186,54.691934],[-8.588271,54.691924],[-8.588346,54.691929],[-8.58842,54.691946],[-8.58851,54.69196],[-8.588553,54.691969],[-8.588641,54.691999],[-8.588681,54.69202],[-8.588725,54.692057],[-8.588752,54.692127],[-8.588758,54.692144],[-8.588895,54.692153],[-8.588967,54.69215],[-8.589096,54.692147],[-8.58915,54.692175],[-8.589152,54.692207],[-8.589165,54.692247],[-8.589157,54.692276],[-8.589126,54.692306],[-8.58911,54.692339],[-8.589125,54.69236],[-8.589161,54.692378],[-8.589202,54.692388],[-8.589268,54.692396],[-8.589316,54.692403],[-8.589383,54.692401],[-8.589403,54.692386],[-8.589454,54.692366],[-8.58949,54.692364],[-8.58953,54.692362],[-8.589639,54.692386],[-8.589705,54.692411],[-8.589757,54.692459],[-8.589823,54.692498],[-8.589837,54.692502],[-8.589903,54.69252],[-8.589943,54.692524],[-8.589995,54.692526],[-8.590033,54.692535],[-8.590051,54.692529],[-8.590061,54.692526],[-8.590133,54.692513],[-8.590207,54.692503],[-8.59026,54.692498],[-8.590284,54.692494],[-8.590314,54.692493],[-8.590332,54.692497],[-8.59034,54.692508],[-8.590339,54.692524],[-8.590339,54.692548],[-8.590349,54.69257],[-8.590368,54.692586],[-8.59041,54.69261],[-8.590464,54.692633],[-8.590549,54.692669],[-8.590583,54.692699],[-8.590626,54.692753],[-8.59067,54.692773],[-8.590708,54.692806],[-8.590843,54.69284],[-8.590919,54.692866],[-8.590943,54.69287],[-8.590969,54.692878],[-8.591053,54.692887],[-8.591089,54.692856],[-8.591155,54.692786],[-8.591321,54.692656],[-8.5915,54.69257],[-8.591684,54.692447],[-8.591846,54.69238],[-8.592043,54.692388],[-8.592214,54.692349],[-8.592444,54.69224],[-8.592732,54.692146],[-8.59306,54.692042],[-8.593477,54.691868],[-8.593833,54.691738],[-8.59394,54.691705],[-8.594286,54.691598],[-8.594694,54.69151],[-8.595063,54.691427],[-8.595453,54.691336],[-8.595776,54.691262],[-8.595902,54.691233],[-8.596243,54.691145],[-8.596614,54.691071],[-8.596741,54.691039],[-8.596846,54.691008],[-8.596981,54.690973],[-8.597081,54.690944],[-8.597189,54.690903],[-8.597215,54.690893],[-8.597283,54.690874],[-8.597393,54.690849],[-8.597481,54.690827],[-8.597556,54.690806],[-8.597763,54.690743],[-8.598009,54.690678],[-8.598086,54.690655],[-8.598145,54.690631],[-8.598185,54.690609],[-8.598256,54.690598],[-8.598288,54.690585],[-8.598339,54.690556],[-8.598434,54.690493],[-8.598458,54.690478],[-8.598494,54.690463],[-8.598521,54.690458],[-8.598627,54.690451],[-8.598649,54.690439],[-8.598658,54.690425],[-8.598677,54.690385],[-8.598713,54.690352],[-8.598783,54.690313],[-8.598801,54.690301],[-8.598828,54.690287],[-8.598868,54.690274],[-8.598924,54.690261],[-8.598947,54.690257],[-8.598975,54.690253],[-8.59899,54.69025],[-8.599047,54.690239],[-8.599067,54.690232],[-8.599136,54.690196],[-8.59918,54.690169],[-8.599201,54.690149],[-8.599221,54.690129],[-8.59925,54.690099],[-8.599266,54.690089],[-8.599273,54.690083],[-8.599313,54.690063],[-8.599333,54.690053],[-8.599404,54.69],[-8.599441,54.689958],[-8.599509,54.689927],[-8.599562,54.689898],[-8.599626,54.689883],[-8.599651,54.689873],[-8.599664,54.689865],[-8.599677,54.689853],[-8.599694,54.689823],[-8.599705,54.689812],[-8.599722,54.689803],[-8.599776,54.689784],[-8.5999,54.689715],[-8.599925,54.689695],[-8.59994,54.689676],[-8.599971,54.689618],[-8.600026,54.689565],[-8.600113,54.689415],[-8.600144,54.689377],[-8.600229,54.689321],[-8.600279,54.68929],[-8.600312,54.689281],[-8.600357,54.689278],[-8.600395,54.68927],[-8.600429,54.689253],[-8.600441,54.689246],[-8.60046,54.689222],[-8.600492,54.689198],[-8.60056,54.689161],[-8.600592,54.689137],[-8.600607,54.689119],[-8.600626,54.689078],[-8.600645,54.689055],[-8.600658,54.689048],[-8.600679,54.689038],[-8.600701,54.689019],[-8.600723,54.688992],[-8.600782,54.68892],[-8.600913,54.688765],[-8.600931,54.688744],[-8.600945,54.688715],[-8.600949,54.688681],[-8.600956,54.688666],[-8.600969,54.68865],[-8.600979,54.688631],[-8.600998,54.68862],[-8.601025,54.688593],[-8.601043,54.68856],[-8.601063,54.688518],[-8.601094,54.688485],[-8.60114,54.688459],[-8.601216,54.688423],[-8.601182,54.688402],[-8.601132,54.688395],[-8.601121,54.688391],[-8.601083,54.688375],[-8.60106,54.688371],[-8.601035,54.688373],[-8.601004,54.688383],[-8.600967,54.688384],[-8.600928,54.688372],[-8.600858,54.688348],[-8.600809,54.688334],[-8.60077,54.688324],[-8.600729,54.688323],[-8.600665,54.688289],[-8.600581,54.688237],[-8.600546,54.68819],[-8.600492,54.688127],[-8.600477,54.688112],[-8.60042,54.688098],[-8.600399,54.688071],[-8.600397,54.688064],[-8.600391,54.688048],[-8.600382,54.68804],[-8.600311,54.688038],[-8.600213,54.688031],[-8.600114,54.68801],[-8.60004,54.687983],[-8.599994,54.687951],[-8.599947,54.687905],[-8.599936,54.687894],[-8.599896,54.687816],[-8.599864,54.68777],[-8.599877,54.68775],[-8.59989,54.68774],[-8.599895,54.687731],[-8.599882,54.687715],[-8.599828,54.687664],[-8.599789,54.687631],[-8.599765,54.687599],[-8.599741,54.687588],[-8.599708,54.687588],[-8.599678,54.687589],[-8.59966,54.687592],[-8.599625,54.68761],[-8.599569,54.687624],[-8.599493,54.687618],[-8.599486,54.687625],[-8.59949,54.687647],[-8.599465,54.687667],[-8.599424,54.687672],[-8.599382,54.687668],[-8.599279,54.687631],[-8.599229,54.687591],[-8.599203,54.687574],[-8.599149,54.687557],[-8.599122,54.687549],[-8.599028,54.687531],[-8.598932,54.687525],[-8.598833,54.687506],[-8.598745,54.687481],[-8.598693,54.687457],[-8.598659,54.687427],[-8.598655,54.687403],[-8.598721,54.687349],[-8.598762,54.687303],[-8.598785,54.68726],[-8.598776,54.687213],[-8.598738,54.68714],[-8.598704,54.687091],[-8.598663,54.687048],[-8.598512,54.687029],[-8.598452,54.687024],[-8.598202,54.686959],[-8.598128,54.68695],[-8.598058,54.686949],[-8.597986,54.686929],[-8.597927,54.686909],[-8.597901,54.686887],[-8.597853,54.686866],[-8.597779,54.686838],[-8.597712,54.686782],[-8.597712,54.686755],[-8.597724,54.686725],[-8.597744,54.686714],[-8.597784,54.68667],[-8.597802,54.686646],[-8.5978,54.686641],[-8.597771,54.68662],[-8.597743,54.686607],[-8.597621,54.686576],[-8.597393,54.686543],[-8.597354,54.686528],[-8.597349,54.686511],[-8.597372,54.68644],[-8.597396,54.686387],[-8.597402,54.68636],[-8.597403,54.686348],[-8.597384,54.686304],[-8.59736,54.686288],[-8.597334,54.686267],[-8.597257,54.686247],[-8.597223,54.686228],[-8.597197,54.686171],[-8.597222,54.686151],[-8.59729,54.686118],[-8.5973,54.6861],[-8.5973,54.686079],[-8.597277,54.68605],[-8.597274,54.686047],[-8.597244,54.686036],[-8.597207,54.685988],[-8.59719,54.685947],[-8.597188,54.685924],[-8.597138,54.685878],[-8.597139,54.685843],[-8.597139,54.685839],[-8.59715,54.685821],[-8.597168,54.6858],[-8.597182,54.685775],[-8.59719,54.685721],[-8.597197,54.685703],[-8.59714,54.685646],[-8.597136,54.685639],[-8.597108,54.685631],[-8.597021,54.685647],[-8.596986,54.68565],[-8.596938,54.685658],[-8.596896,54.685656],[-8.596854,54.685648],[-8.596835,54.68564],[-8.596813,54.685624],[-8.596809,54.685614],[-8.596797,54.685576],[-8.596797,54.685561],[-8.596816,54.685467],[-8.59681,54.685455],[-8.596794,54.685445],[-8.596707,54.685407],[-8.596629,54.68538],[-8.596624,54.685375],[-8.596602,54.685354],[-8.596522,54.685293],[-8.596485,54.68527],[-8.596446,54.685247],[-8.596387,54.685229],[-8.596346,54.685208],[-8.596313,54.685185],[-8.596206,54.685143],[-8.596172,54.685119],[-8.596161,54.685111],[-8.596159,54.6851],[-8.596153,54.685072],[-8.59614,54.685055],[-8.596112,54.68504],[-8.596075,54.685016],[-8.596064,54.685004],[-8.59606,54.684987],[-8.596067,54.684954],[-8.596065,54.684923],[-8.596012,54.684909],[-8.595989,54.684893],[-8.595992,54.684871],[-8.595993,54.684865],[-8.596005,54.684845],[-8.596027,54.684814],[-8.596032,54.684707],[-8.596029,54.6847],[-8.596002,54.684645],[-8.595994,54.684614],[-8.596019,54.684611],[-8.596049,54.684567],[-8.596059,54.68454],[-8.596071,54.684509],[-8.596078,54.684464],[-8.596081,54.684387],[-8.596097,54.684374],[-8.596117,54.684357],[-8.596139,54.684346],[-8.596271,54.684302],[-8.596515,54.684225],[-8.596561,54.68421],[-8.596753,54.684142],[-8.596778,54.684129],[-8.596764,54.684045],[-8.596753,54.683979],[-8.596747,54.683936],[-8.596755,54.683909],[-8.596773,54.683901],[-8.596814,54.683883],[-8.597061,54.683776],[-8.597116,54.683749],[-8.597122,54.683746],[-8.597203,54.683595],[-8.597205,54.683591],[-8.597307,54.683459],[-8.597339,54.683395],[-8.597345,54.683383],[-8.597384,54.683289],[-8.597423,54.683213],[-8.597446,54.683168],[-8.597526,54.683041],[-8.59759,54.682939],[-8.59761,54.682881],[-8.597636,54.682807],[-8.597698,54.682719],[-8.597755,54.682638],[-8.597888,54.682587],[-8.597904,54.682581],[-8.598146,54.682525],[-8.598183,54.682516],[-8.598323,54.682465],[-8.598326,54.682457],[-8.598338,54.68242],[-8.59832,54.682355],[-8.598271,54.682345],[-8.598265,54.682323],[-8.598291,54.682271],[-8.598291,54.682269],[-8.598278,54.682202],[-8.598248,54.682138],[-8.598261,54.682057],[-8.598267,54.682038],[-8.598281,54.681999],[-8.598326,54.681978],[-8.598408,54.681976],[-8.598472,54.68195],[-8.598522,54.681918],[-8.598522,54.68188],[-8.598523,54.681866],[-8.598529,54.681785],[-8.598474,54.681736],[-8.598408,54.681699],[-8.598379,54.681631],[-8.598373,54.681623],[-8.598309,54.681541],[-8.598146,54.681407],[-8.598131,54.681399],[-8.598065,54.681367],[-8.597935,54.681361],[-8.597879,54.681359],[-8.597799,54.681377],[-8.597763,54.681385],[-8.597698,54.681383],[-8.597654,54.681331],[-8.597637,54.681303],[-8.597619,54.681273],[-8.597542,54.681239],[-8.597452,54.681213],[-8.597352,54.681201],[-8.597308,54.681172],[-8.597279,54.681145],[-8.597232,54.681171],[-8.597134,54.681201],[-8.597133,54.681204],[-8.597049,54.681228],[-8.596943,54.681242],[-8.596825,54.681265],[-8.596765,54.681265],[-8.596759,54.681266],[-8.596703,54.681287],[-8.596651,54.681297],[-8.596552,54.681287],[-8.596505,54.681286],[-8.596485,54.681313],[-8.596413,54.68135],[-8.596365,54.681359],[-8.59628,54.68136],[-8.596203,54.681333],[-8.596165,54.681312],[-8.596078,54.681296],[-8.595993,54.681299],[-8.595902,54.681289],[-8.595831,54.681257],[-8.59574,54.681233],[-8.595561,54.681243],[-8.595432,54.681236],[-8.595359,54.681244],[-8.595293,54.681252],[-8.595212,54.681235],[-8.595181,54.681192],[-8.595057,54.681101],[-8.594865,54.680927],[-8.594833,54.680846],[-8.594776,54.680681],[-8.594745,54.680612],[-8.594731,54.680586],[-8.594649,54.680547],[-8.594556,54.680522],[-8.594304,54.680492],[-8.594167,54.680386],[-8.594076,54.680343],[-8.59378,54.680255],[-8.593581,54.680181],[-8.593533,54.680164],[-8.593429,54.68014],[-8.593341,54.680119],[-8.593217,54.680092],[-8.59281,54.679963],[-8.592672,54.679886],[-8.59258,54.679794],[-8.59247,54.679761],[-8.59229,54.679726],[-8.592239,54.679675],[-8.59207,54.679559],[-8.59191,54.679495],[-8.591721,54.679423],[-8.591558,54.679384]],[[-8.592647,54.680094],[-8.592651,54.680364],[-8.592186,54.680366],[-8.592182,54.680097],[-8.592647,54.680094]],[[-8.590392,54.684957],[-8.590384,54.684418],[-8.59038,54.684149],[-8.589915,54.684151],[-8.589907,54.683612],[-8.591768,54.683603],[-8.591764,54.683333],[-8.592229,54.683331],[-8.592225,54.683061],[-8.592691,54.683059],[-8.592695,54.683329],[-8.59316,54.683326],[-8.593164,54.683596],[-8.593172,54.684135],[-8.593637,54.684133],[-8.593641,54.684402],[-8.594106,54.6844],[-8.594114,54.684939],[-8.594118,54.685209],[-8.593652,54.685211],[-8.593656,54.68548],[-8.593191,54.685483],[-8.593199,54.686022],[-8.592734,54.686024],[-8.592738,54.686293],[-8.590412,54.686305],[-8.590408,54.686035],[-8.5904,54.685496],[-8.590865,54.685494],[-8.590861,54.685224],[-8.590857,54.684955],[-8.590392,54.684957]],[[-8.591823,54.687376],[-8.591819,54.687107],[-8.591815,54.686837],[-8.59228,54.686835],[-8.592284,54.687104],[-8.59368,54.687098],[-8.593684,54.687367],[-8.593688,54.687637],[-8.593223,54.687639],[-8.59323,54.688178],[-8.592765,54.68818],[-8.592769,54.68845],[-8.591839,54.688454],[-8.591843,54.688724],[-8.590912,54.688728],[-8.590908,54.688459],[-8.590904,54.688189],[-8.591369,54.688187],[-8.591362,54.687648],[-8.591358,54.687378],[-8.591823,54.687376]]]]}}]}
