{"type":"FeatureCollection","features":[{"type":"Feature","properties":{"source_fid":659258,"county":"Donegal","bog_geom_ha":168.94213727314695,"low15_pct":100.0,"low15_ha":168.94213727314695,"overlay_ha":168.93612387618032,"area_delta":-0.0060133969666367193},"geometry":{"type":"MultiPolygon","coordinates":[[[[-7.361926,55.226932],[-7.361868,55.226894],[-7.361741,55.226918],[-7.361574,55.226953],[-7.361558,55.226958],[-7.361403,55.227001],[-7.36123,55.227057],[-7.361049,55.227124],[-7.360862,55.227205],[-7.360612,55.227326],[-7.36037,55.227447],[-7.360008,55.227646],[-7.359664,55.227823],[-7.359661,55.227825],[-7.359617,55.227846],[-7.359445,55.227926],[-7.359079,55.228068],[-7.358799,55.228158],[-7.358438,55.228276],[-7.358282,55.228327],[-7.358003,55.228414],[-7.35761,55.228544],[-7.357022,55.228712],[-7.356467,55.228843],[-7.355845,55.228995],[-7.355249,55.229144],[-7.354966,55.229228],[-7.354672,55.229322],[-7.353996,55.229542],[-7.353256,55.229769],[-7.35279,55.229924],[-7.352394,55.230049],[-7.352134,55.230136],[-7.35183,55.230227],[-7.351766,55.230249],[-7.351464,55.230354],[-7.351478,55.230446],[-7.351562,55.230925],[-7.351606,55.231201],[-7.351642,55.231397],[-7.351716,55.231798],[-7.351826,55.232439],[-7.351908,55.232895],[-7.351975,55.233686],[-7.352024,55.234266],[-7.352132,55.234976],[-7.352193,55.23535],[-7.352292,55.235801],[-7.352366,55.236206],[-7.3524,55.23658],[-7.352466,55.236933],[-7.352475,55.236962],[-7.352543,55.237206],[-7.352617,55.237644],[-7.352658,55.237828],[-7.352662,55.237845],[-7.352652,55.237846],[-7.352645,55.237899],[-7.352626,55.237918],[-7.352612,55.237928],[-7.352563,55.237946],[-7.352536,55.237956],[-7.352509,55.237956],[-7.352487,55.237951],[-7.352479,55.237937],[-7.352485,55.237928],[-7.352484,55.237894],[-7.352448,55.237876],[-7.352381,55.237869],[-7.352332,55.237879],[-7.352319,55.237894],[-7.352318,55.237902],[-7.352306,55.237944],[-7.352272,55.237988],[-7.352102,55.238166],[-7.352004,55.238236],[-7.351933,55.238271],[-7.351865,55.238286],[-7.351783,55.238292],[-7.351742,55.238301],[-7.351697,55.238326],[-7.351672,55.23835],[-7.35167,55.238369],[-7.351684,55.238411],[-7.351716,55.238438],[-7.351787,55.238469],[-7.35186,55.238517],[-7.351874,55.238537],[-7.351889,55.238594],[-7.351892,55.238651],[-7.351848,55.238696],[-7.351757,55.238733],[-7.351655,55.238782],[-7.351612,55.238823],[-7.351609,55.238864],[-7.351569,55.238916],[-7.351523,55.238947],[-7.351429,55.238978],[-7.351369,55.239003],[-7.351302,55.239041],[-7.351138,55.239156],[-7.351,55.239262],[-7.350965,55.239297],[-7.350894,55.239395],[-7.350874,55.239456],[-7.350899,55.239487],[-7.35097,55.23952],[-7.351086,55.239561],[-7.351124,55.23959],[-7.35113,55.239606],[-7.351095,55.239652],[-7.351025,55.239675],[-7.35096,55.239691],[-7.350948,55.239698],[-7.350908,55.239722],[-7.350827,55.239743],[-7.350771,55.239739],[-7.350748,55.239732],[-7.350744,55.239723],[-7.350781,55.239676],[-7.350785,55.239661],[-7.350776,55.239638],[-7.350752,55.239627],[-7.350707,55.239617],[-7.3506,55.239614],[-7.350536,55.23963],[-7.350497,55.239671],[-7.350445,55.239879],[-7.350438,55.239944],[-7.350382,55.240063],[-7.350221,55.240223],[-7.350191,55.24026],[-7.350247,55.240302],[-7.350442,55.240362],[-7.350505,55.240404],[-7.350492,55.240453],[-7.35039,55.240532],[-7.350275,55.240608],[-7.350253,55.240664],[-7.350311,55.240775],[-7.350325,55.240816],[-7.35029,55.240978],[-7.350288,55.24101],[-7.350303,55.24105],[-7.350385,55.241123],[-7.350365,55.241148],[-7.350349,55.241165],[-7.350662,55.241608],[-7.350976,55.242055],[-7.351204,55.242344],[-7.351338,55.242545],[-7.351544,55.242834],[-7.351719,55.243073],[-7.35214,55.243616],[-7.352334,55.243862],[-7.352544,55.244159],[-7.352849,55.244055],[-7.352895,55.244063],[-7.352921,55.244124],[-7.353024,55.244138],[-7.353203,55.244072],[-7.353292,55.244091],[-7.353495,55.244203],[-7.353585,55.24421],[-7.353729,55.244167],[-7.353955,55.244073],[-7.354109,55.244058],[-7.354174,55.244064],[-7.354206,55.244086],[-7.354248,55.24418],[-7.354274,55.244255],[-7.35439,55.244327],[-7.354505,55.244313],[-7.35458,55.24426],[-7.354558,55.2442],[-7.354522,55.244113],[-7.354431,55.244084],[-7.354392,55.244044],[-7.354409,55.244021],[-7.354481,55.243984],[-7.354553,55.243953],[-7.354702,55.243895],[-7.354699,55.24386],[-7.354636,55.243618],[-7.35471,55.243416],[-7.354563,55.243352],[-7.355715,55.243096],[-7.356869,55.242811],[-7.357099,55.242752],[-7.3578,55.242572],[-7.358,55.242521],[-7.358045,55.242512],[-7.358093,55.242503],[-7.358854,55.242348],[-7.359746,55.242161],[-7.359965,55.242116],[-7.3605,55.242018],[-7.361026,55.241909],[-7.361449,55.241827],[-7.362086,55.241701],[-7.362122,55.241694],[-7.362158,55.241687],[-7.362412,55.241634],[-7.362442,55.241628],[-7.362587,55.241597],[-7.363201,55.241478],[-7.363237,55.24147],[-7.362926,55.241235],[-7.362835,55.241167],[-7.362472,55.240914],[-7.362536,55.240895],[-7.363075,55.240739],[-7.363537,55.240606],[-7.364511,55.240338],[-7.364243,55.240011],[-7.36404,55.239787],[-7.364132,55.239727],[-7.36438,55.239637],[-7.365105,55.239363],[-7.365736,55.239103],[-7.366868,55.23865],[-7.366896,55.238634],[-7.368046,55.237978],[-7.36843,55.237691],[-7.368431,55.237577],[-7.368581,55.237578],[-7.368681,55.237503],[-7.369385,55.237009],[-7.369631,55.23688],[-7.369842,55.23676],[-7.370598,55.236343],[-7.371128,55.236066],[-7.371388,55.23593],[-7.37202,55.235578],[-7.372302,55.235427],[-7.373704,55.234379],[-7.373714,55.233779],[-7.373451,55.232845],[-7.373318,55.232408],[-7.372164,55.232402],[-7.372182,55.231269],[-7.372088,55.231277],[-7.371707,55.2313],[-7.371203,55.231341],[-7.37107,55.231352],[-7.370413,55.23139],[-7.370285,55.23143],[-7.370133,55.231489],[-7.37006,55.231523],[-7.369949,55.231566],[-7.36986,55.231575],[-7.369812,55.231602],[-7.369746,55.231595],[-7.369585,55.231625],[-7.369397,55.231659],[-7.369236,55.231631],[-7.369139,55.231637],[-7.369063,55.231624],[-7.36902,55.231571],[-7.368953,55.23156],[-7.368851,55.231572],[-7.368792,55.231548],[-7.368717,55.231564],[-7.368639,55.23157],[-7.368555,55.231554],[-7.36852,55.231546],[-7.368442,55.231558],[-7.368335,55.231545],[-7.368262,55.231562],[-7.368186,55.23155],[-7.368069,55.231454],[-7.367946,55.231392],[-7.367606,55.231193],[-7.36707,55.230906],[-7.366598,55.230658],[-7.366424,55.230542],[-7.366045,55.230192],[-7.366061,55.23018],[-7.366094,55.230093],[-7.366088,55.230045],[-7.365984,55.229942],[-7.365917,55.229844],[-7.365885,55.229505],[-7.365805,55.229428],[-7.365686,55.229333],[-7.365539,55.229114],[-7.365549,55.228939],[-7.365481,55.228883],[-7.365491,55.228679],[-7.365268,55.228514],[-7.365191,55.228432],[-7.365022,55.22826],[-7.364938,55.228088],[-7.364821,55.227889],[-7.364754,55.227864],[-7.364328,55.227677],[-7.364176,55.227575],[-7.36396,55.227427],[-7.363653,55.227325],[-7.36337,55.22723],[-7.363143,55.227174],[-7.362938,55.227157],[-7.362641,55.227123],[-7.362504,55.227046],[-7.362407,55.226994],[-7.362221,55.226966],[-7.36218,55.226961],[-7.361926,55.226932]]]]}}]}
