{"type":"FeatureCollection","features":[{"type":"Feature","properties":{"source_fid":659977,"county":"Donegal","bog_geom_ha":206.6501920913916,"low15_pct":80.722367275892083,"low15_ha":166.81292703634963,"overlay_ha":167.03596620760024,"area_delta":0.2230391712506048},"geometry":{"type":"MultiPolygon","coordinates":[[[[-8.239887,54.853825],[-8.239868,54.853814],[-8.239197,54.853816],[-8.239198,54.854085],[-8.2392,54.854355],[-8.239201,54.854624],[-8.238734,54.854625],[-8.238736,54.854895],[-8.23967,54.854893],[-8.239669,54.854623],[-8.240136,54.854623],[-8.240137,54.854892],[-8.240139,54.855162],[-8.241073,54.85516],[-8.241075,54.855429],[-8.241077,54.855699],[-8.241078,54.855968],[-8.237341,54.855976],[-8.237339,54.855706],[-8.234536,54.855712],[-8.234534,54.855442],[-8.233133,54.855445],[-8.233131,54.855175],[-8.23173,54.855178],[-8.231728,54.854908],[-8.231726,54.854639],[-8.231725,54.854369],[-8.230791,54.854371],[-8.230792,54.854641],[-8.230325,54.854642],[-8.230326,54.854911],[-8.229392,54.854913],[-8.229394,54.855182],[-8.228952,54.855183],[-8.228953,54.855185],[-8.229028,54.85525],[-8.229087,54.855339],[-8.229186,54.855389],[-8.229345,54.855458],[-8.229404,54.85548],[-8.229524,54.855595],[-8.229615,54.855719],[-8.229718,54.855777],[-8.229731,54.855784],[-8.229795,54.855851],[-8.229804,54.855987],[-8.229778,54.856057],[-8.229809,54.856128],[-8.22987,54.856249],[-8.229934,54.856361],[-8.229941,54.856371],[-8.230021,54.856495],[-8.230084,54.856636],[-8.230162,54.856743],[-8.230217,54.856819],[-8.23044,54.856969],[-8.230716,54.857154],[-8.23083,54.857296],[-8.230937,54.857319],[-8.231153,54.857484],[-8.231224,54.85758],[-8.231322,54.857683],[-8.231385,54.857744],[-8.231324,54.857763],[-8.231322,54.857814],[-8.231348,54.857901],[-8.231385,54.858034],[-8.231434,54.858151],[-8.231499,54.858272],[-8.231577,54.858448],[-8.23169,54.858661],[-8.231714,54.858709],[-8.23179,54.858847],[-8.231864,54.859006],[-8.231929,54.8592],[-8.23201,54.859373],[-8.232099,54.859511],[-8.232222,54.859723],[-8.23232,54.859876],[-8.232405,54.860069],[-8.232494,54.860252],[-8.232598,54.860468],[-8.232669,54.860616],[-8.232732,54.86074],[-8.232872,54.860991],[-8.232885,54.861026],[-8.233078,54.861351],[-8.233271,54.861812],[-8.233584,54.862381],[-8.233641,54.862501],[-8.233802,54.862843],[-8.234122,54.863456],[-8.234258,54.863717],[-8.234435,54.863717],[-8.234441,54.864615],[-8.235998,54.864612],[-8.235998,54.864684],[-8.236722,54.864713],[-8.236839,54.864713],[-8.236915,54.864697],[-8.237013,54.864705],[-8.237058,54.864739],[-8.237072,54.864754],[-8.237127,54.864746],[-8.23725,54.864728],[-8.237343,54.864719],[-8.237423,54.864739],[-8.23747,54.864752],[-8.237496,54.86476],[-8.23753,54.864778],[-8.237564,54.864781],[-8.237647,54.864763],[-8.237672,54.864746],[-8.237761,54.864739],[-8.237811,54.864746],[-8.237843,54.864748],[-8.237928,54.864739],[-8.237988,54.864737],[-8.23806,54.864807],[-8.238676,54.86508],[-8.239062,54.865347],[-8.239849,54.865789],[-8.240476,54.865704],[-8.240484,54.865701],[-8.240519,54.865697],[-8.241078,54.865665],[-8.241518,54.865646],[-8.241771,54.865651],[-8.242188,54.865727],[-8.242218,54.865732],[-8.242601,54.865811],[-8.242908,54.866004],[-8.243188,54.866228],[-8.243627,54.866248],[-8.244331,54.866291],[-8.245016,54.866316],[-8.246029,54.866357],[-8.246619,54.866396],[-8.24675,54.8664],[-8.246908,54.866437],[-8.247271,54.866525],[-8.247382,54.866523],[-8.24771,54.866593],[-8.24818,54.866717],[-8.248631,54.866762],[-8.24898,54.866777],[-8.249094,54.866809],[-8.249549,54.866888],[-8.249939,54.866953],[-8.250355,54.867009],[-8.250861,54.86706],[-8.251522,54.867111],[-8.251513,54.867192],[-8.251563,54.867212],[-8.251764,54.867191],[-8.251879,54.867306],[-8.251919,54.867441],[-8.251937,54.867576],[-8.25197,54.867716],[-8.252047,54.867888],[-8.252115,54.868056],[-8.252132,54.868172],[-8.252133,54.868319],[-8.252211,54.868436],[-8.252221,54.868589],[-8.252286,54.868736],[-8.252357,54.868791],[-8.252383,54.868872],[-8.252423,54.869062],[-8.252407,54.869212],[-8.252453,54.869373],[-8.252472,54.869497],[-8.252525,54.869548],[-8.252505,54.869795],[-8.252484,54.869916],[-8.252484,54.870038],[-8.252548,54.870166],[-8.25257,54.870331],[-8.252585,54.870466],[-8.252643,54.870473],[-8.252701,54.870633],[-8.252712,54.870651],[-8.252793,54.870642],[-8.252995,54.870625],[-8.253155,54.870621],[-8.253418,54.870608],[-8.253584,54.87059],[-8.253784,54.870547],[-8.253784,54.870498],[-8.253782,54.870228],[-8.253781,54.869959],[-8.254397,54.869957],[-8.254569,54.869535],[-8.254876,54.868862],[-8.255123,54.868225],[-8.255179,54.868039],[-8.255251,54.867799],[-8.255169,54.867799],[-8.255161,54.866452],[-8.255318,54.866451],[-8.255294,54.866292],[-8.255284,54.866091],[-8.255246,54.865833],[-8.255246,54.865833],[-8.255235,54.865765],[-8.255226,54.865556],[-8.255225,54.865551],[-8.255224,54.865472],[-8.254691,54.865473],[-8.254686,54.864575],[-8.255326,54.864573],[-8.255422,54.864492],[-8.255542,54.864408],[-8.255656,54.864347],[-8.255795,54.864299],[-8.255866,54.864278],[-8.255911,54.864265],[-8.25638,54.864113],[-8.256488,54.864077],[-8.256788,54.863976],[-8.257037,54.863886],[-8.257639,54.863665],[-8.257794,54.863609],[-8.257789,54.862772],[-8.259071,54.862769],[-8.259092,54.862709],[-8.259099,54.862687],[-8.259118,54.862634],[-8.259123,54.862618],[-8.257271,54.861964],[-8.257389,54.861854],[-8.256877,54.861709],[-8.256479,54.861613],[-8.256008,54.861481],[-8.255602,54.861374],[-8.255453,54.861329],[-8.255414,54.861341],[-8.253757,54.86088],[-8.253523,54.860806],[-8.253152,54.860679],[-8.252808,54.860582],[-8.252678,54.860548],[-8.252237,54.860342],[-8.252119,54.860244],[-8.252024,54.860183],[-8.251748,54.860034],[-8.251678,54.859996],[-8.251279,54.859812],[-8.251214,54.859778],[-8.251206,54.859774],[-8.250416,54.859358],[-8.24989,54.859045],[-8.248522,54.858378],[-8.248408,54.858319],[-8.247494,54.857851],[-8.246987,54.857585],[-8.24608,54.857138],[-8.245559,54.85683],[-8.244365,54.856289],[-8.244302,54.856242],[-8.244284,54.856232],[-8.243883,54.856232],[-8.243882,54.856005],[-8.243071,54.855548],[-8.242198,54.855032],[-8.241394,54.854624],[-8.240427,54.854136],[-8.239907,54.853838],[-8.239907,54.853838],[-8.239907,54.853838],[-8.239887,54.853825]],[[-8.240603,54.854622],[-8.240136,54.854623],[-8.240134,54.854353],[-8.240601,54.854352],[-8.240603,54.854622]],[[-8.242949,54.856234],[-8.242481,54.856235],[-8.24248,54.855966],[-8.242947,54.855965],[-8.242949,54.856234]],[[-8.241547,54.856237],[-8.242481,54.856235],[-8.242483,54.856505],[-8.241549,54.856507],[-8.241547,54.856237]],[[-8.239699,54.859745],[-8.239232,54.859746],[-8.23923,54.859476],[-8.238763,54.859477],[-8.238761,54.859207],[-8.239229,54.859207],[-8.239227,54.858937],[-8.239694,54.858936],[-8.239696,54.859206],[-8.239697,54.859475],[-8.239699,54.859745]],[[-8.2542,54.862411],[-8.253733,54.862412],[-8.253732,54.862142],[-8.254199,54.862141],[-8.2542,54.862411]],[[-8.249064,54.86296],[-8.248129,54.862962],[-8.248128,54.862693],[-8.249062,54.862691],[-8.249064,54.86296]],[[-8.250467,54.863227],[-8.25,54.863228],[-8.249998,54.862958],[-8.250466,54.862957],[-8.250467,54.863227]],[[-8.255144,54.863756],[-8.255611,54.863755],[-8.255613,54.864025],[-8.255614,54.864294],[-8.253745,54.864298],[-8.253743,54.864029],[-8.252341,54.864032],[-8.25234,54.863762],[-8.251405,54.863764],[-8.251404,54.863495],[-8.250936,54.863496],[-8.250935,54.863226],[-8.252336,54.863223],[-8.252338,54.863493],[-8.254207,54.863489],[-8.254206,54.863219],[-8.255607,54.863216],[-8.255609,54.863486],[-8.255142,54.863487],[-8.255144,54.863756]],[[-8.23828,54.856783],[-8.237813,54.856783],[-8.237811,54.856514],[-8.238278,54.856513],[-8.23828,54.856783]],[[-8.232212,54.857872],[-8.231745,54.857873],[-8.231743,54.857604],[-8.232211,54.857603],[-8.232212,54.857872]],[[-8.234086,54.858677],[-8.234087,54.858947],[-8.233153,54.858949],[-8.233151,54.858679],[-8.23315,54.85841],[-8.233617,54.858409],[-8.233619,54.858678],[-8.234086,54.858677]],[[-8.232684,54.85868],[-8.232217,54.858681],[-8.232215,54.858412],[-8.232683,54.858411],[-8.232684,54.85868]],[[-8.23643,54.860021],[-8.236431,54.86029],[-8.233628,54.860296],[-8.233626,54.860026],[-8.234094,54.860025],[-8.234092,54.859756],[-8.234559,54.859755],[-8.234558,54.859485],[-8.235492,54.859483],[-8.235494,54.859753],[-8.236428,54.859751],[-8.23643,54.860021]],[[-8.237369,54.860827],[-8.236902,54.860828],[-8.2369,54.860559],[-8.237367,54.860558],[-8.237369,54.860827]]],[[[-8.228892,54.85511],[-8.228926,54.855152],[-8.228925,54.854914],[-8.228923,54.854644],[-8.228456,54.854645],[-8.228455,54.854376],[-8.228071,54.854376],[-8.228149,54.854457],[-8.228332,54.854564],[-8.228471,54.854683],[-8.228616,54.854807],[-8.228809,54.854988],[-8.22884,54.85504],[-8.228892,54.85511]]],[[[-8.227804,54.854208],[-8.227987,54.854308],[-8.227986,54.854107],[-8.22892,54.854105],[-8.228919,54.853847],[-8.22815,54.853848],[-8.228147,54.853298],[-8.227981,54.853298],[-8.227983,54.853568],[-8.227048,54.85357],[-8.227049,54.853719],[-8.227119,54.853777],[-8.227249,54.853887],[-8.227342,54.853888],[-8.227422,54.853935],[-8.227444,54.853989],[-8.227529,54.854049],[-8.227683,54.854102],[-8.227804,54.854208]]],[[[-8.221482,54.85024],[-8.222698,54.850882],[-8.222829,54.850882],[-8.222828,54.850612],[-8.223762,54.850611],[-8.22376,54.850341],[-8.224695,54.850339],[-8.224693,54.85007],[-8.22516,54.850069],[-8.225159,54.8498],[-8.226093,54.849798],[-8.226092,54.849528],[-8.225624,54.849529],[-8.225623,54.84926],[-8.22609,54.849259],[-8.226089,54.848989],[-8.226556,54.848988],[-8.226553,54.848449],[-8.22702,54.848448],[-8.227019,54.84826],[-8.226834,54.848179],[-8.226551,54.84818],[-8.22655,54.848056],[-8.226219,54.847911],[-8.226082,54.847911],[-8.226082,54.847851],[-8.225603,54.847642],[-8.225547,54.847618],[-8.225429,54.847566],[-8.225429,54.847566],[-8.225429,54.847566],[-8.225335,54.847643],[-8.225332,54.847645],[-8.225117,54.847814],[-8.224787,54.848056],[-8.22435,54.848376],[-8.223998,54.848616],[-8.223829,54.848727],[-8.223646,54.848848],[-8.223105,54.849212],[-8.222675,54.849498],[-8.22229,54.849751],[-8.222149,54.849845],[-8.221816,54.850047],[-8.221549,54.8502],[-8.221482,54.85024]]],[[[-8.230526,54.849789],[-8.230297,54.84969],[-8.230297,54.84979],[-8.230526,54.849789]]],[[[-8.230849,54.849931],[-8.230765,54.849894],[-8.230766,54.850059],[-8.231018,54.850058],[-8.230849,54.849931]]],[[[-8.231501,54.850317],[-8.231234,54.850188],[-8.231235,54.850327],[-8.231523,54.850327],[-8.231501,54.850317]]],[[[-8.232665,54.850776],[-8.232638,54.850762],[-8.232641,54.851133],[-8.232642,54.851403],[-8.232175,54.851404],[-8.232173,54.851134],[-8.231239,54.851136],[-8.231245,54.852214],[-8.230778,54.852215],[-8.230781,54.852754],[-8.233584,54.852749],[-8.233586,54.853018],[-8.234053,54.853017],[-8.234055,54.853287],[-8.235923,54.853283],[-8.235926,54.853822],[-8.235459,54.853823],[-8.235461,54.854093],[-8.236395,54.854091],[-8.236394,54.853821],[-8.236861,54.85382],[-8.236859,54.853551],[-8.238261,54.853548],[-8.238259,54.853279],[-8.238726,54.853278],[-8.238309,54.853097],[-8.237886,54.85291],[-8.237429,54.852707],[-8.235673,54.851972],[-8.234558,54.851522],[-8.233575,54.85114],[-8.233234,54.851008],[-8.233034,54.85093],[-8.232665,54.850776]]],[[[-8.238737,54.855164],[-8.238736,54.854895],[-8.238269,54.854896],[-8.23827,54.855165],[-8.238737,54.855164]]],[[[-8.235467,54.855171],[-8.235465,54.854901],[-8.235464,54.854632],[-8.233595,54.854635],[-8.233597,54.854905],[-8.234064,54.854904],[-8.234065,54.855173],[-8.235467,54.855171]]],[[[-8.229838,54.851138],[-8.229833,54.85033],[-8.229832,54.85006],[-8.228897,54.850062],[-8.228899,54.850332],[-8.2289,54.850601],[-8.228902,54.850871],[-8.228903,54.85114],[-8.229838,54.851138]]]]}}]}
