{"type":"FeatureCollection","features":[{"type":"Feature","properties":{"source_fid":699694,"county":"Mayo","bog_geom_ha":117.5947228054734,"low15_pct":100.0,"low15_ha":117.5947228054734,"overlay_ha":117.5947228054734,"area_delta":0.0},"geometry":{"type":"MultiPolygon","coordinates":[[[[-9.316427,53.733697],[-9.316625,53.733763],[-9.316646,53.73377],[-9.317202,53.733764],[-9.317287,53.733674],[-9.317347,53.733653],[-9.317438,53.7336],[-9.31751,53.733551],[-9.317602,53.733505],[-9.317582,53.732862],[-9.316067,53.732878],[-9.316071,53.733006],[-9.316077,53.733006],[-9.316072,53.733031],[-9.316073,53.733054],[-9.316117,53.733067],[-9.316334,53.733226],[-9.316349,53.733269],[-9.316267,53.73332],[-9.316119,53.733389],[-9.316083,53.73339],[-9.316089,53.733576],[-9.316427,53.733697]]],[[[-9.308885,53.7282],[-9.308923,53.728372],[-9.308914,53.728464],[-9.309868,53.728454],[-9.309896,53.729352],[-9.308382,53.729368],[-9.308409,53.730267],[-9.307621,53.730275],[-9.30763,53.730321],[-9.30767,53.730521],[-9.307769,53.730844],[-9.307293,53.730882],[-9.306927,53.73091],[-9.306864,53.730915],[-9.306757,53.73092],[-9.306672,53.730925],[-9.306585,53.73093],[-9.306459,53.730936],[-9.30642,53.730937],[-9.306402,53.730937],[-9.306126,53.730806],[-9.305667,53.730646],[-9.305415,53.730527],[-9.305398,53.73052],[-9.305387,53.730517],[-9.305408,53.731198],[-9.306923,53.731181],[-9.30695,53.732079],[-9.306978,53.732978],[-9.308493,53.732961],[-9.308525,53.73398],[-9.308567,53.733984],[-9.309114,53.733868],[-9.309205,53.734101],[-9.309243,53.734195],[-9.309224,53.734242],[-9.309211,53.734275],[-9.309281,53.734388],[-9.309276,53.734466],[-9.309342,53.734565],[-9.309367,53.734583],[-9.309483,53.734668],[-9.309532,53.734747],[-9.310064,53.734741],[-9.310609,53.734735],[-9.310658,53.734718],[-9.310851,53.734653],[-9.31116,53.734543],[-9.311728,53.734343],[-9.312092,53.734232],[-9.312319,53.73415],[-9.312436,53.734107],[-9.312764,53.733979],[-9.312884,53.733933],[-9.313067,53.733857],[-9.313066,53.73381],[-9.313192,53.733808],[-9.313295,53.733769],[-9.313497,53.733691],[-9.313782,53.733589],[-9.313879,53.733554],[-9.314471,53.733347],[-9.314565,53.733315],[-9.314552,53.732895],[-9.316067,53.732878],[-9.316039,53.73198],[-9.317554,53.731963],[-9.317582,53.732862],[-9.319097,53.732845],[-9.31915,53.734553],[-9.319465,53.734638],[-9.320668,53.734625],[-9.320678,53.734932],[-9.320878,53.734988],[-9.320998,53.735026],[-9.321051,53.735043],[-9.321122,53.735164],[-9.321267,53.735342],[-9.321374,53.735469],[-9.321423,53.735514],[-9.321524,53.735576],[-9.321685,53.735625],[-9.322178,53.735821],[-9.322276,53.735879],[-9.322335,53.73594],[-9.322536,53.736395],[-9.322669,53.736724],[-9.322898,53.737225],[-9.323107,53.73769],[-9.323255,53.738014],[-9.323409,53.738439],[-9.323665,53.739067],[-9.323861,53.739614],[-9.323935,53.739795],[-9.323973,53.739888],[-9.324328,53.740493],[-9.324522,53.740853],[-9.324713,53.741193],[-9.324858,53.741339],[-9.324891,53.741371],[-9.325115,53.741574],[-9.325379,53.74179],[-9.325521,53.741927],[-9.325584,53.741988],[-9.325829,53.742227],[-9.326114,53.742511],[-9.326274,53.742724],[-9.326517,53.743038],[-9.326666,53.743292],[-9.326707,53.743265],[-9.326821,53.743189],[-9.326945,53.743102],[-9.327116,53.742952],[-9.327079,53.742927],[-9.327039,53.742866],[-9.326933,53.742663],[-9.326854,53.742497],[-9.326822,53.742342],[-9.326803,53.742231],[-9.326857,53.742117],[-9.326889,53.742129],[-9.326933,53.742164],[-9.327037,53.742175],[-9.327029,53.742095],[-9.327001,53.741893],[-9.326982,53.741751],[-9.326969,53.741638],[-9.326907,53.741496],[-9.326893,53.741399],[-9.326919,53.741286],[-9.326943,53.741242],[-9.327019,53.741185],[-9.327239,53.741051],[-9.327331,53.740947],[-9.327479,53.740754],[-9.327565,53.74062],[-9.327714,53.740343],[-9.327806,53.740177],[-9.327816,53.740064],[-9.327805,53.739913],[-9.327771,53.739663],[-9.327755,53.739501],[-9.327753,53.738923],[-9.327754,53.738302],[-9.327739,53.737835],[-9.327756,53.737773],[-9.328323,53.73818],[-9.328808,53.738539],[-9.328814,53.73854],[-9.328824,53.738494],[-9.328824,53.738439],[-9.328823,53.738435],[-9.328816,53.738387],[-9.328829,53.738336],[-9.328831,53.738311],[-9.328832,53.738287],[-9.328832,53.738235],[-9.328813,53.738177],[-9.328758,53.738124],[-9.328711,53.738077],[-9.328653,53.73802],[-9.328595,53.737967],[-9.328584,53.737924],[-9.328591,53.737892],[-9.328595,53.737872],[-9.32861,53.737821],[-9.328627,53.737772],[-9.328623,53.737705],[-9.328623,53.737672],[-9.328623,53.737635],[-9.328635,53.737451],[-9.328635,53.737445],[-9.328618,53.737386],[-9.328571,53.737335],[-9.328543,53.737235],[-9.328525,53.737175],[-9.328414,53.736653],[-9.32821,53.736429],[-9.328221,53.7364],[-9.328023,53.736187],[-9.328064,53.736076],[-9.328065,53.735946],[-9.327975,53.735735],[-9.327776,53.735444],[-9.327767,53.735433],[-9.32772,53.735367],[-9.327679,53.735276],[-9.327628,53.735188],[-9.327609,53.735151],[-9.327597,53.735113],[-9.327615,53.735036],[-9.327658,53.734899],[-9.327695,53.73477],[-9.327782,53.734634],[-9.327868,53.734526],[-9.327915,53.734467],[-9.328054,53.734314],[-9.328146,53.734228],[-9.328151,53.7342],[-9.328199,53.734148],[-9.328208,53.734019],[-9.328226,53.733819],[-9.328233,53.733738],[-9.328246,53.733625],[-9.328236,53.733594],[-9.328234,53.733589],[-9.328044,53.73347],[-9.328043,53.733451],[-9.328065,53.733404],[-9.328083,53.733379],[-9.328101,53.73337],[-9.328058,53.733219],[-9.328014,53.733113],[-9.327984,53.733059],[-9.327918,53.732977],[-9.327915,53.732967],[-9.327908,53.732932],[-9.327853,53.732852],[-9.327815,53.732805],[-9.327766,53.732778],[-9.327674,53.732678],[-9.327631,53.732628],[-9.32753,53.732551],[-9.327495,53.732521],[-9.327386,53.732398],[-9.327293,53.732299],[-9.327264,53.73228],[-9.327152,53.732211],[-9.326987,53.732109],[-9.32688,53.732042],[-9.326834,53.73201],[-9.326796,53.731994],[-9.326609,53.731946],[-9.326547,53.731917],[-9.326519,53.731915],[-9.326491,53.731902],[-9.32647,53.731905],[-9.326447,53.731915],[-9.326428,53.731904],[-9.32642,53.731905],[-9.326392,53.731936],[-9.326381,53.73195],[-9.326369,53.731955],[-9.326286,53.731975],[-9.326241,53.731983],[-9.326208,53.73198],[-9.326009,53.73186],[-9.325697,53.731706],[-9.325385,53.731527],[-9.325153,53.731437],[-9.325108,53.731412],[-9.325063,53.731388],[-9.324803,53.731105],[-9.324561,53.730818],[-9.324427,53.730687],[-9.324321,53.730575],[-9.324303,53.730543],[-9.324303,53.730531],[-9.324286,53.730492],[-9.324247,53.73047],[-9.324142,53.730416],[-9.324048,53.73033],[-9.323867,53.730074],[-9.323835,53.730018],[-9.323751,53.729867],[-9.323729,53.729828],[-9.323614,53.729581],[-9.323601,53.729551],[-9.323486,53.729286],[-9.323456,53.729229],[-9.323389,53.729105],[-9.323313,53.728962],[-9.323238,53.728799],[-9.323221,53.728756],[-9.323151,53.728587],[-9.323053,53.728389],[-9.323012,53.728308],[-9.322937,53.728135],[-9.322886,53.728031],[-9.322873,53.728005],[-9.322865,53.727988],[-9.322796,53.727827],[-9.32276,53.727742],[-9.322734,53.72772],[-9.32267,53.727666],[-9.322534,53.72755],[-9.322395,53.727444],[-9.322333,53.727397],[-9.322127,53.727242],[-9.322058,53.727189],[-9.321944,53.727102],[-9.321853,53.727035],[-9.321583,53.726834],[-9.321478,53.726756],[-9.321343,53.726655],[-9.321298,53.726622],[-9.321128,53.726492],[-9.320883,53.726304],[-9.3207,53.726164],[-9.320526,53.726031],[-9.320471,53.72599],[-9.320353,53.725901],[-9.320191,53.725778],[-9.319903,53.725561],[-9.319633,53.725358],[-9.319599,53.725332],[-9.319375,53.725165],[-9.319157,53.725002],[-9.319015,53.724897],[-9.318939,53.724746],[-9.318623,53.724695],[-9.318427,53.724663],[-9.318047,53.724577],[-9.317932,53.724555],[-9.317725,53.724519],[-9.317414,53.724451],[-9.317332,53.724432],[-9.317173,53.724395],[-9.317026,53.72437],[-9.316791,53.724328],[-9.316442,53.724272],[-9.316578,53.724686],[-9.316603,53.724762],[-9.316778,53.725158],[-9.31644,53.725289],[-9.316406,53.725301],[-9.316235,53.72536],[-9.315808,53.725498],[-9.315401,53.725632],[-9.31499,53.725761],[-9.314445,53.725935],[-9.314335,53.725955],[-9.314026,53.725996],[-9.313367,53.726073],[-9.312852,53.726148],[-9.312823,53.726152],[-9.31279,53.726166],[-9.312718,53.726192],[-9.312642,53.726234],[-9.312253,53.726448],[-9.311739,53.726725],[-9.311334,53.726937],[-9.311263,53.726967],[-9.311162,53.726989],[-9.310994,53.727003],[-9.310931,53.727003],[-9.310822,53.726995],[-9.310508,53.726984],[-9.310137,53.726959],[-9.309878,53.72695],[-9.309723,53.726963],[-9.309665,53.726978],[-9.309644,53.72699],[-9.309307,53.727187],[-9.308993,53.727381],[-9.308748,53.727577],[-9.308709,53.727621],[-9.308683,53.727649],[-9.308643,53.727695],[-9.308626,53.727714],[-9.308689,53.727901],[-9.308695,53.727913],[-9.308723,53.727973],[-9.308813,53.728072],[-9.308851,53.728132],[-9.308885,53.7282]],[[-9.308437,53.731165],[-9.308409,53.730267],[-9.309924,53.73025],[-9.309952,53.731148],[-9.308437,53.731165]],[[-9.315298,53.732047],[-9.314774,53.732021],[-9.314522,53.731997],[-9.31301,53.732013],[-9.312982,53.731115],[-9.311467,53.731132],[-9.311411,53.729335],[-9.312926,53.729319],[-9.312954,53.730217],[-9.314468,53.7302],[-9.314497,53.731112],[-9.314502,53.731115],[-9.31462,53.731148],[-9.314728,53.731163],[-9.314899,53.731162],[-9.315002,53.731151],[-9.315253,53.731106],[-9.31527,53.731217],[-9.315283,53.731384],[-9.315276,53.731567],[-9.315273,53.731604],[-9.315302,53.731621],[-9.315308,53.731686],[-9.315351,53.731993],[-9.315348,53.732022],[-9.315335,53.732044],[-9.315298,53.732047]]]]}}]}
