{"type":"FeatureCollection","features":[{"type":"Feature","properties":{"source_fid":706104,"county":"Donegal","bog_geom_ha":215.17002291647461,"low15_pct":79.958071278825997,"low15_ha":172.04580029422098,"overlay_ha":171.88939449136598,"area_delta":-0.15640580285500505},"geometry":{"type":"MultiPolygon","coordinates":[[[[-8.724729,54.69876],[-8.724702,54.698784],[-8.725096,54.698782],[-8.725091,54.698512],[-8.725556,54.69851],[-8.725561,54.698779],[-8.726026,54.698776],[-8.726031,54.699046],[-8.730219,54.699021],[-8.730224,54.69929],[-8.733947,54.699268],[-8.733942,54.698998],[-8.735804,54.698987],[-8.735809,54.699257],[-8.735969,54.699256],[-8.736038,54.699063],[-8.736183,54.698668],[-8.736316,54.698276],[-8.736449,54.697854],[-8.736544,54.697555],[-8.736572,54.697467],[-8.736317,54.697391],[-8.736055,54.697325],[-8.73533,54.697079],[-8.734841,54.697138],[-8.734274,54.697201],[-8.73367,54.697267],[-8.733157,54.697319],[-8.732902,54.697344],[-8.732601,54.697377],[-8.732518,54.697347],[-8.732173,54.697194],[-8.731723,54.696988],[-8.731436,54.696861],[-8.731221,54.696766],[-8.73082,54.696591],[-8.72878,54.696603],[-8.728775,54.696334],[-8.72831,54.696337],[-8.728305,54.696067],[-8.729235,54.696062],[-8.729231,54.695792],[-8.729696,54.695789],[-8.729701,54.696059],[-8.73013,54.696056],[-8.730036,54.695971],[-8.7299,54.695855],[-8.729814,54.695778],[-8.729754,54.695727],[-8.729633,54.695614],[-8.729534,54.695527],[-8.729308,54.69532],[-8.72918,54.695211],[-8.72912,54.695158],[-8.729012,54.695061],[-8.728861,54.694928],[-8.728748,54.694829],[-8.728751,54.694986],[-8.728285,54.694989],[-8.72829,54.695259],[-8.728295,54.695528],[-8.72783,54.695531],[-8.727835,54.695801],[-8.727369,54.695803],[-8.727374,54.696073],[-8.726909,54.696076],[-8.726914,54.696345],[-8.725983,54.696351],[-8.725988,54.69662],[-8.725057,54.696626],[-8.725062,54.696895],[-8.7246,54.696898],[-8.725148,54.697146],[-8.725198,54.697209],[-8.725401,54.697389],[-8.725418,54.697401],[-8.72545,54.697438],[-8.725515,54.697489],[-8.725553,54.697515],[-8.72584,54.697778],[-8.72561,54.697926],[-8.725569,54.697969],[-8.725497,54.698032],[-8.72541,54.698106],[-8.725358,54.698169],[-8.725288,54.698232],[-8.725212,54.698302],[-8.725098,54.698397],[-8.725042,54.698456],[-8.724983,54.69851],[-8.724903,54.698581],[-8.724857,54.698631],[-8.724795,54.698688],[-8.724729,54.69876]]],[[[-8.722716,54.695827],[-8.722722,54.695831],[-8.724112,54.695823],[-8.724107,54.695553],[-8.724102,54.695284],[-8.724568,54.695281],[-8.724563,54.695011],[-8.726424,54.695],[-8.726419,54.694731],[-8.726415,54.694461],[-8.72688,54.694458],[-8.726875,54.694189],[-8.727806,54.694183],[-8.727802,54.693971],[-8.727699,54.693874],[-8.727535,54.693716],[-8.727392,54.693578],[-8.727301,54.693488],[-8.727211,54.693399],[-8.726942,54.693143],[-8.726802,54.693002],[-8.726582,54.692782],[-8.726362,54.692552],[-8.726205,54.692399],[-8.726015,54.692198],[-8.725843,54.692007],[-8.725658,54.691808],[-8.725447,54.691565],[-8.725314,54.691424],[-8.725238,54.691344],[-8.724999,54.691078],[-8.724811,54.690874],[-8.724624,54.690657],[-8.724594,54.690622],[-8.724316,54.69033],[-8.724094,54.690098],[-8.724012,54.690012],[-8.723812,54.6898],[-8.723519,54.689473],[-8.723237,54.689175],[-8.723036,54.688947],[-8.722855,54.688743],[-8.722653,54.688528],[-8.722412,54.688265],[-8.722246,54.688079],[-8.722039,54.687852],[-8.721837,54.687629],[-8.72164,54.68742],[-8.721475,54.687255],[-8.721146,54.686997],[-8.720776,54.686702],[-8.72041,54.686519],[-8.719987,54.686341],[-8.71939,54.686047],[-8.718808,54.685752],[-8.718717,54.685711],[-8.71851,54.685619],[-8.718136,54.685444],[-8.718049,54.685405],[-8.717965,54.685367],[-8.717856,54.685318],[-8.717597,54.68521],[-8.71726,54.685043],[-8.716762,54.684813],[-8.716181,54.684522],[-8.715584,54.684227],[-8.715259,54.68408],[-8.715078,54.684132],[-8.714803,54.684212],[-8.714512,54.684296],[-8.714232,54.684376],[-8.713993,54.684445],[-8.713692,54.684532],[-8.71339,54.684619],[-8.713122,54.684696],[-8.712858,54.684772],[-8.712575,54.684854],[-8.712277,54.68494],[-8.712004,54.685018],[-8.711757,54.68509],[-8.711491,54.685166],[-8.711207,54.685248],[-8.710954,54.685321],[-8.710665,54.685404],[-8.710395,54.685482],[-8.710118,54.685562],[-8.709851,54.685639],[-8.709637,54.6857],[-8.709532,54.68573],[-8.709244,54.685809],[-8.708919,54.685899],[-8.708616,54.685983],[-8.708288,54.686074],[-8.70798,54.686159],[-8.707899,54.686182],[-8.707674,54.686244],[-8.707419,54.686315],[-8.707154,54.686388],[-8.706897,54.686459],[-8.706616,54.686537],[-8.706396,54.686598],[-8.706142,54.686668],[-8.705851,54.686749],[-8.705533,54.686837],[-8.704699,54.687068],[-8.699301,54.688726],[-8.697936,54.689145],[-8.697427,54.689302],[-8.697307,54.689718],[-8.696717,54.691751],[-8.696855,54.691712],[-8.697092,54.69173],[-8.69742,54.691738],[-8.69754,54.69177],[-8.69772,54.691782],[-8.697825,54.691837],[-8.697876,54.691857],[-8.69792,54.691893],[-8.697984,54.691906],[-8.698031,54.691915],[-8.698197,54.692018],[-8.698271,54.692024],[-8.698398,54.691995],[-8.698702,54.691892],[-8.698967,54.691869],[-8.699122,54.691808],[-8.699349,54.691798],[-8.699639,54.691773],[-8.699777,54.691787],[-8.699955,54.691838],[-8.700106,54.691838],[-8.700256,54.691884],[-8.700307,54.691927],[-8.700358,54.69203],[-8.700497,54.692077],[-8.700639,54.692081],[-8.700798,54.692129],[-8.700931,54.6921],[-8.701045,54.692118],[-8.701579,54.692056],[-8.701986,54.692032],[-8.702291,54.692021],[-8.702623,54.691994],[-8.702739,54.691984],[-8.702909,54.691991],[-8.703015,54.691988],[-8.703151,54.691975],[-8.703352,54.691949],[-8.703538,54.691942],[-8.703675,54.691942],[-8.703814,54.691948],[-8.703964,54.691961],[-8.704133,54.691984],[-8.704291,54.691986],[-8.704379,54.692007],[-8.704427,54.692038],[-8.704572,54.69216],[-8.704628,54.692189],[-8.704667,54.692199],[-8.704723,54.692209],[-8.704884,54.692234],[-8.704996,54.692253],[-8.705157,54.692315],[-8.705408,54.692388],[-8.705519,54.692406],[-8.705667,54.692435],[-8.705723,54.692442],[-8.705807,54.692459],[-8.705975,54.692435],[-8.706067,54.692461],[-8.70613,54.692484],[-8.70619,54.692525],[-8.706247,54.692569],[-8.706261,54.692586],[-8.706314,54.692602],[-8.706406,54.692633],[-8.706455,54.692659],[-8.706568,54.692704],[-8.706642,54.692743],[-8.706684,54.692776],[-8.706695,54.692802],[-8.706685,54.692898],[-8.706706,54.692925],[-8.706822,54.693053],[-8.706907,54.693149],[-8.706936,54.693178],[-8.706936,54.693213],[-8.70695,54.693278],[-8.706989,54.693376],[-8.707056,54.693501],[-8.707088,54.693556],[-8.707116,54.693576],[-8.707222,54.693637],[-8.707321,54.693674],[-8.707377,54.693698],[-8.707455,54.693717],[-8.707645,54.693735],[-8.707702,54.693741],[-8.707779,54.69377],[-8.707815,54.693788],[-8.707871,54.6938],[-8.707903,54.693813],[-8.707987,54.693835],[-8.70816,54.69387],[-8.708256,54.693922],[-8.708253,54.69376],[-8.707788,54.693763],[-8.707783,54.693493],[-8.709179,54.693485],[-8.709184,54.693755],[-8.710115,54.693749],[-8.710119,54.694019],[-8.710124,54.694288],[-8.710589,54.694286],[-8.710594,54.694555],[-8.711059,54.694552],[-8.711064,54.694822],[-8.71246,54.694814],[-8.712469,54.695353],[-8.712474,54.695622],[-8.711543,54.695628],[-8.711548,54.695897],[-8.711083,54.6959],[-8.711078,54.69563],[-8.710613,54.695633],[-8.710613,54.69567],[-8.710645,54.695679],[-8.710658,54.695683],[-8.710755,54.695844],[-8.710907,54.695955],[-8.711024,54.696049],[-8.711037,54.696059],[-8.711323,54.696031],[-8.711337,54.696045],[-8.711348,54.696063],[-8.711366,54.696137],[-8.711373,54.696184],[-8.711384,54.696211],[-8.711419,54.696241],[-8.711486,54.696264],[-8.711645,54.696319],[-8.711708,54.696345],[-8.711768,54.69639],[-8.711814,54.696423],[-8.711864,54.696439],[-8.71192,54.696443],[-8.712036,54.696418],[-8.71211,54.696402],[-8.712156,54.696412],[-8.712241,54.696465],[-8.712284,54.696507],[-8.712308,54.696531],[-8.712347,54.696578],[-8.712368,54.696631],[-8.712418,54.696659],[-8.712478,54.69668],[-8.712509,54.696688],[-8.712552,54.69672],[-8.712576,54.696757],[-8.712615,54.696859],[-8.712655,54.696996],[-8.71269,54.697111],[-8.712729,54.697186],[-8.712789,54.697317],[-8.712832,54.697417],[-8.712867,54.697464],[-8.712884,54.697492],[-8.712894,54.697517],[-8.712896,54.697538],[-8.712894,54.697558],[-8.712873,54.697608],[-8.712864,54.697654],[-8.712852,54.697685],[-8.712806,54.697778],[-8.712802,54.697786],[-8.712855,54.697815],[-8.71298,54.697928],[-8.712977,54.697776],[-8.712973,54.697506],[-8.713438,54.697503],[-8.713443,54.697773],[-8.713908,54.69777],[-8.713913,54.69804],[-8.713922,54.698579],[-8.714388,54.698576],[-8.714392,54.698846],[-8.714061,54.698848],[-8.714091,54.698875],[-8.714162,54.698957],[-8.714213,54.698932],[-8.714295,54.698893],[-8.71439,54.698851],[-8.714524,54.698789],[-8.714642,54.698734],[-8.714802,54.698661],[-8.714854,54.698637],[-8.714853,54.698573],[-8.714989,54.698572],[-8.715057,54.698539],[-8.715167,54.698487],[-8.715299,54.698427],[-8.715316,54.698419],[-8.715313,54.698301],[-8.715561,54.6983],[-8.715665,54.698248],[-8.715777,54.698197],[-8.715774,54.698029],[-8.715765,54.69749],[-8.71623,54.697487],[-8.716225,54.697217],[-8.71622,54.696948],[-8.715755,54.696951],[-8.71575,54.696681],[-8.715741,54.696142],[-8.716206,54.696139],[-8.716201,54.69587],[-8.716197,54.6956],[-8.715266,54.695606],[-8.715276,54.696145],[-8.71481,54.696148],[-8.71482,54.696687],[-8.713889,54.696692],[-8.71388,54.696153],[-8.714345,54.69615],[-8.714335,54.695611],[-8.714331,54.695342],[-8.714326,54.695072],[-8.713395,54.695078],[-8.713391,54.694808],[-8.712925,54.694811],[-8.712921,54.694541],[-8.712916,54.694272],[-8.713846,54.694266],[-8.713851,54.694536],[-8.714782,54.69453],[-8.714787,54.6948],[-8.715717,54.694794],[-8.715712,54.694525],[-8.715708,54.694255],[-8.715698,54.693716],[-8.716163,54.693714],[-8.716159,54.693444],[-8.716624,54.693441],[-8.716619,54.693172],[-8.717085,54.693169],[-8.717075,54.69263],[-8.718006,54.692624],[-8.718015,54.693164],[-8.71802,54.693433],[-8.718025,54.693703],[-8.718034,54.694242],[-8.7185,54.694239],[-8.718504,54.694508],[-8.719435,54.694503],[-8.71944,54.694772],[-8.719444,54.695042],[-8.719449,54.695311],[-8.722241,54.695295],[-8.722246,54.695551],[-8.722274,54.695564],[-8.722711,54.695562],[-8.722716,54.695827]],[[-8.72641,54.694192],[-8.726415,54.694461],[-8.725949,54.694464],[-8.725944,54.694195],[-8.72641,54.694192]],[[-8.72405,54.692319],[-8.722654,54.692327],[-8.722649,54.692058],[-8.724045,54.692049],[-8.72405,54.692319]],[[-8.717977,54.691007],[-8.717972,54.690738],[-8.718438,54.690735],[-8.718442,54.691005],[-8.717977,54.691007]],[[-8.723095,54.690977],[-8.7231,54.691246],[-8.723565,54.691244],[-8.72357,54.691513],[-8.722174,54.691521],[-8.722169,54.691252],[-8.721239,54.691258],[-8.721234,54.690988],[-8.721699,54.690985],[-8.721695,54.690716],[-8.72216,54.690713],[-8.722165,54.690982],[-8.723095,54.690977]],[[-8.718461,54.692083],[-8.717996,54.692085],[-8.717982,54.691277],[-8.718447,54.691274],[-8.718461,54.692083]],[[-8.721258,54.692336],[-8.721253,54.692066],[-8.722184,54.692061],[-8.722188,54.69233],[-8.721258,54.692336]],[[-8.718931,54.692349],[-8.718927,54.69208],[-8.719392,54.692077],[-8.719397,54.692347],[-8.718931,54.692349]],[[-8.715204,54.692102],[-8.714274,54.692107],[-8.714269,54.691838],[-8.714264,54.691568],[-8.71566,54.69156],[-8.715665,54.69183],[-8.7152,54.691832],[-8.715204,54.692102]],[[-8.715684,54.692908],[-8.714288,54.692916],[-8.714283,54.692646],[-8.715679,54.692638],[-8.715684,54.692908]],[[-8.712427,54.692927],[-8.714288,54.692916],[-8.714293,54.693186],[-8.714298,54.693455],[-8.712902,54.693463],[-8.712906,54.693733],[-8.712441,54.693736],[-8.712446,54.694005],[-8.71198,54.694008],[-8.711976,54.693738],[-8.71151,54.693741],[-8.711506,54.693471],[-8.710575,54.693477],[-8.71057,54.693207],[-8.710105,54.69321],[-8.7101,54.692941],[-8.711962,54.69293],[-8.711966,54.693199],[-8.712432,54.693196],[-8.712427,54.692927]],[[-8.714302,54.693725],[-8.714298,54.693455],[-8.714763,54.693452],[-8.714768,54.693722],[-8.714302,54.693725]]],[[[-8.719044,54.696662],[-8.719661,54.696388],[-8.719468,54.69639],[-8.719464,54.69612],[-8.718068,54.696128],[-8.718077,54.696667],[-8.719044,54.696662]]],[[[-8.717732,54.697268],[-8.717856,54.697208],[-8.717156,54.697212],[-8.717161,54.697481],[-8.716695,54.697484],[-8.7167,54.697753],[-8.716717,54.697745],[-8.71681,54.697699],[-8.71691,54.697652],[-8.717008,54.697609],[-8.71711,54.697562],[-8.717364,54.697437],[-8.717563,54.697347],[-8.717732,54.697268]]],[[[-8.713833,54.698638],[-8.713925,54.698722],[-8.713922,54.698579],[-8.713769,54.69858],[-8.713833,54.698638]]],[[[-8.713396,54.698239],[-8.713452,54.698292],[-8.713447,54.698042],[-8.713151,54.698044],[-8.713174,54.69806],[-8.713314,54.698163],[-8.713396,54.698239]]],[[[-8.710512,54.695631],[-8.710518,54.695634],[-8.710613,54.695633],[-8.710608,54.695364],[-8.710361,54.695365],[-8.710384,54.695392],[-8.710406,54.695459],[-8.710402,54.695515],[-8.710413,54.695547],[-8.710448,54.695598],[-8.710512,54.695631]]],[[[-8.710091,54.695286],[-8.710142,54.695304],[-8.710133,54.694827],[-8.709668,54.69483],[-8.709663,54.69456],[-8.709198,54.694563],[-8.709193,54.694294],[-8.708778,54.694296],[-8.708806,54.694306],[-8.708873,54.694353],[-8.708937,54.694453],[-8.708955,54.694502],[-8.708972,54.694553],[-8.709124,54.69461],[-8.709251,54.694666],[-8.709406,54.694731],[-8.709533,54.69479],[-8.709576,54.694835],[-8.709576,54.694874],[-8.709575,54.694902],[-8.709601,54.694929],[-8.709692,54.694982],[-8.709812,54.695051],[-8.709908,54.695135],[-8.709993,54.695196],[-8.710091,54.695286]]],[[[-8.708686,54.694263],[-8.708728,54.694278],[-8.708723,54.694027],[-8.708444,54.694029],[-8.708481,54.694055],[-8.70852,54.694094],[-8.708594,54.694196],[-8.708644,54.694243],[-8.708686,54.694263]]],[[[-8.728876,54.701186],[-8.728877,54.701185],[-8.728397,54.701188],[-8.728401,54.701458],[-8.727936,54.701461],[-8.727941,54.70173],[-8.727946,54.702],[-8.726549,54.702008],[-8.726545,54.701738],[-8.726079,54.701741],[-8.726084,54.702011],[-8.725153,54.702016],[-8.725158,54.702286],[-8.723296,54.702297],[-8.723292,54.702027],[-8.724688,54.702019],[-8.724683,54.70175],[-8.724678,54.70148],[-8.725609,54.701474],[-8.725604,54.701205],[-8.725139,54.701208],[-8.725134,54.700938],[-8.725129,54.700669],[-8.723268,54.70068],[-8.723263,54.70041],[-8.722951,54.700412],[-8.722908,54.700453],[-8.722823,54.700529],[-8.722683,54.700656],[-8.722615,54.700721],[-8.722543,54.70079],[-8.722506,54.70083],[-8.722437,54.700895],[-8.722403,54.700927],[-8.722307,54.701008],[-8.722206,54.701089],[-8.722082,54.701194],[-8.721965,54.701303],[-8.72182,54.701439],[-8.721618,54.701619],[-8.72151,54.701718],[-8.721403,54.701806],[-8.721328,54.70188],[-8.721231,54.701963],[-8.721077,54.702098],[-8.721023,54.702143],[-8.72088,54.702262],[-8.7208,54.702333],[-8.721175,54.702374],[-8.721774,54.702412],[-8.722913,54.702485],[-8.723021,54.702503],[-8.723148,54.702531],[-8.723278,54.702558],[-8.723415,54.702587],[-8.723554,54.702613],[-8.723698,54.702635],[-8.723829,54.702651],[-8.723959,54.702672],[-8.724024,54.702683],[-8.724197,54.702701],[-8.724334,54.702716],[-8.724472,54.702728],[-8.724609,54.702742],[-8.724735,54.702754],[-8.724879,54.702766],[-8.724992,54.702777],[-8.725102,54.702784],[-8.725252,54.702796],[-8.725254,54.702796],[-8.725373,54.702802],[-8.725496,54.70281],[-8.725584,54.702816],[-8.725653,54.702822],[-8.725757,54.702831],[-8.725909,54.702845],[-8.726047,54.702859],[-8.726059,54.70286],[-8.726187,54.70287],[-8.726253,54.702878],[-8.726322,54.702886],[-8.726392,54.702892],[-8.726457,54.702899],[-8.726604,54.702916],[-8.726706,54.702927],[-8.726739,54.70293],[-8.726818,54.702936],[-8.726906,54.702953],[-8.726962,54.702963],[-8.726977,54.702971],[-8.726987,54.702976],[-8.727006,54.702978],[-8.727027,54.702981],[-8.727052,54.702983],[-8.727427,54.70302],[-8.727843,54.703061],[-8.72794,54.703071],[-8.728137,54.70271],[-8.72816,54.702655],[-8.728192,54.702588],[-8.728225,54.70253],[-8.728271,54.702422],[-8.728434,54.702087],[-8.72846,54.702036],[-8.728484,54.701976],[-8.728523,54.701902],[-8.728549,54.70183],[-8.728617,54.701692],[-8.728669,54.701589],[-8.72868,54.701568],[-8.728714,54.701501],[-8.728773,54.701386],[-8.728819,54.701298],[-8.728876,54.701186]],[[-8.721895,54.702036],[-8.721891,54.701766],[-8.722821,54.701761],[-8.722826,54.70203],[-8.721895,54.702036]]],[[[-8.727466,54.701194],[-8.727461,54.700924],[-8.72653,54.70093],[-8.726535,54.701199],[-8.727466,54.701194]]]]}}]}
