{"type":"FeatureCollection","features":[{"type":"Feature","properties":{"source_fid":706699,"county":"Clare","bog_geom_ha":170.32313105302808,"low15_pct":86.023206751054843,"low15_ha":146.51741917061645,"overlay_ha":146.60663634054472,"area_delta":0.089217169928275553},"geometry":{"type":"MultiPolygon","coordinates":[[[[-8.518509,52.981656],[-8.518493,52.981657],[-8.518493,52.981657],[-8.518493,52.981657],[-8.518658,52.980919],[-8.518801,52.980282],[-8.517521,52.980205],[-8.517292,52.980191],[-8.517036,52.980176],[-8.516752,52.980159],[-8.515343,52.980075],[-8.513216,52.979966],[-8.513166,52.979963],[-8.513163,52.979963],[-8.513051,52.979952],[-8.513112,52.980063],[-8.513123,52.980082],[-8.513158,52.980145],[-8.513242,52.980303],[-8.513368,52.980407],[-8.51349,52.980475],[-8.513754,52.980622],[-8.51401,52.98076],[-8.514201,52.980863],[-8.514201,52.980863],[-8.514095,52.980954],[-8.51342,52.981534],[-8.513229,52.981655],[-8.513108,52.981733],[-8.512903,52.982473],[-8.512888,52.982472],[-8.512496,52.982452],[-8.512453,52.982449],[-8.512086,52.982427],[-8.511783,52.982408],[-8.511758,52.982407],[-8.511579,52.982394],[-8.511321,52.982365],[-8.511134,52.982324],[-8.510995,52.982271],[-8.510941,52.98225],[-8.510775,52.982179],[-8.510592,52.982073],[-8.510555,52.982049],[-8.510525,52.982029],[-8.510417,52.981955],[-8.510415,52.981954],[-8.510307,52.981893],[-8.510228,52.981849],[-8.510035,52.981757],[-8.509963,52.981735],[-8.509778,52.981678],[-8.509707,52.981665],[-8.509587,52.981643],[-8.509463,52.98163],[-8.509422,52.981626],[-8.509376,52.981621],[-8.509337,52.981617],[-8.508941,52.98162],[-8.508872,52.981624],[-8.508785,52.98163],[-8.508719,52.981634],[-8.508542,52.981654],[-8.508435,52.981667],[-8.508335,52.981679],[-8.508213,52.981693],[-8.508211,52.981693],[-8.508206,52.981694],[-8.508026,52.981714],[-8.507864,52.981732],[-8.507633,52.981758],[-8.507621,52.98176],[-8.507614,52.981761],[-8.507464,52.98177],[-8.507242,52.981777],[-8.507098,52.981773],[-8.507076,52.981771],[-8.507013,52.981766],[-8.506994,52.981764],[-8.506977,52.981762],[-8.506956,52.981758],[-8.506931,52.981754],[-8.506833,52.981733],[-8.506795,52.981719],[-8.50673,52.981696],[-8.506721,52.981692],[-8.506717,52.981691],[-8.506701,52.981683],[-8.50668,52.981674],[-8.506553,52.981789],[-8.506434,52.981857],[-8.506288,52.981939],[-8.506231,52.982004],[-8.506181,52.982061],[-8.506011,52.982174],[-8.505903,52.982266],[-8.505885,52.982283],[-8.505851,52.982314],[-8.505367,52.9824],[-8.505231,52.982442],[-8.505233,52.982539],[-8.505217,52.982599],[-8.505187,52.982626],[-8.505179,52.982633],[-8.50514,52.982642],[-8.505056,52.98266],[-8.504827,52.982722],[-8.504701,52.982757],[-8.504601,52.982786],[-8.504552,52.982784],[-8.504487,52.982781],[-8.504363,52.982764],[-8.504324,52.982761],[-8.504224,52.982753],[-8.504207,52.982759],[-8.504202,52.982761],[-8.504185,52.982768],[-8.504134,52.982788],[-8.504141,52.982828],[-8.504143,52.982839],[-8.504158,52.9829],[-8.504109,52.982986],[-8.504104,52.982996],[-8.504104,52.982996],[-8.504104,52.982996],[-8.503998,52.983077],[-8.50395,52.983102],[-8.503905,52.983127],[-8.503708,52.983124],[-8.50365,52.983124],[-8.50365,52.983124],[-8.503646,52.983123],[-8.50357,52.983118],[-8.503459,52.983116],[-8.503354,52.983127],[-8.503311,52.983118],[-8.503277,52.98311],[-8.503272,52.983108],[-8.503184,52.983058],[-8.503171,52.98306],[-8.503135,52.983066],[-8.503131,52.983068],[-8.503073,52.983094],[-8.50304,52.983122],[-8.503022,52.983129],[-8.502959,52.983153],[-8.502786,52.983161],[-8.502737,52.98316],[-8.502737,52.98316],[-8.502737,52.98316],[-8.502663,52.983112],[-8.50258,52.983113],[-8.502577,52.983114],[-8.502572,52.983115],[-8.502511,52.983137],[-8.502505,52.983139],[-8.50252,52.983231],[-8.502559,52.983465],[-8.502559,52.983465],[-8.502559,52.983465],[-8.503266,52.983437],[-8.504382,52.983394],[-8.504467,52.983391],[-8.504561,52.983387],[-8.504561,52.983387],[-8.504561,52.983387],[-8.504716,52.984023],[-8.504853,52.984585],[-8.505387,52.984501],[-8.505563,52.984473],[-8.505575,52.984471],[-8.505645,52.98446],[-8.505941,52.985756],[-8.505943,52.985763],[-8.505944,52.985771],[-8.506571,52.985676],[-8.507062,52.985598],[-8.507225,52.985572],[-8.507549,52.985521],[-8.508139,52.985429],[-8.508141,52.985429],[-8.508702,52.985345],[-8.509213,52.985269],[-8.509332,52.985251],[-8.509806,52.985173],[-8.509921,52.985154],[-8.510325,52.985087],[-8.510727,52.98502],[-8.510915,52.984989],[-8.510966,52.98498],[-8.511768,52.985023],[-8.512179,52.985045],[-8.512179,52.985045],[-8.512179,52.985045],[-8.512172,52.985105],[-8.512167,52.985145],[-8.512114,52.985589],[-8.51189,52.987473],[-8.512168,52.987454],[-8.512186,52.987453],[-8.512219,52.98745],[-8.512486,52.987427],[-8.512866,52.987395],[-8.513115,52.987374],[-8.513229,52.987365],[-8.513494,52.987343],[-8.513655,52.987332],[-8.513735,52.987327],[-8.514164,52.987299],[-8.514378,52.987285],[-8.514515,52.987276],[-8.514775,52.987256],[-8.515066,52.987233],[-8.515446,52.987204],[-8.515828,52.987174],[-8.516435,52.987126],[-8.516475,52.987121],[-8.51658,52.987108],[-8.516891,52.987069],[-8.517436,52.987001],[-8.517648,52.986974],[-8.517967,52.986934],[-8.517977,52.986932],[-8.51798,52.986931],[-8.517983,52.98693],[-8.517993,52.986929],[-8.518384,52.986881],[-8.519121,52.986789],[-8.519231,52.986778],[-8.519305,52.98677],[-8.519416,52.986758],[-8.519661,52.986733],[-8.520055,52.986709],[-8.520623,52.986693],[-8.520936,52.986684],[-8.521256,52.986675],[-8.521359,52.986672],[-8.521569,52.986666],[-8.52186,52.986653],[-8.521898,52.986652],[-8.522035,52.986645],[-8.523238,52.986588],[-8.523294,52.986585],[-8.523949,52.986566],[-8.524311,52.986556],[-8.525387,52.986494],[-8.525757,52.986473],[-8.525907,52.986464],[-8.526406,52.986429],[-8.527002,52.986387],[-8.527167,52.986375],[-8.527188,52.986374],[-8.527209,52.986373],[-8.528513,52.986307],[-8.528595,52.986298],[-8.52881,52.986276],[-8.529214,52.986229],[-8.529358,52.986212],[-8.53081,52.986114],[-8.531675,52.986048],[-8.534252,52.985871],[-8.535354,52.985836],[-8.535686,52.985819],[-8.536081,52.985803],[-8.536456,52.985789],[-8.536516,52.985786],[-8.536757,52.985775],[-8.536757,52.985743],[-8.537519,52.985698],[-8.537983,52.98567],[-8.53822,52.985656],[-8.538544,52.985651],[-8.539373,52.985636],[-8.54038,52.985625],[-8.540388,52.985624],[-8.540401,52.985624],[-8.541531,52.985603],[-8.542088,52.985596],[-8.542507,52.985591],[-8.542867,52.985581],[-8.543284,52.985569],[-8.543282,52.985417],[-8.543728,52.985415],[-8.54373,52.985514],[-8.544307,52.985441],[-8.54485,52.985373],[-8.545412,52.985314],[-8.546229,52.985234],[-8.546978,52.985144],[-8.547364,52.985094],[-8.548023,52.985007],[-8.549229,52.984846],[-8.549235,52.984845],[-8.549246,52.984844],[-8.549246,52.984844],[-8.549238,52.984826],[-8.54922,52.984768],[-8.549167,52.98455],[-8.549079,52.984241],[-8.549,52.984001],[-8.548948,52.983771],[-8.548879,52.98357],[-8.548764,52.983403],[-8.548717,52.983187],[-8.54868,52.983045],[-8.548662,52.982965],[-8.548612,52.982966],[-8.548615,52.983235],[-8.547722,52.983239],[-8.547725,52.983509],[-8.547279,52.983511],[-8.547275,52.983241],[-8.547272,52.982972],[-8.546378,52.982976],[-8.546382,52.983245],[-8.545042,52.983252],[-8.545045,52.983521],[-8.544598,52.983523],[-8.544602,52.983793],[-8.544605,52.984062],[-8.543712,52.984067],[-8.543715,52.984336],[-8.543268,52.984338],[-8.543265,52.984069],[-8.543261,52.983799],[-8.543708,52.983797],[-8.543705,52.983527],[-8.544152,52.983525],[-8.544148,52.983256],[-8.544145,52.982986],[-8.544591,52.982984],[-8.544588,52.982714],[-8.544955,52.982713],[-8.544934,52.982538],[-8.544914,52.98235],[-8.544905,52.982256],[-8.544651,52.982269],[-8.544581,52.982183],[-8.544585,52.982445],[-8.541458,52.982459],[-8.541454,52.982189],[-8.541008,52.982191],[-8.541004,52.981933],[-8.540767,52.981924],[-8.540755,52.981923],[-8.540111,52.981926],[-8.54011,52.98186],[-8.539214,52.981751],[-8.538754,52.981673],[-8.538451,52.981625],[-8.537721,52.981482],[-8.53756,52.981454],[-8.536786,52.981458],[-8.536784,52.981289],[-8.536701,52.981259],[-8.536067,52.981151],[-8.535411,52.981084],[-8.535411,52.981084],[-8.535411,52.981084],[-8.535391,52.981082],[-8.535377,52.981081],[-8.534739,52.981028],[-8.53474,52.981141],[-8.534743,52.981411],[-8.534747,52.981681],[-8.535193,52.981679],[-8.53519,52.981409],[-8.535637,52.981407],[-8.53564,52.981677],[-8.535644,52.981946],[-8.535197,52.981948],[-8.5352,52.982218],[-8.534307,52.982222],[-8.534303,52.981952],[-8.530283,52.98197],[-8.530286,52.98224],[-8.529393,52.982244],[-8.529396,52.982513],[-8.528949,52.982515],[-8.528953,52.982785],[-8.528956,52.983055],[-8.528509,52.983057],[-8.528512,52.983326],[-8.526725,52.983334],[-8.526729,52.983604],[-8.525835,52.983608],[-8.525832,52.983338],[-8.525829,52.983068],[-8.525825,52.982799],[-8.525379,52.982801],[-8.525375,52.982531],[-8.525372,52.982262],[-8.524925,52.982264],[-8.524929,52.982533],[-8.523589,52.982539],[-8.523585,52.982269],[-8.523582,52.982],[-8.524475,52.981996],[-8.524472,52.981726],[-8.524469,52.981457],[-8.523576,52.981461],[-8.523569,52.980921],[-8.524909,52.980916],[-8.524906,52.980646],[-8.525353,52.980644],[-8.525349,52.980374],[-8.525343,52.979835],[-8.525789,52.979833],[-8.525786,52.979563],[-8.526233,52.979562],[-8.52623,52.979292],[-8.526676,52.97929],[-8.526673,52.97902],[-8.5271,52.979018],[-8.527049,52.978934],[-8.527071,52.978805],[-8.526586,52.978807],[-8.526468,52.97886],[-8.526439,52.978888],[-8.52638,52.978943],[-8.52629,52.979051],[-8.526241,52.97911],[-8.52622,52.979143],[-8.526197,52.979178],[-8.526116,52.97921],[-8.526008,52.979197],[-8.525973,52.979183],[-8.52592,52.979162],[-8.525883,52.97912],[-8.525883,52.97912],[-8.525877,52.979094],[-8.52587,52.979062],[-8.525896,52.978983],[-8.525944,52.978833],[-8.525942,52.97881],[-8.52545,52.978813],[-8.525431,52.978844],[-8.525411,52.978878],[-8.525322,52.978952],[-8.525313,52.97896],[-8.525313,52.97896],[-8.525313,52.97896],[-8.525296,52.978967],[-8.525245,52.978991],[-8.525208,52.978987],[-8.525164,52.978982],[-8.525043,52.978954],[-8.524994,52.978943],[-8.524963,52.978936],[-8.524927,52.978927],[-8.524884,52.978921],[-8.524832,52.978914],[-8.524617,52.978911],[-8.524585,52.978906],[-8.524521,52.978898],[-8.524462,52.978881],[-8.524421,52.978869],[-8.524373,52.978862],[-8.524359,52.978866],[-8.524333,52.978873],[-8.524287,52.978959],[-8.524261,52.97899],[-8.524241,52.979009],[-8.524231,52.979018],[-8.524183,52.979032],[-8.524175,52.979034],[-8.524168,52.979035],[-8.524127,52.979038],[-8.52411,52.979036],[-8.524098,52.979034],[-8.52408,52.979027],[-8.524062,52.979019],[-8.524027,52.97903],[-8.524011,52.979034],[-8.524009,52.979035],[-8.523997,52.979036],[-8.523941,52.979039],[-8.523868,52.979037],[-8.523786,52.97902],[-8.523743,52.978989],[-8.523742,52.978987],[-8.523736,52.978951],[-8.523776,52.978914],[-8.523803,52.978898],[-8.523843,52.978874],[-8.52389,52.978819],[-8.523097,52.978823],[-8.5231,52.979036],[-8.522206,52.97904],[-8.522204,52.978827],[-8.521867,52.978828],[-8.521866,52.978772],[-8.521756,52.978772],[-8.521759,52.979042],[-8.521586,52.979043],[-8.521512,52.979211],[-8.521467,52.979313],[-8.521763,52.979312],[-8.521766,52.979581],[-8.521348,52.979583],[-8.521228,52.979853],[-8.521769,52.979851],[-8.521772,52.98012],[-8.521326,52.980122],[-8.521329,52.980392],[-8.52099,52.980393],[-8.520871,52.980664],[-8.520886,52.980664],[-8.520889,52.980933],[-8.520614,52.980934],[-8.520443,52.980998],[-8.520445,52.981205],[-8.519999,52.981207],[-8.520002,52.981476],[-8.519555,52.981478],[-8.519553,52.981324],[-8.519383,52.981381],[-8.518575,52.981651],[-8.518561,52.981652],[-8.518538,52.981653],[-8.518509,52.981656]],[[-8.523103,52.979306],[-8.5231,52.979036],[-8.523546,52.979034],[-8.523549,52.979304],[-8.523103,52.979306]],[[-8.546385,52.983515],[-8.547279,52.983511],[-8.547282,52.983781],[-8.546835,52.983783],[-8.546839,52.984052],[-8.545945,52.984056],[-8.545949,52.984326],[-8.545055,52.98433],[-8.545052,52.98406],[-8.545499,52.984058],[-8.545495,52.983789],[-8.546389,52.983785],[-8.546385,52.983515]],[[-8.542365,52.983533],[-8.541024,52.98354],[-8.541028,52.983809],[-8.539688,52.983815],[-8.539684,52.983546],[-8.540131,52.983544],[-8.540128,52.983274],[-8.542361,52.983264],[-8.542365,52.983533]],[[-8.523598,52.983348],[-8.522705,52.983352],[-8.522702,52.983082],[-8.523148,52.98308],[-8.523145,52.982811],[-8.523592,52.982809],[-8.523595,52.983078],[-8.523598,52.983348]],[[-8.522258,52.983354],[-8.522705,52.983352],[-8.522708,52.983621],[-8.522261,52.983623],[-8.522258,52.983354]]],[[[-8.519998,52.981162],[-8.519875,52.981207],[-8.519999,52.981207],[-8.519998,52.981162]]],[[[-8.518601,52.978335],[-8.518624,52.97834],[-8.518623,52.978247],[-8.51862,52.977977],[-8.51996,52.977971],[-8.519963,52.978241],[-8.52175,52.978233],[-8.521753,52.978503],[-8.521863,52.978502],[-8.52186,52.97823],[-8.521846,52.978224],[-8.52177,52.978145],[-8.52174,52.978105],[-8.521706,52.97806],[-8.521668,52.978009],[-8.521649,52.977983],[-8.521615,52.977964],[-8.521428,52.977965],[-8.521422,52.977968],[-8.521373,52.978036],[-8.521354,52.978063],[-8.521278,52.97809],[-8.521248,52.978101],[-8.521248,52.978101],[-8.521248,52.978101],[-8.521152,52.978087],[-8.52105,52.978073],[-8.520879,52.978012],[-8.520861,52.977992],[-8.520826,52.977952],[-8.520775,52.977939],[-8.520722,52.97795],[-8.520647,52.977976],[-8.520573,52.977968],[-8.520538,52.977965],[-8.52046,52.977936],[-8.518879,52.977943],[-8.518873,52.977484],[-8.51884,52.977485],[-8.518744,52.97757],[-8.518637,52.977586],[-8.51844,52.977623],[-8.51844,52.977623],[-8.518342,52.97762],[-8.518261,52.977564],[-8.518244,52.977541],[-8.518203,52.977485],[-8.518205,52.977439],[-8.518207,52.977412],[-8.518235,52.977313],[-8.518228,52.977304],[-8.518217,52.977289],[-8.518182,52.977283],[-8.518156,52.977297],[-8.518129,52.97731],[-8.517995,52.97742],[-8.517948,52.977446],[-8.517892,52.977476],[-8.517779,52.977483],[-8.517682,52.977497],[-8.517574,52.977512],[-8.517503,52.977546],[-8.517443,52.977575],[-8.517346,52.977617],[-8.517336,52.977621],[-8.51734,52.97763],[-8.517344,52.977638],[-8.517395,52.977663],[-8.517401,52.977667],[-8.517458,52.977697],[-8.517458,52.977697],[-8.517458,52.977697],[-8.517438,52.977754],[-8.517438,52.977754],[-8.517438,52.977754],[-8.517313,52.977822],[-8.517024,52.977848],[-8.51681,52.97785],[-8.516716,52.977839],[-8.516468,52.977809],[-8.516283,52.977808],[-8.516233,52.977845],[-8.516218,52.977856],[-8.516099,52.977898],[-8.516014,52.977929],[-8.515946,52.977931],[-8.515901,52.977932],[-8.515901,52.977956],[-8.51488,52.97796],[-8.514672,52.977996],[-8.514614,52.978024],[-8.514614,52.978024],[-8.514594,52.978022],[-8.514567,52.978019],[-8.514506,52.978],[-8.514488,52.977981],[-8.514483,52.977976],[-8.514471,52.977962],[-8.513316,52.977967],[-8.513265,52.977976],[-8.513195,52.977989],[-8.51314,52.977968],[-8.512812,52.977969],[-8.512813,52.978002],[-8.512445,52.978004],[-8.512441,52.978008],[-8.512422,52.978034],[-8.512419,52.978038],[-8.512393,52.978109],[-8.512383,52.978136],[-8.512377,52.978152],[-8.512374,52.978228],[-8.512369,52.978256],[-8.512361,52.978303],[-8.512331,52.978361],[-8.512364,52.978366],[-8.512505,52.978382],[-8.512551,52.978388],[-8.513138,52.978456],[-8.515055,52.978691],[-8.515053,52.978532],[-8.515499,52.97853],[-8.515502,52.978745],[-8.515929,52.978798],[-8.517736,52.97879],[-8.517739,52.979016],[-8.518086,52.979058],[-8.518633,52.979056],[-8.518633,52.979124],[-8.518839,52.979148],[-8.518913,52.979155],[-8.518913,52.979152],[-8.518912,52.97915],[-8.518858,52.978948],[-8.518788,52.978748],[-8.518771,52.978704],[-8.518695,52.978516],[-8.518626,52.978516],[-8.518624,52.978379],[-8.5186,52.978349],[-8.518601,52.978335],[-8.518601,52.978335],[-8.518601,52.978335]],[[-8.515049,52.978262],[-8.515053,52.978532],[-8.514606,52.978534],[-8.514603,52.978264],[-8.515049,52.978262]]],[[[-8.52747,52.979583],[-8.527455,52.979556],[-8.527126,52.979558],[-8.52713,52.979827],[-8.526683,52.979829],[-8.526689,52.980368],[-8.526243,52.98037],[-8.526246,52.98064],[-8.526249,52.98091],[-8.525803,52.980912],[-8.525809,52.981451],[-8.525812,52.98172],[-8.526259,52.981718],[-8.526256,52.981449],[-8.527149,52.981445],[-8.527146,52.981175],[-8.527593,52.981173],[-8.527589,52.980904],[-8.527143,52.980906],[-8.527136,52.980366],[-8.527133,52.980097],[-8.527762,52.980094],[-8.527623,52.9799],[-8.527588,52.979845],[-8.527466,52.979656],[-8.52747,52.979583]]],[[[-8.532242,52.980854],[-8.532056,52.98083],[-8.532057,52.980884],[-8.532449,52.980882],[-8.532402,52.980876],[-8.532242,52.980854]]],[[[-8.545925,52.982413],[-8.545861,52.982439],[-8.545925,52.982439],[-8.545925,52.982413]]],[[[-8.53206,52.981153],[-8.532057,52.980884],[-8.53161,52.980886],[-8.531613,52.981155],[-8.53206,52.981153]]]]}}]}
