{"type":"FeatureCollection","features":[{"type":"Feature","properties":{"source_fid":865673,"county":"Galway","bog_geom_ha":265.68705815146808,"low15_pct":92.163543441226579,"low15_ha":244.8666072571452,"overlay_ha":245.10110804450414,"area_delta":0.23450078735893953},"geometry":{"type":"MultiPolygon","coordinates":[[[[-9.641031,53.467884],[-9.640949,53.467973],[-9.642004,53.467959],[-9.641994,53.467689],[-9.642161,53.467687],[-9.642149,53.46737],[-9.640644,53.467391],[-9.640604,53.46636],[-9.640587,53.466361],[-9.640597,53.46663],[-9.640239,53.466635],[-9.640217,53.466695],[-9.640166,53.467107],[-9.640166,53.467256],[-9.640133,53.467473],[-9.640307,53.467617],[-9.640663,53.467749],[-9.641031,53.467884]]],[[[-9.640479,53.466038],[-9.640455,53.466093],[-9.640576,53.466091],[-9.64057,53.46594],[-9.640479,53.466038]]],[[[-9.678455,53.477855],[-9.678475,53.477617],[-9.678475,53.477369],[-9.678475,53.477303],[-9.678474,53.477094],[-9.678501,53.476785],[-9.678522,53.47654],[-9.678535,53.476098],[-9.678536,53.476065],[-9.678556,53.475646],[-9.678581,53.475295],[-9.678595,53.475099],[-9.678628,53.474642],[-9.678634,53.474537],[-9.67865,53.47425],[-9.678662,53.474086],[-9.678665,53.474033],[-9.678676,53.473877],[-9.678693,53.473757],[-9.678698,53.473648],[-9.678711,53.473344],[-9.678707,53.473084],[-9.678707,53.473074],[-9.678707,53.473043],[-9.6787,53.473006],[-9.678562,53.472688],[-9.678454,53.47244],[-9.678317,53.472089],[-9.678358,53.473116],[-9.677906,53.473122],[-9.677864,53.472044],[-9.677412,53.472051],[-9.677391,53.471512],[-9.67738,53.471242],[-9.677832,53.471236],[-9.677843,53.471505],[-9.678079,53.471502],[-9.677982,53.471267],[-9.677612,53.470367],[-9.677278,53.469515],[-9.677105,53.469073],[-9.677039,53.468914],[-9.676922,53.468628],[-9.67682,53.468376],[-9.676734,53.468166],[-9.676663,53.467957],[-9.676611,53.467901],[-9.676333,53.467598],[-9.676339,53.467752],[-9.675887,53.467758],[-9.675877,53.467489],[-9.673618,53.46752],[-9.673629,53.46779],[-9.670919,53.467828],[-9.670909,53.467558],[-9.670005,53.467571],[-9.669995,53.467301],[-9.669543,53.467308],[-9.669534,53.46707],[-9.66947,53.467057],[-9.669328,53.466999],[-9.669317,53.466994],[-9.669241,53.466995],[-9.669224,53.466559],[-9.669186,53.46657],[-9.669062,53.466562],[-9.66907,53.466775],[-9.668167,53.466788],[-9.668188,53.467326],[-9.667737,53.467333],[-9.667716,53.466794],[-9.66771,53.466642],[-9.667191,53.466677],[-9.666829,53.466672],[-9.666638,53.466615],[-9.666416,53.466541],[-9.666213,53.46646],[-9.666071,53.466397],[-9.665958,53.466297],[-9.66587,53.466099],[-9.665806,53.465996],[-9.665741,53.465844],[-9.665705,53.465743],[-9.665415,53.465747],[-9.665405,53.465478],[-9.665394,53.465208],[-9.666297,53.465196],[-9.666308,53.465459],[-9.666433,53.465431],[-9.666927,53.46527],[-9.666873,53.465082],[-9.666859,53.465036],[-9.666689,53.464979],[-9.666402,53.464882],[-9.666399,53.464881],[-9.666113,53.464888],[-9.665967,53.464802],[-9.665821,53.464591],[-9.665816,53.464584],[-9.665765,53.46451],[-9.665685,53.464395],[-9.665362,53.4644],[-9.665352,53.46413],[-9.6655,53.464128],[-9.665392,53.463973],[-9.665346,53.463908],[-9.665254,53.463775],[-9.665216,53.463722],[-9.665206,53.463708],[-9.665199,53.463665],[-9.665173,53.463501],[-9.66517,53.463482],[-9.665162,53.463436],[-9.665444,53.463142],[-9.665482,53.463103],[-9.665509,53.463075],[-9.665725,53.462844],[-9.665812,53.46275],[-9.665921,53.462638],[-9.665285,53.462425],[-9.665289,53.462513],[-9.663934,53.462532],[-9.663923,53.462263],[-9.663472,53.462269],[-9.663461,53.462],[-9.66301,53.462006],[-9.662999,53.461736],[-9.663214,53.461733],[-9.663115,53.461701],[-9.663021,53.461651],[-9.661955,53.461275],[-9.661251,53.461034],[-9.661185,53.461012],[-9.661181,53.461011],[-9.661174,53.460986],[-9.661162,53.460981],[-9.661172,53.461223],[-9.660269,53.461235],[-9.660258,53.460966],[-9.659355,53.460978],[-9.659345,53.460709],[-9.658893,53.460715],[-9.658882,53.460446],[-9.658872,53.460176],[-9.65842,53.460182],[-9.65841,53.459913],[-9.658729,53.459908],[-9.658634,53.459869],[-9.658346,53.459748],[-9.658257,53.459722],[-9.657734,53.459652],[-9.657347,53.459602],[-9.656784,53.459525],[-9.656435,53.459475],[-9.656132,53.459432],[-9.656142,53.459675],[-9.654787,53.459693],[-9.654777,53.459424],[-9.65297,53.459449],[-9.65296,53.459179],[-9.652057,53.459192],[-9.652046,53.458922],[-9.652045,53.458894],[-9.651874,53.458894],[-9.651091,53.458887],[-9.650554,53.458865],[-9.64995,53.458838],[-9.649395,53.458825],[-9.648868,53.458817],[-9.648868,53.458817],[-9.648785,53.458815],[-9.648655,53.458798],[-9.648516,53.45878],[-9.64846,53.458768],[-9.648451,53.4588],[-9.64845,53.458802],[-9.648449,53.458804],[-9.648448,53.458806],[-9.648447,53.458807],[-9.648445,53.458809],[-9.648445,53.458809],[-9.648392,53.458855],[-9.648363,53.45888],[-9.648361,53.458882],[-9.648359,53.458883],[-9.648357,53.458885],[-9.648354,53.458886],[-9.648352,53.458887],[-9.64835,53.458887],[-9.64833,53.458894],[-9.648248,53.458945],[-9.648156,53.45896],[-9.648148,53.458976],[-9.648885,53.458966],[-9.648896,53.459236],[-9.648444,53.459242],[-9.648455,53.459511],[-9.648906,53.459505],[-9.648917,53.459775],[-9.647562,53.459793],[-9.647573,53.460063],[-9.647121,53.460069],[-9.647131,53.460339],[-9.64668,53.460345],[-9.64669,53.460614],[-9.646239,53.46062],[-9.646249,53.46089],[-9.645798,53.460896],[-9.645808,53.461166],[-9.645357,53.461172],[-9.645377,53.461711],[-9.644926,53.461717],[-9.644936,53.461987],[-9.64313,53.462011],[-9.643126,53.461909],[-9.643005,53.461967],[-9.642555,53.462441],[-9.642452,53.462715],[-9.642362,53.462839],[-9.642314,53.463073],[-9.642307,53.463101],[-9.64272,53.463096],[-9.64273,53.463365],[-9.642279,53.463371],[-9.642294,53.463774],[-9.643515,53.463757],[-9.64355,53.464655],[-9.645039,53.464635],[-9.64503,53.464412],[-9.645046,53.464412],[-9.64502,53.463736],[-9.646525,53.463716],[-9.64656,53.464614],[-9.645942,53.464622],[-9.645944,53.464669],[-9.645057,53.464681],[-9.64509,53.465532],[-9.646428,53.465514],[-9.646426,53.465471],[-9.646878,53.465465],[-9.646889,53.465735],[-9.646604,53.465738],[-9.64663,53.46641],[-9.648135,53.466389],[-9.648169,53.467287],[-9.648756,53.467279],[-9.648747,53.467057],[-9.649199,53.467051],[-9.649207,53.467273],[-9.649675,53.467266],[-9.649687,53.467583],[-9.650123,53.467577],[-9.650102,53.467038],[-9.651005,53.467026],[-9.651026,53.467565],[-9.651478,53.467559],[-9.651499,53.468098],[-9.651509,53.468367],[-9.65152,53.468637],[-9.65153,53.468906],[-9.651982,53.4689],[-9.651987,53.469032],[-9.652755,53.469021],[-9.65276,53.469159],[-9.652896,53.469157],[-9.652906,53.469426],[-9.65277,53.469428],[-9.652802,53.470237],[-9.652938,53.470235],[-9.652948,53.470504],[-9.6534,53.470498],[-9.65341,53.470768],[-9.653412,53.470809],[-9.654315,53.470797],[-9.654314,53.470755],[-9.655669,53.470736],[-9.65567,53.470778],[-9.655835,53.470776],[-9.655812,53.470195],[-9.655196,53.470204],[-9.655185,53.469934],[-9.654734,53.46994],[-9.654723,53.469671],[-9.655791,53.469656],[-9.655765,53.468979],[-9.65727,53.468959],[-9.6572,53.467162],[-9.65824,53.467148],[-9.658221,53.466656],[-9.658673,53.46665],[-9.658692,53.467142],[-9.658705,53.467141],[-9.658739,53.467997],[-9.659177,53.467991],[-9.659166,53.467722],[-9.659618,53.467715],[-9.659628,53.467985],[-9.66008,53.467979],[-9.660082,53.468021],[-9.660245,53.468019],[-9.660265,53.468515],[-9.660553,53.468511],[-9.660563,53.468781],[-9.660574,53.46905],[-9.660286,53.469054],[-9.660296,53.469324],[-9.661036,53.469314],[-9.661046,53.469583],[-9.661057,53.469853],[-9.661509,53.469846],[-9.66153,53.470385],[-9.66154,53.470655],[-9.660637,53.470667],[-9.660626,53.470398],[-9.659723,53.47041],[-9.659734,53.47068],[-9.660185,53.470674],[-9.660196,53.470943],[-9.659292,53.470956],[-9.659313,53.471495],[-9.659324,53.471764],[-9.659776,53.471758],[-9.659786,53.472027],[-9.660238,53.472021],[-9.660248,53.472291],[-9.660412,53.472288],[-9.660386,53.471611],[-9.660674,53.471607],[-9.660668,53.471476],[-9.660217,53.471482],[-9.660206,53.471213],[-9.66111,53.4712],[-9.66112,53.471469],[-9.662023,53.471457],[-9.662045,53.471996],[-9.662055,53.472265],[-9.662507,53.472259],[-9.662517,53.472529],[-9.662528,53.472798],[-9.661938,53.472806],[-9.661982,53.473927],[-9.661999,53.473938],[-9.661997,53.473943],[-9.662075,53.473959],[-9.662161,53.473976],[-9.662308,53.474008],[-9.662332,53.474016],[-9.66242,53.474046],[-9.662508,53.474102],[-9.662567,53.474139],[-9.662593,53.474153],[-9.662668,53.474194],[-9.662686,53.474197],[-9.662702,53.4742],[-9.662915,53.474185],[-9.663048,53.47409],[-9.663088,53.474061],[-9.663153,53.474047],[-9.663301,53.473994],[-9.663886,53.473823],[-9.664267,53.473712],[-9.664267,53.473712],[-9.664144,53.473514],[-9.664078,53.473407],[-9.664078,53.473407],[-9.664078,53.473407],[-9.66442,53.473376],[-9.664636,53.473356],[-9.664651,53.473382],[-9.664666,53.473408],[-9.664688,53.473416],[-9.664708,53.473423],[-9.664734,53.473418],[-9.664784,53.473399],[-9.664792,53.473395],[-9.664827,53.473378],[-9.664867,53.473377],[-9.664907,53.473377],[-9.664907,53.473377],[-9.664907,53.473377],[-9.664967,53.473443],[-9.664967,53.473444],[-9.664992,53.473453],[-9.665055,53.473477],[-9.665105,53.473484],[-9.665113,53.473485],[-9.66512,53.473485],[-9.665187,53.473481],[-9.665216,53.473476],[-9.665246,53.47347],[-9.665363,53.473465],[-9.665363,53.473465],[-9.665395,53.473469],[-9.665524,53.473483],[-9.665533,53.473486],[-9.665551,53.473492],[-9.665551,53.473492],[-9.665551,53.473492],[-9.665531,53.473509],[-9.665475,53.473556],[-9.665473,53.47356],[-9.66547,53.473568],[-9.665489,53.473624],[-9.665494,53.473639],[-9.665488,53.473659],[-9.665455,53.473693],[-9.665419,53.47373],[-9.665419,53.47373],[-9.665419,53.47373],[-9.665412,53.473732],[-9.66539,53.473741],[-9.665003,53.473762],[-9.664924,53.473787],[-9.664922,53.473791],[-9.664915,53.473801],[-9.664891,53.473895],[-9.664867,53.473914],[-9.664722,53.473996],[-9.664704,53.474009],[-9.664596,53.474106],[-9.664543,53.474151],[-9.66448,53.474203],[-9.664392,53.474243],[-9.664393,53.47427],[-9.664398,53.474279],[-9.664402,53.474288],[-9.664454,53.474356],[-9.664478,53.474418],[-9.664484,53.474432],[-9.664492,53.474448],[-9.664503,53.474465],[-9.664525,53.474497],[-9.664525,53.474517],[-9.664428,53.474609],[-9.664203,53.474701],[-9.664174,53.474729],[-9.664167,53.474736],[-9.664141,53.474749],[-9.663997,53.474789],[-9.663994,53.474791],[-9.663986,53.474797],[-9.66398,53.474816],[-9.663961,53.474875],[-9.663961,53.474876],[-9.663962,53.47489],[-9.664018,53.475003],[-9.66402,53.475023],[-9.663998,53.475096],[-9.663981,53.475153],[-9.664031,53.475247],[-9.664086,53.475333],[-9.664085,53.475352],[-9.664134,53.47537],[-9.664262,53.475515],[-9.664545,53.475951],[-9.664474,53.475982],[-9.66437,53.476028],[-9.66439,53.476048],[-9.666583,53.476018],[-9.666623,53.477055],[-9.667214,53.477047],[-9.667224,53.477316],[-9.666634,53.477325],[-9.666653,53.477814],[-9.668158,53.477793],[-9.668229,53.479589],[-9.668299,53.481385],[-9.668889,53.481377],[-9.668905,53.481323],[-9.668911,53.481262],[-9.6689,53.481208],[-9.668821,53.481143],[-9.668753,53.481098],[-9.668697,53.480992],[-9.66886,53.480881],[-9.668893,53.480735],[-9.668893,53.480725],[-9.668893,53.480701],[-9.668872,53.480638],[-9.66892,53.480618],[-9.66903,53.480668],[-9.669068,53.480648],[-9.669219,53.480593],[-9.6693,53.480558],[-9.669406,53.480562],[-9.669465,53.480563],[-9.669485,53.480678],[-9.669539,53.480702],[-9.669577,53.48062],[-9.669594,53.480601],[-9.669641,53.480605],[-9.669766,53.480577],[-9.669938,53.480479],[-9.669971,53.480462],[-9.670027,53.480433],[-9.670031,53.480382],[-9.670043,53.480353],[-9.670096,53.480294],[-9.670195,53.480251],[-9.670416,53.48016],[-9.670436,53.480153],[-9.670447,53.480142],[-9.670479,53.480111],[-9.670461,53.479785],[-9.670494,53.479737],[-9.670527,53.479732],[-9.670745,53.4797],[-9.670805,53.479666],[-9.670841,53.479636],[-9.670855,53.479623],[-9.670868,53.479611],[-9.670881,53.4796],[-9.670894,53.47959],[-9.670907,53.47958],[-9.670921,53.479571],[-9.670936,53.479561],[-9.67095,53.47955],[-9.670963,53.479537],[-9.670975,53.479522],[-9.670984,53.479505],[-9.670992,53.479488],[-9.670997,53.479471],[-9.671,53.479456],[-9.671001,53.479441],[-9.670999,53.479426],[-9.670997,53.479409],[-9.670994,53.479393],[-9.670993,53.479375],[-9.670989,53.47937],[-9.671124,53.479342],[-9.671208,53.479338],[-9.671363,53.479344],[-9.671388,53.479338],[-9.671393,53.479335],[-9.671451,53.479297],[-9.671692,53.479116],[-9.671899,53.478966],[-9.672123,53.478813],[-9.672202,53.478769],[-9.672256,53.47874],[-9.67234,53.478688],[-9.672502,53.478679],[-9.672745,53.478733],[-9.672969,53.478686],[-9.673017,53.478676],[-9.673298,53.478637],[-9.673407,53.478622],[-9.67342,53.478618],[-9.67271,53.478628],[-9.672675,53.47773],[-9.67418,53.477709],[-9.674209,53.478427],[-9.674227,53.478421],[-9.674469,53.478355],[-9.674593,53.47839],[-9.674673,53.478428],[-9.674783,53.478471],[-9.674824,53.47848],[-9.674891,53.478506],[-9.674956,53.478534],[-9.675008,53.478577],[-9.675048,53.478652],[-9.675056,53.478708],[-9.675054,53.478822],[-9.674935,53.479],[-9.674893,53.479073],[-9.675012,53.479139],[-9.675168,53.479276],[-9.675285,53.479459],[-9.675315,53.479506],[-9.675402,53.479649],[-9.675428,53.479657],[-9.675532,53.479666],[-9.675698,53.479593],[-9.675738,53.479576],[-9.675904,53.479502],[-9.67602,53.479492],[-9.676041,53.479488],[-9.676204,53.479509],[-9.676444,53.47955],[-9.676497,53.479572],[-9.676505,53.479579],[-9.676572,53.479586],[-9.676701,53.479518],[-9.676729,53.479496],[-9.676952,53.479495],[-9.677086,53.479559],[-9.677306,53.479565],[-9.677463,53.479567],[-9.677672,53.479581],[-9.677853,53.479561],[-9.677946,53.479552],[-9.678065,53.479569],[-9.67827,53.479575],[-9.678409,53.479532],[-9.678582,53.479542],[-9.678582,53.479542],[-9.678736,53.479551],[-9.678785,53.479552],[-9.678785,53.479531],[-9.678979,53.479531],[-9.678975,53.479517],[-9.678966,53.479482],[-9.678942,53.479392],[-9.678878,53.479129],[-9.678786,53.478865],[-9.678656,53.478531],[-9.678573,53.478251],[-9.67855,53.478174],[-9.678538,53.478135],[-9.678469,53.477903],[-9.678455,53.477855]],[[-9.661561,53.471194],[-9.66154,53.470655],[-9.661992,53.470648],[-9.662013,53.471187],[-9.661561,53.471194]],[[-9.652917,53.469696],[-9.652906,53.469426],[-9.653358,53.46942],[-9.653368,53.46969],[-9.652917,53.469696]],[[-9.672819,53.470179],[-9.672932,53.470129],[-9.672985,53.47007],[-9.673137,53.470073],[-9.67325,53.47016],[-9.673235,53.470324],[-9.673255,53.470344],[-9.673256,53.470366],[-9.673222,53.470372],[-9.673238,53.470389],[-9.673266,53.470397],[-9.673273,53.470425],[-9.673317,53.470424],[-9.673324,53.470441],[-9.673304,53.470469],[-9.673318,53.470504],[-9.67341,53.47058],[-9.673413,53.470658],[-9.673583,53.470689],[-9.673585,53.470948],[-9.673599,53.470988],[-9.673523,53.470979],[-9.673401,53.470998],[-9.673403,53.471049],[-9.673421,53.471081],[-9.673444,53.471116],[-9.673546,53.471152],[-9.673339,53.471253],[-9.673244,53.471179],[-9.672952,53.471156],[-9.672856,53.471112],[-9.672864,53.471306],[-9.672412,53.471312],[-9.672401,53.471042],[-9.672717,53.471038],[-9.6727,53.470968],[-9.672639,53.470926],[-9.672589,53.470725],[-9.672488,53.470619],[-9.672514,53.470535],[-9.672516,53.47049],[-9.672476,53.470435],[-9.672378,53.470401],[-9.672321,53.470349],[-9.67243,53.47033],[-9.672527,53.470329],[-9.672633,53.470247],[-9.672684,53.47023],[-9.67237,53.470234],[-9.672359,53.469965],[-9.672811,53.469958],[-9.672819,53.470179]],[[-9.67238,53.470504],[-9.672401,53.471042],[-9.67195,53.471049],[-9.671928,53.47051],[-9.67238,53.470504]],[[-9.676532,53.478408],[-9.676575,53.478409],[-9.676632,53.478425],[-9.676665,53.47844],[-9.676688,53.478488],[-9.676668,53.478532],[-9.676633,53.478598],[-9.676554,53.47864],[-9.676476,53.478676],[-9.676396,53.478695],[-9.676216,53.478701],[-9.676193,53.478688],[-9.676129,53.47869],[-9.676092,53.478671],[-9.675927,53.478672],[-9.675866,53.478668],[-9.675745,53.478646],[-9.67569,53.478617],[-9.675605,53.478508],[-9.675669,53.47844],[-9.675729,53.478402],[-9.675815,53.478378],[-9.67593,53.47837],[-9.675976,53.478369],[-9.676055,53.478355],[-9.676162,53.478357],[-9.676305,53.478378],[-9.676397,53.478412],[-9.676492,53.47841],[-9.676532,53.478408]],[[-9.665941,53.467627],[-9.66593,53.467358],[-9.665479,53.467364],[-9.665468,53.467095],[-9.666371,53.467082],[-9.666382,53.467352],[-9.667285,53.467339],[-9.667296,53.467609],[-9.665941,53.467627]],[[-9.67009,53.469727],[-9.670079,53.469457],[-9.670531,53.469451],[-9.670542,53.46972],[-9.67009,53.469727]],[[-9.667906,53.471645],[-9.667895,53.471375],[-9.668347,53.471369],[-9.668357,53.471638],[-9.667906,53.471645]],[[-9.672444,53.47212],[-9.671992,53.472127],[-9.671981,53.471857],[-9.672433,53.471851],[-9.672444,53.47212]],[[-9.671089,53.472139],[-9.671992,53.472127],[-9.672003,53.472396],[-9.671099,53.472409],[-9.671089,53.472139]],[[-9.670648,53.472415],[-9.671099,53.472409],[-9.67112,53.472948],[-9.670669,53.472954],[-9.670648,53.472415]],[[-9.677014,53.473405],[-9.677003,53.473135],[-9.677455,53.473129],[-9.677465,53.473398],[-9.677014,53.473405]],[[-9.671142,53.473487],[-9.67069,53.473493],[-9.670679,53.473224],[-9.671131,53.473217],[-9.671142,53.473487]],[[-9.669787,53.473506],[-9.67069,53.473493],[-9.6707,53.473763],[-9.670249,53.473769],[-9.670259,53.474038],[-9.669356,53.474051],[-9.669345,53.473782],[-9.669797,53.473775],[-9.669787,53.473506]],[[-9.667528,53.473537],[-9.667539,53.473807],[-9.666635,53.473819],[-9.666625,53.47355],[-9.666173,53.473556],[-9.666162,53.473287],[-9.667066,53.473274],[-9.667076,53.473544],[-9.667528,53.473537]],[[-9.667549,53.474076],[-9.667539,53.473807],[-9.66799,53.4738],[-9.668001,53.47407],[-9.667549,53.474076]],[[-9.668011,53.474339],[-9.668001,53.47407],[-9.668904,53.474057],[-9.668915,53.474327],[-9.668011,53.474339]],[[-9.674787,53.474245],[-9.674335,53.474251],[-9.674325,53.473982],[-9.674776,53.473975],[-9.674787,53.474245]],[[-9.673884,53.474257],[-9.674335,53.474251],[-9.674346,53.474521],[-9.673894,53.474527],[-9.673884,53.474257]],[[-9.669398,53.475129],[-9.669388,53.47486],[-9.670291,53.474847],[-9.670302,53.475116],[-9.669398,53.475129]],[[-9.669861,53.475392],[-9.670312,53.475386],[-9.670323,53.475655],[-9.669871,53.475662],[-9.669861,53.475392]],[[-9.668968,53.475674],[-9.669419,53.475668],[-9.66943,53.475937],[-9.668978,53.475944],[-9.668968,53.475674]],[[-9.659534,53.46556],[-9.659513,53.465021],[-9.659964,53.465014],[-9.659985,53.465553],[-9.659534,53.46556]],[[-9.664586,53.467646],[-9.664565,53.467107],[-9.665016,53.467101],[-9.665037,53.46764],[-9.664586,53.467646]],[[-9.6657,53.473024],[-9.66569,53.472754],[-9.666141,53.472748],[-9.666152,53.473017],[-9.6657,53.473024]],[[-9.662549,53.473337],[-9.663001,53.473331],[-9.663011,53.4736],[-9.662559,53.473607],[-9.662549,53.473337]],[[-9.655847,53.463723],[-9.655858,53.463993],[-9.655406,53.463999],[-9.655396,53.46373],[-9.654493,53.463742],[-9.654482,53.463473],[-9.654031,53.463479],[-9.65402,53.463209],[-9.654923,53.463197],[-9.654934,53.463466],[-9.655837,53.463454],[-9.655847,53.463723]],[[-9.656351,53.465064],[-9.656341,53.464795],[-9.656793,53.464789],[-9.656803,53.465058],[-9.656351,53.465064]],[[-9.653243,53.466456],[-9.653232,53.466186],[-9.653222,53.465917],[-9.653673,53.46591],[-9.653684,53.46618],[-9.654135,53.466174],[-9.654146,53.466443],[-9.653243,53.466456]],[[-9.655994,53.467496],[-9.655973,53.466957],[-9.656425,53.466951],[-9.656446,53.46749],[-9.655994,53.467496]],[[-9.653747,53.467797],[-9.654198,53.467791],[-9.654209,53.46806],[-9.653757,53.468066],[-9.653747,53.467797]],[[-9.655616,53.469389],[-9.655164,53.469395],[-9.655143,53.468856],[-9.654692,53.468862],[-9.654681,53.468593],[-9.655585,53.46858],[-9.655595,53.46885],[-9.655616,53.469389]]],[[[-9.658915,53.47253],[-9.659354,53.472524],[-9.659345,53.472303],[-9.658907,53.472309],[-9.658915,53.47253]]],[[[-9.660152,53.469817],[-9.6597,53.469823],[-9.659702,53.469871],[-9.660154,53.469865],[-9.660152,53.469817]]],[[[-9.649709,53.468165],[-9.650146,53.468159],[-9.650144,53.468116],[-9.649708,53.468122],[-9.649709,53.468165]]],[[[-9.642026,53.464184],[-9.642016,53.463914],[-9.641848,53.463916],[-9.641842,53.463772],[-9.64171,53.463985],[-9.641639,53.464189],[-9.642026,53.464184]]],[[[-9.64208,53.465574],[-9.642036,53.464453],[-9.641869,53.464455],[-9.641879,53.464725],[-9.641635,53.464728],[-9.641644,53.46477],[-9.64165,53.464796],[-9.641708,53.46506],[-9.641449,53.46524],[-9.641435,53.46527],[-9.6419,53.465264],[-9.64191,53.465533],[-9.641912,53.465576],[-9.64208,53.465574]]],[[[-9.642269,53.463245],[-9.642123,53.463373],[-9.642279,53.463371],[-9.642273,53.46323],[-9.642269,53.463245]]],[[[-9.644903,53.461117],[-9.64486,53.461179],[-9.644905,53.461178],[-9.644903,53.461117]]],[[[-9.645183,53.460804],[-9.645089,53.460906],[-9.645346,53.460902],[-9.645338,53.460689],[-9.645279,53.460703],[-9.645183,53.460804]]],[[[-9.645786,53.460585],[-9.645596,53.460629],[-9.645787,53.460627],[-9.645786,53.460585]]],[[[-9.646224,53.460246],[-9.646182,53.460352],[-9.646228,53.460351],[-9.646224,53.460246]]],[[[-9.646386,53.460027],[-9.646311,53.46008],[-9.646669,53.460075],[-9.646664,53.459939],[-9.646646,53.459941],[-9.646461,53.459951],[-9.646386,53.460027]]],[[[-9.647373,53.45945],[-9.64736,53.459526],[-9.647552,53.459524],[-9.647545,53.459354],[-9.647515,53.459387],[-9.647453,53.459426],[-9.647373,53.45945]]],[[[-9.647659,53.459227],[-9.647635,53.459253],[-9.647993,53.459248],[-9.647985,53.459055],[-9.647792,53.459132],[-9.647659,53.459227]]],[[[-9.65523,53.459301],[-9.655224,53.459301],[-9.655228,53.459418],[-9.655961,53.459408],[-9.655828,53.459388],[-9.6556,53.459356],[-9.65523,53.459301]]],[[[-9.659078,53.460058],[-9.658864,53.459965],[-9.658872,53.460176],[-9.659324,53.46017],[-9.659323,53.460162],[-9.659078,53.460058]]],[[[-9.659944,53.460431],[-9.659783,53.460363],[-9.659786,53.460433],[-9.659944,53.460431]]],[[[-9.660492,53.460682],[-9.660243,53.460566],[-9.660248,53.460696],[-9.660515,53.460692],[-9.660492,53.460682]]],[[[-9.660763,53.460807],[-9.660703,53.460779],[-9.66071,53.460959],[-9.661101,53.460954],[-9.660841,53.460842],[-9.660803,53.460825],[-9.660763,53.460807]]],[[[-9.663989,53.461992],[-9.663454,53.461814],[-9.663461,53.462],[-9.663989,53.461992]]],[[[-9.664763,53.462251],[-9.66437,53.46212],[-9.664375,53.462257],[-9.664763,53.462251]]],[[[-9.666169,53.465491],[-9.666281,53.465466],[-9.665856,53.465472],[-9.665857,53.465496],[-9.666169,53.465491]]],[[[-9.675401,53.466894],[-9.675299,53.466957],[-9.675746,53.466951],[-9.675704,53.466906],[-9.675629,53.466829],[-9.675601,53.466799],[-9.675401,53.466894]]],[[[-9.675986,53.467217],[-9.67586,53.467076],[-9.675866,53.467219],[-9.675986,53.467217]]],[[[-9.660198,53.480936],[-9.660135,53.48096],[-9.660156,53.481499],[-9.660771,53.48149],[-9.660701,53.479694],[-9.660666,53.478796],[-9.659331,53.478814],[-9.659373,53.478839],[-9.659384,53.478841],[-9.659444,53.478841],[-9.659601,53.478863],[-9.659705,53.47894],[-9.65972,53.479049],[-9.659801,53.479188],[-9.659873,53.479306],[-9.66007,53.479304],[-9.660081,53.479573],[-9.660083,53.479638],[-9.660087,53.479644],[-9.660084,53.479649],[-9.660091,53.479842],[-9.660101,53.480092],[-9.660226,53.480301],[-9.660145,53.480371],[-9.660113,53.480394],[-9.660123,53.480651],[-9.659841,53.480655],[-9.659819,53.480761],[-9.659986,53.480812],[-9.660104,53.480835],[-9.660198,53.480936]]],[[[-9.65679,53.484487],[-9.656864,53.484406],[-9.657105,53.484343],[-9.657125,53.484328],[-9.657145,53.484315],[-9.657268,53.484235],[-9.656359,53.484247],[-9.655977,53.484252],[-9.656039,53.484326],[-9.656172,53.484486],[-9.65631,53.484478],[-9.656689,53.484509],[-9.65679,53.484487]]]]}}]}
