{"type":"FeatureCollection","features":[{"type":"Feature","properties":{"source_fid":893755,"county":"Galway","bog_geom_ha":236.46660624495939,"low15_pct":100.0,"low15_ha":236.46660624495939,"overlay_ha":236.46660624495939,"area_delta":0.0},"geometry":{"type":"MultiPolygon","coordinates":[[[[-9.559204,53.300627],[-9.558952,53.300627],[-9.558948,53.300644],[-9.558943,53.300665],[-9.558943,53.300665],[-9.558951,53.300689],[-9.558951,53.300689],[-9.558951,53.300689],[-9.558942,53.300694],[-9.558908,53.300692],[-9.558909,53.300682],[-9.55887,53.300674],[-9.558831,53.300679],[-9.558792,53.30069],[-9.558765,53.300723],[-9.558744,53.300753],[-9.558724,53.300769],[-9.558702,53.300786],[-9.558698,53.30079],[-9.558655,53.30084],[-9.558663,53.300886],[-9.55868,53.300924],[-9.558733,53.300965],[-9.558751,53.300992],[-9.558756,53.301021],[-9.558781,53.30107],[-9.558821,53.301099],[-9.558855,53.301143],[-9.558913,53.301155],[-9.558961,53.301154],[-9.559018,53.30117],[-9.559077,53.301181],[-9.559152,53.301217],[-9.559189,53.301231],[-9.559151,53.301259],[-9.559184,53.301265],[-9.559217,53.30126],[-9.559247,53.301276],[-9.559263,53.301301],[-9.559282,53.301324],[-9.559289,53.301327],[-9.559315,53.301341],[-9.559315,53.301341],[-9.559315,53.301341],[-9.559309,53.301351],[-9.559294,53.301367],[-9.559294,53.301367],[-9.559294,53.301367],[-9.559243,53.301368],[-9.559213,53.301389],[-9.559183,53.301423],[-9.559172,53.301439],[-9.559172,53.301439],[-9.559172,53.301439],[-9.559119,53.301461],[-9.559118,53.301461],[-9.558992,53.301467],[-9.558991,53.301467],[-9.558876,53.301518],[-9.558815,53.301533],[-9.558766,53.301571],[-9.558751,53.301585],[-9.558751,53.301585],[-9.558751,53.301585],[-9.558639,53.301608],[-9.558558,53.301625],[-9.558584,53.301678],[-9.558542,53.301705],[-9.558542,53.301705],[-9.558542,53.301705],[-9.558496,53.301715],[-9.558426,53.301732],[-9.558356,53.301731],[-9.558275,53.301734],[-9.558214,53.301756],[-9.558152,53.301778],[-9.558152,53.301778],[-9.558025,53.301796],[-9.558025,53.301796],[-9.558014,53.30182],[-9.558023,53.301852],[-9.558041,53.301908],[-9.558029,53.301994],[-9.558031,53.30205],[-9.558042,53.302122],[-9.558005,53.302169],[-9.557968,53.302212],[-9.557969,53.302247],[-9.557967,53.302298],[-9.557969,53.302329],[-9.557947,53.302359],[-9.557947,53.302359],[-9.557909,53.302385],[-9.557867,53.302414],[-9.557867,53.302414],[-9.557867,53.302414],[-9.557867,53.302414],[-9.557825,53.302429],[-9.557747,53.302427],[-9.557687,53.302463],[-9.557709,53.302528],[-9.557737,53.302549],[-9.557783,53.302541],[-9.557836,53.302503],[-9.557862,53.302477],[-9.557862,53.302477],[-9.557862,53.302477],[-9.557895,53.302514],[-9.557955,53.302557],[-9.558018,53.30258],[-9.558062,53.302614],[-9.558068,53.302677],[-9.558096,53.302688],[-9.558165,53.30275],[-9.558204,53.302759],[-9.558228,53.302768],[-9.558201,53.302817],[-9.558188,53.302843],[-9.558186,53.302883],[-9.558203,53.302924],[-9.558203,53.302924],[-9.558215,53.302947],[-9.558222,53.302961],[-9.558262,53.303035],[-9.558267,53.303068],[-9.558245,53.303096],[-9.558227,53.303138],[-9.558229,53.30319],[-9.558243,53.303236],[-9.558256,53.303282],[-9.558281,53.303317],[-9.558317,53.303342],[-9.558391,53.303348],[-9.558454,53.303359],[-9.558478,53.303389],[-9.558472,53.303426],[-9.558427,53.303471],[-9.558422,53.303478],[-9.558405,53.303499],[-9.558418,53.303534],[-9.558481,53.303559],[-9.55856,53.303593],[-9.558617,53.303657],[-9.558619,53.303701],[-9.558594,53.303753],[-9.558594,53.303753],[-9.558594,53.303753],[-9.558548,53.303772],[-9.558487,53.303787],[-9.558382,53.303787],[-9.558315,53.303767],[-9.558259,53.303723],[-9.558227,53.303712],[-9.558184,53.303712],[-9.558148,53.303678],[-9.558147,53.30365],[-9.558095,53.303623],[-9.558065,53.30364],[-9.55803,53.303652],[-9.557983,53.303638],[-9.557934,53.303663],[-9.557892,53.303698],[-9.557892,53.303698],[-9.557892,53.303698],[-9.557858,53.303713],[-9.557772,53.303714],[-9.557702,53.303694],[-9.557653,53.30365],[-9.557455,53.303642],[-9.557374,53.303661],[-9.557311,53.303648],[-9.557275,53.303632],[-9.557264,53.303553],[-9.557244,53.30353],[-9.557158,53.303527],[-9.557109,53.303542],[-9.557115,53.303612],[-9.557145,53.303669],[-9.557111,53.303696],[-9.557081,53.303724],[-9.557081,53.303724],[-9.557081,53.303724],[-9.557011,53.30372],[-9.556979,53.303702],[-9.556921,53.303703],[-9.556871,53.303727],[-9.556786,53.303728],[-9.556642,53.303757],[-9.556615,53.303802],[-9.556611,53.303836],[-9.556618,53.303899],[-9.556588,53.304046],[-9.556584,53.304102],[-9.556598,53.304162],[-9.556623,53.304218],[-9.556619,53.304271],[-9.556516,53.304339],[-9.556441,53.304375],[-9.55638,53.304488],[-9.556369,53.304668],[-9.556356,53.304795],[-9.55636,53.304886],[-9.556385,53.304949],[-9.556421,53.304974],[-9.5594,53.304935],[-9.559413,53.305279],[-9.559529,53.305292],[-9.559757,53.305402],[-9.559843,53.305513],[-9.559794,53.30563],[-9.559686,53.305884],[-9.559537,53.306161],[-9.559425,53.306585],[-9.559111,53.308382],[-9.559048,53.308439],[-9.559007,53.308477],[-9.558987,53.308495],[-9.556592,53.310208],[-9.556646,53.311703],[-9.556674,53.311725],[-9.556718,53.311774],[-9.556748,53.311812],[-9.556766,53.311871],[-9.556786,53.311965],[-9.556801,53.312025],[-9.556834,53.312071],[-9.556914,53.312129],[-9.557169,53.312262],[-9.557258,53.312317],[-9.557336,53.312366],[-9.55737,53.312417],[-9.557372,53.312463],[-9.55739,53.312613],[-9.557384,53.312717],[-9.557438,53.312786],[-9.557499,53.312879],[-9.557496,53.312968],[-9.557474,53.313072],[-9.557438,53.313145],[-9.557368,53.313231],[-9.557299,53.313295],[-9.557278,53.313332],[-9.557278,53.313415],[-9.557297,53.313489],[-9.557357,53.313643],[-9.557405,53.313801],[-9.557454,53.313947],[-9.558228,53.313937],[-9.558243,53.314354],[-9.558304,53.314347],[-9.558567,53.314321],[-9.55881,53.314314],[-9.558968,53.314325],[-9.559288,53.314377],[-9.559533,53.31441],[-9.559675,53.314416],[-9.559871,53.314427],[-9.56008,53.314426],[-9.56034,53.314426],[-9.560581,53.314437],[-9.560723,53.314464],[-9.560899,53.314523],[-9.560972,53.314601],[-9.561023,53.314675],[-9.561019,53.314731],[-9.560976,53.314791],[-9.560913,53.314829],[-9.560785,53.314846],[-9.560628,53.314836],[-9.560412,53.314816],[-9.560234,53.314791],[-9.560009,53.314783],[-9.559774,53.31477],[-9.559584,53.31475],[-9.55925,53.314737],[-9.558871,53.314732],[-9.558566,53.314742],[-9.5583,53.314767],[-9.558258,53.314771],[-9.558389,53.318372],[-9.558534,53.318436],[-9.558745,53.318514],[-9.558895,53.318582],[-9.558939,53.318615],[-9.55971,53.318751],[-9.561482,53.319246],[-9.562989,53.319758],[-9.564447,53.320298],[-9.564472,53.320346],[-9.564559,53.320282],[-9.564593,53.320275],[-9.564732,53.320248],[-9.565049,53.320187],[-9.565095,53.320178],[-9.565283,53.320144],[-9.565469,53.32011],[-9.56662,53.319901],[-9.566865,53.319863],[-9.568382,53.319593],[-9.568838,53.319517],[-9.569209,53.319455],[-9.569461,53.319411],[-9.569737,53.319361],[-9.569934,53.319327],[-9.570193,53.31928],[-9.570412,53.319242],[-9.570483,53.319229],[-9.570608,53.319205],[-9.57071,53.319186],[-9.570774,53.319174],[-9.570827,53.319164],[-9.570838,53.319162],[-9.571033,53.319125],[-9.57125,53.319084],[-9.571256,53.319083],[-9.571448,53.31905],[-9.571681,53.319009],[-9.571886,53.318973],[-9.571935,53.318964],[-9.572087,53.318936],[-9.572297,53.318897],[-9.57251,53.318857],[-9.572769,53.318809],[-9.572787,53.318524],[-9.572815,53.317881],[-9.572852,53.317542],[-9.572854,53.317526],[-9.572855,53.317514],[-9.572858,53.317486],[-9.57286,53.317473],[-9.572862,53.317451],[-9.572884,53.317255],[-9.572913,53.316679],[-9.572914,53.316657],[-9.572914,53.316655],[-9.57296,53.316175],[-9.572987,53.315777],[-9.573002,53.315638],[-9.573002,53.315638],[-9.572983,53.31563],[-9.572987,53.315606],[-9.573007,53.315593],[-9.573007,53.315593],[-9.573027,53.315417],[-9.573027,53.315417],[-9.573027,53.315417],[-9.573049,53.315252],[-9.573033,53.315222],[-9.573029,53.31519],[-9.572993,53.315168],[-9.572938,53.31516],[-9.572935,53.315186],[-9.572939,53.315223],[-9.572939,53.315223],[-9.572939,53.315223],[-9.572903,53.315225],[-9.572827,53.315213],[-9.572765,53.315196],[-9.572685,53.315192],[-9.572541,53.315208],[-9.572389,53.315235],[-9.572342,53.315238],[-9.57232,53.315208],[-9.572323,53.315162],[-9.572286,53.315149],[-9.572112,53.315129],[-9.572051,53.315136],[-9.572008,53.315158],[-9.571828,53.315202],[-9.571773,53.315196],[-9.57174,53.315175],[-9.571711,53.315177],[-9.571679,53.315182],[-9.571624,53.315184],[-9.571573,53.315163],[-9.571562,53.315148],[-9.571566,53.315139],[-9.571566,53.315139],[-9.571566,53.315139],[-9.571529,53.315134],[-9.571489,53.315129],[-9.571507,53.315104],[-9.571545,53.315021],[-9.57159,53.314893],[-9.571605,53.314797],[-9.571613,53.314769],[-9.571576,53.31471],[-9.57159,53.314631],[-9.571596,53.3146],[-9.571622,53.314439],[-9.571627,53.314415],[-9.571662,53.314242],[-9.571665,53.314229],[-9.571696,53.314129],[-9.57176,53.313985],[-9.571805,53.313887],[-9.571852,53.313778],[-9.5719,53.313666],[-9.57196,53.313516],[-9.572033,53.313335],[-9.572067,53.31325],[-9.572121,53.31325],[-9.572167,53.313255],[-9.573668,53.313407],[-9.573678,53.313391],[-9.573826,53.313157],[-9.573867,53.31309],[-9.574009,53.312854],[-9.574062,53.312767],[-9.574122,53.312669],[-9.574232,53.312502],[-9.574376,53.312286],[-9.574453,53.312123],[-9.574484,53.312059],[-9.574582,53.31188],[-9.574589,53.311868],[-9.574701,53.311675],[-9.574888,53.311393],[-9.575033,53.311174],[-9.57508,53.311103],[-9.575241,53.310862],[-9.57551,53.310486],[-9.575521,53.31047],[-9.575619,53.310328],[-9.575637,53.310302],[-9.575695,53.310206],[-9.575753,53.31011],[-9.575814,53.310011],[-9.575882,53.309901],[-9.575918,53.309854],[-9.575921,53.309849],[-9.575996,53.30975],[-9.57607,53.309652],[-9.576202,53.309476],[-9.576214,53.30946],[-9.576237,53.309424],[-9.576358,53.309234],[-9.576412,53.30915],[-9.576489,53.309029],[-9.576615,53.308836],[-9.576725,53.308664],[-9.57709,53.308155],[-9.577369,53.307777],[-9.577514,53.307571],[-9.577645,53.307394],[-9.577901,53.307043],[-9.578043,53.306848],[-9.578066,53.306817],[-9.578511,53.306216],[-9.578745,53.305936],[-9.57887,53.305787],[-9.578968,53.305677],[-9.579211,53.305406],[-9.579427,53.305146],[-9.579544,53.305023],[-9.58001,53.304678],[-9.580043,53.304652],[-9.580196,53.30453],[-9.580713,53.304118],[-9.581132,53.303783],[-9.582126,53.303016],[-9.582259,53.302914],[-9.582942,53.302378],[-9.582989,53.302341],[-9.583056,53.302288],[-9.583642,53.301801],[-9.584375,53.301237],[-9.584609,53.301008],[-9.58463,53.300994],[-9.584633,53.300991],[-9.584767,53.300909],[-9.584975,53.300816],[-9.585112,53.300759],[-9.585217,53.300716],[-9.585189,53.300694],[-9.585167,53.300652],[-9.585158,53.300607],[-9.585193,53.300557],[-9.585217,53.300525],[-9.585298,53.300499],[-9.585376,53.300472],[-9.585406,53.300446],[-9.585459,53.30041],[-9.585491,53.300377],[-9.585496,53.300347],[-9.585491,53.300324],[-9.585477,53.300303],[-9.585479,53.300286],[-9.58551,53.300257],[-9.585535,53.300237],[-9.58559,53.300158],[-9.585636,53.300086],[-9.585695,53.300036],[-9.585787,53.29999],[-9.585833,53.299981],[-9.585938,53.299978],[-9.586014,53.300013],[-9.586028,53.300016],[-9.58607,53.300027],[-9.586328,53.30006],[-9.586427,53.300098],[-9.586465,53.300121],[-9.586462,53.300127],[-9.58655,53.300167],[-9.586565,53.300163],[-9.586584,53.300173],[-9.586666,53.300142],[-9.5869,53.300008],[-9.587312,53.299769],[-9.58781,53.299461],[-9.587859,53.299429],[-9.587594,53.299264],[-9.587434,53.299052],[-9.587451,53.298886],[-9.587427,53.298616],[-9.587356,53.298514],[-9.587358,53.298429],[-9.587252,53.298273],[-9.587249,53.298182],[-9.587182,53.29804],[-9.587218,53.297882],[-9.587236,53.297868],[-9.587256,53.297861],[-9.587266,53.297853],[-9.587294,53.297787],[-9.58731,53.297728],[-9.587323,53.297702],[-9.587336,53.297671],[-9.587338,53.29765],[-9.587343,53.297629],[-9.587366,53.297611],[-9.587375,53.297598],[-9.58739,53.297568],[-9.587411,53.297545],[-9.587415,53.297482],[-9.587423,53.297429],[-9.587418,53.297415],[-9.587393,53.297382],[-9.587315,53.297181],[-9.58756,53.296888],[-9.587605,53.296852],[-9.587649,53.296806],[-9.587659,53.296783],[-9.587676,53.296761],[-9.587689,53.296734],[-9.587737,53.296672],[-9.58774,53.29666],[-9.587754,53.296649],[-9.587878,53.296465],[-9.587927,53.296383],[-9.586311,53.296725],[-9.586477,53.295127],[-9.586511,53.294951],[-9.586569,53.294793],[-9.586597,53.294718],[-9.5866,53.2947],[-9.586831,53.292845],[-9.58618,53.293714],[-9.5863,53.293877],[-9.585616,53.294749],[-9.585783,53.295035],[-9.585353,53.295171],[-9.584492,53.295107],[-9.584326,53.294958],[-9.583907,53.295375],[-9.583813,53.296048],[-9.583837,53.296065],[-9.583915,53.296067],[-9.583946,53.29606],[-9.583979,53.296074],[-9.583958,53.296113],[-9.583981,53.296132],[-9.583983,53.296148],[-9.583912,53.296187],[-9.583829,53.296217],[-9.583784,53.296333],[-9.583782,53.296359],[-9.583827,53.296377],[-9.583863,53.296405],[-9.583854,53.296431],[-9.583852,53.296464],[-9.583871,53.296497],[-9.583867,53.296554],[-9.583828,53.296591],[-9.583787,53.296627],[-9.58378,53.296687],[-9.583807,53.296735],[-9.583866,53.296757],[-9.583929,53.29677],[-9.584066,53.296765],[-9.584218,53.296749],[-9.584325,53.296732],[-9.584413,53.296691],[-9.584572,53.296641],[-9.584698,53.296618],[-9.584814,53.296593],[-9.584884,53.296591],[-9.584925,53.296616],[-9.584966,53.296663],[-9.585023,53.296695],[-9.585049,53.296703],[-9.585132,53.296726],[-9.585223,53.296749],[-9.58524,53.296765],[-9.585295,53.296751],[-9.585342,53.296756],[-9.585416,53.296751],[-9.585445,53.296741],[-9.585436,53.296786],[-9.585386,53.296838],[-9.585308,53.296868],[-9.585277,53.296902],[-9.585251,53.296954],[-9.585246,53.296981],[-9.585247,53.297013],[-9.585225,53.297043],[-9.585182,53.297037],[-9.585131,53.297025],[-9.585112,53.297048],[-9.585101,53.297073],[-9.585131,53.297083],[-9.585179,53.297082],[-9.585214,53.297084],[-9.585211,53.297104],[-9.585243,53.297139],[-9.585236,53.297173],[-9.585205,53.297209],[-9.585218,53.29724],[-9.585269,53.297268],[-9.585275,53.29731],[-9.585268,53.297356],[-9.585238,53.297375],[-9.58517,53.297383],[-9.585096,53.297403],[-9.585055,53.297426],[-9.585059,53.297476],[-9.585105,53.297489],[-9.58511,53.297506],[-9.585079,53.297518],[-9.585056,53.297531],[-9.585064,53.297584],[-9.585052,53.297671],[-9.58503,53.297719],[-9.584959,53.297782],[-9.584956,53.297821],[-9.584904,53.297841],[-9.584865,53.297858],[-9.584857,53.297895],[-9.584798,53.29789],[-9.584759,53.297877],[-9.584714,53.29785],[-9.584664,53.297841],[-9.584635,53.297829],[-9.584622,53.297804],[-9.584573,53.297795],[-9.584506,53.297808],[-9.584475,53.297796],[-9.58442,53.297794],[-9.584376,53.297797],[-9.584355,53.297815],[-9.584342,53.297854],[-9.584347,53.297876],[-9.584388,53.297891],[-9.584408,53.297911],[-9.584396,53.297946],[-9.584375,53.297974],[-9.584351,53.297983],[-9.584319,53.297971],[-9.584224,53.297894],[-9.584129,53.297886],[-9.584032,53.297899],[-9.583933,53.297932],[-9.583871,53.297948],[-9.583835,53.297945],[-9.58381,53.29793],[-9.583828,53.297907],[-9.583836,53.297899],[-9.583829,53.29789],[-9.583854,53.297844],[-9.583918,53.297799],[-9.583924,53.297775],[-9.583885,53.297785],[-9.583864,53.297792],[-9.583777,53.297824],[-9.583747,53.29788],[-9.583757,53.297963],[-9.58373,53.297977],[-9.583692,53.298013],[-9.58365,53.298047],[-9.583649,53.298073],[-9.583631,53.298104],[-9.583601,53.298122],[-9.583561,53.298108],[-9.583512,53.298107],[-9.583478,53.298078],[-9.583483,53.298056],[-9.583502,53.298017],[-9.58349,53.297983],[-9.583423,53.297922],[-9.583379,53.297857],[-9.583333,53.297807],[-9.583287,53.297801],[-9.583289,53.29783],[-9.583259,53.297834],[-9.583234,53.29782],[-9.583201,53.29782],[-9.583145,53.297842],[-9.583096,53.297855],[-9.583024,53.297851],[-9.582977,53.297845],[-9.582965,53.297822],[-9.582947,53.297806],[-9.582908,53.297809],[-9.582839,53.297824],[-9.582777,53.297858],[-9.582745,53.297895],[-9.582693,53.29792],[-9.582618,53.297931],[-9.582536,53.297937],[-9.582494,53.297926],[-9.582467,53.297908],[-9.582462,53.29789],[-9.582546,53.297851],[-9.582573,53.297841],[-9.582583,53.297832],[-9.582508,53.297845],[-9.582474,53.297814],[-9.582487,53.29778],[-9.58247,53.297747],[-9.582412,53.297693],[-9.582353,53.297655],[-9.582298,53.297598],[-9.582288,53.297529],[-9.582264,53.29749],[-9.582315,53.297407],[-9.582302,53.2973],[-9.582227,53.297316],[-9.582161,53.297356],[-9.582107,53.297382],[-9.582053,53.297415],[-9.582048,53.297418],[-9.582026,53.297436],[-9.581987,53.297483],[-9.581946,53.2975],[-9.581898,53.297538],[-9.58183,53.297613],[-9.581805,53.297634],[-9.581668,53.29778],[-9.581596,53.297965],[-9.581342,53.298068],[-9.581326,53.298135],[-9.581255,53.298203],[-9.581146,53.298295],[-9.581086,53.298384],[-9.581023,53.298452],[-9.581023,53.298453],[-9.581174,53.298725],[-9.580982,53.298954],[-9.581076,53.299193],[-9.581075,53.299347],[-9.581334,53.299536],[-9.580819,53.29937],[-9.580419,53.299306],[-9.580354,53.299292],[-9.580231,53.299269],[-9.580152,53.299263],[-9.580079,53.299243],[-9.579937,53.299216],[-9.579727,53.299186],[-9.579632,53.299174],[-9.57941,53.29913],[-9.579291,53.299108],[-9.57923,53.299089],[-9.579217,53.299109],[-9.580944,53.299684],[-9.580802,53.29983],[-9.580954,53.299849],[-9.581074,53.299854],[-9.581361,53.299895],[-9.581343,53.299979],[-9.581335,53.300039],[-9.58133,53.300063],[-9.58133,53.300211],[-9.581323,53.300307],[-9.581296,53.300387],[-9.581302,53.30044],[-9.581299,53.300522],[-9.581288,53.300665],[-9.581287,53.300675],[-9.581229,53.300917],[-9.581164,53.301181],[-9.581136,53.30132],[-9.581113,53.301375],[-9.58092,53.301753],[-9.580872,53.301841],[-9.580439,53.301697],[-9.5804,53.301735],[-9.580251,53.301882],[-9.580336,53.301914],[-9.580362,53.301921],[-9.580235,53.302354],[-9.580142,53.302653],[-9.580106,53.30273],[-9.580079,53.302807],[-9.580102,53.302801],[-9.580134,53.302803],[-9.580147,53.302804],[-9.580233,53.302834],[-9.580237,53.302858],[-9.580219,53.302893],[-9.580081,53.30303],[-9.579971,53.303118],[-9.579849,53.303192],[-9.579763,53.303232],[-9.579713,53.303247],[-9.579691,53.303278],[-9.579623,53.303314],[-9.579596,53.303335],[-9.579543,53.303368],[-9.579552,53.303385],[-9.579529,53.303392],[-9.579514,53.303406],[-9.579491,53.303423],[-9.579495,53.303431],[-9.579442,53.303447],[-9.579399,53.303469],[-9.579363,53.303491],[-9.579258,53.303606],[-9.579225,53.303643],[-9.579182,53.303661],[-9.579124,53.303657],[-9.579062,53.30364],[-9.579018,53.303632],[-9.578946,53.303641],[-9.578885,53.303667],[-9.578755,53.303668],[-9.578704,53.303679],[-9.578662,53.30371],[-9.5786,53.303728],[-9.578575,53.303737],[-9.57854,53.303759],[-9.578496,53.303778],[-9.578453,53.303785],[-9.578374,53.303788],[-9.57832,53.303801],[-9.57828,53.303819],[-9.578244,53.303824],[-9.578208,53.303824],[-9.578147,53.303833],[-9.578043,53.303884],[-9.577996,53.303893],[-9.577978,53.30391],[-9.577957,53.30393],[-9.577939,53.303932],[-9.577884,53.303924],[-9.577808,53.303933],[-9.577704,53.30396],[-9.577675,53.303979],[-9.577636,53.304008],[-9.577522,53.304087],[-9.57744,53.304148],[-9.577404,53.304159],[-9.577335,53.304168],[-9.577327,53.304172],[-9.577348,53.304214],[-9.577352,53.304253],[-9.577349,53.304309],[-9.577375,53.304309],[-9.577685,53.304287],[-9.5777,53.304287],[-9.577782,53.304408],[-9.577856,53.304494],[-9.577918,53.304541],[-9.577879,53.304563],[-9.577828,53.304568],[-9.577608,53.304574],[-9.577458,53.304582],[-9.577469,53.304635],[-9.577466,53.304659],[-9.57744,53.304687],[-9.577483,53.304733],[-9.577439,53.304781],[-9.57726,53.304789],[-9.576457,53.304824],[-9.575419,53.304877],[-9.575261,53.304885],[-9.575218,53.304694],[-9.575178,53.304503],[-9.575162,53.30442],[-9.575401,53.304385],[-9.576443,53.304235],[-9.576439,53.304203],[-9.576467,53.304185],[-9.576521,53.304156],[-9.576531,53.304122],[-9.576527,53.304102],[-9.576509,53.304076],[-9.57649,53.304055],[-9.576198,53.304057],[-9.576243,53.303911],[-9.576454,53.303882],[-9.576454,53.303849],[-9.576434,53.30376],[-9.576436,53.303713],[-9.576442,53.303675],[-9.576424,53.303648],[-9.576268,53.303632],[-9.576236,53.303641],[-9.576221,53.303653],[-9.57619,53.30368],[-9.576118,53.303704],[-9.576074,53.303702],[-9.576052,53.303674],[-9.576069,53.303633],[-9.576061,53.303596],[-9.576018,53.303579],[-9.575967,53.30358],[-9.575859,53.303578],[-9.575829,53.303572],[-9.575811,53.30355],[-9.57577,53.303468],[-9.575784,53.303446],[-9.57583,53.303435],[-9.575895,53.303412],[-9.575858,53.303355],[-9.575814,53.303295],[-9.575802,53.303251],[-9.575759,53.303087],[-9.575734,53.303041],[-9.575615,53.30305],[-9.575582,53.303042],[-9.575476,53.302973],[-9.575458,53.302952],[-9.575428,53.302896],[-9.575387,53.302872],[-9.575344,53.302853],[-9.575314,53.30284],[-9.575299,53.302816],[-9.575299,53.302773],[-9.57533,53.302729],[-9.575334,53.302716],[-9.575333,53.302677],[-9.575337,53.302667],[-9.575354,53.302629],[-9.575367,53.302595],[-9.575388,53.302562],[-9.575412,53.302495],[-9.575408,53.302458],[-9.57539,53.30243],[-9.575385,53.302389],[-9.575414,53.302365],[-9.575417,53.302352],[-9.575405,53.302321],[-9.575386,53.302239],[-9.575345,53.302174],[-9.575318,53.302138],[-9.575311,53.302129],[-9.575271,53.302082],[-9.575186,53.302032],[-9.575154,53.302022],[-9.575139,53.302],[-9.575149,53.301981],[-9.57517,53.30195],[-9.575163,53.301929],[-9.575126,53.301916],[-9.575079,53.301918],[-9.575028,53.301899],[-9.575028,53.301875],[-9.575042,53.301858],[-9.575045,53.301834],[-9.575044,53.301795],[-9.575033,53.301752],[-9.575,53.301735],[-9.574942,53.301735],[-9.574877,53.301746],[-9.574815,53.301738],[-9.574746,53.301726],[-9.574731,53.3017],[-9.57472,53.301678],[-9.574691,53.301687],[-9.574655,53.301696],[-9.574612,53.301727],[-9.574569,53.301723],[-9.574521,53.301697],[-9.574517,53.301649],[-9.574534,53.301619],[-9.574516,53.301602],[-9.574479,53.30158],[-9.574464,53.301554],[-9.574478,53.301524],[-9.574518,53.301513],[-9.574558,53.301523],[-9.574583,53.301512],[-9.574597,53.30149],[-9.574608,53.301482],[-9.5746,53.301456],[-9.574578,53.301432],[-9.574573,53.301397],[-9.574604,53.30128],[-9.574672,53.301262],[-9.574712,53.301273],[-9.57476,53.301305],[-9.574778,53.301327],[-9.574782,53.301353],[-9.574772,53.301383],[-9.574776,53.30142],[-9.574788,53.301437],[-9.574847,53.301482],[-9.57486,53.301434],[-9.574805,53.301242],[-9.574773,53.301138],[-9.574747,53.301063],[-9.574724,53.301014],[-9.574703,53.30098],[-9.574696,53.300968],[-9.57469,53.300943],[-9.574372,53.300979],[-9.574242,53.301],[-9.574114,53.301008],[-9.574064,53.301009],[-9.574066,53.301025],[-9.57407,53.301059],[-9.574072,53.301072],[-9.574081,53.301147],[-9.574069,53.3012],[-9.574082,53.301293],[-9.574145,53.301568],[-9.574203,53.30176],[-9.574309,53.301994],[-9.574324,53.302022],[-9.574343,53.30206],[-9.574405,53.302186],[-9.574555,53.302477],[-9.574599,53.30256],[-9.574627,53.302613],[-9.574724,53.302773],[-9.574807,53.302963],[-9.574835,53.303052],[-9.574869,53.303158],[-9.574912,53.303318],[-9.574941,53.303508],[-9.574953,53.30358],[-9.574956,53.303602],[-9.575021,53.303985],[-9.575024,53.303997],[-9.574976,53.304006],[-9.574447,53.304109],[-9.573622,53.304379],[-9.57344,53.304025],[-9.573252,53.304067],[-9.573209,53.304073],[-9.573087,53.304089],[-9.573205,53.304314],[-9.573152,53.304346],[-9.573122,53.304366],[-9.573005,53.304444],[-9.572999,53.304453],[-9.572834,53.304614],[-9.572789,53.304624],[-9.572484,53.304953],[-9.57248,53.304958],[-9.572517,53.305058],[-9.572585,53.304994],[-9.572594,53.304984],[-9.572649,53.304928],[-9.572808,53.30476],[-9.572903,53.304636],[-9.573028,53.30452],[-9.573181,53.304391],[-9.573312,53.304309],[-9.573453,53.30443],[-9.573639,53.304536],[-9.573926,53.304588],[-9.574048,53.304515],[-9.574148,53.304472],[-9.574222,53.30444],[-9.574313,53.304425],[-9.574374,53.304417],[-9.57446,53.304411],[-9.574539,53.304387],[-9.574593,53.304347],[-9.574939,53.304249],[-9.575023,53.304233],[-9.575074,53.304224],[-9.575083,53.304264],[-9.575129,53.304513],[-9.575194,53.304807],[-9.5752,53.304836],[-9.575213,53.304897],[-9.575244,53.305041],[-9.575254,53.305089],[-9.575291,53.305263],[-9.575295,53.305284],[-9.575325,53.305463],[-9.575327,53.305477],[-9.575335,53.305582],[-9.575324,53.305624],[-9.575311,53.30567],[-9.575262,53.30574],[-9.57515,53.305851],[-9.574961,53.305995],[-9.574904,53.306039],[-9.574782,53.306141],[-9.574649,53.306251],[-9.574633,53.306272],[-9.574576,53.306344],[-9.574545,53.306394],[-9.574516,53.306475],[-9.574498,53.306546],[-9.574457,53.306704],[-9.574444,53.306767],[-9.574398,53.306756],[-9.574017,53.306668],[-9.573723,53.306592],[-9.573596,53.306568],[-9.573397,53.306533],[-9.573277,53.30652],[-9.57265,53.306513],[-9.571786,53.306371],[-9.571809,53.306285],[-9.571683,53.30629],[-9.571507,53.306532],[-9.571129,53.306717],[-9.570621,53.306797],[-9.570493,53.306799],[-9.570278,53.306804],[-9.569882,53.306652],[-9.569878,53.306522],[-9.570074,53.306302],[-9.570276,53.306141],[-9.570308,53.306115],[-9.570333,53.306096],[-9.57057,53.306019],[-9.570659,53.305972],[-9.570686,53.305824],[-9.570936,53.305823],[-9.571058,53.305901],[-9.571294,53.30579],[-9.571404,53.305742],[-9.5715,53.305685],[-9.571633,53.305613],[-9.571647,53.305581],[-9.571649,53.305578],[-9.571584,53.305446],[-9.571544,53.305262],[-9.571439,53.305276],[-9.571296,53.305281],[-9.571106,53.305278],[-9.571044,53.305272],[-9.570959,53.305259],[-9.570842,53.305238],[-9.570752,53.305207],[-9.570738,53.305196],[-9.570674,53.305142],[-9.570597,53.305079],[-9.570549,53.305058],[-9.570546,53.305052],[-9.570473,53.305022],[-9.570373,53.304951],[-9.570339,53.304919],[-9.570227,53.304814],[-9.570209,53.304799],[-9.570197,53.304761],[-9.570186,53.304744],[-9.57016,53.304724],[-9.570134,53.304706],[-9.570123,53.304698],[-9.570089,53.304666],[-9.570044,53.304596],[-9.569929,53.304501],[-9.569892,53.304461],[-9.569873,53.304433],[-9.569871,53.304365],[-9.569803,53.304223],[-9.569784,53.304197],[-9.569776,53.304158],[-9.569801,53.30411],[-9.569818,53.304087],[-9.569678,53.304115],[-9.569431,53.304233],[-9.569252,53.304324],[-9.569081,53.304425],[-9.568879,53.304519],[-9.568738,53.304584],[-9.568592,53.304644],[-9.568505,53.304685],[-9.568437,53.304754],[-9.568351,53.304832],[-9.568177,53.30486],[-9.567173,53.304721],[-9.566916,53.304685],[-9.566483,53.304567],[-9.566035,53.304445],[-9.565968,53.304509],[-9.565871,53.304555],[-9.565803,53.304597],[-9.565789,53.30461],[-9.565771,53.304631],[-9.565763,53.304627],[-9.565757,53.304623],[-9.565756,53.304606],[-9.565794,53.304482],[-9.565779,53.304467],[-9.565761,53.304458],[-9.565753,53.304447],[-9.56576,53.304434],[-9.565817,53.304388],[-9.565828,53.304369],[-9.56583,53.304304],[-9.565815,53.304254],[-9.565811,53.304222],[-9.565828,53.30418],[-9.56586,53.304174],[-9.565889,53.304163],[-9.565899,53.304143],[-9.565938,53.304065],[-9.565926,53.304032],[-9.565918,53.303985],[-9.565907,53.30398],[-9.565875,53.303985],[-9.565839,53.304009],[-9.565799,53.304007],[-9.56577,53.303994],[-9.56573,53.304003],[-9.565709,53.304001],[-9.565701,53.303982],[-9.565711,53.303947],[-9.565743,53.303936],[-9.565776,53.303912],[-9.565768,53.303899],[-9.565757,53.303875],[-9.565778,53.30386],[-9.565799,53.303838],[-9.565792,53.303827],[-9.565752,53.303832],[-9.565709,53.303839],[-9.565698,53.30383],[-9.565676,53.303802],[-9.565686,53.303787],[-9.565772,53.303726],[-9.565768,53.303715],[-9.565757,53.303695],[-9.565771,53.303667],[-9.565774,53.30363],[-9.565768,53.30352],[-9.565782,53.303485],[-9.5658,53.303476],[-9.565843,53.303474],[-9.565872,53.303478],[-9.56589,53.303488],[-9.565905,53.303484],[-9.565919,53.303469],[-9.565919,53.303451],[-9.56591,53.303391],[-9.565917,53.303378],[-9.565956,53.303332],[-9.565956,53.303304],[-9.565943,53.303224],[-9.565965,53.303206],[-9.566022,53.303197],[-9.566047,53.303162],[-9.566079,53.303156],[-9.566144,53.303129],[-9.566194,53.303105],[-9.566212,53.303079],[-9.56623,53.303072],[-9.566273,53.303068],[-9.566335,53.303078],[-9.566397,53.303101],[-9.56651,53.303146],[-9.56655,53.30317],[-9.56658,53.303202],[-9.566679,53.303332],[-9.567404,53.301985],[-9.567744,53.301354],[-9.56798,53.300917],[-9.571111,53.301024],[-9.5692,53.300505],[-9.570563,53.299576],[-9.570332,53.299583],[-9.570202,53.299612],[-9.570185,53.299619],[-9.567639,53.299893],[-9.56595,53.300077],[-9.56298,53.300353],[-9.561052,53.300532],[-9.56001,53.300629],[-9.559204,53.300627]]]]}}]}
