{"type":"FeatureCollection","features":[{"type":"Feature","properties":{"source_fid":905530,"county":"Galway","bog_geom_ha":260.4885446550777,"low15_pct":74.698379869010694,"low15_ha":194.58072260170749,"overlay_ha":194.58881362763509,"area_delta":0.0080910259275981389},"geometry":{"type":"MultiPolygon","coordinates":[[[[-8.663327,53.117221],[-8.663616,53.117192],[-8.663918,53.117176],[-8.66406,53.117168],[-8.66413,53.117163],[-8.664211,53.117157],[-8.664051,53.116898],[-8.663964,53.116753],[-8.663927,53.1167],[-8.663874,53.11661],[-8.663825,53.116531],[-8.663784,53.11644],[-8.663774,53.116382],[-8.663729,53.11635],[-8.663581,53.116045],[-8.66355,53.115904],[-8.663539,53.115858],[-8.663536,53.115845],[-8.663232,53.115846],[-8.663236,53.116116],[-8.662788,53.116119],[-8.662784,53.115849],[-8.662336,53.115851],[-8.662327,53.115312],[-8.662775,53.11531],[-8.662771,53.11504],[-8.662767,53.114771],[-8.663141,53.114768],[-8.663061,53.114691],[-8.662954,53.114609],[-8.662933,53.114564],[-8.662876,53.114432],[-8.662863,53.114382],[-8.662811,53.114321],[-8.662719,53.114253],[-8.662625,53.11415],[-8.66261,53.114071],[-8.662629,53.113918],[-8.662653,53.113856],[-8.662674,53.11381],[-8.662679,53.113799],[-8.662667,53.113751],[-8.662616,53.113684],[-8.662554,53.113631],[-8.662513,53.113595],[-8.662473,53.113553],[-8.662452,53.113531],[-8.662463,53.113458],[-8.66246,53.113408],[-8.66246,53.113393],[-8.662417,53.113349],[-8.662403,53.113337],[-8.662399,53.113334],[-8.662391,53.113325],[-8.662376,53.113309],[-8.662371,53.113304],[-8.662345,53.113279],[-8.66232,53.113253],[-8.662187,53.113085],[-8.662085,53.112966],[-8.662036,53.112915],[-8.661936,53.112813],[-8.661856,53.112713],[-8.661844,53.112698],[-8.661838,53.112691],[-8.661758,53.11259],[-8.661721,53.112557],[-8.661676,53.112518],[-8.66161,53.112415],[-8.661591,53.112398],[-8.661545,53.11236],[-8.661519,53.112317],[-8.661508,53.112265],[-8.661503,53.112244],[-8.661502,53.112239],[-8.661501,53.112236],[-8.661497,53.112222],[-8.66147,53.112143],[-8.661463,53.112123],[-8.661502,53.111973],[-8.661517,53.111927],[-8.661534,53.11187],[-8.661539,53.111811],[-8.660481,53.111817],[-8.660477,53.111548],[-8.660925,53.111545],[-8.660921,53.111276],[-8.661645,53.111272],[-8.661659,53.111234],[-8.661708,53.11112],[-8.659388,53.111133],[-8.659384,53.11119],[-8.659381,53.111237],[-8.659361,53.111285],[-8.659358,53.111293],[-8.659369,53.112031],[-8.658692,53.112035],[-8.658693,53.112097],[-8.658245,53.112099],[-8.658244,53.112037],[-8.65658,53.112047],[-8.656571,53.11205],[-8.656452,53.112079],[-8.656453,53.112109],[-8.657349,53.112104],[-8.657353,53.112374],[-8.656457,53.112379],[-8.656461,53.112648],[-8.655565,53.112653],[-8.655561,53.112384],[-8.65519,53.112386],[-8.655119,53.112428],[-8.65501,53.112471],[-8.654977,53.112484],[-8.654963,53.112487],[-8.654897,53.112505],[-8.654823,53.112525],[-8.654692,53.112516],[-8.654617,53.1125],[-8.654434,53.112451],[-8.6543,53.112391],[-8.654217,53.112391],[-8.654216,53.112354],[-8.654067,53.112292],[-8.653919,53.112241],[-8.653887,53.112231],[-8.653804,53.112208],[-8.653668,53.112185],[-8.65353,53.112176],[-8.653264,53.11218],[-8.653055,53.112203],[-8.652694,53.112232],[-8.652647,53.112236],[-8.652402,53.11229],[-8.652304,53.112331],[-8.652132,53.112458],[-8.651957,53.112659],[-8.651898,53.112703],[-8.65178,53.112722],[-8.651732,53.112725],[-8.651649,53.112709],[-8.651545,53.112679],[-8.651453,53.112634],[-8.651327,53.112588],[-8.651306,53.11255],[-8.651289,53.112483],[-8.651279,53.112442],[-8.651184,53.112245],[-8.651101,53.112182],[-8.650991,53.11214],[-8.650819,53.112145],[-8.650786,53.112155],[-8.650472,53.112256],[-8.650317,53.112325],[-8.650296,53.112334],[-8.65028,53.112345],[-8.650253,53.112365],[-8.650223,53.112322],[-8.650107,53.112206],[-8.650022,53.112135],[-8.649999,53.112126],[-8.649973,53.112117],[-8.649964,53.112113],[-8.649696,53.111804],[-8.649617,53.111629],[-8.649644,53.111597],[-8.649656,53.111561],[-8.649651,53.111518],[-8.649617,53.111392],[-8.649579,53.111338],[-8.649272,53.11134],[-8.649269,53.111157],[-8.649193,53.111126],[-8.649077,53.111105],[-8.648767,53.11105],[-8.64869,53.111037],[-8.648624,53.111027],[-8.648533,53.111032],[-8.648407,53.111043],[-8.64826,53.111053],[-8.648193,53.111049],[-8.648089,53.111028],[-8.647942,53.110986],[-8.647827,53.110953],[-8.647643,53.11089],[-8.647472,53.110855],[-8.64731,53.110866],[-8.647203,53.110881],[-8.647088,53.11086],[-8.646999,53.110846],[-8.646986,53.110847],[-8.646957,53.110851],[-8.646878,53.110871],[-8.64676,53.1109],[-8.646739,53.110897],[-8.646712,53.11089],[-8.646684,53.110877],[-8.646652,53.110836],[-8.64664,53.110774],[-8.64664,53.110756],[-8.646653,53.110689],[-8.646696,53.110639],[-8.646798,53.110576],[-8.646924,53.110528],[-8.64703,53.110472],[-8.647029,53.110432],[-8.647013,53.110372],[-8.64692,53.110287],[-8.646799,53.110169],[-8.646683,53.110105],[-8.646551,53.110049],[-8.646331,53.109905],[-8.64629,53.109829],[-8.646275,53.109764],[-8.646264,53.109748],[-8.646237,53.109724],[-8.646161,53.10967],[-8.646116,53.109632],[-8.646091,53.109617],[-8.646066,53.109609],[-8.645997,53.109597],[-8.645942,53.109602],[-8.645878,53.10961],[-8.645784,53.10967],[-8.645761,53.109701],[-8.645733,53.109706],[-8.645714,53.109706],[-8.645706,53.109706],[-8.645676,53.109702],[-8.64565,53.109694],[-8.645626,53.109683],[-8.645494,53.109622],[-8.64527,53.109483],[-8.645094,53.109374],[-8.644974,53.109303],[-8.644733,53.109098],[-8.644653,53.10906],[-8.644517,53.109001],[-8.644417,53.108957],[-8.644329,53.108929],[-8.644202,53.108898],[-8.644035,53.108857],[-8.643975,53.10884],[-8.643907,53.108807],[-8.643471,53.108553],[-8.643211,53.108413],[-8.643198,53.108409],[-8.643171,53.108401],[-8.643128,53.108393],[-8.642914,53.108418],[-8.642689,53.108448],[-8.642535,53.108461],[-8.642325,53.108472],[-8.64227,53.108503],[-8.642243,53.108534],[-8.642172,53.108612],[-8.64215,53.108621],[-8.642117,53.108623],[-8.642062,53.108623],[-8.64204,53.108619],[-8.642014,53.108611],[-8.641962,53.10859],[-8.641846,53.108489],[-8.641813,53.108425],[-8.641812,53.108365],[-8.641814,53.108253],[-8.641801,53.108199],[-8.641765,53.108156],[-8.641729,53.108123],[-8.641665,53.108092],[-8.641585,53.108074],[-8.641494,53.108065],[-8.641402,53.108048],[-8.641243,53.107995],[-8.641226,53.10794],[-8.641226,53.10793],[-8.641238,53.107914],[-8.64136,53.107853],[-8.64143,53.107824],[-8.641434,53.107798],[-8.641434,53.107791],[-8.641427,53.107773],[-8.641409,53.107751],[-8.641394,53.107737],[-8.641383,53.107732],[-8.64137,53.107728],[-8.641342,53.107721],[-8.641262,53.107706],[-8.641207,53.107702],[-8.641151,53.1077],[-8.641076,53.107696],[-8.64104,53.107686],[-8.641004,53.107672],[-8.640949,53.107638],[-8.640818,53.10756],[-8.64073,53.107488],[-8.640662,53.107411],[-8.640609,53.107379],[-8.640536,53.107344],[-8.640424,53.107305],[-8.640346,53.107279],[-8.640257,53.107255],[-8.640218,53.107245],[-8.640206,53.107204],[-8.64019,53.107132],[-8.640181,53.107088],[-8.640173,53.107061],[-8.640143,53.10705],[-8.640118,53.10704],[-8.640087,53.107027],[-8.64006,53.107017],[-8.640047,53.107011],[-8.640029,53.107006],[-8.640009,53.107006],[-8.639965,53.107002],[-8.639882,53.107031],[-8.639842,53.107019],[-8.63981,53.106982],[-8.639774,53.106956],[-8.63974,53.106936],[-8.639713,53.106842],[-8.639692,53.106811],[-8.639676,53.106782],[-8.639649,53.106751],[-8.63962,53.106725],[-8.639606,53.106711],[-8.639591,53.106701],[-8.639612,53.106686],[-8.639667,53.106563],[-8.639685,53.106478],[-8.639713,53.106377],[-8.6398,53.106294],[-8.639864,53.106189],[-8.639912,53.10609],[-8.639918,53.10607],[-8.639922,53.106056],[-8.639856,53.105759],[-8.63983,53.105729],[-8.639779,53.105729],[-8.639778,53.105671],[-8.639649,53.105549],[-8.639592,53.10546],[-8.639327,53.105462],[-8.639323,53.105192],[-8.639537,53.105191],[-8.639537,53.105159],[-8.639566,53.105016],[-8.639622,53.104753],[-8.639651,53.104482],[-8.639602,53.104366],[-8.639462,53.104062],[-8.639393,53.103899],[-8.639281,53.103614],[-8.639222,53.103446],[-8.639132,53.103305],[-8.639136,53.103275],[-8.639069,53.103156],[-8.639077,53.1031],[-8.639072,53.103081],[-8.639047,53.102989],[-8.638974,53.102836],[-8.638973,53.1028],[-8.63898,53.102686],[-8.639028,53.10244],[-8.639054,53.102374],[-8.639074,53.102333],[-8.639091,53.102256],[-8.639201,53.101961],[-8.639164,53.101906],[-8.639238,53.101808],[-8.639256,53.101701],[-8.639262,53.101603],[-8.639302,53.101516],[-8.639379,53.101424],[-8.639462,53.101319],[-8.639437,53.101208],[-8.639351,53.101057],[-8.639371,53.100906],[-8.63938,53.100821],[-8.639401,53.10038],[-8.63924,53.100115],[-8.639113,53.099927],[-8.639,53.099827],[-8.638955,53.099748],[-8.638868,53.099645],[-8.638808,53.099492],[-8.638765,53.099438],[-8.638737,53.099408],[-8.638737,53.099323],[-8.638681,53.099216],[-8.638635,53.099132],[-8.638496,53.098856],[-8.638432,53.098739],[-8.638277,53.098491],[-8.638252,53.098457],[-8.637879,53.098459],[-8.637883,53.098729],[-8.637435,53.098731],[-8.637439,53.099001],[-8.636095,53.099008],[-8.636099,53.099278],[-8.635651,53.09928],[-8.635655,53.09955],[-8.634759,53.099555],[-8.634763,53.099824],[-8.634315,53.099827],[-8.634319,53.100096],[-8.633871,53.100099],[-8.633867,53.099829],[-8.633864,53.099559],[-8.63386,53.09929],[-8.632964,53.099295],[-8.632968,53.099564],[-8.631624,53.099571],[-8.631628,53.099841],[-8.629388,53.099853],[-8.629384,53.099583],[-8.628936,53.099586],[-8.62894,53.099855],[-8.627596,53.099862],[-8.627593,53.099593],[-8.62804,53.09959],[-8.628037,53.099321],[-8.625708,53.099333],[-8.625891,53.099522],[-8.626103,53.099745],[-8.626255,53.099883],[-8.626383,53.100023],[-8.626518,53.100172],[-8.626628,53.100321],[-8.626744,53.100491],[-8.6268,53.100572],[-8.62695,53.100808],[-8.627247,53.101267],[-8.627424,53.101368],[-8.62765,53.101562],[-8.627848,53.10163],[-8.627939,53.101725],[-8.628162,53.101979],[-8.628282,53.102129],[-8.628436,53.102325],[-8.628483,53.102395],[-8.628549,53.102466],[-8.62871,53.102686],[-8.628827,53.102857],[-8.62887,53.102926],[-8.62897,53.103087],[-8.629043,53.103217],[-8.629127,53.103316],[-8.629193,53.10342],[-8.62934,53.103645],[-8.629439,53.103845],[-8.629462,53.103892],[-8.629498,53.10394],[-8.629543,53.104075],[-8.629576,53.104157],[-8.62967,53.104352],[-8.629742,53.104445],[-8.629775,53.104497],[-8.629808,53.104571],[-8.62986,53.104692],[-8.629966,53.104822],[-8.63002,53.104876],[-8.63005,53.104963],[-8.630123,53.105027],[-8.630315,53.105191],[-8.630443,53.105307],[-8.630643,53.105478],[-8.63077,53.105603],[-8.630902,53.105769],[-8.631061,53.105925],[-8.631202,53.106023],[-8.631537,53.106345],[-8.631997,53.106779],[-8.632146,53.106948],[-8.632165,53.10697],[-8.632221,53.107035],[-8.632226,53.107041],[-8.632323,53.107157],[-8.632576,53.107289],[-8.632594,53.107317],[-8.632694,53.107473],[-8.63285,53.107681],[-8.633007,53.107901],[-8.633182,53.108096],[-8.633306,53.108238],[-8.633429,53.108348],[-8.633607,53.108481],[-8.63381,53.108617],[-8.63397,53.108702],[-8.634224,53.108874],[-8.634532,53.109104],[-8.635392,53.10974],[-8.635974,53.110163],[-8.636367,53.110446],[-8.636533,53.110573],[-8.637719,53.111451],[-8.63874,53.112155],[-8.639022,53.112357],[-8.639051,53.112377],[-8.639264,53.11251],[-8.63942,53.112607],[-8.639644,53.112764],[-8.639738,53.112809],[-8.639762,53.112821],[-8.639783,53.112844],[-8.639813,53.112871],[-8.639767,53.112893],[-8.63973,53.11291],[-8.63968,53.112908],[-8.639641,53.113027],[-8.639597,53.113166],[-8.639544,53.113241],[-8.639545,53.113312],[-8.639665,53.113514],[-8.639733,53.113708],[-8.639744,53.113736],[-8.639763,53.113779],[-8.639789,53.11386],[-8.639908,53.114152],[-8.639938,53.114283],[-8.639943,53.114317],[-8.63998,53.114431],[-8.640036,53.114591],[-8.640128,53.114799],[-8.640168,53.114912],[-8.640306,53.115148],[-8.640356,53.115233],[-8.640389,53.11535],[-8.640455,53.1155],[-8.640523,53.115692],[-8.640614,53.115902],[-8.64061,53.11597],[-8.640717,53.116198],[-8.64073,53.116239],[-8.640831,53.116239],[-8.640827,53.115969],[-8.645308,53.115945],[-8.645312,53.116215],[-8.646208,53.11621],[-8.646212,53.116479],[-8.648453,53.116467],[-8.648457,53.116737],[-8.648905,53.116734],[-8.648901,53.116465],[-8.650245,53.116457],[-8.650241,53.116188],[-8.652482,53.116175],[-8.652486,53.116445],[-8.65383,53.116438],[-8.653826,53.116168],[-8.656066,53.116156],[-8.656062,53.115886],[-8.65651,53.115884],[-8.656506,53.115614],[-8.658747,53.115602],[-8.658751,53.115871],[-8.659199,53.115869],[-8.659203,53.116138],[-8.660099,53.116133],[-8.660103,53.116403],[-8.661,53.116398],[-8.661004,53.116668],[-8.660556,53.11667],[-8.66056,53.11694],[-8.660112,53.116942],[-8.660116,53.117212],[-8.66012,53.117481],[-8.660455,53.11748],[-8.66046,53.117413],[-8.660588,53.117479],[-8.661464,53.117474],[-8.661464,53.117487],[-8.661557,53.117475],[-8.661599,53.117469],[-8.662336,53.117364],[-8.662732,53.117313],[-8.662794,53.117301],[-8.663327,53.117221]],[[-8.649764,53.114303],[-8.652005,53.114291],[-8.652001,53.114021],[-8.652897,53.114016],[-8.652901,53.114286],[-8.653349,53.114283],[-8.653353,53.114553],[-8.653801,53.11455],[-8.653797,53.114281],[-8.654693,53.114276],[-8.654689,53.114006],[-8.656034,53.113999],[-8.656038,53.114269],[-8.656042,53.114538],[-8.654697,53.114546],[-8.654702,53.114815],[-8.653805,53.11482],[-8.65381,53.11509],[-8.652913,53.115095],[-8.652909,53.114825],[-8.652905,53.114555],[-8.652009,53.11456],[-8.652013,53.11483],[-8.648876,53.114847],[-8.648872,53.114577],[-8.649769,53.114573],[-8.649764,53.114303]],[[-8.637447,53.09954],[-8.636999,53.099543],[-8.636995,53.099273],[-8.637443,53.099271],[-8.637447,53.09954]],[[-8.634787,53.101442],[-8.634783,53.101172],[-8.634779,53.100903],[-8.636123,53.100895],[-8.636119,53.100626],[-8.636567,53.100623],[-8.636563,53.100354],[-8.637011,53.100351],[-8.637015,53.100621],[-8.637019,53.100891],[-8.637023,53.10116],[-8.635231,53.10117],[-8.635235,53.101439],[-8.634787,53.101442]],[[-8.636151,53.102783],[-8.636155,53.103052],[-8.635707,53.103055],[-8.635715,53.103594],[-8.635267,53.103596],[-8.635271,53.103866],[-8.636167,53.103861],[-8.636171,53.104131],[-8.635723,53.104133],[-8.635727,53.104403],[-8.635279,53.104405],[-8.635283,53.104675],[-8.634387,53.104679],[-8.634383,53.10441],[-8.633487,53.104415],[-8.633483,53.104145],[-8.634379,53.10414],[-8.634375,53.103871],[-8.634823,53.103868],[-8.634819,53.103599],[-8.634811,53.103059],[-8.635259,53.103057],[-8.635255,53.102787],[-8.635703,53.102785],[-8.635699,53.102515],[-8.636147,53.102513],[-8.636151,53.102783]],[[-8.633479,53.103875],[-8.633483,53.104145],[-8.633035,53.104147],[-8.633039,53.104417],[-8.631695,53.104424],[-8.631691,53.104155],[-8.630347,53.104162],[-8.630343,53.103892],[-8.630339,53.103622],[-8.633027,53.103608],[-8.633031,53.103878],[-8.633479,53.103875]],[[-8.636615,53.103859],[-8.636167,53.103861],[-8.636163,53.103591],[-8.636611,53.103589],[-8.636615,53.103859]],[[-8.635299,53.105753],[-8.635303,53.106023],[-8.634855,53.106025],[-8.634851,53.105755],[-8.635299,53.105753]],[[-8.634407,53.106027],[-8.634855,53.106025],[-8.634859,53.106295],[-8.634411,53.106297],[-8.634407,53.106027]],[[-8.633963,53.106299],[-8.634411,53.106297],[-8.634415,53.106567],[-8.633967,53.106569],[-8.633963,53.106299]],[[-8.633519,53.106571],[-8.633967,53.106569],[-8.633971,53.106839],[-8.633523,53.106841],[-8.633519,53.106571]],[[-8.635334,53.108179],[-8.635338,53.108449],[-8.633994,53.108456],[-8.63399,53.108187],[-8.635334,53.108179]],[[-8.628948,53.100394],[-8.628952,53.100664],[-8.628504,53.100666],[-8.6285,53.100397],[-8.628948,53.100394]],[[-8.628056,53.100669],[-8.628504,53.100666],[-8.628508,53.100936],[-8.628512,53.101205],[-8.628064,53.101208],[-8.628068,53.101477],[-8.62762,53.10148],[-8.627616,53.10121],[-8.627612,53.100941],[-8.62806,53.100938],[-8.628056,53.100669]]],[[[-8.655559,53.112258],[-8.655561,53.112384],[-8.656457,53.112379],[-8.656453,53.112109],[-8.656324,53.11211],[-8.656239,53.112131],[-8.656112,53.112156],[-8.655643,53.112249],[-8.655559,53.112258]]],[[[-8.657088,53.118083],[-8.657502,53.118019],[-8.657567,53.118011],[-8.657884,53.117967],[-8.658382,53.117888],[-8.659051,53.11779],[-8.659521,53.117725],[-8.659675,53.117704],[-8.659672,53.117484],[-8.659668,53.117214],[-8.658323,53.117222],[-8.658319,53.116952],[-8.654734,53.116972],[-8.654738,53.117242],[-8.655187,53.117239],[-8.655191,53.117509],[-8.655195,53.117778],[-8.655199,53.118048],[-8.65251,53.118063],[-8.652514,53.118332],[-8.652066,53.118335],[-8.65207,53.118604],[-8.652861,53.1186],[-8.653171,53.118567],[-8.653414,53.118537],[-8.65341,53.118327],[-8.654755,53.11832],[-8.654756,53.118381],[-8.654767,53.11838],[-8.65543,53.118302],[-8.655502,53.118283],[-8.656098,53.118231],[-8.656095,53.118043],[-8.656991,53.118038],[-8.656992,53.118101],[-8.657088,53.118083]]],[[[-8.646249,53.118906],[-8.646697,53.118903],[-8.646693,53.118634],[-8.647141,53.118631],[-8.647137,53.118362],[-8.644896,53.118374],[-8.6449,53.118643],[-8.644452,53.118646],[-8.644456,53.118915],[-8.644008,53.118918],[-8.644004,53.118648],[-8.643556,53.118651],[-8.643552,53.118381],[-8.643104,53.118383],[-8.6431,53.118114],[-8.642651,53.118116],[-8.642655,53.118386],[-8.64266,53.118655],[-8.642211,53.118658],[-8.642223,53.119467],[-8.644912,53.119452],[-8.644908,53.119183],[-8.646253,53.119175],[-8.646249,53.118906]]],[[[-8.620917,53.094265],[-8.621437,53.09464],[-8.622259,53.095252],[-8.623368,53.096106],[-8.624389,53.096896],[-8.624556,53.097328],[-8.624604,53.097451],[-8.624874,53.09745],[-8.62487,53.09718],[-8.625766,53.097176],[-8.625762,53.096906],[-8.626657,53.096901],[-8.626654,53.096632],[-8.627549,53.096627],[-8.627545,53.096357],[-8.628441,53.096353],[-8.628437,53.096083],[-8.629333,53.096078],[-8.629329,53.095809],[-8.629777,53.095806],[-8.629773,53.095537],[-8.630221,53.095534],[-8.630217,53.095265],[-8.631113,53.09526],[-8.631109,53.09499],[-8.631557,53.094988],[-8.631556,53.094945],[-8.631523,53.094923],[-8.63095,53.094708],[-8.630868,53.094715],[-8.630042,53.094488],[-8.629322,53.094221],[-8.62919,53.094181],[-8.628583,53.094043],[-8.628156,53.093928],[-8.627964,53.093876],[-8.627625,53.093776],[-8.627572,53.093765],[-8.627286,53.093694],[-8.627095,53.093646],[-8.626997,53.093621],[-8.626423,53.093462],[-8.626144,53.093389],[-8.625792,53.093318],[-8.625199,53.093197],[-8.624606,53.093079],[-8.62368,53.092916],[-8.622809,53.092767],[-8.622634,53.09274],[-8.622208,53.092658],[-8.621289,53.092525],[-8.620703,53.092438],[-8.619927,53.092326],[-8.619552,53.092269],[-8.619089,53.092199],[-8.618766,53.09214],[-8.618494,53.09208],[-8.618313,53.092044],[-8.618038,53.091956],[-8.618134,53.092093],[-8.618185,53.092151],[-8.618241,53.092194],[-8.618345,53.09228],[-8.61854,53.092426],[-8.618815,53.092633],[-8.619203,53.092937],[-8.619588,53.093249],[-8.61983,53.093427],[-8.620066,53.093609],[-8.620267,53.093771],[-8.62043,53.093891],[-8.620527,53.093968],[-8.620622,53.094043],[-8.620713,53.094109],[-8.620917,53.094265]]],[[[-8.633101,53.095475],[-8.632994,53.095431],[-8.632902,53.095395],[-8.632836,53.095356],[-8.632773,53.095338],[-8.632667,53.095321],[-8.632593,53.095309],[-8.632429,53.095253],[-8.632009,53.095255],[-8.632013,53.095525],[-8.631117,53.09553],[-8.631121,53.095799],[-8.630673,53.095802],[-8.630677,53.096071],[-8.630229,53.096074],[-8.630233,53.096343],[-8.629337,53.096348],[-8.629341,53.096618],[-8.628445,53.096622],[-8.628449,53.096892],[-8.628001,53.096894],[-8.628005,53.097164],[-8.627557,53.097166],[-8.627561,53.097436],[-8.627565,53.097705],[-8.629805,53.097694],[-8.629801,53.097424],[-8.631144,53.097417],[-8.63114,53.097147],[-8.632036,53.097142],[-8.632032,53.096873],[-8.63248,53.09687],[-8.632476,53.096601],[-8.633372,53.096596],[-8.633368,53.096327],[-8.633816,53.096324],[-8.633812,53.096055],[-8.63426,53.096052],[-8.634258,53.095896],[-8.634228,53.095887],[-8.634187,53.095867],[-8.634087,53.095829],[-8.633995,53.095796],[-8.63395,53.095784],[-8.63336,53.095787],[-8.633357,53.095575],[-8.633142,53.09549],[-8.633101,53.095475]]],[[[-8.643075,53.116496],[-8.643079,53.116766],[-8.643976,53.116761],[-8.643972,53.116491],[-8.643075,53.116496]]],[[[-8.641735,53.116773],[-8.641739,53.117043],[-8.641743,53.117312],[-8.643088,53.117305],[-8.643083,53.117035],[-8.642635,53.117038],[-8.642631,53.116768],[-8.641735,53.116773]]],[[[-8.641789,53.120366],[-8.641789,53.120409],[-8.641835,53.120367],[-8.641893,53.120329],[-8.641905,53.120315],[-8.641904,53.120236],[-8.641933,53.120057],[-8.641974,53.120007],[-8.641911,53.120008],[-8.641909,53.120054],[-8.641901,53.120068],[-8.641906,53.120141],[-8.64189,53.120179],[-8.641891,53.120259],[-8.641891,53.120297],[-8.641809,53.120346],[-8.641789,53.120366]]],[[[-8.641753,53.120556],[-8.641747,53.120548],[-8.641739,53.120548],[-8.641753,53.120556]]]]}}]}
