{"type":"FeatureCollection","features":[{"type":"Feature","properties":{"source_fid":906720,"county":"Galway","bog_geom_ha":273.31908474708922,"low15_pct":71.802518223989395,"low15_ha":196.24998563516976,"overlay_ha":195.52724540086939,"area_delta":-0.7227402343003746},"geometry":{"type":"MultiPolygon","coordinates":[[[[-9.295773,53.368292],[-9.295767,53.368294],[-9.295827,53.368293],[-9.295798,53.368285],[-9.295773,53.368292]]],[[[-9.288363,53.37107],[-9.286861,53.371086],[-9.286888,53.371984],[-9.28839,53.371968],[-9.288363,53.37107]]],[[[-9.294344,53.370107],[-9.294371,53.371005],[-9.292869,53.371021],[-9.292848,53.370329],[-9.292455,53.370334],[-9.292447,53.370064],[-9.29284,53.37006],[-9.292815,53.369225],[-9.293774,53.369214],[-9.293768,53.369003],[-9.293561,53.369041],[-9.293418,53.369059],[-9.293377,53.369038],[-9.293092,53.368811],[-9.293074,53.368798],[-9.293053,53.368811],[-9.293031,53.368824],[-9.293008,53.368832],[-9.292982,53.368834],[-9.292946,53.368828],[-9.292904,53.368815],[-9.292872,53.368799],[-9.292855,53.368782],[-9.29285,53.368762],[-9.292849,53.36874],[-9.292842,53.368719],[-9.292823,53.368701],[-9.292791,53.368684],[-9.292754,53.368665],[-9.292731,53.368643],[-9.292725,53.368619],[-9.292734,53.368596],[-9.292749,53.368577],[-9.292758,53.368563],[-9.292753,53.368551],[-9.292731,53.368534],[-9.292696,53.368513],[-9.292661,53.368493],[-9.292626,53.368479],[-9.292579,53.368473],[-9.292521,53.368472],[-9.292461,53.368473],[-9.292407,53.36847],[-9.292365,53.368455],[-9.292333,53.368428],[-9.292306,53.368394],[-9.292285,53.368359],[-9.292272,53.368327],[-9.292268,53.368302],[-9.292267,53.368281],[-9.292266,53.368265],[-9.292261,53.368253],[-9.292249,53.368246],[-9.292227,53.368243],[-9.292201,53.368238],[-9.292178,53.368223],[-9.292164,53.368198],[-9.292161,53.368174],[-9.292164,53.368153],[-9.292164,53.368133],[-9.292154,53.368112],[-9.292127,53.368085],[-9.292089,53.36806],[-9.292052,53.368045],[-9.292024,53.368037],[-9.292006,53.368022],[-9.291996,53.368002],[-9.291988,53.367983],[-9.291975,53.367969],[-9.291949,53.367961],[-9.291906,53.367955],[-9.291843,53.367945],[-9.29177,53.367928],[-9.2917,53.367908],[-9.291642,53.367886],[-9.291604,53.367869],[-9.291576,53.367853],[-9.291546,53.367836],[-9.291515,53.367822],[-9.291489,53.367816],[-9.291461,53.367818],[-9.291421,53.367824],[-9.291377,53.367827],[-9.291345,53.367821],[-9.291323,53.367807],[-9.291303,53.36779],[-9.291286,53.367776],[-9.29127,53.367767],[-9.291243,53.367761],[-9.291193,53.367755],[-9.291135,53.367749],[-9.291089,53.367745],[-9.291052,53.367738],[-9.291012,53.367725],[-9.290974,53.367711],[-9.290948,53.367704],[-9.290929,53.367704],[-9.290908,53.367708],[-9.290884,53.367712],[-9.290857,53.367713],[-9.290835,53.367707],[-9.290823,53.367691],[-9.290816,53.36767],[-9.290806,53.367654],[-9.290792,53.367643],[-9.290774,53.367637],[-9.290755,53.367635],[-9.290739,53.367634],[-9.290726,53.367636],[-9.290714,53.367643],[-9.290703,53.367655],[-9.290683,53.367678],[-9.290609,53.367737],[-9.290534,53.367754],[-9.290505,53.367758],[-9.290451,53.367758],[-9.290422,53.367757],[-9.290351,53.367747],[-9.290322,53.367743],[-9.290183,53.367716],[-9.290175,53.367714],[-9.290142,53.367709],[-9.290122,53.367709],[-9.290129,53.367932],[-9.290137,53.368202],[-9.289236,53.368211],[-9.289244,53.368481],[-9.28699,53.368505],[-9.286999,53.368775],[-9.286792,53.368777],[-9.286807,53.369289],[-9.285305,53.369306],[-9.285278,53.368407],[-9.286536,53.368394],[-9.286532,53.368241],[-9.286523,53.367971],[-9.289227,53.367942],[-9.289219,53.367672],[-9.289354,53.367671],[-9.289353,53.36767],[-9.289341,53.367666],[-9.289314,53.367658],[-9.289254,53.367644],[-9.289093,53.367619],[-9.288987,53.367606],[-9.288958,53.367604],[-9.288873,53.367605],[-9.288752,53.367598],[-9.288722,53.367599],[-9.288688,53.367604],[-9.288659,53.367609],[-9.288566,53.367631],[-9.288473,53.367659],[-9.288445,53.367666],[-9.288335,53.367688],[-9.288306,53.367693],[-9.288204,53.367705],[-9.288175,53.36771],[-9.288102,53.367727],[-9.288024,53.367748],[-9.287996,53.367753],[-9.287942,53.367757],[-9.287912,53.367757],[-9.28777,53.367747],[-9.28774,53.367746],[-9.287611,53.367752],[-9.287522,53.367757],[-9.287493,53.367756],[-9.287321,53.367727],[-9.287294,53.36772],[-9.287225,53.367692],[-9.287166,53.367671],[-9.287138,53.367666],[-9.287041,53.367661],[-9.286952,53.367668],[-9.286922,53.367667],[-9.286839,53.367656],[-9.286811,53.367651],[-9.286677,53.367621],[-9.286663,53.36762],[-9.286634,53.367619],[-9.286584,53.367621],[-9.286399,53.36763],[-9.286369,53.367629],[-9.286327,53.367626],[-9.286299,53.36762],[-9.286249,53.367605],[-9.286235,53.367604],[-9.286205,53.367603],[-9.286072,53.367608],[-9.286043,53.36761],[-9.286015,53.367615],[-9.286004,53.367618],[-9.286,53.367634],[-9.286002,53.367641],[-9.286013,53.367658],[-9.286022,53.367666],[-9.28603,53.367684],[-9.286023,53.3677],[-9.286003,53.367709],[-9.285978,53.367711],[-9.285941,53.367701],[-9.285923,53.36769],[-9.285918,53.367678],[-9.285906,53.367662],[-9.285889,53.367647],[-9.285869,53.367633],[-9.285791,53.367596],[-9.285766,53.367586],[-9.285743,53.367579],[-9.285719,53.367576],[-9.285694,53.367578],[-9.285667,53.367585],[-9.285633,53.3676],[-9.285605,53.367604],[-9.285595,53.367604],[-9.285566,53.367601],[-9.285541,53.367594],[-9.285518,53.36758],[-9.285517,53.367572],[-9.285518,53.367563],[-9.285524,53.367546],[-9.285533,53.367527],[-9.285537,53.36751],[-9.285537,53.367497],[-9.285526,53.367468],[-9.285514,53.367452],[-9.285475,53.367419],[-9.285464,53.367403],[-9.285453,53.367345],[-9.285444,53.367328],[-9.285396,53.367277],[-9.285379,53.367263],[-9.285328,53.36723],[-9.285279,53.367204],[-9.285241,53.367196],[-9.285212,53.367191],[-9.285201,53.36719],[-9.285173,53.367184],[-9.285065,53.367149],[-9.285069,53.367144],[-9.28517,53.367005],[-9.28518,53.366989],[-9.285186,53.366977],[-9.28462,53.367099],[-9.284271,53.367173],[-9.284017,53.367241],[-9.283939,53.367277],[-9.283787,53.367408],[-9.283538,53.367708],[-9.283184,53.368123],[-9.283213,53.368154],[-9.283119,53.368208],[-9.282967,53.368315],[-9.282949,53.368385],[-9.28296,53.368466],[-9.283065,53.368861],[-9.283166,53.369372],[-9.283243,53.369641],[-9.283262,53.369713],[-9.283366,53.370094],[-9.283461,53.370298],[-9.283466,53.370444],[-9.283402,53.370569],[-9.283292,53.370729],[-9.283104,53.370846],[-9.282896,53.37098],[-9.282851,53.371097],[-9.282804,53.371237],[-9.282797,53.371263],[-9.282766,53.371398],[-9.282772,53.371644],[-9.282772,53.371896],[-9.282785,53.372144],[-9.283035,53.372257],[-9.283011,53.372609],[-9.283089,53.372653],[-9.283133,53.372892],[-9.283159,53.373093],[-9.283197,53.373145],[-9.28334,53.373239],[-9.283687,53.37344],[-9.283899,53.373562],[-9.284026,53.373678],[-9.284239,53.373823],[-9.284467,53.37395],[-9.284841,53.374127],[-9.285041,53.374244],[-9.28533,53.37453],[-9.285488,53.374719],[-9.285642,53.374869],[-9.285442,53.375016],[-9.285201,53.375218],[-9.284965,53.375426],[-9.284634,53.375712],[-9.284989,53.375916],[-9.285184,53.376406],[-9.285177,53.376491],[-9.285166,53.376506],[-9.285126,53.376531],[-9.284921,53.376633],[-9.284901,53.376646],[-9.284872,53.376671],[-9.284859,53.376687],[-9.284837,53.37673],[-9.284824,53.376745],[-9.284725,53.376819],[-9.284704,53.376831],[-9.284614,53.376867],[-9.284587,53.376875],[-9.284529,53.376883],[-9.284502,53.376891],[-9.2844,53.376934],[-9.28438,53.376947],[-9.284279,53.377039],[-9.284232,53.377115],[-9.284218,53.377131],[-9.284149,53.377198],[-9.284128,53.37721],[-9.284067,53.377233],[-9.284044,53.377244],[-9.283978,53.377289],[-9.283956,53.377301],[-9.28387,53.377326],[-9.283852,53.377339],[-9.283719,53.37745],[-9.283698,53.377462],[-9.283553,53.37751],[-9.283513,53.377539],[-9.283462,53.377582],[-9.283335,53.377679],[-9.283315,53.377692],[-9.283235,53.377734],[-9.283217,53.377748],[-9.283173,53.377795],[-9.283156,53.37781],[-9.283075,53.37786],[-9.283059,53.377875],[-9.282994,53.377986],[-9.282821,53.378053],[-9.282791,53.378101],[-9.282664,53.378206],[-9.282623,53.378236],[-9.282619,53.378243],[-9.282615,53.37826],[-9.282625,53.378357],[-9.282625,53.378461],[-9.282621,53.378478],[-9.28258,53.378571],[-9.282545,53.37871],[-9.282538,53.378813],[-9.282543,53.37883],[-9.282558,53.378853],[-9.282553,53.378906],[-9.282547,53.378924],[-9.28253,53.378953],[-9.28253,53.378961],[-9.282532,53.378978],[-9.282553,53.379036],[-9.282558,53.379053],[-9.282561,53.379068],[-9.2828,53.379066],[-9.282808,53.379335],[-9.283259,53.37933],[-9.283267,53.3796],[-9.283275,53.379869],[-9.282824,53.379874],[-9.282816,53.379605],[-9.282402,53.379609],[-9.282307,53.379707],[-9.282275,53.379752],[-9.282269,53.379769],[-9.28227,53.379792],[-9.282277,53.379809],[-9.282309,53.379845],[-9.282327,53.379859],[-9.282422,53.379909],[-9.282648,53.380043],[-9.282664,53.380058],[-9.282711,53.38012],[-9.282714,53.380137],[-9.282698,53.380184],[-9.2827,53.380201],[-9.282761,53.380294],[-9.282774,53.38031],[-9.2828,53.380334],[-9.282821,53.380346],[-9.282838,53.380351],[-9.282832,53.380144],[-9.283283,53.380139],[-9.283291,53.380409],[-9.283015,53.380412],[-9.283057,53.380444],[-9.283071,53.38046],[-9.283075,53.380467],[-9.283064,53.380564],[-9.283066,53.380582],[-9.283076,53.380626],[-9.283074,53.380644],[-9.283029,53.380742],[-9.283016,53.380758],[-9.282991,53.38077],[-9.282934,53.38079],[-9.282936,53.380831],[-9.282917,53.380842],[-9.282789,53.380883],[-9.282746,53.380898],[-9.282652,53.380922],[-9.282615,53.380926],[-9.282595,53.380922],[-9.282565,53.38092],[-9.282536,53.380914],[-9.282507,53.380903],[-9.282477,53.380896],[-9.282451,53.380902],[-9.28243,53.380909],[-9.282412,53.380918],[-9.282403,53.380973],[-9.282329,53.380998],[-9.282223,53.381027],[-9.282138,53.38101],[-9.282079,53.381064],[-9.282039,53.381094],[-9.281891,53.381129],[-9.281831,53.381128],[-9.281677,53.381136],[-9.281425,53.381237],[-9.281512,53.381237],[-9.28152,53.381506],[-9.281069,53.381511],[-9.281066,53.381383],[-9.280754,53.38151],[-9.280733,53.381523],[-9.280607,53.381583],[-9.280581,53.38159],[-9.280475,53.381625],[-9.280445,53.381633],[-9.280412,53.381651],[-9.280395,53.381659],[-9.280358,53.381685],[-9.280326,53.381697],[-9.280273,53.381733],[-9.280253,53.381746],[-9.280096,53.381824],[-9.280017,53.381858],[-9.279991,53.381865],[-9.279908,53.381879],[-9.279879,53.381879],[-9.279756,53.381865],[-9.279726,53.381863],[-9.279492,53.381846],[-9.279462,53.381845],[-9.279236,53.381844],[-9.279206,53.381846],[-9.278917,53.381891],[-9.27889,53.381897],[-9.278813,53.381923],[-9.278789,53.381934],[-9.27867,53.381996],[-9.278602,53.382011],[-9.278572,53.382027],[-9.278557,53.382045],[-9.278557,53.38206],[-9.278574,53.382084],[-9.278594,53.382096],[-9.278657,53.382102],[-9.278702,53.382134],[-9.278734,53.382159],[-9.278742,53.382177],[-9.278742,53.382192],[-9.278734,53.382195],[-9.278718,53.382216],[-9.278671,53.382248],[-9.278651,53.382255],[-9.278628,53.382259],[-9.278585,53.382276],[-9.278559,53.382287],[-9.278545,53.382309],[-9.278528,53.382323],[-9.278391,53.382428],[-9.27837,53.382441],[-9.278291,53.382481],[-9.278265,53.38249],[-9.278222,53.3825],[-9.278212,53.382506],[-9.278193,53.38252],[-9.278142,53.382574],[-9.278095,53.382631],[-9.278089,53.382648],[-9.278093,53.38268],[-9.278092,53.382698],[-9.278086,53.382731],[-9.278072,53.382745],[-9.278029,53.382764],[-9.278008,53.382776],[-9.277995,53.382786],[-9.277988,53.382802],[-9.277997,53.382842],[-9.277989,53.382857],[-9.277947,53.382881],[-9.277923,53.38289],[-9.277762,53.382925],[-9.277708,53.382939],[-9.277689,53.382951],[-9.277657,53.382996],[-9.277643,53.383014],[-9.277628,53.38303],[-9.277584,53.383064],[-9.277561,53.383074],[-9.277492,53.383089],[-9.277409,53.383064],[-9.277335,53.38305],[-9.277287,53.383059],[-9.277216,53.383114],[-9.277146,53.383166],[-9.277105,53.383252],[-9.277098,53.383352],[-9.27707,53.383503],[-9.277039,53.38355],[-9.276968,53.383585],[-9.276902,53.383572],[-9.276838,53.38359],[-9.276675,53.383661],[-9.276521,53.383759],[-9.27634,53.383882],[-9.276272,53.383933],[-9.276226,53.383967],[-9.276146,53.384063],[-9.276125,53.384136],[-9.276168,53.38418],[-9.276228,53.384234],[-9.276337,53.384376],[-9.276347,53.384422],[-9.276305,53.384464],[-9.276274,53.384499],[-9.276268,53.384538],[-9.276334,53.384632],[-9.276352,53.384677],[-9.276655,53.384674],[-9.27665,53.384524],[-9.277101,53.384519],[-9.277105,53.384669],[-9.278253,53.384657],[-9.27828,53.385555],[-9.281285,53.385523],[-9.281302,53.386092],[-9.282109,53.386083],[-9.282117,53.386353],[-9.283469,53.386338],[-9.283477,53.386608],[-9.284323,53.386599],[-9.284317,53.386389],[-9.285819,53.386373],[-9.285834,53.386852],[-9.286191,53.386848],[-9.286182,53.386579],[-9.286174,53.386309],[-9.287076,53.3863],[-9.287068,53.38603],[-9.28706,53.38576],[-9.287511,53.385756],[-9.287519,53.386025],[-9.28842,53.386015],[-9.288429,53.386285],[-9.28933,53.386275],[-9.289332,53.386335],[-9.291586,53.386311],[-9.291585,53.386251],[-9.292486,53.386241],[-9.292478,53.385972],[-9.29247,53.385702],[-9.292019,53.385707],[-9.292027,53.385976],[-9.288871,53.386011],[-9.288863,53.385741],[-9.287961,53.385751],[-9.287953,53.385481],[-9.287503,53.385486],[-9.287494,53.385217],[-9.287044,53.385221],[-9.287035,53.384952],[-9.286585,53.384957],[-9.286576,53.384687],[-9.287478,53.384677],[-9.28747,53.384408],[-9.287019,53.384413],[-9.287011,53.384143],[-9.287003,53.383874],[-9.286995,53.383604],[-9.286544,53.383609],[-9.286536,53.38334],[-9.286085,53.383344],[-9.286077,53.383075],[-9.284724,53.383089],[-9.284716,53.38282],[-9.284266,53.382825],[-9.284257,53.382555],[-9.284249,53.382286],[-9.283798,53.38229],[-9.28379,53.382021],[-9.283758,53.380943],[-9.284209,53.380938],[-9.284201,53.380668],[-9.284193,53.380399],[-9.284643,53.380394],[-9.284635,53.380124],[-9.284634,53.380096],[-9.284128,53.380101],[-9.284074,53.378305],[-9.28458,53.378299],[-9.28457,53.377968],[-9.285021,53.377963],[-9.285013,53.377694],[-9.284997,53.377155],[-9.285447,53.37715],[-9.285431,53.376611],[-9.285882,53.376606],[-9.285898,53.377145],[-9.285914,53.377684],[-9.286365,53.377679],[-9.286373,53.377949],[-9.286824,53.377944],[-9.286834,53.378275],[-9.287078,53.378272],[-9.287092,53.37875],[-9.287299,53.378748],[-9.287307,53.379017],[-9.287758,53.379012],[-9.287766,53.379282],[-9.288217,53.379277],[-9.288225,53.379547],[-9.289127,53.379537],[-9.289135,53.379806],[-9.289586,53.379801],[-9.289569,53.379262],[-9.29002,53.379258],[-9.290004,53.378718],[-9.290455,53.378714],[-9.290446,53.378444],[-9.290438,53.378174],[-9.290889,53.37817],[-9.290881,53.3779],[-9.291332,53.377895],[-9.291315,53.377356],[-9.291766,53.377351],[-9.291758,53.377082],[-9.291738,53.376425],[-9.29153,53.376427],[-9.291526,53.376275],[-9.291283,53.376278],[-9.291275,53.376008],[-9.290824,53.376013],[-9.290816,53.375744],[-9.291509,53.375736],[-9.291503,53.375529],[-9.293005,53.375512],[-9.292995,53.375181],[-9.292602,53.375185],[-9.292594,53.374916],[-9.292987,53.374911],[-9.292978,53.374614],[-9.29448,53.374598],[-9.294507,53.375496],[-9.296009,53.37548],[-9.295982,53.374582],[-9.297484,53.374565],[-9.297501,53.375132],[-9.298913,53.375117],[-9.298904,53.374847],[-9.299355,53.374842],[-9.299347,53.374573],[-9.300248,53.374563],[-9.300256,53.374832],[-9.301158,53.374823],[-9.301166,53.375092],[-9.301617,53.375087],[-9.301609,53.374818],[-9.3016,53.374548],[-9.302051,53.374543],[-9.30205,53.374516],[-9.301991,53.374516],[-9.301963,53.373618],[-9.302924,53.373608],[-9.30292,53.373455],[-9.303461,53.373449],[-9.303444,53.37291],[-9.302903,53.372916],[-9.302911,53.373186],[-9.302461,53.373191],[-9.302453,53.372921],[-9.302444,53.372652],[-9.303796,53.372637],[-9.303798,53.372699],[-9.3047,53.37269],[-9.304698,53.372627],[-9.30469,53.372357],[-9.30514,53.372352],[-9.305132,53.372083],[-9.306033,53.372073],[-9.306025,53.371804],[-9.306476,53.371799],[-9.306468,53.371529],[-9.306918,53.371524],[-9.30691,53.371255],[-9.307361,53.37125],[-9.307352,53.37098],[-9.307803,53.370975],[-9.307795,53.370706],[-9.308246,53.370701],[-9.308237,53.370431],[-9.308688,53.370426],[-9.30868,53.370157],[-9.308671,53.369887],[-9.309122,53.369882],[-9.309114,53.369613],[-9.309106,53.369343],[-9.310007,53.369333],[-9.310001,53.369148],[-9.309969,53.369145],[-9.309723,53.369105],[-9.309551,53.369083],[-9.309366,53.369182],[-9.309258,53.369232],[-9.309098,53.369265],[-9.309,53.369276],[-9.30899,53.369277],[-9.308788,53.369288],[-9.308669,53.369275],[-9.308589,53.369262],[-9.308518,53.369256],[-9.308439,53.369252],[-9.308349,53.369253],[-9.308255,53.369259],[-9.308162,53.369269],[-9.308076,53.369281],[-9.307998,53.369289],[-9.307934,53.369288],[-9.307883,53.369276],[-9.307836,53.369253],[-9.307782,53.369222],[-9.307731,53.369192],[-9.307695,53.369172],[-9.307664,53.36916],[-9.307621,53.369149],[-9.307553,53.369136],[-9.307453,53.369118],[-9.307331,53.369098],[-9.307295,53.369094],[-9.307303,53.369363],[-9.306402,53.369373],[-9.306393,53.369103],[-9.306385,53.368834],[-9.306717,53.36883],[-9.306708,53.368803],[-9.306699,53.368765],[-9.306685,53.368722],[-9.306665,53.368672],[-9.306638,53.36862],[-9.306606,53.368568],[-9.306568,53.36852],[-9.306523,53.368469],[-9.306471,53.368409],[-9.306422,53.368346],[-9.306389,53.368295],[-9.306371,53.368261],[-9.306359,53.368241],[-9.306343,53.368231],[-9.306314,53.368225],[-9.30627,53.36822],[-9.306217,53.36821],[-9.306161,53.368193],[-9.3061,53.368167],[-9.306033,53.368132],[-9.305971,53.368093],[-9.305927,53.368055],[-9.305895,53.36801],[-9.30586,53.36795],[-9.305819,53.367879],[-9.305781,53.367816],[-9.305748,53.367769],[-9.305724,53.36774],[-9.305706,53.367725],[-9.305687,53.36772],[-9.305656,53.367721],[-9.305608,53.367725],[-9.305541,53.367734],[-9.305468,53.367748],[-9.305404,53.367766],[-9.305359,53.367787],[-9.305332,53.367809],[-9.305312,53.367831],[-9.305283,53.367852],[-9.305238,53.367869],[-9.305187,53.367881],[-9.30513,53.367887],[-9.305062,53.36789],[-9.30498,53.36789],[-9.3049,53.367888],[-9.304832,53.367884],[-9.304767,53.36787],[-9.304692,53.36784],[-9.3046,53.367796],[-9.304494,53.367746],[-9.304388,53.367699],[-9.304301,53.367661],[-9.304242,53.367634],[-9.304207,53.367611],[-9.304187,53.367587],[-9.304175,53.36756],[-9.304164,53.367533],[-9.304151,53.367509],[-9.304137,53.36749],[-9.304127,53.367471],[-9.304126,53.367446],[-9.304132,53.367416],[-9.304139,53.367388],[-9.304143,53.367364],[-9.30414,53.367344],[-9.304129,53.367323],[-9.30411,53.367301],[-9.304079,53.367276],[-9.304028,53.367246],[-9.303955,53.367214],[-9.303875,53.367186],[-9.303804,53.367167],[-9.303751,53.367157],[-9.303713,53.367141],[-9.303685,53.36714],[-9.303641,53.367152],[-9.303584,53.367164],[-9.303513,53.367182],[-9.303443,53.367205],[-9.30338,53.367233],[-9.303343,53.367265],[-9.3033,53.367287],[-9.303254,53.367298],[-9.303206,53.367314],[-9.303186,53.367338],[-9.303181,53.367367],[-9.303155,53.367399],[-9.303127,53.36743],[-9.3031,53.367452],[-9.303074,53.36746],[-9.303051,53.367455],[-9.303027,53.367446],[-9.303001,53.367438],[-9.302977,53.367432],[-9.302952,53.36742],[-9.302937,53.367417],[-9.302913,53.367417],[-9.302884,53.367419],[-9.302858,53.367423],[-9.302831,53.367424],[-9.302813,53.367425],[-9.302793,53.367435],[-9.302769,53.367447],[-9.302733,53.367461],[-9.302696,53.36746],[-9.302668,53.367466],[-9.302648,53.367484],[-9.302632,53.367504],[-9.302606,53.367538],[-9.302581,53.367571],[-9.302559,53.367602],[-9.302532,53.367632],[-9.30252,53.367648],[-9.302497,53.367661],[-9.302465,53.36767],[-9.302427,53.367682],[-9.302388,53.367694],[-9.302354,53.367701],[-9.302337,53.367702],[-9.302316,53.367708],[-9.302277,53.367719],[-9.302248,53.367726],[-9.302221,53.36773],[-9.302193,53.367739],[-9.30216,53.367755],[-9.302134,53.367768],[-9.302106,53.367784],[-9.302079,53.367797],[-9.302055,53.367809],[-9.302015,53.367825],[-9.301969,53.367839],[-9.301914,53.367851],[-9.301866,53.367868],[-9.301826,53.367875],[-9.301804,53.367873],[-9.301775,53.367874],[-9.301741,53.367873],[-9.301717,53.367881],[-9.301697,53.367883],[-9.301676,53.367887],[-9.301652,53.367889],[-9.301615,53.367901],[-9.301575,53.367905],[-9.301533,53.367915],[-9.3015,53.367919],[-9.301443,53.367918],[-9.301408,53.367845],[-9.301399,53.367801],[-9.301393,53.367773],[-9.301385,53.367753],[-9.30138,53.36773],[-9.301384,53.3677],[-9.301386,53.367671],[-9.301376,53.367646],[-9.301354,53.367619],[-9.301318,53.367589],[-9.30131,53.367546],[-9.301314,53.367517],[-9.301308,53.367495],[-9.301278,53.36748],[-9.301222,53.367467],[-9.301198,53.367452],[-9.301185,53.367434],[-9.301187,53.367416],[-9.301199,53.367403],[-9.301214,53.36739],[-9.301225,53.367373],[-9.301232,53.367353],[-9.301234,53.367335],[-9.30123,53.367322],[-9.301221,53.367312],[-9.301201,53.367299],[-9.301167,53.367277],[-9.301124,53.367251],[-9.301074,53.367216],[-9.301022,53.367172],[-9.300976,53.367143],[-9.300935,53.367136],[-9.300887,53.367141],[-9.300841,53.367152],[-9.30079,53.367166],[-9.30071,53.367173],[-9.300622,53.367171],[-9.300562,53.367164],[-9.300532,53.367165],[-9.300512,53.367171],[-9.300495,53.367192],[-9.300446,53.367202],[-9.300371,53.367203],[-9.300305,53.367188],[-9.300256,53.367168],[-9.300207,53.367146],[-9.300151,53.367143],[-9.300084,53.367143],[-9.30003,53.367152],[-9.299989,53.367163],[-9.299942,53.367172],[-9.299884,53.367177],[-9.299814,53.367181],[-9.299751,53.367188],[-9.299671,53.367198],[-9.299581,53.367209],[-9.299495,53.367208],[-9.299432,53.367203],[-9.2994,53.367192],[-9.299383,53.36718],[-9.299362,53.36717],[-9.299325,53.367165],[-9.299271,53.367162],[-9.299207,53.367159],[-9.299145,53.36716],[-9.299094,53.367169],[-9.299035,53.367188],[-9.29895,53.367218],[-9.298839,53.367258],[-9.298725,53.3673],[-9.298639,53.367338],[-9.298584,53.367371],[-9.298542,53.367406],[-9.298503,53.367447],[-9.298467,53.367488],[-9.298432,53.367521],[-9.298392,53.367537],[-9.298341,53.367539],[-9.298275,53.367538],[-9.298215,53.367536],[-9.298176,53.367537],[-9.298154,53.36754],[-9.298142,53.367549],[-9.298134,53.367568],[-9.298127,53.367598],[-9.298118,53.367633],[-9.298103,53.367665],[-9.298082,53.36769],[-9.298047,53.367708],[-9.297998,53.367726],[-9.297946,53.367747],[-9.297912,53.367768],[-9.297894,53.367788],[-9.297882,53.367808],[-9.297869,53.367826],[-9.297852,53.367846],[-9.297851,53.367848],[-9.29824,53.367844],[-9.298249,53.368114],[-9.298257,53.368383],[-9.297806,53.368388],[-9.297814,53.368658],[-9.297305,53.368663],[-9.297348,53.370074],[-9.294344,53.370107]],[[-9.297375,53.370972],[-9.297348,53.370074],[-9.29885,53.370058],[-9.298877,53.370956],[-9.297375,53.370972]],[[-9.298691,53.367839],[-9.29824,53.367844],[-9.298232,53.367575],[-9.298683,53.36757],[-9.298691,53.367839]],[[-9.306377,53.368564],[-9.306385,53.368834],[-9.305934,53.368839],[-9.305926,53.368569],[-9.306377,53.368564]],[[-9.307311,53.369632],[-9.307303,53.369363],[-9.307754,53.369358],[-9.307762,53.369628],[-9.307311,53.369632]],[[-9.30201,53.373196],[-9.302461,53.373191],[-9.302469,53.37346],[-9.302018,53.373465],[-9.30201,53.373196]],[[-9.292951,53.373716],[-9.292978,53.374614],[-9.291476,53.37463],[-9.291449,53.373732],[-9.292951,53.373716]],[[-9.290808,53.375474],[-9.290816,53.375744],[-9.289463,53.375758],[-9.289455,53.375489],[-9.289005,53.375494],[-9.288996,53.375224],[-9.288546,53.375229],[-9.288529,53.37469],[-9.287177,53.374705],[-9.287176,53.374677],[-9.28697,53.374679],[-9.286962,53.374437],[-9.286718,53.37444],[-9.28671,53.37417],[-9.28626,53.374175],[-9.286251,53.373906],[-9.285801,53.373911],[-9.285797,53.373793],[-9.285441,53.373797],[-9.285436,53.373645],[-9.285342,53.373646],[-9.285334,53.373376],[-9.285293,53.372029],[-9.285285,53.371759],[-9.285277,53.37149],[-9.285269,53.37122],[-9.285265,53.371103],[-9.283857,53.371118],[-9.28383,53.37022],[-9.285238,53.370205],[-9.285236,53.370142],[-9.285228,53.369872],[-9.285679,53.369867],[-9.285671,53.369598],[-9.286122,53.369593],[-9.286113,53.369324],[-9.286564,53.369319],[-9.286572,53.369588],[-9.28658,53.369858],[-9.288834,53.369833],[-9.288842,53.370103],[-9.289293,53.370098],[-9.289301,53.370368],[-9.288342,53.370378],[-9.288363,53.37107],[-9.291124,53.37104],[-9.29112,53.370887],[-9.291112,53.370618],[-9.291562,53.370613],[-9.29157,53.370882],[-9.292021,53.370877],[-9.292029,53.371147],[-9.291371,53.371154],[-9.291394,53.371936],[-9.28839,53.371968],[-9.288464,53.374421],[-9.288972,53.374416],[-9.28898,53.374685],[-9.289431,53.37468],[-9.289447,53.375219],[-9.289898,53.375214],[-9.289906,53.375484],[-9.290808,53.375474]],[[-9.291422,53.372834],[-9.291394,53.371936],[-9.292896,53.371919],[-9.292924,53.372818],[-9.291422,53.372834]],[[-9.292037,53.371417],[-9.292029,53.371147],[-9.29248,53.371142],[-9.292488,53.371412],[-9.292037,53.371417]],[[-9.291095,53.370079],[-9.289293,53.370098],[-9.289284,53.369829],[-9.291087,53.369809],[-9.291095,53.370079]],[[-9.291538,53.369804],[-9.291087,53.369809],[-9.291079,53.36954],[-9.29153,53.369535],[-9.291538,53.369804]],[[-9.286568,53.384418],[-9.286576,53.384687],[-9.285675,53.384697],[-9.285667,53.384427],[-9.285216,53.384432],[-9.285208,53.384163],[-9.284757,53.384168],[-9.284749,53.383898],[-9.28565,53.383888],[-9.285659,53.384158],[-9.286109,53.384153],[-9.286117,53.384423],[-9.286568,53.384418]],[[-9.287052,53.385491],[-9.28706,53.38576],[-9.285707,53.385775],[-9.285699,53.385506],[-9.287052,53.385491]],[[-9.303328,53.36911],[-9.301826,53.369127],[-9.301811,53.368614],[-9.30142,53.368618],[-9.301411,53.368349],[-9.301403,53.368079],[-9.302305,53.368069],[-9.302309,53.368223],[-9.303301,53.368212],[-9.303328,53.36911]],[[-9.297457,53.373667],[-9.29743,53.372769],[-9.298932,53.372752],[-9.298959,53.373651],[-9.297457,53.373667]],[[-9.302747,53.367795],[-9.302739,53.367525],[-9.303189,53.367521],[-9.303198,53.36779],[-9.302747,53.367795]],[[-9.30364,53.367516],[-9.304091,53.367511],[-9.304099,53.36778],[-9.303648,53.367785],[-9.30364,53.367516]],[[-9.299576,53.36729],[-9.300477,53.36728],[-9.300485,53.36755],[-9.299584,53.36756],[-9.299576,53.36729]],[[-9.291481,53.367917],[-9.291489,53.368187],[-9.290588,53.368197],[-9.290579,53.367927],[-9.291481,53.367917]],[[-9.291497,53.368457],[-9.291489,53.368187],[-9.291939,53.368182],[-9.291948,53.368452],[-9.291497,53.368457]],[[-9.288128,53.376312],[-9.288578,53.376307],[-9.288586,53.376577],[-9.288136,53.376582],[-9.288128,53.376312]],[[-9.28563,53.36825],[-9.285622,53.367981],[-9.286073,53.367976],[-9.286081,53.368245],[-9.28563,53.36825]],[[-9.284327,53.369882],[-9.283876,53.369887],[-9.283884,53.370156],[-9.283434,53.370161],[-9.283426,53.369892],[-9.283418,53.369622],[-9.283401,53.369083],[-9.283852,53.369078],[-9.283868,53.369617],[-9.284319,53.369612],[-9.284327,53.369882]]],[[[-9.297293,53.368277],[-9.297297,53.368394],[-9.297356,53.368393],[-9.297347,53.368123],[-9.297798,53.368119],[-9.297792,53.367937],[-9.297775,53.367961],[-9.29773,53.368005],[-9.297676,53.368042],[-9.297612,53.368069],[-9.297535,53.368094],[-9.297457,53.368112],[-9.297397,53.368119],[-9.297336,53.368119],[-9.297246,53.368126],[-9.297151,53.368134],[-9.297068,53.368142],[-9.296999,53.368156],[-9.296933,53.368176],[-9.296855,53.368197],[-9.296775,53.368214],[-9.296714,53.368221],[-9.296681,53.368219],[-9.296658,53.368218],[-9.296623,53.368222],[-9.296542,53.368235],[-9.296331,53.368246],[-9.296262,53.368268],[-9.29621,53.368289],[-9.297293,53.368277]]],[[[-9.306851,53.368943],[-9.306839,53.368934],[-9.306844,53.369098],[-9.307293,53.369093],[-9.307209,53.369082],[-9.307107,53.369072],[-9.307033,53.369064],[-9.306988,53.369053],[-9.306956,53.369035],[-9.306924,53.369008],[-9.306888,53.368976],[-9.306851,53.368943]]],[[[-9.311021,53.369067],[-9.310901,53.369087],[-9.310908,53.369323],[-9.310917,53.369593],[-9.310015,53.369603],[-9.310023,53.369872],[-9.310032,53.370142],[-9.309581,53.370147],[-9.309589,53.370416],[-9.309598,53.370686],[-9.309147,53.370691],[-9.309155,53.37096],[-9.308705,53.370965],[-9.308713,53.371235],[-9.307811,53.371245],[-9.30782,53.371514],[-9.307369,53.371519],[-9.307377,53.371789],[-9.306927,53.371794],[-9.306935,53.372063],[-9.307836,53.372053],[-9.307844,53.372323],[-9.307394,53.372328],[-9.307402,53.372597],[-9.306951,53.372602],[-9.30696,53.372872],[-9.306509,53.372877],[-9.306525,53.373416],[-9.304963,53.373433],[-9.304967,53.373585],[-9.304727,53.373588],[-9.304731,53.373705],[-9.304747,53.374244],[-9.304297,53.374249],[-9.304305,53.374519],[-9.303403,53.374528],[-9.303412,53.374798],[-9.302961,53.374803],[-9.302969,53.375072],[-9.302518,53.375077],[-9.302527,53.375347],[-9.302076,53.375352],[-9.302068,53.375082],[-9.301617,53.375087],[-9.301625,53.375357],[-9.301633,53.375626],[-9.301642,53.375896],[-9.301191,53.375901],[-9.301183,53.375631],[-9.300281,53.375641],[-9.300289,53.375911],[-9.300298,53.37618],[-9.300748,53.376175],[-9.300756,53.376445],[-9.300765,53.376714],[-9.300773,53.376984],[-9.301224,53.376979],[-9.301232,53.377248],[-9.301265,53.378327],[-9.300814,53.378332],[-9.30083,53.378871],[-9.30038,53.378875],[-9.300363,53.378336],[-9.30033,53.377258],[-9.29988,53.377263],[-9.299871,53.376994],[-9.298519,53.377008],[-9.298536,53.377547],[-9.298544,53.377817],[-9.298093,53.377822],[-9.298085,53.377552],[-9.297183,53.377562],[-9.297192,53.377832],[-9.297642,53.377827],[-9.29765,53.378096],[-9.298101,53.378091],[-9.298109,53.378361],[-9.298118,53.37863],[-9.298568,53.378626],[-9.298577,53.378895],[-9.298126,53.3789],[-9.298142,53.379439],[-9.298593,53.379434],[-9.298601,53.379704],[-9.299503,53.379694],[-9.299495,53.379424],[-9.299945,53.379419],[-9.299954,53.379689],[-9.299962,53.379959],[-9.29997,53.380228],[-9.298618,53.380243],[-9.298609,53.379973],[-9.298159,53.379978],[-9.29815,53.379709],[-9.2977,53.379714],[-9.297708,53.379983],[-9.297716,53.380253],[-9.297724,53.380522],[-9.298175,53.380517],[-9.298183,53.380787],[-9.299085,53.380777],[-9.299093,53.381047],[-9.299948,53.381037],[-9.299964,53.381004],[-9.300115,53.380744],[-9.300341,53.38033],[-9.30044,53.380176],[-9.3005,53.380055],[-9.300524,53.379997],[-9.300581,53.379863],[-9.300679,53.379694],[-9.300789,53.379617],[-9.300874,53.379529],[-9.300966,53.379428],[-9.301019,53.379332],[-9.301192,53.379258],[-9.301428,53.37914],[-9.301906,53.378876],[-9.30215,53.378749],[-9.302377,53.378622],[-9.302825,53.378382],[-9.303123,53.378216],[-9.303428,53.378025],[-9.303508,53.377972],[-9.303502,53.377763],[-9.30384,53.377759],[-9.30389,53.377728],[-9.30407,53.377601],[-9.30426,53.377495],[-9.304539,53.377306],[-9.304813,53.377148],[-9.30493,53.377046],[-9.305136,53.376885],[-9.305408,53.376666],[-9.305591,53.376516],[-9.305857,53.376351],[-9.30606,53.376209],[-9.306404,53.375976],[-9.306693,53.375786],[-9.307076,53.375532],[-9.307382,53.375352],[-9.307531,53.375273],[-9.307915,53.375063],[-9.308323,53.374833],[-9.308857,53.374544],[-9.309461,53.374207],[-9.310057,53.37387],[-9.310316,53.373733],[-9.310676,53.373518],[-9.3111,53.373302],[-9.31172,53.372974],[-9.312184,53.372729],[-9.312631,53.37249],[-9.312991,53.37226],[-9.31336,53.372079],[-9.313643,53.371932],[-9.313894,53.371795],[-9.314247,53.371595],[-9.314514,53.371457],[-9.314843,53.371262],[-9.315133,53.37111],[-9.315494,53.370895],[-9.315714,53.370787],[-9.315894,53.370685],[-9.316027,53.370615],[-9.313654,53.370641],[-9.313645,53.370372],[-9.313637,53.370102],[-9.312736,53.370112],[-9.312744,53.370382],[-9.312293,53.370387],[-9.312302,53.370656],[-9.311851,53.370661],[-9.311843,53.370392],[-9.311392,53.370397],[-9.3114,53.370666],[-9.31095,53.370671],[-9.310941,53.370402],[-9.310933,53.370132],[-9.311384,53.370127],[-9.311376,53.369858],[-9.311826,53.369853],[-9.311818,53.369583],[-9.312719,53.369573],[-9.312718,53.369546],[-9.312546,53.369503],[-9.312293,53.369458],[-9.312019,53.36939],[-9.311839,53.369382],[-9.311615,53.369366],[-9.311434,53.36934],[-9.311368,53.36929],[-9.311321,53.369207],[-9.311284,53.369162],[-9.311249,53.369084],[-9.311232,53.369057],[-9.3112,53.369051],[-9.311021,53.369067]],[[-9.310983,53.371749],[-9.310532,53.371754],[-9.310507,53.370946],[-9.310958,53.370941],[-9.310983,53.371749]],[[-9.310081,53.371759],[-9.310532,53.371754],[-9.310549,53.372293],[-9.310098,53.372298],[-9.310081,53.371759]]],[[[-9.31338,53.369677],[-9.313172,53.369641],[-9.313178,53.369838],[-9.313629,53.369833],[-9.313637,53.370102],[-9.315406,53.370083],[-9.315383,53.370075],[-9.314948,53.369966],[-9.314847,53.369929],[-9.314693,53.369883],[-9.314609,53.36986],[-9.314537,53.369851],[-9.314297,53.369845],[-9.31422,53.369834],[-9.314087,53.3698],[-9.313705,53.369737],[-9.31338,53.369677]]],[[[-9.315723,53.370186],[-9.31544,53.370094],[-9.315448,53.370352],[-9.316245,53.370343],[-9.316119,53.370303],[-9.315723,53.370186]]],[[[-9.298367,53.382683],[-9.29837,53.382672],[-9.298241,53.382674],[-9.298246,53.38285],[-9.298306,53.382774],[-9.298367,53.382683]]],[[[-9.296311,53.385412],[-9.29631,53.385391],[-9.296068,53.385393],[-9.296077,53.385663],[-9.29613,53.385662],[-9.296173,53.385607],[-9.29623,53.385527],[-9.296311,53.385412]]],[[[-9.296072,53.385736],[-9.296079,53.385728],[-9.296077,53.385663],[-9.295626,53.385668],[-9.295618,53.385398],[-9.294716,53.385408],[-9.294708,53.385139],[-9.293806,53.385148],[-9.293814,53.385418],[-9.293363,53.385423],[-9.293372,53.385692],[-9.294273,53.385683],[-9.294281,53.385952],[-9.293831,53.385957],[-9.293839,53.386226],[-9.292486,53.386241],[-9.292488,53.386301],[-9.294742,53.386276],[-9.29474,53.386217],[-9.295191,53.386212],[-9.295183,53.385942],[-9.295933,53.385934],[-9.295967,53.385884],[-9.296072,53.385736]]],[[[-9.295702,53.386266],[-9.295745,53.386206],[-9.295642,53.386207],[-9.295644,53.386267],[-9.295702,53.386266]]],[[[-9.287344,53.387106],[-9.287328,53.386566],[-9.286633,53.386574],[-9.286641,53.386844],[-9.286191,53.386848],[-9.286199,53.387118],[-9.285842,53.387122],[-9.285846,53.387271],[-9.285752,53.387272],[-9.285755,53.387359],[-9.285951,53.387206],[-9.286055,53.38723],[-9.286286,53.387234],[-9.28647,53.387253],[-9.286587,53.387271],[-9.286592,53.387245],[-9.287106,53.387308],[-9.2871,53.387108],[-9.287344,53.387106]]],[[[-9.288908,53.387238],[-9.287556,53.387253],[-9.287559,53.387373],[-9.288912,53.387358],[-9.288908,53.387238]]],[[[-9.291878,53.387915],[-9.291868,53.387596],[-9.290724,53.387608],[-9.290732,53.387878],[-9.288563,53.387901],[-9.288852,53.388037],[-9.289168,53.388174],[-9.289455,53.388337],[-9.289489,53.388298],[-9.289573,53.38823],[-9.289596,53.388213],[-9.289636,53.388184],[-9.289813,53.388088],[-9.28988,53.388056],[-9.289946,53.38803],[-9.289994,53.388019],[-9.290415,53.388011],[-9.290653,53.387986],[-9.29077,53.387975],[-9.290857,53.387963],[-9.290998,53.38796],[-9.291188,53.387952],[-9.291532,53.387948],[-9.291713,53.387937],[-9.291841,53.387915],[-9.291866,53.387917],[-9.291878,53.387915]]],[[[-9.288001,53.387638],[-9.288019,53.387646],[-9.288018,53.387638],[-9.288001,53.387638]]],[[[-9.285556,53.387499],[-9.285708,53.387393],[-9.284854,53.387402],[-9.284851,53.387282],[-9.284344,53.387287],[-9.284339,53.387138],[-9.283192,53.38715],[-9.283582,53.387231],[-9.283792,53.387278],[-9.283861,53.387284],[-9.283971,53.387286],[-9.284285,53.387375],[-9.284308,53.387394],[-9.284323,53.387402],[-9.284355,53.387399],[-9.284373,53.387388],[-9.284391,53.387376],[-9.284427,53.387382],[-9.284471,53.387391],[-9.284509,53.387403],[-9.28452,53.387412],[-9.284539,53.387429],[-9.284551,53.387444],[-9.284566,53.387459],[-9.284577,53.387463],[-9.284592,53.387464],[-9.284617,53.387464],[-9.284694,53.387466],[-9.284767,53.387464],[-9.284807,53.387469],[-9.284844,53.38749],[-9.28486,53.387507],[-9.284869,53.387542],[-9.284884,53.387559],[-9.284914,53.387576],[-9.284962,53.387576],[-9.285265,53.387591],[-9.28532,53.387603],[-9.285387,53.387631],[-9.285413,53.387646],[-9.285421,53.387647],[-9.285556,53.387499]]],[[[-9.282005,53.386893],[-9.282134,53.38692],[-9.282133,53.386892],[-9.282005,53.386893]]],[[[-9.287393,53.381863],[-9.287844,53.381858],[-9.287839,53.381708],[-9.287389,53.381713],[-9.287393,53.381863]]],[[[-9.290272,53.384528],[-9.289729,53.384533],[-9.289732,53.384653],[-9.291536,53.384634],[-9.291527,53.384364],[-9.29177,53.384361],[-9.291762,53.384092],[-9.291519,53.384095],[-9.291511,53.383825],[-9.29106,53.38383],[-9.291068,53.384099],[-9.29026,53.384108],[-9.290272,53.384528]]],[[[-9.291054,53.383621],[-9.290603,53.383625],[-9.290609,53.383835],[-9.29106,53.38383],[-9.291054,53.383621]]],[[[-9.285684,53.381881],[-9.285671,53.381461],[-9.285577,53.381462],[-9.285569,53.381193],[-9.285561,53.380923],[-9.28511,53.380928],[-9.285102,53.380659],[-9.284651,53.380664],[-9.28466,53.380933],[-9.284692,53.382011],[-9.286495,53.381992],[-9.286492,53.381873],[-9.285684,53.381881]]],[[[-9.292434,53.384504],[-9.291983,53.384509],[-9.291986,53.384629],[-9.292437,53.384624],[-9.292434,53.384504]]],[[[-9.287492,53.370181],[-9.287942,53.370176],[-9.28794,53.370113],[-9.28749,53.370118],[-9.287492,53.370181]]],[[[-9.296669,53.375473],[-9.296009,53.37548],[-9.296024,53.375957],[-9.296233,53.375955],[-9.296225,53.375685],[-9.296675,53.37568],[-9.296669,53.375473]]],[[[-9.293032,53.376411],[-9.29264,53.376415],[-9.292659,53.377072],[-9.292209,53.377077],[-9.292217,53.377346],[-9.292668,53.377341],[-9.292684,53.377881],[-9.292692,53.37815],[-9.292241,53.378155],[-9.29225,53.378425],[-9.291348,53.378434],[-9.291356,53.378704],[-9.290905,53.378709],[-9.290922,53.379248],[-9.290471,53.379253],[-9.290487,53.379792],[-9.290495,53.380061],[-9.288692,53.380081],[-9.2887,53.38035],[-9.288709,53.38062],[-9.288717,53.380889],[-9.289618,53.38088],[-9.289626,53.381149],[-9.289635,53.381419],[-9.290987,53.381404],[-9.290995,53.381674],[-9.291897,53.381664],[-9.291905,53.381933],[-9.292356,53.381929],[-9.292364,53.382198],[-9.292815,53.382193],[-9.292823,53.382463],[-9.293274,53.382458],[-9.293265,53.382188],[-9.293257,53.381919],[-9.29506,53.381899],[-9.295069,53.382169],[-9.29597,53.382159],[-9.295962,53.381889],[-9.295958,53.38177],[-9.294698,53.381784],[-9.294677,53.381094],[-9.294585,53.381095],[-9.294577,53.380826],[-9.294569,53.380556],[-9.29547,53.380547],[-9.295478,53.380816],[-9.296171,53.380809],[-9.296147,53.38],[-9.295905,53.380003],[-9.295897,53.379733],[-9.295446,53.379738],[-9.295438,53.379468],[-9.295421,53.378929],[-9.295413,53.37866],[-9.29361,53.378679],[-9.293602,53.37841],[-9.294053,53.378405],[-9.294044,53.378135],[-9.294036,53.377866],[-9.294028,53.377596],[-9.294019,53.377299],[-9.29306,53.377309],[-9.293032,53.376411]],[[-9.292741,53.379767],[-9.292749,53.380037],[-9.292298,53.380042],[-9.29229,53.379772],[-9.292741,53.379767]],[[-9.292766,53.380576],[-9.292749,53.380037],[-9.2932,53.380032],[-9.293216,53.380571],[-9.292766,53.380576]]],[[[-9.294535,53.376394],[-9.294538,53.376512],[-9.294897,53.376508],[-9.294893,53.376391],[-9.294535,53.376394]]],[[[-9.293005,53.375512],[-9.293032,53.376411],[-9.294535,53.376394],[-9.294507,53.375496],[-9.293965,53.375502],[-9.293971,53.37571],[-9.29352,53.375715],[-9.293514,53.375507],[-9.293005,53.375512]],[[-9.293979,53.375979],[-9.293971,53.37571],[-9.294422,53.375705],[-9.29443,53.375974],[-9.293979,53.375979]]],[[[-9.293359,53.38719],[-9.293363,53.38731],[-9.293421,53.38731],[-9.293417,53.387189],[-9.293359,53.38719]]],[[[-9.306943,53.372333],[-9.306935,53.372063],[-9.306484,53.372068],[-9.306492,53.372338],[-9.306943,53.372333]]]]}}]}
