{"type":"FeatureCollection","features":[{"type":"Feature","properties":{"source_fid":911246,"county":"Galway","bog_geom_ha":285.89496370007453,"low15_pct":98.675496688741731,"low15_ha":282.10827543914638,"overlay_ha":282.1149637000654,"area_delta":0.0066882609190201947},"geometry":{"type":"MultiPolygon","coordinates":[[[[-9.55903,53.330852],[-9.559362,53.330868],[-9.559858,53.330905],[-9.56,53.330915],[-9.55982,53.330724],[-9.559669,53.330599],[-9.559544,53.330552],[-9.559423,53.330462],[-9.559372,53.330347],[-9.559247,53.330137],[-9.559211,53.329965],[-9.559195,53.329529],[-9.559197,53.329261],[-9.55922,53.329078],[-9.559247,53.329018],[-9.559353,53.328862],[-9.559402,53.328749],[-9.559412,53.328713],[-9.559411,53.328675],[-9.559384,53.328576],[-9.559333,53.328468],[-9.559273,53.328279],[-9.559273,53.328134],[-9.559325,53.32794],[-9.559385,53.327802],[-9.559491,53.327642],[-9.559608,53.327489],[-9.559698,53.327355],[-9.559912,53.327113],[-9.560099,53.326906],[-9.560263,53.326753],[-9.560468,53.32657],[-9.560573,53.326487],[-9.560186,53.326492],[-9.560153,53.325593],[-9.561404,53.325577],[-9.561454,53.325393],[-9.561431,53.325094],[-9.561423,53.324879],[-9.561281,53.32468],[-9.558621,53.324715],[-9.558576,53.32349],[-9.558192,53.323447],[-9.557892,53.323461],[-9.557656,53.323591],[-9.557343,53.323708],[-9.55724,53.323737],[-9.557215,53.323745],[-9.557172,53.323744],[-9.557121,53.323742],[-9.557002,53.323719],[-9.556901,53.323678],[-9.556795,53.323666],[-9.556642,53.323661],[-9.55649,53.323701],[-9.556403,53.323713],[-9.55636,53.323682],[-9.556365,53.323647],[-9.556334,53.323602],[-9.556172,53.323519],[-9.556337,53.323362],[-9.55629,53.323204],[-9.556269,53.323096],[-9.556451,53.322949],[-9.556617,53.322831],[-9.556966,53.322721],[-9.557146,53.322669],[-9.557351,53.32249],[-9.557758,53.322189],[-9.557948,53.322028],[-9.557022,53.32204],[-9.556978,53.32083],[-9.556968,53.320824],[-9.556893,53.320719],[-9.556806,53.320587],[-9.556721,53.320503],[-9.55666,53.320444],[-9.556573,53.320312],[-9.556546,53.320249],[-9.554846,53.320271],[-9.554776,53.32036],[-9.554696,53.320417],[-9.554526,53.320444],[-9.55428,53.320454],[-9.554115,53.320456],[-9.553716,53.320461],[-9.553423,53.320469],[-9.553123,53.320487],[-9.552846,53.320455],[-9.552604,53.320427],[-9.552475,53.320435],[-9.552318,53.32048],[-9.552179,53.320531],[-9.552058,53.320592],[-9.551934,53.320745],[-9.551804,53.320898],[-9.55168,53.321037],[-9.551445,53.321198],[-9.551323,53.321253],[-9.550818,53.321428],[-9.550428,53.321514],[-9.550137,53.321599],[-9.550003,53.321636],[-9.550017,53.321685],[-9.550206,53.321728],[-9.550367,53.321768],[-9.550528,53.32184],[-9.550707,53.321926],[-9.550702,53.322091],[-9.55071,53.322337],[-9.550588,53.32254],[-9.550506,53.322696],[-9.550248,53.322667],[-9.550264,53.322701],[-9.550249,53.322733],[-9.550181,53.322781],[-9.550059,53.32285],[-9.549992,53.322884],[-9.54988,53.322935],[-9.549843,53.322961],[-9.54978,53.322996],[-9.549727,53.323016],[-9.549649,53.323041],[-9.549574,53.323044],[-9.549534,53.323043],[-9.549462,53.323039],[-9.54946,53.323037],[-9.548474,53.32305],[-9.548429,53.32306],[-9.548363,53.323051],[-9.548288,53.323052],[-9.548177,53.323087],[-9.548073,53.323097],[-9.547929,53.323067],[-9.547872,53.323064],[-9.547817,53.323095],[-9.547732,53.323091],[-9.547686,53.323089],[-9.54767,53.323099],[-9.547618,53.323137],[-9.547587,53.323151],[-9.54754,53.32315],[-9.547521,53.323154],[-9.547462,53.323189],[-9.547421,53.32321],[-9.547338,53.323215],[-9.547298,53.323237],[-9.547269,53.323354],[-9.547251,53.323408],[-9.547247,53.323434],[-9.547201,53.323484],[-9.547197,53.323508],[-9.547207,53.32354],[-9.547215,53.323563],[-9.547203,53.323579],[-9.547144,53.32362],[-9.547013,53.323678],[-9.546832,53.323785],[-9.54659,53.323995],[-9.546353,53.324378],[-9.546324,53.324408],[-9.546278,53.324438],[-9.546233,53.324462],[-9.546197,53.324481],[-9.545856,53.324625],[-9.545694,53.324636],[-9.545664,53.324644],[-9.545537,53.324864],[-9.545509,53.324891],[-9.545491,53.324916],[-9.545502,53.324948],[-9.545521,53.32498],[-9.545523,53.324991],[-9.545514,53.325007],[-9.545487,53.325043],[-9.545378,53.325113],[-9.545204,53.325167],[-9.545192,53.325193],[-9.545199,53.325254],[-9.545181,53.325296],[-9.545152,53.325334],[-9.545075,53.325375],[-9.544979,53.325413],[-9.544922,53.32544],[-9.544879,53.325502],[-9.544836,53.325594],[-9.544796,53.325653],[-9.544639,53.325839],[-9.544619,53.325877],[-9.544649,53.325909],[-9.544637,53.325942],[-9.544618,53.325959],[-9.544582,53.325981],[-9.544566,53.326036],[-9.544493,53.326225],[-9.544463,53.32625],[-9.544385,53.326285],[-9.544356,53.326314],[-9.544294,53.326325],[-9.544201,53.326365],[-9.544159,53.326402],[-9.544161,53.326437],[-9.544202,53.326465],[-9.544215,53.326503],[-9.54412,53.326557],[-9.544035,53.326572],[-9.543863,53.3266],[-9.543831,53.326609],[-9.543804,53.326618],[-9.543655,53.326625],[-9.54363,53.326631],[-9.543611,53.326644],[-9.543613,53.326684],[-9.543578,53.326709],[-9.543564,53.326738],[-9.54354,53.326826],[-9.543572,53.326845],[-9.54367,53.32688],[-9.543669,53.326915],[-9.54361,53.326963],[-9.543561,53.326979],[-9.543484,53.327068],[-9.543379,53.327103],[-9.543209,53.327233],[-9.543167,53.327262],[-9.543116,53.327271],[-9.542729,53.327264],[-9.54272,53.327266],[-9.542663,53.327304],[-9.542637,53.327328],[-9.542669,53.327337],[-9.54269,53.327388],[-9.542676,53.327423],[-9.542615,53.327466],[-9.542597,53.327485],[-9.542602,53.327527],[-9.542593,53.327573],[-9.54256,53.327627],[-9.542533,53.327646],[-9.542506,53.327647],[-9.542443,53.327629],[-9.542404,53.32763],[-9.542308,53.327752],[-9.542309,53.327766],[-9.542389,53.327835],[-9.542407,53.327886],[-9.542409,53.32793],[-9.542374,53.327938],[-9.542378,53.327952],[-9.542429,53.327949],[-9.542479,53.327953],[-9.542493,53.32799],[-9.542487,53.328039],[-9.542507,53.328062],[-9.542539,53.32808],[-9.54254,53.328106],[-9.542565,53.32815],[-9.542563,53.328182],[-9.542542,53.328245],[-9.542517,53.328302],[-9.542503,53.328344],[-9.542458,53.328389],[-9.542424,53.328415],[-9.542368,53.328455],[-9.542369,53.328483],[-9.542373,53.328504],[-9.542402,53.328519],[-9.542368,53.328619],[-9.542347,53.328646],[-9.542295,53.328648],[-9.54225,53.328635],[-9.54222,53.328638],[-9.542202,53.328652],[-9.542144,53.328692],[-9.542105,53.328731],[-9.542048,53.328897],[-9.542049,53.328926],[-9.542152,53.329067],[-9.542161,53.329101],[-9.542145,53.329159],[-9.542139,53.329193],[-9.542238,53.32933],[-9.542238,53.329346],[-9.542127,53.32936],[-9.542097,53.329356],[-9.542063,53.329344],[-9.542003,53.329332],[-9.541955,53.329335],[-9.541853,53.329385],[-9.54182,53.329413],[-9.541787,53.329418],[-9.541771,53.3294],[-9.541771,53.329385],[-9.541748,53.329367],[-9.54171,53.329348],[-9.541649,53.329334],[-9.541604,53.329322],[-9.541571,53.329329],[-9.54152,53.329346],[-9.541468,53.329359],[-9.541405,53.329358],[-9.541353,53.329364],[-9.54132,53.329381],[-9.541295,53.329404],[-9.541288,53.329431],[-9.541278,53.329456],[-9.541249,53.329468],[-9.541183,53.329492],[-9.541124,53.3295],[-9.541108,53.329501],[-9.541096,53.329947],[-9.541067,53.330038],[-9.54105,53.330093],[-9.541003,53.330245],[-9.541047,53.330416],[-9.540991,53.330696],[-9.540981,53.330723],[-9.540953,53.330734],[-9.540895,53.330737],[-9.540804,53.330736],[-9.540692,53.330753],[-9.540623,53.330763],[-9.540508,53.330787],[-9.540373,53.330841],[-9.540219,53.330902],[-9.540116,53.330952],[-9.539996,53.331036],[-9.539824,53.331158],[-9.539628,53.331197],[-9.539141,53.331338],[-9.538776,53.331364],[-9.538632,53.331386],[-9.538438,53.331457],[-9.538224,53.331502],[-9.538064,53.331501],[-9.536861,53.331489],[-9.536318,53.331601],[-9.53618,53.331583],[-9.535993,53.331505],[-9.535516,53.331484],[-9.535091,53.331477],[-9.534547,53.331294],[-9.534386,53.33124],[-9.534296,53.33121],[-9.534269,53.331203],[-9.534217,53.331174],[-9.534164,53.331122],[-9.534088,53.331054],[-9.533936,53.330926],[-9.53371,53.330899],[-9.533494,53.330897],[-9.533464,53.330894],[-9.533356,53.330813],[-9.533243,53.33078],[-9.53312,53.33068],[-9.533082,53.330672],[-9.533034,53.330684],[-9.532994,53.330701],[-9.532768,53.330909],[-9.53275,53.330932],[-9.532721,53.330937],[-9.532686,53.330916],[-9.532631,53.330841],[-9.532582,53.330835],[-9.532486,53.33084],[-9.532248,53.330866],[-9.532118,53.330863],[-9.531742,53.330844],[-9.531701,53.330867],[-9.531524,53.330999],[-9.531491,53.331027],[-9.531387,53.331025],[-9.531282,53.331017],[-9.530955,53.331243],[-9.53066,53.331449],[-9.530575,53.331508],[-9.530367,53.331653],[-9.530147,53.331791],[-9.529928,53.331929],[-9.529309,53.332302],[-9.528916,53.33257],[-9.528856,53.33261],[-9.528711,53.332705],[-9.528579,53.33279],[-9.528152,53.333073],[-9.527732,53.333351],[-9.527376,53.333585],[-9.527286,53.333638],[-9.527185,53.333699],[-9.527065,53.333785],[-9.526996,53.333873],[-9.526977,53.333901],[-9.526958,53.333927],[-9.526835,53.334098],[-9.526676,53.334311],[-9.526654,53.33434],[-9.526503,53.334542],[-9.526353,53.334714],[-9.526308,53.334766],[-9.526174,53.334919],[-9.525887,53.335239],[-9.525873,53.335254],[-9.525849,53.335283],[-9.525552,53.335636],[-9.52541,53.335774],[-9.52533,53.335851],[-9.5253,53.33588],[-9.525284,53.335896],[-9.525012,53.336146],[-9.524965,53.33623],[-9.525077,53.336387],[-9.525141,53.336508],[-9.525147,53.33652],[-9.525176,53.336574],[-9.525298,53.336798],[-9.525415,53.336964],[-9.525503,53.337065],[-9.525625,53.337198],[-9.525821,53.337438],[-9.526004,53.337648],[-9.52616,53.337887],[-9.526303,53.338119],[-9.526316,53.338116],[-9.526402,53.338114],[-9.52647,53.338111],[-9.526505,53.338095],[-9.526523,53.338084],[-9.526577,53.338092],[-9.526617,53.338102],[-9.526674,53.338097],[-9.526742,53.338083],[-9.526806,53.33808],[-9.526849,53.338084],[-9.526889,53.338089],[-9.526917,53.33808],[-9.526942,53.338057],[-9.526981,53.338044],[-9.527046,53.338049],[-9.527119,53.338074],[-9.527184,53.338081],[-9.527262,53.338067],[-9.527348,53.338051],[-9.52746,53.337985],[-9.527499,53.33796],[-9.527563,53.337951],[-9.527592,53.337959],[-9.527604,53.337976],[-9.527598,53.338002],[-9.527606,53.33803],[-9.52765,53.338035],[-9.527808,53.338041],[-9.527831,53.33806],[-9.527847,53.338099],[-9.527873,53.338131],[-9.527922,53.338175],[-9.527948,53.338263],[-9.527945,53.338358],[-9.527932,53.338391],[-9.527908,53.338415],[-9.527899,53.338458],[-9.527881,53.338553],[-9.527901,53.338589],[-9.527925,53.338649],[-9.527927,53.338655],[-9.527942,53.338707],[-9.527979,53.338724],[-9.528005,53.33874],[-9.527994,53.338751],[-9.527914,53.3388],[-9.527905,53.338841],[-9.527911,53.338893],[-9.52793,53.338929],[-9.527965,53.338971],[-9.528005,53.338997],[-9.528049,53.339013],[-9.528089,53.33903],[-9.528119,53.339055],[-9.528224,53.339217],[-9.528263,53.339305],[-9.528322,53.339334],[-9.528363,53.339351],[-9.528357,53.339389],[-9.528355,53.339418],[-9.528329,53.339485],[-9.528334,53.339521],[-9.528357,53.339549],[-9.528395,53.3396],[-9.528416,53.339653],[-9.528433,53.339716],[-9.528445,53.33975],[-9.528476,53.33979],[-9.528477,53.33981],[-9.528477,53.339898],[-9.528492,53.339999],[-9.528515,53.340027],[-9.52857,53.340047],[-9.528624,53.340064],[-9.52867,53.340192],[-9.528683,53.340252],[-9.528695,53.340282],[-9.528722,53.340312],[-9.528716,53.340342],[-9.528699,53.340373],[-9.528693,53.340403],[-9.52871,53.340459],[-9.528725,53.340547],[-9.52876,53.3406],[-9.52881,53.340754],[-9.528847,53.340857],[-9.528837,53.340883],[-9.528809,53.340901],[-9.528755,53.340901],[-9.528719,53.340896],[-9.528527,53.340778],[-9.528382,53.340683],[-9.528364,53.340677],[-9.52835,53.340686],[-9.528347,53.340705],[-9.528377,53.340744],[-9.528402,53.34081],[-9.528436,53.340939],[-9.528435,53.341059],[-9.528464,53.341145],[-9.528485,53.341229],[-9.528452,53.341285],[-9.528389,53.34132],[-9.528225,53.341443],[-9.528203,53.341457],[-9.528173,53.34149],[-9.528174,53.341513],[-9.528193,53.341538],[-9.528232,53.341562],[-9.528466,53.341686],[-9.528619,53.341836],[-9.528648,53.341895],[-9.528724,53.342125],[-9.528748,53.342174],[-9.528786,53.342222],[-9.528788,53.342269],[-9.528771,53.34231],[-9.528765,53.342342],[-9.52877,53.342373],[-9.52878,53.342429],[-9.528781,53.342458],[-9.528812,53.342487],[-9.52882,53.342511],[-9.52877,53.342551],[-9.528715,53.342577],[-9.528675,53.342607],[-9.528662,53.34265],[-9.528631,53.342714],[-9.528604,53.342773],[-9.528558,53.342824],[-9.528542,53.342887],[-9.528543,53.342914],[-9.528551,53.342941],[-9.52859,53.342976],[-9.528597,53.342985],[-9.528614,53.343009],[-9.528631,53.343032],[-9.528638,53.343042],[-9.528654,53.343082],[-9.528638,53.343136],[-9.528595,53.343193],[-9.528571,53.343228],[-9.52858,53.343273],[-9.528596,53.343295],[-9.52863,53.3433],[-9.528664,53.34332],[-9.528691,53.343348],[-9.528686,53.343391],[-9.528691,53.343436],[-9.528731,53.343502],[-9.528753,53.343511],[-9.528773,53.343519],[-9.528821,53.343516],[-9.528876,53.343494],[-9.528917,53.34348],[-9.528991,53.343482],[-9.52904,53.343492],[-9.529074,53.343503],[-9.5291,53.343511],[-9.529182,53.343493],[-9.52923,53.34349],[-9.529276,53.343522],[-9.529292,53.343558],[-9.529309,53.343593],[-9.529332,53.343606],[-9.529378,53.343634],[-9.529404,53.343638],[-9.529468,53.343655],[-9.529476,53.343679],[-9.5295,53.343712],[-9.529524,53.343741],[-9.529555,53.343789],[-9.529586,53.343811],[-9.529647,53.343839],[-9.529681,53.343858],[-9.529701,53.34388],[-9.529724,53.343904],[-9.529736,53.343917],[-9.529782,53.343945],[-9.529857,53.343966],[-9.529886,53.343956],[-9.529909,53.343953],[-9.529973,53.343968],[-9.530018,53.343978],[-9.530077,53.343969],[-9.530137,53.343975],[-9.530168,53.343999],[-9.530209,53.344007],[-9.530291,53.344013],[-9.530397,53.344044],[-9.530465,53.344063],[-9.530555,53.344074],[-9.530625,53.344072],[-9.530714,53.344059],[-9.530778,53.344066],[-9.530827,53.344083],[-9.530895,53.344097],[-9.530939,53.344098],[-9.53107,53.344102],[-9.53111,53.34408],[-9.531176,53.344061],[-9.531217,53.344046],[-9.531273,53.344045],[-9.531307,53.344064],[-9.531344,53.344068],[-9.531438,53.344081],[-9.531453,53.344092],[-9.531461,53.344089],[-9.531546,53.344083],[-9.531598,53.344072],[-9.531657,53.344066],[-9.531698,53.344072],[-9.531754,53.344066],[-9.531806,53.34406],[-9.53184,53.344071],[-9.531915,53.344071],[-9.531993,53.344083],[-9.532069,53.344101],[-9.532102,53.344104],[-9.53218,53.344098],[-9.532217,53.344102],[-9.532275,53.344125],[-9.532364,53.344175],[-9.532443,53.344185],[-9.532553,53.344166],[-9.53259,53.344171],[-9.532631,53.34419],[-9.532662,53.344205],[-9.53268,53.344204],[-9.532799,53.3442],[-9.532892,53.344195],[-9.533021,53.344186],[-9.533086,53.344192],[-9.533108,53.344206],[-9.533171,53.344242],[-9.533233,53.344267],[-9.533313,53.344282],[-9.533381,53.344299],[-9.533437,53.34433],[-9.533513,53.344346],[-9.533542,53.344356],[-9.533571,53.344371],[-9.533656,53.344417],[-9.533675,53.344449],[-9.533727,53.344476],[-9.533763,53.34449],[-9.533783,53.344518],[-9.53382,53.344549],[-9.533886,53.344574],[-9.533951,53.344597],[-9.533995,53.344615],[-9.534025,53.344636],[-9.534029,53.344649],[-9.534119,53.344813],[-9.534155,53.344894],[-9.534208,53.34501],[-9.534244,53.345032],[-9.534304,53.345058],[-9.534298,53.345066],[-9.534652,53.345082],[-9.534965,53.345038],[-9.535219,53.344975],[-9.535271,53.345044],[-9.535357,53.345051],[-9.535542,53.345109],[-9.53557,53.345142],[-9.535729,53.345208],[-9.535816,53.345239],[-9.535869,53.345265],[-9.536008,53.345288],[-9.536064,53.345276],[-9.536142,53.345278],[-9.536277,53.345306],[-9.536333,53.345305],[-9.536441,53.345291],[-9.536474,53.345286],[-9.536519,53.345293],[-9.536543,53.345326],[-9.536639,53.345403],[-9.536707,53.345437],[-9.53676,53.345458],[-9.53685,53.345467],[-9.53688,53.345473],[-9.536889,53.345504],[-9.536879,53.345534],[-9.536944,53.345561],[-9.536963,53.34559],[-9.536976,53.345626],[-9.537014,53.345636],[-9.537054,53.345698],[-9.537084,53.34572],[-9.537089,53.345751],[-9.537105,53.345777],[-9.53718,53.345776],[-9.537304,53.345799],[-9.537421,53.345844],[-9.537528,53.345906],[-9.537591,53.345972],[-9.537592,53.345999],[-9.537605,53.346041],[-9.537628,53.346061],[-9.537683,53.34605],[-9.537773,53.346064],[-9.537829,53.346071],[-9.537881,53.346149],[-9.537943,53.346215],[-9.538012,53.346242],[-9.538047,53.346286],[-9.538115,53.346316],[-9.53813,53.346401],[-9.538165,53.346436],[-9.538241,53.346472],[-9.538302,53.346502],[-9.538341,53.346537],[-9.538443,53.346586],[-9.538582,53.346605],[-9.538639,53.34664],[-9.538697,53.346679],[-9.538803,53.346721],[-9.538833,53.346736],[-9.538809,53.346768],[-9.538821,53.346799],[-9.538882,53.346818],[-9.539002,53.346839],[-9.539089,53.346864],[-9.539179,53.346878],[-9.539223,53.346876],[-9.539245,53.346856],[-9.539281,53.346749],[-9.539295,53.346717],[-9.53932,53.346699],[-9.539353,53.346684],[-9.539412,53.346681],[-9.539593,53.346636],[-9.539668,53.346654],[-9.539743,53.346665],[-9.539908,53.346672],[-9.540028,53.34669],[-9.540065,53.346698],[-9.540128,53.346687],[-9.540203,53.346703],[-9.540248,53.3467],[-9.540455,53.346663],[-9.540469,53.346636],[-9.540514,53.346635],[-9.54055,53.346625],[-9.540585,53.346572],[-9.54064,53.34653],[-9.540713,53.346506],[-9.540749,53.346469],[-9.540751,53.346426],[-9.54076,53.346385],[-9.540774,53.346356],[-9.54084,53.346334],[-9.540932,53.346311],[-9.541009,53.346267],[-9.54109,53.346258],[-9.541154,53.346261],[-9.541224,53.346248],[-9.541291,53.346235],[-9.541345,53.346193],[-9.541368,53.34614],[-9.541375,53.346125],[-9.541377,53.346084],[-9.541425,53.346065],[-9.541505,53.346027],[-9.541552,53.34599],[-9.541591,53.345944],[-9.541641,53.345917],[-9.541151,53.345265],[-9.540237,53.344152],[-9.54043,53.34351],[-9.540911,53.343076],[-9.541078,53.342571],[-9.541191,53.342344],[-9.541544,53.34191],[-9.541687,53.341846],[-9.541875,53.341794],[-9.541968,53.341775],[-9.542064,53.341765],[-9.542162,53.341766],[-9.542277,53.341781],[-9.542543,53.341846],[-9.54284,53.341921],[-9.543,53.341964],[-9.543049,53.341979],[-9.543172,53.341991],[-9.543352,53.342013],[-9.543393,53.342017],[-9.543574,53.342034],[-9.543608,53.342038],[-9.544043,53.342107],[-9.544241,53.342141],[-9.544237,53.342016],[-9.544099,53.341993],[-9.544089,53.341986],[-9.543987,53.34195],[-9.543974,53.34195],[-9.543694,53.341901],[-9.543465,53.341865],[-9.543449,53.341854],[-9.543442,53.341849],[-9.543422,53.341834],[-9.5434,53.341829],[-9.543392,53.341827],[-9.543379,53.341831],[-9.543318,53.341842],[-9.543276,53.341851],[-9.543255,53.341848],[-9.542949,53.341767],[-9.542786,53.341726],[-9.542772,53.341722],[-9.542583,53.341678],[-9.542516,53.341661],[-9.542352,53.341612],[-9.542236,53.341592],[-9.542142,53.341589],[-9.542038,53.341591],[-9.541926,53.341601],[-9.541926,53.341583],[-9.541897,53.341572],[-9.54173,53.341508],[-9.541584,53.34148],[-9.541347,53.341434],[-9.541178,53.341403],[-9.541088,53.341392],[-9.540874,53.34135],[-9.540622,53.341298],[-9.540476,53.341275],[-9.540138,53.341209],[-9.540062,53.341189],[-9.540113,53.340916],[-9.540199,53.340464],[-9.540893,53.340458],[-9.540964,53.340465],[-9.541354,53.340454],[-9.541389,53.34046],[-9.541654,53.34046],[-9.541785,53.340458],[-9.541827,53.340461],[-9.541908,53.34046],[-9.541937,53.340453],[-9.541935,53.340306],[-9.541933,53.340197],[-9.541934,53.340181],[-9.541935,53.340156],[-9.541932,53.340096],[-9.541912,53.33989],[-9.541913,53.339668],[-9.541903,53.339509],[-9.541462,53.33947],[-9.541431,53.338946],[-9.54145,53.33882],[-9.541452,53.338563],[-9.541466,53.33824],[-9.54186,53.338282],[-9.542171,53.338317],[-9.542203,53.337097],[-9.542208,53.337099],[-9.542345,53.337144],[-9.542488,53.337197],[-9.542916,53.337341],[-9.543661,53.337576],[-9.544341,53.3378],[-9.545082,53.338035],[-9.545814,53.33829],[-9.545902,53.338302],[-9.546212,53.337358],[-9.546184,53.336985],[-9.546036,53.336586],[-9.545882,53.336288],[-9.545457,53.336343],[-9.545351,53.336346],[-9.545271,53.336313],[-9.545044,53.335918],[-9.544968,53.335755],[-9.544901,53.335655],[-9.544794,53.335486],[-9.544537,53.335006],[-9.54526,53.334914],[-9.546013,53.334856],[-9.54609,53.334852],[-9.54594,53.334601],[-9.545709,53.334216],[-9.545646,53.334121],[-9.545598,53.334013],[-9.545522,53.333776],[-9.545511,53.333727],[-9.545579,53.33371],[-9.545625,53.333698],[-9.545745,53.333664],[-9.546142,53.333544],[-9.546255,53.333654],[-9.546509,53.333913],[-9.546787,53.334208],[-9.547189,53.334606],[-9.547404,53.334556],[-9.547772,53.334449],[-9.548653,53.334205],[-9.549877,53.333859],[-9.550541,53.333679],[-9.551349,53.333435],[-9.551858,53.33328],[-9.551883,53.333286],[-9.551884,53.33331],[-9.551809,53.333926],[-9.551772,53.334302],[-9.551718,53.334688],[-9.552223,53.334672],[-9.55229,53.334953],[-9.552396,53.335377],[-9.552489,53.335686],[-9.55256,53.335996],[-9.552576,53.336085],[-9.552586,53.336139],[-9.5527,53.336133],[-9.552691,53.336079],[-9.552675,53.335984],[-9.5526,53.335663],[-9.552525,53.335364],[-9.552451,53.335076],[-9.552341,53.334666],[-9.552285,53.334334],[-9.553345,53.334023],[-9.553353,53.334021],[-9.554781,53.333613],[-9.555511,53.333407],[-9.555533,53.3334],[-9.5555,53.333211],[-9.555471,53.332876],[-9.555426,53.332598],[-9.555398,53.332374],[-9.55536,53.332021],[-9.555303,53.331408],[-9.555205,53.330844],[-9.555188,53.330622],[-9.555278,53.330625],[-9.555893,53.330654],[-9.556233,53.330683],[-9.556939,53.330732],[-9.557387,53.330751],[-9.558034,53.330783],[-9.558577,53.330816],[-9.55903,53.330852]],[[-9.546298,53.32991],[-9.546458,53.329725],[-9.546935,53.329722],[-9.546841,53.330113],[-9.546674,53.330427],[-9.546285,53.330429],[-9.546308,53.330054],[-9.546298,53.32991]],[[-9.532533,53.339181],[-9.532542,53.33945],[-9.532552,53.33972],[-9.532562,53.339989],[-9.531661,53.340001],[-9.531651,53.339731],[-9.531201,53.339737],[-9.531191,53.339467],[-9.530741,53.339473],[-9.530732,53.339204],[-9.530281,53.339209],[-9.530272,53.33894],[-9.530262,53.33867],[-9.530243,53.338131],[-9.529792,53.338137],[-9.529763,53.337329],[-9.529313,53.337334],[-9.529303,53.337065],[-9.530204,53.337053],[-9.530214,53.337323],[-9.531114,53.337311],[-9.531143,53.33812],[-9.531593,53.338114],[-9.531613,53.338653],[-9.532063,53.338647],[-9.532073,53.338917],[-9.532523,53.338911],[-9.532533,53.339181]],[[-9.540324,53.342855],[-9.540314,53.342586],[-9.540764,53.34258],[-9.540774,53.342849],[-9.540784,53.343119],[-9.540334,53.343125],[-9.540343,53.343394],[-9.539893,53.3434],[-9.539883,53.34313],[-9.539874,53.342861],[-9.540324,53.342855]],[[-9.53583,53.343183],[-9.53582,53.342913],[-9.536271,53.342907],[-9.53628,53.343177],[-9.53583,53.343183]],[[-9.532697,53.343762],[-9.532687,53.343493],[-9.533138,53.343487],[-9.533147,53.343756],[-9.532697,53.343762]],[[-9.528853,53.337071],[-9.528403,53.337076],[-9.528393,53.336807],[-9.528844,53.336801],[-9.528853,53.337071]]]]}}]}
