{"type":"FeatureCollection","features":[{"type":"Feature","properties":{"source_fid":940533,"county":"Galway","bog_geom_ha":114.86537056391221,"low15_pct":95.921568627450981,"low15_ha":110.18066525463892,"overlay_ha":110.06870402504234,"area_delta":-0.11196122959658794},"geometry":{"type":"MultiPolygon","coordinates":[[[[-10.092408,53.538462],[-10.092228,53.538409],[-10.092187,53.538389],[-10.091853,53.538327],[-10.09142,53.538245],[-10.091386,53.538247],[-10.091369,53.538235],[-10.091274,53.538217],[-10.091174,53.538212],[-10.091063,53.538227],[-10.090995,53.538245],[-10.090899,53.538286],[-10.090818,53.538328],[-10.090628,53.538473],[-10.090577,53.538538],[-10.090487,53.538588],[-10.090483,53.53859],[-10.090437,53.538627],[-10.09041,53.53866],[-10.090424,53.538757],[-10.090443,53.538887],[-10.090421,53.538967],[-10.090418,53.53901],[-10.090435,53.539052],[-10.090477,53.539132],[-10.090482,53.539179],[-10.090432,53.539222],[-10.090397,53.539239],[-10.090375,53.539267],[-10.090356,53.539282],[-10.090329,53.539351],[-10.090344,53.539393],[-10.090299,53.539438],[-10.090298,53.539439],[-10.090298,53.539439],[-10.090287,53.53945],[-10.090255,53.539469],[-10.090159,53.539535],[-10.090157,53.539539],[-10.090131,53.539555],[-10.089964,53.539685],[-10.089819,53.539772],[-10.089634,53.539845],[-10.089573,53.539871],[-10.089557,53.539882],[-10.089447,53.540026],[-10.089392,53.540047],[-10.089367,53.540074],[-10.089339,53.540088],[-10.089285,53.540134],[-10.089268,53.540178],[-10.089285,53.540206],[-10.089276,53.540231],[-10.08926,53.540267],[-10.089261,53.540302],[-10.089273,53.540338],[-10.089286,53.540352],[-10.089322,53.540392],[-10.089353,53.540416],[-10.089347,53.540445],[-10.089307,53.540464],[-10.08927,53.54049],[-10.08925,53.540539],[-10.089209,53.540616],[-10.08919,53.540695],[-10.089172,53.540785],[-10.089177,53.540963],[-10.089277,53.541004],[-10.089434,53.541059],[-10.08954,53.541107],[-10.089597,53.541121],[-10.089729,53.541119],[-10.089794,53.541122],[-10.089835,53.541133],[-10.089906,53.541157],[-10.08993,53.541156],[-10.089934,53.541167],[-10.089954,53.541174],[-10.089996,53.541186],[-10.090034,53.54119],[-10.090127,53.541164],[-10.090196,53.541159],[-10.090197,53.541159],[-10.090279,53.541137],[-10.090379,53.541136],[-10.090423,53.541173],[-10.090438,53.541239],[-10.090476,53.541272],[-10.090514,53.541291],[-10.090598,53.541318],[-10.090647,53.541332],[-10.090751,53.541353],[-10.090921,53.541357],[-10.091005,53.541375],[-10.091053,53.541446],[-10.091076,53.541513],[-10.091077,53.541526],[-10.091092,53.541538],[-10.09116,53.541568],[-10.091232,53.541612],[-10.091289,53.541654],[-10.091302,53.541697],[-10.091343,53.541732],[-10.091394,53.541773],[-10.091422,53.541779],[-10.091529,53.541805],[-10.091551,53.541801],[-10.09167,53.541807],[-10.091738,53.541825],[-10.091811,53.541888],[-10.091882,53.541985],[-10.091959,53.542039],[-10.092048,53.542089],[-10.092118,53.542119],[-10.092206,53.542233],[-10.092229,53.54223],[-10.092265,53.542243],[-10.092326,53.542271],[-10.092427,53.542285],[-10.092564,53.542296],[-10.092651,53.542307],[-10.092941,53.542381],[-10.093103,53.54242],[-10.09313,53.542396],[-10.093286,53.542418],[-10.093373,53.542422],[-10.093392,53.542429],[-10.093405,53.542429],[-10.093482,53.542452],[-10.093536,53.542486],[-10.093598,53.542508],[-10.093598,53.542519],[-10.093652,53.542544],[-10.093759,53.542562],[-10.093895,53.542578],[-10.094002,53.542607],[-10.094094,53.542633],[-10.094151,53.542641],[-10.094276,53.542643],[-10.094335,53.542632],[-10.094431,53.542601],[-10.094501,53.542594],[-10.094556,53.542614],[-10.094642,53.542664],[-10.094678,53.542667],[-10.094771,53.542728],[-10.09488,53.542789],[-10.094988,53.542848],[-10.095129,53.542882],[-10.095135,53.542924],[-10.095094,53.543145],[-10.095095,53.543244],[-10.095165,53.54344],[-10.095276,53.543586],[-10.095285,53.543696],[-10.095307,53.543772],[-10.095283,53.543824],[-10.095143,53.543957],[-10.095135,53.544015],[-10.0952,53.544109],[-10.095275,53.544181],[-10.095327,53.544196],[-10.095365,53.544215],[-10.095371,53.544259],[-10.095439,53.544304],[-10.095473,53.544369],[-10.095559,53.544477],[-10.095633,53.544532],[-10.095727,53.544818],[-10.095741,53.544889],[-10.09575,53.544986],[-10.095802,53.545046],[-10.095842,53.545094],[-10.09587,53.545199],[-10.095887,53.545248],[-10.095931,53.545297],[-10.095971,53.54537],[-10.095987,53.545406],[-10.096001,53.545451],[-10.096055,53.545475],[-10.096094,53.545494],[-10.096142,53.545489],[-10.096216,53.545463],[-10.096289,53.545454],[-10.096326,53.545464],[-10.096331,53.545469],[-10.096367,53.545462],[-10.096404,53.545534],[-10.096411,53.54554],[-10.09641,53.545545],[-10.09648,53.54568],[-10.096478,53.545804],[-10.096501,53.545887],[-10.096588,53.545952],[-10.096669,53.545996],[-10.096693,53.546025],[-10.096599,53.546217],[-10.096562,53.546305],[-10.096577,53.546393],[-10.096662,53.546506],[-10.096675,53.546525],[-10.0967,53.546512],[-10.096824,53.546419],[-10.096917,53.546326],[-10.096998,53.546264],[-10.097062,53.546239],[-10.097101,53.546225],[-10.097235,53.546181],[-10.097369,53.546156],[-10.097495,53.546124],[-10.097755,53.546032],[-10.097991,53.545968],[-10.098146,53.545948],[-10.098287,53.545901],[-10.09852,53.545831],[-10.098603,53.545818],[-10.098746,53.545824],[-10.098852,53.545804],[-10.098923,53.545782],[-10.099018,53.545776],[-10.099229,53.545765],[-10.099451,53.545756],[-10.099533,53.545729],[-10.099659,53.545678],[-10.099809,53.545637],[-10.099955,53.545614],[-10.100149,53.545593],[-10.100277,53.545637],[-10.100432,53.545659],[-10.100524,53.545654],[-10.100674,53.54565],[-10.100747,53.545692],[-10.100828,53.545759],[-10.100944,53.545782],[-10.101039,53.545779],[-10.10107,53.545764],[-10.101149,53.545719],[-10.101263,53.545703],[-10.101486,53.545727],[-10.101721,53.545749],[-10.101821,53.545778],[-10.10202,53.545805],[-10.102423,53.54587],[-10.102632,53.545981],[-10.102731,53.545983],[-10.102741,53.54598],[-10.102944,53.545919],[-10.103093,53.545973],[-10.103189,53.54596],[-10.103278,53.545968],[-10.103406,53.545992],[-10.103492,53.546088],[-10.103567,53.546184],[-10.104142,53.546288],[-10.104357,53.546177],[-10.104841,53.546204],[-10.105119,53.546227],[-10.105174,53.54629],[-10.105675,53.546453],[-10.105918,53.546554],[-10.106618,53.546857],[-10.106986,53.546898],[-10.107644,53.547066],[-10.108266,53.547204],[-10.109086,53.547515],[-10.109745,53.547666],[-10.110113,53.547747],[-10.110589,53.547846],[-10.110963,53.547946],[-10.111344,53.548033],[-10.111731,53.548094],[-10.111946,53.548095],[-10.112304,53.548172],[-10.112654,53.54825],[-10.112947,53.548316],[-10.113164,53.548348],[-10.113359,53.548382],[-10.113427,53.548384],[-10.113504,53.548375],[-10.11363,53.548349],[-10.113756,53.548337],[-10.113851,53.548337],[-10.114004,53.548342],[-10.114132,53.548344],[-10.114214,53.548342],[-10.11428,53.548327],[-10.114317,53.548305],[-10.114347,53.548295],[-10.114468,53.548269],[-10.114532,53.548263],[-10.11452,53.548012],[-10.115184,53.548],[-10.115191,53.547986],[-10.115197,53.547961],[-10.11519,53.547918],[-10.115174,53.547774],[-10.115155,53.547595],[-10.115169,53.54756],[-10.115209,53.547531],[-10.115203,53.547521],[-10.115193,53.547512],[-10.115284,53.547376],[-10.115309,53.547352],[-10.115313,53.547348],[-10.11533,53.547335],[-10.115331,53.547324],[-10.11533,53.547308],[-10.11531,53.547205],[-10.115282,53.547106],[-10.11527,53.54707],[-10.115239,53.547036],[-10.11515,53.546932],[-10.115128,53.546885],[-10.115103,53.546816],[-10.115093,53.546741],[-10.115107,53.546631],[-10.11508,53.546626],[-10.115078,53.546552],[-10.115062,53.546499],[-10.115031,53.546407],[-10.114969,53.54628],[-10.11495,53.546246],[-10.11467,53.546193],[-10.114513,53.546175],[-10.114531,53.546549],[-10.114984,53.546541],[-10.114997,53.54681],[-10.114545,53.546818],[-10.114558,53.547087],[-10.113654,53.547103],[-10.11364,53.546834],[-10.113627,53.546565],[-10.1136,53.546026],[-10.114052,53.546018],[-10.114012,53.54521],[-10.114464,53.545202],[-10.114451,53.544932],[-10.114903,53.544924],[-10.114917,53.545194],[-10.114927,53.545394],[-10.115325,53.545398],[-10.115544,53.545402],[-10.115898,53.545393],[-10.115893,53.545292],[-10.1174,53.545265],[-10.117355,53.544367],[-10.119106,53.544336],[-10.119104,53.544309],[-10.119101,53.544268],[-10.119083,53.544235],[-10.119061,53.544206],[-10.119033,53.544166],[-10.118981,53.544118],[-10.118957,53.544095],[-10.118939,53.544073],[-10.118914,53.544056],[-10.118884,53.544049],[-10.118837,53.544034],[-10.118794,53.544013],[-10.118754,53.544001],[-10.118711,53.543993],[-10.118677,53.54398],[-10.11863,53.543959],[-10.118602,53.543953],[-10.118571,53.543938],[-10.118533,53.543925],[-10.118494,53.543912],[-10.118464,53.543906],[-10.11842,53.543889],[-10.118374,53.543875],[-10.118337,53.543861],[-10.118279,53.543854],[-10.118244,53.543843],[-10.118199,53.543839],[-10.118169,53.543844],[-10.118141,53.543859],[-10.118121,53.54387],[-10.118101,53.543878],[-10.118095,53.543895],[-10.118093,53.543913],[-10.118084,53.54393],[-10.118069,53.543939],[-10.118048,53.543943],[-10.118028,53.543939],[-10.118015,53.543927],[-10.117999,53.543922],[-10.117967,53.543912],[-10.117957,53.543897],[-10.117955,53.543866],[-10.117951,53.543853],[-10.117931,53.543845],[-10.117896,53.543834],[-10.11788,53.543821],[-10.11787,53.543814],[-10.117844,53.543811],[-10.117819,53.543813],[-10.117793,53.543813],[-10.117767,53.543801],[-10.117743,53.543786],[-10.11772,53.543781],[-10.117674,53.543781],[-10.117649,53.543782],[-10.117622,53.543779],[-10.1176,53.54377],[-10.117578,53.543741],[-10.117562,53.543718],[-10.11756,53.543693],[-10.117564,53.543671],[-10.117572,53.543662],[-10.117574,53.54365],[-10.117551,53.543629],[-10.117533,53.543592],[-10.117513,53.543566],[-10.117492,53.543536],[-10.117467,53.543512],[-10.117438,53.543489],[-10.117409,53.543467],[-10.117338,53.543486],[-10.117313,53.543489],[-10.11719,53.543461],[-10.117137,53.543451],[-10.117102,53.54345],[-10.117093,53.54345],[-10.117098,53.543537],[-10.117124,53.544076],[-10.116672,53.544084],[-10.116645,53.543545],[-10.116193,53.543553],[-10.116188,53.543445],[-10.116182,53.543445],[-10.116001,53.543446],[-10.115994,53.543455],[-10.115924,53.543444],[-10.115882,53.543442],[-10.115613,53.543441],[-10.115242,53.543444],[-10.115178,53.543445],[-10.115002,53.543442],[-10.114819,53.54344],[-10.114796,53.54344],[-10.114572,53.54344],[-10.114353,53.543443],[-10.114135,53.54345],[-10.114077,53.543451],[-10.11371,53.54346],[-10.11344,53.543466],[-10.113147,53.543468],[-10.112914,53.543469],[-10.112706,53.54348],[-10.112577,53.543485],[-10.112417,53.543498],[-10.112264,53.543511],[-10.111956,53.543537],[-10.111465,53.543479],[-10.111551,53.543294],[-10.111573,53.543221],[-10.111539,53.543138],[-10.111478,53.542928],[-10.111379,53.542795],[-10.111331,53.542613],[-10.111312,53.542512],[-10.111334,53.542444],[-10.111341,53.542421],[-10.11142,53.542362],[-10.111496,53.54222],[-10.111632,53.541931],[-10.111692,53.541869],[-10.111873,53.541842],[-10.112264,53.541835],[-10.112335,53.541839],[-10.112625,53.541853],[-10.112788,53.541855],[-10.113052,53.541853],[-10.113332,53.541852],[-10.113568,53.541855],[-10.113839,53.541861],[-10.113998,53.54186],[-10.114343,53.541854],[-10.114537,53.541846],[-10.114814,53.541844],[-10.114945,53.541845],[-10.115095,53.541848],[-10.11535,53.54185],[-10.115481,53.541852],[-10.115625,53.541853],[-10.115768,53.541857],[-10.115868,53.541847],[-10.115829,53.54181],[-10.115744,53.541726],[-10.115695,53.541681],[-10.115595,53.5416],[-10.115552,53.541551],[-10.115525,53.541532],[-10.115478,53.541509],[-10.115434,53.541483],[-10.11541,53.541463],[-10.115399,53.54144],[-10.11538,53.541404],[-10.115356,53.541372],[-10.115326,53.541339],[-10.11531,53.541288],[-10.115297,53.541209],[-10.115281,53.54117],[-10.115241,53.541129],[-10.115166,53.54108],[-10.115092,53.541043],[-10.115017,53.541009],[-10.114992,53.54099],[-10.114849,53.540791],[-10.114631,53.54052],[-10.114479,53.540336],[-10.114436,53.54028],[-10.114341,53.540165],[-10.114245,53.540033],[-10.114204,53.539981],[-10.114249,53.540891],[-10.114276,53.54143],[-10.11429,53.541699],[-10.113385,53.541715],[-10.113372,53.541446],[-10.112919,53.541454],[-10.112892,53.540915],[-10.11244,53.540923],[-10.112392,53.539962],[-10.111102,53.539984],[-10.111101,53.539965],[-10.110697,53.540011],[-10.110365,53.540049],[-10.109811,53.540099],[-10.109274,53.540149],[-10.108567,53.540181],[-10.107874,53.540217],[-10.107035,53.540262],[-10.10618,53.540299],[-10.105345,53.54034],[-10.104466,53.540385],[-10.104226,53.540394],[-10.104076,53.540541],[-10.104035,53.54058],[-10.103659,53.540484],[-10.103358,53.540415],[-10.102826,53.540287],[-10.102001,53.540094],[-10.101225,53.539912],[-10.101156,53.539896],[-10.100339,53.539714],[-10.099509,53.539527],[-10.099348,53.539491],[-10.099243,53.539467],[-10.099138,53.539407],[-10.099068,53.539391],[-10.098924,53.539377],[-10.098806,53.539357],[-10.098641,53.539341],[-10.098221,53.539253],[-10.097993,53.539177],[-10.097788,53.539107],[-10.097207,53.538929],[-10.096943,53.538837],[-10.096712,53.538772],[-10.096614,53.53873],[-10.096515,53.538669],[-10.096465,53.53864],[-10.096392,53.538628],[-10.09632,53.538618],[-10.096222,53.538619],[-10.09616,53.538611],[-10.096073,53.538608],[-10.095915,53.538599],[-10.095822,53.538509],[-10.095733,53.538422],[-10.095656,53.538358],[-10.095533,53.538306],[-10.095393,53.538249],[-10.095302,53.538217],[-10.095247,53.538255],[-10.095193,53.538313],[-10.095173,53.538305],[-10.095143,53.538326],[-10.094966,53.538244],[-10.094888,53.538212],[-10.09463,53.538175],[-10.094494,53.538153],[-10.094409,53.538178],[-10.094206,53.538261],[-10.09412,53.538285],[-10.093959,53.538305],[-10.093824,53.538317],[-10.093673,53.538346],[-10.093536,53.538405],[-10.093456,53.538433],[-10.093385,53.538445],[-10.093281,53.538439],[-10.093165,53.538429],[-10.093077,53.538429],[-10.092864,53.538465],[-10.092724,53.538497],[-10.092627,53.538503],[-10.092572,53.538501],[-10.092521,53.538489],[-10.092476,53.53846],[-10.092408,53.538462]],[[-10.113201,53.547111],[-10.113654,53.547103],[-10.113667,53.547373],[-10.114119,53.547365],[-10.114133,53.547634],[-10.113228,53.54765],[-10.113215,53.547381],[-10.113201,53.547111]],[[-10.114146,53.547904],[-10.114133,53.547634],[-10.114585,53.547626],[-10.114599,53.547896],[-10.114146,53.547904]],[[-10.110179,53.540963],[-10.111083,53.540947],[-10.111097,53.541216],[-10.108835,53.541256],[-10.108822,53.540987],[-10.109726,53.540971],[-10.109713,53.540701],[-10.110165,53.540693],[-10.110179,53.540963]]],[[[-10.114956,53.545788],[-10.114945,53.545773],[-10.114948,53.545834],[-10.115003,53.545844],[-10.114991,53.545787],[-10.114956,53.545788]]]]}}]}
