{"type":"FeatureCollection","features":[{"type":"Feature","properties":{"source_fid":945857,"county":"Galway","bog_geom_ha":358.81231964680239,"low15_pct":93.106041614439704,"low15_ha":334.07594764808823,"overlay_ha":333.71023286936111,"area_delta":-0.36571477872712421},"geometry":{"type":"MultiPolygon","coordinates":[[[[-9.397061,53.431806],[-9.397039,53.431797],[-9.397039,53.431799],[-9.397039,53.431803],[-9.397036,53.431849],[-9.397269,53.431846],[-9.3972,53.431838],[-9.397164,53.431832],[-9.397128,53.431825],[-9.397094,53.431816],[-9.397061,53.431806]]],[[[-9.400466,53.432436],[-9.400438,53.432426],[-9.40044,53.432478],[-9.400577,53.432476],[-9.400575,53.432474],[-9.400542,53.43246],[-9.400466,53.432436]]],[[[-9.400065,53.432712],[-9.400447,53.432707],[-9.40044,53.432478],[-9.400058,53.432483],[-9.400065,53.432712]]],[[[-9.3802,53.44353],[-9.380154,53.443544],[-9.380112,53.443566],[-9.380067,53.443589],[-9.379358,53.443762],[-9.37936,53.443835],[-9.379372,53.443841],[-9.379459,53.443896],[-9.379472,53.443949],[-9.379423,53.444003],[-9.379367,53.444033],[-9.37937,53.444135],[-9.379569,53.444151],[-9.379697,53.444168],[-9.379934,53.444134],[-9.38,53.444127],[-9.380022,53.444132],[-9.380044,53.44419],[-9.379978,53.444199],[-9.379735,53.444215],[-9.379699,53.444243],[-9.379733,53.444243],[-9.380569,53.444239],[-9.38085,53.44424],[-9.381107,53.444224],[-9.381139,53.444199],[-9.381142,53.444184],[-9.381146,53.444144],[-9.381145,53.444125],[-9.381144,53.444092],[-9.381109,53.444014],[-9.381128,53.443994],[-9.381156,53.443985],[-9.381207,53.443984],[-9.381279,53.444025],[-9.381344,53.444032],[-9.381353,53.444031],[-9.381407,53.444009],[-9.381424,53.444001],[-9.381448,53.443977],[-9.381463,53.443952],[-9.381463,53.443934],[-9.381478,53.443921],[-9.381519,53.443925],[-9.381572,53.443965],[-9.381592,53.443976],[-9.381764,53.443989],[-9.381785,53.443985],[-9.381895,53.443972],[-9.381936,53.443959],[-9.38195,53.443941],[-9.382031,53.443897],[-9.382061,53.443881],[-9.382123,53.443883],[-9.38213,53.443883],[-9.382149,53.44389],[-9.382155,53.443905],[-9.382152,53.443928],[-9.382136,53.443948],[-9.382081,53.443996],[-9.382083,53.444033],[-9.382097,53.444099],[-9.382099,53.444144],[-9.382117,53.444164],[-9.382145,53.444183],[-9.382136,53.4442],[-9.382115,53.444242],[-9.382127,53.444273],[-9.382141,53.444281],[-9.38217,53.444282],[-9.382195,53.44428],[-9.382261,53.44427],[-9.382299,53.444269],[-9.382384,53.444289],[-9.382465,53.444311],[-9.38249,53.444315],[-9.382518,53.444328],[-9.382568,53.444403],[-9.382618,53.444465],[-9.382619,53.444499],[-9.382636,53.444627],[-9.382637,53.444645],[-9.382686,53.444669],[-9.382748,53.444749],[-9.382766,53.44477],[-9.38278,53.444775],[-9.382812,53.444774],[-9.382918,53.444775],[-9.383059,53.444801],[-9.383194,53.444826],[-9.383231,53.444828],[-9.383263,53.444814],[-9.38333,53.444765],[-9.383372,53.444749],[-9.383461,53.444745],[-9.383533,53.444764],[-9.383658,53.444866],[-9.383676,53.444884],[-9.383716,53.44489],[-9.383981,53.444893],[-9.384067,53.444896],[-9.384155,53.444872],[-9.384198,53.444855],[-9.38422,53.444852],[-9.38425,53.444863],[-9.384304,53.444914],[-9.384378,53.444983],[-9.384404,53.44499],[-9.384444,53.444991],[-9.384473,53.444991],[-9.384567,53.444974],[-9.384646,53.444935],[-9.384697,53.444917],[-9.384761,53.444898],[-9.384831,53.444887],[-9.385005,53.444877],[-9.385042,53.444877],[-9.385066,53.444872],[-9.385115,53.444855],[-9.385185,53.444838],[-9.385275,53.44482],[-9.38533,53.444818],[-9.385426,53.444812],[-9.385467,53.444819],[-9.385565,53.444818],[-9.385628,53.444827],[-9.385695,53.444855],[-9.385747,53.444866],[-9.385799,53.444856],[-9.385891,53.444829],[-9.385958,53.444809],[-9.386017,53.444804],[-9.386064,53.444824],[-9.386123,53.444834],[-9.386321,53.444819],[-9.386536,53.444813],[-9.386568,53.444825],[-9.386586,53.444831],[-9.386697,53.44485],[-9.386766,53.444847],[-9.386829,53.44482],[-9.386888,53.444813],[-9.386918,53.444823],[-9.386939,53.444849],[-9.386979,53.444864],[-9.387038,53.444868],[-9.387051,53.444859],[-9.387083,53.444836],[-9.387144,53.444812],[-9.387264,53.444803],[-9.387404,53.44478],[-9.387476,53.444784],[-9.387509,53.444809],[-9.387524,53.444834],[-9.387531,53.444846],[-9.387561,53.444862],[-9.38765,53.444876],[-9.387772,53.444913],[-9.387865,53.444911],[-9.387933,53.444916],[-9.388007,53.444947],[-9.38808,53.444944],[-9.388172,53.444951],[-9.388299,53.444933],[-9.388409,53.444936],[-9.388527,53.444944],[-9.388586,53.444967],[-9.388627,53.44498],[-9.388656,53.444989],[-9.38874,53.444982],[-9.388817,53.444948],[-9.388921,53.4449],[-9.38896,53.444822],[-9.389015,53.444794],[-9.389049,53.444797],[-9.389085,53.44482],[-9.389129,53.444821],[-9.389171,53.444814],[-9.389206,53.444776],[-9.389251,53.444756],[-9.389368,53.444749],[-9.389385,53.444748],[-9.389532,53.444738],[-9.389578,53.444748],[-9.389591,53.444751],[-9.389687,53.444758],[-9.389801,53.444766],[-9.389905,53.444768],[-9.390083,53.444719],[-9.3901,53.444735],[-9.39033,53.444698],[-9.390657,53.444658],[-9.390916,53.44466],[-9.391167,53.444665],[-9.391428,53.444677],[-9.391536,53.444682],[-9.39197,53.444656],[-9.392403,53.444626],[-9.392794,53.444605],[-9.392964,53.444671],[-9.39321,53.444767],[-9.393742,53.444996],[-9.394166,53.445179],[-9.394646,53.445393],[-9.395082,53.445584],[-9.39549,53.445755],[-9.395762,53.445863],[-9.395946,53.44586],[-9.396112,53.445867],[-9.396327,53.445877],[-9.397064,53.445892],[-9.397712,53.445912],[-9.398226,53.445927],[-9.398853,53.445937],[-9.399497,53.445954],[-9.400012,53.445958],[-9.400163,53.445959],[-9.400705,53.445981],[-9.401134,53.445987],[-9.401156,53.445989],[-9.401169,53.445917],[-9.401175,53.445895],[-9.401192,53.445839],[-9.401179,53.4458],[-9.401117,53.445737],[-9.401108,53.445716],[-9.401141,53.445671],[-9.401139,53.445625],[-9.401072,53.445535],[-9.401004,53.445494],[-9.400955,53.445469],[-9.400934,53.445436],[-9.400921,53.445373],[-9.400947,53.445351],[-9.401062,53.445315],[-9.401137,53.44525],[-9.401152,53.445241],[-9.401289,53.445156],[-9.40142,53.445096],[-9.401646,53.444996],[-9.401737,53.444949],[-9.401777,53.44492],[-9.401797,53.444871],[-9.401799,53.444833],[-9.401801,53.44479],[-9.401811,53.444757],[-9.401867,53.444731],[-9.4019,53.444696],[-9.401905,53.444662],[-9.40184,53.444613],[-9.401822,53.44459],[-9.401849,53.444567],[-9.401852,53.444531],[-9.401841,53.444473],[-9.401848,53.44445],[-9.401912,53.4444],[-9.401911,53.444381],[-9.401894,53.444356],[-9.401863,53.444354],[-9.401822,53.444355],[-9.401765,53.444367],[-9.401731,53.444365],[-9.401667,53.444362],[-9.401595,53.444337],[-9.401562,53.444291],[-9.401509,53.444261],[-9.401438,53.444237],[-9.401397,53.4442],[-9.401394,53.444146],[-9.40139,53.444126],[-9.401384,53.4441],[-9.401419,53.444034],[-9.401427,53.443992],[-9.401427,53.443933],[-9.401373,53.443827],[-9.401374,53.443786],[-9.401403,53.44372],[-9.401415,53.443666],[-9.401415,53.443632],[-9.401416,53.443588],[-9.401454,53.443513],[-9.401507,53.443459],[-9.401529,53.443366],[-9.401571,53.443345],[-9.401637,53.443321],[-9.401689,53.443264],[-9.401742,53.443216],[-9.4018,53.443197],[-9.401874,53.4432],[-9.401904,53.443196],[-9.401956,53.443178],[-9.40201,53.443144],[-9.402051,53.44312],[-9.402118,53.443081],[-9.40218,53.443004],[-9.402224,53.442965],[-9.402309,53.442954],[-9.402391,53.442934],[-9.402437,53.442912],[-9.402463,53.442879],[-9.40246,53.44282],[-9.402478,53.442794],[-9.402558,53.442735],[-9.402599,53.442692],[-9.402608,53.442667],[-9.402628,53.442642],[-9.402708,53.442606],[-9.402733,53.442566],[-9.40275,53.442493],[-9.402784,53.442459],[-9.402843,53.442428],[-9.40291,53.442422],[-9.402947,53.442441],[-9.402991,53.442467],[-9.403023,53.442471],[-9.403055,53.442465],[-9.403079,53.442451],[-9.403099,53.44242],[-9.403128,53.442372],[-9.403166,53.442343],[-9.403196,53.442293],[-9.403216,53.442275],[-9.403238,53.442254],[-9.403256,53.442224],[-9.403312,53.442201],[-9.403443,53.442178],[-9.40352,53.442124],[-9.403565,53.442098],[-9.40373,53.442081],[-9.403803,53.442051],[-9.40389,53.441991],[-9.403993,53.441933],[-9.404115,53.441816],[-9.40422,53.441759],[-9.404365,53.441672],[-9.404412,53.441642],[-9.404429,53.441631],[-9.404475,53.441595],[-9.404507,53.441541],[-9.404534,53.441522],[-9.404711,53.441467],[-9.40478,53.441433],[-9.404826,53.441409],[-9.404869,53.441406],[-9.404946,53.441417],[-9.404999,53.441425],[-9.405083,53.441442],[-9.405114,53.441442],[-9.405155,53.441431],[-9.405185,53.441375],[-9.405227,53.441351],[-9.405339,53.441316],[-9.405357,53.441279],[-9.405374,53.441234],[-9.405352,53.441176],[-9.405325,53.441099],[-9.405303,53.441055],[-9.405311,53.441037],[-9.405328,53.440996],[-9.40535,53.44097],[-9.405365,53.440958],[-9.405327,53.440932],[-9.405264,53.440901],[-9.405239,53.440869],[-9.405188,53.440853],[-9.405174,53.440821],[-9.405217,53.440739],[-9.40522,53.440733],[-9.405245,53.44067],[-9.405323,53.440638],[-9.40538,53.440594],[-9.405509,53.440565],[-9.405554,53.440552],[-9.405577,53.440543],[-9.40567,53.440472],[-9.405662,53.440236],[-9.405893,53.440233],[-9.405933,53.440189],[-9.405941,53.440168],[-9.406016,53.440136],[-9.406045,53.440109],[-9.406107,53.440051],[-9.406105,53.439961],[-9.406206,53.43996],[-9.40622,53.439942],[-9.406249,53.439895],[-9.406271,53.439897],[-9.406491,53.439904],[-9.406939,53.439912],[-9.407297,53.439903],[-9.40756,53.439889],[-9.407944,53.439902],[-9.408238,53.439898],[-9.408653,53.439898],[-9.408894,53.439901],[-9.408974,53.439927],[-9.409736,53.439918],[-9.40982,53.439867],[-9.409984,53.439775],[-9.410236,53.43964],[-9.410618,53.439444],[-9.410767,53.439358],[-9.410843,53.439315],[-9.410866,53.439302],[-9.411163,53.439114],[-9.411269,53.439058],[-9.411503,53.438942],[-9.411646,53.438893],[-9.411785,53.438831],[-9.411916,53.438766],[-9.412011,53.438718],[-9.412073,53.438685],[-9.41214,53.438639],[-9.412207,53.438598],[-9.412292,53.43854],[-9.412419,53.438456],[-9.4125,53.438412],[-9.412536,53.438362],[-9.412496,53.438281],[-9.412478,53.438237],[-9.412497,53.438197],[-9.412536,53.438138],[-9.412536,53.438123],[-9.412613,53.43807],[-9.412684,53.437998],[-9.412721,53.437968],[-9.412749,53.437953],[-9.412919,53.437896],[-9.413054,53.437811],[-9.413249,53.437665],[-9.413403,53.437578],[-9.41375,53.437501],[-9.414011,53.437474],[-9.41413,53.437461],[-9.414214,53.43743],[-9.414355,53.437301],[-9.41444,53.437213],[-9.414451,53.437132],[-9.414442,53.437098],[-9.414499,53.43706],[-9.414561,53.436985],[-9.41459,53.436943],[-9.414707,53.436886],[-9.414812,53.43683],[-9.414976,53.436774],[-9.415112,53.436722],[-9.415118,53.436664],[-9.415076,53.436586],[-9.415078,53.436547],[-9.415138,53.436521],[-9.415156,53.436519],[-9.415188,53.436504],[-9.415234,53.436492],[-9.415306,53.436479],[-9.415329,53.436477],[-9.415398,53.436464],[-9.415408,53.436432],[-9.415429,53.436365],[-9.415435,53.43633],[-9.415372,53.436297],[-9.41534,53.436272],[-9.415343,53.436256],[-9.415347,53.436251],[-9.415372,53.436221],[-9.415377,53.436213],[-9.415387,53.436195],[-9.415386,53.436179],[-9.415392,53.436128],[-9.415395,53.436112],[-9.415401,53.436091],[-9.415439,53.436063],[-9.415451,53.436046],[-9.415461,53.436033],[-9.415477,53.435971],[-9.415457,53.435955],[-9.415437,53.435937],[-9.415427,53.435931],[-9.415413,53.435923],[-9.41541,53.43592],[-9.415399,53.435908],[-9.415393,53.435891],[-9.415393,53.435891],[-9.415393,53.435891],[-9.415402,53.435877],[-9.415433,53.435831],[-9.415461,53.435796],[-9.415477,53.435777],[-9.415498,53.43574],[-9.415511,53.435667],[-9.41549,53.435625],[-9.415469,53.435591],[-9.415474,53.435577],[-9.415479,53.435561],[-9.415495,53.435536],[-9.415504,53.435522],[-9.415527,53.435498],[-9.415567,53.435461],[-9.415617,53.435442],[-9.415673,53.43542],[-9.415691,53.435401],[-9.415699,53.435392],[-9.415698,53.435362],[-9.415708,53.435323],[-9.415726,53.435286],[-9.415722,53.435273],[-9.415716,53.435249],[-9.415706,53.435228],[-9.415695,53.435208],[-9.415687,53.435187],[-9.415687,53.435185],[-9.415701,53.435167],[-9.415701,53.435167],[-9.415701,53.435167],[-9.415725,53.435157],[-9.415762,53.435143],[-9.415879,53.435088],[-9.415908,53.435075],[-9.415943,53.43506],[-9.415954,53.435044],[-9.415969,53.435022],[-9.415964,53.435001],[-9.415959,53.434981],[-9.415954,53.434949],[-9.415958,53.434936],[-9.415964,53.434912],[-9.415972,53.434905],[-9.415983,53.434896],[-9.416024,53.434881],[-9.416106,53.434857],[-9.416116,53.434855],[-9.416128,53.434848],[-9.416168,53.434826],[-9.416211,53.434779],[-9.416224,53.434765],[-9.416224,53.434765],[-9.416262,53.434743],[-9.41628,53.43473],[-9.416281,53.43473],[-9.416284,53.434726],[-9.416302,53.43471],[-9.416316,53.434701],[-9.416322,53.434697],[-9.416397,53.434669],[-9.41644,53.434657],[-9.416583,53.434617],[-9.416667,53.434591],[-9.416678,53.434582],[-9.416674,53.434444],[-9.416597,53.434417],[-9.41636,53.434345],[-9.415673,53.434132],[-9.41507,53.433938],[-9.41489,53.433898],[-9.414185,53.433677],[-9.413539,53.43347],[-9.413024,53.433312],[-9.412536,53.433161],[-9.411937,53.432957],[-9.411452,53.432805],[-9.411036,53.432664],[-9.41073,53.432468],[-9.410419,53.432284],[-9.409935,53.431961],[-9.409514,53.431693],[-9.409165,53.431471],[-9.408838,53.431266],[-9.408617,53.431117],[-9.408519,53.431058],[-9.408528,53.431304],[-9.407625,53.431315],[-9.407616,53.431046],[-9.408067,53.43104],[-9.408058,53.430771],[-9.408078,53.43077],[-9.407907,53.430653],[-9.407579,53.430451],[-9.407357,53.430267],[-9.407138,53.430201],[-9.406514,53.429652],[-9.406118,53.429403],[-9.406017,53.42931],[-9.405814,53.428968],[-9.40568,53.428892],[-9.405509,53.428857],[-9.405425,53.428877],[-9.405354,53.428832],[-9.405284,53.428817],[-9.405204,53.428839],[-9.405168,53.428916],[-9.405115,53.42893],[-9.404984,53.428923],[-9.404939,53.428954],[-9.404886,53.428993],[-9.404672,53.429022],[-9.404521,53.429008],[-9.404449,53.428952],[-9.404269,53.428968],[-9.404086,53.42892],[-9.403711,53.428724],[-9.40345,53.428654],[-9.403194,53.42852],[-9.403077,53.428482],[-9.403044,53.428485],[-9.403,53.428446],[-9.403003,53.428301],[-9.402923,53.428126],[-9.402773,53.427955],[-9.402715,53.427928],[-9.40271,53.427927],[-9.402672,53.427922],[-9.402384,53.427888],[-9.401366,53.427748],[-9.401109,53.427714],[-9.400716,53.427646],[-9.400163,53.42748],[-9.399585,53.42739],[-9.398891,53.427292],[-9.398189,53.427183],[-9.397316,53.427026],[-9.396896,53.426949],[-9.396846,53.42694],[-9.39631,53.426846],[-9.396136,53.426832],[-9.39592,53.426828],[-9.395697,53.426827],[-9.395248,53.426882],[-9.394864,53.42692],[-9.394449,53.426952],[-9.394231,53.426969],[-9.393726,53.427059],[-9.393258,53.427128],[-9.392818,53.427195],[-9.392409,53.427265],[-9.391758,53.427367],[-9.391475,53.427408],[-9.391348,53.427431],[-9.39095,53.427481],[-9.390773,53.427502],[-9.390137,53.427582],[-9.389773,53.427643],[-9.389012,53.42776],[-9.388362,53.4278],[-9.388238,53.4278],[-9.388238,53.4278],[-9.388238,53.427801],[-9.388232,53.427828],[-9.388227,53.427846],[-9.388239,53.42786],[-9.388252,53.427877],[-9.388262,53.427893],[-9.388271,53.42791],[-9.388371,53.428132],[-9.388393,53.428167],[-9.388684,53.42836],[-9.388819,53.42845],[-9.389264,53.428729],[-9.389672,53.428957],[-9.389689,53.428966],[-9.389704,53.428976],[-9.389718,53.428987],[-9.389922,53.42914],[-9.390086,53.429215],[-9.39016,53.429233],[-9.390898,53.429225],[-9.391039,53.429195],[-9.391322,53.429141],[-9.391564,53.429086],[-9.391689,53.42905],[-9.391689,53.42905],[-9.391901,53.42899],[-9.392153,53.429027],[-9.392411,53.429129],[-9.392673,53.429199],[-9.392939,53.429285],[-9.393284,53.429432],[-9.393529,53.429573],[-9.39367,53.429671],[-9.393622,53.429864],[-9.393782,53.429827],[-9.393851,53.429848],[-9.393924,53.429851],[-9.39412,53.429828],[-9.394265,53.4298],[-9.394394,53.429844],[-9.394517,53.429828],[-9.394689,53.429897],[-9.394794,53.429909],[-9.39499,53.429893],[-9.395219,53.429841],[-9.395374,53.429776],[-9.395804,53.429471],[-9.395957,53.429356],[-9.396007,53.429351],[-9.396106,53.429409],[-9.39616,53.429406],[-9.396197,53.4294],[-9.396195,53.429418],[-9.396545,53.429383],[-9.396804,53.429351],[-9.397005,53.429336],[-9.397209,53.429286],[-9.397408,53.429273],[-9.397468,53.42935],[-9.397657,53.429418],[-9.397738,53.42947],[-9.397829,53.429523],[-9.397905,53.429623],[-9.397931,53.42966],[-9.397999,53.429688],[-9.398027,53.430065],[-9.398049,53.430463],[-9.398011,53.430722],[-9.39795,53.430887],[-9.397837,53.431064],[-9.397845,53.431208],[-9.397848,53.43126],[-9.397882,53.431305],[-9.397913,53.431334],[-9.397908,53.431383],[-9.397908,53.431383],[-9.397908,53.431383],[-9.397906,53.431383],[-9.397906,53.431383],[-9.397993,53.431405],[-9.398005,53.431408],[-9.398016,53.431412],[-9.398027,53.431415],[-9.398292,53.431498],[-9.398309,53.431504],[-9.398325,53.43151],[-9.39834,53.431516],[-9.398568,53.43161],[-9.398639,53.431607],[-9.398741,53.431582],[-9.398775,53.431575],[-9.398809,53.43157],[-9.398845,53.431566],[-9.398941,53.431557],[-9.398978,53.431555],[-9.399015,53.431555],[-9.399053,53.431556],[-9.39909,53.431559],[-9.399126,53.431564],[-9.399162,53.431571],[-9.399166,53.431572],[-9.39931,53.431604],[-9.399314,53.431605],[-9.399318,53.431606],[-9.399321,53.431607],[-9.399384,53.431622],[-9.399418,53.431631],[-9.399451,53.431642],[-9.399482,53.431655],[-9.399511,53.431669],[-9.399538,53.431684],[-9.399563,53.431701],[-9.399585,53.431719],[-9.399605,53.431738],[-9.399637,53.431741],[-9.39993,53.431743],[-9.399963,53.431744],[-9.399997,53.431747],[-9.40003,53.431751],[-9.400709,53.431848],[-9.400745,53.431855],[-9.40078,53.431863],[-9.400814,53.431872],[-9.400846,53.431883],[-9.400877,53.431896],[-9.400905,53.43191],[-9.400909,53.431912],[-9.400943,53.431931],[-9.400971,53.431946],[-9.401024,53.431963],[-9.401046,53.43197],[-9.401066,53.431978],[-9.401085,53.431986],[-9.40123,53.43205],[-9.40126,53.432064],[-9.401286,53.43208],[-9.401311,53.432097],[-9.401327,53.432109],[-9.40134,53.43212],[-9.401387,53.432158],[-9.401408,53.432177],[-9.401449,53.432197],[-9.401485,53.432201],[-9.401521,53.432208],[-9.401525,53.432209],[-9.401626,53.43223],[-9.401661,53.432238],[-9.401694,53.432248],[-9.401726,53.43226],[-9.401756,53.432273],[-9.401784,53.432288],[-9.40181,53.432304],[-9.401834,53.432321],[-9.401856,53.432339],[-9.401874,53.432359],[-9.40189,53.432379],[-9.401904,53.4324],[-9.401914,53.432421],[-9.401921,53.432443],[-9.401925,53.432465],[-9.401925,53.432472],[-9.401926,53.432487],[-9.401925,53.432507],[-9.401829,53.432494],[-9.40166,53.432497],[-9.401615,53.432506],[-9.40156,53.432516],[-9.401522,53.432517],[-9.401464,53.432518],[-9.40136,53.432496],[-9.401312,53.432493],[-9.401236,53.432513],[-9.401171,53.432521],[-9.401106,53.43251],[-9.401006,53.432556],[-9.400896,53.432633],[-9.400898,53.432702],[-9.401569,53.432694],[-9.401579,53.433004],[-9.401811,53.433001],[-9.401829,53.43354],[-9.401597,53.433543],[-9.401628,53.434491],[-9.400124,53.434508],[-9.400095,53.43361],[-9.398591,53.433628],[-9.398561,53.43273],[-9.394049,53.432782],[-9.394078,53.433681],[-9.39107,53.433716],[-9.38982,53.43373],[-9.389804,53.433755],[-9.389743,53.433731],[-9.389566,53.433733],[-9.389563,53.433645],[-9.389561,53.433643],[-9.389483,53.433569],[-9.389358,53.433488],[-9.389011,53.433435],[-9.38889,53.4334],[-9.38866,53.433323],[-9.388524,53.433215],[-9.388469,53.433207],[-9.388661,53.433075],[-9.388677,53.433012],[-9.388742,53.432991],[-9.388786,53.432946],[-9.388785,53.432804],[-9.388758,53.432751],[-9.38873,53.432685],[-9.388741,53.432642],[-9.38882,53.432647],[-9.388978,53.43264],[-9.388991,53.432575],[-9.389081,53.432611],[-9.389146,53.432607],[-9.389303,53.432584],[-9.389378,53.432533],[-9.389519,53.432297],[-9.389516,53.432218],[-9.389134,53.432013],[-9.389089,53.431993],[-9.389143,53.431669],[-9.389176,53.431671],[-9.389272,53.431676],[-9.389285,53.431609],[-9.389425,53.431618],[-9.389416,53.431684],[-9.389499,53.431689],[-9.389441,53.429903],[-9.38909,53.429944],[-9.388945,53.429961],[-9.388933,53.429911],[-9.388954,53.429865],[-9.389055,53.429628],[-9.389055,53.429619],[-9.389054,53.429593],[-9.389135,53.429591],[-9.389136,53.429612],[-9.389259,53.429602],[-9.389346,53.4296],[-9.389288,53.429573],[-9.389259,53.429559],[-9.389232,53.429543],[-9.389208,53.429526],[-9.389206,53.429525],[-9.38899,53.429362],[-9.388987,53.42936],[-9.388948,53.429338],[-9.388596,53.429142],[-9.388589,53.429138],[-9.388583,53.429134],[-9.388577,53.429131],[-9.38813,53.428851],[-9.38811,53.428837],[-9.388091,53.428825],[-9.387758,53.428604],[-9.387651,53.428532],[-9.387638,53.428523],[-9.38763,53.428517],[-9.387626,53.428514],[-9.387615,53.428505],[-9.387565,53.428461],[-9.387546,53.428443],[-9.38753,53.428424],[-9.387516,53.428405],[-9.387463,53.428322],[-9.387458,53.428313],[-9.387453,53.428305],[-9.387449,53.428296],[-9.387355,53.428089],[-9.387313,53.428038],[-9.387298,53.428018],[-9.387285,53.427997],[-9.387276,53.427975],[-9.387271,53.427958],[-9.387259,53.427911],[-9.387255,53.427889],[-9.387254,53.427867],[-9.387256,53.427845],[-9.387259,53.427833],[-9.387274,53.427767],[-9.387274,53.427767],[-9.387077,53.427762],[-9.386331,53.427713],[-9.385659,53.427677],[-9.385351,53.42767],[-9.385062,53.427664],[-9.384772,53.427667],[-9.383834,53.427621],[-9.383543,53.427597],[-9.382715,53.427573],[-9.381495,53.427531],[-9.380935,53.427509],[-9.380234,53.42747],[-9.379514,53.427448],[-9.378927,53.427419],[-9.378337,53.427401],[-9.377868,53.427385],[-9.37719,53.427357],[-9.376501,53.427325],[-9.376204,53.427324],[-9.375939,53.427315],[-9.375842,53.427303],[-9.375607,53.427304],[-9.374874,53.427279],[-9.374634,53.427264],[-9.374373,53.427248],[-9.374255,53.427241],[-9.374157,53.427236],[-9.37388,53.427215],[-9.373793,53.42721],[-9.3736,53.427197],[-9.373438,53.427199],[-9.373331,53.427208],[-9.37329,53.427231],[-9.373238,53.427271],[-9.373171,53.427325],[-9.37313,53.427335],[-9.373084,53.42734],[-9.37303,53.427338],[-9.372926,53.427285],[-9.372801,53.427216],[-9.372709,53.427212],[-9.37243,53.427208],[-9.372331,53.427195],[-9.372238,53.427166],[-9.372194,53.42715],[-9.372162,53.427148],[-9.372071,53.427181],[-9.371985,53.427163],[-9.371942,53.427153],[-9.37191,53.42715],[-9.371847,53.427168],[-9.371759,53.427185],[-9.371667,53.427196],[-9.37152,53.427191],[-9.371398,53.427153],[-9.371373,53.427153],[-9.371373,53.427145],[-9.371282,53.427116],[-9.37125,53.427091],[-9.371214,53.427074],[-9.371149,53.427075],[-9.370937,53.427075],[-9.370509,53.42707],[-9.370386,53.42707],[-9.370301,53.427069],[-9.370258,53.427065],[-9.370235,53.427061],[-9.370176,53.427038],[-9.370106,53.427012],[-9.370013,53.426993],[-9.36995,53.426973],[-9.369891,53.426951],[-9.36974,53.426833],[-9.369624,53.42672],[-9.369535,53.426625],[-9.369488,53.426612],[-9.369424,53.426633],[-9.369263,53.426665],[-9.369187,53.426678],[-9.36909,53.42668],[-9.368965,53.426692],[-9.368874,53.426656],[-9.368773,53.42661],[-9.368705,53.426593],[-9.368587,53.426588],[-9.368493,53.426595],[-9.368403,53.426579],[-9.368319,53.426534],[-9.368275,53.426491],[-9.368198,53.426394],[-9.36802,53.426316],[-9.367758,53.426196],[-9.367404,53.426037],[-9.367116,53.425896],[-9.367018,53.425839],[-9.366988,53.425822],[-9.366963,53.425815],[-9.366885,53.42588],[-9.366296,53.426763],[-9.366324,53.42678],[-9.366233,53.426906],[-9.3662,53.426955],[-9.366112,53.427071],[-9.365989,53.427258],[-9.366203,53.427403],[-9.366312,53.427486],[-9.36632,53.427519],[-9.36635,53.427526],[-9.366325,53.427602],[-9.366384,53.427652],[-9.36636,53.427686],[-9.366295,53.427745],[-9.366274,53.427772],[-9.366267,53.427804],[-9.366276,53.427855],[-9.36628,53.427905],[-9.366275,53.427961],[-9.366246,53.428032],[-9.366216,53.42808],[-9.366184,53.428114],[-9.366127,53.428154],[-9.366033,53.428206],[-9.365962,53.428255],[-9.365938,53.428278],[-9.365921,53.428296],[-9.365947,53.428305],[-9.366262,53.42843],[-9.36645,53.428501],[-9.36676,53.428632],[-9.36683,53.428661],[-9.366887,53.428683],[-9.366921,53.428697],[-9.367074,53.428761],[-9.367199,53.428803],[-9.367358,53.428831],[-9.367563,53.428851],[-9.367744,53.428859],[-9.367976,53.428874],[-9.367984,53.428875],[-9.368219,53.428887],[-9.36837,53.428898],[-9.368652,53.428936],[-9.368757,53.428941],[-9.369004,53.428961],[-9.36919,53.428976],[-9.369503,53.428999],[-9.369743,53.429023],[-9.370146,53.429065],[-9.370224,53.42907],[-9.370563,53.430052],[-9.370557,53.429859],[-9.375973,53.429797],[-9.375964,53.429527],[-9.377318,53.429511],[-9.377326,53.429781],[-9.377335,53.43005],[-9.377343,53.43028],[-9.377417,53.43028],[-9.377418,53.430319],[-9.378246,53.43031],[-9.378255,53.430579],[-9.378707,53.430574],[-9.378715,53.430843],[-9.379618,53.430833],[-9.379627,53.431103],[-9.380078,53.431097],[-9.380087,53.431367],[-9.380095,53.431636],[-9.381449,53.431621],[-9.381458,53.43189],[-9.382361,53.43188],[-9.382369,53.432149],[-9.382821,53.432144],[-9.382829,53.432414],[-9.382838,53.432683],[-9.382847,53.432953],[-9.382396,53.432958],[-9.382387,53.432688],[-9.381936,53.432694],[-9.381927,53.432424],[-9.381475,53.432429],[-9.381484,53.432699],[-9.381493,53.432968],[-9.381944,53.432963],[-9.381953,53.433233],[-9.382404,53.433227],[-9.382413,53.433497],[-9.382422,53.433766],[-9.381775,53.433774],[-9.38193,53.433788],[-9.38241,53.433877],[-9.382768,53.433947],[-9.383237,53.434028],[-9.383417,53.43405],[-9.383481,53.434052],[-9.38345,53.434277],[-9.383347,53.434961],[-9.383247,53.435658],[-9.38311,53.436457],[-9.383015,53.437129],[-9.382885,53.438051],[-9.382702,53.439234],[-9.382735,53.439845],[-9.382334,53.44208],[-9.382121,53.442169],[-9.381865,53.442314],[-9.381799,53.442399],[-9.381799,53.442402],[-9.381796,53.442402],[-9.381769,53.442437],[-9.38171,53.442476],[-9.381644,53.442492],[-9.381583,53.442495],[-9.381544,53.442502],[-9.381499,53.442519],[-9.381484,53.442531],[-9.381377,53.442643],[-9.381356,53.442654],[-9.381356,53.442676],[-9.381303,53.442677],[-9.381252,53.442698],[-9.3811,53.442744],[-9.38102,53.442775],[-9.380957,53.442829],[-9.380946,53.442856],[-9.380947,53.442882],[-9.380977,53.442939],[-9.380977,53.44295],[-9.380974,53.442959],[-9.380932,53.442981],[-9.380706,53.443106],[-9.380627,53.443156],[-9.380613,53.443195],[-9.380595,53.44322],[-9.380554,53.44326],[-9.380525,53.443281],[-9.38051,53.443307],[-9.380527,53.443334],[-9.380566,53.443357],[-9.380583,53.443379],[-9.380576,53.443412],[-9.380539,53.443449],[-9.38048,53.443496],[-9.380453,53.443501],[-9.38038,53.443509],[-9.380284,53.443513],[-9.380234,53.44352],[-9.3802,53.44353]],[[-9.401687,53.436287],[-9.401628,53.434491],[-9.403132,53.434473],[-9.403146,53.434873],[-9.403227,53.434872],[-9.403245,53.435411],[-9.403697,53.435406],[-9.403705,53.435675],[-9.404157,53.43567],[-9.404139,53.435131],[-9.40413,53.434861],[-9.404121,53.434592],[-9.405024,53.434581],[-9.405033,53.434851],[-9.405484,53.434845],[-9.405493,53.435115],[-9.405042,53.43512],[-9.405059,53.435659],[-9.404608,53.435665],[-9.404617,53.435934],[-9.404166,53.435939],[-9.404175,53.436209],[-9.403272,53.43622],[-9.403263,53.43595],[-9.403181,53.435951],[-9.403192,53.436269],[-9.401687,53.436287]],[[-9.386235,53.443634],[-9.386562,53.443644],[-9.386708,53.443649],[-9.386812,53.443605],[-9.386951,53.443488],[-9.38706,53.443405],[-9.387175,53.443401],[-9.38722,53.443418],[-9.387236,53.443458],[-9.38728,53.443501],[-9.387332,53.443544],[-9.387334,53.443612],[-9.387294,53.443726],[-9.387268,53.44375],[-9.387247,53.443846],[-9.387093,53.443913],[-9.386882,53.443997],[-9.38677,53.444042],[-9.386654,53.44404],[-9.386539,53.444058],[-9.386504,53.444025],[-9.38653,53.443929],[-9.386523,53.443897],[-9.386458,53.443878],[-9.386373,53.443892],[-9.386291,53.443904],[-9.386163,53.443858],[-9.386159,53.443727],[-9.3861,53.443694],[-9.386073,53.443657],[-9.386235,53.443634]],[[-9.386528,53.43287],[-9.388033,53.432852],[-9.388062,53.433751],[-9.386558,53.433768],[-9.386528,53.43287]],[[-9.406705,53.430787],[-9.407156,53.430781],[-9.407165,53.431051],[-9.406262,53.431061],[-9.406253,53.430792],[-9.405802,53.430797],[-9.405793,53.430528],[-9.405784,53.430258],[-9.406236,53.430253],[-9.406244,53.430522],[-9.406696,53.430517],[-9.406705,53.430787]],[[-9.404908,53.431077],[-9.404917,53.431347],[-9.404015,53.431358],[-9.404006,53.431088],[-9.404457,53.431083],[-9.404448,53.430813],[-9.404899,53.430808],[-9.404908,53.431077]],[[-9.404528,53.433239],[-9.404077,53.433244],[-9.404068,53.432975],[-9.405873,53.432953],[-9.405882,53.433223],[-9.407236,53.433207],[-9.407245,53.433477],[-9.407254,53.433746],[-9.405449,53.433767],[-9.40544,53.433498],[-9.404537,53.433508],[-9.404528,53.433239]],[[-9.403174,53.433255],[-9.404077,53.433244],[-9.404086,53.433514],[-9.403634,53.433519],[-9.403652,53.434058],[-9.403201,53.434063],[-9.403183,53.433524],[-9.403174,53.433255]],[[-9.402749,53.434069],[-9.403201,53.434063],[-9.40321,53.434333],[-9.402758,53.434338],[-9.402749,53.434069]],[[-9.409068,53.433994],[-9.408617,53.434],[-9.408608,53.43373],[-9.409059,53.433725],[-9.409068,53.433994]],[[-9.407714,53.43401],[-9.408617,53.434],[-9.408626,53.434269],[-9.408174,53.434274],[-9.408183,53.434544],[-9.407732,53.434549],[-9.407723,53.43428],[-9.407714,53.43401]],[[-9.385502,53.431304],[-9.385051,53.431309],[-9.385042,53.43104],[-9.385494,53.431035],[-9.385502,53.431304]],[[-9.386138,53.436959],[-9.386589,53.436954],[-9.386598,53.437223],[-9.387501,53.437213],[-9.387509,53.437482],[-9.386607,53.437493],[-9.386615,53.437762],[-9.385713,53.437773],[-9.385704,53.437503],[-9.385253,53.437508],[-9.385244,53.437239],[-9.385235,53.436969],[-9.385218,53.43643],[-9.385191,53.435622],[-9.385643,53.435617],[-9.385669,53.436425],[-9.38612,53.43642],[-9.386138,53.436959]],[[-9.393386,53.437683],[-9.392483,53.437694],[-9.392475,53.437424],[-9.393377,53.437414],[-9.393386,53.437683]],[[-9.38481,53.437783],[-9.384359,53.437788],[-9.38435,53.437519],[-9.384801,53.437514],[-9.38481,53.437783]],[[-9.383004,53.437804],[-9.384359,53.437788],[-9.384367,53.438058],[-9.383916,53.438063],[-9.383925,53.438333],[-9.383473,53.438338],[-9.383465,53.438068],[-9.383013,53.438074],[-9.383004,53.437804]],[[-9.386182,53.438307],[-9.386208,53.439115],[-9.385757,53.43912],[-9.385765,53.43939],[-9.385774,53.439659],[-9.384871,53.43967],[-9.38488,53.439939],[-9.384898,53.440478],[-9.384446,53.440484],[-9.384455,53.440753],[-9.384004,53.440758],[-9.384012,53.441028],[-9.38311,53.441038],[-9.383101,53.440769],[-9.383552,53.440764],[-9.383543,53.440494],[-9.383995,53.440489],[-9.383977,53.43995],[-9.384429,53.439945],[-9.38442,53.439675],[-9.384411,53.439406],[-9.384863,53.4394],[-9.384854,53.439131],[-9.385305,53.439126],[-9.385279,53.438317],[-9.38527,53.438047],[-9.385721,53.438042],[-9.38573,53.438312],[-9.386182,53.438307]],[[-9.391669,53.4404],[-9.391677,53.440669],[-9.390323,53.440685],[-9.390314,53.440416],[-9.391217,53.440405],[-9.391208,53.440135],[-9.392563,53.44012],[-9.392571,53.440389],[-9.391669,53.4404]],[[-9.388198,53.444754],[-9.387295,53.444765],[-9.387286,53.444495],[-9.388189,53.444485],[-9.388198,53.444754]],[[-9.383223,53.444542],[-9.383215,53.444273],[-9.383666,53.444267],[-9.383675,53.444537],[-9.383223,53.444542]]],[[[-9.381032,53.433674],[-9.381065,53.43368],[-9.381059,53.433513],[-9.380209,53.433522],[-9.380251,53.433532],[-9.38062,53.433602],[-9.381032,53.433674]]],[[[-9.373586,53.432393],[-9.3738,53.43241],[-9.373794,53.432248],[-9.374246,53.432243],[-9.374237,53.431974],[-9.372883,53.431989],[-9.372874,53.43172],[-9.372423,53.431725],[-9.372432,53.431994],[-9.371233,53.432008],[-9.371279,53.432161],[-9.371728,53.432206],[-9.372465,53.432283],[-9.373093,53.432349],[-9.373586,53.432393]]]]}}]}
