{"type":"FeatureCollection","features":[{"type":"Feature","properties":{"source_fid":945800,"county":"Galway","bog_geom_ha":341.48082402802947,"low15_pct":94.879915544998681,"low15_ha":323.99671744015996,"overlay_ha":323.85732797047785,"area_delta":-0.13938946968210075},"geometry":{"type":"MultiPolygon","coordinates":[[[[-8.69136,53.089087],[-8.691419,53.089113],[-8.691461,53.089132],[-8.691536,53.089235],[-8.691666,53.089462],[-8.691733,53.089575],[-8.69178,53.089684],[-8.691847,53.08984],[-8.691937,53.090001],[-8.691946,53.090008],[-8.691942,53.089799],[-8.691985,53.089799],[-8.691916,53.089674],[-8.691915,53.089659],[-8.691916,53.089588],[-8.691934,53.089514],[-8.691956,53.089474],[-8.692116,53.089401],[-8.692145,53.089379],[-8.692171,53.089336],[-8.6922,53.089215],[-8.692267,53.089203],[-8.692274,53.089127],[-8.692367,53.089066],[-8.692441,53.089037],[-8.692627,53.088992],[-8.692713,53.088926],[-8.693075,53.088589],[-8.693238,53.088433],[-8.693487,53.088231],[-8.69362,53.088154],[-8.693978,53.088098],[-8.694167,53.088059],[-8.694589,53.088004],[-8.694682,53.087977],[-8.694684,53.08793],[-8.694691,53.087896],[-8.694693,53.087887],[-8.694702,53.08784],[-8.694706,53.087819],[-8.694695,53.087742],[-8.694706,53.087641],[-8.694715,53.087556],[-8.694715,53.087513],[-8.694714,53.087455],[-8.694718,53.087191],[-8.694743,53.086772],[-8.694775,53.086494],[-8.694758,53.086344],[-8.694828,53.086301],[-8.694992,53.086102],[-8.695285,53.085824],[-8.695379,53.085713],[-8.695485,53.085608],[-8.695737,53.085334],[-8.695965,53.085101],[-8.696171,53.084891],[-8.696377,53.084746],[-8.696637,53.084579],[-8.697073,53.084268],[-8.697521,53.083936],[-8.697839,53.083698],[-8.698304,53.083376],[-8.698705,53.083102],[-8.698243,53.082835],[-8.697695,53.082502],[-8.697191,53.082232],[-8.696879,53.082079],[-8.696452,53.081838],[-8.69635,53.081746],[-8.695983,53.081612],[-8.695708,53.081514],[-8.695035,53.081223],[-8.694452,53.080957],[-8.69381,53.080689],[-8.693727,53.080649],[-8.693352,53.080491],[-8.693145,53.080416],[-8.693091,53.080389],[-8.692965,53.080325],[-8.69281,53.080206],[-8.692522,53.080034],[-8.692467,53.080001],[-8.691944,53.079681],[-8.691164,53.079255],[-8.690634,53.078949],[-8.690206,53.078668],[-8.689897,53.078503],[-8.689605,53.078324],[-8.689219,53.078125],[-8.688984,53.077981],[-8.688946,53.077958],[-8.688669,53.077803],[-8.688353,53.077642],[-8.688009,53.077461],[-8.687357,53.077147],[-8.687102,53.077036],[-8.686588,53.076771],[-8.686128,53.076551],[-8.685706,53.076336],[-8.685672,53.076321],[-8.68539,53.076194],[-8.685058,53.076015],[-8.684701,53.075843],[-8.684304,53.075648],[-8.683988,53.075507],[-8.683678,53.075337],[-8.683586,53.075278],[-8.68349,53.07519],[-8.683418,53.075127],[-8.683319,53.075055],[-8.683103,53.074853],[-8.682986,53.074717],[-8.682921,53.074467],[-8.682881,53.074317],[-8.682841,53.074083],[-8.682791,53.073855],[-8.682694,53.073627],[-8.682622,53.073355],[-8.682531,53.07314],[-8.682433,53.07289],[-8.682314,53.072541],[-8.68225,53.072177],[-8.681898,53.07217],[-8.681348,53.072149],[-8.681039,53.072137],[-8.680499,53.072121],[-8.680368,53.072117],[-8.67996,53.072105],[-8.679663,53.072096],[-8.679569,53.072093],[-8.679157,53.072077],[-8.678695,53.072062],[-8.678396,53.072056],[-8.678286,53.072053],[-8.677808,53.07204],[-8.677276,53.07203],[-8.676958,53.072023],[-8.676796,53.072004],[-8.676765,53.071998],[-8.676551,53.071952],[-8.676485,53.071931],[-8.676253,53.07188],[-8.676144,53.071856],[-8.675822,53.071792],[-8.675348,53.071678],[-8.67487,53.071571],[-8.674463,53.071488],[-8.673969,53.071386],[-8.673632,53.071304],[-8.673501,53.071271],[-8.673446,53.071265],[-8.673061,53.071178],[-8.67247,53.071045],[-8.671493,53.070824],[-8.671369,53.070796],[-8.670454,53.070592],[-8.670064,53.070501],[-8.670008,53.07049],[-8.669329,53.07034],[-8.668832,53.070223],[-8.667473,53.069928],[-8.666954,53.069826],[-8.666342,53.069711],[-8.665465,53.069554],[-8.664577,53.069397],[-8.664066,53.069313],[-8.663242,53.069167],[-8.663134,53.069123],[-8.662961,53.069103],[-8.662963,53.069203],[-8.66162,53.06921],[-8.661616,53.068941],[-8.661168,53.068943],[-8.661167,53.068882],[-8.661099,53.068903],[-8.660959,53.068986],[-8.660893,53.069043],[-8.660802,53.069093],[-8.660744,53.069117],[-8.66072,53.069124],[-8.660697,53.069135],[-8.660617,53.069158],[-8.660669,53.069178],[-8.660764,53.069189],[-8.660932,53.069242],[-8.661238,53.069341],[-8.661765,53.06956],[-8.662164,53.069742],[-8.662564,53.069902],[-8.662803,53.070024],[-8.662809,53.070064],[-8.662622,53.070241],[-8.66223,53.070522],[-8.662119,53.070578],[-8.662056,53.070573],[-8.661931,53.070644],[-8.661643,53.070787],[-8.661496,53.070838],[-8.661519,53.070883],[-8.661523,53.070891],[-8.661975,53.071012],[-8.662405,53.071159],[-8.663118,53.071387],[-8.663316,53.07148],[-8.663446,53.071553],[-8.663507,53.071582],[-8.663459,53.071642],[-8.663454,53.071648],[-8.663385,53.071736],[-8.663241,53.071898],[-8.663119,53.07204],[-8.663004,53.072166],[-8.662957,53.072226],[-8.662941,53.072243],[-8.662904,53.072239],[-8.662881,53.072236],[-8.661186,53.072281],[-8.659381,53.072235],[-8.659314,53.072237],[-8.659236,53.072249],[-8.659169,53.07228],[-8.658994,53.072364],[-8.658939,53.072393],[-8.658939,53.072411],[-8.658973,53.072436],[-8.659002,53.072433],[-8.659047,53.072438],[-8.659081,53.072447],[-8.659081,53.072478],[-8.659055,53.072505],[-8.659011,53.072541],[-8.658947,53.072555],[-8.658843,53.072595],[-8.65881,53.072616],[-8.658754,53.072636],[-8.658691,53.072634],[-8.658665,53.072665],[-8.658627,53.072679],[-8.658539,53.072685],[-8.65854,53.072733],[-8.658544,53.073002],[-8.658096,53.073005],[-8.658101,53.073274],[-8.657205,53.073279],[-8.657209,53.073549],[-8.656842,53.073551],[-8.656826,53.073571],[-8.65675,53.073659],[-8.656675,53.073734],[-8.656607,53.073781],[-8.655981,53.074044],[-8.656303,53.074263],[-8.65683,53.074604],[-8.657227,53.074912],[-8.657275,53.074936],[-8.657815,53.075247],[-8.658357,53.075593],[-8.658772,53.075885],[-8.659185,53.076163],[-8.659405,53.0763],[-8.659647,53.07645],[-8.659912,53.076621],[-8.660176,53.076801],[-8.66019,53.076809],[-8.660208,53.07682],[-8.660246,53.076841],[-8.660254,53.076846],[-8.660275,53.076858],[-8.660412,53.076942],[-8.660578,53.077045],[-8.660891,53.077239],[-8.66115,53.077416],[-8.661596,53.077697],[-8.661937,53.077901],[-8.662212,53.078062],[-8.662548,53.078259],[-8.662862,53.07846],[-8.66303,53.078575],[-8.663289,53.078749],[-8.66344,53.078847],[-8.663572,53.078934],[-8.663704,53.079035],[-8.663894,53.07916],[-8.664235,53.07938],[-8.664596,53.079609],[-8.665024,53.079847],[-8.665344,53.080055],[-8.665533,53.080172],[-8.665711,53.080301],[-8.665892,53.080427],[-8.666077,53.080543],[-8.666185,53.080612],[-8.666477,53.0808],[-8.666884,53.081078],[-8.66733,53.081385],[-8.667689,53.081645],[-8.668108,53.081916],[-8.668498,53.082167],[-8.668735,53.082321],[-8.668972,53.082471],[-8.669549,53.082893],[-8.670125,53.083281],[-8.670575,53.083567],[-8.671084,53.083911],[-8.671534,53.084196],[-8.671703,53.084307],[-8.671834,53.084393],[-8.672213,53.084646],[-8.672592,53.084889],[-8.672829,53.085048],[-8.672987,53.085151],[-8.673125,53.085285],[-8.673256,53.085424],[-8.673427,53.085604],[-8.673546,53.085736],[-8.673796,53.086006],[-8.674026,53.086236],[-8.67428,53.086522],[-8.67455,53.086818],[-8.67478,53.087066],[-8.675014,53.087313],[-8.675154,53.08745],[-8.675276,53.087557],[-8.675356,53.087622],[-8.675488,53.087719],[-8.675588,53.087789],[-8.675664,53.087835],[-8.67581,53.087924],[-8.675922,53.088002],[-8.676022,53.088069],[-8.676362,53.088271],[-8.676691,53.088269],[-8.676694,53.088449],[-8.67683,53.088538],[-8.677143,53.088536],[-8.677146,53.088731],[-8.677278,53.088805],[-8.677595,53.088803],[-8.677598,53.088988],[-8.677856,53.089138],[-8.678019,53.089245],[-8.678169,53.089339],[-8.67844,53.089494],[-8.678839,53.089739],[-8.679157,53.089933],[-8.679412,53.090079],[-8.679599,53.090188],[-8.679637,53.090213],[-8.679861,53.090327],[-8.680025,53.090407],[-8.680308,53.090405],[-8.68031,53.090551],[-8.680543,53.090674],[-8.68076,53.090672],[-8.680761,53.090789],[-8.68095,53.09089],[-8.681042,53.09094],[-8.68166,53.090937],[-8.681664,53.091207],[-8.682112,53.091204],[-8.682107,53.090934],[-8.682555,53.090932],[-8.682551,53.090662],[-8.682999,53.09066],[-8.682995,53.09039],[-8.683442,53.090387],[-8.683441,53.09033],[-8.682919,53.090333],[-8.682905,53.089435],[-8.683875,53.089429],[-8.683873,53.089306],[-8.683869,53.089037],[-8.683865,53.088767],[-8.684312,53.088765],[-8.684308,53.088495],[-8.684756,53.088493],[-8.684747,53.087953],[-8.685195,53.087951],[-8.685187,53.087412],[-8.685634,53.087409],[-8.68563,53.087139],[-8.685622,53.0866],[-8.686517,53.086595],[-8.686526,53.087134],[-8.686078,53.087137],[-8.686082,53.087406],[-8.686091,53.087946],[-8.686099,53.088485],[-8.686104,53.088754],[-8.686108,53.089024],[-8.68566,53.089027],[-8.685664,53.089296],[-8.685217,53.089299],[-8.685221,53.089568],[-8.684773,53.089571],[-8.684782,53.09011],[-8.684408,53.090112],[-8.684412,53.090325],[-8.684337,53.090325],[-8.684338,53.090382],[-8.68389,53.090385],[-8.683894,53.090654],[-8.683896,53.090771],[-8.68401,53.090705],[-8.684476,53.090411],[-8.684868,53.09017],[-8.686217,53.088956],[-8.68807,53.089282],[-8.688351,53.089281],[-8.688352,53.089331],[-8.688762,53.089401],[-8.688875,53.0894],[-8.688875,53.08942],[-8.689117,53.089462],[-8.68925,53.089485],[-8.689247,53.089275],[-8.689243,53.089006],[-8.689238,53.088736],[-8.689686,53.088734],[-8.689682,53.088464],[-8.69013,53.088461],[-8.690125,53.088192],[-8.691469,53.088184],[-8.691464,53.087914],[-8.69236,53.087909],[-8.692351,53.08737],[-8.692799,53.087367],[-8.692791,53.086828],[-8.693238,53.086826],[-8.693247,53.087365],[-8.693256,53.087904],[-8.69326,53.088174],[-8.692812,53.088176],[-8.692816,53.088446],[-8.692369,53.088448],[-8.692373,53.088718],[-8.69103,53.088726],[-8.691034,53.088995],[-8.690138,53.089001],[-8.690143,53.08927],[-8.689695,53.089273],[-8.689699,53.089542],[-8.68959,53.089543],[-8.689995,53.089613],[-8.690047,53.089481],[-8.690235,53.08929],[-8.690422,53.089249],[-8.69079,53.089156],[-8.691024,53.089086],[-8.69136,53.089087]],[[-8.685617,53.086331],[-8.685622,53.0866],[-8.685174,53.086603],[-8.685178,53.086872],[-8.685182,53.087142],[-8.684735,53.087145],[-8.684739,53.087414],[-8.684291,53.087417],[-8.684295,53.087686],[-8.6834,53.087691],[-8.683395,53.087422],[-8.6825,53.087427],[-8.682504,53.087697],[-8.682056,53.087699],[-8.682061,53.087969],[-8.681613,53.087971],[-8.681617,53.088241],[-8.681169,53.088243],[-8.681173,53.088513],[-8.680278,53.088518],[-8.680274,53.088249],[-8.679378,53.088254],[-8.679382,53.088523],[-8.678039,53.088531],[-8.678035,53.088261],[-8.678482,53.088259],[-8.678478,53.087989],[-8.678926,53.087987],[-8.678922,53.087717],[-8.680713,53.087707],[-8.680709,53.087437],[-8.681156,53.087435],[-8.681152,53.087165],[-8.682048,53.08716],[-8.682043,53.08689],[-8.682939,53.086885],[-8.682943,53.087155],[-8.683391,53.087152],[-8.683387,53.086883],[-8.683835,53.08688],[-8.68383,53.08661],[-8.684278,53.086608],[-8.684274,53.086338],[-8.68427,53.086069],[-8.684717,53.086066],[-8.684709,53.085527],[-8.685157,53.085524],[-8.685152,53.085255],[-8.6856,53.085252],[-8.685592,53.084713],[-8.686039,53.08471],[-8.686035,53.084441],[-8.686483,53.084438],[-8.68647,53.083629],[-8.686918,53.083627],[-8.686931,53.084436],[-8.687378,53.084433],[-8.687383,53.084703],[-8.686935,53.084705],[-8.686943,53.085244],[-8.686496,53.085247],[-8.6865,53.085517],[-8.686052,53.085519],[-8.686061,53.086058],[-8.686065,53.086328],[-8.685617,53.086331]],[[-8.67803,53.087992],[-8.678035,53.088261],[-8.677587,53.088264],[-8.677582,53.087994],[-8.67803,53.087992]],[[-8.687783,53.081734],[-8.687335,53.081737],[-8.68734,53.082007],[-8.687344,53.082276],[-8.686896,53.082279],[-8.686901,53.082548],[-8.686005,53.082554],[-8.686001,53.082284],[-8.685996,53.082014],[-8.686444,53.082012],[-8.68644,53.081742],[-8.686888,53.08174],[-8.686883,53.08147],[-8.687779,53.081465],[-8.687783,53.081734]],[[-8.690526,53.085224],[-8.690078,53.085226],[-8.690087,53.085765],[-8.689639,53.085768],[-8.689643,53.086038],[-8.689647,53.086307],[-8.6892,53.08631],[-8.689208,53.086849],[-8.689217,53.087388],[-8.689221,53.087658],[-8.688773,53.08766],[-8.688782,53.0882],[-8.688334,53.088202],[-8.688338,53.088472],[-8.687891,53.088474],[-8.687895,53.088744],[-8.686999,53.088749],[-8.686995,53.08848],[-8.686991,53.08821],[-8.687438,53.088207],[-8.68743,53.087668],[-8.687878,53.087666],[-8.687873,53.087396],[-8.688321,53.087393],[-8.688313,53.086854],[-8.68876,53.086852],[-8.688752,53.086312],[-8.688747,53.086043],[-8.689195,53.08604],[-8.689191,53.085771],[-8.689182,53.085231],[-8.68963,53.085229],[-8.689621,53.08469],[-8.690069,53.084687],[-8.690056,53.083878],[-8.690504,53.083876],[-8.690517,53.084684],[-8.690526,53.085224]],[[-8.692343,53.086831],[-8.691895,53.086833],[-8.691878,53.085755],[-8.692325,53.085752],[-8.692343,53.086831]]],[[[-8.683271,53.091109],[-8.683623,53.090926],[-8.683003,53.090929],[-8.683007,53.091199],[-8.68256,53.091201],[-8.682564,53.091471],[-8.68257,53.091471],[-8.682835,53.091328],[-8.683271,53.091109]]],[[[-8.681542,53.091209],[-8.681665,53.091279],[-8.681664,53.091207],[-8.681538,53.091207],[-8.681542,53.091209]]]]}}]}
