{"type":"FeatureCollection","features":[{"type":"Feature","properties":{"source_fid":946317,"county":"Galway","bog_geom_ha":286.42212418136563,"low15_pct":75.866414618777569,"low15_ha":217.29819629134482,"overlay_ha":216.98031308396239,"area_delta":-0.31788320738243669},"geometry":{"type":"MultiPolygon","coordinates":[[[[-9.333138,53.353464],[-9.333082,53.353392],[-9.333066,53.353377],[-9.333065,53.353376],[-9.333031,53.353354],[-9.332982,53.353361],[-9.332904,53.353372],[-9.332844,53.35338],[-9.332836,53.353381],[-9.332833,53.353382],[-9.33264,53.353411],[-9.332487,53.353435],[-9.33227,53.353465],[-9.332072,53.353492],[-9.331634,53.353552],[-9.331244,53.353605],[-9.330707,53.353677],[-9.330709,53.353735],[-9.330234,53.353741],[-9.329927,53.353782],[-9.329573,53.353836],[-9.329361,53.353869],[-9.329366,53.35402],[-9.328425,53.354031],[-9.328267,53.35405],[-9.327843,53.354108],[-9.327684,53.354124],[-9.327197,53.354173],[-9.327118,53.354181],[-9.327122,53.354315],[-9.326011,53.354327],[-9.325421,53.354351],[-9.324844,53.354395],[-9.324591,53.354413],[-9.32405,53.354454],[-9.323073,53.354523],[-9.323076,53.354629],[-9.321724,53.354644],[-9.321723,53.354617],[-9.321686,53.35462],[-9.321406,53.35464],[-9.321309,53.354647],[-9.32118,53.354659],[-9.319692,53.354775],[-9.319216,53.354816],[-9.318911,53.354842],[-9.318226,53.354889],[-9.317677,53.354929],[-9.317678,53.354959],[-9.317229,53.354964],[-9.317228,53.354964],[-9.317236,53.355233],[-9.317244,53.355503],[-9.317695,53.355498],[-9.317703,53.355767],[-9.318154,53.355762],[-9.318162,53.356032],[-9.317073,53.356044],[-9.317142,53.356126],[-9.31717,53.356173],[-9.317169,53.356187],[-9.317161,53.356197],[-9.317041,53.356255],[-9.317004,53.356284],[-9.316997,53.356346],[-9.316992,53.356435],[-9.31697,53.356594],[-9.316969,53.35665],[-9.317023,53.356735],[-9.31703,53.356804],[-9.317065,53.356853],[-9.317286,53.35685],[-9.317269,53.356311],[-9.31772,53.356306],[-9.317736,53.356845],[-9.317745,53.357115],[-9.317294,53.35712],[-9.317311,53.357659],[-9.317761,53.357654],[-9.31777,53.357923],[-9.317778,53.358193],[-9.317327,53.358198],[-9.317336,53.358468],[-9.316894,53.358472],[-9.316894,53.358474],[-9.316915,53.358512],[-9.316916,53.358543],[-9.31689,53.358584],[-9.316859,53.358599],[-9.316685,53.358548],[-9.316645,53.358537],[-9.316459,53.358486],[-9.316181,53.358423],[-9.315927,53.358357],[-9.31569,53.358305],[-9.315554,53.358243],[-9.315489,53.358193],[-9.315425,53.35813],[-9.315211,53.358046],[-9.315068,53.358013],[-9.315075,53.358223],[-9.315083,53.358492],[-9.315533,53.358487],[-9.315542,53.358757],[-9.31555,53.359026],[-9.315567,53.359566],[-9.315575,53.359835],[-9.315583,53.360105],[-9.315592,53.360374],[-9.316042,53.360369],[-9.316059,53.360908],[-9.316509,53.360903],[-9.316518,53.361173],[-9.316543,53.361981],[-9.316551,53.362251],[-9.3161,53.362256],[-9.316092,53.361986],[-9.315191,53.361996],[-9.315199,53.362266],[-9.31565,53.362261],[-9.315658,53.36253],[-9.316109,53.362525],[-9.316117,53.362795],[-9.315666,53.3628],[-9.315675,53.36307],[-9.315691,53.363609],[-9.315241,53.363614],[-9.315249,53.363883],[-9.314798,53.363888],[-9.314807,53.364158],[-9.314356,53.364163],[-9.314348,53.363893],[-9.314339,53.363623],[-9.31479,53.363619],[-9.314773,53.363079],[-9.314323,53.363084],[-9.314331,53.363354],[-9.31343,53.363364],[-9.313422,53.363094],[-9.313413,53.362825],[-9.312963,53.36283],[-9.312954,53.36256],[-9.312504,53.362565],[-9.312496,53.362296],[-9.312487,53.362026],[-9.312037,53.362031],[-9.312012,53.361222],[-9.311561,53.361227],[-9.31157,53.361497],[-9.310668,53.361507],[-9.310677,53.361776],[-9.310226,53.361781],[-9.310219,53.361542],[-9.309538,53.361715],[-9.309305,53.361775],[-9.309047,53.361713],[-9.308301,53.361534],[-9.307877,53.360939],[-9.307915,53.360882],[-9.308077,53.360641],[-9.30828,53.360339],[-9.308825,53.360199],[-9.308825,53.360179],[-9.307924,53.360189],[-9.307932,53.360458],[-9.30794,53.360728],[-9.306588,53.360743],[-9.30658,53.360473],[-9.304778,53.360493],[-9.30477,53.360223],[-9.304761,53.359954],[-9.30386,53.359964],[-9.303868,53.360233],[-9.302066,53.360253],[-9.302074,53.360522],[-9.299822,53.360547],[-9.29983,53.360816],[-9.299379,53.360821],[-9.299387,53.361091],[-9.298937,53.361096],[-9.298945,53.361365],[-9.298494,53.36137],[-9.298486,53.361101],[-9.297585,53.361111],[-9.297593,53.36138],[-9.296241,53.361395],[-9.29625,53.361664],[-9.295799,53.361669],[-9.295807,53.361939],[-9.295357,53.361944],[-9.295373,53.362483],[-9.294922,53.362488],[-9.294906,53.361949],[-9.294898,53.361679],[-9.294447,53.361684],[-9.294455,53.361953],[-9.294005,53.361958],[-9.294013,53.362228],[-9.293562,53.362233],[-9.293571,53.362502],[-9.29312,53.362507],[-9.293128,53.362777],[-9.292678,53.362782],[-9.292686,53.363051],[-9.292694,53.363321],[-9.292243,53.363326],[-9.29226,53.363865],[-9.293161,53.363855],[-9.293169,53.364124],[-9.29362,53.364119],[-9.293628,53.364389],[-9.294078,53.364384],[-9.29407,53.364115],[-9.294062,53.363845],[-9.294513,53.36384],[-9.294521,53.36411],[-9.294971,53.364105],[-9.29498,53.364374],[-9.29543,53.364369],[-9.295438,53.364639],[-9.295447,53.364909],[-9.295897,53.364904],[-9.295905,53.365173],[-9.296807,53.365163],[-9.296815,53.365433],[-9.297265,53.365428],[-9.297274,53.365698],[-9.298175,53.365688],[-9.298183,53.365957],[-9.298191,53.366227],[-9.296839,53.366242],[-9.296848,53.366511],[-9.295946,53.366521],[-9.295938,53.366251],[-9.294136,53.366271],[-9.294127,53.366001],[-9.293226,53.366011],[-9.293218,53.365742],[-9.29321,53.365472],[-9.292701,53.365478],[-9.292706,53.365632],[-9.291412,53.365646],[-9.291415,53.365761],[-9.290158,53.365775],[-9.289918,53.365846],[-9.289857,53.365864],[-9.289459,53.365983],[-9.289282,53.366035],[-9.28893,53.365965],[-9.288871,53.365953],[-9.288498,53.365878],[-9.288445,53.365867],[-9.288257,53.365829],[-9.287775,53.36525],[-9.288119,53.364637],[-9.288306,53.364582],[-9.288672,53.364473],[-9.288663,53.364173],[-9.288212,53.364178],[-9.288204,53.363908],[-9.287754,53.363913],[-9.287745,53.363644],[-9.287742,53.363541],[-9.287723,53.363515],[-9.287679,53.363468],[-9.287635,53.363415],[-9.287584,53.363359],[-9.287528,53.3633],[-9.287472,53.363227],[-9.287427,53.363174],[-9.287381,53.363119],[-9.287344,53.363072],[-9.287308,53.363023],[-9.28727,53.362971],[-9.287209,53.362907],[-9.287159,53.362853],[-9.287105,53.362791],[-9.287058,53.362731],[-9.287003,53.362661],[-9.286962,53.362605],[-9.286928,53.362554],[-9.286901,53.362507],[-9.286864,53.362432],[-9.286824,53.362355],[-9.286784,53.362279],[-9.286762,53.362201],[-9.286738,53.362123],[-9.286723,53.36206],[-9.286708,53.362005],[-9.286691,53.361966],[-9.286677,53.361935],[-9.286643,53.361892],[-9.286596,53.361842],[-9.286587,53.361832],[-9.286553,53.361797],[-9.286528,53.36177],[-9.286337,53.361772],[-9.28633,53.361562],[-9.286317,53.36155],[-9.286247,53.361475],[-9.286301,53.361411],[-9.286127,53.361475],[-9.285985,53.361527],[-9.285832,53.361573],[-9.285747,53.361606],[-9.285572,53.361672],[-9.28528,53.361786],[-9.285083,53.361855],[-9.284899,53.361925],[-9.28483,53.361951],[-9.284542,53.362067],[-9.284341,53.362148],[-9.284094,53.362264],[-9.283877,53.362355],[-9.283768,53.362405],[-9.283653,53.362458],[-9.283601,53.362478],[-9.283538,53.362502],[-9.283467,53.362532],[-9.283456,53.362537],[-9.283446,53.362541],[-9.283452,53.362554],[-9.283442,53.362596],[-9.283423,53.362648],[-9.283425,53.362656],[-9.283429,53.362663],[-9.283434,53.362673],[-9.283503,53.362747],[-9.283639,53.362872],[-9.283779,53.362999],[-9.283793,53.363014],[-9.283852,53.363091],[-9.283858,53.363108],[-9.283861,53.363202],[-9.28386,53.36322],[-9.28384,53.363327],[-9.283834,53.363344],[-9.283797,53.363416],[-9.28379,53.363433],[-9.283723,53.363512],[-9.283698,53.363541],[-9.283644,53.363596],[-9.283589,53.363649],[-9.283573,53.363663],[-9.28352,53.363706],[-9.283526,53.363747],[-9.283524,53.363765],[-9.283525,53.363774],[-9.283538,53.363798],[-9.283565,53.363863],[-9.28357,53.363881],[-9.283606,53.364029],[-9.283638,53.364151],[-9.283673,53.364228],[-9.283685,53.364244],[-9.283722,53.364279],[-9.28374,53.364293],[-9.283818,53.364345],[-9.283835,53.36436],[-9.28385,53.364377],[-9.283862,53.364394],[-9.283946,53.364548],[-9.283953,53.364565],[-9.283961,53.364606],[-9.283979,53.364702],[-9.283978,53.36472],[-9.283975,53.364731],[-9.283965,53.364748],[-9.28395,53.364762],[-9.283928,53.364772],[-9.283889,53.364781],[-9.283858,53.364785],[-9.283844,53.36479],[-9.283822,53.364806],[-9.283813,53.364813],[-9.283819,53.36483],[-9.283825,53.364846],[-9.283841,53.364864],[-9.283854,53.36488],[-9.28392,53.364943],[-9.283943,53.364962],[-9.283942,53.364991],[-9.283934,53.365014],[-9.283922,53.36503],[-9.283893,53.365052],[-9.283886,53.365068],[-9.283904,53.365078],[-9.283919,53.365083],[-9.284118,53.365126],[-9.284144,53.365129],[-9.284175,53.365136],[-9.284219,53.365142],[-9.284242,53.365142],[-9.284268,53.365146],[-9.284304,53.365152],[-9.28433,53.365168],[-9.284343,53.365171],[-9.284356,53.365177],[-9.284369,53.365182],[-9.284387,53.365196],[-9.284434,53.365249],[-9.284463,53.365297],[-9.284466,53.365318],[-9.284483,53.365383],[-9.284486,53.365391],[-9.284495,53.365411],[-9.284507,53.365447],[-9.284522,53.365462],[-9.284563,53.365487],[-9.28458,53.365497],[-9.284632,53.365543],[-9.284638,53.365556],[-9.284634,53.365573],[-9.284629,53.365598],[-9.284611,53.365654],[-9.284612,53.365662],[-9.284618,53.365679],[-9.284633,53.365705],[-9.284706,53.365839],[-9.284717,53.365854],[-9.284774,53.365892],[-9.284783,53.36592],[-9.284788,53.365934],[-9.284787,53.366005],[-9.28479,53.366023],[-9.284806,53.366081],[-9.284818,53.366103],[-9.284831,53.366119],[-9.284913,53.366187],[-9.285056,53.366303],[-9.285072,53.366318],[-9.28512,53.366371],[-9.28513,53.366387],[-9.285151,53.366458],[-9.285153,53.366476],[-9.285148,53.366519],[-9.285115,53.366603],[-9.285081,53.366681],[-9.285077,53.366699],[-9.285069,53.36676],[-9.285078,53.366777],[-9.285108,53.3668],[-9.285126,53.366813],[-9.2852,53.36685],[-9.285217,53.366862],[-9.285223,53.366873],[-9.285221,53.366906],[-9.285186,53.366977],[-9.28518,53.366989],[-9.28517,53.367005],[-9.285069,53.367144],[-9.285065,53.367149],[-9.285173,53.367184],[-9.285201,53.36719],[-9.285212,53.367191],[-9.285241,53.367196],[-9.285279,53.367204],[-9.285328,53.36723],[-9.285379,53.367263],[-9.285396,53.367277],[-9.285444,53.367328],[-9.285453,53.367345],[-9.285464,53.367403],[-9.285475,53.367419],[-9.285514,53.367452],[-9.285526,53.367468],[-9.285537,53.367497],[-9.285537,53.36751],[-9.285533,53.367527],[-9.285524,53.367546],[-9.285518,53.367563],[-9.285517,53.367572],[-9.285518,53.36758],[-9.285541,53.367594],[-9.285566,53.367601],[-9.285595,53.367604],[-9.285605,53.367604],[-9.285633,53.3676],[-9.285667,53.367585],[-9.285694,53.367578],[-9.285719,53.367576],[-9.285743,53.367579],[-9.285766,53.367586],[-9.285791,53.367596],[-9.285869,53.367633],[-9.285889,53.367647],[-9.285906,53.367662],[-9.285918,53.367678],[-9.285923,53.36769],[-9.285941,53.367701],[-9.285978,53.367711],[-9.286003,53.367709],[-9.286023,53.3677],[-9.28603,53.367684],[-9.286022,53.367666],[-9.286013,53.367658],[-9.286002,53.367641],[-9.286,53.367634],[-9.286004,53.367618],[-9.286015,53.367615],[-9.286043,53.36761],[-9.286072,53.367608],[-9.286205,53.367603],[-9.286235,53.367604],[-9.286249,53.367605],[-9.286299,53.36762],[-9.286327,53.367626],[-9.286369,53.367629],[-9.286399,53.36763],[-9.286584,53.367621],[-9.286634,53.367619],[-9.286663,53.36762],[-9.286677,53.367621],[-9.286811,53.367651],[-9.286839,53.367656],[-9.286922,53.367667],[-9.286952,53.367668],[-9.287041,53.367661],[-9.287138,53.367666],[-9.287166,53.367671],[-9.287225,53.367692],[-9.287294,53.36772],[-9.287321,53.367727],[-9.287493,53.367756],[-9.287522,53.367757],[-9.287611,53.367752],[-9.28774,53.367746],[-9.28777,53.367747],[-9.287912,53.367757],[-9.287942,53.367757],[-9.287996,53.367753],[-9.288024,53.367748],[-9.288102,53.367727],[-9.288175,53.36771],[-9.288204,53.367705],[-9.288306,53.367693],[-9.288335,53.367688],[-9.288445,53.367666],[-9.288473,53.367659],[-9.288566,53.367631],[-9.288659,53.367609],[-9.288688,53.367604],[-9.288722,53.367599],[-9.288752,53.367598],[-9.288873,53.367605],[-9.288958,53.367604],[-9.288987,53.367606],[-9.289093,53.367619],[-9.289254,53.367644],[-9.289314,53.367658],[-9.289341,53.367666],[-9.289353,53.36767],[-9.289354,53.367671],[-9.290121,53.367663],[-9.290122,53.367709],[-9.290142,53.367709],[-9.290175,53.367714],[-9.290183,53.367716],[-9.290322,53.367743],[-9.290351,53.367747],[-9.290422,53.367757],[-9.290451,53.367758],[-9.290505,53.367758],[-9.290534,53.367754],[-9.290609,53.367737],[-9.290683,53.367678],[-9.290703,53.367655],[-9.290714,53.367643],[-9.290726,53.367636],[-9.290739,53.367634],[-9.290755,53.367635],[-9.290774,53.367637],[-9.290792,53.367643],[-9.290806,53.367654],[-9.290816,53.36767],[-9.290823,53.367691],[-9.290835,53.367707],[-9.290857,53.367713],[-9.290884,53.367712],[-9.290908,53.367708],[-9.290929,53.367704],[-9.290948,53.367704],[-9.290974,53.367711],[-9.291012,53.367725],[-9.291052,53.367738],[-9.291089,53.367745],[-9.291135,53.367749],[-9.291193,53.367755],[-9.291243,53.367761],[-9.29127,53.367767],[-9.291286,53.367776],[-9.291303,53.36779],[-9.291323,53.367807],[-9.291345,53.367821],[-9.291377,53.367827],[-9.291421,53.367824],[-9.291461,53.367818],[-9.291489,53.367816],[-9.291515,53.367822],[-9.291546,53.367836],[-9.291576,53.367853],[-9.291604,53.367869],[-9.291642,53.367886],[-9.2917,53.367908],[-9.29177,53.367928],[-9.291843,53.367945],[-9.291906,53.367955],[-9.291949,53.367961],[-9.291975,53.367969],[-9.291988,53.367983],[-9.291996,53.368002],[-9.292006,53.368022],[-9.292024,53.368037],[-9.292052,53.368045],[-9.292089,53.36806],[-9.292127,53.368085],[-9.292154,53.368112],[-9.292164,53.368133],[-9.292164,53.368153],[-9.292161,53.368174],[-9.292164,53.368198],[-9.292178,53.368223],[-9.292201,53.368238],[-9.292227,53.368243],[-9.292249,53.368246],[-9.292261,53.368253],[-9.292266,53.368265],[-9.292267,53.368281],[-9.292268,53.368302],[-9.292272,53.368327],[-9.292285,53.368359],[-9.292306,53.368394],[-9.292333,53.368428],[-9.292365,53.368455],[-9.292407,53.36847],[-9.292461,53.368473],[-9.292521,53.368472],[-9.292579,53.368473],[-9.292626,53.368479],[-9.292661,53.368493],[-9.292696,53.368513],[-9.292731,53.368534],[-9.292753,53.368551],[-9.292758,53.368563],[-9.292749,53.368577],[-9.292734,53.368596],[-9.292725,53.368619],[-9.292731,53.368643],[-9.292754,53.368665],[-9.292791,53.368684],[-9.292823,53.368701],[-9.292842,53.368719],[-9.292849,53.36874],[-9.29285,53.368762],[-9.292855,53.368782],[-9.292872,53.368799],[-9.292904,53.368815],[-9.292946,53.368828],[-9.292982,53.368834],[-9.293008,53.368832],[-9.293031,53.368824],[-9.293053,53.368811],[-9.293074,53.368798],[-9.293092,53.368811],[-9.293377,53.369038],[-9.293418,53.369059],[-9.293561,53.369041],[-9.293768,53.369003],[-9.293767,53.368971],[-9.293758,53.368702],[-9.294209,53.368697],[-9.294201,53.368427],[-9.294293,53.368426],[-9.29429,53.36831],[-9.295767,53.368294],[-9.295773,53.368292],[-9.295798,53.368285],[-9.295827,53.368293],[-9.29621,53.368289],[-9.296262,53.368268],[-9.296331,53.368246],[-9.296542,53.368235],[-9.296623,53.368222],[-9.296658,53.368218],[-9.296681,53.368219],[-9.296714,53.368221],[-9.296775,53.368214],[-9.296855,53.368197],[-9.296933,53.368176],[-9.296999,53.368156],[-9.297068,53.368142],[-9.297151,53.368134],[-9.297246,53.368126],[-9.297336,53.368119],[-9.297397,53.368119],[-9.297457,53.368112],[-9.297535,53.368094],[-9.297612,53.368069],[-9.297676,53.368042],[-9.29773,53.368005],[-9.297775,53.367961],[-9.297792,53.367937],[-9.29779,53.367849],[-9.297851,53.367848],[-9.297852,53.367846],[-9.297869,53.367826],[-9.297882,53.367808],[-9.297894,53.367788],[-9.297912,53.367768],[-9.297946,53.367747],[-9.297998,53.367726],[-9.298047,53.367708],[-9.298082,53.36769],[-9.298103,53.367665],[-9.298118,53.367633],[-9.298127,53.367598],[-9.298134,53.367568],[-9.298142,53.367549],[-9.298154,53.36754],[-9.298176,53.367537],[-9.298215,53.367536],[-9.298275,53.367538],[-9.298341,53.367539],[-9.298392,53.367537],[-9.298432,53.367521],[-9.298467,53.367488],[-9.298503,53.367447],[-9.298542,53.367406],[-9.298584,53.367371],[-9.298639,53.367338],[-9.298725,53.3673],[-9.298839,53.367258],[-9.29895,53.367218],[-9.299035,53.367188],[-9.299094,53.367169],[-9.299145,53.36716],[-9.299207,53.367159],[-9.299271,53.367162],[-9.299325,53.367165],[-9.299362,53.36717],[-9.299383,53.36718],[-9.2994,53.367192],[-9.299432,53.367203],[-9.299495,53.367208],[-9.299581,53.367209],[-9.299671,53.367198],[-9.299751,53.367188],[-9.299814,53.367181],[-9.299884,53.367177],[-9.299942,53.367172],[-9.299989,53.367163],[-9.30003,53.367152],[-9.300084,53.367143],[-9.300151,53.367143],[-9.300207,53.367146],[-9.300256,53.367168],[-9.300305,53.367188],[-9.300371,53.367203],[-9.300446,53.367202],[-9.300495,53.367192],[-9.300512,53.367171],[-9.300532,53.367165],[-9.300562,53.367164],[-9.300622,53.367171],[-9.30071,53.367173],[-9.30079,53.367166],[-9.300841,53.367152],[-9.300887,53.367141],[-9.300935,53.367136],[-9.300976,53.367143],[-9.301022,53.367172],[-9.301074,53.367216],[-9.301124,53.367251],[-9.301167,53.367277],[-9.301201,53.367299],[-9.301221,53.367312],[-9.30123,53.367322],[-9.301234,53.367335],[-9.301232,53.367353],[-9.301225,53.367373],[-9.301214,53.36739],[-9.301199,53.367403],[-9.301187,53.367416],[-9.301185,53.367434],[-9.301198,53.367452],[-9.301222,53.367467],[-9.301278,53.36748],[-9.301308,53.367495],[-9.301314,53.367517],[-9.30131,53.367546],[-9.301318,53.367589],[-9.301354,53.367619],[-9.301376,53.367646],[-9.301386,53.367671],[-9.301384,53.3677],[-9.30138,53.36773],[-9.301385,53.367753],[-9.301393,53.367773],[-9.301399,53.367801],[-9.301408,53.367845],[-9.301443,53.367918],[-9.3015,53.367919],[-9.301533,53.367915],[-9.301575,53.367905],[-9.301615,53.367901],[-9.301652,53.367889],[-9.301676,53.367887],[-9.301697,53.367883],[-9.301717,53.367881],[-9.301741,53.367873],[-9.301775,53.367874],[-9.301804,53.367873],[-9.301826,53.367875],[-9.301866,53.367868],[-9.301914,53.367851],[-9.301969,53.367839],[-9.302015,53.367825],[-9.302055,53.367809],[-9.302079,53.367797],[-9.302106,53.367784],[-9.302134,53.367768],[-9.30216,53.367755],[-9.302193,53.367739],[-9.302221,53.36773],[-9.302248,53.367726],[-9.302277,53.367719],[-9.302316,53.367708],[-9.302337,53.367702],[-9.302354,53.367701],[-9.302388,53.367694],[-9.302427,53.367682],[-9.302465,53.36767],[-9.302497,53.367661],[-9.30252,53.367648],[-9.302532,53.367632],[-9.302559,53.367602],[-9.302581,53.367571],[-9.302606,53.367538],[-9.302632,53.367504],[-9.302648,53.367484],[-9.302668,53.367466],[-9.302696,53.36746],[-9.302733,53.367461],[-9.302769,53.367447],[-9.302793,53.367435],[-9.302813,53.367425],[-9.302831,53.367424],[-9.302858,53.367423],[-9.302884,53.367419],[-9.302913,53.367417],[-9.302937,53.367417],[-9.302952,53.36742],[-9.302977,53.367432],[-9.303001,53.367438],[-9.303027,53.367446],[-9.303051,53.367455],[-9.303074,53.36746],[-9.3031,53.367452],[-9.303127,53.36743],[-9.303155,53.367399],[-9.303181,53.367367],[-9.303186,53.367338],[-9.303206,53.367314],[-9.303254,53.367298],[-9.3033,53.367287],[-9.303343,53.367265],[-9.30338,53.367233],[-9.303443,53.367205],[-9.303513,53.367182],[-9.303584,53.367164],[-9.303641,53.367152],[-9.303685,53.36714],[-9.303713,53.367141],[-9.303751,53.367157],[-9.303804,53.367167],[-9.303875,53.367186],[-9.303955,53.367214],[-9.304028,53.367246],[-9.304079,53.367276],[-9.30411,53.367301],[-9.304129,53.367323],[-9.30414,53.367344],[-9.304143,53.367364],[-9.304139,53.367388],[-9.304132,53.367416],[-9.304126,53.367446],[-9.304127,53.367471],[-9.304137,53.36749],[-9.304151,53.367509],[-9.304164,53.367533],[-9.304175,53.36756],[-9.304187,53.367587],[-9.304207,53.367611],[-9.304242,53.367634],[-9.304301,53.367661],[-9.304388,53.367699],[-9.304494,53.367746],[-9.3046,53.367796],[-9.304692,53.36784],[-9.304767,53.36787],[-9.304832,53.367884],[-9.3049,53.367888],[-9.30498,53.36789],[-9.305062,53.36789],[-9.30513,53.367887],[-9.305187,53.367881],[-9.305238,53.367869],[-9.305283,53.367852],[-9.305312,53.367831],[-9.305332,53.367809],[-9.305359,53.367787],[-9.305404,53.367766],[-9.305468,53.367748],[-9.305541,53.367734],[-9.305608,53.367725],[-9.305656,53.367721],[-9.305687,53.36772],[-9.305706,53.367725],[-9.305724,53.36774],[-9.305748,53.367769],[-9.305781,53.367816],[-9.305819,53.367879],[-9.30586,53.36795],[-9.305895,53.36801],[-9.305927,53.368055],[-9.305971,53.368093],[-9.306033,53.368132],[-9.3061,53.368167],[-9.306161,53.368193],[-9.306217,53.36821],[-9.30627,53.36822],[-9.306314,53.368225],[-9.306343,53.368231],[-9.306359,53.368241],[-9.306371,53.368261],[-9.306389,53.368295],[-9.306422,53.368346],[-9.306471,53.368409],[-9.306523,53.368469],[-9.306568,53.36852],[-9.306606,53.368568],[-9.306638,53.36862],[-9.306665,53.368672],[-9.306685,53.368722],[-9.306699,53.368765],[-9.306708,53.368803],[-9.306717,53.36883],[-9.306836,53.368829],[-9.306839,53.368934],[-9.306851,53.368943],[-9.306888,53.368976],[-9.306924,53.369008],[-9.306956,53.369035],[-9.306988,53.369053],[-9.307033,53.369064],[-9.307107,53.369072],[-9.307209,53.369082],[-9.307293,53.369093],[-9.307295,53.369093],[-9.307295,53.369094],[-9.307331,53.369098],[-9.307453,53.369118],[-9.307553,53.369136],[-9.307621,53.369149],[-9.307664,53.36916],[-9.307695,53.369172],[-9.307731,53.369192],[-9.307782,53.369222],[-9.307836,53.369253],[-9.307883,53.369276],[-9.307934,53.369288],[-9.307998,53.369289],[-9.308076,53.369281],[-9.308162,53.369269],[-9.308255,53.369259],[-9.308349,53.369253],[-9.308439,53.369252],[-9.308518,53.369256],[-9.308589,53.369262],[-9.308669,53.369275],[-9.308788,53.369288],[-9.30899,53.369277],[-9.309,53.369276],[-9.309098,53.369265],[-9.309258,53.369232],[-9.309366,53.369182],[-9.309551,53.369083],[-9.309723,53.369105],[-9.309969,53.369145],[-9.310001,53.369148],[-9.309999,53.369064],[-9.3109,53.369054],[-9.310901,53.369087],[-9.311021,53.369067],[-9.3112,53.369051],[-9.311232,53.369057],[-9.311249,53.369084],[-9.311284,53.369162],[-9.311321,53.369207],[-9.311368,53.36929],[-9.311434,53.36934],[-9.311615,53.369366],[-9.311839,53.369382],[-9.312019,53.36939],[-9.312293,53.369458],[-9.312546,53.369503],[-9.312718,53.369546],[-9.312711,53.369304],[-9.313612,53.369294],[-9.313621,53.369563],[-9.31317,53.369568],[-9.313172,53.369641],[-9.31338,53.369677],[-9.313705,53.369737],[-9.314087,53.3698],[-9.31422,53.369834],[-9.314297,53.369845],[-9.314537,53.369851],[-9.314609,53.36986],[-9.314693,53.369883],[-9.314847,53.369929],[-9.314948,53.369966],[-9.315383,53.370075],[-9.315406,53.370083],[-9.31544,53.370082],[-9.31544,53.370094],[-9.315723,53.370186],[-9.316119,53.370303],[-9.316245,53.370343],[-9.3168,53.370337],[-9.316803,53.37043],[-9.317083,53.370456],[-9.317616,53.370502],[-9.317865,53.370547],[-9.317945,53.370546],[-9.318025,53.370545],[-9.318206,53.370562],[-9.318501,53.370581],[-9.31871,53.370594],[-9.319378,53.370619],[-9.319725,53.370633],[-9.319847,53.370636],[-9.320033,53.370639],[-9.320044,53.370639],[-9.320241,53.370647],[-9.320268,53.370649],[-9.320278,53.37065],[-9.320278,53.370648],[-9.320296,53.370607],[-9.320323,53.370559],[-9.320372,53.370502],[-9.32041,53.370468],[-9.320493,53.37041],[-9.320639,53.370368],[-9.320678,53.37036],[-9.320737,53.370361],[-9.320861,53.370381],[-9.320889,53.370387],[-9.320904,53.370392],[-9.32092,53.370407],[-9.320934,53.370428],[-9.320973,53.370491],[-9.320992,53.370527],[-9.320998,53.370554],[-9.321015,53.370612],[-9.321044,53.370649],[-9.32106,53.37067],[-9.321057,53.370685],[-9.321247,53.370685],[-9.321411,53.370697],[-9.321523,53.370686],[-9.321579,53.370681],[-9.32177,53.370659],[-9.32194,53.370619],[-9.322036,53.370608],[-9.322037,53.370534],[-9.32207,53.370459],[-9.322096,53.370394],[-9.32211,53.370325],[-9.322096,53.37026],[-9.322125,53.3702],[-9.32217,53.370116],[-9.322215,53.370006],[-9.322264,53.369924],[-9.322249,53.369835],[-9.322259,53.369778],[-9.322329,53.369722],[-9.322351,53.369674],[-9.322345,53.369629],[-9.322323,53.369569],[-9.322302,53.369524],[-9.322323,53.369447],[-9.322349,53.369373],[-9.32237,53.369286],[-9.322379,53.369202],[-9.322432,53.36914],[-9.322458,53.369065],[-9.322463,53.368986],[-9.322477,53.368912],[-9.322466,53.368847],[-9.322437,53.368798],[-9.322406,53.368717],[-9.322364,53.368669],[-9.322262,53.368601],[-9.322174,53.368492],[-9.322104,53.368412],[-9.322053,53.368343],[-9.322015,53.368289],[-9.322022,53.368243],[-9.32202,53.368186],[-9.322033,53.368097],[-9.322006,53.368009],[-9.322,53.367969],[-9.321987,53.367928],[-9.321993,53.367883],[-9.321988,53.36784],[-9.321971,53.367818],[-9.321942,53.36779],[-9.321944,53.367737],[-9.321942,53.367673],[-9.321941,53.367627],[-9.321975,53.367584],[-9.322005,53.367538],[-9.322,53.36749],[-9.321991,53.367457],[-9.321966,53.367443],[-9.321953,53.367407],[-9.321979,53.367359],[-9.321998,53.367325],[-9.32202,53.36727],[-9.322002,53.367199],[-9.321975,53.367125],[-9.321974,53.367101],[-9.321977,53.36707],[-9.321952,53.367029],[-9.321946,53.366982],[-9.321936,53.366905],[-9.321918,53.366862],[-9.321917,53.366819],[-9.321931,53.366771],[-9.321945,53.366711],[-9.321935,53.366666],[-9.321937,53.366604],[-9.321968,53.366561],[-9.321962,53.36652],[-9.321969,53.366486],[-9.321996,53.366445],[-9.322014,53.366385],[-9.322032,53.36634],[-9.322058,53.366287],[-9.322093,53.366246],[-9.322123,53.366202],[-9.32211,53.366164],[-9.322088,53.366109],[-9.322066,53.36606],[-9.322085,53.366014],[-9.322055,53.365981],[-9.321995,53.365974],[-9.321955,53.365958],[-9.321954,53.365937],[-9.321953,53.36591],[-9.32194,53.365863],[-9.321974,53.36581],[-9.322012,53.365754],[-9.322042,53.365699],[-9.32208,53.36565],[-9.322122,53.365597],[-9.322141,53.365564],[-9.322123,53.365502],[-9.322093,53.365445],[-9.322068,53.365409],[-9.322074,53.365359],[-9.322045,53.365333],[-9.322008,53.365297],[-9.321942,53.36525],[-9.321889,53.365222],[-9.321865,53.365201],[-9.321867,53.365158],[-9.321874,53.365134],[-9.321889,53.365089],[-9.321884,53.365057],[-9.321874,53.365015],[-9.321845,53.364989],[-9.321804,53.364956],[-9.321787,53.364918],[-9.321802,53.364877],[-9.321792,53.364841],[-9.321778,53.364777],[-9.321749,53.364732],[-9.3217,53.364708],[-9.321687,53.364689],[-9.321678,53.364651],[-9.321657,53.364613],[-9.321647,53.364577],[-9.321661,53.364513],[-9.321656,53.364472],[-9.321598,53.364432],[-9.321578,53.364417],[-9.321212,53.364421],[-9.321184,53.363523],[-9.321862,53.363515],[-9.321886,53.363482],[-9.321857,53.363432],[-9.321828,53.363348],[-9.321827,53.363343],[-9.321815,53.363306],[-9.32179,53.363282],[-9.321762,53.363266],[-9.321729,53.363237],[-9.321692,53.363204],[-9.321679,53.363171],[-9.321681,53.363133],[-9.32164,53.363097],[-9.32161,53.363045],[-9.321596,53.362988],[-9.321583,53.362943],[-9.321562,53.362909],[-9.321553,53.362874],[-9.321551,53.36284],[-9.321549,53.362776],[-9.321574,53.362696],[-9.321584,53.362622],[-9.321582,53.36262],[-9.321156,53.362624],[-9.321128,53.361726],[-9.322349,53.361713],[-9.322398,53.361685],[-9.3224,53.361683],[-9.322429,53.361643],[-9.322444,53.361607],[-9.32247,53.361571],[-9.322479,53.361562],[-9.322502,53.361509],[-9.322522,53.361479],[-9.322569,53.361441],[-9.322587,53.361412],[-9.322612,53.361379],[-9.322615,53.361347],[-9.322663,53.361338],[-9.322825,53.361208],[-9.322961,53.361096],[-9.323059,53.361038],[-9.323093,53.361016],[-9.323142,53.360928],[-9.32317,53.360881],[-9.323187,53.360863],[-9.323223,53.360846],[-9.323249,53.36084],[-9.323267,53.360804],[-9.322602,53.360811],[-9.322574,53.359913],[-9.321073,53.35993],[-9.321045,53.359031],[-9.322547,53.359015],[-9.322561,53.359488],[-9.322776,53.359486],[-9.322784,53.359755],[-9.323685,53.359745],[-9.32369,53.359901],[-9.324076,53.359896],[-9.324079,53.360011],[-9.324144,53.36001],[-9.324152,53.360279],[-9.324271,53.360278],[-9.324276,53.360277],[-9.324335,53.36025],[-9.324416,53.360232],[-9.324503,53.360241],[-9.324528,53.360238],[-9.324589,53.360206],[-9.324652,53.360188],[-9.324745,53.360175],[-9.324823,53.360155],[-9.324955,53.360127],[-9.325087,53.360043],[-9.325182,53.360018],[-9.325265,53.360016],[-9.325332,53.360077],[-9.325388,53.360077],[-9.325452,53.360055],[-9.325683,53.360048],[-9.325757,53.360132],[-9.325779,53.360155],[-9.325812,53.360168],[-9.325902,53.360064],[-9.325947,53.360005],[-9.325979,53.359842],[-9.325978,53.359703],[-9.326213,53.359481],[-9.326234,53.359455],[-9.326328,53.359372],[-9.326433,53.359285],[-9.326547,53.359176],[-9.326681,53.359075],[-9.326797,53.358968],[-9.326946,53.358854],[-9.327048,53.358752],[-9.327237,53.358587],[-9.327411,53.35842],[-9.32753,53.358328],[-9.327538,53.358322],[-9.327637,53.358215],[-9.327644,53.358209],[-9.327746,53.358119],[-9.327783,53.358088],[-9.327818,53.358056],[-9.327892,53.357989],[-9.327981,53.357907],[-9.32811,53.357821],[-9.328145,53.357808],[-9.32822,53.357782],[-9.328407,53.357719],[-9.328444,53.35771],[-9.328751,53.357646],[-9.328897,53.357603],[-9.329051,53.357542],[-9.329278,53.357412],[-9.329414,53.357293],[-9.329498,53.35718],[-9.329598,53.357081],[-9.329687,53.356998],[-9.329816,53.356918],[-9.329926,53.356861],[-9.330015,53.356784],[-9.330136,53.356696],[-9.330249,53.356618],[-9.330354,53.356536],[-9.330425,53.356499],[-9.330638,53.35642],[-9.330661,53.356395],[-9.33067,53.356312],[-9.330712,53.356247],[-9.330827,53.356219],[-9.330891,53.356212],[-9.33101,53.356204],[-9.331077,53.356184],[-9.331135,53.356148],[-9.331184,53.356113],[-9.331275,53.356127],[-9.331291,53.356117],[-9.331297,53.356065],[-9.331338,53.356043],[-9.331453,53.356052],[-9.331475,53.356006],[-9.331491,53.355998],[-9.33154,53.355991],[-9.331588,53.355972],[-9.331604,53.355966],[-9.331633,53.355952],[-9.331665,53.355934],[-9.331704,53.355917],[-9.33177,53.355891],[-9.331804,53.355871],[-9.331845,53.355846],[-9.331865,53.355837],[-9.331891,53.355829],[-9.331915,53.355819],[-9.331976,53.355794],[-9.332026,53.35578],[-9.332071,53.355774],[-9.332087,53.355765],[-9.332094,53.355757],[-9.332088,53.355732],[-9.332084,53.35568],[-9.332091,53.35565],[-9.332112,53.355612],[-9.332139,53.355584],[-9.332198,53.355537],[-9.332245,53.355502],[-9.332285,53.355471],[-9.332301,53.35546],[-9.33232,53.355456],[-9.332366,53.355452],[-9.332383,53.355448],[-9.332403,53.355436],[-9.33247,53.355369],[-9.332483,53.35534],[-9.332484,53.355321],[-9.332478,53.355309],[-9.33245,53.355307],[-9.332446,53.355299],[-9.332482,53.355212],[-9.332495,53.355183],[-9.332506,53.355153],[-9.332496,53.355135],[-9.332462,53.355088],[-9.332454,53.355072],[-9.33246,53.355054],[-9.332467,53.355031],[-9.332484,53.35502],[-9.332542,53.355004],[-9.332569,53.354997],[-9.332588,53.354995],[-9.332593,53.354977],[-9.332583,53.354953],[-9.332562,53.354919],[-9.332559,53.354901],[-9.332587,53.354837],[-9.332599,53.354821],[-9.332619,53.354809],[-9.332631,53.354805],[-9.33268,53.354792],[-9.332709,53.354773],[-9.332714,53.354746],[-9.33269,53.354684],[-9.332694,53.354659],[-9.332701,53.35465],[-9.332715,53.354636],[-9.332768,53.354626],[-9.332804,53.354619],[-9.332815,53.354608],[-9.332853,53.35458],[-9.33289,53.354568],[-9.332916,53.354569],[-9.332994,53.354576],[-9.333015,53.354572],[-9.333031,53.354568],[-9.333051,53.354557],[-9.333056,53.354538],[-9.333065,53.354512],[-9.333062,53.354497],[-9.333067,53.354471],[-9.333116,53.354455],[-9.333171,53.354435],[-9.333196,53.354401],[-9.333242,53.354312],[-9.333213,53.354302],[-9.333149,53.354265],[-9.333106,53.354241],[-9.333053,53.354229],[-9.333017,53.354222],[-9.332996,53.354211],[-9.332991,53.354206],[-9.332986,53.354189],[-9.332995,53.354155],[-9.333003,53.354117],[-9.333,53.354079],[-9.332987,53.354047],[-9.3329,53.353989],[-9.332848,53.353932],[-9.332811,53.353875],[-9.332786,53.35384],[-9.332785,53.353822],[-9.332827,53.353757],[-9.332889,53.353696],[-9.332998,53.353632],[-9.333018,53.353619],[-9.333025,53.353615],[-9.333068,53.353599],[-9.333084,53.353568],[-9.333091,53.35354],[-9.333127,53.353503],[-9.333137,53.35347],[-9.333138,53.353464]],[[-9.294193,53.368158],[-9.294201,53.368427],[-9.29375,53.368432],[-9.293742,53.368163],[-9.294193,53.368158]],[[-9.298626,53.365683],[-9.298175,53.365688],[-9.298167,53.365418],[-9.298617,53.365413],[-9.298626,53.365683]],[[-9.298159,53.365149],[-9.298167,53.365418],[-9.297716,53.365423],[-9.297708,53.365154],[-9.298159,53.365149]],[[-9.2977,53.364884],[-9.297708,53.365154],[-9.297257,53.365159],[-9.297249,53.364889],[-9.2977,53.364884]],[[-9.297241,53.364619],[-9.297249,53.364889],[-9.296348,53.364899],[-9.29634,53.364629],[-9.295889,53.364634],[-9.295881,53.364365],[-9.295873,53.364095],[-9.296323,53.36409],[-9.296331,53.36436],[-9.296782,53.364355],[-9.29679,53.364624],[-9.297241,53.364619]],[[-9.303877,53.360503],[-9.304778,53.360493],[-9.304794,53.361032],[-9.304344,53.361037],[-9.304352,53.361306],[-9.303451,53.361316],[-9.303443,53.361047],[-9.303893,53.361042],[-9.303877,53.360503]],[[-9.317903,53.358604],[-9.317798,53.35796],[-9.31785,53.357923],[-9.318485,53.357461],[-9.319561,53.357398],[-9.320396,53.357809],[-9.32041,53.357894],[-9.320413,53.357912],[-9.320458,53.358191],[-9.320501,53.358453],[-9.319814,53.358952],[-9.31924,53.358986],[-9.319605,53.358982],[-9.319613,53.359251],[-9.320064,53.359246],[-9.320072,53.359516],[-9.318721,53.359531],[-9.318712,53.359261],[-9.319163,53.359256],[-9.319155,53.358991],[-9.318737,53.359015],[-9.317903,53.358604]],[[-9.311776,53.365501],[-9.31199,53.365533],[-9.312434,53.365597],[-9.312827,53.365654],[-9.313391,53.366206],[-9.313135,53.366835],[-9.312211,53.367172],[-9.311161,53.367019],[-9.310598,53.366467],[-9.310853,53.365838],[-9.311776,53.365501]],[[-9.301126,53.364083],[-9.301402,53.364219],[-9.301761,53.364396],[-9.301961,53.364494],[-9.302065,53.365137],[-9.301377,53.365637],[-9.300301,53.3657],[-9.299466,53.365288],[-9.299362,53.364644],[-9.300049,53.364145],[-9.301126,53.364083]],[[-9.330751,53.355083],[-9.331202,53.355078],[-9.331219,53.355617],[-9.330768,53.355622],[-9.330751,53.355083]],[[-9.327181,53.356201],[-9.32628,53.356211],[-9.326271,53.355942],[-9.327172,53.355932],[-9.327181,53.356201]],[[-9.325829,53.356216],[-9.32628,53.356211],[-9.326288,53.356481],[-9.325837,53.356486],[-9.325829,53.356216]],[[-9.324936,53.356496],[-9.325837,53.356486],[-9.325846,53.356756],[-9.325395,53.356761],[-9.325404,53.35703],[-9.324503,53.35704],[-9.324494,53.356771],[-9.324945,53.356766],[-9.324936,53.356496]],[[-9.324052,53.357045],[-9.324503,53.35704],[-9.324511,53.35731],[-9.32406,53.357315],[-9.324052,53.357045]],[[-9.32361,53.35732],[-9.32406,53.357315],[-9.324069,53.357584],[-9.323618,53.357589],[-9.32361,53.35732]],[[-9.330343,53.356436],[-9.329892,53.356441],[-9.329884,53.356171],[-9.330334,53.356166],[-9.330343,53.356436]],[[-9.329442,53.356446],[-9.329892,53.356441],[-9.329901,53.35671],[-9.32945,53.356715],[-9.329442,53.356446]],[[-9.328999,53.35672],[-9.32945,53.356715],[-9.329458,53.356985],[-9.329008,53.35699],[-9.328999,53.35672]],[[-9.328557,53.356995],[-9.329008,53.35699],[-9.329016,53.35726],[-9.328566,53.357265],[-9.328557,53.356995]],[[-9.328115,53.35727],[-9.328566,53.357265],[-9.328574,53.357534],[-9.328124,53.357539],[-9.328115,53.35727]],[[-9.327673,53.357544],[-9.328124,53.357539],[-9.328132,53.357809],[-9.327681,53.357814],[-9.327673,53.357544]],[[-9.327231,53.357819],[-9.327681,53.357814],[-9.32769,53.358083],[-9.327239,53.358088],[-9.327231,53.357819]],[[-9.326789,53.358093],[-9.327239,53.358088],[-9.327248,53.358358],[-9.326797,53.358363],[-9.326789,53.358093]],[[-9.321799,53.35707],[-9.320898,53.35708],[-9.32089,53.35681],[-9.320882,53.356541],[-9.321332,53.356536],[-9.32134,53.356805],[-9.321791,53.3568],[-9.321799,53.35707]],[[-9.325929,53.359451],[-9.325479,53.359456],[-9.325471,53.359186],[-9.325921,53.359181],[-9.325929,53.359451]],[[-9.324578,53.359466],[-9.325479,53.359456],[-9.325487,53.359725],[-9.324586,53.359735],[-9.324578,53.359466]],[[-9.318461,53.365735],[-9.318453,53.365466],[-9.318904,53.365461],[-9.318895,53.365191],[-9.320698,53.365171],[-9.320689,53.364902],[-9.320239,53.364907],[-9.320231,53.364637],[-9.318428,53.364657],[-9.31842,53.364387],[-9.318411,53.364118],[-9.320214,53.364098],[-9.320222,53.364367],[-9.321123,53.364357],[-9.321132,53.364627],[-9.321582,53.364622],[-9.321591,53.364892],[-9.321599,53.365161],[-9.321607,53.365431],[-9.321616,53.3657],[-9.321624,53.36597],[-9.321649,53.366778],[-9.321666,53.367317],[-9.321708,53.368665],[-9.322158,53.36866],[-9.322167,53.36893],[-9.321265,53.36894],[-9.321257,53.36867],[-9.320806,53.368675],[-9.320765,53.367327],[-9.320314,53.367332],[-9.320297,53.366793],[-9.320748,53.366788],[-9.320723,53.36598],[-9.321173,53.365975],[-9.321165,53.365705],[-9.319363,53.365725],[-9.319379,53.366264],[-9.319388,53.366534],[-9.319396,53.366803],[-9.318945,53.366808],[-9.318954,53.367078],[-9.318962,53.367347],[-9.31897,53.367617],[-9.316717,53.367642],[-9.316725,53.367911],[-9.315824,53.367921],[-9.315832,53.368191],[-9.314931,53.368201],[-9.314923,53.367931],[-9.314914,53.367662],[-9.315365,53.367657],[-9.315357,53.367387],[-9.315807,53.367382],[-9.315799,53.367113],[-9.31625,53.367108],[-9.316241,53.366838],[-9.316692,53.366833],[-9.316684,53.366564],[-9.318036,53.366549],[-9.318027,53.366279],[-9.318478,53.366274],[-9.318461,53.365735]],[[-9.318445,53.365196],[-9.318453,53.365466],[-9.318002,53.36547],[-9.318011,53.36574],[-9.31756,53.365745],[-9.317552,53.365475],[-9.317543,53.365206],[-9.318445,53.365196]],[[-9.319522,53.356286],[-9.319513,53.356017],[-9.319964,53.356012],[-9.319972,53.356281],[-9.319522,53.356286]],[[-9.320481,53.358163],[-9.320473,53.357894],[-9.320923,53.357889],[-9.320932,53.358158],[-9.320481,53.358163]],[[-9.31691,53.359281],[-9.316893,53.358742],[-9.317344,53.358737],[-9.317361,53.359276],[-9.31691,53.359281]],[[-9.318077,53.367896],[-9.318528,53.367891],[-9.318536,53.368161],[-9.318086,53.368166],[-9.318077,53.367896]],[[-9.307998,53.362615],[-9.30799,53.362345],[-9.30844,53.36234],[-9.308432,53.362071],[-9.308883,53.362066],[-9.308891,53.362335],[-9.308899,53.362605],[-9.308448,53.36261],[-9.308457,53.362879],[-9.308006,53.362884],[-9.308014,53.363154],[-9.307564,53.363159],[-9.307572,53.363428],[-9.307121,53.363433],[-9.307113,53.363164],[-9.307105,53.362894],[-9.307097,53.362625],[-9.307998,53.362615]],[[-9.311793,53.368774],[-9.311801,53.369044],[-9.311351,53.369049],[-9.311342,53.368779],[-9.310892,53.368784],[-9.310883,53.368515],[-9.311334,53.36851],[-9.311326,53.36824],[-9.311776,53.368235],[-9.311785,53.368505],[-9.311793,53.368774]],[[-9.31181,53.369313],[-9.311801,53.369044],[-9.312252,53.369039],[-9.31226,53.369309],[-9.31181,53.369313]],[[-9.296258,53.361934],[-9.296708,53.361929],[-9.296725,53.362468],[-9.296274,53.362473],[-9.296258,53.361934]],[[-9.303943,53.362659],[-9.304393,53.362654],[-9.304401,53.362924],[-9.303951,53.362929],[-9.303943,53.362659]],[[-9.304443,53.364271],[-9.304434,53.364002],[-9.305335,53.363992],[-9.305344,53.364261],[-9.304443,53.364271]],[[-9.305811,53.364796],[-9.305803,53.364526],[-9.306253,53.364521],[-9.306261,53.364791],[-9.305811,53.364796]],[[-9.29416,53.36708],[-9.294152,53.36681],[-9.295053,53.3668],[-9.295061,53.36707],[-9.29416,53.36708]],[[-9.290555,53.367119],[-9.291006,53.367114],[-9.291014,53.367383],[-9.290563,53.367388],[-9.290555,53.367119]]],[[[-9.322574,53.359913],[-9.322789,53.359911],[-9.322784,53.359755],[-9.32257,53.359758],[-9.322574,53.359913]]],[[[-9.289892,53.36267],[-9.28819,53.363432],[-9.288196,53.363639],[-9.288647,53.363634],[-9.288655,53.363904],[-9.289105,53.363899],[-9.289089,53.36336],[-9.28954,53.363355],[-9.289532,53.363085],[-9.289982,53.36308],[-9.289974,53.362811],[-9.28997,53.362694],[-9.289892,53.36267]]],[[[-9.314709,53.357929],[-9.314651,53.357958],[-9.314825,53.357956],[-9.314709,53.357929]]],[[[-9.316828,53.35808],[-9.316875,53.358151],[-9.316868,53.357933],[-9.317319,53.357928],[-9.317311,53.357659],[-9.31686,53.357664],[-9.316843,53.357125],[-9.316843,53.35712],[-9.316838,53.357125],[-9.316814,53.357339],[-9.316792,53.357475],[-9.316804,53.357507],[-9.316797,53.357573],[-9.316741,53.357621],[-9.316716,53.357656],[-9.31673,53.357683],[-9.316777,53.357714],[-9.316816,53.357856],[-9.3168,53.357888],[-9.31676,53.357929],[-9.316758,53.357935],[-9.316751,53.357953],[-9.316828,53.35808]]],[[[-9.316734,53.355628],[-9.316799,53.355682],[-9.316794,53.355508],[-9.316785,53.355238],[-9.316308,53.355243],[-9.316328,53.355251],[-9.316435,53.355277],[-9.316477,53.355288],[-9.316648,53.355338],[-9.316694,53.355364],[-9.316727,53.355386],[-9.316739,53.355421],[-9.316722,53.355571],[-9.316717,53.355595],[-9.316734,53.355628]]],[[[-9.315866,53.355063],[-9.315879,53.355069],[-9.315879,53.355062],[-9.315866,53.355063]]],[[[-9.2912,53.365494],[-9.291177,53.36475],[-9.292679,53.364733],[-9.292693,53.365208],[-9.292751,53.365207],[-9.292743,53.364938],[-9.292735,53.364668],[-9.291833,53.364678],[-9.291825,53.364409],[-9.291817,53.364139],[-9.291809,53.363869],[-9.291793,53.36333],[-9.290891,53.36334],[-9.290908,53.363879],[-9.290457,53.363884],[-9.290465,53.364154],[-9.290015,53.364159],[-9.290026,53.364538],[-9.290113,53.364555],[-9.290163,53.364615],[-9.290443,53.364952],[-9.290522,53.365047],[-9.290594,53.365134],[-9.2905,53.365302],[-9.290506,53.365501],[-9.2912,53.365494]]],[[[-9.310653,53.360995],[-9.310488,53.361239],[-9.31066,53.361237],[-9.310653,53.360995]]],[[[-9.321148,53.365166],[-9.320698,53.365171],[-9.320706,53.365441],[-9.321157,53.365436],[-9.321148,53.365166]]],[[[-9.317151,53.367098],[-9.317159,53.367367],[-9.31761,53.367362],[-9.317602,53.367093],[-9.317151,53.367098]]],[[[-9.309718,53.3599],[-9.310168,53.359895],[-9.31016,53.359625],[-9.309709,53.35963],[-9.309718,53.3599]]],[[[-9.308808,53.35964],[-9.308792,53.359101],[-9.307891,53.359111],[-9.307899,53.35938],[-9.307907,53.35965],[-9.308808,53.35964]]],[[[-9.306973,53.358581],[-9.306965,53.358312],[-9.306064,53.358322],[-9.306072,53.358591],[-9.306973,53.358581]]]]}}]}
