{"type":"FeatureCollection","features":[{"type":"Feature","properties":{"source_fid":948674,"county":"Galway","bog_geom_ha":302.69685756310315,"low15_pct":97.683397683397686,"low15_ha":295.68457514851389,"overlay_ha":295.68415048208107,"area_delta":-0.00042466643282068617},"geometry":{"type":"MultiPolygon","coordinates":[[[[-8.456049,52.996154],[-8.456066,52.996195],[-8.456064,52.996219],[-8.456062,52.996253],[-8.456034,52.996299],[-8.456274,52.996298],[-8.456271,52.996028],[-8.456718,52.996026],[-8.456715,52.995757],[-8.457162,52.995755],[-8.457159,52.995486],[-8.457606,52.995484],[-8.457603,52.995214],[-8.45805,52.995212],[-8.458047,52.994943],[-8.458494,52.994941],[-8.458487,52.994223],[-8.458437,52.994226],[-8.458415,52.994226],[-8.458416,52.994235],[-8.458421,52.994261],[-8.458428,52.994329],[-8.458416,52.994371],[-8.458408,52.9944],[-8.458327,52.994476],[-8.458247,52.994517],[-8.458127,52.994559],[-8.458037,52.994584],[-8.457992,52.994607],[-8.45798,52.994638],[-8.457977,52.99468],[-8.457981,52.994764],[-8.457969,52.994844],[-8.457927,52.994922],[-8.457891,52.994975],[-8.457828,52.99502],[-8.457778,52.995038],[-8.45772,52.995058],[-8.457586,52.995066],[-8.457503,52.995047],[-8.457485,52.995038],[-8.457459,52.995023],[-8.457435,52.995014],[-8.45741,52.995014],[-8.457375,52.995022],[-8.457326,52.995061],[-8.457303,52.995087],[-8.45722,52.995142],[-8.457156,52.995175],[-8.457157,52.995216],[-8.457106,52.995216],[-8.457082,52.995238],[-8.457039,52.995319],[-8.457032,52.995377],[-8.457017,52.995431],[-8.456987,52.995489],[-8.456974,52.995539],[-8.456914,52.995562],[-8.456857,52.995588],[-8.456785,52.995632],[-8.456657,52.995673],[-8.456567,52.995719],[-8.456554,52.995764],[-8.4565,52.995837],[-8.456367,52.995887],[-8.45634,52.995903],[-8.456334,52.995937],[-8.456315,52.995968],[-8.456242,52.99601],[-8.456219,52.996033],[-8.456168,52.996061],[-8.456064,52.996074],[-8.456014,52.996076],[-8.456005,52.996081],[-8.455997,52.996091],[-8.456014,52.996116],[-8.456049,52.996154]]],[[[-8.45583,52.996569],[-8.45583,52.996511],[-8.455728,52.99657],[-8.45583,52.996569]]],[[[-8.454659,52.997041],[-8.454651,52.997063],[-8.454639,52.997086],[-8.454627,52.997096],[-8.454605,52.997111],[-8.454601,52.997113],[-8.454942,52.997112],[-8.454939,52.996842],[-8.455386,52.99684],[-8.455385,52.996691],[-8.455365,52.996691],[-8.455279,52.996689],[-8.455175,52.996659],[-8.455119,52.996628],[-8.45508,52.996606],[-8.455021,52.996595],[-8.45498,52.996601],[-8.454909,52.996608],[-8.454873,52.996614],[-8.454831,52.996626],[-8.454749,52.996668],[-8.454684,52.996675],[-8.454626,52.996689],[-8.454562,52.99673],[-8.454532,52.996783],[-8.454535,52.996817],[-8.454562,52.996833],[-8.454621,52.996859],[-8.45466,52.996899],[-8.454682,52.99694],[-8.454682,52.996996],[-8.454659,52.997041]]],[[[-8.452555,53.007636],[-8.452371,53.007637],[-8.452369,53.007501],[-8.452065,53.007523],[-8.451628,53.007564],[-8.451452,53.00758],[-8.451411,53.007584],[-8.45137,53.007589],[-8.451329,53.007593],[-8.450936,53.007616],[-8.450637,53.007646],[-8.450405,53.007659],[-8.450248,53.00767],[-8.450084,53.00768],[-8.449467,53.007732],[-8.449187,53.007748],[-8.449139,53.007755],[-8.449093,53.007762],[-8.448998,53.007774],[-8.448851,53.007791],[-8.448675,53.00781],[-8.448519,53.007822],[-8.448396,53.007832],[-8.448381,53.007848],[-8.448272,53.007963],[-8.44795,53.008238],[-8.447655,53.008561],[-8.4476,53.008606],[-8.44745,53.008754],[-8.447189,53.009029],[-8.447023,53.009216],[-8.446805,53.009461],[-8.446326,53.010008],[-8.445815,53.010568],[-8.445241,53.011233],[-8.444741,53.011798],[-8.444346,53.01225],[-8.443968,53.012686],[-8.44389,53.012781],[-8.443737,53.012952],[-8.443367,53.013343],[-8.443128,53.013581],[-8.442886,53.013701],[-8.442848,53.013721],[-8.442665,53.013807],[-8.44231,53.01399],[-8.441917,53.014194],[-8.441329,53.0145],[-8.441173,53.014568],[-8.441096,53.014603],[-8.441027,53.014633],[-8.440743,53.014771],[-8.44,53.015135],[-8.439411,53.01542],[-8.439093,53.015571],[-8.438817,53.0157],[-8.438526,53.01584],[-8.438205,53.015994],[-8.438178,53.016007],[-8.439492,53.016002],[-8.43949,53.015774],[-8.439937,53.015772],[-8.439934,53.015503],[-8.44036,53.015501],[-8.440356,53.0151],[-8.441719,53.015095],[-8.441717,53.014957],[-8.442164,53.014955],[-8.442161,53.014686],[-8.442609,53.014684],[-8.442606,53.014414],[-8.443053,53.014413],[-8.443056,53.014682],[-8.443058,53.014952],[-8.442611,53.014954],[-8.442614,53.015223],[-8.442167,53.015225],[-8.44217,53.015494],[-8.442173,53.015764],[-8.441852,53.015765],[-8.441855,53.015993],[-8.441728,53.015994],[-8.441728,53.016035],[-8.441281,53.016037],[-8.441287,53.016576],[-8.441289,53.016846],[-8.440842,53.016848],[-8.440843,53.016896],[-8.441864,53.016892],[-8.441873,53.01779],[-8.440383,53.017796],[-8.440376,53.017119],[-8.439057,53.017124],[-8.439059,53.017393],[-8.438612,53.017395],[-8.43861,53.017125],[-8.438607,53.016904],[-8.43816,53.016905],[-8.438162,53.017127],[-8.437715,53.017129],[-8.437718,53.017398],[-8.437721,53.017668],[-8.43638,53.017673],[-8.436377,53.017403],[-8.436824,53.017402],[-8.436821,53.017132],[-8.436818,53.016862],[-8.4364,53.016864],[-8.436342,53.016891],[-8.435969,53.017074],[-8.435741,53.017178],[-8.435319,53.017379],[-8.43489,53.01758],[-8.434655,53.017693],[-8.434322,53.017854],[-8.433912,53.018053],[-8.433617,53.018188],[-8.433236,53.018373],[-8.433042,53.018463],[-8.432717,53.018613],[-8.432572,53.018701],[-8.432508,53.018758],[-8.432211,53.018897],[-8.433667,53.019184],[-8.433997,53.019245],[-8.434033,53.019219],[-8.434033,53.019209],[-8.434033,53.019199],[-8.434068,53.019175],[-8.434082,53.019165],[-8.434111,53.019145],[-8.434149,53.01912],[-8.434203,53.019097],[-8.434209,53.019095],[-8.434265,53.019095],[-8.434275,53.019095],[-8.434306,53.019095],[-8.434322,53.019103],[-8.434336,53.019111],[-8.434401,53.01914],[-8.434414,53.019147],[-8.434452,53.019147],[-8.4345,53.019124],[-8.434521,53.019102],[-8.434552,53.01907],[-8.434559,53.019057],[-8.434586,53.019007],[-8.434612,53.018989],[-8.43463,53.018986],[-8.434642,53.018984],[-8.43472,53.018975],[-8.434773,53.018975],[-8.43484,53.018991],[-8.434896,53.019006],[-8.434952,53.019022],[-8.43503,53.019022],[-8.435146,53.019022],[-8.435294,53.019035],[-8.435348,53.01904],[-8.435479,53.019047],[-8.435636,53.019022],[-8.435715,53.019011],[-8.435767,53.019004],[-8.435891,53.018995],[-8.435906,53.018994],[-8.435964,53.018975],[-8.436135,53.018921],[-8.436204,53.018921],[-8.436296,53.018921],[-8.436387,53.01891],[-8.436402,53.018908],[-8.43641,53.018906],[-8.436512,53.018879],[-8.43666,53.018836],[-8.436804,53.018786],[-8.436866,53.018768],[-8.436956,53.018743],[-8.437,53.018694],[-8.437012,53.01868],[-8.437057,53.018674],[-8.437145,53.018662],[-8.437567,53.01858],[-8.437664,53.018569],[-8.437683,53.018567],[-8.437715,53.018564],[-8.437842,53.018551],[-8.437864,53.018555],[-8.43798,53.018582],[-8.438054,53.0186],[-8.438198,53.01862],[-8.438253,53.018621],[-8.438369,53.018622],[-8.438391,53.018628],[-8.438429,53.018639],[-8.438499,53.018655],[-8.438528,53.018655],[-8.438655,53.018652],[-8.43876,53.018649],[-8.438835,53.018648],[-8.438876,53.018638],[-8.438933,53.018625],[-8.439014,53.018591],[-8.439224,53.01854],[-8.439343,53.018543],[-8.439402,53.018548],[-8.439456,53.018552],[-8.439532,53.018584],[-8.439539,53.018588],[-8.439582,53.018612],[-8.439594,53.018631],[-8.4396,53.01864],[-8.439607,53.018673],[-8.43961,53.018684],[-8.439612,53.018686],[-8.439619,53.018694],[-8.439663,53.018702],[-8.439708,53.01871],[-8.439713,53.018745],[-8.439715,53.018758],[-8.43973,53.018773],[-8.439747,53.018789],[-8.439809,53.018824],[-8.439866,53.018856],[-8.439919,53.018882],[-8.439972,53.018908],[-8.440004,53.018967],[-8.440158,53.01923],[-8.440174,53.019257],[-8.440186,53.019263],[-8.440253,53.019294],[-8.440142,53.019384],[-8.440091,53.01945],[-8.440115,53.019511],[-8.440165,53.019564],[-8.440249,53.019652],[-8.440351,53.019692],[-8.440404,53.019706],[-8.440466,53.01969],[-8.440498,53.019682],[-8.440619,53.019673],[-8.440732,53.019694],[-8.440804,53.019708],[-8.440931,53.019756],[-8.440944,53.019759],[-8.440971,53.019764],[-8.44097,53.019723],[-8.440969,53.019682],[-8.441113,53.019685],[-8.44112,53.019686],[-8.441263,53.01971],[-8.441297,53.019727],[-8.441342,53.019749],[-8.441443,53.019753],[-8.441495,53.019776],[-8.441506,53.019787],[-8.441518,53.019797],[-8.441651,53.019807],[-8.441791,53.0198],[-8.441816,53.019807],[-8.441866,53.01982],[-8.441908,53.019833],[-8.441933,53.019841],[-8.441996,53.019845],[-8.442058,53.019848],[-8.442285,53.019848],[-8.442338,53.019841],[-8.442402,53.019831],[-8.442674,53.019782],[-8.442698,53.019778],[-8.442746,53.019772],[-8.443402,53.019695],[-8.443532,53.019676],[-8.443675,53.019654],[-8.443928,53.019628],[-8.444104,53.019607],[-8.444354,53.019577],[-8.444554,53.019552],[-8.444613,53.019545],[-8.445202,53.019477],[-8.445332,53.019461],[-8.446137,53.019366],[-8.446568,53.019321],[-8.447127,53.019279],[-8.447765,53.019231],[-8.44802,53.019208],[-8.448018,53.018978],[-8.448912,53.018974],[-8.448914,53.019128],[-8.44963,53.019064],[-8.450727,53.018967],[-8.451626,53.018899],[-8.4524,53.018835],[-8.453312,53.018754],[-8.454074,53.018663],[-8.454246,53.018645],[-8.454601,53.01859],[-8.454956,53.018547],[-8.455352,53.01849],[-8.455691,53.018422],[-8.455979,53.018321],[-8.456505,53.018138],[-8.456505,53.018137],[-8.456509,53.018137],[-8.456513,53.018135],[-8.456767,53.01804],[-8.4572,53.017893],[-8.457265,53.017862],[-8.457376,53.017822],[-8.457426,53.017802],[-8.457543,53.017755],[-8.457678,53.017696],[-8.457748,53.017665],[-8.457984,53.017554],[-8.458046,53.017532],[-8.458174,53.017486],[-8.458286,53.017442],[-8.458284,53.017321],[-8.458552,53.01732],[-8.458611,53.017292],[-8.458627,53.017283],[-8.459014,53.017113],[-8.459536,53.016853],[-8.459954,53.016636],[-8.460552,53.01645],[-8.461368,53.016225],[-8.462233,53.015979],[-8.46297,53.015721],[-8.463199,53.015641],[-8.463368,53.015582],[-8.463619,53.015515],[-8.463864,53.015437],[-8.464017,53.015392],[-8.464203,53.015337],[-8.464725,53.01518],[-8.464997,53.015106],[-8.46535,53.014996],[-8.46566,53.014905],[-8.466211,53.014721],[-8.466854,53.014552],[-8.467195,53.014442],[-8.467194,53.01432],[-8.467577,53.014319],[-8.467598,53.014312],[-8.46764,53.014228],[-8.467638,53.014049],[-8.467753,53.014049],[-8.468001,53.013791],[-8.468228,53.013546],[-8.468345,53.013406],[-8.468405,53.013341],[-8.469098,53.012588],[-8.46917,53.012515],[-8.469501,53.012159],[-8.469503,53.012154],[-8.469406,53.012155],[-8.469403,53.011885],[-8.469454,53.011885],[-8.46944,53.011816],[-8.469384,53.011509],[-8.469277,53.011066],[-8.469192,53.010579],[-8.469097,53.010164],[-8.46906,53.00996],[-8.469003,53.009735],[-8.468954,53.009471],[-8.46883,53.008931],[-8.468787,53.008707],[-8.468723,53.008394],[-8.468654,53.008053],[-8.468648,53.008013],[-8.46855,53.00761],[-8.468542,53.007443],[-8.46832,53.007419],[-8.468298,53.007262],[-8.468353,53.007033],[-8.468516,53.006521],[-8.468594,53.006226],[-8.468672,53.005917],[-8.468759,53.005781],[-8.468839,53.0055],[-8.468921,53.005213],[-8.46903,53.004787],[-8.46903,53.004786],[-8.469172,53.004288],[-8.469439,53.003518],[-8.469561,53.003121],[-8.469727,53.002687],[-8.469787,53.002488],[-8.469891,53.00213],[-8.470059,53.001936],[-8.470244,53.001775],[-8.47061,53.001479],[-8.471192,53.001037],[-8.471785,53.000601],[-8.471942,53.000475],[-8.472274,53.000242],[-8.472391,53.000179],[-8.472554,53.000092],[-8.472809,52.999963],[-8.473202,52.999771],[-8.473744,52.999523],[-8.473897,52.999439],[-8.474498,52.999152],[-8.474569,52.999119],[-8.474214,52.999077],[-8.473582,52.998989],[-8.472741,52.998882],[-8.472248,52.998821],[-8.47147,52.998702],[-8.471006,52.99863],[-8.47033,52.998551],[-8.469881,52.998495],[-8.469822,52.998488],[-8.46941,52.998437],[-8.468849,52.99837],[-8.468831,52.998367],[-8.468647,52.998345],[-8.468292,52.998302],[-8.467825,52.998248],[-8.466939,52.998129],[-8.466259,52.99804],[-8.465762,52.997974],[-8.465283,52.997909],[-8.464876,52.997853],[-8.464584,52.997831],[-8.464274,52.997793],[-8.463803,52.997718],[-8.463388,52.997676],[-8.463022,52.997635],[-8.462588,52.997575],[-8.46221,52.997523],[-8.461993,52.997523],[-8.461926,52.997516],[-8.461863,52.997358],[-8.461746,52.997144],[-8.461555,52.996803],[-8.461443,52.9966],[-8.461263,52.996354],[-8.461169,52.996225],[-8.460989,52.996047],[-8.460832,52.995869],[-8.460724,52.995767],[-8.460555,52.9956],[-8.460402,52.995469],[-8.460267,52.995358],[-8.460054,52.995201],[-8.459863,52.995058],[-8.459739,52.994955],[-8.459608,52.994774],[-8.459503,52.994639],[-8.459384,52.994529],[-8.459388,52.994938],[-8.459391,52.995207],[-8.458944,52.995209],[-8.458947,52.995479],[-8.4585,52.99548],[-8.458503,52.99575],[-8.458056,52.995752],[-8.458059,52.996021],[-8.457612,52.996023],[-8.457615,52.996293],[-8.457618,52.996562],[-8.456724,52.996566],[-8.456727,52.996835],[-8.455833,52.996839],[-8.455835,52.997071],[-8.456555,52.997068],[-8.456565,52.997967],[-8.455075,52.997972],[-8.455069,52.997381],[-8.454498,52.997383],[-8.454496,52.997152],[-8.454487,52.997154],[-8.45445,52.997159],[-8.454401,52.997157],[-8.454363,52.997151],[-8.454355,52.99715],[-8.45433,52.997152],[-8.454314,52.997154],[-8.45428,52.997166],[-8.454233,52.997211],[-8.454197,52.997254],[-8.454144,52.997325],[-8.454103,52.997368],[-8.454025,52.997404],[-8.453911,52.99742],[-8.453783,52.99741],[-8.453615,52.997404],[-8.453525,52.997408],[-8.453479,52.997513],[-8.453465,52.997607],[-8.453436,52.997676],[-8.453382,52.9977],[-8.453359,52.997744],[-8.453344,52.997763],[-8.453306,52.9978],[-8.453283,52.997815],[-8.453248,52.997834],[-8.453213,52.997843],[-8.453169,52.997846],[-8.453132,52.997842],[-8.453105,52.997834],[-8.453077,52.997817],[-8.453065,52.997802],[-8.453053,52.997796],[-8.453028,52.997794],[-8.452965,52.997797],[-8.452871,52.997806],[-8.45282,52.997815],[-8.452811,52.99782],[-8.452808,52.997833],[-8.452838,52.997846],[-8.452863,52.997864],[-8.45288,52.997901],[-8.452892,52.997957],[-8.452892,52.998008],[-8.45284,52.998057],[-8.452695,52.998072],[-8.452559,52.998072],[-8.452455,52.998058],[-8.452373,52.998031],[-8.4523,52.997989],[-8.452188,52.997963],[-8.452035,52.997946],[-8.451985,52.997945],[-8.451833,52.998008],[-8.451676,52.998142],[-8.451671,52.998148],[-8.451633,52.9982],[-8.451563,52.998261],[-8.45151,52.998293],[-8.451481,52.998305],[-8.451447,52.998313],[-8.451414,52.998318],[-8.451395,52.998319],[-8.451332,52.99831],[-8.45132,52.998301],[-8.451293,52.998301],[-8.451142,52.998366],[-8.451138,52.998367],[-8.45118,52.998447],[-8.451225,52.998587],[-8.451228,52.998639],[-8.451141,52.998798],[-8.451119,52.998849],[-8.451127,52.998873],[-8.451137,52.99889],[-8.451162,52.998904],[-8.451314,52.998978],[-8.451389,52.998999],[-8.451448,52.999027],[-8.451652,52.999138],[-8.451803,52.999209],[-8.451859,52.999229],[-8.451911,52.99925],[-8.451938,52.99927],[-8.451964,52.999292],[-8.451981,52.999311],[-8.451985,52.999326],[-8.451997,52.999354],[-8.452297,52.999492],[-8.452578,52.999611],[-8.45282,52.999721],[-8.453065,52.999835],[-8.453296,52.999943],[-8.45333,52.999932],[-8.453622,53.000111],[-8.453788,53.000341],[-8.453792,53.000346],[-8.4538,53.000352],[-8.454082,53.000351],[-8.454084,53.000508],[-8.454111,53.000513],[-8.454128,53.000516],[-8.454237,53.000566],[-8.454284,53.000608],[-8.454352,53.000669],[-8.454371,53.000717],[-8.454379,53.000735],[-8.454422,53.000752],[-8.45448,53.000773],[-8.454562,53.000828],[-8.454727,53.000956],[-8.454947,53.001101],[-8.455097,53.001216],[-8.455239,53.001326],[-8.45537,53.001427],[-8.455378,53.001432],[-8.455636,53.001631],[-8.45604,53.001888],[-8.456252,53.00204],[-8.456302,53.002057],[-8.456399,53.002089],[-8.456467,53.002107],[-8.456541,53.002134],[-8.456583,53.00215],[-8.456617,53.00217],[-8.456702,53.00222],[-8.456767,53.002224],[-8.456852,53.002229],[-8.456906,53.002234],[-8.456945,53.002238],[-8.457006,53.002254],[-8.457072,53.002271],[-8.457291,53.002356],[-8.457431,53.002411],[-8.45747,53.002427],[-8.457581,53.002474],[-8.458063,53.002616],[-8.458214,53.002665],[-8.458494,53.002756],[-8.458733,53.002842],[-8.458972,53.002927],[-8.458981,53.00293],[-8.458997,53.002936],[-8.459007,53.00294],[-8.459028,53.002948],[-8.459153,53.003008],[-8.4592,53.003031],[-8.459268,53.003076],[-8.45935,53.003129],[-8.459382,53.003145],[-8.459392,53.003151],[-8.459464,53.00318],[-8.459503,53.003186],[-8.459526,53.003189],[-8.459556,53.003198],[-8.459646,53.003234],[-8.459717,53.003277],[-8.4599,53.003353],[-8.460012,53.003394],[-8.460101,53.003456],[-8.460151,53.003491],[-8.460247,53.003558],[-8.460278,53.003579],[-8.460319,53.003619],[-8.460443,53.003739],[-8.460475,53.003757],[-8.460547,53.003796],[-8.460585,53.00383],[-8.460694,53.003901],[-8.460843,53.004039],[-8.460849,53.004046],[-8.460907,53.004107],[-8.460921,53.004134],[-8.460929,53.00415],[-8.460941,53.0042],[-8.460944,53.004215],[-8.460946,53.004223],[-8.46095,53.00424],[-8.461099,53.004239],[-8.461109,53.005138],[-8.460723,53.005139],[-8.460641,53.005304],[-8.460611,53.005365],[-8.460606,53.005374],[-8.460535,53.005435],[-8.460267,53.005684],[-8.459976,53.005953],[-8.459853,53.006039],[-8.459789,53.006084],[-8.459692,53.00615],[-8.459408,53.006342],[-8.459244,53.006443],[-8.458912,53.006681],[-8.458684,53.006841],[-8.458419,53.007009],[-8.458023,53.00728],[-8.457721,53.007467],[-8.457403,53.007662],[-8.457289,53.007734],[-8.45729,53.007888],[-8.457044,53.007889],[-8.456981,53.007929],[-8.456973,53.007931],[-8.456844,53.007965],[-8.456846,53.008159],[-8.456431,53.008161],[-8.456399,53.008179],[-8.456402,53.00843],[-8.455955,53.008432],[-8.455955,53.008398],[-8.45585,53.008442],[-8.455786,53.008469],[-8.45574,53.008487],[-8.455734,53.00849],[-8.455595,53.00853],[-8.45545,53.008579],[-8.455326,53.008621],[-8.455084,53.008693],[-8.454777,53.008784],[-8.454621,53.008841],[-8.454534,53.008872],[-8.45439,53.008927],[-8.454258,53.008978],[-8.454224,53.008994],[-8.454172,53.009019],[-8.454051,53.009051],[-8.453993,53.009067],[-8.453925,53.009087],[-8.453718,53.009134],[-8.453686,53.009141],[-8.453681,53.009142],[-8.453632,53.009149],[-8.453319,53.009192],[-8.45326,53.009198],[-8.453181,53.009206],[-8.45318,53.009124],[-8.45314,53.008982],[-8.452832,53.008983],[-8.452823,53.008175],[-8.452823,53.00812],[-8.452821,53.008116],[-8.452724,53.007924],[-8.45269,53.007857],[-8.452652,53.007794],[-8.4526,53.007708],[-8.452555,53.007636]],[[-8.438165,53.017397],[-8.438612,53.017395],[-8.438615,53.017665],[-8.438168,53.017666],[-8.438165,53.017397]],[[-8.465708,53.000845],[-8.465261,53.000847],[-8.465258,53.000577],[-8.465705,53.000575],[-8.465708,53.000845]],[[-8.463932,53.00193],[-8.463485,53.001932],[-8.463482,53.001662],[-8.463929,53.001661],[-8.463932,53.00193]],[[-8.463038,53.001934],[-8.463485,53.001932],[-8.463491,53.002471],[-8.463044,53.002473],[-8.463038,53.001934]],[[-8.46174,53.005983],[-8.461293,53.005985],[-8.46129,53.005715],[-8.461737,53.005714],[-8.46174,53.005983]],[[-8.457809,53.014626],[-8.457812,53.014896],[-8.457365,53.014898],[-8.457362,53.014628],[-8.457809,53.014626]],[[-8.443514,53.015759],[-8.443511,53.015489],[-8.444405,53.015486],[-8.444408,53.015756],[-8.444411,53.016025],[-8.443964,53.016027],[-8.443966,53.016297],[-8.443519,53.016298],[-8.443522,53.016568],[-8.443075,53.01657],[-8.443072,53.0163],[-8.443069,53.01603],[-8.443067,53.015761],[-8.443514,53.015759]],[[-8.435943,53.018753],[-8.435049,53.018756],[-8.435046,53.018487],[-8.435941,53.018483],[-8.435943,53.018753]]],[[[-8.439939,53.016],[-8.440365,53.015999],[-8.440362,53.015771],[-8.439937,53.015772],[-8.439939,53.016]]],[[[-8.440371,53.01658],[-8.440392,53.01658],[-8.440387,53.01604],[-8.440387,53.015999],[-8.440365,53.015999],[-8.440371,53.01658]]],[[[-8.436817,53.016669],[-8.436818,53.016862],[-8.437393,53.01686],[-8.437389,53.016391],[-8.437272,53.016448],[-8.436817,53.016669]]]]}}]}
