{"type":"FeatureCollection","features":[{"type":"Feature","properties":{"source_fid":954544,"county":"Galway","bog_geom_ha":117.77634752080343,"low15_pct":99.162223914699169,"low15_ha":116.78964544713334,"overlay_ha":116.83004188013794,"area_delta":0.040396433004602272},"geometry":{"type":"MultiPolygon","coordinates":[[[[-9.569196,53.292587],[-9.569168,53.292624],[-9.56908,53.292789],[-9.569072,53.292802],[-9.569072,53.292802],[-9.569048,53.292867],[-9.569029,53.292897],[-9.568978,53.29299],[-9.568973,53.293006],[-9.56895,53.293078],[-9.568942,53.293095],[-9.568933,53.293114],[-9.568921,53.293139],[-9.568921,53.293139],[-9.568921,53.293139],[-9.56888,53.293152],[-9.568873,53.293154],[-9.568827,53.293166],[-9.56875,53.293191],[-9.568737,53.293195],[-9.568555,53.293232],[-9.568537,53.293235],[-9.568511,53.29324],[-9.568492,53.293246],[-9.568437,53.293262],[-9.568427,53.29327],[-9.568419,53.293275],[-9.568401,53.293286],[-9.56839,53.293293],[-9.56815,53.293337],[-9.568156,53.293367],[-9.568209,53.29344],[-9.568275,53.293517],[-9.568334,53.293593],[-9.568419,53.293629],[-9.568494,53.293657],[-9.568528,53.293672],[-9.568493,53.293789],[-9.568473,53.293867],[-9.568436,53.293917],[-9.56841,53.293948],[-9.568334,53.294009],[-9.568263,53.294051],[-9.56817,53.294099],[-9.568109,53.294136],[-9.568017,53.294198],[-9.567944,53.294238],[-9.567766,53.294358],[-9.567694,53.2944],[-9.567601,53.294446],[-9.567515,53.294484],[-9.567452,53.294503],[-9.567406,53.294509],[-9.567378,53.29446],[-9.567297,53.294327],[-9.567253,53.294227],[-9.567219,53.294171],[-9.56721,53.294132],[-9.567167,53.294083],[-9.567146,53.294056],[-9.567088,53.29401],[-9.567052,53.293939],[-9.56703,53.293898],[-9.56699,53.293855],[-9.566948,53.293811],[-9.566926,53.293776],[-9.566917,53.293745],[-9.566891,53.29372],[-9.56684,53.293685],[-9.566621,53.294083],[-9.566321,53.294644],[-9.566161,53.294977],[-9.56608,53.295066],[-9.566009,53.295147],[-9.565951,53.295247],[-9.565935,53.295283],[-9.56593,53.295333],[-9.565931,53.295404],[-9.565911,53.29549],[-9.565544,53.295372],[-9.565257,53.29528],[-9.565184,53.295256],[-9.564821,53.295144],[-9.564754,53.295123],[-9.564415,53.295016],[-9.564214,53.294951],[-9.563961,53.29487],[-9.5639,53.29485],[-9.563536,53.294727],[-9.563331,53.294654],[-9.5631,53.294571],[-9.562935,53.294499],[-9.562857,53.294458],[-9.56281,53.294434],[-9.562775,53.294412],[-9.56267,53.294347],[-9.562597,53.294293],[-9.562106,53.294572],[-9.561515,53.294687],[-9.56104,53.294726],[-9.560913,53.294766],[-9.56084,53.294791],[-9.560812,53.294794],[-9.560761,53.294803],[-9.560697,53.294811],[-9.560656,53.294811],[-9.560567,53.294791],[-9.560447,53.294769],[-9.560432,53.294767],[-9.560367,53.294748],[-9.560308,53.294736],[-9.56024,53.29473],[-9.560226,53.294696],[-9.560207,53.294599],[-9.560212,53.294535],[-9.560231,53.294303],[-9.560278,53.294074],[-9.56032,53.293887],[-9.560351,53.293796],[-9.560355,53.293782],[-9.560375,53.293715],[-9.560357,53.29367],[-9.560342,53.29364],[-9.560326,53.293566],[-9.5604,53.293468],[-9.560435,53.293415],[-9.560461,53.293345],[-9.560489,53.29328],[-9.560509,53.293239],[-9.560474,53.29324],[-9.560422,53.291798],[-9.56034,53.291837],[-9.560271,53.291868],[-9.560109,53.291932],[-9.559789,53.292052],[-9.55978,53.292055],[-9.559716,53.292081],[-9.559706,53.292085],[-9.559568,53.292137],[-9.559353,53.292218],[-9.559325,53.292228],[-9.559138,53.292111],[-9.559108,53.29208],[-9.559024,53.29203],[-9.560277,53.291523],[-9.560415,53.291619],[-9.560336,53.289438],[-9.560317,53.289438],[-9.560314,53.289425],[-9.560286,53.289421],[-9.560269,53.289422],[-9.560257,53.289427],[-9.560253,53.289428],[-9.560159,53.289439],[-9.560141,53.289432],[-9.560095,53.289435],[-9.559829,53.28941],[-9.55974,53.289401],[-9.559646,53.289396],[-9.559581,53.28939],[-9.559588,53.289324],[-9.559609,53.289258],[-9.559615,53.289232],[-9.559614,53.289146],[-9.559606,53.289116],[-9.559597,53.289093],[-9.559594,53.289071],[-9.559591,53.28906],[-9.559595,53.289042],[-9.559603,53.289031],[-9.559619,53.289019],[-9.559639,53.289011],[-9.559661,53.288996],[-9.559662,53.288983],[-9.559672,53.288967],[-9.559694,53.288956],[-9.559711,53.288949],[-9.559735,53.288943],[-9.559779,53.288913],[-9.559871,53.288874],[-9.559736,53.288801],[-9.559717,53.288792],[-9.559681,53.288777],[-9.559646,53.288757],[-9.558813,53.288768],[-9.558831,53.289068],[-9.558818,53.289072],[-9.558737,53.289093],[-9.558664,53.289109],[-9.558677,53.289136],[-9.558687,53.289158],[-9.558702,53.289188],[-9.558707,53.2892],[-9.55871,53.28925],[-9.558717,53.289421],[-9.558665,53.289496],[-9.558569,53.289545],[-9.558521,53.289599],[-9.558525,53.289644],[-9.558481,53.289843],[-9.558397,53.289999],[-9.558193,53.290251],[-9.557878,53.290313],[-9.557387,53.290409],[-9.557218,53.290465],[-9.557182,53.290477],[-9.557223,53.290524],[-9.55733,53.290634],[-9.557347,53.290651],[-9.557356,53.29066],[-9.557369,53.290673],[-9.55744,53.290743],[-9.557664,53.290946],[-9.557864,53.291148],[-9.557968,53.291245],[-9.55784,53.291305],[-9.557675,53.291386],[-9.557523,53.291432],[-9.557389,53.29145],[-9.557282,53.291447],[-9.557148,53.291448],[-9.557172,53.291543],[-9.557223,53.29191],[-9.557272,53.292004],[-9.557297,53.2921],[-9.557343,53.292342],[-9.55737,53.292425],[-9.557541,53.292673],[-9.557544,53.292738],[-9.557533,53.292833],[-9.557711,53.293134],[-9.557811,53.293315],[-9.557908,53.293523],[-9.557937,53.293556],[-9.557952,53.293587],[-9.557949,53.293617],[-9.557911,53.293648],[-9.557899,53.293706],[-9.557909,53.293754],[-9.557948,53.29381],[-9.557938,53.29383],[-9.557974,53.29396],[-9.55795,53.294011],[-9.557951,53.294083],[-9.557948,53.29415],[-9.557915,53.294168],[-9.55786,53.294176],[-9.557763,53.294196],[-9.557684,53.294194],[-9.557613,53.294171],[-9.557567,53.29415],[-9.557513,53.294104],[-9.557492,53.29408],[-9.557515,53.294067],[-9.557545,53.294065],[-9.557565,53.294051],[-9.557572,53.294016],[-9.557538,53.294013],[-9.557499,53.294013],[-9.557468,53.293983],[-9.557444,53.293938],[-9.557385,53.293878],[-9.557344,53.293877],[-9.557338,53.293847],[-9.557283,53.293714],[-9.557256,53.293676],[-9.557148,53.293602],[-9.557109,53.293568],[-9.55708,53.293531],[-9.557033,53.293496],[-9.557019,53.293457],[-9.55707,53.293397],[-9.557076,53.293354],[-9.55704,53.293336],[-9.556969,53.29329],[-9.55693,53.293284],[-9.556911,53.29331],[-9.556879,53.293288],[-9.556716,53.293199],[-9.55668,53.293151],[-9.556658,53.293108],[-9.556687,53.293024],[-9.556665,53.292964],[-9.556627,53.292918],[-9.556579,53.292885],[-9.556372,53.29282],[-9.55633,53.292804],[-9.556223,53.292767],[-9.556168,53.292743],[-9.556154,53.292707],[-9.556171,53.292675],[-9.556267,53.292576],[-9.556312,53.292544],[-9.556386,53.2925],[-9.556444,53.292466],[-9.556455,53.2924],[-9.556463,53.292323],[-9.556524,53.292267],[-9.556588,53.29225],[-9.556592,53.29219],[-9.556683,53.292064],[-9.556711,53.292022],[-9.556654,53.291969],[-9.556667,53.291941],[-9.556666,53.291901],[-9.556669,53.291854],[-9.556664,53.291777],[-9.556648,53.291703],[-9.556643,53.291644],[-9.556611,53.29158],[-9.556515,53.291485],[-9.556485,53.291444],[-9.556446,53.291394],[-9.556404,53.29136],[-9.556392,53.291297],[-9.556389,53.29124],[-9.556364,53.291214],[-9.556326,53.291184],[-9.556307,53.29116],[-9.556312,53.291131],[-9.556321,53.291099],[-9.556314,53.291081],[-9.556279,53.291055],[-9.556279,53.291032],[-9.556332,53.290948],[-9.556395,53.290908],[-9.556423,53.29088],[-9.556502,53.290863],[-9.556503,53.290826],[-9.556439,53.290757],[-9.555953,53.290973],[-9.555905,53.290996],[-9.55587,53.29101],[-9.555365,53.291251],[-9.555211,53.291327],[-9.55484,53.291511],[-9.554771,53.291542],[-9.554617,53.291608],[-9.553862,53.291936],[-9.553711,53.292001],[-9.553051,53.292282],[-9.55271,53.292441],[-9.552529,53.292831],[-9.552044,53.293779],[-9.551782,53.294601],[-9.551742,53.294812],[-9.55181,53.294808],[-9.551875,53.294802],[-9.551933,53.294803],[-9.552002,53.294805],[-9.552081,53.2948],[-9.552119,53.294786],[-9.552138,53.294774],[-9.552117,53.29476],[-9.552069,53.294743],[-9.552012,53.294742],[-9.551986,53.294738],[-9.551974,53.294714],[-9.55201,53.294698],[-9.552058,53.294683],[-9.552069,53.294677],[-9.552094,53.294669],[-9.552113,53.294654],[-9.552147,53.294667],[-9.552145,53.294703],[-9.55219,53.294725],[-9.552194,53.294749],[-9.552257,53.294747],[-9.55232,53.294742],[-9.552367,53.294735],[-9.552382,53.294724],[-9.552396,53.294715],[-9.552416,53.294708],[-9.552429,53.294728],[-9.552465,53.294737],[-9.552546,53.294732],[-9.552575,53.294724],[-9.552571,53.294707],[-9.552584,53.294694],[-9.552617,53.294704],[-9.552634,53.29472],[-9.552642,53.294736],[-9.552671,53.294739],[-9.552693,53.294729],[-9.55271,53.294741],[-9.552713,53.294771],[-9.552723,53.294791],[-9.552751,53.294807],[-9.552764,53.294817],[-9.552818,53.294805],[-9.552821,53.294817],[-9.552784,53.294831],[-9.552776,53.294838],[-9.552782,53.294861],[-9.552807,53.294883],[-9.55284,53.294904],[-9.552862,53.294937],[-9.552903,53.29502],[-9.552919,53.295067],[-9.553168,53.295243],[-9.553412,53.295383],[-9.553495,53.295401],[-9.553529,53.295418],[-9.553543,53.295433],[-9.553614,53.295443],[-9.553748,53.295522],[-9.553849,53.295635],[-9.553867,53.295655],[-9.554165,53.296117],[-9.5546,53.29667],[-9.554813,53.296974],[-9.555278,53.297097],[-9.555442,53.297159],[-9.555529,53.297239],[-9.555567,53.29743],[-9.555551,53.297483],[-9.555538,53.297527],[-9.555464,53.297781],[-9.555461,53.29779],[-9.555448,53.297825],[-9.555475,53.297908],[-9.555477,53.297907],[-9.555491,53.29787],[-9.555499,53.297847],[-9.555504,53.297832],[-9.55556,53.297737],[-9.555528,53.297656],[-9.555525,53.297597],[-9.555535,53.297582],[-9.555543,53.297557],[-9.555541,53.297527],[-9.555583,53.297516],[-9.555608,53.297756],[-9.555567,53.297844],[-9.555553,53.297875],[-9.555545,53.297898],[-9.555506,53.298007],[-9.555506,53.298007],[-9.555503,53.298098],[-9.555535,53.298147],[-9.555573,53.298225],[-9.555901,53.298592],[-9.556208,53.298673],[-9.556404,53.29885],[-9.556588,53.299018],[-9.556706,53.299026],[-9.556849,53.298947],[-9.557094,53.298827],[-9.557443,53.298726],[-9.557512,53.298692],[-9.557511,53.298689],[-9.557517,53.298689],[-9.557517,53.298689],[-9.55759,53.298652],[-9.557789,53.29856],[-9.558016,53.298505],[-9.55838,53.298484],[-9.558646,53.298433],[-9.55877,53.298354],[-9.558987,53.298218],[-9.559104,53.298197],[-9.559199,53.298155],[-9.559162,53.298103],[-9.559184,53.298065],[-9.559231,53.298051],[-9.559265,53.298068],[-9.559265,53.298068],[-9.559265,53.298068],[-9.559303,53.298053],[-9.559279,53.298022],[-9.559304,53.297991],[-9.559303,53.297941],[-9.559303,53.297941],[-9.559303,53.297941],[-9.559314,53.297922],[-9.559847,53.29789],[-9.559859,53.297875],[-9.559898,53.297841],[-9.559898,53.297841],[-9.559898,53.297841],[-9.559942,53.297829],[-9.560194,53.297441],[-9.560347,53.297289],[-9.560644,53.297214],[-9.560915,53.297209],[-9.560916,53.297195],[-9.561094,53.297033],[-9.561143,53.296998],[-9.561149,53.296969],[-9.561175,53.296966],[-9.561235,53.296989],[-9.561326,53.296988],[-9.561461,53.29699],[-9.561527,53.296976],[-9.561557,53.296948],[-9.561588,53.296896],[-9.561595,53.296828],[-9.561609,53.296743],[-9.561627,53.296696],[-9.561666,53.296695],[-9.561703,53.296667],[-9.561752,53.296663],[-9.5619,53.296663],[-9.561983,53.29667],[-9.562031,53.296725],[-9.562044,53.296767],[-9.562008,53.296789],[-9.561861,53.2968],[-9.561848,53.296817],[-9.561866,53.296882],[-9.561871,53.296947],[-9.561888,53.296981],[-9.561926,53.297004],[-9.561981,53.297015],[-9.562093,53.297006],[-9.562167,53.296988],[-9.56241,53.297024],[-9.56246,53.297059],[-9.562486,53.297097],[-9.562491,53.297159],[-9.562511,53.297206],[-9.562546,53.297234],[-9.562556,53.297242],[-9.562641,53.297259],[-9.562726,53.297267],[-9.5628,53.29726],[-9.562813,53.297259],[-9.562861,53.297259],[-9.562873,53.297263],[-9.562883,53.297267],[-9.562884,53.297278],[-9.562891,53.297289],[-9.562936,53.297295],[-9.562952,53.297292],[-9.562949,53.297283],[-9.562932,53.297268],[-9.562934,53.297265],[-9.562938,53.29726],[-9.562985,53.297253],[-9.563146,53.297242],[-9.56324,53.297228],[-9.563287,53.297206],[-9.563332,53.297195],[-9.563385,53.297196],[-9.563439,53.297207],[-9.563506,53.297218],[-9.563561,53.297229],[-9.563559,53.297253],[-9.563593,53.297233],[-9.5636,53.297203],[-9.563578,53.29716],[-9.563585,53.297145],[-9.563671,53.297069],[-9.563714,53.297008],[-9.563732,53.296995],[-9.563824,53.296985],[-9.563966,53.296972],[-9.564069,53.29695],[-9.564215,53.296911],[-9.564258,53.296883],[-9.564336,53.296819],[-9.564533,53.296738],[-9.564621,53.296692],[-9.564644,53.296651],[-9.564672,53.296551],[-9.564688,53.296509],[-9.564734,53.296484],[-9.564981,53.296466],[-9.565135,53.296464],[-9.565314,53.29646],[-9.565431,53.296455],[-9.565528,53.296442],[-9.565666,53.296417],[-9.565968,53.296433],[-9.566231,53.296454],[-9.566253,53.296437],[-9.566788,53.29606],[-9.567015,53.295903],[-9.567056,53.295884],[-9.567124,53.295852],[-9.567176,53.295816],[-9.567651,53.295495],[-9.568031,53.295244],[-9.568378,53.295021],[-9.568618,53.294862],[-9.568752,53.294793],[-9.568775,53.294776],[-9.569066,53.294599],[-9.569561,53.294297],[-9.569936,53.294076],[-9.570129,53.293961],[-9.570314,53.293854],[-9.570434,53.293785],[-9.570798,53.293567],[-9.57082,53.293554],[-9.571158,53.293349],[-9.571564,53.29314],[-9.572063,53.292893],[-9.57245,53.292708],[-9.573149,53.292363],[-9.573505,53.292179],[-9.57358,53.292158],[-9.573825,53.292124],[-9.574944,53.291976],[-9.57506,53.291961],[-9.576471,53.291788],[-9.576905,53.291744],[-9.577237,53.291703],[-9.577371,53.29168],[-9.57747,53.29165],[-9.577598,53.2916],[-9.577652,53.291581],[-9.57782,53.291548],[-9.577813,53.29154],[-9.577765,53.2915],[-9.577735,53.291463],[-9.577738,53.291434],[-9.577761,53.29141],[-9.577789,53.29141],[-9.577825,53.291419],[-9.577852,53.291427],[-9.577897,53.291446],[-9.57792,53.29144],[-9.577918,53.291424],[-9.577901,53.291407],[-9.577877,53.291393],[-9.577862,53.291373],[-9.577825,53.291369],[-9.577812,53.291347],[-9.577866,53.291338],[-9.577923,53.291322],[-9.57794,53.291292],[-9.577957,53.291258],[-9.577956,53.29124],[-9.577937,53.291212],[-9.577873,53.29115],[-9.577843,53.291111],[-9.57784,53.291081],[-9.577855,53.291055],[-9.57789,53.291038],[-9.5779,53.291013],[-9.577896,53.290977],[-9.577907,53.290922],[-9.577908,53.290904],[-9.577902,53.290886],[-9.577872,53.290883],[-9.577852,53.290891],[-9.577796,53.290887],[-9.577743,53.290878],[-9.577735,53.290828],[-9.577758,53.290824],[-9.577785,53.290808],[-9.57782,53.290784],[-9.577835,53.290763],[-9.57778,53.290733],[-9.57779,53.290709],[-9.577879,53.290694],[-9.577964,53.2907],[-9.578017,53.290687],[-9.578058,53.290694],[-9.578106,53.290677],[-9.578151,53.290652],[-9.578235,53.290582],[-9.578292,53.290554],[-9.578333,53.290559],[-9.578394,53.290572],[-9.57841,53.290574],[-9.578386,53.290508],[-9.578366,53.290486],[-9.578376,53.290469],[-9.578414,53.290474],[-9.578435,53.290464],[-9.578423,53.29044],[-9.578424,53.290414],[-9.578457,53.290425],[-9.578493,53.290428],[-9.578512,53.290409],[-9.578619,53.290386],[-9.578657,53.290369],[-9.578682,53.290379],[-9.578709,53.290402],[-9.578718,53.290429],[-9.578716,53.290471],[-9.578716,53.290503],[-9.578752,53.29052],[-9.578756,53.290523],[-9.578817,53.290532],[-9.578879,53.290546],[-9.578911,53.290563],[-9.578923,53.290535],[-9.578918,53.290512],[-9.578947,53.290476],[-9.579037,53.290499],[-9.579034,53.290521],[-9.579024,53.290545],[-9.579067,53.290561],[-9.579069,53.290578],[-9.579079,53.290573],[-9.579091,53.290547],[-9.579107,53.290537],[-9.579123,53.290556],[-9.579134,53.29058],[-9.579154,53.290594],[-9.579167,53.290575],[-9.579155,53.290557],[-9.579127,53.290523],[-9.579159,53.2905],[-9.579175,53.29048],[-9.579247,53.290486],[-9.579301,53.290487],[-9.579338,53.290483],[-9.579406,53.290474],[-9.579453,53.290466],[-9.579532,53.290477],[-9.579569,53.290491],[-9.579559,53.29051],[-9.579565,53.290528],[-9.579625,53.290555],[-9.579646,53.290506],[-9.579719,53.290465],[-9.579786,53.290457],[-9.579788,53.290483],[-9.579837,53.290504],[-9.579897,53.290537],[-9.579895,53.29055],[-9.579927,53.29057],[-9.579993,53.290576],[-9.580011,53.29061],[-9.580012,53.290621],[-9.580046,53.290618],[-9.580068,53.29059],[-9.580122,53.290581],[-9.580205,53.290575],[-9.580286,53.290578],[-9.580372,53.290589],[-9.580395,53.290593],[-9.580378,53.290565],[-9.580367,53.29054],[-9.580379,53.29046],[-9.580409,53.290455],[-9.58044,53.290451],[-9.580465,53.290461],[-9.580487,53.290456],[-9.5805,53.290438],[-9.580515,53.290411],[-9.580506,53.290401],[-9.580484,53.290409],[-9.580449,53.290425],[-9.580413,53.290418],[-9.580397,53.290408],[-9.58038,53.290391],[-9.580375,53.290371],[-9.58038,53.290351],[-9.580374,53.290319],[-9.580384,53.290309],[-9.580398,53.290298],[-9.580403,53.29028],[-9.580379,53.290259],[-9.58037,53.290236],[-9.580359,53.290201],[-9.580325,53.290168],[-9.580304,53.290162],[-9.580286,53.290107],[-9.580326,53.290092],[-9.580349,53.290064],[-9.580356,53.290009],[-9.580307,53.289937],[-9.580268,53.289875],[-9.580277,53.289824],[-9.580324,53.289761],[-9.580376,53.289738],[-9.580371,53.289704],[-9.58037,53.289664],[-9.580385,53.289614],[-9.580389,53.289609],[-9.58032,53.289579],[-9.580203,53.289559],[-9.580006,53.289589],[-9.579829,53.289668],[-9.579618,53.2897],[-9.579341,53.289733],[-9.579166,53.289757],[-9.579023,53.289764],[-9.578942,53.289749],[-9.578186,53.289556],[-9.577664,53.289438],[-9.577123,53.289319],[-9.577076,53.28931],[-9.577268,53.288948],[-9.577419,53.288692],[-9.57758,53.28841],[-9.57775,53.288116],[-9.577912,53.287865],[-9.578034,53.287669],[-9.578042,53.287616],[-9.578059,53.28751],[-9.578083,53.287329],[-9.578116,53.287207],[-9.578165,53.28706],[-9.57818,53.287059],[-9.578253,53.287056],[-9.578452,53.287003],[-9.578668,53.286915],[-9.578787,53.286855],[-9.578837,53.286813],[-9.578846,53.286769],[-9.578848,53.286512],[-9.578848,53.286449],[-9.578849,53.286382],[-9.578844,53.286281],[-9.578855,53.286246],[-9.578876,53.286205],[-9.578993,53.286118],[-9.579173,53.285989],[-9.579252,53.285928],[-9.579272,53.285883],[-9.579303,53.285744],[-9.579308,53.285566],[-9.579307,53.285475],[-9.579326,53.285402],[-9.579372,53.285344],[-9.579461,53.285273],[-9.579525,53.285206],[-9.579555,53.285125],[-9.579641,53.283845],[-9.579712,53.282336],[-9.579901,53.281896],[-9.580299,53.280823],[-9.580498,53.280303],[-9.580493,53.280303],[-9.580439,53.280309],[-9.579956,53.280336],[-9.579056,53.28042],[-9.578405,53.280501],[-9.578055,53.280553],[-9.577719,53.280591],[-9.577652,53.2806],[-9.577654,53.280695],[-9.577633,53.280749],[-9.577547,53.280917],[-9.577534,53.280937],[-9.577469,53.281035],[-9.577383,53.281143],[-9.577364,53.281195],[-9.577335,53.281212],[-9.577303,53.281246],[-9.577308,53.281267],[-9.57728,53.281299],[-9.577131,53.281654],[-9.576634,53.281569],[-9.576338,53.281518],[-9.576329,53.281565],[-9.576388,53.281652],[-9.576454,53.281699],[-9.576482,53.281748],[-9.576462,53.281775],[-9.576427,53.281804],[-9.576369,53.281813],[-9.576119,53.281817],[-9.575977,53.28161],[-9.57597,53.281609],[-9.57591,53.281579],[-9.575817,53.281492],[-9.575756,53.281401],[-9.575722,53.281357],[-9.575035,53.281366],[-9.575134,53.284061],[-9.573636,53.284081],[-9.573612,53.283445],[-9.573586,53.283455],[-9.573464,53.283495],[-9.573386,53.283498],[-9.573259,53.283259],[-9.573184,53.283119],[-9.573096,53.283119],[-9.573032,53.283108],[-9.572961,53.283093],[-9.572822,53.283061],[-9.572791,53.283048],[-9.572752,53.283039],[-9.572687,53.283025],[-9.572673,53.283023],[-9.57265,53.28302],[-9.572568,53.283008],[-9.572517,53.283004],[-9.572482,53.283021],[-9.572476,53.283038],[-9.572477,53.283075],[-9.572444,53.283137],[-9.572415,53.283161],[-9.572325,53.283203],[-9.572252,53.283243],[-9.57219,53.283263],[-9.572107,53.283294],[-9.57217,53.284999],[-9.570671,53.285018],[-9.570704,53.285917],[-9.569205,53.285936],[-9.569208,53.286024],[-9.569212,53.286031],[-9.56924,53.286044],[-9.569256,53.286056],[-9.569283,53.286084],[-9.569372,53.286105],[-9.569387,53.286112],[-9.569411,53.286117],[-9.569438,53.286122],[-9.569468,53.286133],[-9.569487,53.286148],[-9.569521,53.286162],[-9.569571,53.286245],[-9.569603,53.286256],[-9.569631,53.286259],[-9.569658,53.286269],[-9.569751,53.286271],[-9.569805,53.286293],[-9.569848,53.286323],[-9.569877,53.286348],[-9.569904,53.286387],[-9.569899,53.28641],[-9.5699,53.286427],[-9.569942,53.286521],[-9.569925,53.28655],[-9.569879,53.286594],[-9.569833,53.286613],[-9.569786,53.286626],[-9.569821,53.2867],[-9.569913,53.286819],[-9.569959,53.286883],[-9.569917,53.286901],[-9.569847,53.286922],[-9.569753,53.286959],[-9.569694,53.28698],[-9.569273,53.28708],[-9.569329,53.287156],[-9.569345,53.287189],[-9.569397,53.287279],[-9.569371,53.287306],[-9.56927,53.287304],[-9.569255,53.287304],[-9.569337,53.289529],[-9.567838,53.289549],[-9.567904,53.291345],[-9.566405,53.291365],[-9.566438,53.292263],[-9.565857,53.29227],[-9.566053,53.292397],[-9.566416,53.292602],[-9.566408,53.292363],[-9.566858,53.292357],[-9.566848,53.292087],[-9.567297,53.292082],[-9.567288,53.291812],[-9.567737,53.291806],[-9.567747,53.292057],[-9.567786,53.292049],[-9.568073,53.292005],[-9.568255,53.29197],[-9.568499,53.291946],[-9.568682,53.291934],[-9.568845,53.291925],[-9.569088,53.291923],[-9.569163,53.291925],[-9.569188,53.291929],[-9.569192,53.291931],[-9.569217,53.291946],[-9.56928,53.291971],[-9.569325,53.291993],[-9.569369,53.292038],[-9.569414,53.292094],[-9.569428,53.292122],[-9.569432,53.292165],[-9.569421,53.292191],[-9.569374,53.292269],[-9.56922,53.292549],[-9.569196,53.292587]],[[-9.568637,53.291794],[-9.567737,53.291806],[-9.567728,53.291537],[-9.568177,53.291531],[-9.568167,53.291261],[-9.568617,53.291255],[-9.568607,53.290986],[-9.569057,53.29098],[-9.569067,53.291249],[-9.569077,53.291519],[-9.568627,53.291525],[-9.568637,53.291794]],[[-9.569507,53.290974],[-9.569057,53.29098],[-9.569047,53.29071],[-9.569497,53.290704],[-9.569507,53.290974]],[[-9.569947,53.290698],[-9.569497,53.290704],[-9.569487,53.290435],[-9.569937,53.290429],[-9.569947,53.290698]],[[-9.570379,53.287041],[-9.570387,53.287024],[-9.570388,53.287004],[-9.570388,53.286984],[-9.570396,53.286941],[-9.570399,53.28693],[-9.570407,53.28692],[-9.570421,53.286912],[-9.570438,53.286907],[-9.570456,53.286906],[-9.570473,53.286906],[-9.570483,53.286903],[-9.57053,53.286877],[-9.570577,53.286849],[-9.570605,53.286835],[-9.570637,53.286823],[-9.570667,53.286816],[-9.570699,53.286814],[-9.570719,53.286816],[-9.570754,53.286825],[-9.570787,53.286837],[-9.570817,53.28685],[-9.570842,53.286865],[-9.570854,53.286888],[-9.570864,53.286897],[-9.570876,53.286904],[-9.570933,53.286925],[-9.570967,53.286948],[-9.570994,53.286974],[-9.571011,53.287002],[-9.571024,53.28703],[-9.571032,53.287058],[-9.571036,53.287085],[-9.571035,53.287097],[-9.571021,53.287134],[-9.571021,53.28715],[-9.571041,53.287193],[-9.571045,53.287207],[-9.571045,53.287216],[-9.571032,53.287246],[-9.571016,53.287275],[-9.571008,53.287294],[-9.571001,53.287312],[-9.571,53.287325],[-9.571004,53.287337],[-9.571017,53.287362],[-9.571021,53.287379],[-9.571023,53.287433],[-9.571026,53.287469],[-9.571029,53.287482],[-9.571035,53.287494],[-9.571055,53.287516],[-9.571105,53.287556],[-9.571171,53.287606],[-9.571193,53.287625],[-9.571205,53.287639],[-9.571227,53.28768],[-9.571232,53.287694],[-9.571238,53.287706],[-9.571242,53.28775],[-9.571224,53.287835],[-9.571219,53.287903],[-9.571266,53.288024],[-9.571218,53.288075],[-9.571165,53.288169],[-9.57109,53.288251],[-9.571083,53.288302],[-9.571115,53.288341],[-9.571202,53.288399],[-9.571228,53.288442],[-9.571223,53.288505],[-9.571205,53.288582],[-9.571204,53.288607],[-9.571194,53.28865],[-9.57118,53.28868],[-9.571178,53.288707],[-9.571183,53.288738],[-9.57117,53.288801],[-9.5711,53.288884],[-9.570989,53.288969],[-9.570963,53.289047],[-9.570945,53.289151],[-9.57089,53.289244],[-9.570799,53.289328],[-9.570709,53.289389],[-9.570724,53.289495],[-9.570612,53.289493],[-9.570598,53.28941],[-9.570588,53.289406],[-9.570557,53.289408],[-9.570521,53.289403],[-9.570498,53.289395],[-9.570385,53.289432],[-9.570357,53.28951],[-9.570289,53.289524],[-9.570209,53.289513],[-9.570185,53.289455],[-9.570151,53.289447],[-9.5701,53.289426],[-9.570021,53.289378],[-9.569958,53.289324],[-9.569939,53.289301],[-9.569944,53.289287],[-9.569982,53.289194],[-9.570008,53.289122],[-9.570018,53.289059],[-9.569997,53.288994],[-9.569979,53.288924],[-9.569988,53.288832],[-9.570026,53.288736],[-9.570038,53.288674],[-9.570015,53.288612],[-9.569997,53.288572],[-9.570009,53.288539],[-9.570036,53.288504],[-9.570095,53.288453],[-9.570121,53.288413],[-9.570134,53.288358],[-9.570176,53.288293],[-9.570203,53.288239],[-9.57019,53.288199],[-9.570158,53.288159],[-9.57014,53.288114],[-9.570093,53.288066],[-9.570077,53.288002],[-9.570072,53.287949],[-9.570101,53.287884],[-9.5701,53.287851],[-9.570082,53.287817],[-9.570079,53.287778],[-9.570115,53.287721],[-9.570144,53.287709],[-9.570167,53.287701],[-9.570178,53.287689],[-9.570169,53.287676],[-9.570165,53.287655],[-9.570154,53.287627],[-9.570151,53.287617],[-9.57015,53.287607],[-9.570165,53.28759],[-9.570165,53.287582],[-9.570158,53.287574],[-9.570139,53.28757],[-9.57012,53.287567],[-9.570098,53.287561],[-9.570077,53.287554],[-9.570064,53.287548],[-9.570016,53.287517],[-9.56995,53.287482],[-9.569927,53.287468],[-9.569908,53.287452],[-9.569904,53.287444],[-9.569904,53.287436],[-9.569908,53.287419],[-9.569918,53.287398],[-9.569941,53.28736],[-9.569941,53.287356],[-9.569929,53.287342],[-9.569927,53.287336],[-9.569934,53.287324],[-9.569946,53.287312],[-9.569956,53.287307],[-9.569992,53.287297],[-9.570004,53.28729],[-9.570012,53.287278],[-9.570017,53.287252],[-9.570022,53.287244],[-9.570033,53.287236],[-9.570076,53.287219],[-9.570105,53.287208],[-9.570167,53.287195],[-9.570183,53.287188],[-9.570268,53.287112],[-9.57028,53.287105],[-9.570323,53.287086],[-9.570344,53.287073],[-9.570364,53.287057],[-9.570379,53.287041]],[[-9.575933,53.289637],[-9.575991,53.289495],[-9.576025,53.289419],[-9.575987,53.289386],[-9.575881,53.289281],[-9.575811,53.289234],[-9.575737,53.289198],[-9.575723,53.289111],[-9.575781,53.289029],[-9.575955,53.288909],[-9.576086,53.288879],[-9.576252,53.288957],[-9.576453,53.289042],[-9.576527,53.289102],[-9.576565,53.289201],[-9.576566,53.289297],[-9.576529,53.289359],[-9.576774,53.289621],[-9.576753,53.289837],[-9.576747,53.28984],[-9.576687,53.289874],[-9.576676,53.289915],[-9.576656,53.289949],[-9.576673,53.28997],[-9.576672,53.29],[-9.576597,53.290086],[-9.576581,53.290134],[-9.576567,53.290201],[-9.576562,53.290255],[-9.576563,53.290303],[-9.576537,53.290358],[-9.576504,53.290397],[-9.576374,53.290408],[-9.576282,53.290411],[-9.576232,53.290384],[-9.576221,53.29033],[-9.576199,53.290291],[-9.576154,53.290249],[-9.57612,53.290226],[-9.576089,53.29022],[-9.576069,53.290197],[-9.576022,53.290187],[-9.57596,53.290192],[-9.575901,53.290206],[-9.575813,53.290228],[-9.575651,53.290301],[-9.575573,53.290333],[-9.575516,53.290349],[-9.575462,53.290354],[-9.575408,53.290348],[-9.575371,53.290329],[-9.575359,53.290295],[-9.575375,53.290259],[-9.575436,53.290205],[-9.575547,53.290121],[-9.575718,53.290064],[-9.575901,53.28997],[-9.575954,53.289904],[-9.576004,53.289799],[-9.575936,53.289674],[-9.575933,53.289637]],[[-9.571697,53.289327],[-9.571687,53.289058],[-9.572136,53.289052],[-9.572146,53.289321],[-9.571697,53.289327]]],[[[-9.567558,53.292096],[-9.567648,53.292077],[-9.567297,53.292082],[-9.5673,53.292154],[-9.567349,53.292133],[-9.567385,53.292124],[-9.567533,53.2921],[-9.567558,53.292096]]],[[[-9.566951,53.292424],[-9.567002,53.292355],[-9.566858,53.292357],[-9.566862,53.292485],[-9.566886,53.292469],[-9.566951,53.292424]]],[[[-9.566519,53.292637],[-9.566529,53.292631],[-9.56647,53.292632],[-9.566487,53.292641],[-9.566519,53.292637]]],[[[-9.576697,53.280543],[-9.576569,53.280553],[-9.576505,53.28057],[-9.576511,53.280725],[-9.576677,53.280734],[-9.57684,53.280588],[-9.576875,53.280538],[-9.576832,53.280535],[-9.576697,53.280543]]]]}}]}
