{"type":"FeatureCollection","features":[{"type":"Feature","properties":{"source_fid":958058,"county":"Donegal","bog_geom_ha":951.1666625156364,"low15_pct":63.942171406973443,"low15_ha":608.19661771173685,"overlay_ha":608.6859322664618,"area_delta":0.489314554724956},"geometry":{"type":"MultiPolygon","coordinates":[[[[-8.156536,55.062549],[-8.156367,55.06267],[-8.156065,55.062896],[-8.155927,55.062978],[-8.155806,55.063056],[-8.155641,55.063162],[-8.155559,55.063258],[-8.155313,55.063503],[-8.155004,55.063845],[-8.154657,55.064205],[-8.154418,55.064461],[-8.154324,55.06456],[-8.154289,55.064546],[-8.154173,55.064538],[-8.15414,55.064529],[-8.153979,55.064584],[-8.153853,55.064628],[-8.153781,55.064635],[-8.153683,55.064636],[-8.153562,55.064665],[-8.153526,55.064679],[-8.15351,55.064709],[-8.153483,55.064739],[-8.15342,55.064766],[-8.153368,55.064772],[-8.15331,55.064774],[-8.153271,55.064778],[-8.152867,55.065054],[-8.152492,55.065292],[-8.152263,55.065432],[-8.151952,55.065598],[-8.151936,55.065816],[-8.151829,55.066296],[-8.151741,55.066645],[-8.151675,55.067127],[-8.151646,55.06734],[-8.151637,55.067387],[-8.15161,55.067539],[-8.151583,55.067635],[-8.151569,55.067685],[-8.151509,55.068092],[-8.151471,55.06832],[-8.151464,55.068361],[-8.151459,55.068395],[-8.151436,55.068523],[-8.151358,55.06901],[-8.151307,55.069331],[-8.151206,55.069797],[-8.151125,55.070315],[-8.151082,55.070603],[-8.151087,55.070833],[-8.151137,55.071155],[-8.151217,55.071444],[-8.151223,55.071464],[-8.151599,55.071434],[-8.15193,55.07138],[-8.152227,55.071318],[-8.152661,55.071213],[-8.152767,55.071211],[-8.153096,55.071241],[-8.153376,55.071269],[-8.153869,55.071258],[-8.154065,55.071246],[-8.154065,55.071199],[-8.154436,55.071199],[-8.154463,55.071123],[-8.15496,55.0711],[-8.155004,55.071097],[-8.155003,55.070928],[-8.155943,55.070927],[-8.155942,55.070658],[-8.156411,55.070657],[-8.15641,55.070388],[-8.157819,55.070386],[-8.157818,55.070116],[-8.158758,55.070115],[-8.158759,55.070384],[-8.159228,55.070384],[-8.159229,55.070653],[-8.159699,55.070653],[-8.1597,55.070922],[-8.159701,55.071192],[-8.159702,55.071461],[-8.159703,55.071731],[-8.158764,55.071732],[-8.158765,55.072002],[-8.158766,55.072271],[-8.158296,55.072272],[-8.158297,55.072541],[-8.157828,55.072542],[-8.157829,55.072811],[-8.158768,55.07281],[-8.158767,55.072541],[-8.159237,55.07254],[-8.159238,55.07281],[-8.160647,55.072808],[-8.160645,55.072269],[-8.161115,55.072268],[-8.161114,55.071999],[-8.161583,55.071998],[-8.16158,55.071189],[-8.16205,55.071189],[-8.162049,55.070919],[-8.162988,55.070918],[-8.162989,55.071187],[-8.162993,55.071996],[-8.162523,55.071997],[-8.162524,55.072266],[-8.162526,55.072805],[-8.162527,55.073075],[-8.162057,55.073075],[-8.162059,55.073345],[-8.161589,55.073346],[-8.16159,55.073615],[-8.159241,55.073618],[-8.159242,55.073888],[-8.158773,55.073888],[-8.158771,55.073619],[-8.156893,55.073621],[-8.156894,55.073891],[-8.156424,55.073891],[-8.156425,55.074161],[-8.156426,55.07443],[-8.156427,55.0747],[-8.157836,55.074698],[-8.157838,55.075196],[-8.158519,55.075272],[-8.158587,55.075158],[-8.158636,55.075048],[-8.158732,55.07499],[-8.158821,55.074967],[-8.158943,55.074911],[-8.159193,55.074777],[-8.159444,55.07469],[-8.15966,55.074703],[-8.159748,55.074742],[-8.159885,55.074821],[-8.159951,55.074827],[-8.160042,55.074779],[-8.160102,55.074768],[-8.16017,55.07466],[-8.160242,55.074576],[-8.160325,55.074524],[-8.160371,55.074471],[-8.160474,55.074292],[-8.16069,55.074087],[-8.160781,55.074023],[-8.160867,55.07399],[-8.160954,55.073925],[-8.161165,55.074088],[-8.161004,55.074568],[-8.161029,55.075292],[-8.160983,55.075421],[-8.160942,55.07555],[-8.160858,55.075772],[-8.161129,55.075772],[-8.16113,55.076041],[-8.161133,55.07685],[-8.160663,55.076851],[-8.160664,55.07712],[-8.160195,55.077121],[-8.160196,55.07739],[-8.159726,55.077391],[-8.159727,55.077661],[-8.159257,55.077661],[-8.159258,55.077931],[-8.159259,55.0782],[-8.15879,55.078201],[-8.158791,55.07847],[-8.158792,55.07874],[-8.158793,55.079009],[-8.158323,55.07901],[-8.158324,55.07928],[-8.158325,55.079549],[-8.157855,55.07955],[-8.157857,55.080089],[-8.158327,55.080088],[-8.158328,55.080358],[-8.158329,55.080627],[-8.15786,55.080628],[-8.157861,55.080897],[-8.157391,55.080898],[-8.157392,55.081167],[-8.157393,55.081437],[-8.156453,55.081438],[-8.156454,55.081708],[-8.156039,55.081708],[-8.155986,55.082622],[-8.155935,55.083435],[-8.155915,55.083656],[-8.155802,55.083862],[-8.155648,55.084078],[-8.155441,55.08445],[-8.155275,55.084706],[-8.155167,55.084696],[-8.155123,55.084716],[-8.155456,55.084816],[-8.155645,55.084916],[-8.155817,55.084962],[-8.155925,55.084972],[-8.155542,55.085285],[-8.155463,55.085332],[-8.155165,55.085417],[-8.15471,55.085549],[-8.154464,55.085581],[-8.154301,55.085601],[-8.154305,55.086612],[-8.152739,55.086614],[-8.152742,55.087513],[-8.152718,55.087513],[-8.152718,55.087642],[-8.152289,55.087643],[-8.152298,55.087682],[-8.152325,55.087778],[-8.152365,55.087773],[-8.152369,55.087794],[-8.152397,55.08799],[-8.15238,55.088408],[-8.152365,55.088721],[-8.152722,55.08872],[-8.152723,55.08899],[-8.152724,55.089259],[-8.152725,55.089529],[-8.152353,55.089529],[-8.152357,55.089951],[-8.152356,55.090174],[-8.152353,55.090869],[-8.152353,55.090877],[-8.152731,55.090876],[-8.152732,55.091146],[-8.152756,55.091146],[-8.152756,55.091106],[-8.155888,55.091102],[-8.155892,55.092],[-8.154326,55.092002],[-8.154329,55.092761],[-8.154618,55.092761],[-8.154619,55.09303],[-8.15433,55.093031],[-8.154332,55.09357],[-8.155091,55.093569],[-8.155092,55.093838],[-8.154622,55.093839],[-8.154623,55.094108],[-8.154624,55.094378],[-8.154335,55.094378],[-8.154336,55.094697],[-8.155565,55.094695],[-8.155565,55.094646],[-8.155902,55.094646],[-8.155899,55.093796],[-8.156502,55.093796],[-8.156501,55.093567],[-8.156971,55.093566],[-8.15697,55.093297],[-8.15744,55.093296],[-8.157441,55.093566],[-8.157911,55.093565],[-8.157912,55.093835],[-8.157465,55.093835],[-8.157469,55.094693],[-8.156035,55.094694],[-8.156036,55.094915],[-8.155903,55.094915],[-8.155906,55.095593],[-8.156039,55.095593],[-8.156037,55.095185],[-8.157917,55.095182],[-8.157916,55.094913],[-8.158386,55.094912],[-8.158385,55.094643],[-8.158855,55.094642],[-8.158854,55.094373],[-8.158853,55.094103],[-8.15885,55.093564],[-8.158849,55.093294],[-8.158379,55.093295],[-8.158378,55.093025],[-8.158848,55.093025],[-8.158847,55.092755],[-8.159027,55.092755],[-8.159024,55.091996],[-8.159784,55.091995],[-8.159782,55.091406],[-8.160722,55.091405],[-8.160725,55.092214],[-8.161195,55.092213],[-8.161197,55.092752],[-8.161198,55.093022],[-8.161199,55.093291],[-8.1612,55.093561],[-8.16167,55.09356],[-8.161669,55.093291],[-8.162139,55.09329],[-8.162136,55.092481],[-8.161666,55.092482],[-8.161664,55.091943],[-8.161663,55.091674],[-8.162133,55.091673],[-8.162129,55.090864],[-8.163069,55.090863],[-8.163066,55.090054],[-8.162596,55.090055],[-8.162591,55.088707],[-8.16306,55.088707],[-8.163055,55.087359],[-8.163995,55.087358],[-8.164,55.088706],[-8.164006,55.090053],[-8.164009,55.090862],[-8.164012,55.09167],[-8.164014,55.09194],[-8.163544,55.091941],[-8.163546,55.09248],[-8.163549,55.093288],[-8.16355,55.093558],[-8.16308,55.093558],[-8.163082,55.094097],[-8.162612,55.094098],[-8.162614,55.094368],[-8.163084,55.094367],[-8.163085,55.094636],[-8.163555,55.094636],[-8.163553,55.094366],[-8.163552,55.094097],[-8.164022,55.094096],[-8.164021,55.093827],[-8.165431,55.093825],[-8.165432,55.094094],[-8.165433,55.094364],[-8.165903,55.094363],[-8.165902,55.094094],[-8.166372,55.094093],[-8.166371,55.093823],[-8.166841,55.093823],[-8.166839,55.093284],[-8.166838,55.093014],[-8.166368,55.093015],[-8.166367,55.092745],[-8.166366,55.092476],[-8.166363,55.091937],[-8.166362,55.091667],[-8.166361,55.091398],[-8.166831,55.091397],[-8.16683,55.091128],[-8.166828,55.090588],[-8.167298,55.090588],[-8.167296,55.090318],[-8.167766,55.090318],[-8.167765,55.090048],[-8.168235,55.090047],[-8.168236,55.090317],[-8.168237,55.090587],[-8.167768,55.090587],[-8.16777,55.091126],[-8.1673,55.091127],[-8.167301,55.091396],[-8.167302,55.091666],[-8.166832,55.091667],[-8.166833,55.091936],[-8.167303,55.091935],[-8.167305,55.092474],[-8.167775,55.092474],[-8.167777,55.092743],[-8.168246,55.092743],[-8.168248,55.093012],[-8.168718,55.093012],[-8.168719,55.093281],[-8.169189,55.09328],[-8.169191,55.09382],[-8.169192,55.094089],[-8.168722,55.09409],[-8.168723,55.094359],[-8.168253,55.09436],[-8.168254,55.094629],[-8.167784,55.09463],[-8.167786,55.0949],[-8.167316,55.0949],[-8.167317,55.09517],[-8.166847,55.09517],[-8.166848,55.09544],[-8.166378,55.095441],[-8.166379,55.09571],[-8.165439,55.095711],[-8.16544,55.095981],[-8.16497,55.095982],[-8.164972,55.096521],[-8.164973,55.09679],[-8.165443,55.09679],[-8.165445,55.097059],[-8.166385,55.097058],[-8.166386,55.097327],[-8.166856,55.097327],[-8.166855,55.097057],[-8.167325,55.097056],[-8.167326,55.097326],[-8.167796,55.097325],[-8.167797,55.097595],[-8.167327,55.097596],[-8.167328,55.097865],[-8.166858,55.097866],[-8.166859,55.098135],[-8.16686,55.098405],[-8.16592,55.098406],[-8.165919,55.098137],[-8.165449,55.098137],[-8.165448,55.097868],[-8.164978,55.097868],[-8.164979,55.098138],[-8.164509,55.098138],[-8.164508,55.097869],[-8.164038,55.09787],[-8.164037,55.0976],[-8.164036,55.09733],[-8.163096,55.097332],[-8.163098,55.097871],[-8.162628,55.097871],[-8.162629,55.098141],[-8.160667,55.098144],[-8.16069,55.098179],[-8.160766,55.09819],[-8.160891,55.098332],[-8.160935,55.098377],[-8.160963,55.098534],[-8.160912,55.098588],[-8.160873,55.098665],[-8.160589,55.098785],[-8.160609,55.098887],[-8.160646,55.099256],[-8.160654,55.099472],[-8.160717,55.09968],[-8.16072,55.099738],[-8.160684,55.099865],[-8.160678,55.09995],[-8.160665,55.10003],[-8.160756,55.10003],[-8.160757,55.1003],[-8.161698,55.100298],[-8.161696,55.100029],[-8.162637,55.100028],[-8.162638,55.100297],[-8.162915,55.100297],[-8.163252,55.100143],[-8.163683,55.099941],[-8.164627,55.099495],[-8.16491,55.099361],[-8.165729,55.09898],[-8.166233,55.098735],[-8.166597,55.098571],[-8.16674,55.098502],[-8.166795,55.098458],[-8.166878,55.098435],[-8.167016,55.098364],[-8.16734,55.098255],[-8.16782,55.098083],[-8.168611,55.097808],[-8.169087,55.097628],[-8.169738,55.097408],[-8.170227,55.09724],[-8.170854,55.097008],[-8.17126,55.096868],[-8.171419,55.096817],[-8.171847,55.096703],[-8.172279,55.096582],[-8.172534,55.096509],[-8.17262,55.096504],[-8.172837,55.096478],[-8.172794,55.096452],[-8.172723,55.096441],[-8.172664,55.096448],[-8.172613,55.096457],[-8.172534,55.096471],[-8.172435,55.096457],[-8.172372,55.096453],[-8.172336,55.096437],[-8.172309,55.096421],[-8.172257,55.096389],[-8.172214,55.096369],[-8.172162,55.096351],[-8.172111,55.096337],[-8.172047,55.096326],[-8.172004,55.096313],[-8.171992,55.096292],[-8.17196,55.09627],[-8.171909,55.096215],[-8.171861,55.096163],[-8.171821,55.096125],[-8.171766,55.096095],[-8.171695,55.096062],[-8.171628,55.096032],[-8.1716,55.095996],[-8.171592,55.095962],[-8.171564,55.095944],[-8.171505,55.095917],[-8.171461,55.095899],[-8.171418,55.095858],[-8.171413,55.095817],[-8.171386,55.095801],[-8.17135,55.095765],[-8.171342,55.095724],[-8.171318,55.09569],[-8.171298,55.09567],[-8.171267,55.095616],[-8.171243,55.095582],[-8.171247,55.095555],[-8.171266,55.09553],[-8.171302,55.095473],[-8.171325,55.095437],[-8.171325,55.095382],[-8.171344,55.095344],[-8.171396,55.09531],[-8.171439,55.095278],[-8.171518,55.095248],[-8.171589,55.095228],[-8.17162,55.095196],[-8.171632,55.095171],[-8.171636,55.095119],[-8.17164,55.09509],[-8.171651,55.095051],[-8.171667,55.095022],[-8.171707,55.095006],[-8.171762,55.094978],[-8.171754,55.094951],[-8.171797,55.094926],[-8.171844,55.094879],[-8.171888,55.094842],[-8.171919,55.094799],[-8.17197,55.094772],[-8.172088,55.09467],[-8.172151,55.094611],[-8.172199,55.094568],[-8.17225,55.094502],[-8.172277,55.094482],[-8.172329,55.094482],[-8.172376,55.094454],[-8.172411,55.094402],[-8.172419,55.094368],[-8.172423,55.094323],[-8.172435,55.094311],[-8.172478,55.094291],[-8.172509,55.094257],[-8.172529,55.094203],[-8.172521,55.094164],[-8.172525,55.094123],[-8.172513,55.094078],[-8.172485,55.094021],[-8.172489,55.09399],[-8.172492,55.09394],[-8.172516,55.093913],[-8.172556,55.093897],[-8.172579,55.093883],[-8.172579,55.093865],[-8.172559,55.093851],[-8.172536,55.093845],[-8.172453,55.093833],[-8.172401,55.09382],[-8.172346,55.09382],[-8.172333,55.093817],[-8.172314,55.093802],[-8.17231,55.093788],[-8.17231,55.093774],[-8.17231,55.093761],[-8.172318,55.093736],[-8.172353,55.093666],[-8.172392,55.093618],[-8.172392,55.093589],[-8.17238,55.093548],[-8.17238,55.093478],[-8.172372,55.093403],[-8.17238,55.09338],[-8.172384,55.093349],[-8.172356,55.09333],[-8.172328,55.093328],[-8.172285,55.093326],[-8.172265,55.093312],[-8.172265,55.093281],[-8.172292,55.093238],[-8.172328,55.093229],[-8.172391,55.093192],[-8.17245,55.093176],[-8.172509,55.093165],[-8.172568,55.093153],[-8.1726,55.093124],[-8.172659,55.093072],[-8.172701,55.093053],[-8.172742,55.093049],[-8.172766,55.093042],[-8.172801,55.093006],[-8.172844,55.092938],[-8.172891,55.092879],[-8.172887,55.092845],[-8.172879,55.0928],[-8.172891,55.092761],[-8.172851,55.092736],[-8.172812,55.092698],[-8.172756,55.092641],[-8.172736,55.092594],[-8.172732,55.092555],[-8.172744,55.092523],[-8.172779,55.092487],[-8.172822,55.092453],[-8.172886,55.09243],[-8.172921,55.092405],[-8.172921,55.092371],[-8.172909,55.092344],[-8.172869,55.092308],[-8.172845,55.092272],[-8.172845,55.092224],[-8.172825,55.092188],[-8.172821,55.092165],[-8.172786,55.092143],[-8.172742,55.092129],[-8.172687,55.092095],[-8.172623,55.092064],[-8.17258,55.092027],[-8.172568,55.092002],[-8.172588,55.091975],[-8.172595,55.09195],[-8.172576,55.091934],[-8.172544,55.091919],[-8.172524,55.091891],[-8.172528,55.091864],[-8.172555,55.09183],[-8.172607,55.091805],[-8.172646,55.091789],[-8.172678,55.09176],[-8.172713,55.091724],[-8.17276,55.091696],[-8.172776,55.09166],[-8.172776,55.091644],[-8.172772,55.091637],[-8.172772,55.091636],[-8.172871,55.091624],[-8.17291,55.09161],[-8.172878,55.091567],[-8.17287,55.091533],[-8.172894,55.091499],[-8.172973,55.09142],[-8.173032,55.091386],[-8.173079,55.091374],[-8.173162,55.091367],[-8.173225,55.091358],[-8.173355,55.091322],[-8.173438,55.091292],[-8.173493,55.091247],[-8.173552,55.091224],[-8.1736,55.091222],[-8.173694,55.091212],[-8.173734,55.091174],[-8.173738,55.091126],[-8.173789,55.091088],[-8.17384,55.091029],[-8.173879,55.090974],[-8.173942,55.090933],[-8.173993,55.090868],[-8.174072,55.090854],[-8.17412,55.090849],[-8.174195,55.090818],[-8.174262,55.09077],[-8.174309,55.09074],[-8.17436,55.090734],[-8.174415,55.090713],[-8.174419,55.090697],[-8.174451,55.090686],[-8.17447,55.090654],[-8.174506,55.090631],[-8.174525,55.090602],[-8.174529,55.090566],[-8.174537,55.090543],[-8.174576,55.090502],[-8.174584,55.09047],[-8.1746,55.09043],[-8.174596,55.0904],[-8.174584,55.090362],[-8.174576,55.09033],[-8.174595,55.090287],[-8.174635,55.090266],[-8.174666,55.090264],[-8.174694,55.090269],[-8.174752,55.090302],[-8.174788,55.090309],[-8.174834,55.090303],[-8.174872,55.090284],[-8.174864,55.090262],[-8.174856,55.090228],[-8.174871,55.090205],[-8.174905,55.090179],[-8.174907,55.090153],[-8.174887,55.090126],[-8.174887,55.090114],[-8.174934,55.090101],[-8.175053,55.090094],[-8.175211,55.090082],[-8.175254,55.090073],[-8.175258,55.090053],[-8.17527,55.090019],[-8.175305,55.090014],[-8.175392,55.090018],[-8.175416,55.090018],[-8.175447,55.089973],[-8.175479,55.089946],[-8.175514,55.089939],[-8.175554,55.089941],[-8.175605,55.089921],[-8.175778,55.089848],[-8.175778,55.08983],[-8.175739,55.089801],[-8.175715,55.089773],[-8.175734,55.089701],[-8.175758,55.08966],[-8.175797,55.089642],[-8.175809,55.089626],[-8.17584,55.089519],[-8.175872,55.089479],[-8.17597,55.089444],[-8.175998,55.089429],[-8.17601,55.089381],[-8.175994,55.089299],[-8.175938,55.089227],[-8.175922,55.089159],[-8.175878,55.089121],[-8.175858,55.089068],[-8.175862,55.089044],[-8.175838,55.089016],[-8.175775,55.088946],[-8.175842,55.088844],[-8.175869,55.088744],[-8.17592,55.088701],[-8.175944,55.088654],[-8.175967,55.088629],[-8.175935,55.088574],[-8.175951,55.088554],[-8.175994,55.088534],[-8.176002,55.088491],[-8.17597,55.088448],[-8.17601,55.088398],[-8.176065,55.088359],[-8.176085,55.08833],[-8.176073,55.088293],[-8.17612,55.088241],[-8.176214,55.088175],[-8.176242,55.088153],[-8.176261,55.0881],[-8.176328,55.088071],[-8.176388,55.088066],[-8.176439,55.088046],[-8.17649,55.088],[-8.176494,55.087973],[-8.176482,55.087951],[-8.176395,55.087917],[-8.176383,55.087894],[-8.176403,55.087862],[-8.176525,55.087801],[-8.176548,55.087785],[-8.176544,55.087729],[-8.176603,55.087699],[-8.176706,55.087658],[-8.17671,55.087624],[-8.176828,55.087572],[-8.177009,55.087538],[-8.177077,55.087524],[-8.177313,55.087406],[-8.177341,55.087383],[-8.17734,55.08732],[-8.177411,55.087263],[-8.177664,55.087174],[-8.177786,55.08716],[-8.177924,55.087174],[-8.178035,55.087205],[-8.178098,55.087246],[-8.178169,55.087273],[-8.178331,55.087255],[-8.178505,55.087277],[-8.178541,55.087266],[-8.178596,55.087225],[-8.178797,55.087125],[-8.178939,55.087071],[-8.178965,55.087067],[-8.17809,55.087069],[-8.178089,55.086799],[-8.177619,55.0868],[-8.177621,55.087069],[-8.176211,55.087071],[-8.176212,55.087341],[-8.175272,55.087342],[-8.175271,55.087073],[-8.174801,55.087073],[-8.1748,55.086804],[-8.174799,55.086534],[-8.176209,55.086532],[-8.176207,55.086263],[-8.177147,55.086261],[-8.177146,55.085992],[-8.178086,55.085991],[-8.178085,55.085721],[-8.179494,55.085719],[-8.179492,55.08518],[-8.178552,55.085181],[-8.178551,55.084912],[-8.179021,55.084911],[-8.179019,55.084641],[-8.179489,55.084641],[-8.179487,55.084102],[-8.179017,55.084102],[-8.179016,55.083833],[-8.178076,55.083834],[-8.178075,55.083565],[-8.177605,55.083565],[-8.177606,55.083835],[-8.177136,55.083836],[-8.177138,55.084105],[-8.176668,55.084106],[-8.176669,55.084375],[-8.176199,55.084376],[-8.1762,55.084646],[-8.17573,55.084646],[-8.175732,55.084916],[-8.175733,55.085185],[-8.176203,55.085185],[-8.176201,55.084915],[-8.177141,55.084914],[-8.177142,55.085183],[-8.176672,55.085184],[-8.176674,55.085453],[-8.176204,55.085454],[-8.176205,55.085724],[-8.174795,55.085726],[-8.174798,55.086265],[-8.174328,55.086265],[-8.174329,55.086535],[-8.174331,55.087074],[-8.173861,55.087075],[-8.173863,55.087344],[-8.173864,55.087614],[-8.173394,55.087614],[-8.173395,55.087884],[-8.173865,55.087883],[-8.173866,55.088153],[-8.174336,55.088152],[-8.174337,55.088422],[-8.174338,55.088691],[-8.17434,55.088961],[-8.174341,55.08923],[-8.173871,55.089231],[-8.17387,55.088961],[-8.17293,55.088963],[-8.172929,55.088693],[-8.171989,55.088695],[-8.171988,55.088425],[-8.171518,55.088426],[-8.171519,55.088695],[-8.171049,55.088696],[-8.171048,55.088426],[-8.170578,55.088427],[-8.170579,55.088697],[-8.169639,55.088698],[-8.169638,55.088428],[-8.170108,55.088428],[-8.170107,55.088158],[-8.170577,55.088157],[-8.170576,55.087888],[-8.170574,55.087618],[-8.170573,55.087349],[-8.170103,55.08735],[-8.170102,55.08708],[-8.169163,55.087081],[-8.16916,55.086542],[-8.169159,55.086273],[-8.169158,55.086003],[-8.169156,55.085464],[-8.169153,55.084925],[-8.169152,55.084656],[-8.169622,55.084655],[-8.16962,55.084116],[-8.17009,55.084115],[-8.170089,55.083846],[-8.170558,55.083845],[-8.17056,55.084115],[-8.170562,55.084654],[-8.170563,55.084923],[-8.171033,55.084922],[-8.171035,55.085462],[-8.171505,55.085461],[-8.171507,55.086],[-8.171977,55.085999],[-8.171978,55.086269],[-8.172448,55.086268],[-8.172449,55.086538],[-8.172919,55.086537],[-8.172918,55.086267],[-8.173388,55.086267],[-8.173386,55.085728],[-8.173856,55.085727],[-8.173854,55.085458],[-8.173853,55.085188],[-8.173383,55.085189],[-8.173382,55.084919],[-8.172442,55.084921],[-8.172441,55.084651],[-8.17244,55.084381],[-8.17197,55.084382],[-8.171969,55.084113],[-8.171968,55.083843],[-8.171966,55.083304],[-8.171496,55.083305],[-8.171495,55.083035],[-8.171494,55.082766],[-8.171024,55.082766],[-8.171023,55.082497],[-8.170553,55.082497],[-8.170552,55.082228],[-8.170082,55.082229],[-8.170081,55.081959],[-8.169611,55.08196],[-8.169607,55.081151],[-8.170547,55.08115],[-8.170546,55.08088],[-8.170545,55.080611],[-8.170544,55.080341],[-8.170542,55.080072],[-8.170541,55.079802],[-8.171011,55.079801],[-8.17101,55.079532],[-8.17007,55.079533],[-8.170069,55.079264],[-8.169599,55.079264],[-8.169598,55.078995],[-8.169128,55.078995],[-8.169127,55.078726],[-8.168188,55.078727],[-8.168187,55.078458],[-8.167717,55.078458],[-8.16772,55.079267],[-8.16725,55.079268],[-8.167253,55.079807],[-8.167254,55.080076],[-8.168663,55.080074],[-8.168667,55.080883],[-8.169136,55.080882],[-8.169137,55.081152],[-8.168668,55.081152],[-8.16867,55.081691],[-8.168671,55.081961],[-8.168672,55.08223],[-8.168202,55.082231],[-8.168203,55.082501],[-8.168206,55.08304],[-8.168207,55.083309],[-8.167737,55.08331],[-8.167738,55.083579],[-8.16774,55.084118],[-8.167742,55.084388],[-8.167272,55.084389],[-8.167271,55.084119],[-8.166331,55.08412],[-8.166329,55.083581],[-8.165859,55.083582],[-8.165858,55.083312],[-8.165857,55.083043],[-8.165387,55.083044],[-8.165389,55.083583],[-8.16539,55.083852],[-8.16492,55.083853],[-8.164923,55.084661],[-8.164454,55.084662],[-8.164457,55.085471],[-8.163987,55.085471],[-8.163991,55.086549],[-8.163522,55.08655],[-8.163517,55.085472],[-8.163047,55.085473],[-8.163044,55.084664],[-8.163041,55.083855],[-8.16304,55.083586],[-8.163509,55.083585],[-8.163507,55.083046],[-8.163505,55.082507],[-8.163975,55.082506],[-8.163974,55.082237],[-8.163973,55.081967],[-8.164443,55.081967],[-8.164441,55.081697],[-8.164911,55.081697],[-8.164909,55.081158],[-8.165379,55.081157],[-8.165378,55.080887],[-8.165848,55.080887],[-8.165844,55.080078],[-8.165374,55.080079],[-8.165373,55.079809],[-8.164434,55.079811],[-8.164435,55.08008],[-8.164436,55.08035],[-8.164437,55.080619],[-8.163497,55.08062],[-8.163496,55.080351],[-8.162557,55.080352],[-8.162558,55.080622],[-8.162561,55.08143],[-8.163031,55.08143],[-8.16303,55.08116],[-8.163969,55.081159],[-8.163971,55.081428],[-8.163972,55.081698],[-8.163502,55.081698],[-8.163503,55.081968],[-8.163033,55.081969],[-8.163034,55.082238],[-8.161625,55.08224],[-8.161624,55.081971],[-8.161154,55.081971],[-8.161153,55.081702],[-8.161152,55.081432],[-8.161148,55.080623],[-8.160678,55.080624],[-8.160677,55.080355],[-8.160676,55.080085],[-8.161146,55.080084],[-8.161145,55.079815],[-8.161144,55.079545],[-8.160674,55.079546],[-8.160673,55.079276],[-8.160672,55.079007],[-8.161142,55.079006],[-8.161141,55.078737],[-8.161611,55.078736],[-8.161609,55.078467],[-8.162079,55.078466],[-8.162077,55.077927],[-8.162547,55.077926],[-8.162546,55.077657],[-8.162545,55.077387],[-8.163014,55.077387],[-8.163013,55.077117],[-8.163012,55.076848],[-8.163011,55.076578],[-8.16301,55.076309],[-8.16348,55.076308],[-8.163479,55.076038],[-8.163475,55.07523],[-8.163474,55.07496],[-8.163473,55.074691],[-8.163472,55.074421],[-8.163471,55.074152],[-8.163469,55.073613],[-8.162999,55.073613],[-8.162997,55.073074],[-8.163467,55.073074],[-8.163464,55.072534],[-8.163643,55.072534],[-8.163642,55.072228],[-8.163933,55.072228],[-8.163932,55.071995],[-8.163931,55.071725],[-8.164401,55.071725],[-8.164399,55.071455],[-8.164398,55.071186],[-8.164868,55.071185],[-8.164867,55.070915],[-8.165202,55.070915],[-8.1652,55.07043],[-8.165335,55.07043],[-8.165334,55.070376],[-8.165333,55.070106],[-8.165803,55.070106],[-8.165802,55.069836],[-8.166272,55.069835],[-8.16627,55.069566],[-8.16674,55.069565],[-8.166739,55.069296],[-8.167209,55.069295],[-8.167208,55.069026],[-8.167677,55.069025],[-8.167676,55.068755],[-8.168146,55.068755],[-8.168145,55.068485],[-8.169084,55.068484],[-8.169083,55.068214],[-8.169553,55.068214],[-8.169551,55.067944],[-8.168612,55.067945],[-8.168613,55.068215],[-8.168144,55.068216],[-8.168142,55.067946],[-8.167673,55.067947],[-8.167672,55.067677],[-8.167671,55.067408],[-8.16814,55.067407],[-8.168139,55.067138],[-8.167669,55.067138],[-8.167668,55.066869],[-8.167199,55.066869],[-8.167202,55.067678],[-8.166754,55.067678],[-8.166754,55.067733],[-8.166733,55.067733],[-8.166735,55.068218],[-8.166265,55.068218],[-8.166266,55.068488],[-8.165796,55.068488],[-8.165799,55.069027],[-8.165329,55.069028],[-8.165327,55.068489],[-8.165326,55.068219],[-8.165795,55.068219],[-8.165793,55.067734],[-8.165189,55.067735],[-8.165185,55.066837],[-8.16579,55.066836],[-8.165789,55.066602],[-8.165787,55.066332],[-8.164848,55.066333],[-8.164847,55.066064],[-8.164845,55.065525],[-8.165314,55.065524],[-8.165313,55.065255],[-8.164844,55.065255],[-8.164841,55.064716],[-8.165311,55.064716],[-8.16531,55.064446],[-8.16578,55.064445],[-8.165779,55.064176],[-8.165777,55.063906],[-8.166247,55.063906],[-8.166246,55.063636],[-8.166737,55.063636],[-8.166736,55.063242],[-8.167183,55.063241],[-8.167183,55.063096],[-8.167653,55.063095],[-8.16765,55.062556],[-8.167649,55.062287],[-8.167648,55.062017],[-8.166709,55.062018],[-8.166708,55.061749],[-8.166707,55.061479],[-8.167176,55.061479],[-8.167175,55.061209],[-8.167645,55.061209],[-8.167646,55.061478],[-8.168115,55.061477],[-8.168113,55.060938],[-8.168583,55.060938],[-8.168582,55.060668],[-8.168112,55.060669],[-8.168111,55.060399],[-8.167641,55.0604],[-8.16764,55.06013],[-8.16811,55.06013],[-8.168109,55.05986],[-8.168578,55.05986],[-8.168579,55.060129],[-8.16858,55.060399],[-8.16905,55.060398],[-8.169051,55.060668],[-8.169521,55.060667],[-8.16952,55.060397],[-8.169989,55.060397],[-8.169988,55.060127],[-8.169518,55.060128],[-8.169517,55.059858],[-8.169516,55.059589],[-8.169047,55.059589],[-8.169045,55.05932],[-8.169043,55.058781],[-8.169513,55.05878],[-8.169512,55.058511],[-8.169981,55.05851],[-8.169979,55.057971],[-8.170918,55.05797],[-8.170916,55.057431],[-8.171385,55.05743],[-8.171384,55.05716],[-8.171383,55.056891],[-8.171382,55.056621],[-8.170912,55.056622],[-8.170911,55.056352],[-8.170909,55.055813],[-8.170439,55.055814],[-8.170438,55.055544],[-8.169969,55.055545],[-8.169967,55.055276],[-8.170906,55.055274],[-8.170908,55.055544],[-8.171377,55.055543],[-8.171376,55.055274],[-8.171375,55.055004],[-8.171374,55.054735],[-8.170904,55.054735],[-8.170903,55.054466],[-8.170901,55.053927],[-8.170431,55.053927],[-8.170423,55.052041],[-8.170893,55.05204],[-8.170892,55.05177],[-8.171361,55.05177],[-8.171362,55.052039],[-8.17137,55.053926],[-8.171373,55.054465],[-8.172312,55.054464],[-8.17231,55.054194],[-8.17278,55.054194],[-8.172779,55.053924],[-8.173248,55.053923],[-8.173249,55.054193],[-8.173719,55.054192],[-8.17372,55.054462],[-8.173251,55.054462],[-8.173252,55.054732],[-8.173721,55.054731],[-8.173722,55.055001],[-8.174192,55.055],[-8.174193,55.05527],[-8.174663,55.055269],[-8.174664,55.055538],[-8.174665,55.055808],[-8.174666,55.056078],[-8.175136,55.056077],[-8.175137,55.056346],[-8.176076,55.056345],[-8.176075,55.056076],[-8.176544,55.056075],[-8.176543,55.055805],[-8.176542,55.055536],[-8.177011,55.055535],[-8.17701,55.055266],[-8.177949,55.055264],[-8.177948,55.054995],[-8.178887,55.054993],[-8.178888,55.055263],[-8.179358,55.055262],[-8.179359,55.055532],[-8.17842,55.055533],[-8.178421,55.055803],[-8.177952,55.055803],[-8.177953,55.056073],[-8.177014,55.056074],[-8.177015,55.056344],[-8.176545,55.056344],[-8.176547,55.056614],[-8.176548,55.056883],[-8.176078,55.056884],[-8.176079,55.057154],[-8.17514,55.057155],[-8.175142,55.057425],[-8.173733,55.057427],[-8.173735,55.057966],[-8.173738,55.058505],[-8.173268,55.058505],[-8.173269,55.058775],[-8.173272,55.059314],[-8.173741,55.059313],[-8.173742,55.059583],[-8.174681,55.059581],[-8.17468,55.059312],[-8.17515,55.059311],[-8.175149,55.059042],[-8.175618,55.059041],[-8.175619,55.059311],[-8.175621,55.05958],[-8.175622,55.05985],[-8.176561,55.059848],[-8.176562,55.060118],[-8.176563,55.060387],[-8.177033,55.060387],[-8.177034,55.060656],[-8.175625,55.060658],[-8.175626,55.060928],[-8.174687,55.060929],[-8.17469,55.061468],[-8.174691,55.061738],[-8.17516,55.061737],[-8.175162,55.062007],[-8.17657,55.062004],[-8.176569,55.061735],[-8.177978,55.061733],[-8.177979,55.062002],[-8.178918,55.062001],[-8.17892,55.062271],[-8.178921,55.06254],[-8.178922,55.06281],[-8.179392,55.062809],[-8.179393,55.063078],[-8.180332,55.063077],[-8.180331,55.062808],[-8.18127,55.062806],[-8.181271,55.063076],[-8.181741,55.063075],[-8.181742,55.063345],[-8.182212,55.063344],[-8.18221,55.063074],[-8.18315,55.063073],[-8.183148,55.062803],[-8.183618,55.062803],[-8.183619,55.063072],[-8.184089,55.063071],[-8.18409,55.063341],[-8.185029,55.06334],[-8.185031,55.063609],[-8.185032,55.063879],[-8.185502,55.063878],[-8.185503,55.064147],[-8.185972,55.064147],[-8.185962,55.061991],[-8.18596,55.061451],[-8.18549,55.061452],[-8.185489,55.061183],[-8.18408,55.061185],[-8.184082,55.061454],[-8.182673,55.061456],[-8.182672,55.061187],[-8.181263,55.061189],[-8.181262,55.060919],[-8.179853,55.060922],[-8.179852,55.060652],[-8.179382,55.060653],[-8.179383,55.060922],[-8.178444,55.060924],[-8.178443,55.060654],[-8.178442,55.060385],[-8.17985,55.060383],[-8.179849,55.060113],[-8.181258,55.060111],[-8.181259,55.06038],[-8.183137,55.060378],[-8.183139,55.060647],[-8.184078,55.060646],[-8.184079,55.060915],[-8.185488,55.060913],[-8.185487,55.060644],[-8.185956,55.060643],[-8.185952,55.059834],[-8.186422,55.059834],[-8.186411,55.057408],[-8.18735,55.057406],[-8.187361,55.059737],[-8.187389,55.059733],[-8.187665,55.059699],[-8.18772,55.059669],[-8.187755,55.059586],[-8.187759,55.059527],[-8.187715,55.059468],[-8.187636,55.05935],[-8.187593,55.059314],[-8.187576,55.059194],[-8.187552,55.059094],[-8.18754,55.05899],[-8.187528,55.058931],[-8.187516,55.058886],[-8.1875,55.058831],[-8.18757,55.058702],[-8.187617,55.058582],[-8.187735,55.058421],[-8.18773,55.058335],[-8.18771,55.058271],[-8.187623,55.058195],[-8.187477,55.058115],[-8.187413,55.058045],[-8.187429,55.058002],[-8.187571,55.057936],[-8.187681,55.057873],[-8.187768,55.057855],[-8.187772,55.057836],[-8.187731,55.05763],[-8.187719,55.057562],[-8.187707,55.057465],[-8.187671,55.057381],[-8.187588,55.057293],[-8.187556,55.057125],[-8.187551,55.05706],[-8.187504,55.056998],[-8.187452,55.056958],[-8.187342,55.05691],[-8.187334,55.056881],[-8.187347,55.056864],[-8.187346,55.056603],[-8.18732,55.056584],[-8.187146,55.056491],[-8.187107,55.056421],[-8.187114,55.056367],[-8.187232,55.056267],[-8.187276,55.056242],[-8.187295,55.056197],[-8.187239,55.056045],[-8.187132,55.055864],[-8.187143,55.055784],[-8.187108,55.055701],[-8.187052,55.055667],[-8.186878,55.055583],[-8.186819,55.055531],[-8.186826,55.055468],[-8.186877,55.055368],[-8.186881,55.055268],[-8.18694,55.05518],[-8.186911,55.055051],[-8.186875,55.054935],[-8.1868,55.05484],[-8.186748,55.054686],[-8.186708,55.0546],[-8.186653,55.054537],[-8.186597,55.054462],[-8.186605,55.054401],[-8.186624,55.054269],[-8.186641,55.054231],[-8.18671,55.054068],[-8.186694,55.053898],[-8.186713,55.05383],[-8.186677,55.053775],[-8.186673,55.053759],[-8.18674,55.053678],[-8.186909,55.053494],[-8.187035,55.053365],[-8.187113,55.053249],[-8.187215,55.053074],[-8.187256,55.053016],[-8.187262,55.053006],[-8.187297,55.052943],[-8.187305,55.052816],[-8.187288,55.052696],[-8.187252,55.052567],[-8.187189,55.052451],[-8.187184,55.052388],[-8.187168,55.052306],[-8.187113,55.052216],[-8.187089,55.052175],[-8.187104,55.052116],[-8.187136,55.052041],[-8.187139,55.051998],[-8.187115,55.05193],[-8.187075,55.051831],[-8.187075,55.051824],[-8.187075,55.05174],[-8.187114,55.051593],[-8.187109,55.051382],[-8.187117,55.051319],[-8.187211,55.051167],[-8.187222,55.051094],[-8.187119,55.050954],[-8.187008,55.050818],[-8.186929,55.050666],[-8.186905,55.050601],[-8.186916,55.050548],[-8.186908,55.050431],[-8.18688,55.050358],[-8.186856,55.050315],[-8.186773,55.050277],[-8.186765,55.050195],[-8.18678,55.050084],[-8.186819,55.050007],[-8.186791,55.049944],[-8.186711,55.049741],[-8.18678,55.049571],[-8.18685,55.049448],[-8.18685,55.049381],[-8.186747,55.049267],[-8.186652,55.049154],[-8.186565,55.049064],[-8.186556,55.048946],[-8.186635,55.048855],[-8.186595,55.04871],[-8.186602,55.048574],[-8.18657,55.048475],[-8.186578,55.048388],[-8.186609,55.04833],[-8.186759,55.048279],[-8.186835,55.048246],[-8.186862,55.048234],[-8.186932,55.048202],[-8.186947,55.048107],[-8.187073,55.047966],[-8.187246,55.047848],[-8.187545,55.047658],[-8.187797,55.047499],[-8.18793,55.047335],[-8.188079,55.047136],[-8.188158,55.04704],[-8.188173,55.046959],[-8.188228,55.046895],[-8.188346,55.046814],[-8.188478,55.04676],[-8.188602,55.046681],[-8.188762,55.046544],[-8.188942,55.046434],[-8.189041,55.046386],[-8.189017,55.046379],[-8.188475,55.046254],[-8.187793,55.046122],[-8.186921,55.04596],[-8.186561,55.045897],[-8.186352,55.045866],[-8.18619,55.045852],[-8.185886,55.04581],[-8.185618,55.045783],[-8.18531,55.045754],[-8.184911,55.045711],[-8.184564,55.045694],[-8.184347,55.045683],[-8.183862,55.045665],[-8.183388,55.045666],[-8.182907,55.04568],[-8.182233,55.045702],[-8.181605,55.045743],[-8.181187,55.045744],[-8.180899,55.045755],[-8.180454,55.045763],[-8.180106,55.045766],[-8.179874,55.045786],[-8.179436,55.045803],[-8.17888,55.045824],[-8.17813,55.045875],[-8.177771,55.045871],[-8.177381,55.045894],[-8.176963,55.045908],[-8.176805,55.045926],[-8.176186,55.045984],[-8.175547,55.046019],[-8.17505,55.04606],[-8.174667,55.046106],[-8.174316,55.046174],[-8.174091,55.046227],[-8.174147,55.046324],[-8.173836,55.046415],[-8.173757,55.046293],[-8.173707,55.046261],[-8.173689,55.046245],[-8.173683,55.046226],[-8.173643,55.046169],[-8.173535,55.0462],[-8.173453,55.046227],[-8.173331,55.046227],[-8.172719,55.046312],[-8.172195,55.046388],[-8.171686,55.046477],[-8.170929,55.046614],[-8.17072,55.046656],[-8.170764,55.046718],[-8.170839,55.046831],[-8.170843,55.046917],[-8.170852,55.046972],[-8.170884,55.04708],[-8.170904,55.047099],[-8.170933,55.047121],[-8.170852,55.047153],[-8.170301,55.047398],[-8.170173,55.047461],[-8.169899,55.047594],[-8.169324,55.047898],[-8.168887,55.048157],[-8.168604,55.048348],[-8.168242,55.048613],[-8.167943,55.048856],[-8.167275,55.049471],[-8.166963,55.049769],[-8.166697,55.05002],[-8.166425,55.050276],[-8.166134,55.050549],[-8.165631,55.051025],[-8.165112,55.051511],[-8.164668,55.051917],[-8.164349,55.052216],[-8.164031,55.052509],[-8.163759,55.052786],[-8.163519,55.053021],[-8.163352,55.053205],[-8.16338,55.053215],[-8.163402,55.053255],[-8.163426,55.053298],[-8.163425,55.053348],[-8.163381,55.053427],[-8.163337,55.053492],[-8.163342,55.053533],[-8.163369,55.053563],[-8.163399,55.053617],[-8.163404,55.053676],[-8.163367,55.053726],[-8.163335,55.053789],[-8.163303,55.053836],[-8.16329,55.053872],[-8.163272,55.053904],[-8.163229,55.053917],[-8.163157,55.05392],[-8.163093,55.053917],[-8.163051,55.053932],[-8.163023,55.053967],[-8.162986,55.054014],[-8.162938,55.054076],[-8.162916,55.054136],[-8.162898,55.054189],[-8.162915,55.054247],[-8.162968,55.054295],[-8.163018,55.054332],[-8.163015,55.054382],[-8.163007,55.054426],[-8.162989,55.054498],[-8.162957,55.054558],[-8.162898,55.054611],[-8.162845,55.054648],[-8.162795,55.054682],[-8.162773,55.054726],[-8.162776,55.054775],[-8.162757,55.054818],[-8.162717,55.054869],[-8.162663,55.054911],[-8.162637,55.054934],[-8.162636,55.05497],[-8.16262,55.055021],[-8.16257,55.055055],[-8.162505,55.055095],[-8.162482,55.055123],[-8.162431,55.055162],[-8.162382,55.055195],[-8.162357,55.055241],[-8.162342,55.055281],[-8.162361,55.055318],[-8.16239,55.055384],[-8.162399,55.05544],[-8.162371,55.055492],[-8.162327,55.055547],[-8.162299,55.055572],[-8.162262,55.055587],[-8.162239,55.055622],[-8.16225,55.055662],[-8.162287,55.055685],[-8.162307,55.055717],[-8.162298,55.055767],[-8.162257,55.055832],[-8.162228,55.055881],[-8.1622,55.055904],[-8.162153,55.055918],[-8.162121,55.055934],[-8.16209,55.055968],[-8.162081,55.055998],[-8.162061,55.056047],[-8.162037,55.056094],[-8.162026,55.05616],[-8.162044,55.05619],[-8.162054,55.05623],[-8.162059,55.056248],[-8.162009,55.056273],[-8.161967,55.056277],[-8.161916,55.056278],[-8.161883,55.056279],[-8.161853,55.05628],[-8.161816,55.056283],[-8.161805,55.056285],[-8.161787,55.056295],[-8.161716,55.056321],[-8.161655,55.056353],[-8.161609,55.056386],[-8.161569,55.05643],[-8.161539,55.056473],[-8.161499,55.056501],[-8.161447,55.056526],[-8.161401,55.05656],[-8.161389,55.056603],[-8.161408,55.056637],[-8.161426,55.056665],[-8.161432,55.056697],[-8.161412,55.05672],[-8.161407,55.056742],[-8.161423,55.056769],[-8.161421,55.056793],[-8.161368,55.05684],[-8.161313,55.056865],[-8.161292,55.056898],[-8.161265,55.056971],[-8.16126,55.057014],[-8.161283,55.057052],[-8.161286,55.057082],[-8.161258,55.057121],[-8.161194,55.057168],[-8.161171,55.057189],[-8.161157,55.057219],[-8.161149,55.057254],[-8.161117,55.057313],[-8.161069,55.057348],[-8.16102,55.057387],[-8.160996,55.057418],[-8.160983,55.057459],[-8.160965,55.05749],[-8.160948,55.057523],[-8.160939,55.057555],[-8.160943,55.057591],[-8.160925,55.057632],[-8.160869,55.057681],[-8.160805,55.057732],[-8.160729,55.05779],[-8.160695,55.057834],[-8.160689,55.057882],[-8.160688,55.057919],[-8.160653,55.057977],[-8.160607,55.05803],[-8.160565,55.058059],[-8.160523,55.058094],[-8.160517,55.058124],[-8.160554,55.058163],[-8.160608,55.058181],[-8.160658,55.058219],[-8.160689,55.058258],[-8.160698,55.058291],[-8.160684,55.058339],[-8.160648,55.058381],[-8.160607,55.058409],[-8.16056,55.058436],[-8.160539,55.058467],[-8.160551,55.058497],[-8.160588,55.058528],[-8.16059,55.05856],[-8.160578,55.058591],[-8.16058,55.058634],[-8.160597,55.058674],[-8.160596,55.058705],[-8.160563,55.05874],[-8.160536,55.058777],[-8.160488,55.058825],[-8.160438,55.05886],[-8.160403,55.058894],[-8.160381,55.058949],[-8.160356,55.059012],[-8.160334,55.059063],[-8.160279,55.059097],[-8.160212,55.05911],[-8.160191,55.059133],[-8.160178,55.05917],[-8.160162,55.059201],[-8.160156,55.059217],[-8.16015,55.059236],[-8.16015,55.059261],[-8.160167,55.059286],[-8.160157,55.059318],[-8.160137,55.059351],[-8.160137,55.059386],[-8.160151,55.059416],[-8.160177,55.059447],[-8.160207,55.059456],[-8.160236,55.059466],[-8.160247,55.059499],[-8.16025,55.059545],[-8.160221,55.059586],[-8.160182,55.059605],[-8.160165,55.059622],[-8.160161,55.059643],[-8.160146,55.059667],[-8.160132,55.059679],[-8.160107,55.059702],[-8.160088,55.059729],[-8.160086,55.05977],[-8.160093,55.059803],[-8.160103,55.059835],[-8.160152,55.059859],[-8.160154,55.059884],[-8.160128,55.059895],[-8.16009,55.059894],[-8.160076,55.059918],[-8.1601,55.059946],[-8.160143,55.059962],[-8.160147,55.059988],[-8.160132,55.060034],[-8.160114,55.060083],[-8.16009,55.060119],[-8.160056,55.060175],[-8.160023,55.060215],[-8.159977,55.060264],[-8.159944,55.060308],[-8.159891,55.060351],[-8.159843,55.060388],[-8.159786,55.060426],[-8.159726,55.060456],[-8.15963,55.060485],[-8.159476,55.060528],[-8.159415,55.060559],[-8.159359,55.0606],[-8.159358,55.060617],[-8.159362,55.060637],[-8.15923,55.060687],[-8.159227,55.060689],[-8.158979,55.060862],[-8.158688,55.06105],[-8.158396,55.061248],[-8.157934,55.061593],[-8.157525,55.061866],[-8.157397,55.061955],[-8.157129,55.062148],[-8.156747,55.062398],[-8.156536,55.062549]],[[-8.171831,55.051769],[-8.171361,55.05177],[-8.17136,55.0515],[-8.171829,55.0515],[-8.171831,55.051769]],[[-8.174806,55.088151],[-8.174336,55.088152],[-8.174335,55.087883],[-8.174805,55.087882],[-8.174806,55.088151]],[[-8.174802,55.087343],[-8.175272,55.087342],[-8.175273,55.087612],[-8.174804,55.087612],[-8.174802,55.087343]],[[-8.159021,55.091098],[-8.159024,55.091996],[-8.158374,55.091997],[-8.158375,55.092217],[-8.157905,55.092218],[-8.157904,55.091997],[-8.157458,55.091998],[-8.157455,55.09114],[-8.157431,55.09114],[-8.15743,55.09087],[-8.1579,55.09087],[-8.157901,55.091099],[-8.159021,55.091098]],[[-8.156409,55.070118],[-8.15641,55.070388],[-8.15594,55.070388],[-8.155939,55.070119],[-8.156409,55.070118]],[[-8.17979,55.046906],[-8.180259,55.046905],[-8.180261,55.047175],[-8.179791,55.047176],[-8.17979,55.046906]],[[-8.176036,55.047181],[-8.176037,55.047451],[-8.175567,55.047451],[-8.175566,55.047182],[-8.176036,55.047181]],[[-8.176038,55.04772],[-8.176037,55.047451],[-8.177445,55.047449],[-8.177446,55.047718],[-8.179324,55.047715],[-8.179325,55.047985],[-8.179795,55.047984],[-8.179796,55.048254],[-8.179327,55.048254],[-8.179328,55.048524],[-8.178858,55.048525],[-8.178857,55.048255],[-8.177918,55.048256],[-8.177917,55.047987],[-8.176039,55.04799],[-8.176038,55.04772]],[[-8.185912,55.051209],[-8.185914,55.051479],[-8.184975,55.05148],[-8.184973,55.051211],[-8.185912,55.051209]],[[-8.180766,55.05526],[-8.180764,55.054721],[-8.181234,55.05472],[-8.181232,55.054451],[-8.182171,55.054449],[-8.182173,55.054719],[-8.182175,55.055258],[-8.180766,55.05526]],[[-8.182176,55.055527],[-8.182646,55.055527],[-8.182647,55.055796],[-8.182177,55.055797],[-8.182176,55.055527]],[[-8.183587,55.056064],[-8.184526,55.056063],[-8.184528,55.056333],[-8.183588,55.056334],[-8.183587,55.056064]],[[-8.185936,55.05633],[-8.185935,55.056061],[-8.185465,55.056062],[-8.185464,55.055792],[-8.185934,55.055791],[-8.185932,55.055522],[-8.186402,55.055521],[-8.186403,55.055791],[-8.186873,55.05579],[-8.186874,55.056059],[-8.186875,55.056329],[-8.186879,55.057138],[-8.186409,55.057138],[-8.186406,55.05633],[-8.185936,55.05633]],[[-8.182648,55.056066],[-8.182651,55.056605],[-8.182181,55.056606],[-8.182179,55.056067],[-8.182648,55.056066]],[[-8.177023,55.05823],[-8.176554,55.058231],[-8.176553,55.057962],[-8.176551,55.057692],[-8.17655,55.057422],[-8.17702,55.057422],[-8.177019,55.057152],[-8.177017,55.056883],[-8.177487,55.056882],[-8.177486,55.056613],[-8.179364,55.05661],[-8.179365,55.056879],[-8.179366,55.057149],[-8.177958,55.057151],[-8.177959,55.05742],[-8.17796,55.05769],[-8.177491,55.057691],[-8.177492,55.05796],[-8.177022,55.057961],[-8.177023,55.05823]],[[-8.176084,55.058232],[-8.176554,55.058231],[-8.176555,55.058501],[-8.176085,55.058501],[-8.176084,55.058232]],[[-8.184534,55.05768],[-8.184533,55.057411],[-8.185002,55.05741],[-8.185003,55.057679],[-8.184534,55.05768]],[[-8.182658,55.058222],[-8.181719,55.058223],[-8.181718,55.057954],[-8.181248,55.057955],[-8.181247,55.057685],[-8.181246,55.057416],[-8.180776,55.057416],[-8.180775,55.057147],[-8.181714,55.057145],[-8.181715,55.057415],[-8.182185,55.057414],[-8.182186,55.057684],[-8.182656,55.057683],[-8.182657,55.057953],[-8.183126,55.057952],[-8.183128,55.058221],[-8.183597,55.058221],[-8.183598,55.05849],[-8.182659,55.058492],[-8.182658,55.058222]],[[-8.169473,55.049347],[-8.169476,55.050155],[-8.169007,55.050156],[-8.169003,55.049347],[-8.169473,55.049347]],[[-8.170888,55.050962],[-8.170887,55.050692],[-8.171356,55.050692],[-8.171354,55.050153],[-8.171824,55.050152],[-8.171822,55.049882],[-8.172292,55.049882],[-8.172291,55.049612],[-8.17323,55.049611],[-8.173231,55.04988],[-8.172761,55.049881],[-8.172763,55.050151],[-8.172765,55.05069],[-8.172295,55.05069],[-8.172297,55.05096],[-8.171827,55.050961],[-8.171828,55.05123],[-8.170889,55.051231],[-8.170888,55.050962]],[[-8.168544,55.051774],[-8.168543,55.051504],[-8.169013,55.051504],[-8.16901,55.050964],[-8.169949,55.050963],[-8.169951,55.051502],[-8.169953,55.051772],[-8.169483,55.051772],[-8.169484,55.052042],[-8.169015,55.052043],[-8.169014,55.051773],[-8.168544,55.051774]],[[-8.175591,55.052842],[-8.175122,55.052843],[-8.175119,55.052303],[-8.175118,55.052034],[-8.175588,55.052033],[-8.175589,55.052303],[-8.176058,55.052302],[-8.176061,55.052841],[-8.176063,55.05338],[-8.176532,55.05338],[-8.176534,55.053649],[-8.176064,55.05365],[-8.176065,55.053919],[-8.175596,55.05392],[-8.175595,55.05365],[-8.175593,55.053381],[-8.175591,55.052842]],[[-8.167144,55.053662],[-8.167145,55.053932],[-8.166206,55.053933],[-8.166205,55.053664],[-8.167144,55.053662]],[[-8.175602,55.055268],[-8.175132,55.055268],[-8.175131,55.054999],[-8.17513,55.054729],[-8.175599,55.054729],[-8.175597,55.05419],[-8.176066,55.054189],[-8.176069,55.054728],[-8.17607,55.054997],[-8.175601,55.054998],[-8.175602,55.055268]],[[-8.169496,55.054737],[-8.169497,55.055007],[-8.168558,55.055008],[-8.168557,55.054739],[-8.169026,55.054738],[-8.169025,55.054468],[-8.169495,55.054468],[-8.169496,55.054737]],[[-8.16433,55.054475],[-8.164799,55.054474],[-8.1648,55.054744],[-8.164802,55.055013],[-8.164332,55.055014],[-8.164337,55.056092],[-8.163867,55.056093],[-8.163863,55.055014],[-8.163861,55.054745],[-8.164331,55.054744],[-8.16433,55.054475]],[[-8.168559,55.055278],[-8.16856,55.055547],[-8.16809,55.055548],[-8.168092,55.055817],[-8.168093,55.056087],[-8.167623,55.056087],[-8.167622,55.055818],[-8.167153,55.055819],[-8.167151,55.055549],[-8.167621,55.055548],[-8.16762,55.055279],[-8.168559,55.055278]],[[-8.168096,55.056895],[-8.167627,55.056896],[-8.167625,55.056627],[-8.168095,55.056626],[-8.168096,55.056895]],[[-8.167157,55.056897],[-8.167627,55.056896],[-8.167628,55.057166],[-8.167158,55.057166],[-8.167157,55.056897]],[[-8.164341,55.05717],[-8.163871,55.057171],[-8.163869,55.056632],[-8.164808,55.05663],[-8.16481,55.057169],[-8.164812,55.057439],[-8.164342,55.05744],[-8.164341,55.05717]],[[-8.166224,55.058246],[-8.166222,55.057976],[-8.166692,55.057975],[-8.166693,55.058245],[-8.167163,55.058244],[-8.167164,55.058514],[-8.166225,55.058515],[-8.166224,55.058246]],[[-8.161061,55.058792],[-8.16153,55.058791],[-8.161532,55.05933],[-8.161063,55.059331],[-8.161061,55.058792]],[[-8.161541,55.061486],[-8.161071,55.061487],[-8.161075,55.062296],[-8.160605,55.062296],[-8.160602,55.061488],[-8.160601,55.061218],[-8.16107,55.061217],[-8.161069,55.060948],[-8.161539,55.060947],[-8.16154,55.061217],[-8.161541,55.061486]],[[-8.164394,55.070107],[-8.163924,55.070108],[-8.163923,55.069839],[-8.164393,55.069838],[-8.164394,55.070107]],[[-8.163455,55.070109],[-8.163924,55.070108],[-8.163925,55.070378],[-8.163456,55.070378],[-8.163455,55.070109]],[[-8.160232,55.086554],[-8.159762,55.086555],[-8.159759,55.085746],[-8.160699,55.085745],[-8.160702,55.086554],[-8.160703,55.086823],[-8.160233,55.086824],[-8.160232,55.086554]],[[-8.161189,55.090866],[-8.161188,55.090596],[-8.161658,55.090595],[-8.161659,55.090865],[-8.161189,55.090866]],[[-8.163102,55.098949],[-8.163101,55.098679],[-8.163571,55.098679],[-8.163569,55.09814],[-8.164039,55.098139],[-8.164041,55.098678],[-8.164042,55.098948],[-8.163572,55.098948],[-8.163573,55.099218],[-8.162633,55.099219],[-8.162632,55.09895],[-8.163102,55.098949]],[[-8.155456,55.066615],[-8.155455,55.066346],[-8.156394,55.066345],[-8.156395,55.066614],[-8.155926,55.066615],[-8.155927,55.066884],[-8.154988,55.066885],[-8.154986,55.066616],[-8.155456,55.066615]],[[-8.153582,55.067696],[-8.153579,55.066887],[-8.154048,55.066887],[-8.154051,55.067695],[-8.153582,55.067696]],[[-8.158305,55.074428],[-8.158304,55.074158],[-8.159243,55.074157],[-8.159244,55.074427],[-8.159245,55.074696],[-8.158776,55.074697],[-8.158775,55.074427],[-8.158305,55.074428]],[[-8.1593,55.088442],[-8.15977,55.088442],[-8.159771,55.088711],[-8.159772,55.088981],[-8.160242,55.08898],[-8.160243,55.08925],[-8.159303,55.089251],[-8.159302,55.088981],[-8.158832,55.088982],[-8.158831,55.088712],[-8.159301,55.088712],[-8.1593,55.088442]],[[-8.153667,55.090067],[-8.154137,55.090066],[-8.154138,55.090336],[-8.153668,55.090336],[-8.153667,55.090067]],[[-8.15649,55.090872],[-8.156489,55.090602],[-8.156959,55.090602],[-8.15696,55.090871],[-8.15649,55.090872]]],[[[-8.187385,55.059972],[-8.187362,55.059961],[-8.187365,55.060641],[-8.187366,55.06091],[-8.187367,55.06118],[-8.187369,55.061449],[-8.187371,55.061988],[-8.187841,55.061988],[-8.18784,55.061865],[-8.187714,55.061822],[-8.187674,55.061799],[-8.187602,55.061598],[-8.187594,55.061516],[-8.187606,55.061478],[-8.187657,55.06143],[-8.187732,55.061414],[-8.187783,55.061394],[-8.187818,55.061357],[-8.187838,55.06135],[-8.187837,55.061179],[-8.187837,55.061107],[-8.187825,55.061104],[-8.187726,55.06102],[-8.187663,55.060934],[-8.187637,55.060908],[-8.187642,55.060841],[-8.187599,55.060753],[-8.187626,55.060624],[-8.187618,55.060576],[-8.187582,55.060528],[-8.187534,55.060515],[-8.187432,55.060515],[-8.187392,55.060508],[-8.187372,55.060481],[-8.187451,55.060404],[-8.18756,55.060199],[-8.187555,55.060142],[-8.187549,55.060115],[-8.187531,55.06009],[-8.187473,55.060039],[-8.187385,55.059972]]],[[[-8.18794,55.062137],[-8.187957,55.061987],[-8.187841,55.061988],[-8.187851,55.064144],[-8.187853,55.064683],[-8.187855,55.064952],[-8.187856,55.065222],[-8.187857,55.065492],[-8.187858,55.065761],[-8.187389,55.065762],[-8.18739,55.066031],[-8.18786,55.066031],[-8.187861,55.0663],[-8.187862,55.06657],[-8.187865,55.067109],[-8.187866,55.067378],[-8.18787,55.068187],[-8.1874,55.068188],[-8.187404,55.068996],[-8.186934,55.068997],[-8.186935,55.069266],[-8.186937,55.069536],[-8.186938,55.069805],[-8.187408,55.069805],[-8.18741,55.070344],[-8.186941,55.070344],[-8.186942,55.070614],[-8.186946,55.071423],[-8.186947,55.071692],[-8.187417,55.071691],[-8.187418,55.071961],[-8.18742,55.0725],[-8.187422,55.07277],[-8.186952,55.07277],[-8.186954,55.073309],[-8.186956,55.073579],[-8.187425,55.073578],[-8.187427,55.073848],[-8.18743,55.074656],[-8.1879,55.074655],[-8.187901,55.074925],[-8.187903,55.075195],[-8.188807,55.075193],[-8.188806,55.075191],[-8.188717,55.075126],[-8.188682,55.075049],[-8.188639,55.074937],[-8.18865,55.074833],[-8.188609,55.074716],[-8.188538,55.074664],[-8.188547,55.074645],[-8.188553,55.07463],[-8.188506,55.07456],[-8.188488,55.074535],[-8.188492,55.074514],[-8.188523,55.074479],[-8.188513,55.074465],[-8.188479,55.074437],[-8.18851,55.074392],[-8.188545,55.074336],[-8.188536,55.074299],[-8.188525,55.074264],[-8.188482,55.07426],[-8.188493,55.074224],[-8.188492,55.074192],[-8.188514,55.07417],[-8.188534,55.074138],[-8.188516,55.074113],[-8.188575,55.074083],[-8.188606,55.074064],[-8.188641,55.074033],[-8.18864,55.074009],[-8.188605,55.073985],[-8.188588,55.073952],[-8.188587,55.073919],[-8.188599,55.073911],[-8.188577,55.073873],[-8.188563,55.073844],[-8.188574,55.073828],[-8.188544,55.073775],[-8.188572,55.073744],[-8.188565,55.073712],[-8.188548,55.073686],[-8.18856,55.073658],[-8.188603,55.073618],[-8.188647,55.073558],[-8.188655,55.073532],[-8.18865,55.073495],[-8.188635,55.073465],[-8.188603,55.073449],[-8.18856,55.073441],[-8.18857,55.073407],[-8.188602,55.073384],[-8.188636,55.073347],[-8.188689,55.073273],[-8.188676,55.073253],[-8.188639,55.07323],[-8.18865,55.073179],[-8.188628,55.073157],[-8.18863,55.073128],[-8.188601,55.073095],[-8.188479,55.07303],[-8.188481,55.07294],[-8.188516,55.072881],[-8.188538,55.072816],[-8.188555,55.072759],[-8.188503,55.072698],[-8.188473,55.072673],[-8.188461,55.072652],[-8.188516,55.072621],[-8.188556,55.072554],[-8.188573,55.072496],[-8.18857,55.07244],[-8.188465,55.072404],[-8.188366,55.072393],[-8.188306,55.072371],[-8.188297,55.072332],[-8.188381,55.072319],[-8.188384,55.072318],[-8.188417,55.072276],[-8.188494,55.072233],[-8.188506,55.072169],[-8.188465,55.07214],[-8.188418,55.072108],[-8.188383,55.072082],[-8.188382,55.072028],[-8.188436,55.071994],[-8.188479,55.071947],[-8.18849,55.071894],[-8.188473,55.071886],[-8.188419,55.071888],[-8.188402,55.071869],[-8.188388,55.071831],[-8.188384,55.071803],[-8.188402,55.071775],[-8.188413,55.071735],[-8.188399,55.071708],[-8.188376,55.071687],[-8.188407,55.071674],[-8.188425,55.07165],[-8.188413,55.071626],[-8.188422,55.071591],[-8.188446,55.071569],[-8.188405,55.071498],[-8.188396,55.071482],[-8.188357,55.071435],[-8.188354,55.071408],[-8.188365,55.071396],[-8.188447,55.071353],[-8.188474,55.071313],[-8.188444,55.071256],[-8.188429,55.071173],[-8.188495,55.071161],[-8.188562,55.071134],[-8.188568,55.071098],[-8.188527,55.071037],[-8.188432,55.070984],[-8.188358,55.070925],[-8.18836,55.070893],[-8.188337,55.070862],[-8.188315,55.070788],[-8.188278,55.070716],[-8.188287,55.070679],[-8.188217,55.070561],[-8.188226,55.070502],[-8.188244,55.070417],[-8.188241,55.070351],[-8.18824,55.070289],[-8.188249,55.070275],[-8.188339,55.070219],[-8.188403,55.070192],[-8.188418,55.070149],[-8.188413,55.070134],[-8.188378,55.070114],[-8.188343,55.070099],[-8.18827,55.070101],[-8.188213,55.070113],[-8.188184,55.070123],[-8.188133,55.070115],[-8.188098,55.070104],[-8.18808,55.07009],[-8.188033,55.070072],[-8.188002,55.070063],[-8.18798,55.070021],[-8.187997,55.069979],[-8.188001,55.069937],[-8.187986,55.069876],[-8.187979,55.069851],[-8.187983,55.069819],[-8.187989,55.069799],[-8.18797,55.069767],[-8.188022,55.069745],[-8.188132,55.069754],[-8.18816,55.069746],[-8.188169,55.069735],[-8.188168,55.069712],[-8.188211,55.069651],[-8.188259,55.069571],[-8.188269,55.069551],[-8.188274,55.069474],[-8.188314,55.069395],[-8.188316,55.069376],[-8.188269,55.069322],[-8.188279,55.069266],[-8.188344,55.069187],[-8.188336,55.069125],[-8.188308,55.069032],[-8.188331,55.069],[-8.188367,55.068971],[-8.188371,55.06893],[-8.188292,55.068879],[-8.188182,55.068805],[-8.18817,55.068787],[-8.188167,55.068745],[-8.188201,55.068705],[-8.188219,55.068689],[-8.188334,55.068687],[-8.18842,55.068653],[-8.188499,55.068581],[-8.188532,55.068503],[-8.188522,55.068472],[-8.18849,55.068468],[-8.188435,55.068498],[-8.188294,55.068524],[-8.188211,55.068519],[-8.188167,55.06849],[-8.188241,55.068425],[-8.18836,55.068404],[-8.188392,55.068374],[-8.188422,55.068316],[-8.188421,55.068262],[-8.188344,55.068254],[-8.188304,55.068205],[-8.188261,55.068136],[-8.188266,55.068086],[-8.188332,55.068064],[-8.188408,55.068062],[-8.188435,55.068029],[-8.188402,55.067989],[-8.188389,55.067897],[-8.188315,55.067854],[-8.188257,55.067812],[-8.188214,55.067768],[-8.188232,55.067703],[-8.188273,55.067637],[-8.188231,55.067573],[-8.188204,55.067466],[-8.188286,55.067436],[-8.188368,55.067436],[-8.188435,55.067441],[-8.188511,55.067449],[-8.188547,55.067431],[-8.188549,55.067379],[-8.188524,55.067291],[-8.188505,55.067265],[-8.188456,55.067251],[-8.18843,55.067208],[-8.188486,55.067115],[-8.188465,55.06708],[-8.18848,55.067044],[-8.188433,55.066982],[-8.188364,55.066878],[-8.188367,55.066838],[-8.188333,55.066838],[-8.188332,55.066605],[-8.18819,55.066554],[-8.188173,55.066525],[-8.188169,55.066506],[-8.188238,55.06645],[-8.188291,55.066454],[-8.188309,55.066439],[-8.188259,55.066358],[-8.188165,55.066329],[-8.188036,55.066312],[-8.187914,55.066228],[-8.187922,55.066196],[-8.187926,55.066166],[-8.187993,55.06609],[-8.188054,55.066037],[-8.188103,55.065985],[-8.188105,55.065963],[-8.188038,55.065959],[-8.187832,55.065951],[-8.187766,55.065923],[-8.187759,55.065874],[-8.187834,55.065819],[-8.187941,55.065813],[-8.188024,55.065805],[-8.188064,55.065747],[-8.188172,55.065681],[-8.188235,55.065615],[-8.188246,55.065588],[-8.188246,55.06545],[-8.188211,55.065336],[-8.188138,55.065232],[-8.188108,55.0652],[-8.187934,55.065098],[-8.187935,55.065052],[-8.18791,55.064972],[-8.187951,55.064921],[-8.187991,55.064859],[-8.18801,55.064813],[-8.188004,55.064738],[-8.188002,55.064711],[-8.188046,55.064643],[-8.188066,55.064584],[-8.188044,55.06456],[-8.188007,55.06452],[-8.188034,55.064471],[-8.188108,55.064433],[-8.188218,55.064379],[-8.188274,55.064334],[-8.188321,55.064285],[-8.188321,55.064206],[-8.18827,55.064167],[-8.188283,55.064098],[-8.188296,55.064056],[-8.188266,55.064021],[-8.188186,55.063941],[-8.188149,55.063922],[-8.188047,55.06391],[-8.187971,55.063852],[-8.18801,55.063787],[-8.188026,55.06367],[-8.188039,55.063576],[-8.188041,55.063558],[-8.187962,55.063534],[-8.187969,55.063461],[-8.187994,55.063408],[-8.188017,55.063287],[-8.188003,55.063213],[-8.188035,55.063124],[-8.188074,55.063086],[-8.188093,55.062966],[-8.188065,55.062859],[-8.188077,55.062787],[-8.188128,55.062678],[-8.188147,55.062626],[-8.188139,55.06258],[-8.188088,55.062513],[-8.187985,55.06242],[-8.187937,55.062354],[-8.187921,55.062286],[-8.187913,55.062221],[-8.18794,55.062137]]],[[[-8.188846,55.07527],[-8.188842,55.075263],[-8.188843,55.075463],[-8.188845,55.075732],[-8.186966,55.075735],[-8.186964,55.075466],[-8.186495,55.075466],[-8.186493,55.075197],[-8.186492,55.074927],[-8.186022,55.074928],[-8.186025,55.075467],[-8.186026,55.075736],[-8.185556,55.075737],[-8.185555,55.075468],[-8.185085,55.075468],[-8.185083,55.074929],[-8.184613,55.07493],[-8.184612,55.074661],[-8.184142,55.074661],[-8.184138,55.073853],[-8.183669,55.073853],[-8.18367,55.074123],[-8.1832,55.074124],[-8.183201,55.074393],[-8.183203,55.074663],[-8.181324,55.074665],[-8.181322,55.074396],[-8.180853,55.074397],[-8.180854,55.074666],[-8.179914,55.074668],[-8.179913,55.074398],[-8.179912,55.074128],[-8.179911,55.073859],[-8.178971,55.07386],[-8.17897,55.073591],[-8.1785,55.073592],[-8.178499,55.073322],[-8.178497,55.072783],[-8.178496,55.072513],[-8.178026,55.072514],[-8.178023,55.071975],[-8.177554,55.071976],[-8.177553,55.071706],[-8.179431,55.071703],[-8.17943,55.071434],[-8.17896,55.071435],[-8.178957,55.070626],[-8.178956,55.070356],[-8.179425,55.070356],[-8.179423,55.069817],[-8.179422,55.069547],[-8.178952,55.069548],[-8.178951,55.069278],[-8.17895,55.069009],[-8.178948,55.068739],[-8.179418,55.068739],[-8.179417,55.068469],[-8.178947,55.06847],[-8.178945,55.067931],[-8.179884,55.067929],[-8.179887,55.068468],[-8.180356,55.068468],[-8.180357,55.068737],[-8.180827,55.068737],[-8.180828,55.069006],[-8.181298,55.069005],[-8.181297,55.068736],[-8.182706,55.068734],[-8.182707,55.069003],[-8.182708,55.069273],[-8.184587,55.06927],[-8.184586,55.069],[-8.185056,55.069],[-8.185052,55.068191],[-8.185048,55.067383],[-8.184578,55.067383],[-8.184577,55.067114],[-8.184107,55.067114],[-8.184105,55.066575],[-8.183635,55.066576],[-8.183637,55.066846],[-8.181758,55.066848],[-8.181757,55.066579],[-8.181287,55.06658],[-8.181286,55.06631],[-8.180816,55.066311],[-8.180815,55.066041],[-8.181754,55.06604],[-8.181753,55.06577],[-8.181283,55.065771],[-8.181282,55.065501],[-8.180813,55.065502],[-8.180811,55.065233],[-8.179402,55.065235],[-8.179401,55.064965],[-8.178932,55.064966],[-8.17893,55.064696],[-8.178928,55.064157],[-8.177519,55.064159],[-8.177518,55.06389],[-8.174231,55.063895],[-8.174232,55.064164],[-8.173293,55.064165],[-8.173294,55.064435],[-8.173001,55.064435],[-8.173004,55.06503],[-8.172357,55.065031],[-8.172358,55.065245],[-8.172359,55.065514],[-8.172829,55.065514],[-8.17283,55.065928],[-8.173008,55.065928],[-8.173008,55.066053],[-8.173301,55.066052],[-8.173302,55.066322],[-8.173303,55.066591],[-8.174242,55.06659],[-8.174241,55.06632],[-8.174711,55.06632],[-8.17471,55.06605],[-8.175179,55.066049],[-8.17518,55.066319],[-8.175182,55.066589],[-8.176591,55.066586],[-8.176592,55.066856],[-8.176122,55.066857],[-8.176123,55.067126],[-8.176124,55.067396],[-8.177533,55.067394],[-8.177535,55.067663],[-8.177536,55.067933],[-8.177066,55.067933],[-8.177067,55.068203],[-8.176128,55.068204],[-8.176129,55.068474],[-8.17566,55.068475],[-8.175661,55.068744],[-8.175662,55.069014],[-8.175663,55.069283],[-8.176602,55.069282],[-8.176604,55.069551],[-8.176605,55.069821],[-8.175665,55.069822],[-8.175667,55.070092],[-8.175197,55.070092],[-8.175198,55.070362],[-8.174728,55.070363],[-8.174731,55.070902],[-8.17614,55.0709],[-8.176141,55.071169],[-8.175671,55.07117],[-8.175673,55.071439],[-8.175203,55.07144],[-8.175204,55.07171],[-8.174734,55.07171],[-8.174735,55.07198],[-8.174599,55.07198],[-8.1746,55.07225],[-8.174737,55.072249],[-8.174738,55.072519],[-8.175677,55.072517],[-8.17568,55.073057],[-8.17521,55.073057],[-8.175212,55.073596],[-8.175214,55.074009],[-8.176173,55.074007],[-8.176175,55.074403],[-8.179443,55.074399],[-8.179445,55.074668],[-8.178975,55.074669],[-8.178976,55.074938],[-8.177567,55.074941],[-8.177568,55.07521],[-8.177569,55.07548],[-8.178039,55.075479],[-8.17804,55.075748],[-8.180389,55.075745],[-8.18039,55.076014],[-8.180391,55.076284],[-8.179922,55.076285],[-8.179923,55.076554],[-8.180393,55.076554],[-8.180394,55.076823],[-8.180864,55.076822],[-8.180865,55.077092],[-8.180866,55.077361],[-8.180867,55.077631],[-8.180868,55.0779],[-8.181338,55.0779],[-8.181339,55.078169],[-8.182279,55.078168],[-8.18228,55.078437],[-8.18369,55.078435],[-8.183688,55.078166],[-8.184628,55.078164],[-8.184629,55.078434],[-8.184159,55.078435],[-8.184161,55.078704],[-8.183691,55.078705],[-8.183692,55.078974],[-8.182753,55.078976],[-8.182754,55.079245],[-8.184163,55.079243],[-8.184162,55.078974],[-8.184632,55.078973],[-8.184631,55.078703],[-8.1851,55.078703],[-8.185102,55.078972],[-8.185103,55.079242],[-8.185104,55.079511],[-8.185105,55.079781],[-8.184166,55.079782],[-8.184167,55.080052],[-8.183697,55.080053],[-8.183698,55.080322],[-8.183229,55.080323],[-8.18323,55.080592],[-8.183231,55.080862],[-8.182761,55.080863],[-8.182762,55.081132],[-8.182764,55.081402],[-8.183233,55.081401],[-8.183235,55.08167],[-8.184644,55.081668],[-8.184645,55.081938],[-8.185115,55.081937],[-8.185116,55.082207],[-8.184647,55.082207],[-8.184648,55.082477],[-8.184178,55.082478],[-8.184177,55.082208],[-8.183707,55.082209],[-8.183708,55.082478],[-8.183238,55.082479],[-8.18324,55.082748],[-8.18277,55.082749],[-8.182771,55.083019],[-8.182772,55.083288],[-8.184182,55.083286],[-8.184183,55.083556],[-8.185123,55.083554],[-8.18512,55.083015],[-8.185119,55.082746],[-8.186059,55.082744],[-8.186057,55.082475],[-8.187937,55.082472],[-8.187938,55.082741],[-8.187956,55.082741],[-8.18805,55.08266],[-8.188278,55.082459],[-8.188537,55.082273],[-8.188644,55.082202],[-8.188978,55.0819],[-8.189446,55.081499],[-8.189905,55.081091],[-8.190152,55.080923],[-8.190238,55.080887],[-8.1902,55.080777],[-8.190168,55.080543],[-8.190114,55.080312],[-8.190008,55.079946],[-8.189944,55.079573],[-8.189874,55.079129],[-8.189821,55.078543],[-8.189788,55.078156],[-8.189326,55.078157],[-8.189323,55.077618],[-8.189764,55.077617],[-8.189747,55.077348],[-8.189322,55.077349],[-8.18932,55.07681],[-8.18838,55.076811],[-8.188379,55.076541],[-8.187909,55.076542],[-8.187908,55.076273],[-8.189317,55.07627],[-8.189318,55.07654],[-8.189638,55.07654],[-8.189616,55.076413],[-8.189436,55.076064],[-8.189387,55.076001],[-8.189316,55.076001],[-8.189315,55.075908],[-8.189133,55.075672],[-8.189107,55.075555],[-8.189078,55.075462],[-8.188925,55.075336],[-8.188846,55.07527]],[[-8.185585,55.081936],[-8.185115,55.081937],[-8.185114,55.081668],[-8.186054,55.081666],[-8.186055,55.081936],[-8.186056,55.082205],[-8.185586,55.082206],[-8.185585,55.081936]],[[-8.18557,55.078702],[-8.1851,55.078703],[-8.185099,55.078433],[-8.185569,55.078432],[-8.18557,55.078702]],[[-8.186039,55.078432],[-8.185569,55.078432],[-8.185568,55.078163],[-8.186037,55.078162],[-8.186039,55.078432]],[[-8.185098,55.078164],[-8.184628,55.078164],[-8.184627,55.077895],[-8.185097,55.077894],[-8.185098,55.078164]],[[-8.1827,55.067386],[-8.182699,55.067117],[-8.183638,55.067115],[-8.183639,55.067385],[-8.1827,55.067386]],[[-8.181764,55.068196],[-8.181763,55.067927],[-8.182233,55.067926],[-8.182234,55.068195],[-8.181764,55.068196]],[[-8.178006,55.067932],[-8.178475,55.067931],[-8.178476,55.068201],[-8.178007,55.068202],[-8.178006,55.067932]],[[-8.182264,55.074934],[-8.183204,55.074932],[-8.183205,55.075202],[-8.182266,55.075203],[-8.182264,55.074934]],[[-8.189339,55.080852],[-8.189336,55.080313],[-8.189806,55.080313],[-8.189808,55.080852],[-8.189339,55.080852]],[[-8.173769,55.065782],[-8.173768,55.065512],[-8.174238,55.065512],[-8.174239,55.065781],[-8.173769,55.065782]]],[[[-8.180926,55.086288],[-8.180961,55.086256],[-8.180436,55.086257],[-8.180438,55.086526],[-8.179498,55.086527],[-8.179499,55.086797],[-8.1795,55.087045],[-8.179507,55.087045],[-8.179555,55.08704],[-8.179559,55.087018],[-8.179614,55.086995],[-8.179645,55.086961],[-8.179708,55.086952],[-8.179732,55.086945],[-8.179767,55.086895],[-8.179783,55.086856],[-8.179826,55.086786],[-8.179858,55.086775],[-8.179901,55.086779],[-8.179984,55.086797],[-8.18,55.086795],[-8.180023,55.086731],[-8.180063,55.086713],[-8.180181,55.086681],[-8.180237,55.086677],[-8.180292,55.086697],[-8.180367,55.086729],[-8.180391,55.086731],[-8.180525,55.086661],[-8.180675,55.086615],[-8.180757,55.086583],[-8.180761,55.086567],[-8.180761,55.086533],[-8.180851,55.086366],[-8.180926,55.086288]]],[[[-8.161531,55.101266],[-8.161663,55.101107],[-8.160291,55.101109],[-8.160292,55.101378],[-8.159822,55.101379],[-8.159821,55.101109],[-8.15888,55.101111],[-8.158881,55.10138],[-8.157001,55.101383],[-8.157002,55.101652],[-8.156532,55.101653],[-8.156531,55.101383],[-8.15653,55.101114],[-8.157,55.101113],[-8.156999,55.100844],[-8.156999,55.100756],[-8.156737,55.100793],[-8.156686,55.1008],[-8.156256,55.10086],[-8.156096,55.100894],[-8.155993,55.100916],[-8.155927,55.100931],[-8.15593,55.10188],[-8.155934,55.102779],[-8.155938,55.103945],[-8.156391,55.103781],[-8.156647,55.103678],[-8.156697,55.103657],[-8.157068,55.103498],[-8.157411,55.103397],[-8.157589,55.103346],[-8.157982,55.103205],[-8.158598,55.102998],[-8.158418,55.102998],[-8.158417,55.102775],[-8.1575,55.102777],[-8.157499,55.10246],[-8.157476,55.10246],[-8.157474,55.102191],[-8.157004,55.102191],[-8.157003,55.101922],[-8.157497,55.101921],[-8.157497,55.101878],[-8.159063,55.101876],[-8.159066,55.102458],[-8.159356,55.102458],[-8.159355,55.102188],[-8.160295,55.102187],[-8.160296,55.102388],[-8.160462,55.102336],[-8.160563,55.102277],[-8.160722,55.102168],[-8.160886,55.102037],[-8.16109,55.101797],[-8.161289,55.101555],[-8.161531,55.101266]]],[[[-8.15989,55.102538],[-8.160102,55.102457],[-8.159826,55.102457],[-8.159826,55.10256],[-8.15989,55.102538]]],[[[-8.159104,55.102819],[-8.159355,55.102727],[-8.159067,55.102728],[-8.159067,55.102775],[-8.158887,55.102775],[-8.158887,55.102896],[-8.159104,55.102819]]],[[[-8.157481,55.097767],[-8.157723,55.097878],[-8.157928,55.097878],[-8.157926,55.097387],[-8.157479,55.097387],[-8.157481,55.097767]]],[[[-8.160606,55.095987],[-8.160601,55.09464],[-8.160265,55.09464],[-8.160266,55.09491],[-8.159796,55.09491],[-8.159797,55.09518],[-8.159799,55.095719],[-8.1598,55.095988],[-8.159801,55.096258],[-8.159802,55.096486],[-8.160272,55.096485],[-8.16027,55.095988],[-8.160606,55.095987]]],[[[-8.157473,55.095722],[-8.157474,55.095991],[-8.15839,55.09599],[-8.158389,55.095721],[-8.157473,55.095722]]],[[[-8.159339,55.077038],[-8.159255,55.077033],[-8.159255,55.077122],[-8.159725,55.077121],[-8.159725,55.077049],[-8.159339,55.077038]]],[[[-8.169881,55.06683],[-8.169547,55.066831],[-8.169547,55.066866],[-8.169881,55.066866],[-8.169881,55.06683]]],[[[-8.172993,55.062549],[-8.172995,55.063088],[-8.173757,55.063087],[-8.173756,55.062817],[-8.173755,55.062548],[-8.172993,55.062549]]],[[[-8.169923,55.076711],[-8.169589,55.076712],[-8.169589,55.076839],[-8.169923,55.076838],[-8.169923,55.076711]]],[[[-8.169922,55.076569],[-8.169923,55.076711],[-8.170058,55.076711],[-8.170058,55.076568],[-8.169922,55.076569]]],[[[-8.174647,55.082992],[-8.175253,55.082991],[-8.175252,55.08276],[-8.175722,55.08276],[-8.175721,55.08249],[-8.175719,55.081951],[-8.175717,55.081681],[-8.176187,55.081681],[-8.176186,55.081411],[-8.176185,55.081142],[-8.176655,55.081141],[-8.176653,55.080872],[-8.177123,55.080871],[-8.177122,55.080601],[-8.177592,55.080601],[-8.177591,55.080331],[-8.178061,55.08033],[-8.178059,55.080061],[-8.178529,55.08006],[-8.178528,55.079791],[-8.181347,55.079786],[-8.181346,55.079517],[-8.182285,55.079516],[-8.182284,55.079246],[-8.179465,55.07925],[-8.179466,55.07952],[-8.178527,55.079521],[-8.178526,55.079252],[-8.178056,55.079252],[-8.178055,55.078983],[-8.178053,55.078713],[-8.177114,55.078715],[-8.177115,55.078984],[-8.176645,55.078985],[-8.176646,55.079254],[-8.176648,55.079524],[-8.175708,55.079525],[-8.175709,55.079795],[-8.175239,55.079795],[-8.17524,55.080065],[-8.174771,55.080066],[-8.174772,55.080335],[-8.174773,55.080605],[-8.174774,55.080874],[-8.174777,55.081413],[-8.174779,55.081952],[-8.173839,55.081954],[-8.17384,55.082223],[-8.173371,55.082224],[-8.173372,55.082493],[-8.173373,55.082763],[-8.172903,55.082764],[-8.172904,55.083033],[-8.173374,55.083032],[-8.173375,55.083302],[-8.173378,55.083841],[-8.174651,55.083839],[-8.174647,55.082992]]],[[[-8.149977,55.094144],[-8.149635,55.094202],[-8.149637,55.094702],[-8.150865,55.094701],[-8.150865,55.094652],[-8.151203,55.094652],[-8.151201,55.094113],[-8.150863,55.094113],[-8.150863,55.093992],[-8.149977,55.094144]]],[[[-8.154343,55.096493],[-8.154343,55.096493],[-8.154341,55.095995],[-8.15416,55.095996],[-8.154159,55.095726],[-8.15434,55.095726],[-8.154336,55.094697],[-8.153685,55.094697],[-8.153686,55.094918],[-8.153216,55.094919],[-8.153219,55.095727],[-8.152774,55.095728],[-8.152775,55.095997],[-8.15322,55.095997],[-8.153221,55.096266],[-8.153691,55.096266],[-8.153692,55.096494],[-8.154343,55.096493]]],[[[-8.151207,55.095716],[-8.151207,55.095599],[-8.149641,55.095601],[-8.149642,55.096086],[-8.149983,55.096047],[-8.151197,55.095719],[-8.151207,55.095716]]],[[[-8.157479,55.097387],[-8.157479,55.097339],[-8.156351,55.097341],[-8.156431,55.097389],[-8.157479,55.097387]]],[[[-8.156015,55.097226],[-8.156045,55.097232],[-8.156044,55.097071],[-8.155912,55.097072],[-8.155912,55.097195],[-8.156015,55.097226]]],[[[-8.156982,55.09649],[-8.156512,55.09649],[-8.156512,55.096532],[-8.156982,55.096531],[-8.156982,55.09649]]],[[[-8.152433,55.096879],[-8.152501,55.096854],[-8.152682,55.096845],[-8.152778,55.096828],[-8.152778,55.096806],[-8.152753,55.096806],[-8.152752,55.096537],[-8.152282,55.096537],[-8.152282,55.096496],[-8.151688,55.096496],[-8.151211,55.096601],[-8.151217,55.098249],[-8.151349,55.097982],[-8.152075,55.097865],[-8.151985,55.097662],[-8.151932,55.097556],[-8.151892,55.097477],[-8.15183,55.097422],[-8.151739,55.097271],[-8.151813,55.097257],[-8.151801,55.097217],[-8.151735,55.097028],[-8.152161,55.096946],[-8.152174,55.096943],[-8.152278,55.096916],[-8.152433,55.096879]]],[[[-8.174692,55.062007],[-8.174691,55.061738],[-8.174221,55.061738],[-8.174222,55.062008],[-8.174224,55.062277],[-8.174693,55.062277],[-8.174692,55.062007]]],[[[-8.1794,55.064696],[-8.179401,55.064965],[-8.180341,55.064964],[-8.180339,55.064694],[-8.1794,55.064696]]],[[[-8.16396,55.078733],[-8.163961,55.079003],[-8.16537,55.079001],[-8.165371,55.07927],[-8.165372,55.07954],[-8.165373,55.079809],[-8.166313,55.079808],[-8.166311,55.079269],[-8.166307,55.07846],[-8.166306,55.078191],[-8.166305,55.077921],[-8.166304,55.077652],[-8.166303,55.077382],[-8.166302,55.077113],[-8.164892,55.077115],[-8.164894,55.077384],[-8.164895,55.077654],[-8.164425,55.077654],[-8.164426,55.077924],[-8.164428,55.078463],[-8.163958,55.078463],[-8.16396,55.078733]]],[[[-8.163491,55.079003],[-8.163492,55.079273],[-8.163962,55.079272],[-8.163961,55.079003],[-8.163491,55.079003]]],[[[-8.163493,55.079542],[-8.163492,55.079273],[-8.163022,55.079273],[-8.163023,55.079543],[-8.163493,55.079542]]],[[[-8.174667,55.056347],[-8.174666,55.056078],[-8.174197,55.056078],[-8.174195,55.055809],[-8.173726,55.055809],[-8.173728,55.056348],[-8.174667,55.056347]]],[[[-8.184101,55.065767],[-8.183632,55.065767],[-8.183633,55.066037],[-8.183634,55.066307],[-8.184104,55.066306],[-8.184103,55.066036],[-8.184101,55.065767]]],[[[-8.184592,55.070348],[-8.184122,55.070349],[-8.184124,55.070618],[-8.184593,55.070618],[-8.184592,55.070348]]],[[[-8.181315,55.072779],[-8.180845,55.072779],[-8.180848,55.073319],[-8.181318,55.073318],[-8.181315,55.072779]]],[[[-8.174213,55.059852],[-8.173743,55.059852],[-8.173745,55.060122],[-8.174214,55.060121],[-8.174213,55.059852]]],[[[-8.165356,55.075497],[-8.165354,55.075227],[-8.164885,55.075228],[-8.164888,55.076036],[-8.165358,55.076036],[-8.165356,55.075497]]],[[[-8.175693,55.076021],[-8.175691,55.075752],[-8.176631,55.07575],[-8.17663,55.075481],[-8.17522,55.075483],[-8.175223,55.076022],[-8.175693,55.076021]]],[[[-8.172872,55.075486],[-8.173811,55.075485],[-8.17381,55.075215],[-8.17334,55.075216],[-8.173339,55.074947],[-8.1724,55.074948],[-8.172401,55.075217],[-8.172871,55.075217],[-8.172872,55.075486]]],[[[-8.177128,55.081949],[-8.17713,55.082488],[-8.1776,55.082487],[-8.177601,55.082757],[-8.177603,55.083026],[-8.178073,55.083026],[-8.178071,55.082756],[-8.178541,55.082755],[-8.17854,55.082486],[-8.17807,55.082487],[-8.178069,55.082217],[-8.178068,55.081948],[-8.177128,55.081949]]],[[[-8.175706,55.078986],[-8.176175,55.078985],[-8.176174,55.078716],[-8.175235,55.078717],[-8.175233,55.078448],[-8.174294,55.078449],[-8.174295,55.078719],[-8.174296,55.078988],[-8.174297,55.079258],[-8.175707,55.079256],[-8.175706,55.078986]]],[[[-8.178516,55.077095],[-8.178515,55.076826],[-8.178045,55.076827],[-8.178046,55.077096],[-8.178516,55.077095]]],[[[-8.179928,55.077632],[-8.179458,55.077633],[-8.179459,55.077903],[-8.179929,55.077902],[-8.179928,55.077632]]],[[[-8.178988,55.077634],[-8.179458,55.077633],[-8.179457,55.077364],[-8.178987,55.077364],[-8.178988,55.077634]]],[[[-8.171953,55.080339],[-8.171483,55.08034],[-8.171484,55.080609],[-8.171954,55.080609],[-8.171953,55.080339]]],[[[-8.17149,55.081957],[-8.17243,55.081956],[-8.172427,55.081417],[-8.172426,55.081147],[-8.171487,55.081148],[-8.17149,55.081957]]],[[[-8.173366,55.081146],[-8.173367,55.081415],[-8.173837,55.081415],[-8.173835,55.080876],[-8.173365,55.080876],[-8.173366,55.081146]]],[[[-8.176126,55.067665],[-8.175656,55.067666],[-8.175657,55.067935],[-8.176127,55.067935],[-8.176126,55.067665]]],[[[-8.157355,55.071734],[-8.157825,55.071733],[-8.157824,55.071464],[-8.156884,55.071465],[-8.156885,55.071735],[-8.156415,55.071735],[-8.156416,55.072005],[-8.157356,55.072003],[-8.157355,55.071734]]],[[[-8.156921,55.080899],[-8.157391,55.080898],[-8.15739,55.080628],[-8.15692,55.080629],[-8.156921,55.080899]]]]}}]}
