{"type":"FeatureCollection","features":[{"type":"Feature","properties":{"source_fid":963560,"county":"Galway","bog_geom_ha":118.08137240081062,"low15_pct":92.862566438876243,"low15_ha":109.65339289763963,"overlay_ha":109.3928787421567,"area_delta":-0.26051415548293733},"geometry":{"type":"MultiPolygon","coordinates":[[[[-10.010168,53.529177],[-10.010216,53.529088],[-10.010266,53.528933],[-10.009565,53.528944],[-10.009561,53.528869],[-10.008451,53.528866],[-10.008344,53.528866],[-10.008027,53.528862],[-10.003222,53.528803],[-10.003234,53.529051],[-10.003247,53.52932],[-10.003699,53.529313],[-10.003686,53.529043],[-10.004139,53.529036],[-10.004151,53.529305],[-10.005056,53.52929],[-10.005068,53.529559],[-10.005521,53.529552],[-10.005533,53.529821],[-10.003272,53.529859],[-10.00326,53.52959],[-10.002355,53.529605],[-10.002342,53.529335],[-10.001438,53.52935],[-10.001425,53.529081],[-10.000973,53.529089],[-10.00096,53.528819],[-10.000056,53.528834],[-10.000053,53.528763],[-9.997442,53.528727],[-9.994838,53.528692],[-9.992385,53.528693],[-9.989395,53.528698],[-9.989018,53.528718],[-9.98876,53.528717],[-9.988405,53.52871],[-9.988123,53.528712],[-9.987647,53.528708],[-9.98734,53.528703],[-9.986865,53.528697],[-9.986581,53.528696],[-9.986304,53.528695],[-9.986129,53.528694],[-9.98602,53.528693],[-9.986025,53.528799],[-9.984669,53.528821],[-9.984662,53.528687],[-9.984611,53.528687],[-9.984136,53.528688],[-9.984093,53.528688],[-9.984035,53.528688],[-9.983869,53.528688],[-9.983709,53.528687],[-9.983665,53.528688],[-9.983326,53.528691],[-9.983076,53.528692],[-9.982778,53.528691],[-9.982468,53.528689],[-9.982407,53.528688],[-9.982307,53.528687],[-9.982254,53.528686],[-9.982106,53.528687],[-9.982012,53.528687],[-9.981802,53.528682],[-9.981628,53.528682],[-9.981581,53.528682],[-9.98155,53.528681],[-9.981448,53.52868],[-9.981103,53.528684],[-9.981017,53.528685],[-9.980887,53.528685],[-9.980618,53.528686],[-9.980211,53.528688],[-9.979973,53.528689],[-9.979698,53.528666],[-9.979367,53.528652],[-9.979208,53.528653],[-9.979045,53.528654],[-9.978866,53.528658],[-9.978686,53.528662],[-9.978491,53.528658],[-9.9784,53.528656],[-9.978339,53.528654],[-9.978129,53.528646],[-9.977947,53.528633],[-9.977738,53.528599],[-9.977722,53.52871],[-9.977694,53.528903],[-9.977666,53.5291],[-9.977643,53.529305],[-9.977621,53.529478],[-9.97761,53.529694],[-9.977597,53.529863],[-9.977572,53.530051],[-9.97754,53.530246],[-9.977526,53.530407],[-9.977495,53.530561],[-9.977483,53.530679],[-9.977449,53.530923],[-9.977426,53.531202],[-9.977375,53.531479],[-9.977329,53.531713],[-9.977304,53.531909],[-9.977571,53.531905],[-9.977584,53.532174],[-9.978488,53.532159],[-9.978476,53.53189],[-9.978928,53.531882],[-9.978903,53.531344],[-9.978878,53.530805],[-9.97933,53.530797],[-9.979317,53.530528],[-9.978865,53.530535],[-9.978828,53.529727],[-9.97928,53.529719],[-9.979267,53.52945],[-9.979719,53.529442],[-9.979707,53.529173],[-9.979694,53.528904],[-9.980146,53.528896],[-9.980159,53.529166],[-9.980611,53.529158],[-9.980624,53.529427],[-9.980636,53.529697],[-9.980674,53.530505],[-9.980687,53.530775],[-9.980712,53.531314],[-9.98026,53.531321],[-9.980285,53.53186],[-9.980297,53.532129],[-9.979845,53.532137],[-9.979858,53.532406],[-9.979405,53.532414],[-9.979418,53.532683],[-9.980323,53.532668],[-9.980335,53.532938],[-9.980348,53.533207],[-9.979895,53.533215],[-9.979908,53.533484],[-9.979003,53.533499],[-9.978991,53.53323],[-9.978086,53.533245],[-9.978099,53.533514],[-9.977194,53.533529],[-9.977182,53.53326],[-9.977169,53.53299],[-9.977136,53.532991],[-9.977135,53.532995],[-9.977105,53.533147],[-9.977082,53.533301],[-9.977062,53.533493],[-9.977036,53.53366],[-9.977023,53.533723],[-9.977057,53.533738],[-9.977137,53.533794],[-9.977212,53.533841],[-9.977343,53.533924],[-9.977433,53.533958],[-9.977544,53.533989],[-9.977671,53.534018],[-9.977838,53.534043],[-9.977959,53.534057],[-9.978072,53.534062],[-9.97823,53.534072],[-9.978335,53.534075],[-9.978441,53.534082],[-9.978573,53.534079],[-9.97869,53.534074],[-9.978807,53.534072],[-9.978918,53.534112],[-9.979,53.534139],[-9.979144,53.53418],[-9.979246,53.534199],[-9.979352,53.534216],[-9.979429,53.534226],[-9.97957,53.534225],[-9.979714,53.53421],[-9.979799,53.534218],[-9.979884,53.534226],[-9.980014,53.534242],[-9.98012,53.534259],[-9.98021,53.534286],[-9.980338,53.534333],[-9.980404,53.534353],[-9.980453,53.534362],[-9.980556,53.534338],[-9.980632,53.534324],[-9.980721,53.534327],[-9.980797,53.534321],[-9.980892,53.53429],[-9.980959,53.534274],[-9.981016,53.534277],[-9.981083,53.534314],[-9.98116,53.534392],[-9.981237,53.534469],[-9.981281,53.534528],[-9.981324,53.534566],[-9.981408,53.534626],[-9.981471,53.534659],[-9.981541,53.534688],[-9.98172,53.534718],[-9.981912,53.534752],[-9.981993,53.53476],[-9.982077,53.534753],[-9.982205,53.534738],[-9.982287,53.534758],[-9.982376,53.534826],[-9.982482,53.534905],[-9.982596,53.534999],[-9.982709,53.535119],[-9.982782,53.535196],[-9.982851,53.535267],[-9.982936,53.535334],[-9.983045,53.535411],[-9.983158,53.535476],[-9.983174,53.535485],[-9.98319,53.535477],[-9.983217,53.535462],[-9.98329,53.535428],[-9.983456,53.535311],[-9.984134,53.535835],[-9.984194,53.535867],[-9.985694,53.535842],[-9.985652,53.534945],[-9.987437,53.534915],[-9.98739,53.534899],[-9.987329,53.534886],[-9.987203,53.534872],[-9.987137,53.534854],[-9.987058,53.534811],[-9.987003,53.534771],[-9.986943,53.53471],[-9.986871,53.534591],[-9.986799,53.534478],[-9.986759,53.534411],[-9.986709,53.534381],[-9.986699,53.534379],[-9.986639,53.534368],[-9.986518,53.534352],[-9.986402,53.534307],[-9.986297,53.534234],[-9.986167,53.534158],[-9.986103,53.534111],[-9.986089,53.534076],[-9.986105,53.534059],[-9.985946,53.533978],[-9.985826,53.533924],[-9.985202,53.534068],[-9.984698,53.534101],[-9.983975,53.534072],[-9.983565,53.534018],[-9.98333,53.533978],[-9.983202,53.533861],[-9.983124,53.533767],[-9.983063,53.533764],[-9.982985,53.533739],[-9.98293,53.533724],[-9.982866,53.533706],[-9.982763,53.53366],[-9.982699,53.533611],[-9.982649,53.533518],[-9.9826,53.533378],[-9.982575,53.533232],[-9.982551,53.533172],[-9.982452,53.533143],[-9.982285,53.533116],[-9.982089,53.533072],[-9.981925,53.533032],[-9.981846,53.532993],[-9.981741,53.532919],[-9.981635,53.53284],[-9.981546,53.532767],[-9.981496,53.532677],[-9.981448,53.532551],[-9.981422,53.532455],[-9.981396,53.532367],[-9.981368,53.532233],[-9.981349,53.532135],[-9.981348,53.532051],[-9.98137,53.531943],[-9.981388,53.531851],[-9.981414,53.531745],[-9.981447,53.531641],[-9.981481,53.531532],[-9.981497,53.531404],[-9.981507,53.53131],[-9.981516,53.531183],[-9.981515,53.531046],[-9.981507,53.530919],[-9.981492,53.530811],[-9.981472,53.530749],[-9.981419,53.530667],[-9.981353,53.530589],[-9.981274,53.530538],[-9.981185,53.530477],[-9.981112,53.530404],[-9.981055,53.530331],[-9.98104,53.530299],[-9.981236,53.53029],[-9.981648,53.53031],[-9.982665,53.530335],[-9.984021,53.530363],[-9.984887,53.530425],[-9.985901,53.530518],[-9.986111,53.530537],[-9.986752,53.530596],[-9.986805,53.530601],[-9.986889,53.530609],[-9.986933,53.530613],[-9.987117,53.53063],[-9.987594,53.530667],[-9.988105,53.530714],[-9.988818,53.530775],[-9.990082,53.530886],[-9.990869,53.530955],[-9.993079,53.531043],[-9.992685,53.531558],[-9.992644,53.53159],[-9.992505,53.531701],[-9.992234,53.532095],[-9.991903,53.53241],[-9.991252,53.532915],[-9.991198,53.532989],[-9.991048,53.533144],[-9.990703,53.533502],[-9.990651,53.533575],[-9.991227,53.533566],[-9.99124,53.533835],[-9.991245,53.53396],[-9.991562,53.534019],[-9.993653,53.534412],[-9.993853,53.534472],[-9.994327,53.534593],[-9.994443,53.534591],[-9.994445,53.534622],[-9.994875,53.534716],[-9.995436,53.534844],[-9.995955,53.534967],[-9.996296,53.535023],[-9.996699,53.535092],[-9.99673,53.535092],[-9.99673,53.535098],[-9.997146,53.535172],[-9.99763,53.535279],[-9.997776,53.535306],[-9.998187,53.535394],[-9.99858,53.535515],[-9.998841,53.535567],[-9.998966,53.535594],[-9.999017,53.535593],[-9.999017,53.535605],[-9.999086,53.535619],[-9.99926,53.535616],[-9.999262,53.535659],[-9.999586,53.535736],[-9.999867,53.535819],[-9.999909,53.535833],[-9.999987,53.535858],[-10.000221,53.535899],[-10.000608,53.535968],[-10.00073,53.535982],[-10.001031,53.536006],[-10.001268,53.536034],[-10.001808,53.536122],[-10.001964,53.536142],[-10.001985,53.536145],[-10.002191,53.536175],[-10.002483,53.536218],[-10.002749,53.536258],[-10.00345,53.536443],[-10.003849,53.535997],[-10.004715,53.535129],[-10.005405,53.534452],[-10.00562,53.534169],[-10.005692,53.534124],[-10.006055,53.533804],[-10.006248,53.533623],[-10.006325,53.533632],[-10.006427,53.533641],[-10.006574,53.533651],[-10.00686,53.533663],[-10.006882,53.533664],[-10.007102,53.533675],[-10.007113,53.533661],[-10.007116,53.533657],[-10.007172,53.533569],[-10.007205,53.533537],[-10.007238,53.533475],[-10.007221,53.533441],[-10.0072,53.533425],[-10.00726,53.533408],[-10.007282,53.533376],[-10.007334,53.533353],[-10.007663,53.533239],[-10.008245,53.533014],[-10.008444,53.53295],[-10.009025,53.532721],[-10.009176,53.532693],[-10.009923,53.532438],[-10.010101,53.532378],[-10.010426,53.53227],[-10.010623,53.531956],[-10.010708,53.531713],[-10.010664,53.531466],[-10.010584,53.531192],[-10.010475,53.530769],[-10.010432,53.530724],[-10.01032,53.530685],[-10.010184,53.530561],[-10.010162,53.53051],[-10.010148,53.530466],[-10.010153,53.530334],[-10.010148,53.530195],[-10.010194,53.530145],[-10.010196,53.530051],[-10.010229,53.529986],[-10.010345,53.529833],[-10.010346,53.529831],[-10.010313,53.529719],[-10.010298,53.529624],[-10.010267,53.529485],[-10.010205,53.529338],[-10.010197,53.529208],[-10.010168,53.529177]],[[-9.995992,53.530279],[-9.997499,53.530254],[-9.997541,53.531152],[-9.996034,53.531177],[-9.995992,53.530279]],[[-9.985159,53.529622],[-9.985171,53.529891],[-9.985184,53.530161],[-9.984732,53.530168],[-9.984719,53.529899],[-9.984267,53.529906],[-9.984254,53.529637],[-9.985159,53.529622]]],[[[-9.985597,53.536841],[-9.985723,53.536857],[-9.985742,53.536859],[-9.985736,53.53674],[-9.985151,53.53675],[-9.985161,53.536752],[-9.985312,53.53679],[-9.985455,53.536818],[-9.985597,53.536841]]],[[[-9.988971,53.535159],[-9.988675,53.534982],[-9.988671,53.534981],[-9.988709,53.535792],[-9.98904,53.535787],[-9.989094,53.535767],[-9.989057,53.535715],[-9.988908,53.535459],[-9.988869,53.535347],[-9.988883,53.535298],[-9.988967,53.535302],[-9.989068,53.535283],[-9.989127,53.535252],[-9.988971,53.535159]]],[[[-9.988244,53.534886],[-9.98824,53.534888],[-9.988187,53.534902],[-9.988348,53.5349],[-9.988244,53.534886]]]]}}]}
