{"type":"FeatureCollection","features":[{"type":"Feature","properties":{"source_fid":964696,"county":"Galway","bog_geom_ha":250.92930890276133,"low15_pct":89.634146341463421,"low15_ha":224.91834395552388,"overlay_ha":225.23035649778814,"area_delta":0.3120125422642559},"geometry":{"type":"MultiPolygon","coordinates":[[[[-9.468915,53.365041],[-9.468792,53.364946],[-9.468584,53.364768],[-9.46844,53.364654],[-9.468439,53.364653],[-9.468317,53.364552],[-9.468242,53.3645],[-9.466932,53.364516],[-9.466915,53.364003],[-9.46671,53.364005],[-9.4667,53.363736],[-9.465799,53.363747],[-9.46579,53.363477],[-9.465339,53.363483],[-9.46533,53.363213],[-9.465321,53.362944],[-9.46487,53.362949],[-9.464861,53.36268],[-9.464852,53.36241],[-9.464401,53.362416],[-9.464383,53.361877],[-9.463482,53.361888],[-9.463472,53.361618],[-9.462121,53.361635],[-9.462111,53.361365],[-9.46121,53.361376],[-9.461201,53.361107],[-9.4603,53.361118],[-9.460291,53.360848],[-9.460282,53.360579],[-9.460718,53.360573],[-9.460689,53.36055],[-9.460524,53.360429],[-9.46053,53.360375],[-9.460542,53.360217],[-9.460569,53.360036],[-9.460263,53.36004],[-9.460254,53.35977],[-9.460704,53.359765],[-9.460686,53.359226],[-9.460235,53.359231],[-9.460245,53.359501],[-9.459794,53.359506],[-9.459785,53.359237],[-9.459776,53.358967],[-9.459767,53.358698],[-9.460069,53.358694],[-9.460039,53.358678],[-9.459721,53.35866],[-9.459321,53.35863],[-9.459069,53.358615],[-9.459006,53.358408],[-9.458902,53.358368],[-9.458742,53.358332],[-9.458715,53.358279],[-9.458696,53.358238],[-9.458599,53.358152],[-9.458497,53.357987],[-9.458335,53.357926],[-9.458116,53.35784],[-9.457975,53.357792],[-9.457855,53.357745],[-9.457677,53.357685],[-9.457541,53.357642],[-9.457305,53.357546],[-9.457065,53.35746],[-9.456912,53.357402],[-9.456843,53.357258],[-9.456776,53.357208],[-9.456756,53.357149],[-9.456645,53.357108],[-9.456543,53.357091],[-9.456448,53.357061],[-9.456421,53.357018],[-9.456167,53.356891],[-9.455988,53.356811],[-9.455855,53.356748],[-9.455681,53.356674],[-9.455619,53.356648],[-9.455563,53.356833],[-9.455503,53.357013],[-9.455463,53.357265],[-9.455419,53.357533],[-9.455413,53.35775],[-9.455401,53.35786],[-9.45544,53.357945],[-9.455487,53.357972],[-9.455616,53.358028],[-9.455741,53.358112],[-9.455848,53.358182],[-9.455961,53.35827],[-9.455993,53.358324],[-9.456155,53.358342],[-9.456249,53.358381],[-9.456348,53.358417],[-9.456368,53.358479],[-9.456286,53.358552],[-9.456163,53.358616],[-9.456086,53.358697],[-9.455963,53.358754],[-9.455774,53.358785],[-9.455713,53.358796],[-9.455721,53.359017],[-9.45527,53.359022],[-9.455266,53.358898],[-9.455218,53.358915],[-9.455012,53.358936],[-9.454779,53.358995],[-9.454624,53.358998],[-9.454367,53.359023],[-9.454117,53.359079],[-9.45383,53.359101],[-9.453785,53.359112],[-9.453695,53.359272],[-9.453598,53.359514],[-9.453654,53.359592],[-9.454135,53.359673],[-9.454321,53.359725],[-9.454527,53.359817],[-9.454609,53.35996],[-9.45466,53.360176],[-9.454434,53.360272],[-9.454315,53.360536],[-9.454231,53.360602],[-9.453934,53.360838],[-9.453802,53.360964],[-9.453544,53.360966],[-9.453546,53.360967],[-9.453492,53.360966],[-9.45341,53.36101],[-9.453437,53.361149],[-9.453311,53.361471],[-9.453154,53.361787],[-9.453099,53.361903],[-9.453009,53.362089],[-9.453035,53.362171],[-9.453115,53.362451],[-9.453147,53.362676],[-9.453133,53.363018],[-9.453131,53.363057],[-9.452764,53.363328],[-9.452762,53.36333],[-9.452761,53.363332],[-9.452759,53.363335],[-9.452746,53.363352],[-9.452743,53.363355],[-9.45274,53.363357],[-9.452736,53.36336],[-9.452731,53.363362],[-9.452715,53.363367],[-9.454066,53.363351],[-9.454075,53.363621],[-9.453624,53.363626],[-9.453633,53.363896],[-9.453183,53.363901],[-9.453192,53.364171],[-9.452741,53.364176],[-9.452751,53.364446],[-9.4523,53.364451],[-9.452309,53.364721],[-9.451859,53.364726],[-9.451868,53.364996],[-9.451877,53.365265],[-9.451886,53.365535],[-9.450985,53.365546],[-9.450994,53.365815],[-9.450544,53.365821],[-9.450534,53.365551],[-9.448833,53.365572],[-9.448766,53.365589],[-9.44862,53.365657],[-9.448508,53.365704],[-9.448309,53.365755],[-9.448131,53.365752],[-9.447833,53.365774],[-9.447685,53.365801],[-9.447537,53.365827],[-9.447412,53.365872],[-9.447316,53.365907],[-9.447178,53.365889],[-9.447165,53.365955],[-9.447159,53.365989],[-9.44703,53.366046],[-9.446837,53.366087],[-9.446792,53.366121],[-9.446715,53.366178],[-9.446676,53.366207],[-9.446661,53.366215],[-9.446598,53.366249],[-9.446601,53.36625],[-9.446594,53.366252],[-9.446497,53.366303],[-9.446326,53.366347],[-9.446175,53.366422],[-9.446053,53.366462],[-9.446011,53.366476],[-9.44592,53.366502],[-9.445625,53.366583],[-9.445488,53.366656],[-9.445492,53.36666],[-9.445495,53.366664],[-9.445496,53.366667],[-9.445496,53.366671],[-9.445496,53.366675],[-9.445489,53.366697],[-9.445487,53.3667],[-9.445485,53.366703],[-9.445483,53.366706],[-9.445479,53.366708],[-9.445444,53.366731],[-9.445441,53.366732],[-9.44538,53.366764],[-9.445334,53.3668],[-9.445282,53.36686],[-9.445281,53.36686],[-9.445277,53.366864],[-9.445246,53.366886],[-9.445217,53.366934],[-9.444931,53.367193],[-9.444861,53.36728],[-9.444985,53.36747],[-9.445206,53.367635],[-9.445297,53.367846],[-9.445441,53.367967],[-9.445614,53.368205],[-9.445621,53.368211],[-9.445763,53.368322],[-9.445824,53.3684],[-9.445812,53.368504],[-9.44576,53.368615],[-9.44573,53.368814],[-9.445791,53.368896],[-9.445803,53.368936],[-9.445814,53.368979],[-9.445822,53.369006],[-9.445826,53.369021],[-9.445868,53.369176],[-9.446037,53.369221],[-9.446153,53.369343],[-9.44637,53.369442],[-9.446471,53.369499],[-9.446585,53.369607],[-9.446781,53.369724],[-9.446897,53.369856],[-9.446899,53.36987],[-9.446897,53.369872],[-9.446893,53.369895],[-9.446901,53.369909],[-9.446905,53.369917],[-9.446914,53.369986],[-9.446899,53.37013],[-9.446916,53.370192],[-9.446933,53.37025],[-9.446933,53.370253],[-9.446989,53.370338],[-9.446914,53.370443],[-9.446872,53.370526],[-9.446857,53.370557],[-9.446865,53.370618],[-9.446874,53.370677],[-9.446862,53.370708],[-9.446858,53.370716],[-9.446807,53.370843],[-9.446631,53.371108],[-9.446471,53.371365],[-9.446476,53.37138],[-9.446474,53.371381],[-9.446477,53.371385],[-9.446506,53.371484],[-9.446569,53.371607],[-9.446638,53.371716],[-9.446849,53.371921],[-9.447129,53.372006],[-9.447265,53.372079],[-9.447347,53.372222],[-9.447542,53.372325],[-9.44765,53.372426],[-9.447772,53.372555],[-9.447825,53.372637],[-9.447928,53.372744],[-9.447977,53.372796],[-9.448031,53.372852],[-9.448032,53.372854],[-9.448189,53.373092],[-9.448412,53.373156],[-9.448529,53.373227],[-9.44857,53.373247],[-9.448612,53.373268],[-9.448688,53.373294],[-9.448733,53.373276],[-9.448846,53.37324],[-9.448944,53.373238],[-9.449026,53.373275],[-9.449093,53.373346],[-9.449205,53.373399],[-9.449207,53.373399],[-9.449187,53.37282],[-9.45126,53.372795],[-9.451277,53.372761],[-9.451347,53.37267],[-9.451384,53.372604],[-9.451457,53.372572],[-9.451538,53.37257],[-9.451648,53.372596],[-9.451749,53.372656],[-9.451825,53.372672],[-9.451939,53.372656],[-9.452011,53.372607],[-9.452044,53.372579],[-9.452085,53.372581],[-9.452127,53.372617],[-9.452124,53.372542],[-9.453026,53.372531],[-9.453044,53.37307],[-9.453495,53.373065],[-9.453504,53.373334],[-9.453513,53.373604],[-9.453964,53.373598],[-9.453955,53.373329],[-9.454405,53.373323],[-9.454396,53.373054],[-9.454847,53.373048],[-9.454829,53.372509],[-9.455279,53.372504],[-9.45527,53.372234],[-9.456171,53.372223],[-9.456181,53.372493],[-9.456631,53.372487],[-9.45665,53.373026],[-9.456199,53.373032],[-9.456208,53.373301],[-9.455757,53.373307],[-9.455767,53.373576],[-9.455316,53.373582],[-9.455325,53.373851],[-9.454874,53.373857],[-9.454902,53.374665],[-9.454451,53.374671],[-9.45446,53.37494],[-9.45447,53.37521],[-9.455278,53.3752],[-9.455256,53.374544],[-9.455799,53.374537],[-9.455785,53.374115],[-9.456236,53.37411],[-9.45625,53.374532],[-9.456758,53.374525],[-9.456771,53.374912],[-9.457165,53.374907],[-9.457174,53.375177],[-9.457183,53.375446],[-9.457634,53.375441],[-9.457643,53.37571],[-9.457652,53.37598],[-9.458103,53.375974],[-9.458112,53.376244],[-9.458563,53.376238],[-9.458572,53.376508],[-9.459023,53.376502],[-9.459032,53.376772],[-9.458131,53.376783],[-9.458121,53.376514],[-9.457671,53.376519],[-9.457661,53.376249],[-9.457211,53.376255],[-9.457201,53.375985],[-9.457192,53.375716],[-9.456742,53.375721],[-9.456732,53.375452],[-9.456731,53.375424],[-9.455379,53.375441],[-9.455389,53.375738],[-9.454939,53.375743],[-9.454948,53.376013],[-9.454497,53.376018],[-9.454506,53.376288],[-9.454516,53.376558],[-9.454966,53.376552],[-9.454975,53.376822],[-9.454525,53.376827],[-9.454534,53.377097],[-9.454543,53.377366],[-9.454994,53.377361],[-9.455003,53.37763],[-9.455454,53.377625],[-9.455463,53.377894],[-9.455106,53.377898],[-9.455204,53.377933],[-9.455303,53.377974],[-9.455387,53.378017],[-9.455498,53.378051],[-9.45556,53.378065],[-9.45566,53.378034],[-9.455776,53.377993],[-9.456101,53.377909],[-9.456415,53.377845],[-9.456639,53.377778],[-9.456832,53.377734],[-9.456981,53.377704],[-9.457117,53.377653],[-9.457252,53.377595],[-9.457386,53.377515],[-9.457499,53.377481],[-9.457612,53.377469],[-9.457775,53.377483],[-9.457931,53.377503],[-9.458086,53.377527],[-9.4582,53.377534],[-9.4583,53.377574],[-9.458366,53.377618],[-9.458405,53.377645],[-9.458621,53.377741],[-9.458894,53.377823],[-9.459265,53.377938],[-9.459456,53.37801],[-9.459919,53.378072],[-9.4603,53.378143],[-9.460546,53.37818],[-9.460732,53.378247],[-9.460888,53.378311],[-9.460881,53.378098],[-9.461332,53.378092],[-9.461341,53.378362],[-9.461792,53.378356],[-9.461801,53.378626],[-9.461728,53.378626],[-9.461897,53.378695],[-9.461939,53.378721],[-9.461979,53.378794],[-9.462088,53.378848],[-9.462234,53.37893],[-9.462186,53.379026],[-9.462262,53.379083],[-9.462365,53.379197],[-9.462456,53.379305],[-9.462582,53.379383],[-9.462735,53.379366],[-9.463218,53.37927],[-9.463661,53.379179],[-9.463893,53.379176],[-9.46399,53.379174],[-9.46399,53.379174],[-9.46401,53.379045],[-9.464076,53.378824],[-9.464148,53.378552],[-9.464183,53.378361],[-9.464238,53.378265],[-9.464373,53.378134],[-9.464591,53.377928],[-9.46481,53.377755],[-9.464923,53.377654],[-9.465029,53.377539],[-9.465093,53.377478],[-9.465253,53.377354],[-9.465348,53.37726],[-9.465468,53.377165],[-9.465573,53.377048],[-9.465659,53.376969],[-9.465735,53.376899],[-9.465819,53.376803],[-9.465955,53.376706],[-9.466025,53.376608],[-9.466116,53.376548],[-9.466195,53.376475],[-9.46629,53.376382],[-9.466362,53.376306],[-9.466434,53.376246],[-9.466487,53.376219],[-9.46656,53.376156],[-9.466575,53.37614],[-9.466225,53.376145],[-9.466216,53.375875],[-9.465765,53.375881],[-9.465756,53.375611],[-9.465746,53.375342],[-9.466197,53.375336],[-9.466206,53.375606],[-9.466657,53.3756],[-9.466666,53.37587],[-9.466954,53.375866],[-9.467003,53.375833],[-9.467192,53.375753],[-9.467384,53.375661],[-9.467513,53.375586],[-9.467714,53.375495],[-9.467933,53.375372],[-9.468122,53.375288],[-9.468409,53.375135],[-9.468613,53.375061],[-9.468793,53.374994],[-9.468996,53.374894],[-9.469204,53.374789],[-9.469275,53.374763],[-9.469275,53.374763],[-9.469368,53.374682],[-9.469489,53.374573],[-9.469567,53.37452],[-9.46968,53.374419],[-9.469867,53.374245],[-9.470036,53.374135],[-9.470243,53.373957],[-9.470476,53.373748],[-9.470613,53.373646],[-9.470712,53.373579],[-9.470932,53.373434],[-9.47105,53.373359],[-9.471129,53.373314],[-9.471205,53.373276],[-9.471446,53.373143],[-9.471802,53.372957],[-9.472043,53.372809],[-9.472372,53.372636],[-9.4727,53.372455],[-9.47291,53.372337],[-9.472993,53.372292],[-9.473087,53.372229],[-9.473183,53.372189],[-9.473445,53.372067],[-9.47379,53.371893],[-9.473941,53.371828],[-9.474076,53.371772],[-9.474192,53.371721],[-9.474291,53.371678],[-9.474495,53.371599],[-9.474746,53.3715],[-9.475005,53.371398],[-9.475212,53.371307],[-9.475398,53.371216],[-9.475509,53.371158],[-9.475708,53.371077],[-9.475915,53.370969],[-9.475899,53.370964],[-9.475799,53.370925],[-9.475757,53.370884],[-9.475671,53.370776],[-9.475584,53.370757],[-9.475501,53.370714],[-9.475406,53.370657],[-9.475274,53.370666],[-9.475158,53.370637],[-9.475056,53.370553],[-9.475041,53.370478],[-9.474993,53.370434],[-9.474899,53.370405],[-9.474738,53.370404],[-9.474675,53.370406],[-9.474581,53.370359],[-9.474556,53.370325],[-9.474439,53.370283],[-9.4743,53.370261],[-9.474145,53.370264],[-9.47395,53.370285],[-9.473835,53.370287],[-9.473765,53.370264],[-9.473718,53.370234],[-9.473728,53.370206],[-9.473684,53.370175],[-9.473691,53.37039],[-9.47279,53.370402],[-9.472781,53.370132],[-9.47188,53.370143],[-9.47187,53.369874],[-9.471861,53.369604],[-9.472312,53.369599],[-9.472302,53.369329],[-9.471852,53.369335],[-9.471842,53.369065],[-9.472293,53.369059],[-9.472289,53.368943],[-9.471592,53.368952],[-9.471561,53.368054],[-9.471807,53.368051],[-9.471805,53.367987],[-9.471355,53.367993],[-9.471336,53.367453],[-9.470885,53.367459],[-9.470876,53.36719],[-9.470426,53.367195],[-9.470416,53.366926],[-9.469966,53.366931],[-9.469947,53.366392],[-9.469496,53.366398],[-9.469487,53.366128],[-9.469037,53.366134],[-9.469027,53.365864],[-9.468126,53.365875],[-9.468117,53.365606],[-9.468108,53.365336],[-9.469009,53.365325],[-9.469018,53.365595],[-9.469469,53.365589],[-9.469465,53.365496],[-9.469377,53.365427],[-9.469338,53.365385],[-9.469334,53.365381],[-9.469165,53.365243],[-9.469051,53.365153],[-9.468954,53.365084],[-9.468915,53.365041]],[[-9.47009,53.36897],[-9.471592,53.368952],[-9.471623,53.36985],[-9.468619,53.369887],[-9.468588,53.368989],[-9.467086,53.369007],[-9.467056,53.368109],[-9.467025,53.367211],[-9.465523,53.367229],[-9.465492,53.366331],[-9.465888,53.366326],[-9.465882,53.366172],[-9.466784,53.366161],[-9.466789,53.366315],[-9.466994,53.366313],[-9.466998,53.366428],[-9.467243,53.366425],[-9.467253,53.366695],[-9.467703,53.366689],[-9.467721,53.367202],[-9.468526,53.367192],[-9.468555,53.368027],[-9.468651,53.368026],[-9.468653,53.36809],[-9.470059,53.368072],[-9.47009,53.36897]],[[-9.464114,53.369942],[-9.468619,53.369887],[-9.468681,53.371683],[-9.466974,53.371704],[-9.466978,53.371821],[-9.466527,53.371827],[-9.466523,53.37171],[-9.465677,53.37172],[-9.465646,53.370822],[-9.464145,53.370841],[-9.464114,53.369942]],[[-9.459041,53.377042],[-9.459032,53.376772],[-9.459483,53.376767],[-9.459492,53.377036],[-9.459041,53.377042]],[[-9.452115,53.372273],[-9.452124,53.372542],[-9.451674,53.372548],[-9.451665,53.372278],[-9.452115,53.372273]],[[-9.454516,53.363346],[-9.454066,53.363351],[-9.454057,53.363082],[-9.454507,53.363076],[-9.454498,53.362807],[-9.4563,53.362785],[-9.456309,53.363054],[-9.455859,53.36306],[-9.455868,53.363329],[-9.455417,53.363335],[-9.455427,53.363604],[-9.454525,53.363615],[-9.454516,53.363346]],[[-9.447688,53.368352],[-9.447643,53.36834],[-9.447593,53.36831],[-9.44754,53.368308],[-9.447531,53.36831],[-9.447533,53.368347],[-9.446031,53.368366],[-9.446001,53.367467],[-9.447502,53.367449],[-9.447514,53.367806],[-9.447521,53.367772],[-9.447544,53.36773],[-9.447578,53.367688],[-9.447591,53.367617],[-9.447613,53.367578],[-9.447643,53.367526],[-9.447666,53.367494],[-9.447714,53.367474],[-9.447754,53.367471],[-9.447795,53.36748],[-9.4478,53.367497],[-9.447802,53.367526],[-9.447836,53.367567],[-9.447893,53.367656],[-9.447895,53.367677],[-9.447921,53.367726],[-9.447929,53.36774],[-9.448805,53.367729],[-9.448823,53.368268],[-9.448833,53.368538],[-9.448382,53.368543],[-9.448373,53.368274],[-9.447988,53.368278],[-9.447963,53.368299],[-9.447945,53.368336],[-9.44791,53.368348],[-9.44785,53.368339],[-9.447801,53.368325],[-9.447768,53.368331],[-9.447737,53.368348],[-9.447688,53.368352]],[[-9.459591,53.369485],[-9.459608,53.369998],[-9.458106,53.370016],[-9.458076,53.369118],[-9.459578,53.369099],[-9.459582,53.369216],[-9.459675,53.369214],[-9.459684,53.369484],[-9.459591,53.369485]],[[-9.460126,53.369209],[-9.459675,53.369214],[-9.459666,53.368945],[-9.460117,53.368939],[-9.460126,53.369209]],[[-9.461813,53.375644],[-9.461793,53.375652],[-9.46177,53.375654],[-9.461744,53.375644],[-9.461725,53.375618],[-9.4617,53.375579],[-9.461688,53.375564],[-9.46165,53.375553],[-9.461588,53.375513],[-9.461522,53.375454],[-9.461499,53.375411],[-9.461462,53.375359],[-9.461492,53.375319],[-9.46158,53.375288],[-9.461655,53.375295],[-9.461716,53.375311],[-9.461782,53.375317],[-9.461853,53.375343],[-9.461889,53.375373],[-9.461891,53.375416],[-9.461933,53.37545],[-9.461954,53.375486],[-9.461936,53.37552],[-9.461945,53.375534],[-9.461961,53.375558],[-9.461993,53.375574],[-9.461995,53.375609],[-9.461973,53.375636],[-9.461932,53.375663],[-9.46188,53.375671],[-9.461828,53.375653],[-9.461813,53.375644]],[[-9.474151,53.370654],[-9.474142,53.370385],[-9.474593,53.370379],[-9.474602,53.370649],[-9.474151,53.370654]],[[-9.4657,53.373994],[-9.465691,53.373724],[-9.466142,53.373719],[-9.466151,53.373988],[-9.467052,53.373977],[-9.467071,53.374516],[-9.46662,53.374522],[-9.466629,53.374791],[-9.466179,53.374797],[-9.466169,53.374527],[-9.465719,53.374533],[-9.4657,53.373994]],[[-9.465672,53.373185],[-9.465691,53.373724],[-9.46524,53.37373],[-9.465222,53.373191],[-9.465672,53.373185]],[[-9.459427,53.361937],[-9.458976,53.361943],[-9.458948,53.361134],[-9.458939,53.360865],[-9.45939,53.360859],[-9.45938,53.36059],[-9.459831,53.360584],[-9.45984,53.360854],[-9.459849,53.361123],[-9.459399,53.361129],[-9.459427,53.361937]],[[-9.458525,53.361948],[-9.458976,53.361943],[-9.458985,53.362212],[-9.458535,53.362218],[-9.458525,53.361948]],[[-9.462654,53.364055],[-9.462645,53.363785],[-9.463546,53.363774],[-9.463555,53.364044],[-9.462654,53.364055]],[[-9.460429,53.364891],[-9.46088,53.364886],[-9.46087,53.364616],[-9.461321,53.364611],[-9.46133,53.36488],[-9.461339,53.36515],[-9.46179,53.365144],[-9.461799,53.365414],[-9.461808,53.365683],[-9.461358,53.365689],[-9.461349,53.365419],[-9.460898,53.365425],[-9.460889,53.365155],[-9.460438,53.365161],[-9.460429,53.364891]],[[-9.464531,53.366189],[-9.46454,53.366459],[-9.464089,53.366464],[-9.46408,53.366195],[-9.463629,53.3662],[-9.46362,53.365931],[-9.46317,53.365936],[-9.46316,53.365667],[-9.464061,53.365656],[-9.464071,53.365925],[-9.464521,53.36592],[-9.464531,53.366189]],[[-9.462305,53.367025],[-9.461855,53.367031],[-9.461836,53.366492],[-9.462287,53.366486],[-9.462305,53.367025]],[[-9.461404,53.367036],[-9.461855,53.367031],[-9.461882,53.367839],[-9.461432,53.367845],[-9.461404,53.367036]],[[-9.464154,53.368351],[-9.464145,53.368081],[-9.464595,53.368076],[-9.464605,53.368345],[-9.464154,53.368351]],[[-9.461459,53.368653],[-9.461469,53.368923],[-9.461919,53.368917],[-9.461928,53.369187],[-9.461027,53.369198],[-9.461018,53.368928],[-9.460567,53.368934],[-9.460558,53.368664],[-9.461009,53.368659],[-9.461,53.368389],[-9.46099,53.36812],[-9.461441,53.368114],[-9.46145,53.368384],[-9.461901,53.368378],[-9.46191,53.368648],[-9.461459,53.368653]],[[-9.461064,53.370276],[-9.461055,53.370006],[-9.461506,53.370001],[-9.461515,53.37027],[-9.461064,53.370276]],[[-9.455675,53.357669],[-9.455666,53.3574],[-9.456116,53.357394],[-9.456126,53.357664],[-9.455675,53.357669]],[[-9.455454,53.364413],[-9.455445,53.364143],[-9.455896,53.364138],[-9.455905,53.364407],[-9.455454,53.364413]],[[-9.459546,53.365441],[-9.459556,53.365711],[-9.460006,53.365705],[-9.460015,53.365975],[-9.460025,53.366244],[-9.459123,53.366255],[-9.459133,53.366525],[-9.457781,53.366541],[-9.457772,53.366272],[-9.458673,53.366261],[-9.458664,53.365991],[-9.459114,53.365986],[-9.459105,53.365716],[-9.458654,53.365722],[-9.458645,53.365452],[-9.457744,53.365463],[-9.457735,53.365194],[-9.458185,53.365188],[-9.458167,53.364649],[-9.459068,53.364638],[-9.459086,53.365177],[-9.459096,53.365447],[-9.459546,53.365441]],[[-9.456447,53.367097],[-9.456429,53.366558],[-9.45733,53.366547],[-9.457349,53.367086],[-9.456447,53.367097]],[[-9.455638,53.369803],[-9.455629,53.369534],[-9.45653,53.369523],[-9.456539,53.369792],[-9.455638,53.369803]],[[-9.45481,53.37197],[-9.454801,53.371701],[-9.455252,53.371695],[-9.455261,53.371965],[-9.45481,53.37197]]],[[[-9.469597,53.3656],[-9.469581,53.365588],[-9.469469,53.365589],[-9.469478,53.365859],[-9.469836,53.365854],[-9.469722,53.365729],[-9.469597,53.3656]]],[[[-9.469988,53.366002],[-9.469932,53.365947],[-9.469938,53.366123],[-9.470113,53.36612],[-9.470034,53.366047],[-9.469988,53.366002]]],[[[-9.470875,53.366773],[-9.470861,53.366763],[-9.470867,53.36692],[-9.471074,53.366917],[-9.471065,53.36691],[-9.470875,53.366773]]],[[[-9.471348,53.367129],[-9.471324,53.367111],[-9.471327,53.367184],[-9.47143,53.367183],[-9.471348,53.367129]]],[[[-9.47183,53.367447],[-9.471786,53.367419],[-9.471787,53.367448],[-9.47183,53.367447]]],[[[-9.472381,53.367798],[-9.472247,53.367714],[-9.472256,53.367981],[-9.472258,53.368045],[-9.472298,53.368045],[-9.472305,53.368036],[-9.472344,53.367972],[-9.472334,53.367943],[-9.472323,53.367915],[-9.472343,53.36786],[-9.472381,53.367798]]],[[[-9.472783,53.368937],[-9.47274,53.368938],[-9.472741,53.368967],[-9.472783,53.368937]]],[[[-9.47276,53.369072],[-9.472744,53.369072],[-9.472753,53.369323],[-9.472762,53.369593],[-9.472772,53.369862],[-9.473132,53.369858],[-9.473082,53.369823],[-9.473,53.369798],[-9.47296,53.369785],[-9.472848,53.369732],[-9.472783,53.369692],[-9.472793,53.369675],[-9.472793,53.369675],[-9.472793,53.369675],[-9.472883,53.369629],[-9.472945,53.3696],[-9.472985,53.369566],[-9.472976,53.369494],[-9.472976,53.369494],[-9.472976,53.369494],[-9.473015,53.369473],[-9.473085,53.369482],[-9.473138,53.369522],[-9.47318,53.369542],[-9.473317,53.369529],[-9.473412,53.369579],[-9.473527,53.369598],[-9.473592,53.369617],[-9.473667,53.369623],[-9.47374,53.369594],[-9.47379,53.369566],[-9.473791,53.36956],[-9.473799,53.369507],[-9.473738,53.369436],[-9.473673,53.369406],[-9.473557,53.369377],[-9.473457,53.369338],[-9.47337,53.369329],[-9.473303,53.369361],[-9.473222,53.369363],[-9.473135,53.369337],[-9.473076,53.36931],[-9.472931,53.369165],[-9.472879,53.369123],[-9.472853,53.369101],[-9.47276,53.369072]]],[[[-9.473344,53.37001],[-9.473224,53.369924],[-9.473231,53.370126],[-9.473501,53.370123],[-9.473464,53.370104],[-9.473344,53.37001]]],[[[-9.461183,53.378409],[-9.461345,53.378472],[-9.461341,53.378362],[-9.461034,53.378365],[-9.461183,53.378409]]],[[[-9.454047,53.377642],[-9.454102,53.37765],[-9.454102,53.377641],[-9.454047,53.377642]]],[[[-9.453452,53.377526],[-9.453648,53.377564],[-9.453642,53.377377],[-9.454092,53.377372],[-9.454083,53.377102],[-9.453633,53.377108],[-9.453623,53.376838],[-9.453614,53.376568],[-9.453163,53.376574],[-9.453154,53.376304],[-9.453605,53.376299],[-9.453596,53.376029],[-9.453587,53.37576],[-9.454037,53.375754],[-9.454019,53.375215],[-9.453568,53.375221],[-9.453577,53.37549],[-9.451775,53.375512],[-9.451784,53.375782],[-9.451793,53.376051],[-9.451342,53.376057],[-9.451351,53.376326],[-9.450901,53.376332],[-9.45091,53.376601],[-9.450459,53.376607],[-9.450468,53.376876],[-9.450018,53.376882],[-9.45001,53.376652],[-9.449993,53.376666],[-9.44999,53.376728],[-9.449959,53.37679],[-9.449896,53.376802],[-9.449856,53.376827],[-9.449862,53.376883],[-9.449878,53.376951],[-9.449795,53.377006],[-9.449701,53.377075],[-9.449623,53.377106],[-9.449722,53.377092],[-9.450365,53.377017],[-9.450445,53.377077],[-9.450526,53.377069],[-9.450608,53.37706],[-9.450653,53.377056],[-9.450741,53.377047],[-9.450851,53.377072],[-9.450934,53.377087],[-9.451109,53.377024],[-9.45138,53.376907],[-9.451583,53.376826],[-9.451721,53.376891],[-9.451814,53.37697],[-9.451953,53.377057],[-9.452098,53.37712],[-9.452209,53.377225],[-9.45229,53.377304],[-9.452408,53.377387],[-9.452661,53.377404],[-9.45296,53.377445],[-9.453452,53.377526]]],[[[-9.450145,53.376598],[-9.450093,53.376611],[-9.450459,53.376607],[-9.450451,53.376377],[-9.450291,53.37642],[-9.450185,53.376474],[-9.450175,53.376512],[-9.450183,53.376556],[-9.450145,53.376598]]],[[[-9.450889,53.376],[-9.450851,53.376063],[-9.450892,53.376062],[-9.450889,53.376]]],[[[-9.451333,53.375785],[-9.451331,53.375787],[-9.451333,53.375787],[-9.451333,53.375785]]],[[[-9.451616,53.375487],[-9.451581,53.375515],[-9.451775,53.375512],[-9.451774,53.375485],[-9.451616,53.375487]]],[[[-9.452643,53.374798],[-9.452653,53.374822],[-9.452652,53.374789],[-9.452643,53.374798]]],[[[-9.45264,53.37463],[-9.452646,53.374632],[-9.452643,53.374524],[-9.452579,53.374559],[-9.45257,53.374597],[-9.452589,53.374634],[-9.45264,53.37463]]],[[[-9.452549,53.373944],[-9.452624,53.373983],[-9.452621,53.373884],[-9.452612,53.373615],[-9.452603,53.373345],[-9.452386,53.373348],[-9.452308,53.373374],[-9.452241,53.37342],[-9.452228,53.3735],[-9.452247,53.373537],[-9.452346,53.373573],[-9.452433,53.373585],[-9.452478,53.373554],[-9.452515,53.373608],[-9.452512,53.373673],[-9.452554,53.373707],[-9.452569,53.373772],[-9.452491,53.373825],[-9.45247,53.373863],[-9.452549,53.373944]]],[[[-9.450372,53.364743],[-9.450371,53.364744],[-9.450957,53.364737],[-9.45095,53.364519],[-9.45084,53.364561],[-9.450837,53.364563],[-9.450769,53.364569],[-9.450752,53.364585],[-9.450748,53.364588],[-9.450744,53.364591],[-9.450612,53.364655],[-9.450583,53.364676],[-9.450579,53.364678],[-9.450574,53.36468],[-9.450569,53.364682],[-9.450564,53.364683],[-9.450532,53.364688],[-9.450529,53.364689],[-9.450523,53.364689],[-9.450491,53.36469],[-9.450372,53.364743]]],[[[-9.451316,53.364379],[-9.45109,53.364466],[-9.451399,53.364462],[-9.451395,53.364346],[-9.451316,53.364379]]],[[[-9.451839,53.364159],[-9.45177,53.364188],[-9.45184,53.364187],[-9.451839,53.364159]]],[[[-9.452212,53.363911],[-9.452212,53.363913],[-9.452282,53.363912],[-9.452274,53.363686],[-9.452247,53.363719],[-9.452231,53.363753],[-9.452194,53.363828],[-9.45219,53.363871],[-9.452211,53.363909],[-9.452212,53.363911]]],[[[-9.452372,53.363564],[-9.452309,53.363642],[-9.452723,53.363637],[-9.452714,53.363368],[-9.452709,53.36337],[-9.452687,53.363378],[-9.45268,53.36338],[-9.45257,53.36345],[-9.452372,53.363564]]],[[[-9.461281,53.359305],[-9.461137,53.359234],[-9.461146,53.359483],[-9.461205,53.359399],[-9.461281,53.359305]]],[[[-9.460934,53.359768],[-9.460939,53.359762],[-9.460704,53.359765],[-9.460706,53.359821],[-9.460737,53.359813],[-9.460934,53.359768]]],[[[-9.461251,53.360819],[-9.461191,53.3608],[-9.461192,53.360837],[-9.4613,53.360836],[-9.461251,53.360819]]],[[[-9.461726,53.361056],[-9.461648,53.360987],[-9.461652,53.361101],[-9.461782,53.3611],[-9.461726,53.361056]]],[[[-9.462805,53.360942],[-9.462245,53.361094],[-9.463454,53.361079],[-9.463463,53.361349],[-9.463819,53.361344],[-9.463818,53.361315],[-9.463774,53.361294],[-9.463715,53.361254],[-9.463603,53.361132],[-9.463506,53.361061],[-9.463448,53.361038],[-9.463382,53.361007],[-9.463331,53.360967],[-9.463259,53.360919],[-9.463201,53.360894],[-9.463119,53.360881],[-9.463038,53.360887],[-9.462922,53.360915],[-9.462854,53.360931],[-9.462805,53.360942]]],[[[-9.464742,53.361848],[-9.464382,53.361852],[-9.464383,53.361877],[-9.464762,53.361872],[-9.464742,53.361848]]],[[[-9.464892,53.36203],[-9.464836,53.361962],[-9.464852,53.36241],[-9.465147,53.362407],[-9.465078,53.362267],[-9.465024,53.362166],[-9.464965,53.362109],[-9.464892,53.36203]]],[[[-9.465858,53.362989],[-9.465771,53.362941],[-9.465781,53.363208],[-9.466042,53.363205],[-9.466046,53.363183],[-9.46604,53.363142],[-9.466051,53.363105],[-9.465858,53.362989]]],[[[-9.466729,53.363584],[-9.466695,53.363573],[-9.4667,53.363736],[-9.466905,53.363733],[-9.466902,53.363628],[-9.466729,53.363584]]],[[[-9.467025,53.367211],[-9.46727,53.367208],[-9.467253,53.366695],[-9.467007,53.366698],[-9.467025,53.367211]]]]}}]}
