{"type":"FeatureCollection","features":[{"type":"Feature","properties":{"source_fid":969123,"county":"Galway","bog_geom_ha":179.80645484166703,"low15_pct":84.144505770195693,"low15_ha":151.29725276943083,"overlay_ha":151.4001343203185,"area_delta":0.10288155088767326},"geometry":{"type":"MultiPolygon","coordinates":[[[[-9.409736,53.386101],[-9.409704,53.385993],[-9.409286,53.385998],[-9.409295,53.386267],[-9.408845,53.386273],[-9.408853,53.386542],[-9.408403,53.386548],[-9.408412,53.386817],[-9.407961,53.386822],[-9.40797,53.387092],[-9.408871,53.387081],[-9.40888,53.387351],[-9.409775,53.38734],[-9.409786,53.387285],[-9.409808,53.38718],[-9.409859,53.387003],[-9.409859,53.387003],[-9.409859,53.387003],[-9.409948,53.386964],[-9.410037,53.386705],[-9.410053,53.386553],[-9.409923,53.386361],[-9.409802,53.386196],[-9.40978,53.386165],[-9.409736,53.386101]]],[[[-9.409358,53.389056],[-9.409383,53.388906],[-9.409358,53.388154],[-9.408907,53.388159],[-9.408898,53.38789],[-9.408447,53.387895],[-9.408438,53.387626],[-9.408429,53.387356],[-9.407978,53.387361],[-9.40797,53.387092],[-9.407068,53.387103],[-9.407077,53.387372],[-9.406175,53.387383],[-9.406166,53.387113],[-9.406157,53.386844],[-9.406148,53.386574],[-9.40614,53.386305],[-9.406131,53.386035],[-9.404327,53.386056],[-9.404319,53.385787],[-9.403868,53.385792],[-9.40385,53.385253],[-9.403841,53.384984],[-9.404292,53.384978],[-9.404283,53.384709],[-9.404274,53.384439],[-9.404725,53.384434],[-9.40469,53.383356],[-9.404239,53.383361],[-9.404221,53.382822],[-9.40377,53.382827],[-9.403761,53.382558],[-9.403311,53.382563],[-9.403302,53.382294],[-9.402851,53.382299],[-9.402824,53.38149],[-9.403275,53.381485],[-9.403266,53.381215],[-9.403257,53.380946],[-9.401905,53.380962],[-9.401914,53.381231],[-9.401463,53.381237],[-9.401454,53.380967],[-9.401004,53.380972],[-9.401012,53.381242],[-9.401021,53.381511],[-9.401472,53.381506],[-9.401481,53.381776],[-9.400579,53.381786],[-9.40057,53.381517],[-9.40012,53.381522],[-9.400111,53.381253],[-9.39966,53.381258],[-9.399651,53.380988],[-9.400102,53.380983],[-9.400093,53.380713],[-9.399642,53.380719],[-9.399634,53.380449],[-9.398281,53.380465],[-9.398272,53.380196],[-9.397371,53.380206],[-9.39738,53.380476],[-9.395577,53.380497],[-9.395568,53.380227],[-9.39692,53.380211],[-9.396911,53.379944],[-9.396832,53.37997],[-9.396705,53.379998],[-9.396605,53.38002],[-9.396566,53.380027],[-9.396509,53.380036],[-9.396419,53.380051],[-9.39619,53.380066],[-9.39607,53.380071],[-9.395851,53.380069],[-9.395673,53.380082],[-9.395417,53.3801],[-9.395048,53.380122],[-9.394785,53.380157],[-9.39447,53.380205],[-9.394431,53.380212],[-9.394112,53.380268],[-9.393477,53.380353],[-9.392682,53.380446],[-9.391947,53.380514],[-9.391155,53.38059],[-9.390291,53.380667],[-9.389882,53.380708],[-9.389205,53.380773],[-9.388404,53.380844],[-9.387344,53.380945],[-9.386283,53.381073],[-9.385682,53.381162],[-9.385369,53.381214],[-9.385362,53.38125],[-9.385357,53.381277],[-9.385382,53.381387],[-9.385412,53.381422],[-9.385443,53.381441],[-9.38547,53.381461],[-9.385491,53.381482],[-9.385506,53.381504],[-9.385515,53.38153],[-9.385517,53.381548],[-9.385519,53.38156],[-9.385519,53.381594],[-9.385512,53.381626],[-9.385499,53.381655],[-9.385477,53.381681],[-9.385453,53.381696],[-9.385442,53.381703],[-9.385397,53.381725],[-9.385348,53.381746],[-9.385303,53.381766],[-9.385264,53.381786],[-9.385238,53.381807],[-9.385223,53.381828],[-9.385215,53.38185],[-9.38521,53.381872],[-9.385201,53.381899],[-9.38518,53.381935],[-9.385146,53.381984],[-9.385107,53.382036],[-9.385071,53.382085],[-9.385042,53.382125],[-9.385023,53.382156],[-9.385013,53.382176],[-9.385009,53.38219],[-9.385009,53.382202],[-9.385013,53.382212],[-9.385022,53.382223],[-9.385037,53.382233],[-9.385055,53.382245],[-9.385074,53.382258],[-9.385089,53.382273],[-9.385099,53.382289],[-9.385101,53.382304],[-9.385094,53.382321],[-9.38508,53.38234],[-9.385057,53.382361],[-9.385026,53.382384],[-9.384985,53.382407],[-9.384937,53.382427],[-9.384885,53.382445],[-9.384835,53.38246],[-9.384791,53.382472],[-9.384756,53.382484],[-9.384728,53.382496],[-9.384704,53.38251],[-9.384682,53.382526],[-9.384666,53.382542],[-9.384658,53.382558],[-9.38466,53.382577],[-9.384672,53.382601],[-9.384693,53.382632],[-9.384721,53.382662],[-9.384752,53.382688],[-9.384781,53.382706],[-9.384804,53.38272],[-9.38482,53.38273],[-9.384829,53.38274],[-9.384833,53.38275],[-9.384832,53.382763],[-9.384826,53.382781],[-9.384816,53.382802],[-9.384802,53.382824],[-9.384786,53.382841],[-9.384765,53.382853],[-9.384738,53.382863],[-9.384701,53.382872],[-9.384663,53.382877],[-9.384629,53.382878],[-9.384601,53.382877],[-9.384575,53.382879],[-9.384549,53.382887],[-9.384515,53.382901],[-9.384471,53.382918],[-9.384416,53.382938],[-9.384358,53.382959],[-9.384305,53.38298],[-9.384262,53.383],[-9.384232,53.383019],[-9.384214,53.383034],[-9.384201,53.383046],[-9.384189,53.383054],[-9.384172,53.383056],[-9.384148,53.383051],[-9.384118,53.383042],[-9.384089,53.383034],[-9.384065,53.38303],[-9.384048,53.383033],[-9.384038,53.383042],[-9.384032,53.383056],[-9.384025,53.383071],[-9.384012,53.383084],[-9.383989,53.383094],[-9.383957,53.383102],[-9.383915,53.383109],[-9.383875,53.383118],[-9.383844,53.383131],[-9.383825,53.383146],[-9.383813,53.383162],[-9.383805,53.38318],[-9.383795,53.383198],[-9.383775,53.383217],[-9.383744,53.383237],[-9.383706,53.383257],[-9.383664,53.383276],[-9.383619,53.383294],[-9.383574,53.383307],[-9.383529,53.383316],[-9.383482,53.383322],[-9.383433,53.383326],[-9.383381,53.383329],[-9.383333,53.383329],[-9.383265,53.383333],[-9.38313,53.383366],[-9.383005,53.383373],[-9.382796,53.383406],[-9.382683,53.383397],[-9.382601,53.383398],[-9.382594,53.383401],[-9.3826,53.383614],[-9.38215,53.383619],[-9.382149,53.383596],[-9.382119,53.383612],[-9.382065,53.383663],[-9.382046,53.383686],[-9.382011,53.383699],[-9.381971,53.383733],[-9.381946,53.383752],[-9.38193,53.383771],[-9.381891,53.383846],[-9.381867,53.383872],[-9.381866,53.38391],[-9.381886,53.38397],[-9.381837,53.384002],[-9.381799,53.384036],[-9.381766,53.38409],[-9.381631,53.384153],[-9.381511,53.384132],[-9.381438,53.38416],[-9.381326,53.384246],[-9.381202,53.384314],[-9.381201,53.384314],[-9.381232,53.384356],[-9.381228,53.384381],[-9.381203,53.384408],[-9.381142,53.384449],[-9.380994,53.384464],[-9.380821,53.384457],[-9.380692,53.384443],[-9.380588,53.384415],[-9.380477,53.384369],[-9.380295,53.384268],[-9.380126,53.384183],[-9.379978,53.384143],[-9.379815,53.384141],[-9.379681,53.384146],[-9.379704,53.384177],[-9.379787,53.384292],[-9.379808,53.384332],[-9.379812,53.384346],[-9.379819,53.384359],[-9.379827,53.384404],[-9.379831,53.384424],[-9.38002,53.38454],[-9.380289,53.384639],[-9.380252,53.384745],[-9.38026,53.384823],[-9.380369,53.384918],[-9.380438,53.384991],[-9.380454,53.385083],[-9.380357,53.385276],[-9.380327,53.385395],[-9.380343,53.385459],[-9.380459,53.385541],[-9.380452,53.385605],[-9.380513,53.385632],[-9.380613,53.385614],[-9.38075,53.385595],[-9.380835,53.385631],[-9.380934,53.385636],[-9.381195,53.385626],[-9.381395,53.385689],[-9.381427,53.385835],[-9.381397,53.385977],[-9.381459,53.386069],[-9.381529,53.386105],[-9.381621,53.3861],[-9.381682,53.386155],[-9.381691,53.38626],[-9.381791,53.386338],[-9.381793,53.386347],[-9.381794,53.386353],[-9.381796,53.386361],[-9.381799,53.386379],[-9.381723,53.386443],[-9.381724,53.386526],[-9.38187,53.386599],[-9.381909,53.386649],[-9.382002,53.386781],[-9.381987,53.386809],[-9.382003,53.38685],[-9.381996,53.38691],[-9.381943,53.387029],[-9.381982,53.387107],[-9.382037,53.387189],[-9.382145,53.387275],[-9.382107,53.387321],[-9.382039,53.387381],[-9.382062,53.387399],[-9.382177,53.387436],[-9.38217,53.387468],[-9.382178,53.387523],[-9.382247,53.387564],[-9.3825,53.387627],[-9.382585,53.387668],[-9.382662,53.387704],[-9.382686,53.387773],[-9.382855,53.387896],[-9.382987,53.388065],[-9.382996,53.388147],[-9.383035,53.388248],[-9.383135,53.388325],[-9.383128,53.388353],[-9.383113,53.388422],[-9.383144,53.388444],[-9.383171,53.38846],[-9.383208,53.38846],[-9.38321,53.388498],[-9.383221,53.388513],[-9.383329,53.388572],[-9.38337,53.388624],[-9.383383,53.388641],[-9.383422,53.38864],[-9.383491,53.38864],[-9.383505,53.388644],[-9.383511,53.388645],[-9.383552,53.388683],[-9.38359,53.388728],[-9.383627,53.388801],[-9.383693,53.38888],[-9.383768,53.388916],[-9.383866,53.388948],[-9.38393,53.388991],[-9.383976,53.388994],[-9.384007,53.389012],[-9.384056,53.389039],[-9.384151,53.389085],[-9.384311,53.38912],[-9.384437,53.389155],[-9.384503,53.389171],[-9.384558,53.38917],[-9.384582,53.38916],[-9.384597,53.389138],[-9.38467,53.389095],[-9.384771,53.389077],[-9.384882,53.389057],[-9.384965,53.389053],[-9.385027,53.389095],[-9.385098,53.389116],[-9.385208,53.389126],[-9.38526,53.389127],[-9.385293,53.389124],[-9.385334,53.389138],[-9.38539,53.389146],[-9.385419,53.389143],[-9.385435,53.389139],[-9.385501,53.389098],[-9.385551,53.38907],[-9.385638,53.38906],[-9.385731,53.389033],[-9.385757,53.389025],[-9.385789,53.38902],[-9.385841,53.389031],[-9.38587,53.38905],[-9.385884,53.389055],[-9.385916,53.389065],[-9.385952,53.389072],[-9.386047,53.389072],[-9.386132,53.389075],[-9.386174,53.389091],[-9.3862,53.389099],[-9.386278,53.3891],[-9.38635,53.389103],[-9.386398,53.389118],[-9.386439,53.389122],[-9.386486,53.389115],[-9.38651,53.389132],[-9.386535,53.38914],[-9.386564,53.389141],[-9.386592,53.389127],[-9.386626,53.389119],[-9.386695,53.389117],[-9.386789,53.389112],[-9.386943,53.389088],[-9.387042,53.389087],[-9.387106,53.389092],[-9.387179,53.389097],[-9.387221,53.389107],[-9.387314,53.389164],[-9.387415,53.389204],[-9.387511,53.389236],[-9.387638,53.389266],[-9.387718,53.389302],[-9.387762,53.389365],[-9.387763,53.389373],[-9.387836,53.389954],[-9.388165,53.389797],[-9.388478,53.389647],[-9.389197,53.389026],[-9.389861,53.388845],[-9.390383,53.388703],[-9.390826,53.388581],[-9.391168,53.388481],[-9.391549,53.388377],[-9.391857,53.388298],[-9.39188,53.388292],[-9.391895,53.388288],[-9.392211,53.388196],[-9.392334,53.388162],[-9.392495,53.388115],[-9.392588,53.388091],[-9.392581,53.387871],[-9.394084,53.387854],[-9.394107,53.388548],[-9.394492,53.388669],[-9.39493,53.38831],[-9.394922,53.388054],[-9.39513,53.388052],[-9.395127,53.387991],[-9.395146,53.387972],[-9.395309,53.387869],[-9.395372,53.387894],[-9.395415,53.387898],[-9.39543,53.387891],[-9.395442,53.387879],[-9.39546,53.387855],[-9.395458,53.387821],[-9.395448,53.387791],[-9.395427,53.387733],[-9.395426,53.387713],[-9.395425,53.387686],[-9.39547,53.387653],[-9.395689,53.387409],[-9.395847,53.387237],[-9.395887,53.387207],[-9.395958,53.387199],[-9.396046,53.387201],[-9.396162,53.387199],[-9.396421,53.387199],[-9.396553,53.3872],[-9.396598,53.387219],[-9.396695,53.387286],[-9.397075,53.387583],[-9.397094,53.387605],[-9.397212,53.387723],[-9.397292,53.387779],[-9.397353,53.387832],[-9.397451,53.387945],[-9.397522,53.388015],[-9.397582,53.388056],[-9.397648,53.38809],[-9.397823,53.38815],[-9.397955,53.388203],[-9.398027,53.388243],[-9.398052,53.388285],[-9.398052,53.388287],[-9.398087,53.388287],[-9.398088,53.388337],[-9.398129,53.388362],[-9.398199,53.38838],[-9.398237,53.388384],[-9.398328,53.388369],[-9.398357,53.388368],[-9.398415,53.388382],[-9.398472,53.388401],[-9.398525,53.388413],[-9.398546,53.388435],[-9.398585,53.388498],[-9.398624,53.388531],[-9.398712,53.388559],[-9.398815,53.388577],[-9.398839,53.388595],[-9.39888,53.388658],[-9.398921,53.388702],[-9.399032,53.388751],[-9.399103,53.38879],[-9.399202,53.388849],[-9.399294,53.38891],[-9.399335,53.388936],[-9.399395,53.388949],[-9.399483,53.388962],[-9.399546,53.388961],[-9.399547,53.388961],[-9.399639,53.388984],[-9.399733,53.389009],[-9.399902,53.389089],[-9.400018,53.389128],[-9.400079,53.38916],[-9.400173,53.389226],[-9.400211,53.389265],[-9.400229,53.389283],[-9.40026,53.389351],[-9.400278,53.389389],[-9.400306,53.389426],[-9.400405,53.389515],[-9.400502,53.389582],[-9.40062,53.389636],[-9.400784,53.389705],[-9.400877,53.38975],[-9.400948,53.389796],[-9.401091,53.389873],[-9.401158,53.389918],[-9.401248,53.390008],[-9.40131,53.390037],[-9.401391,53.390102],[-9.401461,53.390164],[-9.401545,53.390256],[-9.401594,53.390301],[-9.401652,53.390328],[-9.401691,53.390336],[-9.401831,53.390352],[-9.401897,53.390374],[-9.401942,53.390402],[-9.402007,53.390429],[-9.402067,53.390458],[-9.402132,53.390476],[-9.402178,53.390484],[-9.402213,53.390492],[-9.402243,53.390515],[-9.402243,53.390569],[-9.402253,53.390605],[-9.402302,53.390663],[-9.402354,53.390723],[-9.402392,53.390766],[-9.402414,53.390823],[-9.402458,53.390954],[-9.402474,53.390989],[-9.40249,53.391012],[-9.402578,53.391055],[-9.402621,53.391083],[-9.40267,53.391129],[-9.402693,53.391193],[-9.4027,53.391259],[-9.40268,53.391327],[-9.402677,53.391367],[-9.402672,53.39137],[-9.402688,53.39139],[-9.402733,53.391406],[-9.402809,53.391405],[-9.402869,53.39139],[-9.402898,53.391392],[-9.402997,53.391399],[-9.403161,53.391421],[-9.403292,53.391462],[-9.403435,53.391476],[-9.403524,53.391501],[-9.403578,53.391529],[-9.403626,53.391555],[-9.403665,53.391567],[-9.403739,53.391571],[-9.403844,53.391575],[-9.403984,53.391601],[-9.404087,53.391628],[-9.404189,53.391657],[-9.404297,53.391695],[-9.404359,53.391722],[-9.404435,53.391752],[-9.404477,53.391788],[-9.404539,53.391835],[-9.404578,53.391869],[-9.404615,53.391911],[-9.40466,53.391948],[-9.404734,53.391976],[-9.404776,53.391999],[-9.404806,53.392036],[-9.40484,53.3921],[-9.404853,53.392136],[-9.404884,53.392159],[-9.404928,53.392169],[-9.404988,53.392177],[-9.405166,53.392168],[-9.40519,53.392172],[-9.405218,53.392187],[-9.405234,53.392209],[-9.405266,53.392258],[-9.405278,53.392267],[-9.405359,53.392283],[-9.405456,53.392322],[-9.405485,53.39234],[-9.405558,53.392395],[-9.405685,53.392463],[-9.405787,53.392504],[-9.405874,53.392537],[-9.406007,53.392577],[-9.406103,53.392607],[-9.40615,53.392622],[-9.406229,53.392632],[-9.406325,53.392627],[-9.406421,53.392628],[-9.406551,53.392642],[-9.406666,53.39265],[-9.406768,53.392651],[-9.40682,53.392664],[-9.406894,53.392694],[-9.406964,53.392728],[-9.40697,53.39274],[-9.406989,53.392812],[-9.40702,53.392845],[-9.407061,53.392879],[-9.40714,53.392908],[-9.407243,53.392946],[-9.407295,53.392953],[-9.407386,53.392974],[-9.407453,53.392991],[-9.407563,53.392995],[-9.407638,53.392984],[-9.407683,53.392963],[-9.407754,53.392922],[-9.407833,53.392859],[-9.407854,53.392825],[-9.40791,53.392793],[-9.40797,53.392766],[-9.408051,53.392754],[-9.40812,53.392749],[-9.408188,53.392748],[-9.408272,53.392752],[-9.408307,53.39275],[-9.408351,53.392719],[-9.408388,53.392683],[-9.408413,53.392649],[-9.408439,53.392638],[-9.408458,53.392635],[-9.40853,53.392478],[-9.408148,53.392482],[-9.408139,53.392213],[-9.40813,53.391943],[-9.408581,53.391938],[-9.408572,53.391669],[-9.408895,53.391665],[-9.408871,53.391622],[-9.408834,53.391534],[-9.408843,53.391411],[-9.408988,53.390949],[-9.409081,53.390567],[-9.409165,53.390197],[-9.409255,53.389817],[-9.409345,53.38949],[-9.409374,53.389268],[-9.409358,53.389056]],[[-9.408121,53.391674],[-9.40813,53.391943],[-9.407228,53.391954],[-9.407219,53.391684],[-9.408121,53.391674]],[[-9.406777,53.391959],[-9.407228,53.391954],[-9.407237,53.392224],[-9.406786,53.392229],[-9.406777,53.391959]],[[-9.406335,53.392234],[-9.406786,53.392229],[-9.406795,53.392498],[-9.406344,53.392504],[-9.406335,53.392234]],[[-9.400064,53.386885],[-9.401567,53.386867],[-9.401596,53.387766],[-9.400094,53.387783],[-9.400064,53.386885]],[[-9.398467,53.386125],[-9.398016,53.38613],[-9.398007,53.385861],[-9.397556,53.385866],[-9.397547,53.385597],[-9.398449,53.385586],[-9.398458,53.385856],[-9.398467,53.386125]],[[-9.400358,53.388799],[-9.399457,53.38881],[-9.399448,53.38854],[-9.40035,53.38853],[-9.400358,53.388799]],[[-9.397477,53.38344],[-9.397026,53.383446],[-9.397035,53.383715],[-9.396584,53.38372],[-9.396575,53.383451],[-9.396566,53.383181],[-9.396558,53.382912],[-9.397008,53.382907],[-9.397017,53.383176],[-9.397468,53.383171],[-9.397477,53.38344]],[[-9.396637,53.385338],[-9.396646,53.385607],[-9.396195,53.385612],[-9.396186,53.385343],[-9.395735,53.385348],[-9.395726,53.385079],[-9.3957,53.38427],[-9.396151,53.384265],[-9.396177,53.385073],[-9.396628,53.385068],[-9.396637,53.385338]],[[-9.396655,53.385877],[-9.396646,53.385607],[-9.397097,53.385602],[-9.397105,53.385871],[-9.396655,53.385877]],[[-9.388531,53.385702],[-9.38854,53.385971],[-9.388549,53.386241],[-9.388098,53.386246],[-9.388106,53.386516],[-9.388115,53.386785],[-9.387664,53.38679],[-9.387656,53.386521],[-9.387205,53.386526],[-9.387196,53.386257],[-9.386745,53.386262],[-9.386736,53.385992],[-9.387187,53.385987],[-9.387179,53.385718],[-9.387629,53.385712],[-9.387612,53.385173],[-9.388063,53.385168],[-9.388054,53.384899],[-9.388505,53.384893],[-9.388513,53.385163],[-9.388531,53.385702]],[[-9.385879,53.38735],[-9.385896,53.387889],[-9.384994,53.3879],[-9.384977,53.387361],[-9.385428,53.387356],[-9.385419,53.387086],[-9.38587,53.387081],[-9.385879,53.38735]]],[[[-9.397078,53.379889],[-9.396918,53.379942],[-9.397813,53.379931],[-9.397804,53.379662],[-9.399156,53.379646],[-9.399147,53.379376],[-9.402753,53.379334],[-9.402762,53.379604],[-9.403824,53.379591],[-9.403345,53.379141],[-9.403215,53.379119],[-9.40312,53.379103],[-9.402994,53.379112],[-9.402881,53.379104],[-9.402669,53.379071],[-9.402484,53.379029],[-9.40206,53.378943],[-9.401698,53.378867],[-9.401277,53.378772],[-9.400958,53.378693],[-9.400547,53.378567],[-9.400354,53.378502],[-9.400158,53.378398],[-9.400065,53.378323],[-9.399824,53.378148],[-9.399679,53.378038],[-9.399553,53.377931],[-9.399455,53.377864],[-9.399324,53.377774],[-9.399098,53.3776],[-9.39893,53.377502],[-9.398739,53.377411],[-9.398587,53.37736],[-9.398419,53.377325],[-9.39828,53.377318],[-9.398199,53.377331],[-9.398116,53.377369],[-9.398081,53.37742],[-9.398034,53.377509],[-9.397943,53.377657],[-9.397853,53.377856],[-9.397798,53.377964],[-9.397758,53.378139],[-9.397772,53.378271],[-9.397817,53.378391],[-9.397866,53.378514],[-9.398005,53.378831],[-9.398056,53.378973],[-9.398101,53.379161],[-9.398102,53.379239],[-9.398077,53.379326],[-9.398012,53.379462],[-9.397934,53.379537],[-9.397826,53.379607],[-9.3976,53.3797],[-9.397387,53.379782],[-9.39719,53.37985],[-9.397078,53.379889]]],[[[-9.404752,53.385242],[-9.405653,53.385232],[-9.405636,53.384693],[-9.405185,53.384698],[-9.405194,53.384968],[-9.404743,53.384973],[-9.404752,53.385242]]],[[[-9.403699,53.380671],[-9.40415,53.380666],[-9.404141,53.380396],[-9.40369,53.380402],[-9.403699,53.380671]]]]}}]}
