{"type":"FeatureCollection","features":[{"type":"Feature","properties":{"source_fid":972719,"county":"Galway","bog_geom_ha":274.01387015029678,"low15_pct":89.757058437294816,"low15_ha":245.946789557095,"overlay_ha":246.18519403187403,"area_delta":0.23840447477903126},"geometry":{"type":"MultiPolygon","coordinates":[[[[-9.771708,53.576946],[-9.769566,53.576977],[-9.770184,53.577275],[-9.770975,53.577658],[-9.771061,53.577699],[-9.771384,53.577857],[-9.772843,53.578568],[-9.773105,53.578553],[-9.773721,53.578519],[-9.774646,53.57849],[-9.775302,53.578485],[-9.775408,53.578485],[-9.775397,53.57822],[-9.774039,53.57824],[-9.774027,53.577971],[-9.773575,53.577978],[-9.773568,53.577817],[-9.773255,53.577821],[-9.773217,53.576923],[-9.776235,53.576878],[-9.776257,53.577399],[-9.776721,53.577392],[-9.776733,53.577661],[-9.777185,53.577654],[-9.777197,53.577924],[-9.777616,53.577918],[-9.777562,53.57787],[-9.777565,53.57785],[-9.777587,53.577837],[-9.777646,53.577828],[-9.777638,53.577648],[-9.778544,53.577634],[-9.77851,53.576826],[-9.778963,53.576819],[-9.778997,53.577627],[-9.779006,53.57785],[-9.779051,53.577816],[-9.779739,53.577335],[-9.780266,53.576976],[-9.780608,53.576735],[-9.780761,53.576613],[-9.780871,53.576524],[-9.7811,53.576402],[-9.782153,53.575924],[-9.782239,53.575885],[-9.782977,53.575576],[-9.783462,53.57539],[-9.783505,53.575366],[-9.783713,53.575131],[-9.783422,53.575135],[-9.783411,53.574865],[-9.783864,53.574859],[-9.783868,53.574968],[-9.783982,53.574854],[-9.784088,53.574752],[-9.784138,53.574715],[-9.784195,53.574691],[-9.784304,53.574582],[-9.783852,53.574589],[-9.783841,53.57432],[-9.784294,53.574313],[-9.784282,53.574043],[-9.78383,53.57405],[-9.783818,53.573781],[-9.783366,53.573788],[-9.783354,53.573518],[-9.783807,53.573511],[-9.783784,53.572972],[-9.784237,53.572966],[-9.784236,53.57294],[-9.784213,53.572869],[-9.784233,53.57287],[-9.784226,53.572696],[-9.784214,53.572427],[-9.784667,53.57242],[-9.784678,53.572689],[-9.786489,53.572662],[-9.786478,53.572393],[-9.786931,53.572386],[-9.786942,53.572656],[-9.787395,53.572649],[-9.787405,53.572883],[-9.787461,53.572902],[-9.787516,53.572899],[-9.787566,53.572887],[-9.787603,53.572867],[-9.787659,53.572812],[-9.787663,53.57281],[-9.787763,53.572769],[-9.787803,53.572744],[-9.787824,53.572724],[-9.787818,53.572672],[-9.787846,53.572652],[-9.787894,53.572653],[-9.787964,53.572656],[-9.788034,53.572655],[-9.788121,53.572645],[-9.788184,53.572657],[-9.788196,53.572681],[-9.788238,53.572728],[-9.788284,53.572758],[-9.788371,53.572838],[-9.788404,53.572855],[-9.788451,53.572853],[-9.788512,53.572842],[-9.788562,53.572839],[-9.788599,53.572856],[-9.788632,53.572886],[-9.788849,53.573069],[-9.7889,53.573088],[-9.78895,53.573079],[-9.788996,53.573057],[-9.789061,53.573046],[-9.78909,53.573046],[-9.789122,53.573015],[-9.789143,53.572974],[-9.789193,53.572946],[-9.789228,53.57292],[-9.789255,53.572891],[-9.789217,53.572891],[-9.789206,53.572622],[-9.789194,53.572352],[-9.790552,53.572332],[-9.790564,53.572601],[-9.791016,53.572595],[-9.791028,53.572864],[-9.791481,53.572857],[-9.791503,53.573396],[-9.791205,53.573401],[-9.791266,53.573419],[-9.791293,53.573438],[-9.791324,53.573483],[-9.791411,53.573615],[-9.79147,53.573634],[-9.791578,53.573658],[-9.791703,53.573665],[-9.791831,53.57369],[-9.791879,53.573686],[-9.791939,53.573653],[-9.791975,53.573614],[-9.79201,53.573588],[-9.792103,53.573553],[-9.7922,53.573514],[-9.792246,53.573473],[-9.792263,53.573434],[-9.792278,53.573385],[-9.791956,53.573389],[-9.791945,53.57312],[-9.791933,53.572851],[-9.792839,53.572837],[-9.79285,53.573106],[-9.792397,53.573113],[-9.792398,53.573136],[-9.79243,53.573166],[-9.792467,53.573179],[-9.79251,53.573172],[-9.792553,53.573146],[-9.792592,53.573124],[-9.792664,53.573119],[-9.792884,53.573111],[-9.792949,53.573119],[-9.793017,53.573115],[-9.793078,53.573099],[-9.793261,53.573038],[-9.793487,53.57295],[-9.793663,53.572923],[-9.793731,53.572924],[-9.793832,53.572911],[-9.793929,53.572884],[-9.793997,53.572873],[-9.794147,53.572873],[-9.79427,53.572874],[-9.794332,53.57287],[-9.794499,53.572848],[-9.794618,53.572822],[-9.794725,53.572816],[-9.794805,53.572822],[-9.795004,53.572823],[-9.795239,53.572848],[-9.795269,53.572851],[-9.795331,53.572848],[-9.795552,53.572788],[-9.795636,53.572782],[-9.795721,53.572794],[-9.795747,53.572811],[-9.796338,53.572812],[-9.796268,53.572735],[-9.796164,53.572599],[-9.796145,53.572564],[-9.796112,53.572541],[-9.796054,53.572522],[-9.795888,53.572466],[-9.795732,53.572421],[-9.795695,53.57239],[-9.795686,53.572358],[-9.795693,53.572348],[-9.795709,53.572315],[-9.795714,53.57228],[-9.795692,53.572252],[-9.795648,53.572227],[-9.795565,53.572201],[-9.795544,53.572188],[-9.795453,53.57205],[-9.795438,53.572029],[-9.795413,53.572016],[-9.795384,53.571997],[-9.795372,53.571973],[-9.795382,53.571915],[-9.795363,53.571885],[-9.795151,53.571745],[-9.794957,53.571605],[-9.794777,53.571475],[-9.794652,53.571362],[-9.794626,53.571339],[-9.794597,53.571318],[-9.79456,53.571307],[-9.794362,53.571309],[-9.794279,53.571309],[-9.794203,53.571297],[-9.79417,53.571274],[-9.794133,53.57122],[-9.79411,53.57119],[-9.794085,53.571176],[-9.793875,53.571143],[-9.7936,53.571098],[-9.793556,53.571087],[-9.793538,53.571066],[-9.793533,53.571034],[-9.793554,53.570982],[-9.793556,53.570909],[-9.793555,53.570855],[-9.793536,53.570821],[-9.79351,53.570793],[-9.793492,53.570768],[-9.793491,53.570753],[-9.79353,53.570727],[-9.793552,53.570709],[-9.793562,53.570686],[-9.793536,53.570658],[-9.793503,53.570628],[-9.793495,53.5706],[-9.793495,53.5706],[-9.793495,53.5706],[-9.793531,53.570581],[-9.793678,53.570543],[-9.793736,53.570534],[-9.793753,53.570521],[-9.793759,53.570474],[-9.793777,53.57045],[-9.793777,53.57045],[-9.793777,53.57045],[-9.793802,53.570439],[-9.794063,53.570482],[-9.794092,53.570488],[-9.794113,53.570477],[-9.794112,53.570432],[-9.794101,53.570404],[-9.794058,53.570392],[-9.793641,53.570398],[-9.79363,53.570129],[-9.794988,53.570108],[-9.794977,53.569839],[-9.794524,53.569846],[-9.794513,53.569576],[-9.79406,53.569583],[-9.794049,53.569314],[-9.794871,53.569301],[-9.794612,53.569193],[-9.794532,53.569164],[-9.794463,53.569154],[-9.794366,53.569148],[-9.794199,53.569104],[-9.794148,53.569079],[-9.794104,53.569032],[-9.794096,53.569017],[-9.794081,53.568976],[-9.794051,53.568938],[-9.793883,53.568858],[-9.793852,53.568843],[-9.793852,53.568843],[-9.793821,53.568828],[-9.793789,53.568809],[-9.793646,53.569002],[-9.793594,53.568989],[-9.793545,53.568976],[-9.793369,53.56893],[-9.792982,53.568883],[-9.79281,53.568862],[-9.792754,53.568836],[-9.79264,53.568703],[-9.792483,53.568519],[-9.792052,53.56802],[-9.791762,53.56766],[-9.79174,53.567624],[-9.791097,53.566722],[-9.790794,53.566259],[-9.790692,53.566221],[-9.790654,53.566207],[-9.790654,53.566207],[-9.790494,53.566148],[-9.790485,53.566145],[-9.790483,53.566144],[-9.790321,53.566112],[-9.790214,53.566091],[-9.79014,53.566061],[-9.790079,53.566036],[-9.790044,53.566],[-9.790021,53.565977],[-9.789897,53.56593],[-9.789717,53.565862],[-9.789547,53.565723],[-9.789535,53.565679],[-9.789507,53.565574],[-9.789469,53.565296],[-9.789459,53.565217],[-9.78914,53.564928],[-9.789066,53.564861],[-9.789002,53.56471],[-9.78894,53.564565],[-9.7888,53.564305],[-9.788744,53.56409],[-9.788718,53.56399],[-9.788666,53.563946],[-9.788499,53.563846],[-9.788455,53.563768],[-9.788359,53.56368],[-9.788354,53.563676],[-9.788338,53.56366],[-9.788255,53.563582],[-9.78813,53.563416],[-9.788163,53.563282],[-9.788175,53.563229],[-9.788239,53.563118],[-9.78826,53.563024],[-9.78827,53.562979],[-9.788277,53.562938],[-9.788229,53.562973],[-9.788227,53.562974],[-9.788225,53.562976],[-9.788222,53.562977],[-9.788126,53.56302],[-9.788123,53.563021],[-9.78812,53.563022],[-9.788117,53.563023],[-9.788115,53.563024],[-9.788113,53.563024],[-9.788003,53.563042],[-9.788,53.563042],[-9.787997,53.563042],[-9.787994,53.563042],[-9.787951,53.563043],[-9.787948,53.563043],[-9.787945,53.563043],[-9.787941,53.563042],[-9.787938,53.563042],[-9.787936,53.563041],[-9.787933,53.563041],[-9.787847,53.563015],[-9.787802,53.563012],[-9.787802,53.563012],[-9.787802,53.563012],[-9.787622,53.562996],[-9.787602,53.562997],[-9.787481,53.563081],[-9.787479,53.563082],[-9.787477,53.563084],[-9.787474,53.563085],[-9.787409,53.563112],[-9.787406,53.563113],[-9.787403,53.563114],[-9.7874,53.563114],[-9.787399,53.563115],[-9.787317,53.563131],[-9.787316,53.563132],[-9.787315,53.563132],[-9.787315,53.563132],[-9.787244,53.563144],[-9.786885,53.563248],[-9.786882,53.563249],[-9.786879,53.563249],[-9.786876,53.56325],[-9.786875,53.56325],[-9.786781,53.56326],[-9.78678,53.563261],[-9.786778,53.563261],[-9.786776,53.563261],[-9.786664,53.563264],[-9.786475,53.563308],[-9.786472,53.563308],[-9.786469,53.563309],[-9.786466,53.563309],[-9.78634,53.563317],[-9.786337,53.563318],[-9.786334,53.563318],[-9.786331,53.563317],[-9.786199,53.563308],[-9.786143,53.563315],[-9.786142,53.563315],[-9.786142,53.563315],[-9.786142,53.563315],[-9.78604,53.563326],[-9.786037,53.563326],[-9.786034,53.563326],[-9.78603,53.563326],[-9.786027,53.563326],[-9.786024,53.563325],[-9.786021,53.563325],[-9.786018,53.563324],[-9.786015,53.563323],[-9.786013,53.563322],[-9.785969,53.563306],[-9.785771,53.563264],[-9.785768,53.563264],[-9.785765,53.563263],[-9.785763,53.563262],[-9.78576,53.563261],[-9.785758,53.56326],[-9.785756,53.563258],[-9.785753,53.563257],[-9.785752,53.563255],[-9.78575,53.563254],[-9.785749,53.563252],[-9.785748,53.563252],[-9.785682,53.563154],[-9.785681,53.563152],[-9.78568,53.563151],[-9.78568,53.563149],[-9.785659,53.563064],[-9.785622,53.563046],[-9.785586,53.563042],[-9.785473,53.563066],[-9.785417,53.563083],[-9.785414,53.563084],[-9.785411,53.563084],[-9.785408,53.563085],[-9.785405,53.563085],[-9.785402,53.563085],[-9.785398,53.563085],[-9.785397,53.563085],[-9.785358,53.563083],[-9.785355,53.563083],[-9.785351,53.563083],[-9.785348,53.563082],[-9.785346,53.563082],[-9.785343,53.563081],[-9.78534,53.56308],[-9.785337,53.563079],[-9.785335,53.563077],[-9.785333,53.563077],[-9.78529,53.56305],[-9.785106,53.562997],[-9.785103,53.562997],[-9.7851,53.562996],[-9.785098,53.562994],[-9.785095,53.562993],[-9.785093,53.562992],[-9.785091,53.56299],[-9.78509,53.562989],[-9.784988,53.562894],[-9.784987,53.562893],[-9.784986,53.562891],[-9.784984,53.562889],[-9.784984,53.562888],[-9.784983,53.562886],[-9.784983,53.562885],[-9.784956,53.562766],[-9.784904,53.56273],[-9.784903,53.562729],[-9.784902,53.562729],[-9.784902,53.562728],[-9.784821,53.562664],[-9.784676,53.562554],[-9.784674,53.562552],[-9.784673,53.56255],[-9.784671,53.562549],[-9.78467,53.562547],[-9.784645,53.562505],[-9.784644,53.562504],[-9.784644,53.562502],[-9.784643,53.5625],[-9.784643,53.562498],[-9.784643,53.562496],[-9.784644,53.562494],[-9.784644,53.562493],[-9.784645,53.562491],[-9.784646,53.562489],[-9.784648,53.562487],[-9.784699,53.562429],[-9.784695,53.562381],[-9.784659,53.562333],[-9.784636,53.56232],[-9.78442,53.562251],[-9.784417,53.56225],[-9.784415,53.562249],[-9.784413,53.562248],[-9.784394,53.562239],[-9.784394,53.562239],[-9.784362,53.562254],[-9.784362,53.562254],[-9.784362,53.562254],[-9.784345,53.562246],[-9.784317,53.562232],[-9.784279,53.562215],[-9.784215,53.562185],[-9.784135,53.562158],[-9.784124,53.562154],[-9.784075,53.562146],[-9.784053,53.562145],[-9.784005,53.562149],[-9.784003,53.562149],[-9.784001,53.562149],[-9.783999,53.562149],[-9.783999,53.562149],[-9.78399,53.562137],[-9.783972,53.562136],[-9.78388,53.56214],[-9.783848,53.562075],[-9.783801,53.562043],[-9.783776,53.562036],[-9.783555,53.562034],[-9.783498,53.562045],[-9.783456,53.562066],[-9.783421,53.562084],[-9.783374,53.562101],[-9.783358,53.562102],[-9.783331,53.562104],[-9.783244,53.562087],[-9.783239,53.562085],[-9.782998,53.562019],[-9.782998,53.562019],[-9.782823,53.56192],[-9.782756,53.561888],[-9.782549,53.561867],[-9.782487,53.561854],[-9.782481,53.561852],[-9.782449,53.561839],[-9.782449,53.561839],[-9.782449,53.561839],[-9.7824,53.561764],[-9.782318,53.56155],[-9.782277,53.56152],[-9.782086,53.56145],[-9.782034,53.561419],[-9.781978,53.561388],[-9.781824,53.561249],[-9.781783,53.561234],[-9.781768,53.561229],[-9.781112,53.560535],[-9.780696,53.560093],[-9.780555,53.559943],[-9.780548,53.559938],[-9.780516,53.559915],[-9.780461,53.559875],[-9.780386,53.559812],[-9.780136,53.559782],[-9.779959,53.559744],[-9.77983,53.559716],[-9.77983,53.559716],[-9.77983,53.559716],[-9.779814,53.559707],[-9.779562,53.559568],[-9.779526,53.559556],[-9.779494,53.559546],[-9.779444,53.559533],[-9.779427,53.559529],[-9.779154,53.55957],[-9.779144,53.55957],[-9.779155,53.559829],[-9.77825,53.559843],[-9.778239,53.559573],[-9.778901,53.559563],[-9.77876,53.559516],[-9.778707,53.559518],[-9.778505,53.559524],[-9.778392,53.55952],[-9.778302,53.559506],[-9.778248,53.559498],[-9.77822,53.55949],[-9.778156,53.559471],[-9.778088,53.559437],[-9.778035,53.559411],[-9.777819,53.55938],[-9.77777,53.559373],[-9.777616,53.559326],[-9.777484,53.55926],[-9.777472,53.559232],[-9.777386,53.559222],[-9.77726,53.559208],[-9.777161,53.559198],[-9.777084,53.559167],[-9.777044,53.559151],[-9.777008,53.559135],[-9.776988,53.559125],[-9.776981,53.559121],[-9.776966,53.559113],[-9.776827,53.559069],[-9.776762,53.559048],[-9.776738,53.559036],[-9.776716,53.559024],[-9.776678,53.559004],[-9.77666,53.559003],[-9.776632,53.559001],[-9.77659,53.559016],[-9.776585,53.55902],[-9.77651,53.559077],[-9.776485,53.559101],[-9.77647,53.559114],[-9.776465,53.559119],[-9.776454,53.55913],[-9.776362,53.559164],[-9.776214,53.559257],[-9.77618,53.559278],[-9.776149,53.559296],[-9.776066,53.559346],[-9.775983,53.559419],[-9.775944,53.559467],[-9.775921,53.559495],[-9.775915,53.559504],[-9.775905,53.559519],[-9.775908,53.559586],[-9.775908,53.559586],[-9.775868,53.559618],[-9.775806,53.559631],[-9.775745,53.559644],[-9.77574,53.559645],[-9.77574,53.559645],[-9.77574,53.559645],[-9.775712,53.559643],[-9.775661,53.55964],[-9.775443,53.559598],[-9.775342,53.5596],[-9.775304,53.559611],[-9.77525,53.559626],[-9.775189,53.559646],[-9.77512,53.559682],[-9.775013,53.559737],[-9.774961,53.5598],[-9.774941,53.559824],[-9.774941,53.559824],[-9.774941,53.559824],[-9.774903,53.559839],[-9.774876,53.55985],[-9.77483,53.559857],[-9.774779,53.559859],[-9.77472,53.559854],[-9.774546,53.559829],[-9.77444,53.559798],[-9.774378,53.55978],[-9.774293,53.559763],[-9.774289,53.559762],[-9.774289,53.559762],[-9.774224,53.55975],[-9.774191,53.559755],[-9.774106,53.559768],[-9.774081,53.559772],[-9.774044,53.559777],[-9.773991,53.559784],[-9.773902,53.559808],[-9.773721,53.559859],[-9.773707,53.559864],[-9.773593,53.559897],[-9.773522,53.559913],[-9.774629,53.559896],[-9.774641,53.560166],[-9.773283,53.560186],[-9.773294,53.560455],[-9.772842,53.560462],[-9.77283,53.560193],[-9.771473,53.560213],[-9.771461,53.559943],[-9.773027,53.55992],[-9.773009,53.559899],[-9.772987,53.559891],[-9.772938,53.559875],[-9.772767,53.55985],[-9.772662,53.559844],[-9.772615,53.559842],[-9.772507,53.559846],[-9.772292,53.559879],[-9.772252,53.559881],[-9.77212,53.559888],[-9.77201,53.559891],[-9.771898,53.559871],[-9.771768,53.559864],[-9.771681,53.559858],[-9.771653,53.559863],[-9.771558,53.55988],[-9.771466,53.559896],[-9.771458,53.559898],[-9.771447,53.5599],[-9.771365,53.559912],[-9.771295,53.559931],[-9.771245,53.559948],[-9.771187,53.559968],[-9.771177,53.55997],[-9.771125,53.55998],[-9.771088,53.559979],[-9.77107,53.559978],[-9.771023,53.559966],[-9.771009,53.55996],[-9.77102,53.56022],[-9.770115,53.560233],[-9.770126,53.560502],[-9.769221,53.560516],[-9.76921,53.56025],[-9.768934,53.560265],[-9.768901,53.56027],[-9.768844,53.560277],[-9.768765,53.560295],[-9.768716,53.560305],[-9.76866,53.56031],[-9.768626,53.560312],[-9.768544,53.560317],[-9.768497,53.56031],[-9.76847,53.5603],[-9.768385,53.56027],[-9.768341,53.560256],[-9.768303,53.560266],[-9.768253,53.560291],[-9.768219,53.560324],[-9.768194,53.560364],[-9.768187,53.560405],[-9.768185,53.560418],[-9.768188,53.56047],[-9.768232,53.560525],[-9.768234,53.560526],[-9.768249,53.560534],[-9.768298,53.560557],[-9.768364,53.560562],[-9.768384,53.560564],[-9.768397,53.560561],[-9.768462,53.560545],[-9.768471,53.560545],[-9.768485,53.560545],[-9.768498,53.560564],[-9.768498,53.560564],[-9.768498,53.560564],[-9.768508,53.560611],[-9.768511,53.560672],[-9.768502,53.56071],[-9.768479,53.560736],[-9.768438,53.560764],[-9.768301,53.560831],[-9.768269,53.560846],[-9.768269,53.560846],[-9.768269,53.560846],[-9.768219,53.560863],[-9.768186,53.560867],[-9.768122,53.560877],[-9.767985,53.560881],[-9.767881,53.560888],[-9.767805,53.560893],[-9.767692,53.560905],[-9.767547,53.560912],[-9.767502,53.560914],[-9.767436,53.560922],[-9.767432,53.560923],[-9.767384,53.560931],[-9.767253,53.560969],[-9.767199,53.560987],[-9.767138,53.561023],[-9.767095,53.561041],[-9.767065,53.561053],[-9.767055,53.561055],[-9.767038,53.561058],[-9.767006,53.561056],[-9.766982,53.561053],[-9.766947,53.561049],[-9.766892,53.561046],[-9.766839,53.561044],[-9.766826,53.561044],[-9.766755,53.561051],[-9.76667,53.56107],[-9.766633,53.561081],[-9.766581,53.561096],[-9.766557,53.561108],[-9.766536,53.561119],[-9.766526,53.561129],[-9.766517,53.561138],[-9.766506,53.561157],[-9.766503,53.561176],[-9.766504,53.561177],[-9.766512,53.561199],[-9.766554,53.561244],[-9.766583,53.561284],[-9.766596,53.561303],[-9.76661,53.56135],[-9.766615,53.561364],[-9.766625,53.561406],[-9.766628,53.561469],[-9.766618,53.5615],[-9.766595,53.561514],[-9.766545,53.561531],[-9.766498,53.561533],[-9.766498,53.561533],[-9.766498,53.561533],[-9.766487,53.561532],[-9.766419,53.561526],[-9.766379,53.561522],[-9.766324,53.561516],[-9.766247,53.561505],[-9.76616,53.561492],[-9.766047,53.561467],[-9.765984,53.561453],[-9.765922,53.561429],[-9.765744,53.561359],[-9.765572,53.561279],[-9.765558,53.561272],[-9.765318,53.561141],[-9.765277,53.561121],[-9.765182,53.561258],[-9.765119,53.561393],[-9.765061,53.561584],[-9.764994,53.561891],[-9.764971,53.562081],[-9.764944,53.562288],[-9.764896,53.562537],[-9.764872,53.562794],[-9.764859,53.563056],[-9.764844,53.563375],[-9.764809,53.563835],[-9.764779,53.564186],[-9.764768,53.564512],[-9.764782,53.564694],[-9.764815,53.564886],[-9.764837,53.56493],[-9.764935,53.565174],[-9.765083,53.565481],[-9.765369,53.566193],[-9.765473,53.566674],[-9.765486,53.566773],[-9.765858,53.566767],[-9.765847,53.566498],[-9.767205,53.566478],[-9.767216,53.566747],[-9.768574,53.566727],[-9.768563,53.566458],[-9.769016,53.566451],[-9.769027,53.56672],[-9.769932,53.566707],[-9.769943,53.566976],[-9.770396,53.56697],[-9.770407,53.567239],[-9.770419,53.567509],[-9.769966,53.567515],[-9.769977,53.567785],[-9.769525,53.567791],[-9.769536,53.568061],[-9.769547,53.56833],[-9.769094,53.568337],[-9.769083,53.568068],[-9.766367,53.568108],[-9.766356,53.567838],[-9.765755,53.567847],[-9.765771,53.567891],[-9.765863,53.568021],[-9.765877,53.568045],[-9.765933,53.568138],[-9.76599,53.568254],[-9.76607,53.568426],[-9.76616,53.568579],[-9.7662,53.568665],[-9.766292,53.568762],[-9.766418,53.568914],[-9.766538,53.569051],[-9.766686,53.569231],[-9.766823,53.569399],[-9.766858,53.569479],[-9.766877,53.569565],[-9.766876,53.56967],[-9.766861,53.569787],[-9.766836,53.569924],[-9.766833,53.569988],[-9.766898,53.569987],[-9.766906,53.570168],[-9.766914,53.570179],[-9.767038,53.570288],[-9.767221,53.570433],[-9.767312,53.570503],[-9.767434,53.570563],[-9.767568,53.570644],[-9.767685,53.570729],[-9.767831,53.570865],[-9.767924,53.570956],[-9.767995,53.571045],[-9.768067,53.571149],[-9.768117,53.571225],[-9.768179,53.571342],[-9.768225,53.571437],[-9.768266,53.571556],[-9.768298,53.571692],[-9.768313,53.571796],[-9.768322,53.571873],[-9.768322,53.571988],[-9.768309,53.572182],[-9.768309,53.572182],[-9.768309,53.572182],[-9.768298,53.572353],[-9.768289,53.572483],[-9.768241,53.573227],[-9.768296,53.57401],[-9.768238,53.574282],[-9.768436,53.574279],[-9.768448,53.574548],[-9.769353,53.574535],[-9.769364,53.574804],[-9.769817,53.574798],[-9.769828,53.575067],[-9.769376,53.575074],[-9.769398,53.575613],[-9.768945,53.575619],[-9.768957,53.575889],[-9.768645,53.575894],[-9.768653,53.576092],[-9.771671,53.576047],[-9.771685,53.576388],[-9.771696,53.576388],[-9.771707,53.576657],[-9.771696,53.576657],[-9.771708,53.576946]],[[-9.793619,53.569859],[-9.79363,53.570129],[-9.793177,53.570136],[-9.793166,53.569866],[-9.793619,53.569859]],[[-9.786466,53.572123],[-9.786478,53.572393],[-9.786025,53.5724],[-9.786014,53.57213],[-9.786466,53.572123]],[[-9.778499,53.576556],[-9.77851,53.576826],[-9.778057,53.576833],[-9.778046,53.576563],[-9.77714,53.576577],[-9.777129,53.576307],[-9.775771,53.576327],[-9.775759,53.576058],[-9.774854,53.576071],[-9.774843,53.575802],[-9.773937,53.575815],[-9.773926,53.575546],[-9.774378,53.575539],[-9.774367,53.57527],[-9.777084,53.575229],[-9.777072,53.57496],[-9.777525,53.574953],[-9.777514,53.574684],[-9.777061,53.57469],[-9.77705,53.574421],[-9.778408,53.574401],[-9.778419,53.57467],[-9.778431,53.57494],[-9.778442,53.575209],[-9.777989,53.575216],[-9.778001,53.575485],[-9.777548,53.575492],[-9.777559,53.575761],[-9.776201,53.575782],[-9.776212,53.576051],[-9.77757,53.576031],[-9.777582,53.5763],[-9.778487,53.576287],[-9.778499,53.576556]],[[-9.783113,53.56779],[-9.783402,53.567786],[-9.783404,53.567855],[-9.783569,53.567852],[-9.78358,53.568122],[-9.784924,53.568102],[-9.78491,53.567763],[-9.786419,53.567741],[-9.786457,53.568639],[-9.785867,53.568648],[-9.785877,53.568897],[-9.784972,53.56891],[-9.784962,53.568661],[-9.784948,53.568661],[-9.784947,53.568641],[-9.783603,53.568661],[-9.783591,53.568391],[-9.783427,53.568394],[-9.783439,53.568684],[-9.780435,53.568729],[-9.780445,53.568978],[-9.779993,53.568984],[-9.779981,53.568715],[-9.780421,53.568708],[-9.780384,53.567831],[-9.781755,53.56781],[-9.781747,53.56761],[-9.781735,53.567341],[-9.782188,53.567334],[-9.782177,53.567064],[-9.782629,53.567058],[-9.782618,53.566788],[-9.783071,53.566781],[-9.783059,53.566512],[-9.783512,53.566505],[-9.783523,53.566775],[-9.783535,53.567044],[-9.783082,53.567051],[-9.783093,53.56732],[-9.782641,53.567327],[-9.782652,53.567597],[-9.783105,53.56759],[-9.783113,53.56779]],[[-9.783965,53.566498],[-9.783512,53.566505],[-9.783501,53.566236],[-9.783489,53.565966],[-9.784395,53.565953],[-9.784406,53.566222],[-9.783953,53.566229],[-9.783965,53.566498]],[[-9.784847,53.565946],[-9.784395,53.565953],[-9.784383,53.565683],[-9.784836,53.565676],[-9.784847,53.565946]],[[-9.782154,53.566525],[-9.782177,53.567064],[-9.781271,53.567078],[-9.781249,53.566539],[-9.782154,53.566525]],[[-9.77997,53.568445],[-9.779981,53.568715],[-9.779076,53.568728],[-9.779065,53.568459],[-9.77997,53.568445]],[[-9.774409,53.569337],[-9.774425,53.569717],[-9.772917,53.569739],[-9.772879,53.568841],[-9.774388,53.568818],[-9.774398,53.569067],[-9.77456,53.569065],[-9.774572,53.569335],[-9.774409,53.569337]],[[-9.784756,53.56379],[-9.784745,53.563521],[-9.785198,53.563514],[-9.785209,53.563783],[-9.784756,53.56379]],[[-9.786148,53.564578],[-9.786137,53.564309],[-9.78659,53.564302],[-9.786601,53.564572],[-9.786148,53.564578]],[[-9.790868,53.569092],[-9.79088,53.569361],[-9.789974,53.569375],[-9.789963,53.569105],[-9.789058,53.569119],[-9.789046,53.568849],[-9.788141,53.568863],[-9.78813,53.568593],[-9.787677,53.5686],[-9.787665,53.568331],[-9.788571,53.568317],[-9.788582,53.568587],[-9.789488,53.568573],[-9.789499,53.568842],[-9.790404,53.568829],[-9.790416,53.569098],[-9.790868,53.569092]],[[-9.790891,53.569631],[-9.79088,53.569361],[-9.791332,53.569354],[-9.791344,53.569624],[-9.790891,53.569631]],[[-9.787756,53.570486],[-9.787768,53.570756],[-9.78641,53.570776],[-9.786398,53.570507],[-9.784588,53.570534],[-9.784576,53.570264],[-9.78186,53.570305],[-9.781849,53.570035],[-9.780943,53.570049],[-9.780932,53.569779],[-9.780479,53.569786],[-9.780468,53.569516],[-9.780015,53.569523],[-9.780004,53.569254],[-9.781815,53.569227],[-9.781826,53.569496],[-9.784089,53.569463],[-9.784101,53.569732],[-9.785006,53.569718],[-9.785018,53.569988],[-9.785923,53.569974],[-9.785934,53.570244],[-9.787292,53.570224],[-9.787304,53.570493],[-9.787756,53.570486]],[[-9.787779,53.571025],[-9.787768,53.570756],[-9.78822,53.570749],[-9.788232,53.571018],[-9.787779,53.571025]],[[-9.794593,53.571462],[-9.794604,53.571732],[-9.794151,53.571739],[-9.79414,53.571469],[-9.794593,53.571462]],[[-9.794615,53.572001],[-9.794604,53.571732],[-9.795057,53.571725],[-9.795068,53.571995],[-9.794615,53.572001]],[[-9.791899,53.572042],[-9.79191,53.572312],[-9.791458,53.572318],[-9.791446,53.572049],[-9.791899,53.572042]],[[-9.791922,53.572581],[-9.79191,53.572312],[-9.792363,53.572305],[-9.792375,53.572574],[-9.791922,53.572581]],[[-9.779619,53.560092],[-9.779608,53.559822],[-9.78006,53.559816],[-9.780072,53.560085],[-9.779619,53.560092]],[[-9.781973,53.562214],[-9.781961,53.561944],[-9.782414,53.561938],[-9.782425,53.562207],[-9.781973,53.562214]],[[-9.777005,53.562557],[-9.776994,53.562288],[-9.776541,53.562295],[-9.77653,53.562025],[-9.776077,53.562032],[-9.776066,53.561763],[-9.776971,53.561749],[-9.776983,53.562019],[-9.777888,53.562005],[-9.777899,53.562275],[-9.778804,53.562261],[-9.778816,53.562531],[-9.777005,53.562557]],[[-9.780174,53.56251],[-9.780162,53.562241],[-9.781068,53.562227],[-9.781079,53.562497],[-9.780174,53.56251]],[[-9.780739,53.565198],[-9.780717,53.564659],[-9.781169,53.564653],[-9.781192,53.565192],[-9.780739,53.565198]],[[-9.782097,53.565178],[-9.782086,53.564909],[-9.782539,53.564902],[-9.78255,53.565171],[-9.782097,53.565178]],[[-9.777322,53.570103],[-9.77731,53.569833],[-9.778668,53.569813],[-9.77868,53.570082],[-9.777322,53.570103]],[[-9.779166,53.570884],[-9.779155,53.570615],[-9.780061,53.570601],[-9.780072,53.570871],[-9.779166,53.570884]],[[-9.783263,53.571362],[-9.783275,53.571632],[-9.782822,53.571639],[-9.782811,53.571369],[-9.783263,53.571362]],[[-9.783286,53.571901],[-9.783275,53.571632],[-9.783727,53.571625],[-9.783739,53.571894],[-9.783286,53.571901]],[[-9.782403,53.572454],[-9.782392,53.572184],[-9.782845,53.572177],[-9.782856,53.572447],[-9.782403,53.572454]],[[-9.779744,53.573841],[-9.779721,53.573303],[-9.780174,53.573296],[-9.780196,53.573835],[-9.779744,53.573841]],[[-9.780672,53.574367],[-9.780638,53.573559],[-9.781091,53.573552],[-9.781124,53.57436],[-9.780672,53.574367]],[[-9.773101,53.56666],[-9.77309,53.56639],[-9.773078,53.566121],[-9.773531,53.566114],[-9.773542,53.566384],[-9.774448,53.56637],[-9.774459,53.56664],[-9.773101,53.56666]],[[-9.775466,53.569052],[-9.776371,53.569038],[-9.776382,53.569308],[-9.776394,53.569577],[-9.776846,53.56957],[-9.776858,53.56984],[-9.775952,53.569853],[-9.775941,53.569584],[-9.775488,53.569591],[-9.775477,53.569321],[-9.775024,53.569328],[-9.775013,53.569058],[-9.775002,53.568789],[-9.774549,53.568796],[-9.774538,53.568526],[-9.775443,53.568513],[-9.775454,53.568782],[-9.775466,53.569052]],[[-9.777276,53.569025],[-9.776371,53.569038],[-9.77636,53.568769],[-9.776349,53.568499],[-9.778159,53.568472],[-9.778171,53.568742],[-9.777265,53.568755],[-9.777276,53.569025]],[[-9.775058,53.570136],[-9.775511,53.570129],[-9.775522,53.570399],[-9.77507,53.570406],[-9.775058,53.570136]],[[-9.774209,53.571497],[-9.774221,53.571766],[-9.773315,53.57178],[-9.773304,53.57151],[-9.774209,53.571497]],[[-9.774232,53.572036],[-9.774221,53.571766],[-9.775126,53.571753],[-9.775137,53.572022],[-9.77559,53.572016],[-9.775601,53.572285],[-9.774696,53.572299],[-9.774685,53.572029],[-9.774232,53.572036]],[[-9.775613,53.572555],[-9.775601,53.572285],[-9.776054,53.572278],[-9.776065,53.572548],[-9.775613,53.572555]],[[-9.774775,53.574185],[-9.774764,53.573915],[-9.775216,53.573909],[-9.775228,53.574178],[-9.774775,53.574185]],[[-9.771529,53.56156],[-9.771518,53.561291],[-9.77197,53.561284],[-9.771981,53.561553],[-9.771529,53.56156]],[[-9.770838,53.566693],[-9.770826,53.566424],[-9.771279,53.566417],[-9.77129,53.566687],[-9.770838,53.566693]],[[-9.772196,53.566673],[-9.772207,53.566943],[-9.771754,53.56695],[-9.771743,53.56668],[-9.772196,53.566673]],[[-9.772218,53.567212],[-9.772207,53.566943],[-9.772659,53.566936],[-9.772671,53.567206],[-9.772218,53.567212]],[[-9.771425,53.56992],[-9.771414,53.569651],[-9.771867,53.569644],[-9.771878,53.569914],[-9.771425,53.56992]],[[-9.769626,53.570217],[-9.769637,53.570486],[-9.768732,53.5705],[-9.76872,53.57023],[-9.767815,53.570243],[-9.767804,53.569974],[-9.769162,53.569954],[-9.769173,53.570223],[-9.769626,53.570217]],[[-9.771459,53.570729],[-9.771912,53.570722],[-9.771923,53.570992],[-9.77147,53.570998],[-9.771459,53.570729]],[[-9.768878,53.574003],[-9.769331,53.573996],[-9.769342,53.574265],[-9.768889,53.574272],[-9.768878,53.574003]],[[-9.771175,53.574778],[-9.771164,53.574508],[-9.771617,53.574501],[-9.771628,53.574771],[-9.771175,53.574778]]],[[[-9.768615,53.575194],[-9.768633,53.575624],[-9.768945,53.575619],[-9.768923,53.575081],[-9.768912,53.574811],[-9.768459,53.574818],[-9.768448,53.574548],[-9.768154,53.574553],[-9.768107,53.574671],[-9.768129,53.574892],[-9.768152,53.575124],[-9.768144,53.575201],[-9.768615,53.575194]]],[[[-9.769304,53.560239],[-9.769255,53.560246],[-9.770115,53.560233],[-9.770104,53.559963],[-9.770278,53.559961],[-9.770274,53.559957],[-9.77028,53.559906],[-9.770286,53.559863],[-9.770239,53.559854],[-9.770212,53.55985],[-9.770176,53.55986],[-9.770097,53.559882],[-9.77006,53.5599],[-9.770022,53.559918],[-9.77001,53.55993],[-9.769999,53.559942],[-9.769998,53.559945],[-9.769989,53.559976],[-9.769979,53.560017],[-9.769966,53.560072],[-9.769961,53.560093],[-9.76995,53.560138],[-9.769927,53.560159],[-9.769885,53.560166],[-9.769836,53.56015],[-9.769706,53.56014],[-9.76956,53.560129],[-9.769504,53.560148],[-9.769469,53.560159],[-9.76941,53.560191],[-9.769362,53.560216],[-9.769304,53.560239]]],[[[-9.77047,53.559947],[-9.770442,53.559958],[-9.770986,53.55995],[-9.770914,53.559919],[-9.770897,53.559913],[-9.77084,53.559892],[-9.770775,53.559902],[-9.770745,53.559904],[-9.770637,53.559921],[-9.77047,53.559947]]],[[[-9.795075,53.569388],[-9.794955,53.569337],[-9.794965,53.569569],[-9.794977,53.569839],[-9.795369,53.569833],[-9.795358,53.569826],[-9.795328,53.569749],[-9.795248,53.569552],[-9.795199,53.569483],[-9.795151,53.569432],[-9.795075,53.569388]]],[[[-9.795472,53.569891],[-9.795431,53.569872],[-9.795441,53.570102],[-9.794988,53.570108],[-9.795,53.570378],[-9.794636,53.570383],[-9.794649,53.570389],[-9.79486,53.570467],[-9.794904,53.570497],[-9.794911,53.570512],[-9.794901,53.57054],[-9.794901,53.570549],[-9.79493,53.570559],[-9.795013,53.570559],[-9.795064,53.570554],[-9.795146,53.570517],[-9.79531,53.570438],[-9.795346,53.570419],[-9.79545,53.570403],[-9.795522,53.570391],[-9.795562,53.570378],[-9.795583,53.570354],[-9.79561,53.570292],[-9.79562,53.570268],[-9.795606,53.570251],[-9.795566,53.570239],[-9.795515,53.570245],[-9.795479,53.570244],[-9.795464,53.570226],[-9.795467,53.570198],[-9.795488,53.570155],[-9.795562,53.570062],[-9.795586,53.57003],[-9.795593,53.569991],[-9.79557,53.569921],[-9.795472,53.569891]]],[[[-9.790951,53.573187],[-9.791041,53.573182],[-9.791028,53.572864],[-9.790764,53.572868],[-9.790801,53.572893],[-9.790816,53.572932],[-9.79081,53.572977],[-9.790786,53.573052],[-9.790794,53.573104],[-9.790816,53.573136],[-9.790862,53.573169],[-9.790951,53.573187]]],[[[-9.78714,53.572938],[-9.787156,53.572922],[-9.786501,53.572932],[-9.786512,53.573201],[-9.78574,53.573213],[-9.785747,53.573215],[-9.785935,53.57324],[-9.786028,53.573263],[-9.78613,53.573253],[-9.786329,53.57326],[-9.7865,53.573234],[-9.786619,53.573197],[-9.786788,53.573109],[-9.786897,53.573079],[-9.78695,53.573043],[-9.787014,53.573001],[-9.787078,53.57295],[-9.78714,53.572938]]],[[[-9.785013,53.57296],[-9.785047,53.572954],[-9.784927,53.572955],[-9.78494,53.572966],[-9.785013,53.57296]]],[[[-9.784245,53.572969],[-9.784244,53.572965],[-9.784237,53.572966],[-9.78426,53.573505],[-9.784418,53.573502],[-9.784416,53.573499],[-9.784404,53.573465],[-9.784407,53.573428],[-9.784427,53.573368],[-9.78443,53.573321],[-9.78441,53.573252],[-9.784346,53.573102],[-9.784245,53.572969]]],[[[-9.784845,53.57364],[-9.784717,53.573615],[-9.784724,53.573767],[-9.785172,53.573761],[-9.785129,53.573739],[-9.784947,53.573661],[-9.784845,53.57364]]],[[[-9.785308,53.573828],[-9.785177,53.573763],[-9.785188,53.57403],[-9.784735,53.574037],[-9.784746,53.574306],[-9.784747,53.574328],[-9.784841,53.574297],[-9.784913,53.574279],[-9.785029,53.574274],[-9.785097,53.574273],[-9.785162,53.574245],[-9.785279,53.574138],[-9.785357,53.574069],[-9.785392,53.574023],[-9.785402,53.573987],[-9.785409,53.573954],[-9.785401,53.573924],[-9.785386,53.573892],[-9.785308,53.573828]]],[[[-9.778567,53.578188],[-9.778944,53.577898],[-9.778555,53.577904],[-9.778566,53.578173],[-9.778549,53.578173],[-9.77855,53.578199],[-9.778567,53.578188]]],[[[-9.777807,53.578216],[-9.777804,53.578184],[-9.777406,53.57819],[-9.777406,53.578193],[-9.777452,53.578285],[-9.777481,53.578321],[-9.777528,53.578334],[-9.777619,53.578325],[-9.777694,53.5783],[-9.777776,53.578257],[-9.777807,53.578216]]],[[[-9.776273,53.577776],[-9.774473,53.577803],[-9.77448,53.577964],[-9.776744,53.577931],[-9.776733,53.577661],[-9.776268,53.577668],[-9.776273,53.577776]]],[[[-9.767627,53.576599],[-9.767676,53.576608],[-9.768172,53.576701],[-9.768646,53.576774],[-9.768682,53.576779],[-9.768653,53.576092],[-9.768059,53.576101],[-9.768062,53.576172],[-9.767853,53.576175],[-9.767623,53.5765],[-9.767627,53.576599]]],[[[-9.774843,53.575802],[-9.776201,53.575782],[-9.77619,53.575512],[-9.774831,53.575532],[-9.774843,53.575802]]],[[[-9.768619,53.567805],[-9.769525,53.567791],[-9.769513,53.567522],[-9.769502,53.567253],[-9.769049,53.567259],[-9.769038,53.56699],[-9.766322,53.56703],[-9.766333,53.567299],[-9.766786,53.567293],[-9.766797,53.567562],[-9.768608,53.567535],[-9.768619,53.567805]]]]}}]}
