{"type":"FeatureCollection","features":[{"type":"Feature","properties":{"source_fid":985923,"county":"Cork","bog_geom_ha":138.32920366017922,"low15_pct":78.697068403908801,"low15_ha":108.86102802703356,"overlay_ha":108.85649352631586,"area_delta":-0.0045345007176962326},"geometry":{"type":"MultiPolygon","coordinates":[[[[-9.248778,52.226492],[-9.248723,52.226537],[-9.248695,52.226556],[-9.248576,52.226625],[-9.248429,52.226717],[-9.247974,52.227016],[-9.247619,52.227256],[-9.247553,52.227352],[-9.247473,52.227439],[-9.247404,52.227542],[-9.247289,52.22763],[-9.247162,52.227731],[-9.247082,52.227783],[-9.246925,52.227817],[-9.246878,52.227868],[-9.246808,52.22793],[-9.246725,52.227951],[-9.246727,52.228044],[-9.247166,52.228039],[-9.247159,52.22777],[-9.247598,52.227765],[-9.24759,52.227495],[-9.248029,52.227491],[-9.248022,52.227221],[-9.248461,52.227216],[-9.248468,52.227486],[-9.248476,52.227756],[-9.248037,52.22776],[-9.248045,52.22803],[-9.247606,52.228035],[-9.247613,52.228304],[-9.247174,52.228309],[-9.247182,52.228578],[-9.246743,52.228583],[-9.24675,52.228853],[-9.246758,52.229122],[-9.246319,52.229127],[-9.246326,52.229396],[-9.245448,52.229406],[-9.245456,52.229675],[-9.245017,52.22968],[-9.245024,52.229949],[-9.244835,52.229951],[-9.244843,52.23026],[-9.244594,52.230263],[-9.2446,52.230493],[-9.244161,52.230498],[-9.244169,52.230768],[-9.24373,52.230772],[-9.243737,52.231042],[-9.243402,52.231045],[-9.243439,52.232393],[-9.243775,52.23239],[-9.243767,52.23212],[-9.244645,52.232111],[-9.244638,52.231841],[-9.245516,52.231832],[-9.245508,52.231562],[-9.245948,52.231558],[-9.24594,52.231288],[-9.246818,52.231279],[-9.246811,52.231009],[-9.247689,52.231],[-9.247696,52.23127],[-9.249452,52.231251],[-9.249445,52.230981],[-9.251201,52.230963],[-9.251194,52.230693],[-9.253828,52.230665],[-9.25382,52.230396],[-9.255576,52.230377],[-9.255584,52.230647],[-9.254706,52.230656],[-9.254714,52.230926],[-9.252957,52.230944],[-9.252965,52.231214],[-9.252526,52.231218],[-9.252533,52.231488],[-9.251655,52.231497],[-9.251663,52.231767],[-9.250785,52.231776],[-9.250792,52.232046],[-9.249914,52.232055],[-9.249922,52.232325],[-9.249044,52.232334],[-9.249051,52.232604],[-9.248173,52.232613],[-9.248181,52.232883],[-9.247302,52.232892],[-9.24731,52.233161],[-9.246871,52.233166],[-9.246879,52.233436],[-9.245561,52.23345],[-9.245569,52.233719],[-9.24513,52.233724],[-9.245137,52.233993],[-9.244698,52.233998],[-9.244706,52.234268],[-9.243828,52.234277],[-9.243835,52.234547],[-9.242957,52.234556],[-9.242964,52.234825],[-9.242525,52.23483],[-9.242533,52.2351],[-9.241655,52.235109],[-9.241662,52.235378],[-9.240784,52.235388],[-9.240791,52.235657],[-9.240352,52.235662],[-9.24036,52.235948],[-9.240442,52.235985],[-9.24055,52.236059],[-9.240679,52.236094],[-9.240733,52.236123],[-9.241066,52.23619],[-9.241541,52.236291],[-9.242202,52.236444],[-9.242922,52.236602],[-9.243169,52.236632],[-9.243397,52.23658],[-9.243796,52.236505],[-9.244052,52.236461],[-9.24444,52.236383],[-9.244472,52.236376],[-9.244804,52.236308],[-9.245263,52.23622],[-9.24553,52.236169],[-9.24585,52.236107],[-9.245999,52.236074],[-9.24679,52.23592],[-9.247251,52.23583],[-9.248231,52.235634],[-9.248241,52.235641],[-9.248429,52.235787],[-9.24855,52.235891],[-9.248728,52.236069],[-9.249148,52.236399],[-9.249336,52.236569],[-9.249573,52.236763],[-9.249675,52.236872],[-9.249942,52.237101],[-9.250089,52.237227],[-9.250259,52.237377],[-9.250466,52.237569],[-9.250677,52.237767],[-9.250899,52.237962],[-9.250913,52.237977],[-9.250959,52.237977],[-9.250952,52.237707],[-9.251391,52.237703],[-9.251383,52.237433],[-9.251822,52.237428],[-9.251815,52.237159],[-9.252693,52.23715],[-9.252685,52.23688],[-9.252678,52.23661],[-9.253117,52.236606],[-9.253109,52.236336],[-9.253548,52.236331],[-9.253541,52.236062],[-9.25398,52.236057],[-9.253972,52.235788],[-9.254411,52.235783],[-9.254404,52.235513],[-9.254843,52.235509],[-9.254835,52.235239],[-9.256153,52.235225],[-9.256145,52.234955],[-9.256584,52.234951],[-9.256592,52.23522],[-9.256599,52.23549],[-9.25616,52.235495],[-9.256168,52.235764],[-9.255729,52.235769],[-9.255736,52.236039],[-9.255744,52.236308],[-9.255305,52.236313],[-9.255312,52.236582],[-9.254873,52.236587],[-9.254881,52.236857],[-9.254442,52.236861],[-9.254449,52.237131],[-9.254457,52.237401],[-9.254018,52.237405],[-9.254025,52.237675],[-9.254033,52.237944],[-9.253155,52.237954],[-9.253162,52.238223],[-9.252723,52.238228],[-9.252731,52.238498],[-9.25317,52.238493],[-9.253178,52.238762],[-9.254934,52.238744],[-9.254926,52.238474],[-9.255805,52.238465],[-9.255797,52.238195],[-9.25579,52.237926],[-9.256229,52.237921],[-9.256221,52.237651],[-9.25666,52.237647],[-9.256653,52.237377],[-9.257531,52.237368],[-9.257523,52.237098],[-9.258401,52.237089],[-9.258394,52.236819],[-9.259272,52.23681],[-9.259264,52.23654],[-9.259657,52.236536],[-9.259653,52.236394],[-9.259699,52.236394],[-9.259696,52.236266],[-9.259688,52.235996],[-9.260127,52.235992],[-9.260112,52.235453],[-9.259234,52.235462],[-9.259226,52.235192],[-9.259665,52.235188],[-9.259658,52.234918],[-9.260097,52.234913],[-9.260074,52.234105],[-9.260513,52.2341],[-9.260505,52.23383],[-9.260647,52.233829],[-9.260632,52.233798],[-9.260506,52.233559],[-9.260384,52.23331],[-9.260269,52.233068],[-9.260124,52.232732],[-9.260044,52.232589],[-9.259796,52.232087],[-9.259507,52.231564],[-9.259424,52.231304],[-9.259347,52.23106],[-9.259257,52.230792],[-9.259136,52.23047],[-9.258793,52.230145],[-9.25875,52.230101],[-9.258712,52.230062],[-9.258544,52.229892],[-9.258055,52.229432],[-9.257778,52.229159],[-9.257736,52.229117],[-9.2576,52.228982],[-9.257586,52.228968],[-9.257448,52.228831],[-9.256893,52.228289],[-9.256283,52.22769],[-9.255717,52.227141],[-9.255715,52.227139],[-9.255485,52.227142],[-9.255479,52.226909],[-9.255239,52.226675],[-9.255114,52.226555],[-9.254911,52.226354],[-9.254398,52.22585],[-9.25412,52.225589],[-9.253859,52.22533],[-9.25352,52.224994],[-9.25343,52.224905],[-9.253275,52.224738],[-9.253222,52.224739],[-9.25322,52.22468],[-9.253113,52.224564],[-9.252658,52.224116],[-9.252575,52.224182],[-9.25245,52.224285],[-9.252265,52.224426],[-9.252143,52.224529],[-9.252007,52.224642],[-9.251904,52.224716],[-9.251905,52.224753],[-9.251863,52.224753],[-9.251785,52.224828],[-9.251667,52.224904],[-9.251557,52.224996],[-9.251444,52.225038],[-9.251089,52.225288],[-9.251049,52.225305],[-9.251015,52.225341],[-9.250952,52.225375],[-9.250944,52.225391],[-9.250889,52.225426],[-9.250698,52.225541],[-9.250643,52.225555],[-9.250601,52.225585],[-9.250571,52.225599],[-9.250473,52.225658],[-9.250393,52.225709],[-9.250178,52.225821],[-9.250179,52.22585],[-9.250123,52.22585],[-9.24999,52.22592],[-9.249922,52.225962],[-9.249839,52.225989],[-9.249785,52.226007],[-9.249745,52.226025],[-9.249748,52.226124],[-9.249499,52.226127],[-9.249421,52.226156],[-9.2494,52.22616],[-9.249271,52.226178],[-9.249245,52.226244],[-9.249226,52.226253],[-9.249165,52.22629],[-9.249046,52.226343],[-9.248996,52.226369],[-9.248927,52.226401],[-9.248855,52.226438],[-9.248778,52.226492]],[[-9.258795,52.235467],[-9.259234,52.235462],[-9.259241,52.235732],[-9.258802,52.235736],[-9.258795,52.235467]]],[[[-9.261651,52.23521],[-9.261621,52.235167],[-9.261422,52.235169],[-9.261428,52.235382],[-9.261473,52.235347],[-9.261506,52.235265],[-9.261558,52.235237],[-9.261651,52.23521]]],[[[-9.261177,52.235541],[-9.261207,52.235441],[-9.26099,52.235443],[-9.260999,52.235756],[-9.261015,52.235736],[-9.261055,52.235633],[-9.261074,52.235614],[-9.261133,52.235591],[-9.261177,52.235541]]],[[[-9.260776,52.235993],[-9.260786,52.235985],[-9.260566,52.235987],[-9.260574,52.236257],[-9.260739,52.236255],[-9.260734,52.23619],[-9.260711,52.236165],[-9.260706,52.236094],[-9.260721,52.236055],[-9.260776,52.235993]]],[[[-9.258238,52.238119],[-9.258232,52.2379],[-9.257985,52.237902],[-9.257991,52.238116],[-9.258,52.238113],[-9.258052,52.238108],[-9.258116,52.23812],[-9.258176,52.238131],[-9.258238,52.238119]]],[[[-9.257796,52.238183],[-9.257822,52.238174],[-9.257115,52.238181],[-9.257122,52.238451],[-9.25713,52.23872],[-9.257157,52.23872],[-9.257172,52.238711],[-9.25719,52.238684],[-9.257231,52.238658],[-9.257223,52.238638],[-9.257159,52.238611],[-9.25714,52.238592],[-9.257144,52.238563],[-9.257184,52.238526],[-9.257244,52.238475],[-9.25731,52.238445],[-9.257392,52.238434],[-9.257467,52.238413],[-9.257522,52.238369],[-9.257537,52.238342],[-9.25757,52.238298],[-9.25764,52.238252],[-9.257666,52.238238],[-9.257755,52.238208],[-9.257796,52.238183]]],[[[-9.257034,52.238776],[-9.25713,52.238734],[-9.25713,52.23872],[-9.256691,52.238725],[-9.256698,52.238995],[-9.256702,52.239122],[-9.256942,52.239119],[-9.256941,52.239106],[-9.256941,52.239062],[-9.256996,52.239025],[-9.257003,52.238986],[-9.256988,52.23897],[-9.256969,52.23895],[-9.256961,52.238847],[-9.256968,52.23882],[-9.256994,52.238797],[-9.257034,52.238776]]],[[[-9.255339,52.239136],[-9.255384,52.239136],[-9.255381,52.239009],[-9.254942,52.239013],[-9.254949,52.239283],[-9.254071,52.239292],[-9.254079,52.239562],[-9.253639,52.239567],[-9.253655,52.240106],[-9.253133,52.240111],[-9.253315,52.24029],[-9.253635,52.240638],[-9.253671,52.240682],[-9.25367,52.240645],[-9.253918,52.240642],[-9.253901,52.24005],[-9.255364,52.240035],[-9.255339,52.239136]]],[[[-9.252697,52.239709],[-9.252767,52.239774],[-9.252761,52.239576],[-9.252573,52.239578],[-9.252623,52.239631],[-9.252633,52.239641],[-9.252697,52.239709]]],[[[-9.239355,52.235482],[-9.239471,52.235555],[-9.239467,52.235401],[-9.239906,52.235397],[-9.239898,52.235127],[-9.240337,52.235123],[-9.24033,52.234853],[-9.241208,52.234844],[-9.241207,52.234792],[-9.239116,52.234814],[-9.239131,52.235361],[-9.23914,52.235364],[-9.239355,52.235482]]],[[[-9.242017,52.233885],[-9.242029,52.234296],[-9.24251,52.234291],[-9.242503,52.234021],[-9.242499,52.23388],[-9.242017,52.233885]]],[[[-9.244807,52.228971],[-9.244812,52.229143],[-9.245001,52.229141],[-9.244994,52.228871],[-9.24495,52.228872],[-9.244906,52.228924],[-9.244828,52.228967],[-9.244807,52.228971]]],[[[-9.245087,52.228765],[-9.244993,52.22883],[-9.244994,52.228871],[-9.245433,52.228866],[-9.245425,52.228597],[-9.245305,52.228598],[-9.245229,52.228646],[-9.245087,52.228765]]],[[[-9.245494,52.228516],[-9.245424,52.228539],[-9.245425,52.228597],[-9.246304,52.228588],[-9.246296,52.228318],[-9.245937,52.228322],[-9.245821,52.228396],[-9.245626,52.228486],[-9.245494,52.228516]]],[[[-9.246379,52.228093],[-9.246291,52.228144],[-9.246296,52.228318],[-9.246735,52.228313],[-9.246727,52.228044],[-9.246457,52.228047],[-9.246379,52.228093]]],[[[-9.237418,52.235213],[-9.237455,52.235226],[-9.237501,52.235213],[-9.2376,52.235166],[-9.237661,52.235132],[-9.237652,52.23483],[-9.236513,52.234841],[-9.236498,52.23485],[-9.236587,52.23488],[-9.236732,52.234937],[-9.237279,52.235167],[-9.237418,52.235213]]],[[[-9.259697,52.237532],[-9.259732,52.237533],[-9.259768,52.237534],[-9.25982,52.237531],[-9.259866,52.237514],[-9.259936,52.237487],[-9.260032,52.23745],[-9.260048,52.237434],[-9.260054,52.237428],[-9.260058,52.237426],[-9.260117,52.237402],[-9.260126,52.237397],[-9.260139,52.237388],[-9.260143,52.237333],[-9.260161,52.237304],[-9.260164,52.237298],[-9.260164,52.237288],[-9.259725,52.237292],[-9.259726,52.237344],[-9.25968,52.237345],[-9.259685,52.237533],[-9.259697,52.237532]]],[[[-9.255389,52.240896],[-9.25539,52.240933],[-9.256158,52.240925],[-9.256186,52.24092],[-9.256209,52.240916],[-9.256275,52.240904],[-9.256313,52.240891],[-9.256312,52.240887],[-9.256327,52.240886],[-9.256394,52.240864],[-9.25645,52.240827],[-9.256479,52.2408],[-9.256479,52.240777],[-9.256479,52.240772],[-9.256477,52.240761],[-9.256471,52.240729],[-9.256484,52.24062],[-9.256505,52.240448],[-9.25653,52.240294],[-9.256559,52.240177],[-9.256565,52.24015],[-9.256643,52.240076],[-9.256647,52.240074],[-9.25629,52.240078],[-9.256297,52.240347],[-9.255858,52.240352],[-9.255866,52.240622],[-9.255873,52.240891],[-9.255389,52.240896]]],[[[-9.255364,52.240035],[-9.255366,52.240088],[-9.255411,52.240087],[-9.25541,52.240034],[-9.255364,52.240035]]]]}}]}
